{"type":"FeatureCollection","frame":"2026-10-02T02","site_count":20,"fresh_count":20,"failures":{},"features":[{"type":"Feature","geometry":{"type":"Point","coordinates":[-77.0073,36.984]},"properties":{"site":"KAKQ","name":"Wakefield VA","scan_time":"2026-10-02T02:02:55Z","stale":false,"bins":25,"density_birds_km3":3.82625,"heading_deg":40.45052307005741,"speed_ms":8.979964064031362,"peak_altitude_m":0.0,"u_ms":5.125637046716759,"v_ms":6.273526625285855}},{"type":"Feature","geometry":{"type":"Point","coordinates":[-71.1369,41.9558]},"properties":{"site":"KBOX","name":"Boston MA","scan_time":"2026-10-02T01:57:51Z","stale":false,"bins":25,"density_birds_km3":2.203125,"heading_deg":42.01081194365874,"speed_ms":10.795743473325766,"peak_altitude_m":0.0,"u_ms":7.829125993189557,"v_ms":6.788566969353007}},{"type":"Feature","geometry":{"type":"Point","coordinates":[-78.7369,42.9489]},"properties":{"site":"KBUF","name":"Buffalo NY","scan_time":"2026-10-02T02:01:39Z","stale":false,"bins":25,"density_birds_km3":1.0539999999999998,"heading_deg":44.83815646271243,"speed_ms":10.630621433100822,"peak_altitude_m":200.0,"u_ms":7.585155358275205,"v_ms":7.346188966391883}},{"type":"Feature","geometry":{"type":"Point","coordinates":[-81.8597,41.4131]},"properties":{"site":"KCLE","name":"Cleveland OH","scan_time":"2026-10-02T01:59:09Z","stale":false,"bins":25,"density_birds_km3":3.305333333333333,"heading_deg":42.82539814577934,"speed_ms":12.228153380423814,"peak_altitude_m":200.0,"u_ms":8.43081533804238,"v_ms":8.758730575176589}},{"type":"Feature","geometry":{"type":"Point","coordinates":[-81.0423,32.6555]},"properties":{"site":"KCLX","name":"Charleston SC","scan_time":"2026-10-02T01:59:26Z","stale":false,"bins":25,"density_birds_km3":16.700625,"heading_deg":262.011078796993,"speed_ms":5.995251122754492,"peak_altitude_m":0.0,"u_ms":-5.453607784431138,"v_ms":-0.7894131736526947}},{"type":"Feature","geometry":{"type":"Point","coordinates":[-74.4108,39.947]},"properties":{"site":"KDIX","name":"Philadelphia PA","scan_time":"2026-10-02T01:58:52Z","stale":false,"bins":25,"density_birds_km3":5.103125,"heading_deg":40.48396291527819,"speed_ms":9.79279975505205,"peak_altitude_m":0.0,"u_ms":6.473515003061849,"v_ms":6.923121861604409}},{"type":"Feature","geometry":{"type":"Point","coordinates":[-84.5658,33.3636]},"properties":{"site":"KFFC","name":"Atlanta GA","scan_time":"2026-10-02T02:00:41Z","stale":false,"bins":25,"density_birds_km3":13.74,"heading_deg":304.13182071168035,"speed_ms":8.176984473556526,"peak_altitude_m":400.0,"u_ms":-6.618774381368268,"v_ms":4.536386705482776}},{"type":"Feature","geometry":{"type":"Point","coordinates":[-85.5449,42.8939]},"properties":{"site":"KGRR","name":"Grand Rapids MI","scan_time":"2026-10-02T02:01:52Z","stale":false,"bins":25,"density_birds_km3":27.495,"heading_deg":null,"speed_ms":null,"peak_altitude_m":400.0,"u_ms":null,"v_ms":null}},{"type":"Feature","geometry":{"type":"Point","coordinates":[-83.8217,39.4203]},"properties":{"site":"KILN","name":"Wilmington OH","scan_time":"2026-10-02T02:01:37Z","stale":false,"bins":25,"density_birds_km3":5.755333333333334,"heading_deg":39.94012056895051,"speed_ms":12.33308142940832,"peak_altitude_m":400.0,"u_ms":8.008912712360868,"v_ms":9.184125366139426}},{"type":"Feature","geometry":{"type":"Point","coordinates":[-81.7019,30.4846]},"properties":{"site":"KJAX","name":"Jacksonville FL","scan_time":"2026-10-02T02:01:49Z","stale":false,"bins":25,"density_birds_km3":20.64875,"heading_deg":213.96984768092958,"speed_ms":8.164638370016046,"peak_altitude_m":0.0,"u_ms":-4.40588023371984,"v_ms":-6.508326420635161}},{"type":"Feature","geometry":{"type":"Point","coordinates":[-88.0847,41.6045]},"properties":{"site":"KLOT","name":"Chicago IL","scan_time":"2026-10-02T01:59:06Z","stale":false,"bins":25,"density_birds_km3":131.5025,"heading_deg":null,"speed_ms":null,"peak_altitude_m":400.0,"u_ms":null,"v_ms":null}},{"type":"Feature","geometry":{"type":"Point","coordinates":[-78.4292,33.9892]},"properties":{"site":"KLTX","name":"Wilmington NC","scan_time":"2026-10-02T02:02:04Z","stale":false,"bins":25,"density_birds_km3":10.895,"heading_deg":267.191030322747,"speed_ms":5.310662076878944,"peak_altitude_m":0.0,"u_ms":-4.611812966150316,"v_ms":-0.09009695926563402}},{"type":"Feature","geometry":{"type":"Point","coordinates":[-77.4778,38.9753]},"properties":{"site":"KLWX","name":"Sterling VA","scan_time":"2026-10-02T02:01:25Z","stale":false,"bins":25,"density_birds_km3":11.349375,"heading_deg":34.63162351023463,"speed_ms":11.892245167685445,"peak_altitude_m":200.0,"u_ms":5.577094002973732,"v_ms":7.21726912274905}},{"type":"Feature","geometry":{"type":"Point","coordinates":[-76.8762,34.7759]},"properties":{"site":"KMHX","name":"Morehead City NC","scan_time":"2026-10-02T02:02:30Z","stale":false,"bins":25,"density_birds_km3":4.219375,"heading_deg":334.81872250708193,"speed_ms":4.854834074074074,"peak_altitude_m":0.0,"u_ms":-1.5172192592592593,"v_ms":3.2344088888888893}},{"type":"Feature","geometry":{"type":"Point","coordinates":[-80.6542,28.1133]},"properties":{"site":"KMLB","name":"Melbourne FL","scan_time":"2026-10-02T01:57:33Z","stale":false,"bins":25,"density_birds_km3":3.448125,"heading_deg":245.67905783708946,"speed_ms":6.357540329889432,"peak_altitude_m":0.0,"u_ms":-5.370266449157151,"v_ms":-2.2327551205365235}},{"type":"Feature","geometry":{"type":"Point","coordinates":[-86.5625,36.2472]},"properties":{"site":"KOHX","name":"Nashville TN","scan_time":"2026-10-02T01:58:08Z","stale":false,"bins":25,"density_birds_km3":5.506666666666666,"heading_deg":11.455644587307148,"speed_ms":11.398824455205812,"peak_altitude_m":400.0,"u_ms":2.254577481840194,"v_ms":11.109483050847459}},{"type":"Feature","geometry":{"type":"Point","coordinates":[-72.8639,40.8655]},"properties":{"site":"KOKX","name":"Upton NY","scan_time":"2026-10-02T02:01:49Z","stale":false,"bins":25,"density_birds_km3":1.42375,"heading_deg":52.004180838586336,"speed_ms":12.580320930232558,"peak_altitude_m":0.0,"u_ms":9.872655813953488,"v_ms":7.522255813953488}},{"type":"Feature","geometry":{"type":"Point","coordinates":[-80.2183,40.5317]},"properties":{"site":"KPBZ","name":"Pittsburgh PA","scan_time":"2026-10-02T02:02:41Z","stale":false,"bins":25,"density_birds_km3":2.302142857142857,"heading_deg":47.017732664122484,"speed_ms":14.855955927995035,"peak_altitude_m":400.0,"u_ms":10.845586592178773,"v_ms":9.95653010552452}},{"type":"Feature","geometry":{"type":"Point","coordinates":[-78.4899,35.6655]},"properties":{"site":"KRAX","name":"Raleigh NC","scan_time":"2026-10-02T01:58:28Z","stale":false,"bins":25,"density_birds_km3":7.11,"heading_deg":23.12165753679488,"speed_ms":6.593594961240311,"peak_altitude_m":200.0,"u_ms":2.247264799154334,"v_ms":5.707382840028189}},{"type":"Feature","geometry":{"type":"Point","coordinates":[-82.4017,27.7055]},"properties":{"site":"KTBW","name":"Tampa FL","scan_time":"2026-10-02T01:58:56Z","stale":false,"bins":25,"density_birds_km3":6.040625,"heading_deg":280.3463332006901,"speed_ms":6.0971595612582785,"peak_altitude_m":0.0,"u_ms":-5.631446605960265,"v_ms":1.3781581125827815}}]}