{"type":"FeatureCollection","frame":"2026-09-11T02","site_count":20,"fresh_count":20,"failures":{},"features":[{"type":"Feature","geometry":{"type":"Point","coordinates":[-77.0073,36.984]},"properties":{"site":"KAKQ","name":"Wakefield VA","scan_time":"2026-09-11T01:58:44Z","stale":false,"bins":25,"density_birds_km3":16.414375,"heading_deg":147.74060112312625,"speed_ms":4.5573585983622165,"peak_altitude_m":0.0,"u_ms":2.2227674728623117,"v_ms":-1.594489049704818}},{"type":"Feature","geometry":{"type":"Point","coordinates":[-71.1369,41.9558]},"properties":{"site":"KBOX","name":"Boston MA","scan_time":"2026-09-11T01:57:07Z","stale":false,"bins":25,"density_birds_km3":3.7075,"heading_deg":123.124871402085,"speed_ms":11.072350362502107,"peak_altitude_m":0.0,"u_ms":9.377330972854493,"v_ms":-5.803141122913505}},{"type":"Feature","geometry":{"type":"Point","coordinates":[-78.7369,42.9489]},"properties":{"site":"KBUF","name":"Buffalo NY","scan_time":"2026-09-11T01:57:44Z","stale":false,"bins":25,"density_birds_km3":39.644,"heading_deg":178.8731895328133,"speed_ms":10.0963516967679,"peak_altitude_m":400.0,"u_ms":0.26966703662597113,"v_ms":-10.0117076985168}},{"type":"Feature","geometry":{"type":"Point","coordinates":[-81.8597,41.4131]},"properties":{"site":"KCLE","name":"Cleveland OH","scan_time":"2026-09-11T02:01:06Z","stale":false,"bins":25,"density_birds_km3":15.681333333333333,"heading_deg":145.30273815413832,"speed_ms":8.419047619047621,"peak_altitude_m":600.0,"u_ms":4.714203346203346,"v_ms":-6.860287001287002}},{"type":"Feature","geometry":{"type":"Point","coordinates":[-81.0423,32.6555]},"properties":{"site":"KCLX","name":"Charleston SC","scan_time":"2026-09-11T01:58:38Z","stale":false,"bins":25,"density_birds_km3":2.326875,"heading_deg":3.4591679137109335,"speed_ms":7.239271773958636,"peak_altitude_m":0.0,"u_ms":0.5078153218759102,"v_ms":5.0962802213807175}},{"type":"Feature","geometry":{"type":"Point","coordinates":[-74.4108,39.947]},"properties":{"site":"KDIX","name":"Philadelphia PA","scan_time":"2026-09-11T02:00:52Z","stale":false,"bins":25,"density_birds_km3":14.291875000000001,"heading_deg":148.71671740510607,"speed_ms":7.686825090893161,"peak_altitude_m":200.0,"u_ms":3.9365784747470323,"v_ms":-6.378237329712207}},{"type":"Feature","geometry":{"type":"Point","coordinates":[-84.5658,33.3636]},"properties":{"site":"KFFC","name":"Atlanta GA","scan_time":"2026-09-11T02:00:11Z","stale":false,"bins":25,"density_birds_km3":30.930666666666664,"heading_deg":215.47138201657816,"speed_ms":2.606152254504699,"peak_altitude_m":400.0,"u_ms":-0.15741701870850938,"v_ms":-0.698669497370463}},{"type":"Feature","geometry":{"type":"Point","coordinates":[-85.5449,42.8939]},"properties":{"site":"KGRR","name":"Grand Rapids MI","scan_time":"2026-09-11T01:57:21Z","stale":false,"bins":25,"density_birds_km3":201.0366666666667,"heading_deg":181.2229927870377,"speed_ms":11.326063636815839,"peak_altitude_m":400.0,"u_ms":-0.23895564656530321,"v_ms":-11.170674503821857}},{"type":"Feature","geometry":{"type":"Point","coordinates":[-83.8217,39.4203]},"properties":{"site":"KILN","name":"Wilmington OH","scan_time":"2026-09-11T01:57:43Z","stale":false,"bins":25,"density_birds_km3":57.70466666666667,"heading_deg":199.65156251278532,"speed_ms":9.089154493086195,"peak_altitude_m":600.0,"u_ms":-3.176483954530938,"v_ms":-8.199082693604288}},{"type":"Feature","geometry":{"type":"Point","coordinates":[-81.7019,30.4846]},"properties":{"site":"KJAX","name":"Jacksonville FL","scan_time":"2026-09-11T01:59:58Z","stale":false,"bins":25,"density_birds_km3":7.242857142857143,"heading_deg":126.86325116513814,"speed_ms":1.802214899713467,"peak_altitude_m":200.0,"u_ms":1.4273237822349572,"v_ms":-1.0961031518624644}},{"type":"Feature","geometry":{"type":"Point","coordinates":[-88.0847,41.6045]},"properties":{"site":"KLOT","name":"Chicago IL","scan_time":"2026-09-11T02:03:02Z","stale":false,"bins":25,"density_birds_km3":92.00333333333333,"heading_deg":185.12262074623473,"speed_ms":8.562924314336437,"peak_altitude_m":400.0,"u_ms":0.880628962718742,"v_ms":-5.980278758016014}},{"type":"Feature","geometry":{"type":"Point","coordinates":[-78.4292,33.9892]},"properties":{"site":"KLTX","name":"Wilmington NC","scan_time":"2026-09-11T02:00:37Z","stale":false,"bins":25,"density_birds_km3":2.101875,"heading_deg":44.700330768529554,"speed_ms":7.541640625,"peak_altitude_m":200.0,"u_ms":4.660448369565217,"v_ms":4.9109273097826085}},{"type":"Feature","geometry":{"type":"Point","coordinates":[-77.4778,38.9753]},"properties":{"site":"KLWX","name":"Sterling VA","scan_time":"2026-09-11T02:01:40Z","stale":false,"bins":25,"density_birds_km3":31.009999999999998,"heading_deg":158.74534002438088,"speed_ms":8.207540743680699,"peak_altitude_m":400.0,"u_ms":2.8414647880336363,"v_ms":-7.615540396398184}},{"type":"Feature","geometry":{"type":"Point","coordinates":[-76.8762,34.7759]},"properties":{"site":"KMHX","name":"Morehead City NC","scan_time":"2026-09-11T01:57:56Z","stale":false,"bins":25,"density_birds_km3":1.055625,"heading_deg":49.42978218637791,"speed_ms":8.424033214709372,"peak_altitude_m":0.0,"u_ms":5.816773428232503,"v_ms":5.490551601423488}},{"type":"Feature","geometry":{"type":"Point","coordinates":[-80.6542,28.1133]},"properties":{"site":"KMLB","name":"Melbourne FL","scan_time":"2026-09-11T02:00:18Z","stale":false,"bins":25,"density_birds_km3":6.83375,"heading_deg":153.60649980392017,"speed_ms":2.4185348454362536,"peak_altitude_m":0.0,"u_ms":0.7555249679897567,"v_ms":-1.0750283519297605}},{"type":"Feature","geometry":{"type":"Point","coordinates":[-86.5625,36.2472]},"properties":{"site":"KOHX","name":"Nashville TN","scan_time":"2026-09-11T02:02:18Z","stale":false,"bins":25,"density_birds_km3":25.247333333333337,"heading_deg":316.2869179125278,"speed_ms":5.644433735576034,"peak_altitude_m":200.0,"u_ms":-1.166245412056719,"v_ms":1.313843310184574}},{"type":"Feature","geometry":{"type":"Point","coordinates":[-72.8639,40.8655]},"properties":{"site":"KOKX","name":"Upton NY","scan_time":"2026-09-11T01:56:53Z","stale":false,"bins":25,"density_birds_km3":9.179375,"heading_deg":128.92157705314128,"speed_ms":6.843685683089943,"peak_altitude_m":200.0,"u_ms":4.848294663573086,"v_ms":-4.30632182339293}},{"type":"Feature","geometry":{"type":"Point","coordinates":[-80.2183,40.5317]},"properties":{"site":"KPBZ","name":"Pittsburgh PA","scan_time":"2026-09-11T02:00:15Z","stale":false,"bins":25,"density_birds_km3":73.64285714285714,"heading_deg":174.79584879751795,"speed_ms":8.610975391585887,"peak_altitude_m":600.0,"u_ms":0.7743236332169837,"v_ms":-8.479499664563301}},{"type":"Feature","geometry":{"type":"Point","coordinates":[-78.4899,35.6655]},"properties":{"site":"KRAX","name":"Raleigh NC","scan_time":"2026-09-11T02:03:24Z","stale":false,"bins":25,"density_birds_km3":8.138125,"heading_deg":68.96515654520181,"speed_ms":8.700711926887335,"peak_altitude_m":200.0,"u_ms":3.8641747945626292,"v_ms":1.0272383073496663}},{"type":"Feature","geometry":{"type":"Point","coordinates":[-82.4017,27.7055]},"properties":{"site":"KTBW","name":"Tampa FL","scan_time":"2026-09-11T01:59:30Z","stale":false,"bins":25,"density_birds_km3":10.90375,"heading_deg":219.92927356037697,"speed_ms":3.970194313882838,"peak_altitude_m":0.0,"u_ms":-2.332050326722458,"v_ms":-2.8794027284191217}}]}