{"type":"FeatureCollection","frame":"2026-08-20T12","site_count":20,"fresh_count":20,"failures":{},"features":[{"type":"Feature","geometry":{"type":"Point","coordinates":[-77.0073,36.984]},"properties":{"site":"KAKQ","name":"Wakefield VA","scan_time":"2026-08-20T11:56:56Z","stale":false,"bins":25,"density_birds_km3":0.55125,"heading_deg":11.704673058759345,"speed_ms":6.604478808705612,"peak_altitude_m":0.0,"u_ms":1.3191981672394044,"v_ms":6.275418098510881}},{"type":"Feature","geometry":{"type":"Point","coordinates":[-71.1369,41.9558]},"properties":{"site":"KBOX","name":"Boston MA","scan_time":"2026-08-20T12:00:36Z","stale":false,"bins":25,"density_birds_km3":6.36875,"heading_deg":174.46583952671955,"speed_ms":5.513961727183513,"peak_altitude_m":0.0,"u_ms":0.39692051030421976,"v_ms":-5.461378802747792}},{"type":"Feature","geometry":{"type":"Point","coordinates":[-78.7369,42.9489]},"properties":{"site":"KBUF","name":"Buffalo NY","scan_time":"2026-08-20T12:01:42Z","stale":false,"bins":25,"density_birds_km3":0.9406666666666667,"heading_deg":238.7920832384859,"speed_ms":2.486534372785259,"peak_altitude_m":200.0,"u_ms":-1.9841814316087882,"v_ms":-1.212430900070872}},{"type":"Feature","geometry":{"type":"Point","coordinates":[-81.8597,41.4131]},"properties":{"site":"KCLE","name":"Cleveland OH","scan_time":"2026-08-20T11:57:22Z","stale":false,"bins":25,"density_birds_km3":1.0866666666666667,"heading_deg":249.689996100466,"speed_ms":5.07963190184049,"peak_altitude_m":200.0,"u_ms":-4.755901840490797,"v_ms":-1.5840674846625766}},{"type":"Feature","geometry":{"type":"Point","coordinates":[-81.0423,32.6555]},"properties":{"site":"KCLX","name":"Charleston SC","scan_time":"2026-08-20T12:00:57Z","stale":false,"bins":25,"density_birds_km3":6.99,"heading_deg":230.73957274281855,"speed_ms":1.0310944206008585,"peak_altitude_m":0.0,"u_ms":-0.6352136981402003,"v_ms":-0.37199391988555075}},{"type":"Feature","geometry":{"type":"Point","coordinates":[-74.4108,39.947]},"properties":{"site":"KDIX","name":"Philadelphia PA","scan_time":"2026-08-20T11:58:56Z","stale":false,"bins":25,"density_birds_km3":4.8175,"heading_deg":207.2303287510828,"speed_ms":3.741592059166991,"peak_altitude_m":200.0,"u_ms":-1.7422797456857404,"v_ms":-3.255814194887764}},{"type":"Feature","geometry":{"type":"Point","coordinates":[-84.5658,33.3636]},"properties":{"site":"KFFC","name":"Atlanta GA","scan_time":"2026-08-20T11:58:53Z","stale":false,"bins":25,"density_birds_km3":3.442,"heading_deg":142.6537797237694,"speed_ms":6.534666795815575,"peak_altitude_m":200.0,"u_ms":3.8830530802014724,"v_ms":-5.17582332429291}},{"type":"Feature","geometry":{"type":"Point","coordinates":[-85.5449,42.8939]},"properties":{"site":"KGRR","name":"Grand Rapids MI","scan_time":"2026-08-20T12:01:28Z","stale":false,"bins":25,"density_birds_km3":2.012,"heading_deg":243.98916887826917,"speed_ms":7.788814347392892,"peak_altitude_m":200.0,"u_ms":-6.856237130521422,"v_ms":-3.3483261374958486}},{"type":"Feature","geometry":{"type":"Point","coordinates":[-83.8217,39.4203]},"properties":{"site":"KILN","name":"Wilmington OH","scan_time":"2026-08-20T12:02:09Z","stale":false,"bins":25,"density_birds_km3":1.1333333333333333,"heading_deg":174.3228496114576,"speed_ms":4.003026004728133,"peak_altitude_m":200.0,"u_ms":-0.2859495665878644,"v_ms":-2.329944838455477}},{"type":"Feature","geometry":{"type":"Point","coordinates":[-81.7019,30.4846]},"properties":{"site":"KJAX","name":"Jacksonville FL","scan_time":"2026-08-20T12:00:38Z","stale":false,"bins":25,"density_birds_km3":7.49875,"heading_deg":142.22046877607193,"speed_ms":5.726864216054013,"peak_altitude_m":0.0,"u_ms":3.497153455030424,"v_ms":-4.526171542885721}},{"type":"Feature","geometry":{"type":"Point","coordinates":[-88.0847,41.6045]},"properties":{"site":"KLOT","name":"Chicago IL","scan_time":"2026-08-20T12:03:20Z","stale":false,"bins":25,"density_birds_km3":1.0413333333333334,"heading_deg":205.24581341601808,"speed_ms":8.490341055341055,"peak_altitude_m":200.0,"u_ms":-3.6920141570141563,"v_ms":-7.473095238095238}},{"type":"Feature","geometry":{"type":"Point","coordinates":[-78.4292,33.9892]},"properties":{"site":"KLTX","name":"Wilmington NC","scan_time":"2026-08-20T11:59:52Z","stale":false,"bins":25,"density_birds_km3":1.2975,"heading_deg":289.0578850595682,"speed_ms":3.384608891389983,"peak_altitude_m":0.0,"u_ms":-3.0104276871131126,"v_ms":1.0181598199212156}},{"type":"Feature","geometry":{"type":"Point","coordinates":[-77.4778,38.9753]},"properties":{"site":"KLWX","name":"Sterling VA","scan_time":"2026-08-20T11:59:34Z","stale":false,"bins":25,"density_birds_km3":4.7775,"heading_deg":262.88435602480394,"speed_ms":7.274565672422814,"peak_altitude_m":0.0,"u_ms":-7.1797946101517525,"v_ms":-0.9020408163265307}},{"type":"Feature","geometry":{"type":"Point","coordinates":[-76.8762,34.7759]},"properties":{"site":"KMHX","name":"Morehead City NC","scan_time":"2026-08-20T11:59:49Z","stale":false,"bins":25,"density_birds_km3":0.8375,"heading_deg":191.1625479389684,"speed_ms":4.104440298507463,"peak_altitude_m":1800.0,"u_ms":0.3727014925373135,"v_ms":-2.344626865671642}},{"type":"Feature","geometry":{"type":"Point","coordinates":[-80.6542,28.1133]},"properties":{"site":"KMLB","name":"Melbourne FL","scan_time":"2026-08-20T11:58:19Z","stale":false,"bins":25,"density_birds_km3":0.879375,"heading_deg":161.468428030209,"speed_ms":4.045398293029872,"peak_altitude_m":0.0,"u_ms":1.4408036984352777,"v_ms":-3.312574679943101}},{"type":"Feature","geometry":{"type":"Point","coordinates":[-86.5625,36.2472]},"properties":{"site":"KOHX","name":"Nashville TN","scan_time":"2026-08-20T12:02:50Z","stale":false,"bins":25,"density_birds_km3":null,"heading_deg":null,"speed_ms":null,"peak_altitude_m":null,"u_ms":null,"v_ms":null}},{"type":"Feature","geometry":{"type":"Point","coordinates":[-72.8639,40.8655]},"properties":{"site":"KOKX","name":"Upton NY","scan_time":"2026-08-20T12:02:43Z","stale":false,"bins":25,"density_birds_km3":10.17375,"heading_deg":186.53794314482434,"speed_ms":6.059893080988079,"peak_altitude_m":0.0,"u_ms":-0.6911466142312891,"v_ms":-5.979016222194912}},{"type":"Feature","geometry":{"type":"Point","coordinates":[-80.2183,40.5317]},"properties":{"site":"KPBZ","name":"Pittsburgh PA","scan_time":"2026-08-20T11:59:58Z","stale":false,"bins":25,"density_birds_km3":24.5,"heading_deg":null,"speed_ms":null,"peak_altitude_m":400.0,"u_ms":null,"v_ms":null}},{"type":"Feature","geometry":{"type":"Point","coordinates":[-78.4899,35.6655]},"properties":{"site":"KRAX","name":"Raleigh NC","scan_time":"2026-08-20T12:04:01Z","stale":false,"bins":25,"density_birds_km3":0.799375,"heading_deg":37.895097628654746,"speed_ms":5.453584313725489,"peak_altitude_m":0.0,"u_ms":3.198878431372549,"v_ms":2.7852627450980396}},{"type":"Feature","geometry":{"type":"Point","coordinates":[-82.4017,27.7055]},"properties":{"site":"KTBW","name":"Tampa FL","scan_time":"2026-08-20T12:02:27Z","stale":false,"bins":25,"density_birds_km3":4.114375,"heading_deg":145.93496416223658,"speed_ms":1.4580145830168616,"peak_altitude_m":200.0,"u_ms":0.46552027950782315,"v_ms":-0.6195138994379462}}]}