{"type":"FeatureCollection","frame":"2026-08-25T05","site_count":20,"fresh_count":20,"failures":{},"features":[{"type":"Feature","geometry":{"type":"Point","coordinates":[-77.0073,36.984]},"properties":{"site":"KAKQ","name":"Wakefield VA","scan_time":"2026-08-25T04:59:38Z","stale":false,"bins":25,"density_birds_km3":19.634999999999998,"heading_deg":177.10297104718106,"speed_ms":5.3274581396829435,"peak_altitude_m":200.0,"u_ms":-0.052040809830012094,"v_ms":-5.2344168205258805}},{"type":"Feature","geometry":{"type":"Point","coordinates":[-71.1369,41.9558]},"properties":{"site":"KBOX","name":"Boston MA","scan_time":"2026-08-25T04:58:37Z","stale":false,"bins":25,"density_birds_km3":1.605,"heading_deg":66.01504744055053,"speed_ms":5.620686159844054,"peak_altitude_m":0.0,"u_ms":4.908136452241715,"v_ms":2.3281091617933725}},{"type":"Feature","geometry":{"type":"Point","coordinates":[-78.7369,42.9489]},"properties":{"site":"KBUF","name":"Buffalo NY","scan_time":"2026-08-25T05:00:40Z","stale":false,"bins":25,"density_birds_km3":4.5520000000000005,"heading_deg":154.49989089598867,"speed_ms":8.237883714118336,"peak_altitude_m":600.0,"u_ms":3.413900117164616,"v_ms":-7.44470123022847}},{"type":"Feature","geometry":{"type":"Point","coordinates":[-81.8597,41.4131]},"properties":{"site":"KCLE","name":"Cleveland OH","scan_time":"2026-08-25T04:56:35Z","stale":false,"bins":25,"density_birds_km3":1.4140000000000001,"heading_deg":125.63111937955405,"speed_ms":6.368283018867925,"peak_altitude_m":200.0,"u_ms":4.70147641509434,"v_ms":-3.6505141509433963}},{"type":"Feature","geometry":{"type":"Point","coordinates":[-81.0423,32.6555]},"properties":{"site":"KCLX","name":"Charleston SC","scan_time":"2026-08-25T04:58:32Z","stale":false,"bins":25,"density_birds_km3":21.168125,"heading_deg":175.59644523769327,"speed_ms":6.08687699303177,"peak_altitude_m":600.0,"u_ms":-0.4389373449864177,"v_ms":-5.364368135112791}},{"type":"Feature","geometry":{"type":"Point","coordinates":[-74.4108,39.947]},"properties":{"site":"KDIX","name":"Philadelphia PA","scan_time":"2026-08-25T04:57:47Z","stale":false,"bins":25,"density_birds_km3":4.310625,"heading_deg":182.7436397363413,"speed_ms":10.130068165337201,"peak_altitude_m":200.0,"u_ms":-0.5136620739666424,"v_ms":-10.064973168963016}},{"type":"Feature","geometry":{"type":"Point","coordinates":[-84.5658,33.3636]},"properties":{"site":"KFFC","name":"Atlanta GA","scan_time":"2026-08-25T05:03:31Z","stale":false,"bins":25,"density_birds_km3":31.355999999999998,"heading_deg":220.6320321900729,"speed_ms":6.00030020835991,"peak_altitude_m":600.0,"u_ms":-3.7765860866607133,"v_ms":-4.505449887315559}},{"type":"Feature","geometry":{"type":"Point","coordinates":[-85.5449,42.8939]},"properties":{"site":"KGRR","name":"Grand Rapids MI","scan_time":"2026-08-25T05:01:18Z","stale":false,"bins":25,"density_birds_km3":13.410666666666666,"heading_deg":205.49022907462842,"speed_ms":12.852354081734116,"peak_altitude_m":400.0,"u_ms":-5.520898876404495,"v_ms":-11.588103808292733}},{"type":"Feature","geometry":{"type":"Point","coordinates":[-83.8217,39.4203]},"properties":{"site":"KILN","name":"Wilmington OH","scan_time":"2026-08-25T05:00:10Z","stale":false,"bins":25,"density_birds_km3":7.617999999999999,"heading_deg":170.18072453185215,"speed_ms":5.2690749978122,"peak_altitude_m":400.0,"u_ms":0.9329684081561215,"v_ms":-5.036190601207666}},{"type":"Feature","geometry":{"type":"Point","coordinates":[-81.7019,30.4846]},"properties":{"site":"KJAX","name":"Jacksonville FL","scan_time":"2026-08-25T05:00:47Z","stale":false,"bins":25,"density_birds_km3":29.769375,"heading_deg":153.7376615248724,"speed_ms":7.69185693785186,"peak_altitude_m":200.0,"u_ms":3.469524892372226,"v_ms":-6.792679103653825}},{"type":"Feature","geometry":{"type":"Point","coordinates":[-88.0847,41.6045]},"properties":{"site":"KLOT","name":"Chicago IL","scan_time":"2026-08-25T04:59:48Z","stale":false,"bins":25,"density_birds_km3":4.582666666666666,"heading_deg":253.27359137381066,"speed_ms":5.136134710503347,"peak_altitude_m":400.0,"u_ms":-3.4301556590049462,"v_ms":-1.1390165842304334}},{"type":"Feature","geometry":{"type":"Point","coordinates":[-78.4292,33.9892]},"properties":{"site":"KLTX","name":"Wilmington NC","scan_time":"2026-08-25T04:59:50Z","stale":false,"bins":25,"density_birds_km3":13.94875,"heading_deg":230.8814064384964,"speed_ms":7.03442222321869,"peak_altitude_m":600.0,"u_ms":-4.678245818573158,"v_ms":-4.840471279314829}},{"type":"Feature","geometry":{"type":"Point","coordinates":[-77.4778,38.9753]},"properties":{"site":"KLWX","name":"Sterling VA","scan_time":"2026-08-25T05:01:21Z","stale":false,"bins":25,"density_birds_km3":8.77625,"heading_deg":186.78739670430477,"speed_ms":8.62211950715761,"peak_altitude_m":200.0,"u_ms":-0.8315860693682787,"v_ms":-8.430858200982835}},{"type":"Feature","geometry":{"type":"Point","coordinates":[-76.8762,34.7759]},"properties":{"site":"KMHX","name":"Morehead City NC","scan_time":"2026-08-25T05:00:12Z","stale":false,"bins":25,"density_birds_km3":4.198125,"heading_deg":156.2260289608613,"speed_ms":7.030232246538634,"peak_altitude_m":600.0,"u_ms":2.1714024117909783,"v_ms":-5.983866309364299}},{"type":"Feature","geometry":{"type":"Point","coordinates":[-80.6542,28.1133]},"properties":{"site":"KMLB","name":"Melbourne FL","scan_time":"2026-08-25T05:01:50Z","stale":false,"bins":25,"density_birds_km3":4.3237499999999995,"heading_deg":145.32069381647486,"speed_ms":6.0291553369973965,"peak_altitude_m":0.0,"u_ms":3.2040772345964705,"v_ms":-4.995446919294186}},{"type":"Feature","geometry":{"type":"Point","coordinates":[-86.5625,36.2472]},"properties":{"site":"KOHX","name":"Nashville TN","scan_time":"2026-08-25T05:00:13Z","stale":false,"bins":25,"density_birds_km3":26.82133333333333,"heading_deg":246.26169292456322,"speed_ms":8.005993984887652,"peak_altitude_m":400.0,"u_ms":-7.117872837542255,"v_ms":-2.887912358321734}},{"type":"Feature","geometry":{"type":"Point","coordinates":[-72.8639,40.8655]},"properties":{"site":"KOKX","name":"Upton NY","scan_time":"2026-08-25T05:00:57Z","stale":false,"bins":25,"density_birds_km3":1.7025,"heading_deg":159.0183875212077,"speed_ms":6.423895007342145,"peak_altitude_m":0.0,"u_ms":2.3269897209985317,"v_ms":-5.8650807635829665}},{"type":"Feature","geometry":{"type":"Point","coordinates":[-80.2183,40.5317]},"properties":{"site":"KPBZ","name":"Pittsburgh PA","scan_time":"2026-08-25T05:03:00Z","stale":false,"bins":25,"density_birds_km3":1.7421428571428572,"heading_deg":129.1979239087793,"speed_ms":6.622124844977263,"peak_altitude_m":600.0,"u_ms":4.701818933443572,"v_ms":-4.119293096320794}},{"type":"Feature","geometry":{"type":"Point","coordinates":[-78.4899,35.6655]},"properties":{"site":"KRAX","name":"Raleigh NC","scan_time":"2026-08-25T04:58:49Z","stale":false,"bins":25,"density_birds_km3":23.045625,"heading_deg":194.81612268345773,"speed_ms":10.368903686023488,"peak_altitude_m":400.0,"u_ms":-2.5998809297784042,"v_ms":-10.025954867232635}},{"type":"Feature","geometry":{"type":"Point","coordinates":[-82.4017,27.7055]},"properties":{"site":"KTBW","name":"Tampa FL","scan_time":"2026-08-25T05:00:27Z","stale":false,"bins":25,"density_birds_km3":7.7475000000000005,"heading_deg":240.12519855319087,"speed_ms":3.3482236205227496,"peak_altitude_m":0.0,"u_ms":-0.6428549532107132,"v_ms":-2.244428041303646}}]}