{"type":"FeatureCollection","frame":"2026-08-30T11","site_count":20,"fresh_count":20,"failures":{},"features":[{"type":"Feature","geometry":{"type":"Point","coordinates":[-77.0073,36.984]},"properties":{"site":"KAKQ","name":"Wakefield VA","scan_time":"2026-08-30T11:02:02Z","stale":false,"bins":25,"density_birds_km3":1.316875,"heading_deg":248.69325675479726,"speed_ms":6.753723091976517,"peak_altitude_m":0.0,"u_ms":-5.099275929549902,"v_ms":-2.0392172211350297}},{"type":"Feature","geometry":{"type":"Point","coordinates":[-71.1369,41.9558]},"properties":{"site":"KBOX","name":"Boston MA","scan_time":"2026-08-30T10:57:56Z","stale":false,"bins":25,"density_birds_km3":1.495625,"heading_deg":75.21505909000778,"speed_ms":9.760953177257527,"peak_altitude_m":0.0,"u_ms":9.191923076923077,"v_ms":2.501952341137124}},{"type":"Feature","geometry":{"type":"Point","coordinates":[-78.7369,42.9489]},"properties":{"site":"KBUF","name":"Buffalo NY","scan_time":"2026-08-30T11:01:09Z","stale":false,"bins":25,"density_birds_km3":1.0319999999999998,"heading_deg":42.20415741365431,"speed_ms":4.997095516569201,"peak_altitude_m":200.0,"u_ms":3.27816114359974,"v_ms":3.4478882391163093}},{"type":"Feature","geometry":{"type":"Point","coordinates":[-81.8597,41.4131]},"properties":{"site":"KCLE","name":"Cleveland OH","scan_time":"2026-08-30T11:00:59Z","stale":false,"bins":25,"density_birds_km3":2.1766666666666667,"heading_deg":69.07857075263924,"speed_ms":7.329789603960395,"peak_altitude_m":200.0,"u_ms":5.693125,"v_ms":2.583762376237624}},{"type":"Feature","geometry":{"type":"Point","coordinates":[-81.0423,32.6555]},"properties":{"site":"KCLX","name":"Charleston SC","scan_time":"2026-08-30T10:58:30Z","stale":false,"bins":25,"density_birds_km3":4.718125,"heading_deg":227.29224487394504,"speed_ms":8.713999735029146,"peak_altitude_m":0.0,"u_ms":-6.410155007949126,"v_ms":-5.902281399046105}},{"type":"Feature","geometry":{"type":"Point","coordinates":[-74.4108,39.947]},"properties":{"site":"KDIX","name":"Philadelphia PA","scan_time":"2026-08-30T11:02:18Z","stale":false,"bins":25,"density_birds_km3":5.57,"heading_deg":70.40748173946619,"speed_ms":6.038796857463524,"peak_altitude_m":800.0,"u_ms":4.637122334455668,"v_ms":1.929475869809203}},{"type":"Feature","geometry":{"type":"Point","coordinates":[-84.5658,33.3636]},"properties":{"site":"KFFC","name":"Atlanta GA","scan_time":"2026-08-30T10:58:11Z","stale":false,"bins":25,"density_birds_km3":14.951333333333334,"heading_deg":248.3227408038067,"speed_ms":7.402453065774805,"peak_altitude_m":400.0,"u_ms":-6.8468976588628765,"v_ms":-2.754345596432553}},{"type":"Feature","geometry":{"type":"Point","coordinates":[-85.5449,42.8939]},"properties":{"site":"KGRR","name":"Grand Rapids MI","scan_time":"2026-08-30T11:00:26Z","stale":false,"bins":25,"density_birds_km3":9.09,"heading_deg":null,"speed_ms":null,"peak_altitude_m":200.0,"u_ms":null,"v_ms":null}},{"type":"Feature","geometry":{"type":"Point","coordinates":[-83.8217,39.4203]},"properties":{"site":"KILN","name":"Wilmington OH","scan_time":"2026-08-30T10:57:10Z","stale":false,"bins":25,"density_birds_km3":1.4080000000000001,"heading_deg":24.298105135691646,"speed_ms":7.979037458511142,"peak_altitude_m":200.0,"u_ms":3.23678994784258,"v_ms":6.845471787577051}},{"type":"Feature","geometry":{"type":"Point","coordinates":[-81.7019,30.4846]},"properties":{"site":"KJAX","name":"Jacksonville FL","scan_time":"2026-08-30T11:02:09Z","stale":false,"bins":25,"density_birds_km3":4.324375,"heading_deg":201.7051300665191,"speed_ms":7.102949848243966,"peak_altitude_m":0.0,"u_ms":-2.627173001878884,"v_ms":-6.569966758202053}},{"type":"Feature","geometry":{"type":"Point","coordinates":[-88.0847,41.6045]},"properties":{"site":"KLOT","name":"Chicago IL","scan_time":"2026-08-30T11:00:01Z","stale":false,"bins":25,"density_birds_km3":0.88,"heading_deg":null,"speed_ms":null,"peak_altitude_m":600.0,"u_ms":null,"v_ms":null}},{"type":"Feature","geometry":{"type":"Point","coordinates":[-78.4292,33.9892]},"properties":{"site":"KLTX","name":"Wilmington NC","scan_time":"2026-08-30T10:59:12Z","stale":false,"bins":25,"density_birds_km3":2.08375,"heading_deg":241.3358993324639,"speed_ms":8.884700296735906,"peak_altitude_m":0.0,"u_ms":-7.778005934718102,"v_ms":-4.2696913946587545}},{"type":"Feature","geometry":{"type":"Point","coordinates":[-77.4778,38.9753]},"properties":{"site":"KLWX","name":"Sterling VA","scan_time":"2026-08-30T10:58:21Z","stale":false,"bins":25,"density_birds_km3":1.2850000000000001,"heading_deg":3.2186509776512744,"speed_ms":5.9975282000980865,"peak_altitude_m":0.0,"u_ms":0.505478175576263,"v_ms":5.662501226091221}},{"type":"Feature","geometry":{"type":"Point","coordinates":[-76.8762,34.7759]},"properties":{"site":"KMHX","name":"Morehead City NC","scan_time":"2026-08-30T11:01:06Z","stale":false,"bins":25,"density_birds_km3":1.23625,"heading_deg":232.70036738730425,"speed_ms":7.5972750252780585,"peak_altitude_m":0.0,"u_ms":-5.947184024266937,"v_ms":-4.6744944388270975}},{"type":"Feature","geometry":{"type":"Point","coordinates":[-80.6542,28.1133]},"properties":{"site":"KMLB","name":"Melbourne FL","scan_time":"2026-08-30T11:02:16Z","stale":false,"bins":25,"density_birds_km3":3.040625,"heading_deg":227.0149537226774,"speed_ms":2.7394429599177803,"peak_altitude_m":0.0,"u_ms":-1.9669660842754368,"v_ms":-1.8169270298047275}},{"type":"Feature","geometry":{"type":"Point","coordinates":[-86.5625,36.2472]},"properties":{"site":"KOHX","name":"Nashville TN","scan_time":"2026-08-30T10:57:14Z","stale":false,"bins":25,"density_birds_km3":1.5853333333333333,"heading_deg":15.161538197419874,"speed_ms":6.283893097643098,"peak_altitude_m":200.0,"u_ms":1.8223737373737374,"v_ms":5.814583333333333}},{"type":"Feature","geometry":{"type":"Point","coordinates":[-72.8639,40.8655]},"properties":{"site":"KOKX","name":"Upton NY","scan_time":"2026-08-30T10:55:58Z","stale":false,"bins":25,"density_birds_km3":4.278125,"heading_deg":88.21948650662029,"speed_ms":9.017070603712908,"peak_altitude_m":400.0,"u_ms":8.792913316766555,"v_ms":0.2458719485455344}},{"type":"Feature","geometry":{"type":"Point","coordinates":[-80.2183,40.5317]},"properties":{"site":"KPBZ","name":"Pittsburgh PA","scan_time":"2026-08-30T10:59:12Z","stale":false,"bins":25,"density_birds_km3":0.8742857142857143,"heading_deg":51.18573472247796,"speed_ms":4.593600654664484,"peak_altitude_m":400.0,"u_ms":3.5256628477905076,"v_ms":2.5509738134206215}},{"type":"Feature","geometry":{"type":"Point","coordinates":[-78.4899,35.6655]},"properties":{"site":"KRAX","name":"Raleigh NC","scan_time":"2026-08-30T11:01:40Z","stale":false,"bins":25,"density_birds_km3":6.0600000000000005,"heading_deg":213.54770372981665,"speed_ms":5.347629950495049,"peak_altitude_m":200.0,"u_ms":-2.946394389438944,"v_ms":-4.447855816831683}},{"type":"Feature","geometry":{"type":"Point","coordinates":[-82.4017,27.7055]},"properties":{"site":"KTBW","name":"Tampa FL","scan_time":"2026-08-30T11:01:13Z","stale":false,"bins":25,"density_birds_km3":2.01375,"heading_deg":242.31699884622236,"speed_ms":4.808634388578523,"peak_altitude_m":0.0,"u_ms":-3.9070266914959655,"v_ms":-2.0919118559900687}}]}