{"type":"FeatureCollection","frame":"2026-08-24T10","site_count":20,"fresh_count":20,"failures":{},"features":[{"type":"Feature","geometry":{"type":"Point","coordinates":[-77.0073,36.984]},"properties":{"site":"KAKQ","name":"Wakefield VA","scan_time":"2026-08-24T09:58:53Z","stale":false,"bins":25,"density_birds_km3":4.515,"heading_deg":187.45188328608896,"speed_ms":8.833805370985603,"peak_altitude_m":200.0,"u_ms":-1.1989507198228129,"v_ms":-8.554330011074198}},{"type":"Feature","geometry":{"type":"Point","coordinates":[-71.1369,41.9558]},"properties":{"site":"KBOX","name":"Boston MA","scan_time":"2026-08-24T10:01:13Z","stale":false,"bins":25,"density_birds_km3":8.493125,"heading_deg":93.37362244314252,"speed_ms":7.888183825152697,"peak_altitude_m":200.0,"u_ms":7.845742880270807,"v_ms":-0.44195157848259625}},{"type":"Feature","geometry":{"type":"Point","coordinates":[-78.7369,42.9489]},"properties":{"site":"KBUF","name":"Buffalo NY","scan_time":"2026-08-24T10:01:05Z","stale":false,"bins":25,"density_birds_km3":0.4426666666666667,"heading_deg":55.42991729756445,"speed_ms":8.216404199475067,"peak_altitude_m":400.0,"u_ms":6.7642257217847765,"v_ms":4.605170603674541}},{"type":"Feature","geometry":{"type":"Point","coordinates":[-81.8597,41.4131]},"properties":{"site":"KCLE","name":"Cleveland OH","scan_time":"2026-08-24T09:59:26Z","stale":false,"bins":25,"density_birds_km3":0.378,"heading_deg":99.64707035876279,"speed_ms":8.866137566137567,"peak_altitude_m":200.0,"u_ms":8.61795414462081,"v_ms":-1.597636684303351}},{"type":"Feature","geometry":{"type":"Point","coordinates":[-81.0423,32.6555]},"properties":{"site":"KCLX","name":"Charleston SC","scan_time":"2026-08-24T09:58:04Z","stale":false,"bins":25,"density_birds_km3":7.37625,"heading_deg":130.00470161523697,"speed_ms":4.430677851211659,"peak_altitude_m":200.0,"u_ms":3.3704931367564823,"v_ms":-2.8590162684290803}},{"type":"Feature","geometry":{"type":"Point","coordinates":[-74.4108,39.947]},"properties":{"site":"KDIX","name":"Philadelphia PA","scan_time":"2026-08-24T10:01:04Z","stale":false,"bins":25,"density_birds_km3":0.444375,"heading_deg":91.68743459024823,"speed_ms":5.144880450070324,"peak_altitude_m":0.0,"u_ms":2.8027848101265818,"v_ms":1.51098452883263}},{"type":"Feature","geometry":{"type":"Point","coordinates":[-84.5658,33.3636]},"properties":{"site":"KFFC","name":"Atlanta GA","scan_time":"2026-08-24T10:02:12Z","stale":false,"bins":25,"density_birds_km3":13.153333333333332,"heading_deg":221.6075701382314,"speed_ms":8.00586720729853,"peak_altitude_m":600.0,"u_ms":-5.111371515458693,"v_ms":-5.242167257982767}},{"type":"Feature","geometry":{"type":"Point","coordinates":[-85.5449,42.8939]},"properties":{"site":"KGRR","name":"Grand Rapids MI","scan_time":"2026-08-24T09:56:03Z","stale":false,"bins":25,"density_birds_km3":0.20199999999999999,"heading_deg":135.11641329544372,"speed_ms":7.7307999999999995,"peak_altitude_m":200.0,"u_ms":5.143266666666666,"v_ms":-5.5635666666666665}},{"type":"Feature","geometry":{"type":"Point","coordinates":[-83.8217,39.4203]},"properties":{"site":"KILN","name":"Wilmington OH","scan_time":"2026-08-24T09:59:56Z","stale":false,"bins":25,"density_birds_km3":1.4973333333333334,"heading_deg":177.64237595408707,"speed_ms":8.998329621380847,"peak_altitude_m":400.0,"u_ms":0.3399064587973274,"v_ms":-8.960338530066815}},{"type":"Feature","geometry":{"type":"Point","coordinates":[-81.7019,30.4846]},"properties":{"site":"KJAX","name":"Jacksonville FL","scan_time":"2026-08-24T09:59:12Z","stale":false,"bins":25,"density_birds_km3":13.911875,"heading_deg":175.99620029807198,"speed_ms":4.565047850114571,"peak_altitude_m":0.0,"u_ms":0.33944916206137404,"v_ms":-4.076575010109178}},{"type":"Feature","geometry":{"type":"Point","coordinates":[-88.0847,41.6045]},"properties":{"site":"KLOT","name":"Chicago IL","scan_time":"2026-08-24T10:01:08Z","stale":false,"bins":25,"density_birds_km3":2.7786666666666666,"heading_deg":150.9767273042653,"speed_ms":8.711859404990403,"peak_altitude_m":200.0,"u_ms":4.18792226487524,"v_ms":-7.618670825335893}},{"type":"Feature","geometry":{"type":"Point","coordinates":[-78.4292,33.9892]},"properties":{"site":"KLTX","name":"Wilmington NC","scan_time":"2026-08-24T09:59:12Z","stale":false,"bins":25,"density_birds_km3":1.151875,"heading_deg":320.88259002135464,"speed_ms":3.569707112970711,"peak_altitude_m":0.0,"u_ms":-2.223825463239689,"v_ms":2.6468858338314405}},{"type":"Feature","geometry":{"type":"Point","coordinates":[-77.4778,38.9753]},"properties":{"site":"KLWX","name":"Sterling VA","scan_time":"2026-08-24T10:01:27Z","stale":false,"bins":25,"density_birds_km3":1.08625,"heading_deg":145.087455639557,"speed_ms":5.84741508347726,"peak_altitude_m":200.0,"u_ms":3.2361485319516405,"v_ms":-4.622135866436385}},{"type":"Feature","geometry":{"type":"Point","coordinates":[-76.8762,34.7759]},"properties":{"site":"KMHX","name":"Morehead City NC","scan_time":"2026-08-24T10:00:56Z","stale":false,"bins":25,"density_birds_km3":0.8562500000000001,"heading_deg":122.74132156875241,"speed_ms":2.8347299270072996,"peak_altitude_m":0.0,"u_ms":2.203897810218978,"v_ms":-1.4145547445255473}},{"type":"Feature","geometry":{"type":"Point","coordinates":[-80.6542,28.1133]},"properties":{"site":"KMLB","name":"Melbourne FL","scan_time":"2026-08-24T10:01:24Z","stale":false,"bins":25,"density_birds_km3":3.414375,"heading_deg":130.6547829066374,"speed_ms":5.344890150128158,"peak_altitude_m":0.0,"u_ms":4.025422922006592,"v_ms":-3.407702306847309}},{"type":"Feature","geometry":{"type":"Point","coordinates":[-86.5625,36.2472]},"properties":{"site":"KOHX","name":"Nashville TN","scan_time":"2026-08-24T10:00:05Z","stale":false,"bins":25,"density_birds_km3":11.428666666666665,"heading_deg":224.64713682295985,"speed_ms":7.2216257364521965,"peak_altitude_m":400.0,"u_ms":-4.884424546462114,"v_ms":-4.79161640319664}},{"type":"Feature","geometry":{"type":"Point","coordinates":[-72.8639,40.8655]},"properties":{"site":"KOKX","name":"Upton NY","scan_time":"2026-08-24T10:02:12Z","stale":false,"bins":25,"density_birds_km3":4.38625,"heading_deg":91.49073189443864,"speed_ms":5.134634354953671,"peak_altitude_m":0.0,"u_ms":5.0536949394155375,"v_ms":-0.11306343549536713}},{"type":"Feature","geometry":{"type":"Point","coordinates":[-80.2183,40.5317]},"properties":{"site":"KPBZ","name":"Pittsburgh PA","scan_time":"2026-08-24T09:57:48Z","stale":false,"bins":25,"density_birds_km3":0.3585714285714286,"heading_deg":128.58608735692403,"speed_ms":8.218964143426295,"peak_altitude_m":400.0,"u_ms":6.123824701195219,"v_ms":-5.099960159362549}},{"type":"Feature","geometry":{"type":"Point","coordinates":[-78.4899,35.6655]},"properties":{"site":"KRAX","name":"Raleigh NC","scan_time":"2026-08-24T10:01:21Z","stale":false,"bins":25,"density_birds_km3":4.74125,"heading_deg":222.6069470763799,"speed_ms":7.080541787503295,"peak_altitude_m":200.0,"u_ms":-4.816127076192987,"v_ms":-5.000628789876088}},{"type":"Feature","geometry":{"type":"Point","coordinates":[-82.4017,27.7055]},"properties":{"site":"KTBW","name":"Tampa FL","scan_time":"2026-08-24T09:59:03Z","stale":false,"bins":25,"density_birds_km3":8.526250000000001,"heading_deg":324.93907259153474,"speed_ms":2.318032258064516,"peak_altitude_m":0.0,"u_ms":0.1086260997067448,"v_ms":-0.5404428152492667}}]}