{"type":"FeatureCollection","frame":"2026-08-24T03","site_count":20,"fresh_count":20,"failures":{},"features":[{"type":"Feature","geometry":{"type":"Point","coordinates":[-77.0073,36.984]},"properties":{"site":"KAKQ","name":"Wakefield VA","scan_time":"2026-08-24T02:58:20Z","stale":false,"bins":25,"density_birds_km3":5.038125,"heading_deg":106.70420132690928,"speed_ms":3.6769152500310205,"peak_altitude_m":200.0,"u_ms":3.420352401042313,"v_ms":-1.2117706911527484}},{"type":"Feature","geometry":{"type":"Point","coordinates":[-71.1369,41.9558]},"properties":{"site":"KBOX","name":"Boston MA","scan_time":"2026-08-24T03:02:00Z","stale":false,"bins":25,"density_birds_km3":3.226875,"heading_deg":353.49185720747295,"speed_ms":6.418015888393722,"peak_altitude_m":0.0,"u_ms":-0.18573726022088727,"v_ms":5.647919007944197}},{"type":"Feature","geometry":{"type":"Point","coordinates":[-78.7369,42.9489]},"properties":{"site":"KBUF","name":"Buffalo NY","scan_time":"2026-08-24T03:01:49Z","stale":false,"bins":25,"density_birds_km3":3.3833333333333333,"heading_deg":83.49994082422681,"speed_ms":8.797930558295523,"peak_altitude_m":600.0,"u_ms":8.489429867824029,"v_ms":0.9865239692246992}},{"type":"Feature","geometry":{"type":"Point","coordinates":[-81.8597,41.4131]},"properties":{"site":"KCLE","name":"Cleveland OH","scan_time":"2026-08-24T02:58:42Z","stale":false,"bins":25,"density_birds_km3":5.8933333333333335,"heading_deg":169.2275418316411,"speed_ms":9.390237664101404,"peak_altitude_m":600.0,"u_ms":1.973365776369398,"v_ms":-9.085547759167044}},{"type":"Feature","geometry":{"type":"Point","coordinates":[-81.0423,32.6555]},"properties":{"site":"KCLX","name":"Charleston SC","scan_time":"2026-08-24T03:00:38Z","stale":false,"bins":25,"density_birds_km3":7.528125,"heading_deg":57.459007043071345,"speed_ms":5.578452360661326,"peak_altitude_m":0.0,"u_ms":1.5333560593148117,"v_ms":1.0312067496164992}},{"type":"Feature","geometry":{"type":"Point","coordinates":[-74.4108,39.947]},"properties":{"site":"KDIX","name":"Philadelphia PA","scan_time":"2026-08-24T02:57:44Z","stale":false,"bins":25,"density_birds_km3":3.425625,"heading_deg":100.60591030537104,"speed_ms":6.965360335705163,"peak_altitude_m":200.0,"u_ms":6.417978471081919,"v_ms":-1.482771392081737}},{"type":"Feature","geometry":{"type":"Point","coordinates":[-84.5658,33.3636]},"properties":{"site":"KFFC","name":"Atlanta GA","scan_time":"2026-08-24T02:57:16Z","stale":false,"bins":25,"density_birds_km3":42.526666666666664,"heading_deg":196.52754524879532,"speed_ms":6.166993259131525,"peak_altitude_m":400.0,"u_ms":-1.9450719548518578,"v_ms":-5.711440194387835}},{"type":"Feature","geometry":{"type":"Point","coordinates":[-85.5449,42.8939]},"properties":{"site":"KGRR","name":"Grand Rapids MI","scan_time":"2026-08-24T03:04:08Z","stale":false,"bins":25,"density_birds_km3":12.952666666666666,"heading_deg":181.48666043361612,"speed_ms":13.475923409512044,"peak_altitude_m":600.0,"u_ms":-0.2553891290920321,"v_ms":-13.421369672637429}},{"type":"Feature","geometry":{"type":"Point","coordinates":[-83.8217,39.4203]},"properties":{"site":"KILN","name":"Wilmington OH","scan_time":"2026-08-24T02:59:52Z","stale":false,"bins":25,"density_birds_km3":19.294,"heading_deg":168.5877933419814,"speed_ms":11.299559733213533,"peak_altitude_m":600.0,"u_ms":2.2314265473269517,"v_ms":-11.060574351176694}},{"type":"Feature","geometry":{"type":"Point","coordinates":[-81.7019,30.4846]},"properties":{"site":"KJAX","name":"Jacksonville FL","scan_time":"2026-08-24T02:59:26Z","stale":false,"bins":25,"density_birds_km3":6.451875,"heading_deg":160.01562786609793,"speed_ms":9.59584138040209,"peak_altitude_m":1600.0,"u_ms":0.2267057147380085,"v_ms":-5.914522716479341}},{"type":"Feature","geometry":{"type":"Point","coordinates":[-88.0847,41.6045]},"properties":{"site":"KLOT","name":"Chicago IL","scan_time":"2026-08-24T03:02:20Z","stale":false,"bins":25,"density_birds_km3":14.042666666666666,"heading_deg":167.98964149921434,"speed_ms":8.76331812131584,"peak_altitude_m":600.0,"u_ms":1.848371363377068,"v_ms":-8.537505229131014}},{"type":"Feature","geometry":{"type":"Point","coordinates":[-78.4292,33.9892]},"properties":{"site":"KLTX","name":"Wilmington NC","scan_time":"2026-08-24T02:57:55Z","stale":false,"bins":25,"density_birds_km3":4.465,"heading_deg":4.689464975671667,"speed_ms":4.447053216838761,"peak_altitude_m":800.0,"u_ms":-0.4463840349483716,"v_ms":-0.4735980937251788}},{"type":"Feature","geometry":{"type":"Point","coordinates":[-77.4778,38.9753]},"properties":{"site":"KLWX","name":"Sterling VA","scan_time":"2026-08-24T03:02:15Z","stale":false,"bins":25,"density_birds_km3":11.97,"heading_deg":148.5010203437876,"speed_ms":7.137111598516894,"peak_altitude_m":200.0,"u_ms":3.615244138075095,"v_ms":-5.830625620136821}},{"type":"Feature","geometry":{"type":"Point","coordinates":[-76.8762,34.7759]},"properties":{"site":"KMHX","name":"Morehead City NC","scan_time":"2026-08-24T03:00:29Z","stale":false,"bins":25,"density_birds_km3":10.94875,"heading_deg":129.30308218744457,"speed_ms":4.192168128906474,"peak_altitude_m":800.0,"u_ms":2.745032972074087,"v_ms":-2.112951430701302}},{"type":"Feature","geometry":{"type":"Point","coordinates":[-80.6542,28.1133]},"properties":{"site":"KMLB","name":"Melbourne FL","scan_time":"2026-08-24T03:00:41Z","stale":false,"bins":25,"density_birds_km3":4.505,"heading_deg":25.920148044951652,"speed_ms":2.298467943380516,"peak_altitude_m":0.0,"u_ms":0.8031210102692201,"v_ms":1.8365278934221478}},{"type":"Feature","geometry":{"type":"Point","coordinates":[-86.5625,36.2472]},"properties":{"site":"KOHX","name":"Nashville TN","scan_time":"2026-08-24T02:57:19Z","stale":false,"bins":25,"density_birds_km3":31.62066666666667,"heading_deg":182.6544201048768,"speed_ms":5.97002445657903,"peak_altitude_m":400.0,"u_ms":-0.34177858362674196,"v_ms":-5.809464274419684}},{"type":"Feature","geometry":{"type":"Point","coordinates":[-72.8639,40.8655]},"properties":{"site":"KOKX","name":"Upton NY","scan_time":"2026-08-24T03:00:31Z","stale":false,"bins":25,"density_birds_km3":1.44125,"heading_deg":53.223628626227814,"speed_ms":8.145646288209608,"peak_altitude_m":0.0,"u_ms":6.521742358078604,"v_ms":4.750074235807861}},{"type":"Feature","geometry":{"type":"Point","coordinates":[-80.2183,40.5317]},"properties":{"site":"KPBZ","name":"Pittsburgh PA","scan_time":"2026-08-24T02:58:36Z","stale":false,"bins":25,"density_birds_km3":2.4957142857142856,"heading_deg":105.42512831024584,"speed_ms":9.321199198626218,"peak_altitude_m":400.0,"u_ms":8.978906697195193,"v_ms":-2.3700314825415}},{"type":"Feature","geometry":{"type":"Point","coordinates":[-78.4899,35.6655]},"properties":{"site":"KRAX","name":"Raleigh NC","scan_time":"2026-08-24T02:59:31Z","stale":false,"bins":25,"density_birds_km3":11.743125,"heading_deg":185.5196422086745,"speed_ms":4.837198018747337,"peak_altitude_m":0.0,"u_ms":-0.035304111631870354,"v_ms":-4.038304750745633}},{"type":"Feature","geometry":{"type":"Point","coordinates":[-82.4017,27.7055]},"properties":{"site":"KTBW","name":"Tampa FL","scan_time":"2026-08-24T02:58:55Z","stale":false,"bins":25,"density_birds_km3":5.060625,"heading_deg":2.3968581832552935,"speed_ms":2.2108116121062387,"peak_altitude_m":0.0,"u_ms":0.11700061766522545,"v_ms":0.39335145151327994}}]}