{"type":"FeatureCollection","frame":"2026-09-28T11","site_count":20,"fresh_count":20,"failures":{},"features":[{"type":"Feature","geometry":{"type":"Point","coordinates":[-77.0073,36.984]},"properties":{"site":"KAKQ","name":"Wakefield VA","scan_time":"2026-09-28T11:00:51Z","stale":false,"bins":25,"density_birds_km3":0.081875,"heading_deg":144.41653946335813,"speed_ms":5.5379389312977105,"peak_altitude_m":0.0,"u_ms":3.149389312977099,"v_ms":-4.4592366412213735}},{"type":"Feature","geometry":{"type":"Point","coordinates":[-71.1369,41.9558]},"properties":{"site":"KBOX","name":"Boston MA","scan_time":"2026-09-28T11:00:56Z","stale":false,"bins":25,"density_birds_km3":0.08285714285714285,"heading_deg":null,"speed_ms":null,"peak_altitude_m":0.0,"u_ms":null,"v_ms":null}},{"type":"Feature","geometry":{"type":"Point","coordinates":[-78.7369,42.9489]},"properties":{"site":"KBUF","name":"Buffalo NY","scan_time":"2026-09-28T11:02:10Z","stale":false,"bins":25,"density_birds_km3":0.5113333333333333,"heading_deg":191.66313840657892,"speed_ms":4.655468750000001,"peak_altitude_m":400.0,"u_ms":-0.8655859375,"v_ms":-4.436015625}},{"type":"Feature","geometry":{"type":"Point","coordinates":[-81.8597,41.4131]},"properties":{"site":"KCLE","name":"Cleveland OH","scan_time":"2026-09-28T10:59:46Z","stale":false,"bins":25,"density_birds_km3":1.4566666666666666,"heading_deg":197.72649445672056,"speed_ms":6.209450549450549,"peak_altitude_m":200.0,"u_ms":-1.598511904761905,"v_ms":-5.8655906593406595}},{"type":"Feature","geometry":{"type":"Point","coordinates":[-81.0423,32.6555]},"properties":{"site":"KCLX","name":"Charleston SC","scan_time":"2026-09-28T10:57:31Z","stale":false,"bins":25,"density_birds_km3":1.174375,"heading_deg":247.8279212629522,"speed_ms":6.692369263607257,"peak_altitude_m":200.0,"u_ms":-5.924925293489861,"v_ms":-2.70363393810032}},{"type":"Feature","geometry":{"type":"Point","coordinates":[-74.4108,39.947]},"properties":{"site":"KDIX","name":"Philadelphia PA","scan_time":"2026-09-28T11:02:06Z","stale":false,"bins":25,"density_birds_km3":0.2878571428571428,"heading_deg":225.2,"speed_ms":8.49,"peak_altitude_m":200.0,"u_ms":-6.03,"v_ms":-5.98}},{"type":"Feature","geometry":{"type":"Point","coordinates":[-84.5658,33.3636]},"properties":{"site":"KFFC","name":"Atlanta GA","scan_time":"2026-09-28T11:01:30Z","stale":false,"bins":25,"density_birds_km3":3.8333333333333335,"heading_deg":211.44023276918392,"speed_ms":9.8694624217119,"peak_altitude_m":400.0,"u_ms":-5.1932150313152405,"v_ms":-8.111087334725122}},{"type":"Feature","geometry":{"type":"Point","coordinates":[-85.5449,42.8939]},"properties":{"site":"KGRR","name":"Grand Rapids MI","scan_time":"2026-09-28T10:57:42Z","stale":false,"bins":25,"density_birds_km3":7.656666666666667,"heading_deg":157.3011800402211,"speed_ms":8.96608445798868,"peak_altitude_m":400.0,"u_ms":3.41479756203744,"v_ms":-8.232736612973444}},{"type":"Feature","geometry":{"type":"Point","coordinates":[-83.8217,39.4203]},"properties":{"site":"KILN","name":"Wilmington OH","scan_time":"2026-09-28T10:58:34Z","stale":false,"bins":25,"density_birds_km3":7.363333333333333,"heading_deg":161.06159367702196,"speed_ms":12.07431455994205,"peak_altitude_m":600.0,"u_ms":3.841265845708077,"v_ms":-11.41512857660268}},{"type":"Feature","geometry":{"type":"Point","coordinates":[-81.7019,30.4846]},"properties":{"site":"KJAX","name":"Jacksonville FL","scan_time":"2026-09-28T11:00:29Z","stale":false,"bins":25,"density_birds_km3":2.914375,"heading_deg":67.55252731495233,"speed_ms":6.968192563937245,"peak_altitude_m":0.0,"u_ms":6.152293144208039,"v_ms":2.5153470879002793}},{"type":"Feature","geometry":{"type":"Point","coordinates":[-88.0847,41.6045]},"properties":{"site":"KLOT","name":"Chicago IL","scan_time":"2026-09-28T11:03:13Z","stale":false,"bins":25,"density_birds_km3":31.906000000000002,"heading_deg":174.85445102085725,"speed_ms":12.353247732876428,"peak_altitude_m":400.0,"u_ms":1.1158222240795688,"v_ms":-12.300059342220736}},{"type":"Feature","geometry":{"type":"Point","coordinates":[-78.4292,33.9892]},"properties":{"site":"KLTX","name":"Wilmington NC","scan_time":"2026-09-28T10:59:49Z","stale":false,"bins":25,"density_birds_km3":1.1925,"heading_deg":287.98348586545006,"speed_ms":3.8010796645702314,"peak_altitude_m":0.0,"u_ms":-2.329900419287212,"v_ms":0.2208123689727463}},{"type":"Feature","geometry":{"type":"Point","coordinates":[-77.4778,38.9753]},"properties":{"site":"KLWX","name":"Sterling VA","scan_time":"2026-09-28T11:02:34Z","stale":false,"bins":25,"density_birds_km3":3.1216666666666666,"heading_deg":156.9989175134662,"speed_ms":9.130515216230645,"peak_altitude_m":400.0,"u_ms":3.5071943406300052,"v_ms":-8.413758675920983}},{"type":"Feature","geometry":{"type":"Point","coordinates":[-76.8762,34.7759]},"properties":{"site":"KMHX","name":"Morehead City NC","scan_time":"2026-09-28T11:02:34Z","stale":false,"bins":25,"density_birds_km3":0.8768750000000001,"heading_deg":242.60522951431489,"speed_ms":5.08295794725588,"peak_altitude_m":200.0,"u_ms":-2.2146828225231645,"v_ms":-1.444811119030649}},{"type":"Feature","geometry":{"type":"Point","coordinates":[-80.6542,28.1133]},"properties":{"site":"KMLB","name":"Melbourne FL","scan_time":"2026-09-28T11:02:55Z","stale":false,"bins":25,"density_birds_km3":5.025,"heading_deg":48.93795362306003,"speed_ms":3.4260557421923603,"peak_altitude_m":0.0,"u_ms":2.4247206669155155,"v_ms":1.76324623615777}},{"type":"Feature","geometry":{"type":"Point","coordinates":[-86.5625,36.2472]},"properties":{"site":"KOHX","name":"Nashville TN","scan_time":"2026-09-28T10:58:11Z","stale":false,"bins":25,"density_birds_km3":40.91,"heading_deg":177.01868904180046,"speed_ms":9.055844862706754,"peak_altitude_m":200.0,"u_ms":0.4777831011162714,"v_ms":-8.960480078220485}},{"type":"Feature","geometry":{"type":"Point","coordinates":[-72.8639,40.8655]},"properties":{"site":"KOKX","name":"Upton NY","scan_time":"2026-09-28T11:01:52Z","stale":false,"bins":25,"density_birds_km3":0.006666666666666667,"heading_deg":null,"speed_ms":null,"peak_altitude_m":2000.0,"u_ms":null,"v_ms":null}},{"type":"Feature","geometry":{"type":"Point","coordinates":[-80.2183,40.5317]},"properties":{"site":"KPBZ","name":"Pittsburgh PA","scan_time":"2026-09-28T10:58:09Z","stale":false,"bins":25,"density_birds_km3":0.12214285714285714,"heading_deg":186.63769935255684,"speed_ms":5.440058479532164,"peak_altitude_m":400.0,"u_ms":-0.6222222222222221,"v_ms":-5.394561403508773}},{"type":"Feature","geometry":{"type":"Point","coordinates":[-78.4899,35.6655]},"properties":{"site":"KRAX","name":"Raleigh NC","scan_time":"2026-09-28T10:59:48Z","stale":false,"bins":25,"density_birds_km3":0.6943750000000001,"heading_deg":183.07099443386113,"speed_ms":2.165085508550855,"peak_altitude_m":0.0,"u_ms":0.15407740774077416,"v_ms":-1.8581818181818182}},{"type":"Feature","geometry":{"type":"Point","coordinates":[-82.4017,27.7055]},"properties":{"site":"KTBW","name":"Tampa FL","scan_time":"2026-09-28T11:00:59Z","stale":false,"bins":25,"density_birds_km3":7.78125,"heading_deg":157.95879364135223,"speed_ms":8.076299598393573,"peak_altitude_m":0.0,"u_ms":0.2991277108433734,"v_ms":-6.689621686746988}}]}