{"type":"FeatureCollection","frame":"2026-10-04T08","site_count":20,"fresh_count":20,"failures":{},"features":[{"type":"Feature","geometry":{"type":"Point","coordinates":[-77.0073,36.984]},"properties":{"site":"KAKQ","name":"Wakefield VA","scan_time":"2026-10-04T08:01:31Z","stale":false,"bins":25,"density_birds_km3":1.713125,"heading_deg":187.15870013778283,"speed_ms":7.924199197373221,"peak_altitude_m":0.0,"u_ms":0.09535570959503845,"v_ms":-5.70165632980664}},{"type":"Feature","geometry":{"type":"Point","coordinates":[-71.1369,41.9558]},"properties":{"site":"KBOX","name":"Boston MA","scan_time":"2026-10-04T07:59:32Z","stale":false,"bins":25,"density_birds_km3":7.441875,"heading_deg":225.38713309926663,"speed_ms":14.05377876700823,"peak_altitude_m":0.0,"u_ms":-9.962225768520074,"v_ms":-9.834575844112212}},{"type":"Feature","geometry":{"type":"Point","coordinates":[-78.7369,42.9489]},"properties":{"site":"KBUF","name":"Buffalo NY","scan_time":"2026-10-04T07:59:11Z","stale":false,"bins":25,"density_birds_km3":1.828,"heading_deg":329.8511042638108,"speed_ms":6.463564392557461,"peak_altitude_m":200.0,"u_ms":-3.0084421743889096,"v_ms":5.492874863188618}},{"type":"Feature","geometry":{"type":"Point","coordinates":[-81.8597,41.4131]},"properties":{"site":"KCLE","name":"Cleveland OH","scan_time":"2026-10-04T07:59:51Z","stale":false,"bins":25,"density_birds_km3":13.680666666666667,"heading_deg":237.50163950098437,"speed_ms":7.942865009746589,"peak_altitude_m":200.0,"u_ms":-6.624107699805068,"v_ms":-4.320230506822612}},{"type":"Feature","geometry":{"type":"Point","coordinates":[-81.0423,32.6555]},"properties":{"site":"KCLX","name":"Charleston SC","scan_time":"2026-10-04T07:58:03Z","stale":false,"bins":25,"density_birds_km3":2.07875,"heading_deg":138.68136971738312,"speed_ms":1.360809022556391,"peak_altitude_m":0.0,"u_ms":0.8068962406015038,"v_ms":-0.7142075187969924}},{"type":"Feature","geometry":{"type":"Point","coordinates":[-74.4108,39.947]},"properties":{"site":"KDIX","name":"Philadelphia PA","scan_time":"2026-10-04T07:59:31Z","stale":false,"bins":25,"density_birds_km3":38.458125,"heading_deg":215.69935022982446,"speed_ms":11.841096066319896,"peak_altitude_m":0.0,"u_ms":-6.958551690507153,"v_ms":-9.392930591677503}},{"type":"Feature","geometry":{"type":"Point","coordinates":[-84.5658,33.3636]},"properties":{"site":"KFFC","name":"Atlanta GA","scan_time":"2026-10-04T07:58:33Z","stale":false,"bins":25,"density_birds_km3":79.68733333333333,"heading_deg":162.26069684908484,"speed_ms":7.2209290476947405,"peak_altitude_m":400.0,"u_ms":1.4212320653219668,"v_ms":-6.706869180379986}},{"type":"Feature","geometry":{"type":"Point","coordinates":[-85.5449,42.8939]},"properties":{"site":"KGRR","name":"Grand Rapids MI","scan_time":"2026-10-04T08:02:16Z","stale":false,"bins":25,"density_birds_km3":0.6154545454545455,"heading_deg":null,"speed_ms":null,"peak_altitude_m":200.0,"u_ms":null,"v_ms":null}},{"type":"Feature","geometry":{"type":"Point","coordinates":[-83.8217,39.4203]},"properties":{"site":"KILN","name":"Wilmington OH","scan_time":"2026-10-04T07:58:49Z","stale":false,"bins":25,"density_birds_km3":22.897333333333336,"heading_deg":245.50782208841343,"speed_ms":8.785330460606765,"peak_altitude_m":200.0,"u_ms":-7.056789436906772,"v_ms":-2.830233797239853}},{"type":"Feature","geometry":{"type":"Point","coordinates":[-81.7019,30.4846]},"properties":{"site":"KJAX","name":"Jacksonville FL","scan_time":"2026-10-04T08:01:04Z","stale":false,"bins":25,"density_birds_km3":3.9787500000000002,"heading_deg":251.76690416587903,"speed_ms":5.120168238993711,"peak_altitude_m":0.0,"u_ms":-4.308011006289308,"v_ms":-1.1543317610062893}},{"type":"Feature","geometry":{"type":"Point","coordinates":[-88.0847,41.6045]},"properties":{"site":"KLOT","name":"Chicago IL","scan_time":"2026-10-04T08:03:15Z","stale":false,"bins":25,"density_birds_km3":1.994,"heading_deg":40.499946742186935,"speed_ms":9.228789297658864,"peak_altitude_m":200.0,"u_ms":5.97756856187291,"v_ms":6.526468227424749}},{"type":"Feature","geometry":{"type":"Point","coordinates":[-78.4292,33.9892]},"properties":{"site":"KLTX","name":"Wilmington NC","scan_time":"2026-10-04T07:58:48Z","stale":false,"bins":25,"density_birds_km3":1.0173333333333334,"heading_deg":null,"speed_ms":null,"peak_altitude_m":0.0,"u_ms":null,"v_ms":null}},{"type":"Feature","geometry":{"type":"Point","coordinates":[-77.4778,38.9753]},"properties":{"site":"KLWX","name":"Sterling VA","scan_time":"2026-10-04T08:00:51Z","stale":false,"bins":25,"density_birds_km3":85.56076923076922,"heading_deg":212.42834377381442,"speed_ms":6.231695591919896,"peak_altitude_m":0.0,"u_ms":-3.277603135124221,"v_ms":-5.111950274874036}},{"type":"Feature","geometry":{"type":"Point","coordinates":[-76.8762,34.7759]},"properties":{"site":"KMHX","name":"Morehead City NC","scan_time":"2026-10-04T08:01:00Z","stale":false,"bins":25,"density_birds_km3":0.47250000000000003,"heading_deg":253.25946483996202,"speed_ms":4.41920634920635,"peak_altitude_m":0.0,"u_ms":-3.4612037037037036,"v_ms":-1.0650132275132274}},{"type":"Feature","geometry":{"type":"Point","coordinates":[-80.6542,28.1133]},"properties":{"site":"KMLB","name":"Melbourne FL","scan_time":"2026-10-04T08:01:51Z","stale":false,"bins":25,"density_birds_km3":1.613125,"heading_deg":315.40646924272704,"speed_ms":4.348713676869431,"peak_altitude_m":0.0,"u_ms":-3.0514141805501747,"v_ms":3.0961216582719877}},{"type":"Feature","geometry":{"type":"Point","coordinates":[-86.5625,36.2472]},"properties":{"site":"KOHX","name":"Nashville TN","scan_time":"2026-10-04T07:58:41Z","stale":false,"bins":25,"density_birds_km3":208.858,"heading_deg":164.22789841452675,"speed_ms":3.5362757471583564,"peak_altitude_m":200.0,"u_ms":1.1246015634226765,"v_ms":-2.696000153214145}},{"type":"Feature","geometry":{"type":"Point","coordinates":[-72.8639,40.8655]},"properties":{"site":"KOKX","name":"Upton NY","scan_time":"2026-10-04T08:03:14Z","stale":false,"bins":25,"density_birds_km3":3.74125,"heading_deg":241.90893939085854,"speed_ms":12.040700636942674,"peak_altitude_m":0.0,"u_ms":-10.58734998323835,"v_ms":-5.554971505196111}},{"type":"Feature","geometry":{"type":"Point","coordinates":[-80.2183,40.5317]},"properties":{"site":"KPBZ","name":"Pittsburgh PA","scan_time":"2026-10-04T07:56:47Z","stale":false,"bins":25,"density_birds_km3":15.819285714285714,"heading_deg":265.90108874796647,"speed_ms":9.456723258229104,"peak_altitude_m":400.0,"u_ms":-8.90434957330564,"v_ms":-0.8102605319004832}},{"type":"Feature","geometry":{"type":"Point","coordinates":[-78.4899,35.6655]},"properties":{"site":"KRAX","name":"Raleigh NC","scan_time":"2026-10-04T07:57:40Z","stale":false,"bins":25,"density_birds_km3":2.759375,"heading_deg":214.01296433599308,"speed_ms":5.304440298507463,"peak_altitude_m":0.0,"u_ms":-2.586084421641791,"v_ms":-3.819083488805971}},{"type":"Feature","geometry":{"type":"Point","coordinates":[-82.4017,27.7055]},"properties":{"site":"KTBW","name":"Tampa FL","scan_time":"2026-10-04T08:00:53Z","stale":false,"bins":25,"density_birds_km3":4.679375,"heading_deg":294.9968057456651,"speed_ms":6.499015232495991,"peak_altitude_m":0.0,"u_ms":-5.481186531266703,"v_ms":3.041122394441475}}]}