{"type":"FeatureCollection","frame":"2026-09-30T11","site_count":20,"fresh_count":20,"failures":{},"features":[{"type":"Feature","geometry":{"type":"Point","coordinates":[-77.0073,36.984]},"properties":{"site":"KAKQ","name":"Wakefield VA","scan_time":"2026-09-30T11:00:46Z","stale":false,"bins":25,"density_birds_km3":0.31375,"heading_deg":196.51053548770128,"speed_ms":4.050697211155379,"peak_altitude_m":200.0,"u_ms":-1.0470717131474103,"v_ms":-3.796573705179283}},{"type":"Feature","geometry":{"type":"Point","coordinates":[-71.1369,41.9558]},"properties":{"site":"KBOX","name":"Boston MA","scan_time":"2026-09-30T10:58:02Z","stale":false,"bins":25,"density_birds_km3":7.56625,"heading_deg":276.25861110708536,"speed_ms":1.837302544613351,"peak_altitude_m":0.0,"u_ms":-1.1274702577660278,"v_ms":-1.1741870456047587}},{"type":"Feature","geometry":{"type":"Point","coordinates":[-78.7369,42.9489]},"properties":{"site":"KBUF","name":"Buffalo NY","scan_time":"2026-09-30T10:56:55Z","stale":false,"bins":25,"density_birds_km3":0.7326666666666667,"heading_deg":66.12114134842615,"speed_ms":8.236505914467697,"peak_altitude_m":400.0,"u_ms":7.351765241128297,"v_ms":3.2056323930846222}},{"type":"Feature","geometry":{"type":"Point","coordinates":[-81.8597,41.4131]},"properties":{"site":"KCLE","name":"Cleveland OH","scan_time":"2026-09-30T11:01:13Z","stale":false,"bins":25,"density_birds_km3":0.454,"heading_deg":29.549556637446024,"speed_ms":9.67618208516887,"peak_altitude_m":200.0,"u_ms":4.677606461086638,"v_ms":8.342966226138032}},{"type":"Feature","geometry":{"type":"Point","coordinates":[-81.0423,32.6555]},"properties":{"site":"KCLX","name":"Charleston SC","scan_time":"2026-09-30T10:59:49Z","stale":false,"bins":25,"density_birds_km3":0.24937499999999999,"heading_deg":267.921951379372,"speed_ms":4.5145843828715355,"peak_altitude_m":200.0,"u_ms":-4.262317380352645,"v_ms":-0.23712846347607053}},{"type":"Feature","geometry":{"type":"Point","coordinates":[-74.4108,39.947]},"properties":{"site":"KDIX","name":"Philadelphia PA","scan_time":"2026-09-30T10:56:31Z","stale":false,"bins":25,"density_birds_km3":4.0,"heading_deg":185.89649652910632,"speed_ms":7.072348342714197,"peak_altitude_m":200.0,"u_ms":-0.7205409631019387,"v_ms":-6.967837711069418}},{"type":"Feature","geometry":{"type":"Point","coordinates":[-84.5658,33.3636]},"properties":{"site":"KFFC","name":"Atlanta GA","scan_time":"2026-09-30T10:56:38Z","stale":false,"bins":25,"density_birds_km3":2.1046666666666667,"heading_deg":313.2000698529143,"speed_ms":6.740199936528087,"peak_altitude_m":200.0,"u_ms":-4.36267851475722,"v_ms":4.392434147889559}},{"type":"Feature","geometry":{"type":"Point","coordinates":[-85.5449,42.8939]},"properties":{"site":"KGRR","name":"Grand Rapids MI","scan_time":"2026-09-30T10:59:33Z","stale":false,"bins":25,"density_birds_km3":0.5820000000000001,"heading_deg":58.27038349057569,"speed_ms":9.660080183276058,"peak_altitude_m":400.0,"u_ms":8.280607101947309,"v_ms":4.841248568155784}},{"type":"Feature","geometry":{"type":"Point","coordinates":[-83.8217,39.4203]},"properties":{"site":"KILN","name":"Wilmington OH","scan_time":"2026-09-30T10:58:51Z","stale":false,"bins":25,"density_birds_km3":1.568,"heading_deg":69.25623499274712,"speed_ms":8.581122448979592,"peak_altitude_m":400.0,"u_ms":6.413099489795919,"v_ms":2.057984693877551}},{"type":"Feature","geometry":{"type":"Point","coordinates":[-81.7019,30.4846]},"properties":{"site":"KJAX","name":"Jacksonville FL","scan_time":"2026-09-30T11:01:21Z","stale":false,"bins":25,"density_birds_km3":1.344375,"heading_deg":254.98173654742902,"speed_ms":3.6759376454164725,"peak_altitude_m":0.0,"u_ms":-3.3892461610051186,"v_ms":-0.9033736621684503}},{"type":"Feature","geometry":{"type":"Point","coordinates":[-88.0847,41.6045]},"properties":{"site":"KLOT","name":"Chicago IL","scan_time":"2026-09-30T11:01:21Z","stale":false,"bins":25,"density_birds_km3":0.31636363636363635,"heading_deg":51.60000000000001,"speed_ms":7.69,"peak_altitude_m":200.0,"u_ms":6.02,"v_ms":4.78}},{"type":"Feature","geometry":{"type":"Point","coordinates":[-78.4292,33.9892]},"properties":{"site":"KLTX","name":"Wilmington NC","scan_time":"2026-09-30T11:00:38Z","stale":false,"bins":25,"density_birds_km3":1.474375,"heading_deg":197.8930316882471,"speed_ms":4.2754938533276805,"peak_altitude_m":200.0,"u_ms":-1.3296820686731665,"v_ms":-4.036791013141161}},{"type":"Feature","geometry":{"type":"Point","coordinates":[-77.4778,38.9753]},"properties":{"site":"KLWX","name":"Sterling VA","scan_time":"2026-09-30T10:58:04Z","stale":false,"bins":25,"density_birds_km3":3.00625,"heading_deg":49.26515439990822,"speed_ms":1.9130291060291056,"peak_altitude_m":0.0,"u_ms":1.3229459459459456,"v_ms":1.275}},{"type":"Feature","geometry":{"type":"Point","coordinates":[-76.8762,34.7759]},"properties":{"site":"KMHX","name":"Morehead City NC","scan_time":"2026-09-30T10:58:31Z","stale":false,"bins":25,"density_birds_km3":0.88625,"heading_deg":182.5869314528783,"speed_ms":2.425056497175141,"peak_altitude_m":200.0,"u_ms":-0.24419491525423723,"v_ms":-2.09247175141243}},{"type":"Feature","geometry":{"type":"Point","coordinates":[-80.6542,28.1133]},"properties":{"site":"KMLB","name":"Melbourne FL","scan_time":"2026-09-30T10:58:10Z","stale":false,"bins":25,"density_birds_km3":2.595625,"heading_deg":183.80319493564494,"speed_ms":2.598633405639913,"peak_altitude_m":0.0,"u_ms":-0.4395637503012773,"v_ms":-2.0904916847433115}},{"type":"Feature","geometry":{"type":"Point","coordinates":[-86.5625,36.2472]},"properties":{"site":"KOHX","name":"Nashville TN","scan_time":"2026-09-30T10:58:00Z","stale":false,"bins":25,"density_birds_km3":1.8853333333333333,"heading_deg":25.36739659271257,"speed_ms":10.297611464968153,"peak_altitude_m":200.0,"u_ms":4.3731634819532905,"v_ms":8.703800424628449}},{"type":"Feature","geometry":{"type":"Point","coordinates":[-72.8639,40.8655]},"properties":{"site":"KOKX","name":"Upton NY","scan_time":"2026-09-30T11:00:51Z","stale":false,"bins":25,"density_birds_km3":6.1775,"heading_deg":176.49436204887587,"speed_ms":3.508377175232699,"peak_altitude_m":0.0,"u_ms":0.15350465398624039,"v_ms":-3.457988668555241}},{"type":"Feature","geometry":{"type":"Point","coordinates":[-80.2183,40.5317]},"properties":{"site":"KPBZ","name":"Pittsburgh PA","scan_time":"2026-09-30T10:57:32Z","stale":false,"bins":25,"density_birds_km3":0.11357142857142856,"heading_deg":61.87062481526385,"speed_ms":3.921708860759494,"peak_altitude_m":600.0,"u_ms":3.3972784810126586,"v_ms":1.7852531645569623}},{"type":"Feature","geometry":{"type":"Point","coordinates":[-78.4899,35.6655]},"properties":{"site":"KRAX","name":"Raleigh NC","scan_time":"2026-09-30T11:02:16Z","stale":false,"bins":25,"density_birds_km3":3.115625,"heading_deg":179.47151828229244,"speed_ms":4.016146439317954,"peak_altitude_m":200.0,"u_ms":-0.17923570712136408,"v_ms":-3.814519558676028}},{"type":"Feature","geometry":{"type":"Point","coordinates":[-82.4017,27.7055]},"properties":{"site":"KTBW","name":"Tampa FL","scan_time":"2026-09-30T10:58:13Z","stale":false,"bins":25,"density_birds_km3":3.724375,"heading_deg":278.5466636271729,"speed_ms":3.541211612686692,"peak_altitude_m":0.0,"u_ms":-3.329184426917268,"v_ms":0.5868098674274206}}]}