{"type":"FeatureCollection","frame":"2026-09-16T01","site_count":20,"fresh_count":18,"failures":{"KDIX":"RuntimeError('no scan within 20 min of 2026-09-16T01:00Z')","KBUF":"IndexError('index 0 is out of bounds for axis 0 with size 0')"},"features":[{"type":"Feature","geometry":{"type":"Point","coordinates":[-77.0073,36.984]},"properties":{"site":"KAKQ","name":"Wakefield VA","scan_time":"2026-09-16T01:02:23Z","stale":false,"bins":25,"density_birds_km3":14.735625,"heading_deg":247.461500218411,"speed_ms":6.654053352620831,"peak_altitude_m":0.0,"u_ms":-4.19417163036079,"v_ms":-2.2205943669162695}},{"type":"Feature","geometry":{"type":"Point","coordinates":[-71.1369,41.9558]},"properties":{"site":"KBOX","name":"Boston MA","scan_time":"2026-09-16T00:56:50Z","stale":false,"bins":25,"density_birds_km3":6.491874999999999,"heading_deg":335.4228853210787,"speed_ms":6.385105932203389,"peak_altitude_m":200.0,"u_ms":-2.729665832049306,"v_ms":5.546606317411402}},{"type":"Feature","geometry":{"type":"Point","coordinates":[-81.8597,41.4131]},"properties":{"site":"KCLE","name":"Cleveland OH","scan_time":"2026-09-16T00:59:34Z","stale":false,"bins":25,"density_birds_km3":1.4033333333333333,"heading_deg":11.949362450871883,"speed_ms":12.68755946717412,"peak_altitude_m":200.0,"u_ms":2.733334919124643,"v_ms":11.62638439581351}},{"type":"Feature","geometry":{"type":"Point","coordinates":[-81.0423,32.6555]},"properties":{"site":"KCLX","name":"Charleston SC","scan_time":"2026-09-16T00:58:31Z","stale":false,"bins":25,"density_birds_km3":27.57133333333333,"heading_deg":238.63842950929015,"speed_ms":9.596601802240624,"peak_altitude_m":0.0,"u_ms":-7.5079035557720415,"v_ms":-4.818907696054555}},{"type":"Feature","geometry":{"type":"Point","coordinates":[-84.5658,33.3636]},"properties":{"site":"KFFC","name":"Atlanta GA","scan_time":"2026-09-16T01:03:27Z","stale":false,"bins":25,"density_birds_km3":63.92066666666666,"heading_deg":246.0780184282072,"speed_ms":9.319986957701218,"peak_altitude_m":400.0,"u_ms":-8.51256035975877,"v_ms":-3.4623271634565227}},{"type":"Feature","geometry":{"type":"Point","coordinates":[-85.5449,42.8939]},"properties":{"site":"KGRR","name":"Grand Rapids MI","scan_time":"2026-09-16T01:00:40Z","stale":false,"bins":25,"density_birds_km3":4.512,"heading_deg":108.91955320397415,"speed_ms":8.665539215686275,"peak_altitude_m":400.0,"u_ms":8.188088235294117,"v_ms":-2.276111111111111}},{"type":"Feature","geometry":{"type":"Point","coordinates":[-83.8217,39.4203]},"properties":{"site":"KILN","name":"Wilmington OH","scan_time":"2026-09-16T00:59:34Z","stale":false,"bins":25,"density_birds_km3":5.434,"heading_deg":23.08246778172007,"speed_ms":9.92344378988709,"peak_altitude_m":200.0,"u_ms":3.519050073637702,"v_ms":8.346705940108002}},{"type":"Feature","geometry":{"type":"Point","coordinates":[-81.7019,30.4846]},"properties":{"site":"KJAX","name":"Jacksonville FL","scan_time":"2026-09-16T00:57:32Z","stale":false,"bins":25,"density_birds_km3":82.77125,"heading_deg":211.03642978660832,"speed_ms":12.303414357882337,"peak_altitude_m":0.0,"u_ms":-6.409370153063151,"v_ms":-10.053391100136677}},{"type":"Feature","geometry":{"type":"Point","coordinates":[-88.0847,41.6045]},"properties":{"site":"KLOT","name":"Chicago IL","scan_time":"2026-09-16T00:59:34Z","stale":false,"bins":25,"density_birds_km3":24.412666666666667,"heading_deg":129.46947164301062,"speed_ms":8.486984625467654,"peak_altitude_m":400.0,"u_ms":6.625313088833665,"v_ms":-5.0073461864059645}},{"type":"Feature","geometry":{"type":"Point","coordinates":[-78.4292,33.9892]},"properties":{"site":"KLTX","name":"Wilmington NC","scan_time":"2026-09-16T00:58:04Z","stale":false,"bins":25,"density_birds_km3":51.38375,"heading_deg":221.47784439976002,"speed_ms":11.732849113073948,"peak_altitude_m":0.0,"u_ms":-6.860837774046768,"v_ms":-8.572214881864857}},{"type":"Feature","geometry":{"type":"Point","coordinates":[-77.4778,38.9753]},"properties":{"site":"KLWX","name":"Sterling VA","scan_time":"2026-09-16T01:01:31Z","stale":false,"bins":25,"density_birds_km3":17.593125,"heading_deg":318.98304394178297,"speed_ms":6.049649198787354,"peak_altitude_m":200.0,"u_ms":-2.3651804532986866,"v_ms":1.9625115490111165}},{"type":"Feature","geometry":{"type":"Point","coordinates":[-76.8762,34.7759]},"properties":{"site":"KMHX","name":"Morehead City NC","scan_time":"2026-09-16T01:01:33Z","stale":false,"bins":25,"density_birds_km3":50.100625,"heading_deg":202.2496401751093,"speed_ms":11.399617669079111,"peak_altitude_m":0.0,"u_ms":-4.293609932617919,"v_ms":-10.490025330671324}},{"type":"Feature","geometry":{"type":"Point","coordinates":[-80.6542,28.1133]},"properties":{"site":"KMLB","name":"Melbourne FL","scan_time":"2026-09-16T01:00:19Z","stale":false,"bins":25,"density_birds_km3":65.173125,"heading_deg":183.7317770481055,"speed_ms":11.534327709734038,"peak_altitude_m":0.0,"u_ms":-0.7363765669508838,"v_ms":-11.42463462589797}},{"type":"Feature","geometry":{"type":"Point","coordinates":[-86.5625,36.2472]},"properties":{"site":"KOHX","name":"Nashville TN","scan_time":"2026-09-16T01:02:48Z","stale":false,"bins":25,"density_birds_km3":19.326,"heading_deg":334.11623516594466,"speed_ms":6.230667678824058,"peak_altitude_m":200.0,"u_ms":-2.7454991201131773,"v_ms":5.3133170007936235}},{"type":"Feature","geometry":{"type":"Point","coordinates":[-72.8639,40.8655]},"properties":{"site":"KOKX","name":"Upton NY","scan_time":"2026-09-16T00:59:44Z","stale":false,"bins":25,"density_birds_km3":3.100625,"heading_deg":273.1285286190004,"speed_ms":5.778742189074784,"peak_altitude_m":0.0,"u_ms":-5.260034267284822,"v_ms":0.49760532150776055}},{"type":"Feature","geometry":{"type":"Point","coordinates":[-80.2183,40.5317]},"properties":{"site":"KPBZ","name":"Pittsburgh PA","scan_time":"2026-09-16T01:02:03Z","stale":false,"bins":25,"density_birds_km3":2.812857142857143,"heading_deg":27.666616961609485,"speed_ms":9.283263024142313,"peak_altitude_m":400.0,"u_ms":3.8992554002541295,"v_ms":7.254322744599746}},{"type":"Feature","geometry":{"type":"Point","coordinates":[-78.4899,35.6655]},"properties":{"site":"KRAX","name":"Raleigh NC","scan_time":"2026-09-16T00:58:54Z","stale":false,"bins":25,"density_birds_km3":61.7,"heading_deg":219.80536309070567,"speed_ms":6.697316634488365,"peak_altitude_m":200.0,"u_ms":-4.01598485926227,"v_ms":-4.917165735189513}},{"type":"Feature","geometry":{"type":"Point","coordinates":[-82.4017,27.7055]},"properties":{"site":"KTBW","name":"Tampa FL","scan_time":"2026-09-16T00:57:58Z","stale":false,"bins":25,"density_birds_km3":29.801875,"heading_deg":224.20317083225984,"speed_ms":8.069102195751107,"peak_altitude_m":0.0,"u_ms":-5.256298890589938,"v_ms":-5.818981607700858}}]}