{"type":"FeatureCollection","frame":"2026-09-22T05","site_count":20,"fresh_count":20,"failures":{},"features":[{"type":"Feature","geometry":{"type":"Point","coordinates":[-77.0073,36.984]},"properties":{"site":"KAKQ","name":"Wakefield VA","scan_time":"2026-09-22T04:59:40Z","stale":false,"bins":25,"density_birds_km3":6.12875,"heading_deg":231.49118001354265,"speed_ms":7.003008470252066,"peak_altitude_m":0.0,"u_ms":-4.934050413307481,"v_ms":-3.826456781304215}},{"type":"Feature","geometry":{"type":"Point","coordinates":[-71.1369,41.9558]},"properties":{"site":"KBOX","name":"Boston MA","scan_time":"2026-09-22T05:00:40Z","stale":false,"bins":25,"density_birds_km3":25.912499999999998,"heading_deg":177.57902137170456,"speed_ms":11.867802219006272,"peak_altitude_m":200.0,"u_ms":0.5603017366136036,"v_ms":-11.661502170767005}},{"type":"Feature","geometry":{"type":"Point","coordinates":[-78.7369,42.9489]},"properties":{"site":"KBUF","name":"Buffalo NY","scan_time":"2026-09-22T05:02:31Z","stale":false,"bins":25,"density_birds_km3":18.345333333333333,"heading_deg":239.86645919262804,"speed_ms":16.867791183631937,"peak_altitude_m":600.0,"u_ms":-14.594825380673763,"v_ms":-8.123192571864664}},{"type":"Feature","geometry":{"type":"Point","coordinates":[-81.8597,41.4131]},"properties":{"site":"KCLE","name":"Cleveland OH","scan_time":"2026-09-22T04:58:29Z","stale":false,"bins":25,"density_birds_km3":22.391333333333332,"heading_deg":238.9508550150494,"speed_ms":14.803610540419829,"peak_altitude_m":400.0,"u_ms":-12.75233824624088,"v_ms":-7.180550543397348}},{"type":"Feature","geometry":{"type":"Point","coordinates":[-81.0423,32.6555]},"properties":{"site":"KCLX","name":"Charleston SC","scan_time":"2026-09-22T04:57:46Z","stale":false,"bins":25,"density_birds_km3":6.3475,"heading_deg":245.48861188496102,"speed_ms":3.7049438755415522,"peak_altitude_m":0.0,"u_ms":-3.027533477747145,"v_ms":-1.7279470263883416}},{"type":"Feature","geometry":{"type":"Point","coordinates":[-74.4108,39.947]},"properties":{"site":"KDIX","name":"Philadelphia PA","scan_time":"2026-09-22T04:59:33Z","stale":false,"bins":25,"density_birds_km3":14.224285714285715,"heading_deg":216.1277898362119,"speed_ms":9.027816130473639,"peak_altitude_m":200.0,"u_ms":-5.320158623771225,"v_ms":-6.93209282841823}},{"type":"Feature","geometry":{"type":"Point","coordinates":[-84.5658,33.3636]},"properties":{"site":"KFFC","name":"Atlanta GA","scan_time":"2026-09-22T04:58:44Z","stale":false,"bins":25,"density_birds_km3":68.19933333333333,"heading_deg":223.6489262527818,"speed_ms":4.828225789108398,"peak_altitude_m":400.0,"u_ms":-2.6281301870008504,"v_ms":-3.748579653760056}},{"type":"Feature","geometry":{"type":"Point","coordinates":[-85.5449,42.8939]},"properties":{"site":"KGRR","name":"Grand Rapids MI","scan_time":"2026-09-22T04:59:13Z","stale":false,"bins":25,"density_birds_km3":31.514,"heading_deg":206.85031334595882,"speed_ms":11.900499894224668,"peak_altitude_m":200.0,"u_ms":-5.655737042521684,"v_ms":-9.657176433255767}},{"type":"Feature","geometry":{"type":"Point","coordinates":[-83.8217,39.4203]},"properties":{"site":"KILN","name":"Wilmington OH","scan_time":"2026-09-22T04:58:32Z","stale":false,"bins":25,"density_birds_km3":73.598,"heading_deg":184.74828468464315,"speed_ms":10.632088519303585,"peak_altitude_m":200.0,"u_ms":-0.9264433755457724,"v_ms":-10.318766780803305}},{"type":"Feature","geometry":{"type":"Point","coordinates":[-81.7019,30.4846]},"properties":{"site":"KJAX","name":"Jacksonville FL","scan_time":"2026-09-22T05:01:23Z","stale":false,"bins":25,"density_birds_km3":20.90375,"heading_deg":172.87624633793837,"speed_ms":5.612506653907115,"peak_altitude_m":0.0,"u_ms":0.7547244235772601,"v_ms":-5.525018092646311}},{"type":"Feature","geometry":{"type":"Point","coordinates":[-88.0847,41.6045]},"properties":{"site":"KLOT","name":"Chicago IL","scan_time":"2026-09-22T04:58:24Z","stale":false,"bins":25,"density_birds_km3":45.059999999999995,"heading_deg":248.05325871975248,"speed_ms":12.579246338215714,"peak_altitude_m":600.0,"u_ms":-11.340624648616659,"v_ms":-3.570772895398728}},{"type":"Feature","geometry":{"type":"Point","coordinates":[-78.4292,33.9892]},"properties":{"site":"KLTX","name":"Wilmington NC","scan_time":"2026-09-22T04:59:16Z","stale":false,"bins":25,"density_birds_km3":5.6031249999999995,"heading_deg":256.1245102304638,"speed_ms":4.485346291331546,"peak_altitude_m":0.0,"u_ms":-4.135885835567471,"v_ms":-1.3352323503127792}},{"type":"Feature","geometry":{"type":"Point","coordinates":[-77.4778,38.9753]},"properties":{"site":"KLWX","name":"Sterling VA","scan_time":"2026-09-22T05:01:25Z","stale":false,"bins":25,"density_birds_km3":8.969333333333333,"heading_deg":259.7188103178867,"speed_ms":6.7262167125803485,"peak_altitude_m":200.0,"u_ms":-6.579876033057851,"v_ms":-1.1423030303030304}},{"type":"Feature","geometry":{"type":"Point","coordinates":[-76.8762,34.7759]},"properties":{"site":"KMHX","name":"Morehead City NC","scan_time":"2026-09-22T04:58:22Z","stale":false,"bins":25,"density_birds_km3":3.361875,"heading_deg":232.651752735948,"speed_ms":4.847899925595238,"peak_altitude_m":0.0,"u_ms":-3.4443675595238092,"v_ms":-3.2179929315476192}},{"type":"Feature","geometry":{"type":"Point","coordinates":[-80.6542,28.1133]},"properties":{"site":"KMLB","name":"Melbourne FL","scan_time":"2026-09-22T04:58:56Z","stale":false,"bins":25,"density_birds_km3":4.35375,"heading_deg":305.66357542887397,"speed_ms":3.7536017800746486,"peak_altitude_m":200.0,"u_ms":-2.338853000287109,"v_ms":2.048016078093598}},{"type":"Feature","geometry":{"type":"Point","coordinates":[-86.5625,36.2472]},"properties":{"site":"KOHX","name":"Nashville TN","scan_time":"2026-09-22T04:58:19Z","stale":false,"bins":25,"density_birds_km3":246.05999999999997,"heading_deg":201.07056312503792,"speed_ms":10.30424015822699,"peak_altitude_m":400.0,"u_ms":-3.755164892031754,"v_ms":-9.009809314801268}},{"type":"Feature","geometry":{"type":"Point","coordinates":[-72.8639,40.8655]},"properties":{"site":"KOKX","name":"Upton NY","scan_time":"2026-09-22T04:57:43Z","stale":false,"bins":25,"density_birds_km3":3.103125,"heading_deg":243.8693442716868,"speed_ms":11.363320439739415,"peak_altitude_m":200.0,"u_ms":-10.205572068403908,"v_ms":-4.971769136807818}},{"type":"Feature","geometry":{"type":"Point","coordinates":[-80.2183,40.5317]},"properties":{"site":"KPBZ","name":"Pittsburgh PA","scan_time":"2026-09-22T05:01:20Z","stale":false,"bins":25,"density_birds_km3":3.0021428571428572,"heading_deg":269.87785366160284,"speed_ms":9.815869356388088,"peak_altitude_m":400.0,"u_ms":-8.734759846301634,"v_ms":0.14076609029779055}},{"type":"Feature","geometry":{"type":"Point","coordinates":[-78.4899,35.6655]},"properties":{"site":"KRAX","name":"Raleigh NC","scan_time":"2026-09-22T05:02:41Z","stale":false,"bins":25,"density_birds_km3":27.60375,"heading_deg":232.28777725351108,"speed_ms":2.7459002400036225,"peak_altitude_m":200.0,"u_ms":-1.904486029977811,"v_ms":-0.9860759407689172}},{"type":"Feature","geometry":{"type":"Point","coordinates":[-82.4017,27.7055]},"properties":{"site":"KTBW","name":"Tampa FL","scan_time":"2026-09-22T05:01:07Z","stale":false,"bins":25,"density_birds_km3":18.919375,"heading_deg":217.5935927535028,"speed_ms":4.895232243145029,"peak_altitude_m":0.0,"u_ms":-2.3703049223653783,"v_ms":-3.6512011892963336}}]}