{"type":"FeatureCollection","frame":"2026-08-17T11","site_count":20,"fresh_count":19,"failures":{"KGRR":"RuntimeError('no scan within 20 min of 2026-08-17T11:00Z')"},"features":[{"type":"Feature","geometry":{"type":"Point","coordinates":[-77.0073,36.984]},"properties":{"site":"KAKQ","name":"Wakefield VA","scan_time":"2026-08-17T11:01:15Z","stale":false,"bins":25,"density_birds_km3":0.12625,"heading_deg":49.840682748082266,"speed_ms":9.190148514851485,"peak_altitude_m":0.0,"u_ms":6.648069306930693,"v_ms":5.560544554455444}},{"type":"Feature","geometry":{"type":"Point","coordinates":[-71.1369,41.9558]},"properties":{"site":"KBOX","name":"Boston MA","scan_time":"2026-08-17T11:01:40Z","stale":false,"bins":25,"density_birds_km3":1.4326666666666665,"heading_deg":null,"speed_ms":null,"peak_altitude_m":0.0,"u_ms":null,"v_ms":null}},{"type":"Feature","geometry":{"type":"Point","coordinates":[-78.7369,42.9489]},"properties":{"site":"KBUF","name":"Buffalo NY","scan_time":"2026-08-17T10:57:40Z","stale":false,"bins":25,"density_birds_km3":1.8313333333333335,"heading_deg":170.1567746300823,"speed_ms":5.948325445941026,"peak_altitude_m":200.0,"u_ms":0.9670913724062613,"v_ms":-5.827306152165999}},{"type":"Feature","geometry":{"type":"Point","coordinates":[-81.8597,41.4131]},"properties":{"site":"KCLE","name":"Cleveland OH","scan_time":"2026-08-17T11:00:55Z","stale":false,"bins":25,"density_birds_km3":6.633333333333334,"heading_deg":165.7838023988472,"speed_ms":5.405904522613066,"peak_altitude_m":200.0,"u_ms":1.4257316582914572,"v_ms":-4.853566834170855}},{"type":"Feature","geometry":{"type":"Point","coordinates":[-81.0423,32.6555]},"properties":{"site":"KCLX","name":"Charleston SC","scan_time":"2026-08-17T11:03:37Z","stale":false,"bins":25,"density_birds_km3":0.874375,"heading_deg":111.41766508343423,"speed_ms":7.985696926375982,"peak_altitude_m":0.0,"u_ms":7.153745532523231,"v_ms":-2.8505789849892778}},{"type":"Feature","geometry":{"type":"Point","coordinates":[-74.4108,39.947]},"properties":{"site":"KDIX","name":"Philadelphia PA","scan_time":"2026-08-17T11:00:00Z","stale":false,"bins":25,"density_birds_km3":0.015625,"heading_deg":96.57306041495015,"speed_ms":4.076315789473684,"peak_altitude_m":200.0,"u_ms":4.043157894736842,"v_ms":-0.48368421052631577}},{"type":"Feature","geometry":{"type":"Point","coordinates":[-84.5658,33.3636]},"properties":{"site":"KFFC","name":"Atlanta GA","scan_time":"2026-08-17T11:01:59Z","stale":false,"bins":25,"density_birds_km3":1.7106666666666668,"heading_deg":114.82268097239424,"speed_ms":5.590284489477786,"peak_altitude_m":200.0,"u_ms":5.043203429462198,"v_ms":-2.236348402182385}},{"type":"Feature","geometry":{"type":"Point","coordinates":[-83.8217,39.4203]},"properties":{"site":"KILN","name":"Wilmington OH","scan_time":"2026-08-17T10:56:57Z","stale":false,"bins":25,"density_birds_km3":2.4166666666666665,"heading_deg":103.52852110098502,"speed_ms":5.454497968659315,"peak_altitude_m":200.0,"u_ms":5.253163087637841,"v_ms":-1.3157719094602436}},{"type":"Feature","geometry":{"type":"Point","coordinates":[-81.7019,30.4846]},"properties":{"site":"KJAX","name":"Jacksonville FL","scan_time":"2026-08-17T11:03:23Z","stale":false,"bins":25,"density_birds_km3":2.94875,"heading_deg":130.47013077786488,"speed_ms":9.726904610155088,"peak_altitude_m":0.0,"u_ms":7.4262460165710635,"v_ms":-6.257875504567665}},{"type":"Feature","geometry":{"type":"Point","coordinates":[-88.0847,41.6045]},"properties":{"site":"KLOT","name":"Chicago IL","scan_time":"2026-08-17T10:59:39Z","stale":false,"bins":25,"density_birds_km3":11.892666666666665,"heading_deg":177.2030740248887,"speed_ms":7.185610248360149,"peak_altitude_m":200.0,"u_ms":0.344201939788081,"v_ms":-7.093609911980714}},{"type":"Feature","geometry":{"type":"Point","coordinates":[-78.4292,33.9892]},"properties":{"site":"KLTX","name":"Wilmington NC","scan_time":"2026-08-17T10:58:51Z","stale":false,"bins":25,"density_birds_km3":0.548125,"heading_deg":84.25031645521767,"speed_ms":7.368453608247422,"peak_altitude_m":0.0,"u_ms":6.808052691867124,"v_ms":0.7083390607101946}},{"type":"Feature","geometry":{"type":"Point","coordinates":[-77.4778,38.9753]},"properties":{"site":"KLWX","name":"Sterling VA","scan_time":"2026-08-17T10:56:43Z","stale":false,"bins":25,"density_birds_km3":1.4793749999999999,"heading_deg":88.74921682093076,"speed_ms":6.1343575655114115,"peak_altitude_m":0.0,"u_ms":4.927683854606931,"v_ms":-1.9561158072696534}},{"type":"Feature","geometry":{"type":"Point","coordinates":[-76.8762,34.7759]},"properties":{"site":"KMHX","name":"Morehead City NC","scan_time":"2026-08-17T11:00:37Z","stale":false,"bins":25,"density_birds_km3":0.55875,"heading_deg":80.76737041642853,"speed_ms":7.884594285714286,"peak_altitude_m":200.0,"u_ms":7.502788571428572,"v_ms":1.2832685714285712}},{"type":"Feature","geometry":{"type":"Point","coordinates":[-80.6542,28.1133]},"properties":{"site":"KMLB","name":"Melbourne FL","scan_time":"2026-08-17T10:59:51Z","stale":false,"bins":25,"density_birds_km3":3.0275000000000003,"heading_deg":142.57596242419555,"speed_ms":4.357365269461078,"peak_altitude_m":0.0,"u_ms":2.6990212678092087,"v_ms":-3.410066074747058}},{"type":"Feature","geometry":{"type":"Point","coordinates":[-86.5625,36.2472]},"properties":{"site":"KOHX","name":"Nashville TN","scan_time":"2026-08-17T11:00:26Z","stale":false,"bins":25,"density_birds_km3":9.586666666666668,"heading_deg":112.22265058288883,"speed_ms":8.848109296482413,"peak_altitude_m":200.0,"u_ms":7.356365159128978,"v_ms":-4.18268774427694}},{"type":"Feature","geometry":{"type":"Point","coordinates":[-72.8639,40.8655]},"properties":{"site":"KOKX","name":"Upton NY","scan_time":"2026-08-17T11:01:14Z","stale":false,"bins":25,"density_birds_km3":1.876875,"heading_deg":null,"speed_ms":null,"peak_altitude_m":0.0,"u_ms":null,"v_ms":null}},{"type":"Feature","geometry":{"type":"Point","coordinates":[-80.2183,40.5317]},"properties":{"site":"KPBZ","name":"Pittsburgh PA","scan_time":"2026-08-17T10:59:15Z","stale":false,"bins":25,"density_birds_km3":0.5035714285714286,"heading_deg":130.5242840407848,"speed_ms":7.309645390070922,"peak_altitude_m":400.0,"u_ms":5.034652482269504,"v_ms":-4.925063829787234}},{"type":"Feature","geometry":{"type":"Point","coordinates":[-78.4899,35.6655]},"properties":{"site":"KRAX","name":"Raleigh NC","scan_time":"2026-08-17T10:59:52Z","stale":false,"bins":25,"density_birds_km3":1.095625,"heading_deg":98.46715893673897,"speed_ms":8.610931712962962,"peak_altitude_m":0.0,"u_ms":7.9996932870370365,"v_ms":-1.8883912037037036}},{"type":"Feature","geometry":{"type":"Point","coordinates":[-82.4017,27.7055]},"properties":{"site":"KTBW","name":"Tampa FL","scan_time":"2026-08-17T11:02:05Z","stale":false,"bins":25,"density_birds_km3":7.5675,"heading_deg":193.07528135665405,"speed_ms":2.8535183349851336,"peak_altitude_m":0.0,"u_ms":-0.34314585398083924,"v_ms":-2.4585183349851336}}]}