{"type":"FeatureCollection","frame":"2026-08-24T00","site_count":20,"fresh_count":20,"failures":{},"features":[{"type":"Feature","geometry":{"type":"Point","coordinates":[-77.0073,36.984]},"properties":{"site":"KAKQ","name":"Wakefield VA","scan_time":"2026-08-24T00:00:27Z","stale":false,"bins":25,"density_birds_km3":8.1775,"heading_deg":108.2143564358423,"speed_ms":4.240985248031797,"peak_altitude_m":0.0,"u_ms":4.006638385691355,"v_ms":-1.287412672934342}},{"type":"Feature","geometry":{"type":"Point","coordinates":[-71.1369,41.9558]},"properties":{"site":"KBOX","name":"Boston MA","scan_time":"2026-08-24T00:00:46Z","stale":false,"bins":25,"density_birds_km3":4.2875000000000005,"heading_deg":354.8566903027353,"speed_ms":4.44619985412108,"peak_altitude_m":0.0,"u_ms":-0.34439824945295405,"v_ms":4.3976469730123995}},{"type":"Feature","geometry":{"type":"Point","coordinates":[-78.7369,42.9489]},"properties":{"site":"KBUF","name":"Buffalo NY","scan_time":"2026-08-24T00:00:27Z","stale":false,"bins":25,"density_birds_km3":0.6553333333333333,"heading_deg":57.83397848212406,"speed_ms":5.252950152594099,"peak_altitude_m":200.0,"u_ms":4.360630722278739,"v_ms":2.7822177009155644}},{"type":"Feature","geometry":{"type":"Point","coordinates":[-81.8597,41.4131]},"properties":{"site":"KCLE","name":"Cleveland OH","scan_time":"2026-08-24T00:01:09Z","stale":false,"bins":25,"density_birds_km3":1.5859999999999999,"heading_deg":55.8639353519596,"speed_ms":7.356021867115223,"peak_altitude_m":200.0,"u_ms":6.066509671993272,"v_ms":3.9411354079058034}},{"type":"Feature","geometry":{"type":"Point","coordinates":[-81.0423,32.6555]},"properties":{"site":"KCLX","name":"Charleston SC","scan_time":"2026-08-23T23:57:53Z","stale":false,"bins":25,"density_birds_km3":0.6625,"heading_deg":132.40724884814503,"speed_ms":0.6576158940397351,"peak_altitude_m":0.0,"u_ms":0.2124314096499527,"v_ms":0.3975118259224219}},{"type":"Feature","geometry":{"type":"Point","coordinates":[-74.4108,39.947]},"properties":{"site":"KDIX","name":"Philadelphia PA","scan_time":"2026-08-23T23:57:44Z","stale":false,"bins":25,"density_birds_km3":0.709375,"heading_deg":72.36671937512673,"speed_ms":7.543295154185022,"peak_altitude_m":0.0,"u_ms":7.176766519823789,"v_ms":2.2657797356828193}},{"type":"Feature","geometry":{"type":"Point","coordinates":[-84.5658,33.3636]},"properties":{"site":"KFFC","name":"Atlanta GA","scan_time":"2026-08-23T23:58:01Z","stale":false,"bins":25,"density_birds_km3":0.8473333333333333,"heading_deg":159.4940537550574,"speed_ms":6.24432859399684,"peak_altitude_m":400.0,"u_ms":2.182725118483412,"v_ms":-5.836532385466035}},{"type":"Feature","geometry":{"type":"Point","coordinates":[-85.5449,42.8939]},"properties":{"site":"KGRR","name":"Grand Rapids MI","scan_time":"2026-08-23T23:56:35Z","stale":false,"bins":25,"density_birds_km3":0.5926666666666667,"heading_deg":151.5382162916543,"speed_ms":6.1890101237345325,"peak_altitude_m":200.0,"u_ms":2.9604049493813274,"v_ms":-5.43578177727784}},{"type":"Feature","geometry":{"type":"Point","coordinates":[-83.8217,39.4203]},"properties":{"site":"KILN","name":"Wilmington OH","scan_time":"2026-08-24T00:00:57Z","stale":false,"bins":25,"density_birds_km3":0.5993333333333334,"heading_deg":86.84053271130179,"speed_ms":7.58035754189944,"peak_altitude_m":200.0,"u_ms":7.556927374301676,"v_ms":0.3451731843575419}},{"type":"Feature","geometry":{"type":"Point","coordinates":[-81.7019,30.4846]},"properties":{"site":"KJAX","name":"Jacksonville FL","scan_time":"2026-08-23T23:59:00Z","stale":false,"bins":25,"density_birds_km3":0.263125,"heading_deg":40.657876692895286,"speed_ms":4.648301435406699,"peak_altitude_m":0.0,"u_ms":2.9797846889952155,"v_ms":3.290143540669857}},{"type":"Feature","geometry":{"type":"Point","coordinates":[-88.0847,41.6045]},"properties":{"site":"KLOT","name":"Chicago IL","scan_time":"2026-08-23T23:58:32Z","stale":false,"bins":25,"density_birds_km3":1.3206666666666667,"heading_deg":138.74227948282135,"speed_ms":7.678086824835942,"peak_altitude_m":200.0,"u_ms":5.031322564361433,"v_ms":-5.788319030792529}},{"type":"Feature","geometry":{"type":"Point","coordinates":[-78.4292,33.9892]},"properties":{"site":"KLTX","name":"Wilmington NC","scan_time":"2026-08-24T00:01:14Z","stale":false,"bins":25,"density_birds_km3":2.30625,"heading_deg":10.798131004163064,"speed_ms":4.0227621195039465,"peak_altitude_m":0.0,"u_ms":0.7777593010146562,"v_ms":3.934605411499436}},{"type":"Feature","geometry":{"type":"Point","coordinates":[-77.4778,38.9753]},"properties":{"site":"KLWX","name":"Sterling VA","scan_time":"2026-08-24T00:00:41Z","stale":false,"bins":25,"density_birds_km3":2.435,"heading_deg":111.3816758466241,"speed_ms":6.563606262833675,"peak_altitude_m":400.0,"u_ms":6.1056750513347025,"v_ms":-2.3421919917864478}},{"type":"Feature","geometry":{"type":"Point","coordinates":[-76.8762,34.7759]},"properties":{"site":"KMHX","name":"Morehead City NC","scan_time":"2026-08-23T23:59:24Z","stale":false,"bins":25,"density_birds_km3":2.705625,"heading_deg":36.923207007020814,"speed_ms":6.469128927911275,"peak_altitude_m":0.0,"u_ms":3.86365988909427,"v_ms":5.1706769870609985}},{"type":"Feature","geometry":{"type":"Point","coordinates":[-80.6542,28.1133]},"properties":{"site":"KMLB","name":"Melbourne FL","scan_time":"2026-08-23T23:59:17Z","stale":false,"bins":25,"density_birds_km3":0.434375,"heading_deg":229.06453957079347,"speed_ms":4.185971223021583,"peak_altitude_m":0.0,"u_ms":-3.006,"v_ms":-2.7216690647482014}},{"type":"Feature","geometry":{"type":"Point","coordinates":[-86.5625,36.2472]},"properties":{"site":"KOHX","name":"Nashville TN","scan_time":"2026-08-24T00:03:01Z","stale":false,"bins":25,"density_birds_km3":2.9353333333333333,"heading_deg":151.91890318341783,"speed_ms":7.01764759516754,"peak_altitude_m":200.0,"u_ms":3.301212673808981,"v_ms":-6.183385001139732}},{"type":"Feature","geometry":{"type":"Point","coordinates":[-72.8639,40.8655]},"properties":{"site":"KOKX","name":"Upton NY","scan_time":"2026-08-23T23:59:19Z","stale":false,"bins":25,"density_birds_km3":1.626875,"heading_deg":26.843948013364734,"speed_ms":7.351578947368421,"peak_altitude_m":0.0,"u_ms":3.341179408374952,"v_ms":6.532516327314637}},{"type":"Feature","geometry":{"type":"Point","coordinates":[-80.2183,40.5317]},"properties":{"site":"KPBZ","name":"Pittsburgh PA","scan_time":"2026-08-24T00:00:06Z","stale":false,"bins":25,"density_birds_km3":0.24857142857142858,"heading_deg":87.15196254663586,"speed_ms":7.998275862068964,"peak_altitude_m":400.0,"u_ms":7.982902298850575,"v_ms":0.40922413793103446}},{"type":"Feature","geometry":{"type":"Point","coordinates":[-78.4899,35.6655]},"properties":{"site":"KRAX","name":"Raleigh NC","scan_time":"2026-08-23T23:58:08Z","stale":false,"bins":25,"density_birds_km3":2.93875,"heading_deg":160.37334323064678,"speed_ms":4.279693682195278,"peak_altitude_m":0.0,"u_ms":1.3407955754094874,"v_ms":-3.963418421612423}},{"type":"Feature","geometry":{"type":"Point","coordinates":[-82.4017,27.7055]},"properties":{"site":"KTBW","name":"Tampa FL","scan_time":"2026-08-23T23:58:01Z","stale":false,"bins":25,"density_birds_km3":1.251875,"heading_deg":46.70309737027756,"speed_ms":1.7211708542713569,"peak_altitude_m":200.0,"u_ms":1.0337688442211055,"v_ms":0.8423969849246232}}]}