{"type":"FeatureCollection","frame":"2026-10-06T05","site_count":20,"fresh_count":19,"failures":{"KILN":"RuntimeError('no scan within 20 min of 2026-10-06T05:00Z')"},"features":[{"type":"Feature","geometry":{"type":"Point","coordinates":[-77.0073,36.984]},"properties":{"site":"KAKQ","name":"Wakefield VA","scan_time":"2026-10-06T04:57:33Z","stale":false,"bins":25,"density_birds_km3":133.835,"heading_deg":202.64287396820743,"speed_ms":15.04442326372025,"peak_altitude_m":400.0,"u_ms":-5.964888575484738,"v_ms":-13.658414185377517}},{"type":"Feature","geometry":{"type":"Point","coordinates":[-71.1369,41.9558]},"properties":{"site":"KBOX","name":"Boston MA","scan_time":"2026-10-06T05:01:22Z","stale":false,"bins":25,"density_birds_km3":5.2025,"heading_deg":131.461761636942,"speed_ms":7.845338779432966,"peak_altitude_m":0.0,"u_ms":5.859031715521384,"v_ms":-5.189007688611245}},{"type":"Feature","geometry":{"type":"Point","coordinates":[-78.7369,42.9489]},"properties":{"site":"KBUF","name":"Buffalo NY","scan_time":"2026-10-06T04:59:17Z","stale":false,"bins":25,"density_birds_km3":48.553999999999995,"heading_deg":179.4614337160023,"speed_ms":11.598061951641473,"peak_altitude_m":400.0,"u_ms":0.0012833820763136388,"v_ms":-11.544264942126292}},{"type":"Feature","geometry":{"type":"Point","coordinates":[-81.8597,41.4131]},"properties":{"site":"KCLE","name":"Cleveland OH","scan_time":"2026-10-06T05:02:11Z","stale":false,"bins":25,"density_birds_km3":27.790666666666667,"heading_deg":217.80547507249076,"speed_ms":9.243880199587391,"peak_altitude_m":400.0,"u_ms":-5.153220025907978,"v_ms":-7.0921426857937915}},{"type":"Feature","geometry":{"type":"Point","coordinates":[-81.0423,32.6555]},"properties":{"site":"KCLX","name":"Charleston SC","scan_time":"2026-10-06T05:02:17Z","stale":false,"bins":25,"density_birds_km3":135.299375,"heading_deg":208.75954224092118,"speed_ms":12.152053917470056,"peak_altitude_m":0.0,"u_ms":-6.053969761501115,"v_ms":-10.338558659269491}},{"type":"Feature","geometry":{"type":"Point","coordinates":[-74.4108,39.947]},"properties":{"site":"KDIX","name":"Philadelphia PA","scan_time":"2026-10-06T05:02:00Z","stale":false,"bins":25,"density_birds_km3":28.480625,"heading_deg":192.00273293886065,"speed_ms":12.992392415896772,"peak_altitude_m":0.0,"u_ms":-2.6344212073997673,"v_ms":-12.681332265355834}},{"type":"Feature","geometry":{"type":"Point","coordinates":[-84.5658,33.3636]},"properties":{"site":"KFFC","name":"Atlanta GA","scan_time":"2026-10-06T04:58:11Z","stale":false,"bins":25,"density_birds_km3":378.6573333333333,"heading_deg":209.9967416202125,"speed_ms":9.856105062448723,"peak_altitude_m":200.0,"u_ms":-5.0768178264957236,"v_ms":-8.171597028800006}},{"type":"Feature","geometry":{"type":"Point","coordinates":[-85.5449,42.8939]},"properties":{"site":"KGRR","name":"Grand Rapids MI","scan_time":"2026-10-06T04:57:07Z","stale":false,"bins":25,"density_birds_km3":80.07066666666667,"heading_deg":233.42026456936816,"speed_ms":11.293374090685107,"peak_altitude_m":200.0,"u_ms":-8.847207202692658,"v_ms":-6.438083652794134}},{"type":"Feature","geometry":{"type":"Point","coordinates":[-81.7019,30.4846]},"properties":{"site":"KJAX","name":"Jacksonville FL","scan_time":"2026-10-06T04:58:55Z","stale":false,"bins":25,"density_birds_km3":725.674,"heading_deg":199.25395814355798,"speed_ms":10.09223829831985,"peak_altitude_m":0.0,"u_ms":-3.437068276982429,"v_ms":-9.307911561783044}},{"type":"Feature","geometry":{"type":"Point","coordinates":[-88.0847,41.6045]},"properties":{"site":"KLOT","name":"Chicago IL","scan_time":"2026-10-06T04:57:39Z","stale":false,"bins":25,"density_birds_km3":9.918666666666667,"heading_deg":291.4933402869678,"speed_ms":11.909223013845947,"peak_altitude_m":200.0,"u_ms":-10.702034547654256,"v_ms":3.821361070036295}},{"type":"Feature","geometry":{"type":"Point","coordinates":[-78.4292,33.9892]},"properties":{"site":"KLTX","name":"Wilmington NC","scan_time":"2026-10-06T05:00:12Z","stale":false,"bins":25,"density_birds_km3":156.60625,"heading_deg":217.06883677882536,"speed_ms":14.748089189005823,"peak_altitude_m":0.0,"u_ms":-8.932499950113542,"v_ms":-11.702797153678228}},{"type":"Feature","geometry":{"type":"Point","coordinates":[-77.4778,38.9753]},"properties":{"site":"KLWX","name":"Sterling VA","scan_time":"2026-10-06T05:03:12Z","stale":false,"bins":25,"density_birds_km3":78.64,"heading_deg":198.49995991603794,"speed_ms":12.547584326816086,"peak_altitude_m":0.0,"u_ms":-3.588221109521539,"v_ms":-11.886899697981242}},{"type":"Feature","geometry":{"type":"Point","coordinates":[-76.8762,34.7759]},"properties":{"site":"KMHX","name":"Morehead City NC","scan_time":"2026-10-06T04:57:35Z","stale":false,"bins":25,"density_birds_km3":98.121875,"heading_deg":201.68536684907053,"speed_ms":14.525163733414866,"peak_altitude_m":0.0,"u_ms":-5.351847789391884,"v_ms":-13.481840782710055}},{"type":"Feature","geometry":{"type":"Point","coordinates":[-80.6542,28.1133]},"properties":{"site":"KMLB","name":"Melbourne FL","scan_time":"2026-10-06T04:58:47Z","stale":false,"bins":25,"density_birds_km3":12.38625,"heading_deg":154.83949580624844,"speed_ms":5.178393245361242,"peak_altitude_m":0.0,"u_ms":2.0893240305374388,"v_ms":-4.663121998078771}},{"type":"Feature","geometry":{"type":"Point","coordinates":[-86.5625,36.2472]},"properties":{"site":"KOHX","name":"Nashville TN","scan_time":"2026-10-06T05:00:14Z","stale":false,"bins":25,"density_birds_km3":81.05799999999999,"heading_deg":217.5689258985147,"speed_ms":11.949204849202628,"peak_altitude_m":200.0,"u_ms":-7.281130795233043,"v_ms":-9.097498334525895}},{"type":"Feature","geometry":{"type":"Point","coordinates":[-72.8639,40.8655]},"properties":{"site":"KOKX","name":"Upton NY","scan_time":"2026-10-06T04:58:09Z","stale":false,"bins":25,"density_birds_km3":7.5581249999999995,"heading_deg":159.83111498403053,"speed_ms":7.637999669230133,"peak_altitude_m":0.0,"u_ms":2.8973860911270983,"v_ms":-7.010564789547673}},{"type":"Feature","geometry":{"type":"Point","coordinates":[-80.2183,40.5317]},"properties":{"site":"KPBZ","name":"Pittsburgh PA","scan_time":"2026-10-06T04:57:38Z","stale":false,"bins":25,"density_birds_km3":40.794285714285714,"heading_deg":205.98828586100933,"speed_ms":11.043230319372462,"peak_altitude_m":600.0,"u_ms":-4.805729268805155,"v_ms":-9.769460708782743}},{"type":"Feature","geometry":{"type":"Point","coordinates":[-78.4899,35.6655]},"properties":{"site":"KRAX","name":"Raleigh NC","scan_time":"2026-10-06T04:59:16Z","stale":false,"bins":25,"density_birds_km3":233.34125,"heading_deg":200.93093994404606,"speed_ms":12.45227282467202,"peak_altitude_m":800.0,"u_ms":-4.22817555297231,"v_ms":-11.643117456729145}},{"type":"Feature","geometry":{"type":"Point","coordinates":[-82.4017,27.7055]},"properties":{"site":"KTBW","name":"Tampa FL","scan_time":"2026-10-06T04:59:14Z","stale":false,"bins":25,"density_birds_km3":8.54125,"heading_deg":217.48728845309114,"speed_ms":6.475332259953162,"peak_altitude_m":0.0,"u_ms":-3.810506440281031,"v_ms":-5.008070111241218}}]}