{"type":"FeatureCollection","frame":"2026-08-30T07","site_count":20,"fresh_count":20,"failures":{},"features":[{"type":"Feature","geometry":{"type":"Point","coordinates":[-77.0073,36.984]},"properties":{"site":"KAKQ","name":"Wakefield VA","scan_time":"2026-08-30T07:00:59Z","stale":false,"bins":25,"density_birds_km3":16.55,"heading_deg":223.14604573473028,"speed_ms":6.973402318818686,"peak_altitude_m":0.0,"u_ms":-4.353904225990408,"v_ms":-5.185071566146757}},{"type":"Feature","geometry":{"type":"Point","coordinates":[-71.1369,41.9558]},"properties":{"site":"KBOX","name":"Boston MA","scan_time":"2026-08-30T07:01:40Z","stale":false,"bins":25,"density_birds_km3":1.951875,"heading_deg":77.21420982394756,"speed_ms":5.061614349775786,"peak_altitude_m":0.0,"u_ms":4.143555413196669,"v_ms":0.8938500960922486}},{"type":"Feature","geometry":{"type":"Point","coordinates":[-78.7369,42.9489]},"properties":{"site":"KBUF","name":"Buffalo NY","scan_time":"2026-08-30T07:01:50Z","stale":false,"bins":25,"density_birds_km3":0.676,"heading_deg":46.587491038875875,"speed_ms":8.075355029585799,"peak_altitude_m":200.0,"u_ms":5.705986193293886,"v_ms":5.233688362919132}},{"type":"Feature","geometry":{"type":"Point","coordinates":[-81.8597,41.4131]},"properties":{"site":"KCLE","name":"Cleveland OH","scan_time":"2026-08-30T07:02:03Z","stale":false,"bins":25,"density_birds_km3":0.772,"heading_deg":27.180430783317828,"speed_ms":7.7941486603284345,"peak_altitude_m":200.0,"u_ms":3.5261884183232493,"v_ms":6.441961970613656}},{"type":"Feature","geometry":{"type":"Point","coordinates":[-81.0423,32.6555]},"properties":{"site":"KCLX","name":"Charleston SC","scan_time":"2026-08-30T06:57:49Z","stale":false,"bins":25,"density_birds_km3":16.1375,"heading_deg":220.74489894602925,"speed_ms":9.293884748156284,"peak_altitude_m":0.0,"u_ms":-6.071522830691982,"v_ms":-7.005524478267692}},{"type":"Feature","geometry":{"type":"Point","coordinates":[-74.4108,39.947]},"properties":{"site":"KDIX","name":"Philadelphia PA","scan_time":"2026-08-30T06:56:38Z","stale":false,"bins":25,"density_birds_km3":9.35375,"heading_deg":279.1139024276101,"speed_ms":3.6772661581694095,"peak_altitude_m":0.0,"u_ms":-1.1184985949417903,"v_ms":-1.2506369597216644}},{"type":"Feature","geometry":{"type":"Point","coordinates":[-84.5658,33.3636]},"properties":{"site":"KFFC","name":"Atlanta GA","scan_time":"2026-08-30T07:03:43Z","stale":false,"bins":25,"density_birds_km3":16.740000000000002,"heading_deg":241.4041050022987,"speed_ms":5.714972919155715,"peak_altitude_m":200.0,"u_ms":-4.935753086419753,"v_ms":-2.6425256869773}},{"type":"Feature","geometry":{"type":"Point","coordinates":[-85.5449,42.8939]},"properties":{"site":"KGRR","name":"Grand Rapids MI","scan_time":"2026-08-30T07:02:58Z","stale":false,"bins":25,"density_birds_km3":0.606,"heading_deg":1.7332803396230168,"speed_ms":8.59014301430143,"peak_altitude_m":200.0,"u_ms":0.7547524752475248,"v_ms":7.936941694169417}},{"type":"Feature","geometry":{"type":"Point","coordinates":[-83.8217,39.4203]},"properties":{"site":"KILN","name":"Wilmington OH","scan_time":"2026-08-30T06:57:56Z","stale":false,"bins":25,"density_birds_km3":1.5673333333333335,"heading_deg":2.999192926281534,"speed_ms":6.031673764906304,"peak_altitude_m":400.0,"u_ms":0.6624829642248722,"v_ms":4.509263202725724}},{"type":"Feature","geometry":{"type":"Point","coordinates":[-81.7019,30.4846]},"properties":{"site":"KJAX","name":"Jacksonville FL","scan_time":"2026-08-30T06:57:19Z","stale":false,"bins":25,"density_birds_km3":34.8975,"heading_deg":190.96951084794935,"speed_ms":11.334621835187871,"peak_altitude_m":0.0,"u_ms":-2.13876041498683,"v_ms":-11.109995341253203}},{"type":"Feature","geometry":{"type":"Point","coordinates":[-88.0847,41.6045]},"properties":{"site":"KLOT","name":"Chicago IL","scan_time":"2026-08-30T07:02:03Z","stale":false,"bins":25,"density_birds_km3":1.4986666666666666,"heading_deg":34.02743660347949,"speed_ms":16.640362731152205,"peak_altitude_m":800.0,"u_ms":9.122901849217639,"v_ms":13.183214793741111}},{"type":"Feature","geometry":{"type":"Point","coordinates":[-78.4292,33.9892]},"properties":{"site":"KLTX","name":"Wilmington NC","scan_time":"2026-08-30T07:00:44Z","stale":false,"bins":25,"density_birds_km3":26.665625,"heading_deg":226.69185222767226,"speed_ms":9.726511028291494,"peak_altitude_m":0.0,"u_ms":-7.058270398237348,"v_ms":-6.681960246583691}},{"type":"Feature","geometry":{"type":"Point","coordinates":[-77.4778,38.9753]},"properties":{"site":"KLWX","name":"Sterling VA","scan_time":"2026-08-30T06:59:59Z","stale":false,"bins":25,"density_birds_km3":10.738125,"heading_deg":303.10201536537767,"speed_ms":5.932247511496596,"peak_altitude_m":200.0,"u_ms":-4.181363874497934,"v_ms":3.0784277315326856}},{"type":"Feature","geometry":{"type":"Point","coordinates":[-76.8762,34.7759]},"properties":{"site":"KMHX","name":"Morehead City NC","scan_time":"2026-08-30T07:00:24Z","stale":false,"bins":25,"density_birds_km3":6.545,"heading_deg":220.13724826295294,"speed_ms":4.748888358322987,"peak_altitude_m":0.0,"u_ms":-2.7939556871358997,"v_ms":-3.6671559545411134}},{"type":"Feature","geometry":{"type":"Point","coordinates":[-80.6542,28.1133]},"properties":{"site":"KMLB","name":"Melbourne FL","scan_time":"2026-08-30T06:58:56Z","stale":false,"bins":25,"density_birds_km3":2.7399999999999998,"heading_deg":214.41092530406257,"speed_ms":4.723379310344828,"peak_altitude_m":0.0,"u_ms":-2.4781448275862066,"v_ms":-3.7162850574712643}},{"type":"Feature","geometry":{"type":"Point","coordinates":[-86.5625,36.2472]},"properties":{"site":"KOHX","name":"Nashville TN","scan_time":"2026-08-30T06:59:51Z","stale":false,"bins":25,"density_birds_km3":16.20133333333333,"heading_deg":10.006223384688187,"speed_ms":3.784286889967904,"peak_altitude_m":200.0,"u_ms":0.9193165171590816,"v_ms":3.3947243025265412}},{"type":"Feature","geometry":{"type":"Point","coordinates":[-72.8639,40.8655]},"properties":{"site":"KOKX","name":"Upton NY","scan_time":"2026-08-30T07:01:41Z","stale":false,"bins":25,"density_birds_km3":5.080625,"heading_deg":21.653217850516747,"speed_ms":4.603503585356648,"peak_altitude_m":0.0,"u_ms":0.8416203296012077,"v_ms":2.5390023902377656}},{"type":"Feature","geometry":{"type":"Point","coordinates":[-80.2183,40.5317]},"properties":{"site":"KPBZ","name":"Pittsburgh PA","scan_time":"2026-08-30T07:01:17Z","stale":false,"bins":25,"density_birds_km3":2.2392857142857143,"heading_deg":54.01940132647227,"speed_ms":3.177369097333762,"peak_altitude_m":600.0,"u_ms":2.1704690009637004,"v_ms":1.0629553485383876}},{"type":"Feature","geometry":{"type":"Point","coordinates":[-78.4899,35.6655]},"properties":{"site":"KRAX","name":"Raleigh NC","scan_time":"2026-08-30T06:58:38Z","stale":false,"bins":25,"density_birds_km3":23.43125,"heading_deg":223.12640300000942,"speed_ms":5.9040870497073605,"peak_altitude_m":200.0,"u_ms":-4.027412964031544,"v_ms":-4.276242409254527}},{"type":"Feature","geometry":{"type":"Point","coordinates":[-82.4017,27.7055]},"properties":{"site":"KTBW","name":"Tampa FL","scan_time":"2026-08-30T07:02:05Z","stale":false,"bins":25,"density_birds_km3":5.958125,"heading_deg":246.01143616772035,"speed_ms":6.125658516108722,"peak_altitude_m":0.0,"u_ms":-5.467634589148914,"v_ms":-2.457330255011019}}]}