{"type":"FeatureCollection","frame":"2026-10-01T05","site_count":20,"fresh_count":20,"failures":{},"features":[{"type":"Feature","geometry":{"type":"Point","coordinates":[-77.0073,36.984]},"properties":{"site":"KAKQ","name":"Wakefield VA","scan_time":"2026-10-01T04:58:39Z","stale":false,"bins":25,"density_birds_km3":7.41125,"heading_deg":346.7060934858986,"speed_ms":6.224647495361781,"peak_altitude_m":0.0,"u_ms":0.26641592174059714,"v_ms":1.4766301231236294}},{"type":"Feature","geometry":{"type":"Point","coordinates":[-71.1369,41.9558]},"properties":{"site":"KBOX","name":"Boston MA","scan_time":"2026-10-01T05:02:33Z","stale":false,"bins":25,"density_birds_km3":6.6674999999999995,"heading_deg":88.36056150443775,"speed_ms":8.31815787006656,"peak_altitude_m":0.0,"u_ms":6.774015187025404,"v_ms":0.10139308146620403}},{"type":"Feature","geometry":{"type":"Point","coordinates":[-78.7369,42.9489]},"properties":{"site":"KBUF","name":"Buffalo NY","scan_time":"2026-10-01T04:58:24Z","stale":false,"bins":25,"density_birds_km3":2.5344444444444445,"heading_deg":null,"speed_ms":null,"peak_altitude_m":400.0,"u_ms":null,"v_ms":null}},{"type":"Feature","geometry":{"type":"Point","coordinates":[-81.8597,41.4131]},"properties":{"site":"KCLE","name":"Cleveland OH","scan_time":"2026-10-01T05:00:45Z","stale":false,"bins":25,"density_birds_km3":2.689230769230769,"heading_deg":33.04502055885982,"speed_ms":11.72935576923077,"peak_altitude_m":200.0,"u_ms":6.479413461538462,"v_ms":9.741913461538463}},{"type":"Feature","geometry":{"type":"Point","coordinates":[-81.0423,32.6555]},"properties":{"site":"KCLX","name":"Charleston SC","scan_time":"2026-10-01T04:57:27Z","stale":false,"bins":25,"density_birds_km3":11.383750000000001,"heading_deg":247.11776708537286,"speed_ms":7.474648838614024,"peak_altitude_m":0.0,"u_ms":-6.230790730876942,"v_ms":-2.733574213387513}},{"type":"Feature","geometry":{"type":"Point","coordinates":[-74.4108,39.947]},"properties":{"site":"KDIX","name":"Philadelphia PA","scan_time":"2026-10-01T04:59:32Z","stale":false,"bins":25,"density_birds_km3":11.028125,"heading_deg":71.7180770505114,"speed_ms":5.10781512128769,"peak_altitude_m":0.0,"u_ms":3.6411862389480847,"v_ms":1.060587735207436}},{"type":"Feature","geometry":{"type":"Point","coordinates":[-84.5658,33.3636]},"properties":{"site":"KFFC","name":"Atlanta GA","scan_time":"2026-10-01T05:03:07Z","stale":false,"bins":25,"density_birds_km3":6.2780000000000005,"heading_deg":304.0211735184748,"speed_ms":9.090124243389615,"peak_altitude_m":200.0,"u_ms":-6.581973027503452,"v_ms":4.623279175958373}},{"type":"Feature","geometry":{"type":"Point","coordinates":[-85.5449,42.8939]},"properties":{"site":"KGRR","name":"Grand Rapids MI","scan_time":"2026-10-01T04:59:56Z","stale":false,"bins":25,"density_birds_km3":0.2,"heading_deg":null,"speed_ms":null,"peak_altitude_m":400.0,"u_ms":null,"v_ms":null}},{"type":"Feature","geometry":{"type":"Point","coordinates":[-83.8217,39.4203]},"properties":{"site":"KILN","name":"Wilmington OH","scan_time":"2026-10-01T04:57:05Z","stale":false,"bins":25,"density_birds_km3":8.538666666666668,"heading_deg":36.80587450468665,"speed_ms":13.281910524672078,"peak_altitude_m":400.0,"u_ms":7.537839631480324,"v_ms":9.980698001249218}},{"type":"Feature","geometry":{"type":"Point","coordinates":[-81.7019,30.4846]},"properties":{"site":"KJAX","name":"Jacksonville FL","scan_time":"2026-10-01T04:58:45Z","stale":false,"bins":25,"density_birds_km3":26.20375,"heading_deg":204.83751717083484,"speed_ms":5.761279519106913,"peak_altitude_m":0.0,"u_ms":-2.0506545489241925,"v_ms":-4.504968512952626}},{"type":"Feature","geometry":{"type":"Point","coordinates":[-88.0847,41.6045]},"properties":{"site":"KLOT","name":"Chicago IL","scan_time":"2026-10-01T04:58:24Z","stale":false,"bins":25,"density_birds_km3":0.754,"heading_deg":38.27829530234991,"speed_ms":8.68972299168975,"peak_altitude_m":200.0,"u_ms":5.426592797783933,"v_ms":6.581283471837488}},{"type":"Feature","geometry":{"type":"Point","coordinates":[-78.4292,33.9892]},"properties":{"site":"KLTX","name":"Wilmington NC","scan_time":"2026-10-01T05:02:01Z","stale":false,"bins":25,"density_birds_km3":7.739375,"heading_deg":251.4115120534997,"speed_ms":7.598546849757674,"peak_altitude_m":0.0,"u_ms":-6.790717285945073,"v_ms":-2.3165751211631664}},{"type":"Feature","geometry":{"type":"Point","coordinates":[-77.4778,38.9753]},"properties":{"site":"KLWX","name":"Sterling VA","scan_time":"2026-10-01T05:03:18Z","stale":false,"bins":25,"density_birds_km3":23.343125,"heading_deg":352.57289917121125,"speed_ms":7.27229912447455,"peak_altitude_m":200.0,"u_ms":0.9563474256338858,"v_ms":4.4765428793274245}},{"type":"Feature","geometry":{"type":"Point","coordinates":[-76.8762,34.7759]},"properties":{"site":"KMHX","name":"Morehead City NC","scan_time":"2026-10-01T04:57:35Z","stale":false,"bins":25,"density_birds_km3":3.6593750000000003,"heading_deg":297.46400219592607,"speed_ms":4.604040334985473,"peak_altitude_m":0.0,"u_ms":-1.6878482310716119,"v_ms":0.44033327636301467}},{"type":"Feature","geometry":{"type":"Point","coordinates":[-80.6542,28.1133]},"properties":{"site":"KMLB","name":"Melbourne FL","scan_time":"2026-10-01T05:02:21Z","stale":false,"bins":25,"density_birds_km3":2.3325,"heading_deg":229.83783915332052,"speed_ms":5.511953376205788,"peak_altitude_m":200.0,"u_ms":-3.990128617363344,"v_ms":-3.4609646302250803}},{"type":"Feature","geometry":{"type":"Point","coordinates":[-86.5625,36.2472]},"properties":{"site":"KOHX","name":"Nashville TN","scan_time":"2026-10-01T05:03:11Z","stale":false,"bins":25,"density_birds_km3":8.810666666666666,"heading_deg":22.005646337348352,"speed_ms":12.48594430992736,"peak_altitude_m":200.0,"u_ms":4.405385895883777,"v_ms":10.695369249394673}},{"type":"Feature","geometry":{"type":"Point","coordinates":[-72.8639,40.8655]},"properties":{"site":"KOKX","name":"Upton NY","scan_time":"2026-10-01T05:02:48Z","stale":false,"bins":25,"density_birds_km3":6.9775,"heading_deg":54.572865825781705,"speed_ms":5.765737153251478,"peak_altitude_m":0.0,"u_ms":3.9155152341973625,"v_ms":2.163099590723056}},{"type":"Feature","geometry":{"type":"Point","coordinates":[-80.2183,40.5317]},"properties":{"site":"KPBZ","name":"Pittsburgh PA","scan_time":"2026-10-01T04:58:52Z","stale":false,"bins":25,"density_birds_km3":6.257142857142857,"heading_deg":46.188998856534354,"speed_ms":11.817373171846436,"peak_altitude_m":400.0,"u_ms":8.523208409506399,"v_ms":7.902392595978062}},{"type":"Feature","geometry":{"type":"Point","coordinates":[-78.4899,35.6655]},"properties":{"site":"KRAX","name":"Raleigh NC","scan_time":"2026-10-01T05:00:57Z","stale":false,"bins":25,"density_birds_km3":12.070625,"heading_deg":75.37359485528256,"speed_ms":6.18937090640186,"peak_altitude_m":0.0,"u_ms":4.405923832664272,"v_ms":1.951449397844919}},{"type":"Feature","geometry":{"type":"Point","coordinates":[-82.4017,27.7055]},"properties":{"site":"KTBW","name":"Tampa FL","scan_time":"2026-10-01T05:02:25Z","stale":false,"bins":25,"density_birds_km3":8.81375,"heading_deg":252.01362311842252,"speed_ms":6.786905184029503,"peak_altitude_m":0.0,"u_ms":-5.401855896744912,"v_ms":-1.0986922913268562}}]}