{"type":"FeatureCollection","frame":"2026-09-07T04","site_count":20,"fresh_count":20,"failures":{},"features":[{"type":"Feature","geometry":{"type":"Point","coordinates":[-77.0073,36.984]},"properties":{"site":"KAKQ","name":"Wakefield VA","scan_time":"2026-09-07T04:00:19Z","stale":false,"bins":25,"density_birds_km3":27.551875,"heading_deg":215.0610302719008,"speed_ms":7.5234837348577654,"peak_altitude_m":0.0,"u_ms":-4.149250714577378,"v_ms":-6.106557551835216}},{"type":"Feature","geometry":{"type":"Point","coordinates":[-71.1369,41.9558]},"properties":{"site":"KBOX","name":"Boston MA","scan_time":"2026-09-07T03:58:44Z","stale":false,"bins":25,"density_birds_km3":3.5775,"heading_deg":177.8859995655272,"speed_ms":12.05164656528579,"peak_altitude_m":400.0,"u_ms":-0.433796539066597,"v_ms":-11.50686243663695}},{"type":"Feature","geometry":{"type":"Point","coordinates":[-78.7369,42.9489]},"properties":{"site":"KBUF","name":"Buffalo NY","scan_time":"2026-09-07T03:58:54Z","stale":false,"bins":25,"density_birds_km3":7.128,"heading_deg":237.80835728016297,"speed_ms":9.182055742611299,"peak_altitude_m":400.0,"u_ms":-7.389632435465768,"v_ms":-5.012572951739618}},{"type":"Feature","geometry":{"type":"Point","coordinates":[-81.8597,41.4131]},"properties":{"site":"KCLE","name":"Cleveland OH","scan_time":"2026-09-07T04:00:16Z","stale":false,"bins":25,"density_birds_km3":15.458,"heading_deg":240.9177038185743,"speed_ms":12.13793323557319,"peak_altitude_m":400.0,"u_ms":-10.640359268524108,"v_ms":-5.746820063831622}},{"type":"Feature","geometry":{"type":"Point","coordinates":[-81.0423,32.6555]},"properties":{"site":"KCLX","name":"Charleston SC","scan_time":"2026-09-07T03:57:54Z","stale":false,"bins":25,"density_birds_km3":34.125,"heading_deg":229.72158961592112,"speed_ms":7.498990219063669,"peak_altitude_m":0.0,"u_ms":-5.633948824089677,"v_ms":-4.824364605465601}},{"type":"Feature","geometry":{"type":"Point","coordinates":[-74.4108,39.947]},"properties":{"site":"KDIX","name":"Philadelphia PA","scan_time":"2026-09-07T04:02:09Z","stale":false,"bins":25,"density_birds_km3":25.3425,"heading_deg":227.294541488378,"speed_ms":10.313017409556736,"peak_altitude_m":1000.0,"u_ms":-6.857737004568465,"v_ms":-7.32061489072725}},{"type":"Feature","geometry":{"type":"Point","coordinates":[-84.5658,33.3636]},"properties":{"site":"KFFC","name":"Atlanta GA","scan_time":"2026-09-07T04:00:01Z","stale":false,"bins":25,"density_birds_km3":89.868,"heading_deg":234.40155736546265,"speed_ms":7.117201673565674,"peak_altitude_m":400.0,"u_ms":-4.092378599724039,"v_ms":-3.0963535407486535}},{"type":"Feature","geometry":{"type":"Point","coordinates":[-85.5449,42.8939]},"properties":{"site":"KGRR","name":"Grand Rapids MI","scan_time":"2026-09-07T04:03:18Z","stale":false,"bins":25,"density_birds_km3":40.45933333333333,"heading_deg":227.18374843452602,"speed_ms":6.820762905963189,"peak_altitude_m":200.0,"u_ms":-4.081245860040535,"v_ms":-4.4192733444281505}},{"type":"Feature","geometry":{"type":"Point","coordinates":[-83.8217,39.4203]},"properties":{"site":"KILN","name":"Wilmington OH","scan_time":"2026-09-07T03:57:16Z","stale":false,"bins":25,"density_birds_km3":60.09733333333334,"heading_deg":204.10223827897136,"speed_ms":12.70085982739112,"peak_altitude_m":200.0,"u_ms":-4.786972134093581,"v_ms":-10.61770527810441}},{"type":"Feature","geometry":{"type":"Point","coordinates":[-81.7019,30.4846]},"properties":{"site":"KJAX","name":"Jacksonville FL","scan_time":"2026-09-07T03:59:26Z","stale":false,"bins":25,"density_birds_km3":48.441250000000004,"heading_deg":171.53864124976985,"speed_ms":6.102136092689598,"peak_altitude_m":200.0,"u_ms":0.9572767269630738,"v_ms":-5.900125409645705}},{"type":"Feature","geometry":{"type":"Point","coordinates":[-88.0847,41.6045]},"properties":{"site":"KLOT","name":"Chicago IL","scan_time":"2026-09-07T04:03:05Z","stale":false,"bins":25,"density_birds_km3":30.323333333333334,"heading_deg":224.14167956690952,"speed_ms":9.489739694404749,"peak_altitude_m":200.0,"u_ms":-5.784559305265472,"v_ms":-6.00125711773112}},{"type":"Feature","geometry":{"type":"Point","coordinates":[-78.4292,33.9892]},"properties":{"site":"KLTX","name":"Wilmington NC","scan_time":"2026-09-07T03:58:49Z","stale":false,"bins":25,"density_birds_km3":41.828125,"heading_deg":225.79613473405567,"speed_ms":13.590818897637792,"peak_altitude_m":0.0,"u_ms":-9.588731008623922,"v_ms":-9.233631196100488}},{"type":"Feature","geometry":{"type":"Point","coordinates":[-77.4778,38.9753]},"properties":{"site":"KLWX","name":"Sterling VA","scan_time":"2026-09-07T03:57:24Z","stale":false,"bins":25,"density_birds_km3":46.018750000000004,"heading_deg":230.9553038768491,"speed_ms":7.5501280691736685,"peak_altitude_m":400.0,"u_ms":-5.965613562824592,"v_ms":-4.453234766294152}},{"type":"Feature","geometry":{"type":"Point","coordinates":[-76.8762,34.7759]},"properties":{"site":"KMHX","name":"Morehead City NC","scan_time":"2026-09-07T04:00:58Z","stale":false,"bins":25,"density_birds_km3":12.445625,"heading_deg":226.0526030059038,"speed_ms":8.776300351582119,"peak_altitude_m":0.0,"u_ms":-6.037650426921145,"v_ms":-6.035027122049221}},{"type":"Feature","geometry":{"type":"Point","coordinates":[-80.6542,28.1133]},"properties":{"site":"KMLB","name":"Melbourne FL","scan_time":"2026-09-07T03:58:59Z","stale":false,"bins":25,"density_birds_km3":17.895625,"heading_deg":137.21914648731212,"speed_ms":4.669360667376642,"peak_altitude_m":200.0,"u_ms":3.222169684061058,"v_ms":-3.3436148384806534}},{"type":"Feature","geometry":{"type":"Point","coordinates":[-86.5625,36.2472]},"properties":{"site":"KOHX","name":"Nashville TN","scan_time":"2026-09-07T03:57:57Z","stale":false,"bins":25,"density_birds_km3":125.24933333333334,"heading_deg":213.98356692847887,"speed_ms":13.48116498291408,"peak_altitude_m":400.0,"u_ms":-7.49017171082747,"v_ms":-10.167416140604875}},{"type":"Feature","geometry":{"type":"Point","coordinates":[-72.8639,40.8655]},"properties":{"site":"KOKX","name":"Upton NY","scan_time":"2026-09-07T04:01:18Z","stale":false,"bins":25,"density_birds_km3":35.22625,"heading_deg":214.10361929900535,"speed_ms":10.649965527657836,"peak_altitude_m":200.0,"u_ms":-5.943466958082343,"v_ms":-8.780557065941682}},{"type":"Feature","geometry":{"type":"Point","coordinates":[-80.2183,40.5317]},"properties":{"site":"KPBZ","name":"Pittsburgh PA","scan_time":"2026-09-07T04:02:35Z","stale":false,"bins":25,"density_birds_km3":33.33785714285714,"heading_deg":239.64207661712942,"speed_ms":11.547296081246119,"peak_altitude_m":400.0,"u_ms":-9.686272148779809,"v_ms":-5.956312857540762}},{"type":"Feature","geometry":{"type":"Point","coordinates":[-78.4899,35.6655]},"properties":{"site":"KRAX","name":"Raleigh NC","scan_time":"2026-09-07T03:59:27Z","stale":false,"bins":25,"density_birds_km3":59.34375,"heading_deg":231.62324514223093,"speed_ms":9.51465261826994,"peak_altitude_m":0.0,"u_ms":-7.22145506269097,"v_ms":-5.855998630281318}},{"type":"Feature","geometry":{"type":"Point","coordinates":[-82.4017,27.7055]},"properties":{"site":"KTBW","name":"Tampa FL","scan_time":"2026-09-07T03:59:42Z","stale":false,"bins":25,"density_birds_km3":14.331249999999999,"heading_deg":173.67479080898207,"speed_ms":7.697888263770771,"peak_altitude_m":0.0,"u_ms":0.4799973832264817,"v_ms":-7.562392603253522}}]}