{"type":"FeatureCollection","frame":"2026-09-16T02","site_count":20,"fresh_count":19,"failures":{"KDIX":"RuntimeError('no scan within 20 min of 2026-09-16T02:00Z')"},"features":[{"type":"Feature","geometry":{"type":"Point","coordinates":[-77.0073,36.984]},"properties":{"site":"KAKQ","name":"Wakefield VA","scan_time":"2026-09-16T01:58:49Z","stale":false,"bins":25,"density_birds_km3":11.9375,"heading_deg":249.1005819173795,"speed_ms":6.848269633507853,"peak_altitude_m":0.0,"u_ms":-3.894545026178011,"v_ms":-2.275734554973822}},{"type":"Feature","geometry":{"type":"Point","coordinates":[-71.1369,41.9558]},"properties":{"site":"KBOX","name":"Boston MA","scan_time":"2026-09-16T01:57:36Z","stale":false,"bins":25,"density_birds_km3":4.59625,"heading_deg":347.3041776548965,"speed_ms":6.482006529723846,"peak_altitude_m":0.0,"u_ms":-1.5734008978370289,"v_ms":6.04432866276697}},{"type":"Feature","geometry":{"type":"Point","coordinates":[-78.7369,42.9489]},"properties":{"site":"KBUF","name":"Buffalo NY","scan_time":"2026-09-16T02:01:09Z","stale":false,"bins":25,"density_birds_km3":4.294,"heading_deg":131.59046331879722,"speed_ms":3.3125896599906848,"peak_altitude_m":200.0,"u_ms":2.125567458469182,"v_ms":-0.9140506132588108}},{"type":"Feature","geometry":{"type":"Point","coordinates":[-81.8597,41.4131]},"properties":{"site":"KCLE","name":"Cleveland OH","scan_time":"2026-09-16T01:59:25Z","stale":false,"bins":25,"density_birds_km3":1.8013333333333332,"heading_deg":19.299366372248173,"speed_ms":12.304154017030728,"peak_altitude_m":200.0,"u_ms":3.986990003702332,"v_ms":10.383298778230284}},{"type":"Feature","geometry":{"type":"Point","coordinates":[-81.0423,32.6555]},"properties":{"site":"KCLX","name":"Charleston SC","scan_time":"2026-09-16T01:59:05Z","stale":false,"bins":25,"density_birds_km3":25.715625,"heading_deg":229.2807431696121,"speed_ms":10.157810788911533,"peak_altitude_m":0.0,"u_ms":-7.036239595354433,"v_ms":-6.5424740344243375}},{"type":"Feature","geometry":{"type":"Point","coordinates":[-84.5658,33.3636]},"properties":{"site":"KFFC","name":"Atlanta GA","scan_time":"2026-09-16T01:59:56Z","stale":false,"bins":25,"density_birds_km3":48.796,"heading_deg":247.5034675626165,"speed_ms":10.505776429762003,"peak_altitude_m":400.0,"u_ms":-9.345329945077467,"v_ms":-3.2492675629149934}},{"type":"Feature","geometry":{"type":"Point","coordinates":[-85.5449,42.8939]},"properties":{"site":"KGRR","name":"Grand Rapids MI","scan_time":"2026-09-16T02:01:12Z","stale":false,"bins":25,"density_birds_km3":4.979333333333333,"heading_deg":125.75288241685271,"speed_ms":7.494068069141096,"peak_altitude_m":400.0,"u_ms":6.1337183438295595,"v_ms":-4.249447943186387}},{"type":"Feature","geometry":{"type":"Point","coordinates":[-83.8217,39.4203]},"properties":{"site":"KILN","name":"Wilmington OH","scan_time":"2026-09-16T02:00:18Z","stale":false,"bins":25,"density_birds_km3":5.149333333333333,"heading_deg":33.3508232960267,"speed_ms":10.169935266701192,"peak_altitude_m":200.0,"u_ms":5.233596582081823,"v_ms":7.185163127912999}},{"type":"Feature","geometry":{"type":"Point","coordinates":[-81.7019,30.4846]},"properties":{"site":"KJAX","name":"Jacksonville FL","scan_time":"2026-09-16T02:00:40Z","stale":false,"bins":25,"density_birds_km3":104.22999999999999,"heading_deg":215.57937896783983,"speed_ms":10.202664300105537,"peak_altitude_m":0.0,"u_ms":-5.57077724743356,"v_ms":-7.687198623237072}},{"type":"Feature","geometry":{"type":"Point","coordinates":[-88.0847,41.6045]},"properties":{"site":"KLOT","name":"Chicago IL","scan_time":"2026-09-16T02:00:14Z","stale":false,"bins":25,"density_birds_km3":25.504,"heading_deg":145.13405233027274,"speed_ms":8.558992053534086,"peak_altitude_m":400.0,"u_ms":4.882062944374738,"v_ms":-6.58955013592639}},{"type":"Feature","geometry":{"type":"Point","coordinates":[-78.4292,33.9892]},"properties":{"site":"KLTX","name":"Wilmington NC","scan_time":"2026-09-16T01:58:38Z","stale":false,"bins":25,"density_birds_km3":48.665625,"heading_deg":225.7413664784954,"speed_ms":11.972539351851852,"peak_altitude_m":0.0,"u_ms":-8.051479809670782,"v_ms":-8.198778806584363}},{"type":"Feature","geometry":{"type":"Point","coordinates":[-77.4778,38.9753]},"properties":{"site":"KLWX","name":"Sterling VA","scan_time":"2026-09-16T01:58:00Z","stale":false,"bins":25,"density_birds_km3":17.32125,"heading_deg":323.91116186544593,"speed_ms":6.5122959515046555,"peak_altitude_m":200.0,"u_ms":-2.9968171321353827,"v_ms":2.4872154867575955}},{"type":"Feature","geometry":{"type":"Point","coordinates":[-76.8762,34.7759]},"properties":{"site":"KMHX","name":"Morehead City NC","scan_time":"2026-09-16T02:01:48Z","stale":false,"bins":25,"density_birds_km3":25.82375,"heading_deg":202.42567627746092,"speed_ms":11.717797791981404,"peak_altitude_m":0.0,"u_ms":-4.279256972690296,"v_ms":-10.772509200077474}},{"type":"Feature","geometry":{"type":"Point","coordinates":[-80.6542,28.1133]},"properties":{"site":"KMLB","name":"Melbourne FL","scan_time":"2026-09-16T02:01:24Z","stale":false,"bins":25,"density_birds_km3":45.18125,"heading_deg":179.66210735185643,"speed_ms":9.316332761530587,"peak_altitude_m":0.0,"u_ms":0.07315289267631352,"v_ms":-9.265632349279253}},{"type":"Feature","geometry":{"type":"Point","coordinates":[-86.5625,36.2472]},"properties":{"site":"KOHX","name":"Nashville TN","scan_time":"2026-09-16T02:04:10Z","stale":false,"bins":25,"density_birds_km3":18.276,"heading_deg":359.21332119594024,"speed_ms":6.950080980520902,"peak_altitude_m":200.0,"u_ms":0.06006383599620635,"v_ms":6.860725906471146}},{"type":"Feature","geometry":{"type":"Point","coordinates":[-72.8639,40.8655]},"properties":{"site":"KOKX","name":"Upton NY","scan_time":"2026-09-16T02:00:07Z","stale":false,"bins":25,"density_birds_km3":2.07875,"heading_deg":288.8885245006306,"speed_ms":6.156259771497295,"peak_altitude_m":0.0,"u_ms":-5.276674684305472,"v_ms":1.8372790138304271}},{"type":"Feature","geometry":{"type":"Point","coordinates":[-80.2183,40.5317]},"properties":{"site":"KPBZ","name":"Pittsburgh PA","scan_time":"2026-09-16T01:57:15Z","stale":false,"bins":25,"density_birds_km3":5.362857142857143,"heading_deg":32.20500418118338,"speed_ms":9.133004794885457,"peak_altitude_m":400.0,"u_ms":4.686085508790623,"v_ms":7.088449653702717}},{"type":"Feature","geometry":{"type":"Point","coordinates":[-78.4899,35.6655]},"properties":{"site":"KRAX","name":"Raleigh NC","scan_time":"2026-09-16T01:59:41Z","stale":false,"bins":25,"density_birds_km3":59.116875,"heading_deg":221.573905403449,"speed_ms":7.563644967657925,"peak_altitude_m":200.0,"u_ms":-4.754652706465238,"v_ms":-5.307150298012894}},{"type":"Feature","geometry":{"type":"Point","coordinates":[-82.4017,27.7055]},"properties":{"site":"KTBW","name":"Tampa FL","scan_time":"2026-09-16T01:59:40Z","stale":false,"bins":25,"density_birds_km3":30.98375,"heading_deg":205.87008902290475,"speed_ms":8.348588171218783,"peak_altitude_m":0.0,"u_ms":-3.682111590753217,"v_ms":-7.254726469520313}}]}