{"type":"FeatureCollection","frame":"2026-09-08T10","site_count":20,"fresh_count":19,"failures":{"KOKX":"RuntimeError('no scan within 20 min of 2026-09-08T10:00Z')"},"features":[{"type":"Feature","geometry":{"type":"Point","coordinates":[-77.0073,36.984]},"properties":{"site":"KAKQ","name":"Wakefield VA","scan_time":"2026-09-08T10:01:17Z","stale":false,"bins":25,"density_birds_km3":1.4375,"heading_deg":212.5973667475708,"speed_ms":5.537677559912853,"peak_altitude_m":0.0,"u_ms":-2.9337472766884534,"v_ms":-4.679729847494554}},{"type":"Feature","geometry":{"type":"Point","coordinates":[-71.1369,41.9558]},"properties":{"site":"KBOX","name":"Boston MA","scan_time":"2026-09-08T10:02:03Z","stale":false,"bins":25,"density_birds_km3":0.25,"heading_deg":127.45909702523781,"speed_ms":7.741250000000001,"peak_altitude_m":0.0,"u_ms":6.136525000000001,"v_ms":-4.6695}},{"type":"Feature","geometry":{"type":"Point","coordinates":[-78.7369,42.9489]},"properties":{"site":"KBUF","name":"Buffalo NY","scan_time":"2026-09-08T09:57:49Z","stale":false,"bins":25,"density_birds_km3":2.062,"heading_deg":151.9282060828584,"speed_ms":4.033559650824442,"peak_altitude_m":400.0,"u_ms":1.2466440349175558,"v_ms":-3.4876139670223085}},{"type":"Feature","geometry":{"type":"Point","coordinates":[-81.8597,41.4131]},"properties":{"site":"KCLE","name":"Cleveland OH","scan_time":"2026-09-08T10:02:40Z","stale":false,"bins":25,"density_birds_km3":0.9893333333333333,"heading_deg":347.1396162855531,"speed_ms":5.133619176232275,"peak_altitude_m":200.0,"u_ms":-1.2050033760972314,"v_ms":4.43375422012154}},{"type":"Feature","geometry":{"type":"Point","coordinates":[-81.0423,32.6555]},"properties":{"site":"KCLX","name":"Charleston SC","scan_time":"2026-09-08T09:59:47Z","stale":false,"bins":25,"density_birds_km3":4.245,"heading_deg":229.37927522726017,"speed_ms":13.437494845360824,"peak_altitude_m":0.0,"u_ms":-10.205977908689249,"v_ms":-8.531175257731958}},{"type":"Feature","geometry":{"type":"Point","coordinates":[-74.4108,39.947]},"properties":{"site":"KDIX","name":"Philadelphia PA","scan_time":"2026-09-08T09:59:54Z","stale":false,"bins":25,"density_birds_km3":1.216875,"heading_deg":155.75717099326224,"speed_ms":7.4363252702007205,"peak_altitude_m":200.0,"u_ms":3.0195367987647965,"v_ms":-6.707143592382913}},{"type":"Feature","geometry":{"type":"Point","coordinates":[-84.5658,33.3636]},"properties":{"site":"KFFC","name":"Atlanta GA","scan_time":"2026-09-08T10:02:47Z","stale":false,"bins":25,"density_birds_km3":7.576666666666667,"heading_deg":247.08563943628315,"speed_ms":9.037499120028158,"peak_altitude_m":200.0,"u_ms":-7.925458465329109,"v_ms":-2.9816921858500534}},{"type":"Feature","geometry":{"type":"Point","coordinates":[-85.5449,42.8939]},"properties":{"site":"KGRR","name":"Grand Rapids MI","scan_time":"2026-09-08T09:59:07Z","stale":false,"bins":25,"density_birds_km3":2.4213333333333336,"heading_deg":338.1879483507683,"speed_ms":6.286274779735683,"peak_altitude_m":200.0,"u_ms":-1.9158810572687226,"v_ms":5.823879405286344}},{"type":"Feature","geometry":{"type":"Point","coordinates":[-83.8217,39.4203]},"properties":{"site":"KILN","name":"Wilmington OH","scan_time":"2026-09-08T09:58:29Z","stale":false,"bins":25,"density_birds_km3":1.4780000000000002,"heading_deg":20.532559666097377,"speed_ms":8.058644986449863,"peak_altitude_m":200.0,"u_ms":3.1259530261969286,"v_ms":5.315519421860886}},{"type":"Feature","geometry":{"type":"Point","coordinates":[-81.7019,30.4846]},"properties":{"site":"KJAX","name":"Jacksonville FL","scan_time":"2026-09-08T09:58:39Z","stale":false,"bins":25,"density_birds_km3":41.306875000000005,"heading_deg":203.27980118528757,"speed_ms":12.361869088157398,"peak_altitude_m":0.0,"u_ms":-4.990140143776013,"v_ms":-11.172277866061295}},{"type":"Feature","geometry":{"type":"Point","coordinates":[-88.0847,41.6045]},"properties":{"site":"KLOT","name":"Chicago IL","scan_time":"2026-09-08T10:02:09Z","stale":false,"bins":25,"density_birds_km3":0.38066666666666665,"heading_deg":333.3833727087798,"speed_ms":10.900298245614033,"peak_altitude_m":200.0,"u_ms":-5.0072280701754375,"v_ms":9.414877192982456}},{"type":"Feature","geometry":{"type":"Point","coordinates":[-78.4292,33.9892]},"properties":{"site":"KLTX","name":"Wilmington NC","scan_time":"2026-09-08T10:02:07Z","stale":false,"bins":25,"density_birds_km3":3.335,"heading_deg":234.79537296945955,"speed_ms":10.294345706786652,"peak_altitude_m":0.0,"u_ms":-8.41769403824522,"v_ms":-5.820363704536933}},{"type":"Feature","geometry":{"type":"Point","coordinates":[-77.4778,38.9753]},"properties":{"site":"KLWX","name":"Sterling VA","scan_time":"2026-09-08T09:59:29Z","stale":false,"bins":25,"density_birds_km3":2.090625,"heading_deg":359.8272971727118,"speed_ms":2.5610315533980583,"peak_altitude_m":200.0,"u_ms":0.7231674757281553,"v_ms":0.8722451456310679}},{"type":"Feature","geometry":{"type":"Point","coordinates":[-76.8762,34.7759]},"properties":{"site":"KMHX","name":"Morehead City NC","scan_time":"2026-09-08T10:01:13Z","stale":false,"bins":25,"density_birds_km3":0.41125,"heading_deg":241.22222688598197,"speed_ms":7.946141975308643,"peak_altitude_m":0.0,"u_ms":-6.889475308641976,"v_ms":-3.8207253086419755}},{"type":"Feature","geometry":{"type":"Point","coordinates":[-80.6542,28.1133]},"properties":{"site":"KMLB","name":"Melbourne FL","scan_time":"2026-09-08T10:01:01Z","stale":false,"bins":25,"density_birds_km3":5.275625,"heading_deg":181.50209286085845,"speed_ms":2.1336204241203647,"peak_altitude_m":0.0,"u_ms":0.06886624807487268,"v_ms":-2.081755716147376}},{"type":"Feature","geometry":{"type":"Point","coordinates":[-86.5625,36.2472]},"properties":{"site":"KOHX","name":"Nashville TN","scan_time":"2026-09-08T10:00:42Z","stale":false,"bins":25,"density_birds_km3":15.372000000000002,"heading_deg":348.7388180230289,"speed_ms":7.935270188221008,"peak_altitude_m":200.0,"u_ms":-0.5332335848729292,"v_ms":7.510013444357706}},{"type":"Feature","geometry":{"type":"Point","coordinates":[-80.2183,40.5317]},"properties":{"site":"KPBZ","name":"Pittsburgh PA","scan_time":"2026-09-08T10:01:21Z","stale":false,"bins":25,"density_birds_km3":6.786428571428572,"heading_deg":78.46553300854166,"speed_ms":3.128158200443553,"peak_altitude_m":400.0,"u_ms":2.2243172457492872,"v_ms":-0.35300031682331806}},{"type":"Feature","geometry":{"type":"Point","coordinates":[-78.4899,35.6655]},"properties":{"site":"KRAX","name":"Raleigh NC","scan_time":"2026-09-08T10:00:16Z","stale":false,"bins":25,"density_birds_km3":2.8643750000000003,"heading_deg":241.39139758311308,"speed_ms":8.545913555992142,"peak_altitude_m":200.0,"u_ms":-7.43540493342065,"v_ms":-4.083483955468238}},{"type":"Feature","geometry":{"type":"Point","coordinates":[-82.4017,27.7055]},"properties":{"site":"KTBW","name":"Tampa FL","scan_time":"2026-09-08T10:01:41Z","stale":false,"bins":25,"density_birds_km3":10.078125,"heading_deg":198.74454060558256,"speed_ms":3.9619460465116276,"peak_altitude_m":0.0,"u_ms":-0.5445854263565891,"v_ms":-3.305558449612403}}]}