{"type":"FeatureCollection","frame":"2026-08-19T01","site_count":20,"fresh_count":20,"failures":{},"features":[{"type":"Feature","geometry":{"type":"Point","coordinates":[-77.0073,36.984]},"properties":{"site":"KAKQ","name":"Wakefield VA","scan_time":"2026-08-19T01:00:33Z","stale":false,"bins":25,"density_birds_km3":18.795,"heading_deg":205.01500627184706,"speed_ms":7.0190305630383465,"peak_altitude_m":200.0,"u_ms":-3.0196461471947855,"v_ms":-6.256939372775948}},{"type":"Feature","geometry":{"type":"Point","coordinates":[-71.1369,41.9558]},"properties":{"site":"KBOX","name":"Boston MA","scan_time":"2026-08-19T01:03:18Z","stale":false,"bins":25,"density_birds_km3":4.103125,"heading_deg":339.0265293697767,"speed_ms":5.0808434103780815,"peak_altitude_m":0.0,"u_ms":-1.578717281493954,"v_ms":3.756118169294352}},{"type":"Feature","geometry":{"type":"Point","coordinates":[-78.7369,42.9489]},"properties":{"site":"KBUF","name":"Buffalo NY","scan_time":"2026-08-19T01:00:36Z","stale":false,"bins":25,"density_birds_km3":2.4073333333333333,"heading_deg":69.50942812400679,"speed_ms":7.757859318748269,"peak_altitude_m":200.0,"u_ms":7.017726391581279,"v_ms":2.6862337302686234}},{"type":"Feature","geometry":{"type":"Point","coordinates":[-81.8597,41.4131]},"properties":{"site":"KCLE","name":"Cleveland OH","scan_time":"2026-08-19T00:58:16Z","stale":false,"bins":25,"density_birds_km3":3.0473333333333334,"heading_deg":64.97523047211942,"speed_ms":4.134027595269382,"peak_altitude_m":200.0,"u_ms":3.698718791064389,"v_ms":1.6112067455102934}},{"type":"Feature","geometry":{"type":"Point","coordinates":[-81.0423,32.6555]},"properties":{"site":"KCLX","name":"Charleston SC","scan_time":"2026-08-19T01:03:13Z","stale":false,"bins":25,"density_birds_km3":7.635,"heading_deg":146.4914044554725,"speed_ms":6.005498924375311,"peak_altitude_m":0.0,"u_ms":3.157359755088532,"v_ms":-4.978388217772629}},{"type":"Feature","geometry":{"type":"Point","coordinates":[-74.4108,39.947]},"properties":{"site":"KDIX","name":"Philadelphia PA","scan_time":"2026-08-19T00:58:56Z","stale":false,"bins":25,"density_birds_km3":7.365625,"heading_deg":179.44157031687695,"speed_ms":4.814853261342854,"peak_altitude_m":800.0,"u_ms":-0.04332491509187495,"v_ms":-3.22917791517896}},{"type":"Feature","geometry":{"type":"Point","coordinates":[-84.5658,33.3636]},"properties":{"site":"KFFC","name":"Atlanta GA","scan_time":"2026-08-19T01:01:17Z","stale":false,"bins":25,"density_birds_km3":11.304,"heading_deg":147.32355448926256,"speed_ms":6.172255838641189,"peak_altitude_m":200.0,"u_ms":3.3106174805378625,"v_ms":-5.18532318943147}},{"type":"Feature","geometry":{"type":"Point","coordinates":[-85.5449,42.8939]},"properties":{"site":"KGRR","name":"Grand Rapids MI","scan_time":"2026-08-19T01:02:26Z","stale":false,"bins":25,"density_birds_km3":1.744,"heading_deg":null,"speed_ms":null,"peak_altitude_m":200.0,"u_ms":null,"v_ms":null}},{"type":"Feature","geometry":{"type":"Point","coordinates":[-83.8217,39.4203]},"properties":{"site":"KILN","name":"Wilmington OH","scan_time":"2026-08-19T01:01:20Z","stale":false,"bins":25,"density_birds_km3":16.552666666666667,"heading_deg":163.12565346731347,"speed_ms":4.174141694860642,"peak_altitude_m":200.0,"u_ms":1.199016030288384,"v_ms":-3.975038263251168}},{"type":"Feature","geometry":{"type":"Point","coordinates":[-81.7019,30.4846]},"properties":{"site":"KJAX","name":"Jacksonville FL","scan_time":"2026-08-19T00:59:36Z","stale":false,"bins":25,"density_birds_km3":3.720625,"heading_deg":46.10420378257313,"speed_ms":7.109231157469718,"peak_altitude_m":0.0,"u_ms":5.174900740242261,"v_ms":4.648285666218034}},{"type":"Feature","geometry":{"type":"Point","coordinates":[-88.0847,41.6045]},"properties":{"site":"KLOT","name":"Chicago IL","scan_time":"2026-08-19T00:59:51Z","stale":false,"bins":25,"density_birds_km3":0.898,"heading_deg":38.545365225903524,"speed_ms":7.9714160000000005,"peak_altitude_m":200.0,"u_ms":4.989167999999999,"v_ms":6.166528}},{"type":"Feature","geometry":{"type":"Point","coordinates":[-78.4292,33.9892]},"properties":{"site":"KLTX","name":"Wilmington NC","scan_time":"2026-08-19T00:57:57Z","stale":false,"bins":25,"density_birds_km3":14.27875,"heading_deg":147.71305573545575,"speed_ms":6.19186046511628,"peak_altitude_m":200.0,"u_ms":1.568711918055128,"v_ms":-4.892101376005627}},{"type":"Feature","geometry":{"type":"Point","coordinates":[-77.4778,38.9753]},"properties":{"site":"KLWX","name":"Sterling VA","scan_time":"2026-08-19T00:58:47Z","stale":false,"bins":25,"density_birds_km3":21.689999999999998,"heading_deg":175.67966301627794,"speed_ms":6.35331616263927,"peak_altitude_m":200.0,"u_ms":0.5247781797135002,"v_ms":-6.2675525973086375}},{"type":"Feature","geometry":{"type":"Point","coordinates":[-76.8762,34.7759]},"properties":{"site":"KMHX","name":"Morehead City NC","scan_time":"2026-08-19T01:00:43Z","stale":false,"bins":25,"density_birds_km3":10.484375,"heading_deg":125.50718849809206,"speed_ms":5.454108633436681,"peak_altitude_m":200.0,"u_ms":3.495256975912235,"v_ms":-2.486643214881946}},{"type":"Feature","geometry":{"type":"Point","coordinates":[-80.6542,28.1133]},"properties":{"site":"KMLB","name":"Melbourne FL","scan_time":"2026-08-19T01:02:19Z","stale":false,"bins":25,"density_birds_km3":8.815625,"heading_deg":105.76997019816837,"speed_ms":5.103771003190357,"peak_altitude_m":0.0,"u_ms":4.307837646224742,"v_ms":-2.0474406238922365}},{"type":"Feature","geometry":{"type":"Point","coordinates":[-86.5625,36.2472]},"properties":{"site":"KOHX","name":"Nashville TN","scan_time":"2026-08-19T00:57:31Z","stale":false,"bins":25,"density_birds_km3":29.07133333333333,"heading_deg":187.93369244957918,"speed_ms":4.256705574793037,"peak_altitude_m":400.0,"u_ms":-0.5538672690164423,"v_ms":-4.182099204256197}},{"type":"Feature","geometry":{"type":"Point","coordinates":[-72.8639,40.8655]},"properties":{"site":"KOKX","name":"Upton NY","scan_time":"2026-08-19T00:57:47Z","stale":false,"bins":25,"density_birds_km3":1.770625,"heading_deg":30.282575941003987,"speed_ms":6.4264687168610815,"peak_altitude_m":0.0,"u_ms":3.063312124425592,"v_ms":5.295411806291976}},{"type":"Feature","geometry":{"type":"Point","coordinates":[-80.2183,40.5317]},"properties":{"site":"KPBZ","name":"Pittsburgh PA","scan_time":"2026-08-19T00:58:08Z","stale":false,"bins":25,"density_birds_km3":4.432857142857143,"heading_deg":161.9405146160833,"speed_ms":3.288610336341263,"peak_altitude_m":400.0,"u_ms":0.9919557013945857,"v_ms":-3.018070549630845}},{"type":"Feature","geometry":{"type":"Point","coordinates":[-78.4899,35.6655]},"properties":{"site":"KRAX","name":"Raleigh NC","scan_time":"2026-08-19T00:58:05Z","stale":false,"bins":25,"density_birds_km3":20.645,"heading_deg":196.4932118546554,"speed_ms":7.11579788683358,"peak_altitude_m":200.0,"u_ms":-2.0861254579031816,"v_ms":-6.604292936938028}},{"type":"Feature","geometry":{"type":"Point","coordinates":[-82.4017,27.7055]},"properties":{"site":"KTBW","name":"Tampa FL","scan_time":"2026-08-19T01:00:08Z","stale":false,"bins":25,"density_birds_km3":16.488125,"heading_deg":129.1997320060592,"speed_ms":8.686451478392721,"peak_altitude_m":0.0,"u_ms":6.532067475360121,"v_ms":-5.458165655799848}}]}