{"type":"FeatureCollection","frame":"2026-09-02T11","site_count":20,"fresh_count":20,"failures":{},"features":[{"type":"Feature","geometry":{"type":"Point","coordinates":[-77.0073,36.984]},"properties":{"site":"KAKQ","name":"Wakefield VA","scan_time":"2026-09-02T11:02:49Z","stale":false,"bins":25,"density_birds_km3":5.164375,"heading_deg":194.9796850963813,"speed_ms":9.699024152232251,"peak_altitude_m":200.0,"u_ms":-2.5239473042205414,"v_ms":-9.348120273237376}},{"type":"Feature","geometry":{"type":"Point","coordinates":[-71.1369,41.9558]},"properties":{"site":"KBOX","name":"Boston MA","scan_time":"2026-09-02T10:58:37Z","stale":false,"bins":25,"density_birds_km3":2.22875,"heading_deg":246.49161272939028,"speed_ms":7.199155680224404,"peak_altitude_m":0.0,"u_ms":-6.282457223001403,"v_ms":-2.651304347826087}},{"type":"Feature","geometry":{"type":"Point","coordinates":[-78.7369,42.9489]},"properties":{"site":"KBUF","name":"Buffalo NY","scan_time":"2026-09-02T11:03:18Z","stale":false,"bins":25,"density_birds_km3":1.006,"heading_deg":54.57442675668065,"speed_ms":9.204571997345719,"peak_altitude_m":200.0,"u_ms":7.349747843397478,"v_ms":5.134950232249502}},{"type":"Feature","geometry":{"type":"Point","coordinates":[-81.8597,41.4131]},"properties":{"site":"KCLE","name":"Cleveland OH","scan_time":"2026-09-02T10:59:56Z","stale":false,"bins":25,"density_birds_km3":5.414,"heading_deg":112.92949374108626,"speed_ms":10.73554857776136,"peak_altitude_m":200.0,"u_ms":9.261312646225836,"v_ms":-4.603867750277059}},{"type":"Feature","geometry":{"type":"Point","coordinates":[-81.0423,32.6555]},"properties":{"site":"KCLX","name":"Charleston SC","scan_time":"2026-09-02T11:01:08Z","stale":false,"bins":25,"density_birds_km3":4.850625,"heading_deg":212.4736220235841,"speed_ms":5.2266597938144335,"peak_altitude_m":200.0,"u_ms":-2.990640463917526,"v_ms":-3.9760335051546396}},{"type":"Feature","geometry":{"type":"Point","coordinates":[-74.4108,39.947]},"properties":{"site":"KDIX","name":"Philadelphia PA","scan_time":"2026-09-02T11:03:24Z","stale":false,"bins":25,"density_birds_km3":0.43333333333333335,"heading_deg":215.87446564589743,"speed_ms":5.8727411167512695,"peak_altitude_m":200.0,"u_ms":-2.38746192893401,"v_ms":-3.935126903553299}},{"type":"Feature","geometry":{"type":"Point","coordinates":[-84.5658,33.3636]},"properties":{"site":"KFFC","name":"Atlanta GA","scan_time":"2026-09-02T10:59:59Z","stale":false,"bins":25,"density_birds_km3":5.317333333333333,"heading_deg":158.85534835195355,"speed_ms":3.437882397191575,"peak_altitude_m":200.0,"u_ms":1.0676341524573723,"v_ms":-3.02390295887663}},{"type":"Feature","geometry":{"type":"Point","coordinates":[-85.5449,42.8939]},"properties":{"site":"KGRR","name":"Grand Rapids MI","scan_time":"2026-09-02T11:00:46Z","stale":false,"bins":25,"density_birds_km3":2.4213333333333336,"heading_deg":111.51342553373445,"speed_ms":8.300462682456622,"peak_altitude_m":400.0,"u_ms":7.42948223629854,"v_ms":-3.2671164968328283}},{"type":"Feature","geometry":{"type":"Point","coordinates":[-83.8217,39.4203]},"properties":{"site":"KILN","name":"Wilmington OH","scan_time":"2026-09-02T11:03:00Z","stale":false,"bins":25,"density_birds_km3":7.051333333333333,"heading_deg":106.50272423981897,"speed_ms":10.684658091364795,"peak_altitude_m":600.0,"u_ms":9.812192376808852,"v_ms":-3.245511207793436}},{"type":"Feature","geometry":{"type":"Point","coordinates":[-81.7019,30.4846]},"properties":{"site":"KJAX","name":"Jacksonville FL","scan_time":"2026-09-02T11:00:40Z","stale":false,"bins":25,"density_birds_km3":16.26125,"heading_deg":205.31058860996717,"speed_ms":8.986448996848337,"peak_altitude_m":0.0,"u_ms":-3.8370332077792297,"v_ms":-8.051888308094394}},{"type":"Feature","geometry":{"type":"Point","coordinates":[-88.0847,41.6045]},"properties":{"site":"KLOT","name":"Chicago IL","scan_time":"2026-09-02T10:58:05Z","stale":false,"bins":25,"density_birds_km3":0.7273333333333334,"heading_deg":77.5472727593879,"speed_ms":12.359834710743801,"peak_altitude_m":200.0,"u_ms":12.051450872359961,"v_ms":2.5314325068870525}},{"type":"Feature","geometry":{"type":"Point","coordinates":[-78.4292,33.9892]},"properties":{"site":"KLTX","name":"Wilmington NC","scan_time":"2026-09-02T11:00:21Z","stale":false,"bins":25,"density_birds_km3":4.3425,"heading_deg":192.52617532659588,"speed_ms":6.36797984161267,"peak_altitude_m":1400.0,"u_ms":-1.998992080633549,"v_ms":-4.337239740820735}},{"type":"Feature","geometry":{"type":"Point","coordinates":[-77.4778,38.9753]},"properties":{"site":"KLWX","name":"Sterling VA","scan_time":"2026-09-02T11:00:12Z","stale":false,"bins":25,"density_birds_km3":8.900625,"heading_deg":226.30572315185418,"speed_ms":6.152116398397412,"peak_altitude_m":200.0,"u_ms":-2.805946439867857,"v_ms":-3.2877542700499047}},{"type":"Feature","geometry":{"type":"Point","coordinates":[-76.8762,34.7759]},"properties":{"site":"KMHX","name":"Morehead City NC","scan_time":"2026-09-02T10:59:53Z","stale":false,"bins":25,"density_birds_km3":1.955,"heading_deg":177.24374751334733,"speed_ms":7.191321359846055,"peak_altitude_m":1200.0,"u_ms":-0.3535984605516357,"v_ms":-4.604926234765876}},{"type":"Feature","geometry":{"type":"Point","coordinates":[-80.6542,28.1133]},"properties":{"site":"KMLB","name":"Melbourne FL","scan_time":"2026-09-02T10:57:53Z","stale":false,"bins":25,"density_birds_km3":5.073125,"heading_deg":180.6353928906137,"speed_ms":6.246008377479365,"peak_altitude_m":0.0,"u_ms":0.016184550942466392,"v_ms":-6.176173463102131}},{"type":"Feature","geometry":{"type":"Point","coordinates":[-86.5625,36.2472]},"properties":{"site":"KOHX","name":"Nashville TN","scan_time":"2026-09-02T11:02:01Z","stale":false,"bins":25,"density_birds_km3":2.1273333333333335,"heading_deg":140.81665461261906,"speed_ms":2.7104324663115014,"peak_altitude_m":400.0,"u_ms":1.657066750235036,"v_ms":-2.1182262613600753}},{"type":"Feature","geometry":{"type":"Point","coordinates":[-72.8639,40.8655]},"properties":{"site":"KOKX","name":"Upton NY","scan_time":"2026-09-02T11:00:48Z","stale":false,"bins":25,"density_birds_km3":5.419375,"heading_deg":267.2702433918991,"speed_ms":7.299791113675706,"peak_altitude_m":200.0,"u_ms":-7.144897864974033,"v_ms":-0.22373341027120608}},{"type":"Feature","geometry":{"type":"Point","coordinates":[-80.2183,40.5317]},"properties":{"site":"KPBZ","name":"Pittsburgh PA","scan_time":"2026-09-02T11:01:20Z","stale":false,"bins":25,"density_birds_km3":3.0650000000000004,"heading_deg":98.33928694358751,"speed_ms":10.399962677863309,"peak_altitude_m":1000.0,"u_ms":10.010296244459996,"v_ms":-1.6389573128061583}},{"type":"Feature","geometry":{"type":"Point","coordinates":[-78.4899,35.6655]},"properties":{"site":"KRAX","name":"Raleigh NC","scan_time":"2026-09-02T10:56:20Z","stale":false,"bins":25,"density_birds_km3":4.688125,"heading_deg":168.94269076082304,"speed_ms":6.633062258365552,"peak_altitude_m":0.0,"u_ms":0.7095867217704306,"v_ms":-5.887205705905878}},{"type":"Feature","geometry":{"type":"Point","coordinates":[-82.4017,27.7055]},"properties":{"site":"KTBW","name":"Tampa FL","scan_time":"2026-09-02T10:57:30Z","stale":false,"bins":25,"density_birds_km3":2.88125,"heading_deg":197.16567305593398,"speed_ms":5.504381510416666,"peak_altitude_m":0.0,"u_ms":-1.629878472222222,"v_ms":-5.250418836805555}}]}