{"type":"FeatureCollection","frame":"2026-10-10T09","site_count":20,"fresh_count":20,"failures":{},"features":[{"type":"Feature","geometry":{"type":"Point","coordinates":[-77.0073,36.984]},"properties":{"site":"KAKQ","name":"Wakefield VA","scan_time":"2026-10-10T09:01:47Z","stale":false,"bins":25,"density_birds_km3":1.705,"heading_deg":235.00103085205353,"speed_ms":9.690318914956011,"peak_altitude_m":0.0,"u_ms":-7.819538123167155,"v_ms":-5.554123900293255}},{"type":"Feature","geometry":{"type":"Point","coordinates":[-71.1369,41.9558]},"properties":{"site":"KBOX","name":"Boston MA","scan_time":"2026-10-10T08:59:40Z","stale":false,"bins":25,"density_birds_km3":12.995,"heading_deg":176.20490949975564,"speed_ms":10.64907079646018,"peak_altitude_m":0.0,"u_ms":0.682575028857253,"v_ms":-10.615142362447095}},{"type":"Feature","geometry":{"type":"Point","coordinates":[-78.7369,42.9489]},"properties":{"site":"KBUF","name":"Buffalo NY","scan_time":"2026-10-10T09:03:47Z","stale":false,"bins":25,"density_birds_km3":14.181999999999999,"heading_deg":230.30567969660694,"speed_ms":9.148788135194849,"peak_altitude_m":200.0,"u_ms":-6.909942180228459,"v_ms":-5.2334052554881785}},{"type":"Feature","geometry":{"type":"Point","coordinates":[-81.8597,41.4131]},"properties":{"site":"KCLE","name":"Cleveland OH","scan_time":"2026-10-10T08:57:20Z","stale":false,"bins":25,"density_birds_km3":2.1253333333333333,"heading_deg":306.40270327859633,"speed_ms":7.689385194479297,"peak_altitude_m":200.0,"u_ms":-5.940708908406523,"v_ms":4.338089711417817}},{"type":"Feature","geometry":{"type":"Point","coordinates":[-81.0423,32.6555]},"properties":{"site":"KCLX","name":"Charleston SC","scan_time":"2026-10-10T09:00:41Z","stale":false,"bins":25,"density_birds_km3":1.431875,"heading_deg":255.60892290673615,"speed_ms":9.112242314647377,"peak_altitude_m":0.0,"u_ms":-8.814177215189874,"v_ms":-2.154882459312839}},{"type":"Feature","geometry":{"type":"Point","coordinates":[-74.4108,39.947]},"properties":{"site":"KDIX","name":"Philadelphia PA","scan_time":"2026-10-10T09:02:57Z","stale":false,"bins":25,"density_birds_km3":8.016250000000001,"heading_deg":214.2370029458567,"speed_ms":9.266827043044291,"peak_altitude_m":200.0,"u_ms":-5.228717248908297,"v_ms":-7.606039457267623}},{"type":"Feature","geometry":{"type":"Point","coordinates":[-84.5658,33.3636]},"properties":{"site":"KFFC","name":"Atlanta GA","scan_time":"2026-10-10T08:58:48Z","stale":false,"bins":25,"density_birds_km3":null,"heading_deg":null,"speed_ms":null,"peak_altitude_m":null,"u_ms":null,"v_ms":null}},{"type":"Feature","geometry":{"type":"Point","coordinates":[-85.5449,42.8939]},"properties":{"site":"KGRR","name":"Grand Rapids MI","scan_time":"2026-10-10T09:04:40Z","stale":false,"bins":25,"density_birds_km3":3.889333333333333,"heading_deg":287.17602659471015,"speed_ms":10.195611177781586,"peak_altitude_m":200.0,"u_ms":-9.179297102691583,"v_ms":2.8148174181381793}},{"type":"Feature","geometry":{"type":"Point","coordinates":[-83.8217,39.4203]},"properties":{"site":"KILN","name":"Wilmington OH","scan_time":"2026-10-10T09:00:12Z","stale":false,"bins":25,"density_birds_km3":1.1513333333333333,"heading_deg":286.0007472797196,"speed_ms":9.827501449275362,"peak_altitude_m":200.0,"u_ms":-9.294527536231884,"v_ms":2.7932927536231884}},{"type":"Feature","geometry":{"type":"Point","coordinates":[-81.7019,30.4846]},"properties":{"site":"KJAX","name":"Jacksonville FL","scan_time":"2026-10-10T08:59:05Z","stale":false,"bins":25,"density_birds_km3":7.048125000000001,"heading_deg":335.42197933955566,"speed_ms":5.5961754012592,"peak_altitude_m":0.0,"u_ms":-1.6442662055511217,"v_ms":5.198337323756319}},{"type":"Feature","geometry":{"type":"Point","coordinates":[-88.0847,41.6045]},"properties":{"site":"KLOT","name":"Chicago IL","scan_time":"2026-10-10T08:58:33Z","stale":false,"bins":25,"density_birds_km3":0.30199999999999994,"heading_deg":15.737245559144386,"speed_ms":14.338587196467994,"peak_altitude_m":200.0,"u_ms":3.8815011037527594,"v_ms":13.54337748344371}},{"type":"Feature","geometry":{"type":"Point","coordinates":[-78.4292,33.9892]},"properties":{"site":"KLTX","name":"Wilmington NC","scan_time":"2026-10-10T09:01:47Z","stale":false,"bins":25,"density_birds_km3":2.045833333333333,"heading_deg":null,"speed_ms":null,"peak_altitude_m":0.0,"u_ms":null,"v_ms":null}},{"type":"Feature","geometry":{"type":"Point","coordinates":[-77.4778,38.9753]},"properties":{"site":"KLWX","name":"Sterling VA","scan_time":"2026-10-10T09:01:59Z","stale":false,"bins":25,"density_birds_km3":21.96625,"heading_deg":238.00504054377183,"speed_ms":8.465453743490508,"peak_altitude_m":200.0,"u_ms":-7.161800460999972,"v_ms":-4.439513958054694}},{"type":"Feature","geometry":{"type":"Point","coordinates":[-76.8762,34.7759]},"properties":{"site":"KMHX","name":"Morehead City NC","scan_time":"2026-10-10T09:02:15Z","stale":false,"bins":25,"density_birds_km3":0.496875,"heading_deg":243.11666460142763,"speed_ms":9.174027777777779,"peak_altitude_m":0.0,"u_ms":-7.94584595959596,"v_ms":-3.8661111111111115}},{"type":"Feature","geometry":{"type":"Point","coordinates":[-80.6542,28.1133]},"properties":{"site":"KMLB","name":"Melbourne FL","scan_time":"2026-10-10T08:58:35Z","stale":false,"bins":25,"density_birds_km3":7.485,"heading_deg":14.593363372311568,"speed_ms":4.927663660654643,"peak_altitude_m":0.0,"u_ms":0.8156329325317301,"v_ms":4.8272895791583155}},{"type":"Feature","geometry":{"type":"Point","coordinates":[-86.5625,36.2472]},"properties":{"site":"KOHX","name":"Nashville TN","scan_time":"2026-10-10T09:00:16Z","stale":false,"bins":25,"density_birds_km3":6.206666666666666,"heading_deg":255.09848066166637,"speed_ms":8.45776476906552,"peak_altitude_m":200.0,"u_ms":-7.721908700322235,"v_ms":-2.0339215896885072}},{"type":"Feature","geometry":{"type":"Point","coordinates":[-72.8639,40.8655]},"properties":{"site":"KOKX","name":"Upton NY","scan_time":"2026-10-10T08:58:13Z","stale":false,"bins":25,"density_birds_km3":3.450625,"heading_deg":185.35280139532063,"speed_ms":7.8532946929904,"peak_altitude_m":200.0,"u_ms":-0.7476852019561675,"v_ms":-7.778809998188735}},{"type":"Feature","geometry":{"type":"Point","coordinates":[-80.2183,40.5317]},"properties":{"site":"KPBZ","name":"Pittsburgh PA","scan_time":"2026-10-10T09:02:18Z","stale":false,"bins":25,"density_birds_km3":5.544285714285714,"heading_deg":252.73662478864657,"speed_ms":8.723081679979387,"peak_altitude_m":400.0,"u_ms":-8.302127029116209,"v_ms":-2.5510036073177016}},{"type":"Feature","geometry":{"type":"Point","coordinates":[-78.4899,35.6655]},"properties":{"site":"KRAX","name":"Raleigh NC","scan_time":"2026-10-10T09:01:09Z","stale":false,"bins":25,"density_birds_km3":24.613333333333333,"heading_deg":null,"speed_ms":null,"peak_altitude_m":400.0,"u_ms":null,"v_ms":null}},{"type":"Feature","geometry":{"type":"Point","coordinates":[-82.4017,27.7055]},"properties":{"site":"KTBW","name":"Tampa FL","scan_time":"2026-10-10T08:59:20Z","stale":false,"bins":25,"density_birds_km3":9.0275,"heading_deg":315.19478906355687,"speed_ms":3.692126834671836,"peak_altitude_m":0.0,"u_ms":-1.8184422597618388,"v_ms":2.802999169205206}}]}