{"type":"FeatureCollection","frame":"2026-08-29T06","site_count":20,"fresh_count":20,"failures":{},"features":[{"type":"Feature","geometry":{"type":"Point","coordinates":[-77.0073,36.984]},"properties":{"site":"KAKQ","name":"Wakefield VA","scan_time":"2026-08-29T06:00:56Z","stale":false,"bins":25,"density_birds_km3":19.193125000000002,"heading_deg":206.02012647911005,"speed_ms":8.640646758068192,"peak_altitude_m":400.0,"u_ms":-3.9320128960823264,"v_ms":-7.626782166932622}},{"type":"Feature","geometry":{"type":"Point","coordinates":[-71.1369,41.9558]},"properties":{"site":"KBOX","name":"Boston MA","scan_time":"2026-08-29T05:57:37Z","stale":false,"bins":25,"density_birds_km3":13.99375,"heading_deg":196.64503124932043,"speed_ms":11.178449307726664,"peak_altitude_m":400.0,"u_ms":-3.1623287181777577,"v_ms":-10.65470075926753}},{"type":"Feature","geometry":{"type":"Point","coordinates":[-78.7369,42.9489]},"properties":{"site":"KBUF","name":"Buffalo NY","scan_time":"2026-08-29T05:58:07Z","stale":false,"bins":25,"density_birds_km3":20.59333333333333,"heading_deg":178.87192280695083,"speed_ms":9.075489155066364,"peak_altitude_m":400.0,"u_ms":0.1517831013272904,"v_ms":-9.060481709291032}},{"type":"Feature","geometry":{"type":"Point","coordinates":[-81.8597,41.4131]},"properties":{"site":"KCLE","name":"Cleveland OH","scan_time":"2026-08-29T06:02:37Z","stale":false,"bins":25,"density_birds_km3":3.4793333333333334,"heading_deg":262.44160978313664,"speed_ms":7.35258478635754,"peak_altitude_m":200.0,"u_ms":-6.719089863958613,"v_ms":-0.6412818547614486}},{"type":"Feature","geometry":{"type":"Point","coordinates":[-81.0423,32.6555]},"properties":{"site":"KCLX","name":"Charleston SC","scan_time":"2026-08-29T06:02:14Z","stale":false,"bins":25,"density_birds_km3":1.86375,"heading_deg":222.24473402789445,"speed_ms":1.961022803487592,"peak_altitude_m":200.0,"u_ms":-1.3694600938967136,"v_ms":-1.2121059691482226}},{"type":"Feature","geometry":{"type":"Point","coordinates":[-74.4108,39.947]},"properties":{"site":"KDIX","name":"Philadelphia PA","scan_time":"2026-08-29T05:59:48Z","stale":false,"bins":25,"density_birds_km3":51.57,"heading_deg":209.7975105417531,"speed_ms":13.662566568047337,"peak_altitude_m":400.0,"u_ms":-6.7978505432146665,"v_ms":-11.790937772819866}},{"type":"Feature","geometry":{"type":"Point","coordinates":[-84.5658,33.3636]},"properties":{"site":"KFFC","name":"Atlanta GA","scan_time":"2026-08-29T05:59:08Z","stale":false,"bins":25,"density_birds_km3":41.43333333333333,"heading_deg":193.35628437784075,"speed_ms":3.8186925181013676,"peak_altitude_m":200.0,"u_ms":-1.1577232502011265,"v_ms":-3.162933065164924}},{"type":"Feature","geometry":{"type":"Point","coordinates":[-85.5449,42.8939]},"properties":{"site":"KGRR","name":"Grand Rapids MI","scan_time":"2026-08-29T06:04:04Z","stale":false,"bins":25,"density_birds_km3":9.672666666666666,"heading_deg":5.0333150102862865,"speed_ms":8.688930171641276,"peak_altitude_m":200.0,"u_ms":0.792011442751775,"v_ms":7.7633204659819395}},{"type":"Feature","geometry":{"type":"Point","coordinates":[-83.8217,39.4203]},"properties":{"site":"KILN","name":"Wilmington OH","scan_time":"2026-08-29T05:58:55Z","stale":false,"bins":25,"density_birds_km3":15.639999999999999,"heading_deg":251.9325851649446,"speed_ms":10.39073188405797,"peak_altitude_m":200.0,"u_ms":-9.536670502983803,"v_ms":-3.1014398976982096}},{"type":"Feature","geometry":{"type":"Point","coordinates":[-81.7019,30.4846]},"properties":{"site":"KJAX","name":"Jacksonville FL","scan_time":"2026-08-29T06:01:26Z","stale":false,"bins":25,"density_birds_km3":5.0525,"heading_deg":181.59687172726115,"speed_ms":3.6018975754576936,"peak_altitude_m":200.0,"u_ms":-0.17165264720435428,"v_ms":-3.5936788718456207}},{"type":"Feature","geometry":{"type":"Point","coordinates":[-88.0847,41.6045]},"properties":{"site":"KLOT","name":"Chicago IL","scan_time":"2026-08-29T05:57:45Z","stale":false,"bins":25,"density_birds_km3":4.753333333333333,"heading_deg":103.48559926753626,"speed_ms":6.804300140252455,"peak_altitude_m":400.0,"u_ms":5.125014025245442,"v_ms":-1.828497896213184}},{"type":"Feature","geometry":{"type":"Point","coordinates":[-78.4292,33.9892]},"properties":{"site":"KLTX","name":"Wilmington NC","scan_time":"2026-08-29T05:57:36Z","stale":false,"bins":25,"density_birds_km3":17.544166666666666,"heading_deg":null,"speed_ms":null,"peak_altitude_m":200.0,"u_ms":null,"v_ms":null}},{"type":"Feature","geometry":{"type":"Point","coordinates":[-77.4778,38.9753]},"properties":{"site":"KLWX","name":"Sterling VA","scan_time":"2026-08-29T05:58:32Z","stale":false,"bins":25,"density_birds_km3":62.29625,"heading_deg":211.68201218441422,"speed_ms":11.465579732701404,"peak_altitude_m":400.0,"u_ms":-5.944566769422326,"v_ms":-9.711212282480997}},{"type":"Feature","geometry":{"type":"Point","coordinates":[-76.8762,34.7759]},"properties":{"site":"KMHX","name":"Morehead City NC","scan_time":"2026-08-29T06:01:05Z","stale":false,"bins":25,"density_birds_km3":2.985625,"heading_deg":138.67284093614606,"speed_ms":3.5204041884816752,"peak_altitude_m":200.0,"u_ms":2.1731162303664924,"v_ms":-2.2743204188481676}},{"type":"Feature","geometry":{"type":"Point","coordinates":[-80.6542,28.1133]},"properties":{"site":"KMLB","name":"Melbourne FL","scan_time":"2026-08-29T05:59:19Z","stale":false,"bins":25,"density_birds_km3":6.6425,"heading_deg":145.86982938397787,"speed_ms":4.926038961038961,"peak_altitude_m":0.0,"u_ms":2.0354253717297195,"v_ms":-3.8243534726143418}},{"type":"Feature","geometry":{"type":"Point","coordinates":[-86.5625,36.2472]},"properties":{"site":"KOHX","name":"Nashville TN","scan_time":"2026-08-29T06:01:19Z","stale":false,"bins":25,"density_birds_km3":41.919999999999995,"heading_deg":234.50429916043137,"speed_ms":10.865409033078882,"peak_altitude_m":200.0,"u_ms":-8.83443765903308,"v_ms":-5.772909033078881}},{"type":"Feature","geometry":{"type":"Point","coordinates":[-72.8639,40.8655]},"properties":{"site":"KOKX","name":"Upton NY","scan_time":"2026-08-29T06:01:24Z","stale":false,"bins":25,"density_birds_km3":15.426250000000001,"heading_deg":201.75406338874535,"speed_ms":10.402626197045935,"peak_altitude_m":200.0,"u_ms":-3.886687226099659,"v_ms":-9.552026050965754}},{"type":"Feature","geometry":{"type":"Point","coordinates":[-80.2183,40.5317]},"properties":{"site":"KPBZ","name":"Pittsburgh PA","scan_time":"2026-08-29T05:57:15Z","stale":false,"bins":25,"density_birds_km3":16.75,"heading_deg":217.78221461199269,"speed_ms":9.636500213219616,"peak_altitude_m":600.0,"u_ms":-6.286527931769723,"v_ms":-6.850763326226013}},{"type":"Feature","geometry":{"type":"Point","coordinates":[-78.4899,35.6655]},"properties":{"site":"KRAX","name":"Raleigh NC","scan_time":"2026-08-29T05:59:39Z","stale":false,"bins":25,"density_birds_km3":21.355,"heading_deg":196.62914318789046,"speed_ms":7.365369324003865,"peak_altitude_m":400.0,"u_ms":-1.610709078666159,"v_ms":-6.771000087829727}},{"type":"Feature","geometry":{"type":"Point","coordinates":[-82.4017,27.7055]},"properties":{"site":"KTBW","name":"Tampa FL","scan_time":"2026-08-29T06:00:43Z","stale":false,"bins":25,"density_birds_km3":4.133125,"heading_deg":233.3962378398894,"speed_ms":5.509304189986387,"peak_altitude_m":200.0,"u_ms":-4.088561488428377,"v_ms":-3.190142187263652}}]}