{"type":"FeatureCollection","frame":"2026-09-09T11","site_count":20,"fresh_count":20,"failures":{},"features":[{"type":"Feature","geometry":{"type":"Point","coordinates":[-77.0073,36.984]},"properties":{"site":"KAKQ","name":"Wakefield VA","scan_time":"2026-09-09T10:57:30Z","stale":false,"bins":25,"density_birds_km3":0.108125,"heading_deg":75.37540097914193,"speed_ms":7.8106790123456795,"peak_altitude_m":0.0,"u_ms":7.247962962962962,"v_ms":2.21}},{"type":"Feature","geometry":{"type":"Point","coordinates":[-71.1369,41.9558]},"properties":{"site":"KBOX","name":"Boston MA","scan_time":"2026-09-09T10:57:25Z","stale":false,"bins":25,"density_birds_km3":1.086875,"heading_deg":310.6366998114955,"speed_ms":3.4325991949396206,"peak_altitude_m":0.0,"u_ms":-2.733536515238643,"v_ms":2.002984473835538}},{"type":"Feature","geometry":{"type":"Point","coordinates":[-78.7369,42.9489]},"properties":{"site":"KBUF","name":"Buffalo NY","scan_time":"2026-09-09T10:58:22Z","stale":false,"bins":25,"density_birds_km3":0.798,"heading_deg":46.125570961303886,"speed_ms":9.36597779675491,"peak_altitude_m":200.0,"u_ms":6.625431255337319,"v_ms":6.293313407344151}},{"type":"Feature","geometry":{"type":"Point","coordinates":[-81.8597,41.4131]},"properties":{"site":"KCLE","name":"Cleveland OH","scan_time":"2026-09-09T10:59:36Z","stale":false,"bins":25,"density_birds_km3":2.4926666666666666,"heading_deg":59.195671359918336,"speed_ms":10.83771948608137,"peak_altitude_m":200.0,"u_ms":9.190570128479658,"v_ms":5.002478586723769}},{"type":"Feature","geometry":{"type":"Point","coordinates":[-81.0423,32.6555]},"properties":{"site":"KCLX","name":"Charleston SC","scan_time":"2026-09-09T11:00:56Z","stale":false,"bins":25,"density_birds_km3":5.213125,"heading_deg":228.07863864436712,"speed_ms":10.528640287769784,"peak_altitude_m":0.0,"u_ms":-7.775484412470022,"v_ms":-6.867075539568345}},{"type":"Feature","geometry":{"type":"Point","coordinates":[-74.4108,39.947]},"properties":{"site":"KDIX","name":"Philadelphia PA","scan_time":"2026-09-09T11:00:31Z","stale":false,"bins":25,"density_birds_km3":0.128125,"heading_deg":51.46712929649164,"speed_ms":7.486019900497512,"peak_altitude_m":200.0,"u_ms":5.789999999999999,"v_ms":4.668457711442786}},{"type":"Feature","geometry":{"type":"Point","coordinates":[-84.5658,33.3636]},"properties":{"site":"KFFC","name":"Atlanta GA","scan_time":"2026-09-09T10:58:00Z","stale":false,"bins":25,"density_birds_km3":0.4686666666666667,"heading_deg":252.296430935248,"speed_ms":5.984017094017094,"peak_altitude_m":200.0,"u_ms":-5.488333333333333,"v_ms":-1.7384188034188033}},{"type":"Feature","geometry":{"type":"Point","coordinates":[-85.5449,42.8939]},"properties":{"site":"KGRR","name":"Grand Rapids MI","scan_time":"2026-09-09T11:02:55Z","stale":false,"bins":25,"density_birds_km3":0.29933333333333334,"heading_deg":null,"speed_ms":null,"peak_altitude_m":200.0,"u_ms":null,"v_ms":null}},{"type":"Feature","geometry":{"type":"Point","coordinates":[-83.8217,39.4203]},"properties":{"site":"KILN","name":"Wilmington OH","scan_time":"2026-09-09T11:00:41Z","stale":false,"bins":25,"density_birds_km3":1.0573333333333332,"heading_deg":38.665924595269324,"speed_ms":10.409072555205048,"peak_altitude_m":200.0,"u_ms":6.76815141955836,"v_ms":7.237716088328076}},{"type":"Feature","geometry":{"type":"Point","coordinates":[-81.7019,30.4846]},"properties":{"site":"KJAX","name":"Jacksonville FL","scan_time":"2026-09-09T10:59:28Z","stale":false,"bins":25,"density_birds_km3":20.80125,"heading_deg":222.46170520454962,"speed_ms":5.8457501803318115,"peak_altitude_m":0.0,"u_ms":-3.49699537148353,"v_ms":-3.8092465135849967}},{"type":"Feature","geometry":{"type":"Point","coordinates":[-88.0847,41.6045]},"properties":{"site":"KLOT","name":"Chicago IL","scan_time":"2026-09-09T10:57:51Z","stale":false,"bins":25,"density_birds_km3":0.5153333333333333,"heading_deg":76.3,"speed_ms":7.19,"peak_altitude_m":200.0,"u_ms":6.990000000000001,"v_ms":1.7}},{"type":"Feature","geometry":{"type":"Point","coordinates":[-78.4292,33.9892]},"properties":{"site":"KLTX","name":"Wilmington NC","scan_time":"2026-09-09T10:57:40Z","stale":false,"bins":25,"density_birds_km3":2.843125,"heading_deg":224.94439831889864,"speed_ms":6.08808155080214,"peak_altitude_m":0.0,"u_ms":-2.9596858288770047,"v_ms":-2.8221969696969693}},{"type":"Feature","geometry":{"type":"Point","coordinates":[-77.4778,38.9753]},"properties":{"site":"KLWX","name":"Sterling VA","scan_time":"2026-09-09T10:59:24Z","stale":false,"bins":25,"density_birds_km3":2.2,"heading_deg":27.94868139201988,"speed_ms":7.707062837645721,"peak_altitude_m":0.0,"u_ms":3.268296843901052,"v_ms":5.481748649417117}},{"type":"Feature","geometry":{"type":"Point","coordinates":[-76.8762,34.7759]},"properties":{"site":"KMHX","name":"Morehead City NC","scan_time":"2026-09-09T10:58:41Z","stale":false,"bins":25,"density_birds_km3":1.795,"heading_deg":304.6469792061477,"speed_ms":3.89909508660304,"peak_altitude_m":200.0,"u_ms":-1.7183951926475787,"v_ms":1.092887946270767}},{"type":"Feature","geometry":{"type":"Point","coordinates":[-80.6542,28.1133]},"properties":{"site":"KMLB","name":"Melbourne FL","scan_time":"2026-09-09T10:58:01Z","stale":false,"bins":25,"density_birds_km3":3.563125,"heading_deg":277.91298636949017,"speed_ms":2.534742213619567,"peak_altitude_m":0.0,"u_ms":-2.1370086222065807,"v_ms":0.11332746788667959}},{"type":"Feature","geometry":{"type":"Point","coordinates":[-86.5625,36.2472]},"properties":{"site":"KOHX","name":"Nashville TN","scan_time":"2026-09-09T10:57:29Z","stale":false,"bins":25,"density_birds_km3":0.7826666666666667,"heading_deg":11.095821845475932,"speed_ms":10.341056701030928,"peak_altitude_m":200.0,"u_ms":2.265687285223368,"v_ms":9.852594501718213}},{"type":"Feature","geometry":{"type":"Point","coordinates":[-72.8639,40.8655]},"properties":{"site":"KOKX","name":"Upton NY","scan_time":"2026-09-09T11:01:36Z","stale":false,"bins":25,"density_birds_km3":3.030625,"heading_deg":15.181551008783993,"speed_ms":3.9127036502371624,"peak_altitude_m":0.0,"u_ms":1.0405506289956692,"v_ms":3.7103732728397607}},{"type":"Feature","geometry":{"type":"Point","coordinates":[-80.2183,40.5317]},"properties":{"site":"KPBZ","name":"Pittsburgh PA","scan_time":"2026-09-09T11:00:51Z","stale":false,"bins":25,"density_birds_km3":0.705,"heading_deg":54.63151483047734,"speed_ms":10.459128672745695,"peak_altitude_m":400.0,"u_ms":8.502036474164134,"v_ms":5.655957446808511}},{"type":"Feature","geometry":{"type":"Point","coordinates":[-78.4899,35.6655]},"properties":{"site":"KRAX","name":"Raleigh NC","scan_time":"2026-09-09T11:00:55Z","stale":false,"bins":25,"density_birds_km3":2.37625,"heading_deg":134.67663348596108,"speed_ms":4.666903820816864,"peak_altitude_m":0.0,"u_ms":3.222395256916996,"v_ms":-3.303894598155467}},{"type":"Feature","geometry":{"type":"Point","coordinates":[-82.4017,27.7055]},"properties":{"site":"KTBW","name":"Tampa FL","scan_time":"2026-09-09T11:00:26Z","stale":false,"bins":25,"density_birds_km3":1.0625,"heading_deg":292.90693724115476,"speed_ms":4.499192692987626,"peak_altitude_m":0.0,"u_ms":-4.016051856216854,"v_ms":1.664979375368297}}]}