{"type":"FeatureCollection","frame":"2026-09-18T02","site_count":20,"fresh_count":20,"failures":{},"features":[{"type":"Feature","geometry":{"type":"Point","coordinates":[-77.0073,36.984]},"properties":{"site":"KAKQ","name":"Wakefield VA","scan_time":"2026-09-18T02:00:22Z","stale":false,"bins":25,"density_birds_km3":5.345,"heading_deg":73.42799517769915,"speed_ms":7.786278063610852,"peak_altitude_m":0.0,"u_ms":4.071703695042096,"v_ms":0.9528659962581854}},{"type":"Feature","geometry":{"type":"Point","coordinates":[-71.1369,41.9558]},"properties":{"site":"KBOX","name":"Boston MA","scan_time":"2026-09-18T02:01:58Z","stale":false,"bins":25,"density_birds_km3":1.345625,"heading_deg":23.377017607814285,"speed_ms":7.441538461538461,"peak_altitude_m":200.0,"u_ms":2.9553846153846153,"v_ms":6.821538461538462}},{"type":"Feature","geometry":{"type":"Point","coordinates":[-78.7369,42.9489]},"properties":{"site":"KBUF","name":"Buffalo NY","scan_time":"2026-09-18T02:02:10Z","stale":false,"bins":25,"density_birds_km3":48.309999999999995,"heading_deg":200.77624621331117,"speed_ms":5.53725467467053,"peak_altitude_m":400.0,"u_ms":-1.7829209963430621,"v_ms":-5.1074782308700755}},{"type":"Feature","geometry":{"type":"Point","coordinates":[-81.8597,41.4131]},"properties":{"site":"KCLE","name":"Cleveland OH","scan_time":"2026-09-18T02:02:13Z","stale":false,"bins":25,"density_birds_km3":19.446,"heading_deg":131.8004583097563,"speed_ms":6.113156503227579,"peak_altitude_m":400.0,"u_ms":4.682152176898777,"v_ms":-3.6038418486471633}},{"type":"Feature","geometry":{"type":"Point","coordinates":[-81.0423,32.6555]},"properties":{"site":"KCLX","name":"Charleston SC","scan_time":"2026-09-18T02:02:14Z","stale":false,"bins":25,"density_birds_km3":8.865,"heading_deg":226.54749230707,"speed_ms":7.577372154404488,"peak_altitude_m":0.0,"u_ms":-3.2306029363246456,"v_ms":-5.149289013526889}},{"type":"Feature","geometry":{"type":"Point","coordinates":[-74.4108,39.947]},"properties":{"site":"KDIX","name":"Philadelphia PA","scan_time":"2026-09-18T01:58:01Z","stale":false,"bins":25,"density_birds_km3":2.8525,"heading_deg":37.92381585175219,"speed_ms":7.800247698377904,"peak_altitude_m":200.0,"u_ms":4.62880754055239,"v_ms":5.470113985094257}},{"type":"Feature","geometry":{"type":"Point","coordinates":[-84.5658,33.3636]},"properties":{"site":"KFFC","name":"Atlanta GA","scan_time":"2026-09-18T01:57:45Z","stale":false,"bins":25,"density_birds_km3":63.234,"heading_deg":211.42417047281378,"speed_ms":8.657519372489485,"peak_altitude_m":1200.0,"u_ms":-3.8483427691853542,"v_ms":-7.071019915446332}},{"type":"Feature","geometry":{"type":"Point","coordinates":[-85.5449,42.8939]},"properties":{"site":"KGRR","name":"Grand Rapids MI","scan_time":"2026-09-18T01:58:06Z","stale":false,"bins":25,"density_birds_km3":99.762,"heading_deg":212.58366425968114,"speed_ms":9.501287530990425,"peak_altitude_m":400.0,"u_ms":-3.915873846421149,"v_ms":-7.556079736439393}},{"type":"Feature","geometry":{"type":"Point","coordinates":[-83.8217,39.4203]},"properties":{"site":"KILN","name":"Wilmington OH","scan_time":"2026-09-18T02:01:10Z","stale":false,"bins":25,"density_birds_km3":36.97666666666667,"heading_deg":135.27430392348901,"speed_ms":10.241655650784427,"peak_altitude_m":200.0,"u_ms":7.184810793143521,"v_ms":-6.7100493898895985}},{"type":"Feature","geometry":{"type":"Point","coordinates":[-81.7019,30.4846]},"properties":{"site":"KJAX","name":"Jacksonville FL","scan_time":"2026-09-18T02:01:39Z","stale":false,"bins":25,"density_birds_km3":53.425,"heading_deg":202.76290246538068,"speed_ms":10.657387108095461,"peak_altitude_m":0.0,"u_ms":-3.9301670566214324,"v_ms":-8.852067267197006}},{"type":"Feature","geometry":{"type":"Point","coordinates":[-88.0847,41.6045]},"properties":{"site":"KLOT","name":"Chicago IL","scan_time":"2026-09-18T02:01:20Z","stale":false,"bins":25,"density_birds_km3":19.696666666666665,"heading_deg":188.67437549774223,"speed_ms":9.809630754530254,"peak_altitude_m":200.0,"u_ms":-0.6375135651639763,"v_ms":-8.560185305258848}},{"type":"Feature","geometry":{"type":"Point","coordinates":[-78.4292,33.9892]},"properties":{"site":"KLTX","name":"Wilmington NC","scan_time":"2026-09-18T01:58:42Z","stale":false,"bins":25,"density_birds_km3":5.65125,"heading_deg":141.9067009164232,"speed_ms":5.0599678848283505,"peak_altitude_m":200.0,"u_ms":0.18862347729789586,"v_ms":-2.659920265780731}},{"type":"Feature","geometry":{"type":"Point","coordinates":[-77.4778,38.9753]},"properties":{"site":"KLWX","name":"Sterling VA","scan_time":"2026-09-18T01:59:53Z","stale":false,"bins":25,"density_birds_km3":10.224375,"heading_deg":102.86480510300039,"speed_ms":7.334396741793239,"peak_altitude_m":0.0,"u_ms":5.898289441450269,"v_ms":-2.5732710681038706}},{"type":"Feature","geometry":{"type":"Point","coordinates":[-76.8762,34.7759]},"properties":{"site":"KMHX","name":"Morehead City NC","scan_time":"2026-09-18T01:58:10Z","stale":false,"bins":25,"density_birds_km3":3.3606249999999998,"heading_deg":97.82861253999188,"speed_ms":4.869079241071428,"peak_altitude_m":200.0,"u_ms":2.033149181547619,"v_ms":-0.7893377976190479}},{"type":"Feature","geometry":{"type":"Point","coordinates":[-80.6542,28.1133]},"properties":{"site":"KMLB","name":"Melbourne FL","scan_time":"2026-09-18T01:59:35Z","stale":false,"bins":25,"density_birds_km3":13.096875,"heading_deg":180.35833880622272,"speed_ms":8.66899202978094,"peak_altitude_m":0.0,"u_ms":-0.054396983725480824,"v_ms":-8.643782274614614}},{"type":"Feature","geometry":{"type":"Point","coordinates":[-86.5625,36.2472]},"properties":{"site":"KOHX","name":"Nashville TN","scan_time":"2026-09-18T01:59:54Z","stale":false,"bins":25,"density_birds_km3":93.57266666666666,"heading_deg":210.36490853528076,"speed_ms":3.9990258551286346,"peak_altitude_m":600.0,"u_ms":-0.7134453081027936,"v_ms":-2.936369167634423}},{"type":"Feature","geometry":{"type":"Point","coordinates":[-72.8639,40.8655]},"properties":{"site":"KOKX","name":"Upton NY","scan_time":"2026-09-18T01:56:48Z","stale":false,"bins":25,"density_birds_km3":0.25375,"heading_deg":52.48705442929257,"speed_ms":10.173413978494626,"peak_altitude_m":0.0,"u_ms":7.637258064516129,"v_ms":5.85247311827957}},{"type":"Feature","geometry":{"type":"Point","coordinates":[-80.2183,40.5317]},"properties":{"site":"KPBZ","name":"Pittsburgh PA","scan_time":"2026-09-18T01:58:43Z","stale":false,"bins":25,"density_birds_km3":39.83,"heading_deg":158.83609405817873,"speed_ms":9.070792116495104,"peak_altitude_m":600.0,"u_ms":3.2589478497901796,"v_ms":-8.30511567016965}},{"type":"Feature","geometry":{"type":"Point","coordinates":[-78.4899,35.6655]},"properties":{"site":"KRAX","name":"Raleigh NC","scan_time":"2026-09-18T01:58:11Z","stale":false,"bins":25,"density_birds_km3":9.414375,"heading_deg":85.3432600987941,"speed_ms":7.1406333399721165,"peak_altitude_m":200.0,"u_ms":2.948011684259444,"v_ms":0.5296421695545375}},{"type":"Feature","geometry":{"type":"Point","coordinates":[-82.4017,27.7055]},"properties":{"site":"KTBW","name":"Tampa FL","scan_time":"2026-09-18T01:58:40Z","stale":false,"bins":25,"density_birds_km3":12.52125,"heading_deg":205.91242715348173,"speed_ms":9.532578745070634,"peak_altitude_m":0.0,"u_ms":-4.34117256526731,"v_ms":-8.393604552488394}}]}