{"type":"FeatureCollection","frame":"2026-09-26T08","site_count":20,"fresh_count":20,"failures":{},"features":[{"type":"Feature","geometry":{"type":"Point","coordinates":[-77.0073,36.984]},"properties":{"site":"KAKQ","name":"Wakefield VA","scan_time":"2026-09-26T08:01:05Z","stale":false,"bins":25,"density_birds_km3":9.830625000000001,"heading_deg":176.05122951296056,"speed_ms":21.873156253976333,"peak_altitude_m":400.0,"u_ms":0.7931047207023795,"v_ms":-21.631036391398396}},{"type":"Feature","geometry":{"type":"Point","coordinates":[-71.1369,41.9558]},"properties":{"site":"KBOX","name":"Boston MA","scan_time":"2026-09-26T08:01:38Z","stale":false,"bins":25,"density_birds_km3":0.9325,"heading_deg":null,"speed_ms":null,"peak_altitude_m":0.0,"u_ms":null,"v_ms":null}},{"type":"Feature","geometry":{"type":"Point","coordinates":[-78.7369,42.9489]},"properties":{"site":"KBUF","name":"Buffalo NY","scan_time":"2026-09-26T08:01:50Z","stale":false,"bins":25,"density_birds_km3":15.754,"heading_deg":202.05464430781188,"speed_ms":15.233597816427574,"peak_altitude_m":200.0,"u_ms":-5.8566095383183105,"v_ms":-13.761057509204011}},{"type":"Feature","geometry":{"type":"Point","coordinates":[-81.8597,41.4131]},"properties":{"site":"KCLE","name":"Cleveland OH","scan_time":"2026-09-26T08:01:19Z","stale":false,"bins":25,"density_birds_km3":18.642,"heading_deg":199.10090842976416,"speed_ms":12.469274704052072,"peak_altitude_m":200.0,"u_ms":-4.217955366403204,"v_ms":-11.60728943886127}},{"type":"Feature","geometry":{"type":"Point","coordinates":[-81.0423,32.6555]},"properties":{"site":"KCLX","name":"Charleston SC","scan_time":"2026-09-26T07:56:45Z","stale":false,"bins":25,"density_birds_km3":97.34625,"heading_deg":186.62146766385862,"speed_ms":11.154432309924625,"peak_altitude_m":0.0,"u_ms":-1.4082383759004584,"v_ms":-10.897123540968451}},{"type":"Feature","geometry":{"type":"Point","coordinates":[-74.4108,39.947]},"properties":{"site":"KDIX","name":"Philadelphia PA","scan_time":"2026-09-26T08:00:08Z","stale":false,"bins":25,"density_birds_km3":null,"heading_deg":null,"speed_ms":null,"peak_altitude_m":null,"u_ms":null,"v_ms":null}},{"type":"Feature","geometry":{"type":"Point","coordinates":[-84.5658,33.3636]},"properties":{"site":"KFFC","name":"Atlanta GA","scan_time":"2026-09-26T07:58:54Z","stale":false,"bins":25,"density_birds_km3":184.69666666666666,"heading_deg":198.51238527340018,"speed_ms":10.893266509050877,"peak_altitude_m":200.0,"u_ms":-3.2170629681098735,"v_ms":-10.295183995379812}},{"type":"Feature","geometry":{"type":"Point","coordinates":[-85.5449,42.8939]},"properties":{"site":"KGRR","name":"Grand Rapids MI","scan_time":"2026-09-26T07:57:15Z","stale":false,"bins":25,"density_birds_km3":10.996,"heading_deg":221.4053627891494,"speed_ms":10.082946704662584,"peak_altitude_m":200.0,"u_ms":-6.656002546534893,"v_ms":-7.519328199842358}},{"type":"Feature","geometry":{"type":"Point","coordinates":[-83.8217,39.4203]},"properties":{"site":"KILN","name":"Wilmington OH","scan_time":"2026-09-26T08:01:44Z","stale":false,"bins":25,"density_birds_km3":62.519999999999996,"heading_deg":192.62954750461455,"speed_ms":12.08437790573683,"peak_altitude_m":200.0,"u_ms":-2.6429824056301987,"v_ms":-11.443922691405417}},{"type":"Feature","geometry":{"type":"Point","coordinates":[-81.7019,30.4846]},"properties":{"site":"KJAX","name":"Jacksonville FL","scan_time":"2026-09-26T08:00:22Z","stale":false,"bins":25,"density_birds_km3":202.9175,"heading_deg":186.16182652848872,"speed_ms":13.320140204763021,"peak_altitude_m":0.0,"u_ms":-1.4159957248635533,"v_ms":-13.21118943043355}},{"type":"Feature","geometry":{"type":"Point","coordinates":[-88.0847,41.6045]},"properties":{"site":"KLOT","name":"Chicago IL","scan_time":"2026-09-26T08:03:23Z","stale":false,"bins":25,"density_birds_km3":11.122666666666667,"heading_deg":214.09791824685868,"speed_ms":8.10779369455766,"peak_altitude_m":200.0,"u_ms":-4.449652960920642,"v_ms":-6.074378446415728}},{"type":"Feature","geometry":{"type":"Point","coordinates":[-78.4292,33.9892]},"properties":{"site":"KLTX","name":"Wilmington NC","scan_time":"2026-09-26T07:59:08Z","stale":false,"bins":25,"density_birds_km3":70.955,"heading_deg":192.0147569297852,"speed_ms":12.08416505179339,"peak_altitude_m":0.0,"u_ms":-2.9238692657318017,"v_ms":-11.564966263829188}},{"type":"Feature","geometry":{"type":"Point","coordinates":[-77.4778,38.9753]},"properties":{"site":"KLWX","name":"Sterling VA","scan_time":"2026-09-26T07:58:06Z","stale":false,"bins":25,"density_birds_km3":11.404375,"heading_deg":189.45113638787024,"speed_ms":18.029573511676354,"peak_altitude_m":600.0,"u_ms":-3.2143679421116107,"v_ms":-17.13184848152615}},{"type":"Feature","geometry":{"type":"Point","coordinates":[-76.8762,34.7759]},"properties":{"site":"KMHX","name":"Morehead City NC","scan_time":"2026-09-26T08:02:18Z","stale":false,"bins":25,"density_birds_km3":30.021875,"heading_deg":166.48280998203646,"speed_ms":8.500044759029874,"peak_altitude_m":0.0,"u_ms":1.1998690538149266,"v_ms":-8.326961382325388}},{"type":"Feature","geometry":{"type":"Point","coordinates":[-80.6542,28.1133]},"properties":{"site":"KMLB","name":"Melbourne FL","scan_time":"2026-09-26T07:59:29Z","stale":false,"bins":25,"density_birds_km3":61.736875000000005,"heading_deg":167.0615345380225,"speed_ms":16.42966905921299,"peak_altitude_m":200.0,"u_ms":3.634814484860142,"v_ms":-15.995509571872564}},{"type":"Feature","geometry":{"type":"Point","coordinates":[-86.5625,36.2472]},"properties":{"site":"KOHX","name":"Nashville TN","scan_time":"2026-09-26T07:57:47Z","stale":false,"bins":25,"density_birds_km3":58.022666666666666,"heading_deg":205.69965721473952,"speed_ms":9.251035916997955,"peak_altitude_m":200.0,"u_ms":-3.7673894110347677,"v_ms":-7.581646253188408}},{"type":"Feature","geometry":{"type":"Point","coordinates":[-72.8639,40.8655]},"properties":{"site":"KOKX","name":"Upton NY","scan_time":"2026-09-26T08:01:09Z","stale":false,"bins":25,"density_birds_km3":3.0149999999999997,"heading_deg":null,"speed_ms":null,"peak_altitude_m":0.0,"u_ms":null,"v_ms":null}},{"type":"Feature","geometry":{"type":"Point","coordinates":[-80.2183,40.5317]},"properties":{"site":"KPBZ","name":"Pittsburgh PA","scan_time":"2026-09-26T07:59:33Z","stale":false,"bins":25,"density_birds_km3":48.20428571428572,"heading_deg":204.19649275927748,"speed_ms":18.286542986693537,"peak_altitude_m":600.0,"u_ms":-7.848048780487805,"v_ms":-15.98647334261921}},{"type":"Feature","geometry":{"type":"Point","coordinates":[-78.4899,35.6655]},"properties":{"site":"KRAX","name":"Raleigh NC","scan_time":"2026-09-26T07:58:50Z","stale":false,"bins":25,"density_birds_km3":22.56625,"heading_deg":181.1840925869257,"speed_ms":20.439222225299837,"peak_altitude_m":400.0,"u_ms":-1.0083632939090934,"v_ms":-20.119929645735812}},{"type":"Feature","geometry":{"type":"Point","coordinates":[-82.4017,27.7055]},"properties":{"site":"KTBW","name":"Tampa FL","scan_time":"2026-09-26T07:57:40Z","stale":false,"bins":25,"density_birds_km3":58.455,"heading_deg":188.69320756733023,"speed_ms":15.624144899333883,"peak_altitude_m":400.0,"u_ms":-2.4833954900723856,"v_ms":-15.354575042501097}}]}