{"type":"FeatureCollection","frame":"2026-10-06T10","site_count":20,"fresh_count":19,"failures":{"KILN":"RuntimeError('no scan within 20 min of 2026-10-06T10:00Z')"},"features":[{"type":"Feature","geometry":{"type":"Point","coordinates":[-77.0073,36.984]},"properties":{"site":"KAKQ","name":"Wakefield VA","scan_time":"2026-10-06T10:00:30Z","stale":false,"bins":25,"density_birds_km3":6.348125,"heading_deg":207.10017042519468,"speed_ms":15.657538643300185,"peak_altitude_m":200.0,"u_ms":-7.161921827311215,"v_ms":-13.759201535886582}},{"type":"Feature","geometry":{"type":"Point","coordinates":[-71.1369,41.9558]},"properties":{"site":"KBOX","name":"Boston MA","scan_time":"2026-10-06T10:03:30Z","stale":false,"bins":25,"density_birds_km3":0.6806249999999999,"heading_deg":112.04411172978486,"speed_ms":8.403930211202939,"peak_altitude_m":0.0,"u_ms":7.653021120293848,"v_ms":-3.281129476584022}},{"type":"Feature","geometry":{"type":"Point","coordinates":[-78.7369,42.9489]},"properties":{"site":"KBUF","name":"Buffalo NY","scan_time":"2026-10-06T09:57:44Z","stale":false,"bins":25,"density_birds_km3":1.45,"heading_deg":190.80003191980282,"speed_ms":8.106533333333333,"peak_altitude_m":200.0,"u_ms":-1.5920183908045975,"v_ms":-7.916570114942529}},{"type":"Feature","geometry":{"type":"Point","coordinates":[-81.8597,41.4131]},"properties":{"site":"KCLE","name":"Cleveland OH","scan_time":"2026-10-06T10:02:10Z","stale":false,"bins":25,"density_birds_km3":3.7733333333333334,"heading_deg":246.13655982369235,"speed_ms":6.543333922261484,"peak_altitude_m":200.0,"u_ms":-5.604044169611307,"v_ms":-2.7593427561837456}},{"type":"Feature","geometry":{"type":"Point","coordinates":[-81.0423,32.6555]},"properties":{"site":"KCLX","name":"Charleston SC","scan_time":"2026-10-06T10:00:33Z","stale":false,"bins":25,"density_birds_km3":125.149375,"heading_deg":206.0868406799816,"speed_ms":13.377471371710806,"peak_altitude_m":0.0,"u_ms":-6.430923446481454,"v_ms":-11.356253726796478}},{"type":"Feature","geometry":{"type":"Point","coordinates":[-74.4108,39.947]},"properties":{"site":"KDIX","name":"Philadelphia PA","scan_time":"2026-10-06T10:02:09Z","stale":false,"bins":25,"density_birds_km3":0.73125,"heading_deg":173.242749886789,"speed_ms":9.592291666666666,"peak_altitude_m":0.0,"u_ms":1.1929947916666668,"v_ms":-9.505902777777777}},{"type":"Feature","geometry":{"type":"Point","coordinates":[-84.5658,33.3636]},"properties":{"site":"KFFC","name":"Atlanta GA","scan_time":"2026-10-06T10:01:16Z","stale":false,"bins":25,"density_birds_km3":172.49266666666665,"heading_deg":225.82496795715755,"speed_ms":11.184841365236784,"peak_altitude_m":400.0,"u_ms":-8.397214644873792,"v_ms":-7.028307754146071}},{"type":"Feature","geometry":{"type":"Point","coordinates":[-85.5449,42.8939]},"properties":{"site":"KGRR","name":"Grand Rapids MI","scan_time":"2026-10-06T10:01:07Z","stale":false,"bins":25,"density_birds_km3":4.448666666666667,"heading_deg":282.2015338871231,"speed_ms":7.055681102952195,"peak_altitude_m":200.0,"u_ms":-6.827047804585643,"v_ms":1.5463809381087965}},{"type":"Feature","geometry":{"type":"Point","coordinates":[-81.7019,30.4846]},"properties":{"site":"KJAX","name":"Jacksonville FL","scan_time":"2026-10-06T10:00:15Z","stale":false,"bins":25,"density_birds_km3":137.84375,"heading_deg":201.00647450250264,"speed_ms":9.636044461774937,"peak_altitude_m":0.0,"u_ms":-3.6559953116994413,"v_ms":-8.822134355630723}},{"type":"Feature","geometry":{"type":"Point","coordinates":[-88.0847,41.6045]},"properties":{"site":"KLOT","name":"Chicago IL","scan_time":"2026-10-06T09:56:28Z","stale":false,"bins":25,"density_birds_km3":0.5886666666666667,"heading_deg":356.25346561170073,"speed_ms":11.110113378684808,"peak_altitude_m":200.0,"u_ms":-0.8007709750566893,"v_ms":10.841848072562357}},{"type":"Feature","geometry":{"type":"Point","coordinates":[-78.4292,33.9892]},"properties":{"site":"KLTX","name":"Wilmington NC","scan_time":"2026-10-06T10:01:38Z","stale":false,"bins":25,"density_birds_km3":113.33624999999999,"heading_deg":227.83546289375198,"speed_ms":15.411522901984142,"peak_altitude_m":0.0,"u_ms":-11.455060825640517,"v_ms":-10.284585911391986}},{"type":"Feature","geometry":{"type":"Point","coordinates":[-77.4778,38.9753]},"properties":{"site":"KLWX","name":"Sterling VA","scan_time":"2026-10-06T10:01:52Z","stale":false,"bins":25,"density_birds_km3":7.02125,"heading_deg":204.53487641472023,"speed_ms":11.00174222855616,"peak_altitude_m":200.0,"u_ms":-3.978180279682907,"v_ms":-10.155288144651287}},{"type":"Feature","geometry":{"type":"Point","coordinates":[-76.8762,34.7759]},"properties":{"site":"KMHX","name":"Morehead City NC","scan_time":"2026-10-06T09:59:40Z","stale":false,"bins":25,"density_birds_km3":35.69375,"heading_deg":203.47586308863546,"speed_ms":12.271461766096412,"peak_altitude_m":0.0,"u_ms":-4.922268293964174,"v_ms":-11.186884028787057}},{"type":"Feature","geometry":{"type":"Point","coordinates":[-80.6542,28.1133]},"properties":{"site":"KMLB","name":"Melbourne FL","scan_time":"2026-10-06T09:58:43Z","stale":false,"bins":25,"density_birds_km3":19.767500000000002,"heading_deg":179.00033142043128,"speed_ms":8.520384785632983,"peak_altitude_m":0.0,"u_ms":0.2639556721891994,"v_ms":-8.497025104337927}},{"type":"Feature","geometry":{"type":"Point","coordinates":[-86.5625,36.2472]},"properties":{"site":"KOHX","name":"Nashville TN","scan_time":"2026-10-06T10:01:55Z","stale":false,"bins":25,"density_birds_km3":16.163333333333334,"heading_deg":240.76561204122868,"speed_ms":10.006087853165601,"peak_altitude_m":200.0,"u_ms":-8.58423881212621,"v_ms":-4.643100020622809}},{"type":"Feature","geometry":{"type":"Point","coordinates":[-72.8639,40.8655]},"properties":{"site":"KOKX","name":"Upton NY","scan_time":"2026-10-06T09:57:12Z","stale":false,"bins":25,"density_birds_km3":0.34125,"heading_deg":151.90176529137946,"speed_ms":9.146377952755905,"peak_altitude_m":0.0,"u_ms":4.312992125984252,"v_ms":-8.06986220472441}},{"type":"Feature","geometry":{"type":"Point","coordinates":[-80.2183,40.5317]},"properties":{"site":"KPBZ","name":"Pittsburgh PA","scan_time":"2026-10-06T10:01:51Z","stale":false,"bins":25,"density_birds_km3":9.402142857142858,"heading_deg":217.08960603923404,"speed_ms":10.394996581326446,"peak_altitude_m":600.0,"u_ms":-6.155871002051205,"v_ms":-8.136747701891668}},{"type":"Feature","geometry":{"type":"Point","coordinates":[-78.4899,35.6655]},"properties":{"site":"KRAX","name":"Raleigh NC","scan_time":"2026-10-06T10:01:47Z","stale":false,"bins":25,"density_birds_km3":37.25125,"heading_deg":213.03424131705268,"speed_ms":13.94230956375839,"peak_altitude_m":200.0,"u_ms":-7.860576845637584,"v_ms":-11.022352181208053}},{"type":"Feature","geometry":{"type":"Point","coordinates":[-82.4017,27.7055]},"properties":{"site":"KTBW","name":"Tampa FL","scan_time":"2026-10-06T10:01:38Z","stale":false,"bins":25,"density_birds_km3":4.993125,"heading_deg":288.67275880206284,"speed_ms":5.440172759138709,"peak_altitude_m":0.0,"u_ms":-4.957090635953931,"v_ms":1.5301752628943417}}]}