{"type":"FeatureCollection","frame":"2026-09-05T07","site_count":20,"fresh_count":20,"failures":{},"features":[{"type":"Feature","geometry":{"type":"Point","coordinates":[-77.0073,36.984]},"properties":{"site":"KAKQ","name":"Wakefield VA","scan_time":"2026-09-05T07:02:16Z","stale":false,"bins":25,"density_birds_km3":10.57625,"heading_deg":148.66404346970452,"speed_ms":9.568517905684908,"peak_altitude_m":0.0,"u_ms":4.732821770476303,"v_ms":-7.954578655005318}},{"type":"Feature","geometry":{"type":"Point","coordinates":[-71.1369,41.9558]},"properties":{"site":"KBOX","name":"Boston MA","scan_time":"2026-09-05T07:01:46Z","stale":false,"bins":25,"density_birds_km3":12.635625000000001,"heading_deg":189.64414510339307,"speed_ms":11.340471903442818,"peak_altitude_m":400.0,"u_ms":-1.9567891768895926,"v_ms":-11.105276018994857}},{"type":"Feature","geometry":{"type":"Point","coordinates":[-78.7369,42.9489]},"properties":{"site":"KBUF","name":"Buffalo NY","scan_time":"2026-09-05T07:02:51Z","stale":false,"bins":25,"density_birds_km3":14.088,"heading_deg":217.9762169553577,"speed_ms":9.96346252129472,"peak_altitude_m":400.0,"u_ms":-6.2043867120954,"v_ms":-7.686422960439144}},{"type":"Feature","geometry":{"type":"Point","coordinates":[-81.8597,41.4131]},"properties":{"site":"KCLE","name":"Cleveland OH","scan_time":"2026-09-05T06:58:50Z","stale":false,"bins":25,"density_birds_km3":18.378,"heading_deg":205.7704561590059,"speed_ms":8.183393913011935,"peak_altitude_m":400.0,"u_ms":-3.305576595204411,"v_ms":-7.191918235571516}},{"type":"Feature","geometry":{"type":"Point","coordinates":[-81.0423,32.6555]},"properties":{"site":"KCLX","name":"Charleston SC","scan_time":"2026-09-05T07:02:54Z","stale":false,"bins":25,"density_birds_km3":1.9649999999999999,"heading_deg":67.48552260873433,"speed_ms":3.830565134099617,"peak_altitude_m":0.0,"u_ms":2.7941570881226054,"v_ms":1.2888058748403577}},{"type":"Feature","geometry":{"type":"Point","coordinates":[-74.4108,39.947]},"properties":{"site":"KDIX","name":"Philadelphia PA","scan_time":"2026-09-05T07:00:37Z","stale":false,"bins":25,"density_birds_km3":63.545,"heading_deg":214.92942136022683,"speed_ms":9.108196553623417,"peak_altitude_m":400.0,"u_ms":-5.127878471949011,"v_ms":-7.307231292784642}},{"type":"Feature","geometry":{"type":"Point","coordinates":[-84.5658,33.3636]},"properties":{"site":"KFFC","name":"Atlanta GA","scan_time":"2026-09-05T07:00:14Z","stale":false,"bins":25,"density_birds_km3":22.404,"heading_deg":196.00618058222477,"speed_ms":7.288288103314883,"peak_altitude_m":1400.0,"u_ms":-1.5259367374873534,"v_ms":-2.7664824733678506}},{"type":"Feature","geometry":{"type":"Point","coordinates":[-85.5449,42.8939]},"properties":{"site":"KGRR","name":"Grand Rapids MI","scan_time":"2026-09-05T07:00:11Z","stale":false,"bins":25,"density_birds_km3":11.379333333333333,"heading_deg":276.6401164553463,"speed_ms":6.659136703348437,"peak_altitude_m":400.0,"u_ms":-6.380087094686047,"v_ms":0.8074124639557464}},{"type":"Feature","geometry":{"type":"Point","coordinates":[-83.8217,39.4203]},"properties":{"site":"KILN","name":"Wilmington OH","scan_time":"2026-09-05T06:58:40Z","stale":false,"bins":25,"density_birds_km3":21.382,"heading_deg":132.79409695983946,"speed_ms":7.820324260281232,"peak_altitude_m":600.0,"u_ms":4.940514451407726,"v_ms":-5.349294422099585}},{"type":"Feature","geometry":{"type":"Point","coordinates":[-81.7019,30.4846]},"properties":{"site":"KJAX","name":"Jacksonville FL","scan_time":"2026-09-05T06:58:23Z","stale":false,"bins":25,"density_birds_km3":6.938124999999999,"heading_deg":140.59466023537664,"speed_ms":4.335705532528383,"peak_altitude_m":200.0,"u_ms":1.680967741935484,"v_ms":-3.6355775815462246}},{"type":"Feature","geometry":{"type":"Point","coordinates":[-88.0847,41.6045]},"properties":{"site":"KLOT","name":"Chicago IL","scan_time":"2026-09-05T07:00:36Z","stale":false,"bins":25,"density_birds_km3":54.46,"heading_deg":141.49066287569025,"speed_ms":12.484490757742686,"peak_altitude_m":400.0,"u_ms":7.751433345574734,"v_ms":-9.756720651242501}},{"type":"Feature","geometry":{"type":"Point","coordinates":[-78.4292,33.9892]},"properties":{"site":"KLTX","name":"Wilmington NC","scan_time":"2026-09-05T07:00:52Z","stale":false,"bins":25,"density_birds_km3":5.38,"heading_deg":120.05361229560083,"speed_ms":6.509547016940829,"peak_altitude_m":0.0,"u_ms":4.9851227596366305,"v_ms":-2.898449545789344}},{"type":"Feature","geometry":{"type":"Point","coordinates":[-77.4778,38.9753]},"properties":{"site":"KLWX","name":"Sterling VA","scan_time":"2026-09-05T07:00:55Z","stale":false,"bins":25,"density_birds_km3":71.373125,"heading_deg":195.4853730262381,"speed_ms":9.9768989647743,"peak_altitude_m":0.0,"u_ms":-2.162805969626373,"v_ms":-9.315769412671443}},{"type":"Feature","geometry":{"type":"Point","coordinates":[-76.8762,34.7759]},"properties":{"site":"KMHX","name":"Morehead City NC","scan_time":"2026-09-05T07:00:30Z","stale":false,"bins":25,"density_birds_km3":7.81625,"heading_deg":114.81141988545171,"speed_ms":8.50208303335733,"peak_altitude_m":0.0,"u_ms":6.229921606271498,"v_ms":-3.2990344772418205}},{"type":"Feature","geometry":{"type":"Point","coordinates":[-80.6542,28.1133]},"properties":{"site":"KMLB","name":"Melbourne FL","scan_time":"2026-09-05T06:59:13Z","stale":false,"bins":25,"density_birds_km3":4.245625,"heading_deg":29.18666306416675,"speed_ms":4.096926247607831,"peak_altitude_m":0.0,"u_ms":1.8323450610923007,"v_ms":3.584076254968349}},{"type":"Feature","geometry":{"type":"Point","coordinates":[-86.5625,36.2472]},"properties":{"site":"KOHX","name":"Nashville TN","scan_time":"2026-09-05T06:58:48Z","stale":false,"bins":25,"density_birds_km3":52.82066666666667,"heading_deg":175.72710880744287,"speed_ms":5.8295277101134655,"peak_altitude_m":400.0,"u_ms":0.34108316189370314,"v_ms":-5.613558708081433}},{"type":"Feature","geometry":{"type":"Point","coordinates":[-72.8639,40.8655]},"properties":{"site":"KOKX","name":"Upton NY","scan_time":"2026-09-05T07:01:31Z","stale":false,"bins":25,"density_birds_km3":42.44375,"heading_deg":220.65340667890908,"speed_ms":10.179825798851422,"peak_altitude_m":200.0,"u_ms":-6.578349285819467,"v_ms":-7.690176998969224}},{"type":"Feature","geometry":{"type":"Point","coordinates":[-80.2183,40.5317]},"properties":{"site":"KPBZ","name":"Pittsburgh PA","scan_time":"2026-09-05T07:01:01Z","stale":false,"bins":25,"density_birds_km3":66.07142857142857,"heading_deg":186.75979158671757,"speed_ms":7.796045945945946,"peak_altitude_m":600.0,"u_ms":-0.6917279999999997,"v_ms":-7.491116756756757}},{"type":"Feature","geometry":{"type":"Point","coordinates":[-78.4899,35.6655]},"properties":{"site":"KRAX","name":"Raleigh NC","scan_time":"2026-09-05T07:00:01Z","stale":false,"bins":25,"density_birds_km3":10.33625,"heading_deg":101.05487045244956,"speed_ms":6.630624391431354,"peak_altitude_m":0.0,"u_ms":4.240791139240507,"v_ms":-2.8835412609542357}},{"type":"Feature","geometry":{"type":"Point","coordinates":[-82.4017,27.7055]},"properties":{"site":"KTBW","name":"Tampa FL","scan_time":"2026-09-05T07:02:07Z","stale":false,"bins":25,"density_birds_km3":2.8575000000000004,"heading_deg":331.3787867161243,"speed_ms":2.996722100656455,"peak_altitude_m":0.0,"u_ms":-1.5428074398249452,"v_ms":2.328183807439825}}]}