{"type":"FeatureCollection","frame":"2026-08-21T10","site_count":20,"fresh_count":20,"failures":{},"features":[{"type":"Feature","geometry":{"type":"Point","coordinates":[-77.0073,36.984]},"properties":{"site":"KAKQ","name":"Wakefield VA","scan_time":"2026-08-21T10:00:10Z","stale":false,"bins":25,"density_birds_km3":1.688125,"heading_deg":199.48773442202466,"speed_ms":6.217419474268789,"peak_altitude_m":0.0,"u_ms":-2.11768604220659,"v_ms":-5.824809329877823}},{"type":"Feature","geometry":{"type":"Point","coordinates":[-71.1369,41.9558]},"properties":{"site":"KBOX","name":"Boston MA","scan_time":"2026-08-21T10:00:13Z","stale":false,"bins":25,"density_birds_km3":1.504375,"heading_deg":null,"speed_ms":null,"peak_altitude_m":0.0,"u_ms":null,"v_ms":null}},{"type":"Feature","geometry":{"type":"Point","coordinates":[-78.7369,42.9489]},"properties":{"site":"KBUF","name":"Buffalo NY","scan_time":"2026-08-21T10:02:49Z","stale":false,"bins":25,"density_birds_km3":0.3046666666666667,"heading_deg":300.9598519466955,"speed_ms":2.7750109409190373,"peak_altitude_m":200.0,"u_ms":-1.0501969365426695,"v_ms":0.9282713347921225}},{"type":"Feature","geometry":{"type":"Point","coordinates":[-81.8597,41.4131]},"properties":{"site":"KCLE","name":"Cleveland OH","scan_time":"2026-08-21T09:57:19Z","stale":false,"bins":25,"density_birds_km3":1.7746666666666668,"heading_deg":243.341919092681,"speed_ms":8.388344094189138,"peak_altitude_m":200.0,"u_ms":-7.431971135586783,"v_ms":-3.7173794151158375}},{"type":"Feature","geometry":{"type":"Point","coordinates":[-81.0423,32.6555]},"properties":{"site":"KCLX","name":"Charleston SC","scan_time":"2026-08-21T10:00:49Z","stale":false,"bins":25,"density_birds_km3":0.543125,"heading_deg":78.47285939005118,"speed_ms":6.490944700460829,"peak_altitude_m":0.0,"u_ms":6.339297235023042,"v_ms":1.2183640552995392}},{"type":"Feature","geometry":{"type":"Point","coordinates":[-74.4108,39.947]},"properties":{"site":"KDIX","name":"Philadelphia PA","scan_time":"2026-08-21T09:56:59Z","stale":false,"bins":25,"density_birds_km3":0.3225,"heading_deg":185.3608786979754,"speed_ms":9.151007751937984,"peak_altitude_m":0.0,"u_ms":-1.1257364341085272,"v_ms":-8.966918604651163}},{"type":"Feature","geometry":{"type":"Point","coordinates":[-84.5658,33.3636]},"properties":{"site":"KFFC","name":"Atlanta GA","scan_time":"2026-08-21T09:58:50Z","stale":false,"bins":25,"density_birds_km3":2.122,"heading_deg":144.21822009222177,"speed_ms":8.204822494502041,"peak_altitude_m":200.0,"u_ms":4.9703455859252275,"v_ms":-6.37268300345586}},{"type":"Feature","geometry":{"type":"Point","coordinates":[-85.5449,42.8939]},"properties":{"site":"KGRR","name":"Grand Rapids MI","scan_time":"2026-08-21T09:58:48Z","stale":false,"bins":25,"density_birds_km3":0.49933333333333335,"heading_deg":342.2131163195204,"speed_ms":8.871480484522207,"peak_altitude_m":200.0,"u_ms":-2.559905787348587,"v_ms":8.387348586810228}},{"type":"Feature","geometry":{"type":"Point","coordinates":[-83.8217,39.4203]},"properties":{"site":"KILN","name":"Wilmington OH","scan_time":"2026-08-21T09:59:30Z","stale":false,"bins":25,"density_birds_km3":3.7493333333333334,"heading_deg":243.90508374170687,"speed_ms":5.407393162393162,"peak_altitude_m":200.0,"u_ms":-4.687535612535612,"v_ms":-2.3279184472934475}},{"type":"Feature","geometry":{"type":"Point","coordinates":[-81.7019,30.4846]},"properties":{"site":"KJAX","name":"Jacksonville FL","scan_time":"2026-08-21T10:00:07Z","stale":false,"bins":25,"density_birds_km3":7.07375,"heading_deg":166.42573677027264,"speed_ms":3.918613590174074,"peak_altitude_m":0.0,"u_ms":1.0192383140408234,"v_ms":-3.683345409560838}},{"type":"Feature","geometry":{"type":"Point","coordinates":[-88.0847,41.6045]},"properties":{"site":"KLOT","name":"Chicago IL","scan_time":"2026-08-21T09:59:58Z","stale":false,"bins":25,"density_birds_km3":0.2773333333333333,"heading_deg":73.30969418487415,"speed_ms":3.67024154589372,"peak_altitude_m":200.0,"u_ms":2.3764009661835748,"v_ms":0.42466183574879224}},{"type":"Feature","geometry":{"type":"Point","coordinates":[-78.4292,33.9892]},"properties":{"site":"KLTX","name":"Wilmington NC","scan_time":"2026-08-21T09:58:26Z","stale":false,"bins":25,"density_birds_km3":0.303125,"heading_deg":100.23824243376858,"speed_ms":6.538070175438596,"peak_altitude_m":0.0,"u_ms":6.401754385964913,"v_ms":-1.127017543859649}},{"type":"Feature","geometry":{"type":"Point","coordinates":[-77.4778,38.9753]},"properties":{"site":"KLWX","name":"Sterling VA","scan_time":"2026-08-21T10:00:13Z","stale":false,"bins":25,"density_birds_km3":2.07,"heading_deg":204.44506875956935,"speed_ms":8.72830806549424,"peak_altitude_m":400.0,"u_ms":-3.7691934505761067,"v_ms":-7.7946149181322015}},{"type":"Feature","geometry":{"type":"Point","coordinates":[-76.8762,34.7759]},"properties":{"site":"KMHX","name":"Morehead City NC","scan_time":"2026-08-21T09:58:01Z","stale":false,"bins":25,"density_birds_km3":0.31625,"heading_deg":87.32988680901656,"speed_ms":3.74098814229249,"peak_altitude_m":0.0,"u_ms":3.7100197628458496,"v_ms":0.23911067193675892}},{"type":"Feature","geometry":{"type":"Point","coordinates":[-80.6542,28.1133]},"properties":{"site":"KMLB","name":"Melbourne FL","scan_time":"2026-08-21T10:01:04Z","stale":false,"bins":25,"density_birds_km3":2.978125,"heading_deg":137.82521190949353,"speed_ms":2.5793473242392446,"peak_altitude_m":0.0,"u_ms":1.6097817418677858,"v_ms":-1.7210598111227704}},{"type":"Feature","geometry":{"type":"Point","coordinates":[-86.5625,36.2472]},"properties":{"site":"KOHX","name":"Nashville TN","scan_time":"2026-08-21T09:58:56Z","stale":false,"bins":25,"density_birds_km3":10.576666666666666,"heading_deg":111.86562693142456,"speed_ms":2.7924930538014654,"peak_altitude_m":400.0,"u_ms":0.5679786562263199,"v_ms":-0.4816273048749686}},{"type":"Feature","geometry":{"type":"Point","coordinates":[-72.8639,40.8655]},"properties":{"site":"KOKX","name":"Upton NY","scan_time":"2026-08-21T10:01:42Z","stale":false,"bins":25,"density_birds_km3":0.02,"heading_deg":null,"speed_ms":null,"peak_altitude_m":3000.0,"u_ms":null,"v_ms":null}},{"type":"Feature","geometry":{"type":"Point","coordinates":[-80.2183,40.5317]},"properties":{"site":"KPBZ","name":"Pittsburgh PA","scan_time":"2026-08-21T10:00:40Z","stale":false,"bins":25,"density_birds_km3":0.8035714285714286,"heading_deg":224.33380825120622,"speed_ms":5.684176136363636,"peak_altitude_m":400.0,"u_ms":-2.8178219696969697,"v_ms":-3.6520833333333336}},{"type":"Feature","geometry":{"type":"Point","coordinates":[-78.4899,35.6655]},"properties":{"site":"KRAX","name":"Raleigh NC","scan_time":"2026-08-21T10:02:58Z","stale":false,"bins":25,"density_birds_km3":2.42125,"heading_deg":207.59724791833222,"speed_ms":6.677043635424736,"peak_altitude_m":200.0,"u_ms":-3.1456338755486706,"v_ms":-5.82029950942422}},{"type":"Feature","geometry":{"type":"Point","coordinates":[-82.4017,27.7055]},"properties":{"site":"KTBW","name":"Tampa FL","scan_time":"2026-08-21T09:59:51Z","stale":false,"bins":25,"density_birds_km3":6.458125,"heading_deg":287.3823945157155,"speed_ms":1.6645678892867513,"peak_altitude_m":0.0,"u_ms":-0.4818939320623246,"v_ms":0.06723023323333013}}]}