{"type":"FeatureCollection","frame":"2026-09-19T12","site_count":20,"fresh_count":20,"failures":{},"features":[{"type":"Feature","geometry":{"type":"Point","coordinates":[-77.0073,36.984]},"properties":{"site":"KAKQ","name":"Wakefield VA","scan_time":"2026-09-19T12:03:26Z","stale":false,"bins":25,"density_birds_km3":2.57125,"heading_deg":230.8775810593227,"speed_ms":8.23569761789013,"peak_altitude_m":0.0,"u_ms":-6.3878366553232855,"v_ms":-5.1321268838113765}},{"type":"Feature","geometry":{"type":"Point","coordinates":[-71.1369,41.9558]},"properties":{"site":"KBOX","name":"Boston MA","scan_time":"2026-09-19T11:58:59Z","stale":false,"bins":25,"density_birds_km3":3.3975,"heading_deg":220.02229012466802,"speed_ms":8.152041942604857,"peak_altitude_m":0.0,"u_ms":-5.350272259013981,"v_ms":-6.0784565857247985}},{"type":"Feature","geometry":{"type":"Point","coordinates":[-78.7369,42.9489]},"properties":{"site":"KBUF","name":"Buffalo NY","scan_time":"2026-09-19T11:59:19Z","stale":false,"bins":25,"density_birds_km3":1.2233333333333334,"heading_deg":303.11238742417817,"speed_ms":5.067542234332425,"peak_altitude_m":200.0,"u_ms":-4.245286103542234,"v_ms":2.7290517711171662}},{"type":"Feature","geometry":{"type":"Point","coordinates":[-81.8597,41.4131]},"properties":{"site":"KCLE","name":"Cleveland OH","scan_time":"2026-09-19T11:58:15Z","stale":false,"bins":25,"density_birds_km3":21.811111111111114,"heading_deg":250.95244494209595,"speed_ms":4.9298082578520175,"peak_altitude_m":200.0,"u_ms":-3.9721962122103274,"v_ms":-1.4887330902246794}},{"type":"Feature","geometry":{"type":"Point","coordinates":[-81.0423,32.6555]},"properties":{"site":"KCLX","name":"Charleston SC","scan_time":"2026-09-19T11:58:27Z","stale":false,"bins":25,"density_birds_km3":2.054375,"heading_deg":182.24328001118892,"speed_ms":5.5637268025555215,"peak_altitude_m":200.0,"u_ms":-0.20529053848494067,"v_ms":-5.497149376331}},{"type":"Feature","geometry":{"type":"Point","coordinates":[-74.4108,39.947]},"properties":{"site":"KDIX","name":"Philadelphia PA","scan_time":"2026-09-19T11:58:39Z","stale":false,"bins":25,"density_birds_km3":1.870625,"heading_deg":244.3112175640356,"speed_ms":11.440264302442289,"peak_altitude_m":200.0,"u_ms":-10.266918701906992,"v_ms":-4.952977584476413}},{"type":"Feature","geometry":{"type":"Point","coordinates":[-84.5658,33.3636]},"properties":{"site":"KFFC","name":"Atlanta GA","scan_time":"2026-09-19T12:01:45Z","stale":false,"bins":25,"density_birds_km3":5.039333333333333,"heading_deg":184.5985498999757,"speed_ms":3.60002645852626,"peak_altitude_m":200.0,"u_ms":0.6360378356925519,"v_ms":-3.0864135467654448}},{"type":"Feature","geometry":{"type":"Point","coordinates":[-85.5449,42.8939]},"properties":{"site":"KGRR","name":"Grand Rapids MI","scan_time":"2026-09-19T11:59:34Z","stale":false,"bins":25,"density_birds_km3":null,"heading_deg":null,"speed_ms":null,"peak_altitude_m":null,"u_ms":null,"v_ms":null}},{"type":"Feature","geometry":{"type":"Point","coordinates":[-83.8217,39.4203]},"properties":{"site":"KILN","name":"Wilmington OH","scan_time":"2026-09-19T11:59:15Z","stale":false,"bins":25,"density_birds_km3":2.3773333333333335,"heading_deg":291.76175748231447,"speed_ms":7.762833099579241,"peak_altitude_m":200.0,"u_ms":-6.88986255259467,"v_ms":2.7316297335203363}},{"type":"Feature","geometry":{"type":"Point","coordinates":[-81.7019,30.4846]},"properties":{"site":"KJAX","name":"Jacksonville FL","scan_time":"2026-09-19T11:58:52Z","stale":false,"bins":25,"density_birds_km3":0.508125,"heading_deg":214.72082045218076,"speed_ms":6.844124223602484,"peak_altitude_m":0.0,"u_ms":-4.158149068322981,"v_ms":-5.381701863354037}},{"type":"Feature","geometry":{"type":"Point","coordinates":[-88.0847,41.6045]},"properties":{"site":"KLOT","name":"Chicago IL","scan_time":"2026-09-19T12:02:05Z","stale":false,"bins":25,"density_birds_km3":0.6866666666666668,"heading_deg":null,"speed_ms":null,"peak_altitude_m":400.0,"u_ms":null,"v_ms":null}},{"type":"Feature","geometry":{"type":"Point","coordinates":[-78.4292,33.9892]},"properties":{"site":"KLTX","name":"Wilmington NC","scan_time":"2026-09-19T12:01:20Z","stale":false,"bins":25,"density_birds_km3":1.324375,"heading_deg":205.1573706866768,"speed_ms":5.5542042186001925,"peak_altitude_m":0.0,"u_ms":-2.366255992329818,"v_ms":-4.899242569511026}},{"type":"Feature","geometry":{"type":"Point","coordinates":[-77.4778,38.9753]},"properties":{"site":"KLWX","name":"Sterling VA","scan_time":"2026-09-19T12:02:42Z","stale":false,"bins":25,"density_birds_km3":10.285,"heading_deg":235.83686403644305,"speed_ms":9.490379354368047,"peak_altitude_m":200.0,"u_ms":-7.783949176241716,"v_ms":-5.239463189251626}},{"type":"Feature","geometry":{"type":"Point","coordinates":[-76.8762,34.7759]},"properties":{"site":"KMHX","name":"Morehead City NC","scan_time":"2026-09-19T11:59:32Z","stale":false,"bins":25,"density_birds_km3":1.4875,"heading_deg":237.10715851963693,"speed_ms":8.567372845733502,"peak_altitude_m":200.0,"u_ms":-7.161551071878941,"v_ms":-4.646628835645229}},{"type":"Feature","geometry":{"type":"Point","coordinates":[-80.6542,28.1133]},"properties":{"site":"KMLB","name":"Melbourne FL","scan_time":"2026-09-19T11:59:40Z","stale":false,"bins":25,"density_birds_km3":1.1768750000000001,"heading_deg":212.54221654727783,"speed_ms":3.9858453333333332,"peak_altitude_m":200.0,"u_ms":-2.0277493333333334,"v_ms":-3.348986666666667}},{"type":"Feature","geometry":{"type":"Point","coordinates":[-86.5625,36.2472]},"properties":{"site":"KOHX","name":"Nashville TN","scan_time":"2026-09-19T12:00:50Z","stale":false,"bins":25,"density_birds_km3":5.206,"heading_deg":209.29977693499796,"speed_ms":3.047763243950294,"peak_altitude_m":200.0,"u_ms":0.06904774362328321,"v_ms":-1.349198168737737}},{"type":"Feature","geometry":{"type":"Point","coordinates":[-72.8639,40.8655]},"properties":{"site":"KOKX","name":"Upton NY","scan_time":"2026-09-19T12:02:14Z","stale":false,"bins":25,"density_birds_km3":11.801875,"heading_deg":238.95482422021047,"speed_ms":10.592646217418945,"peak_altitude_m":200.0,"u_ms":-8.992449671540582,"v_ms":-5.415233100233101}},{"type":"Feature","geometry":{"type":"Point","coordinates":[-80.2183,40.5317]},"properties":{"site":"KPBZ","name":"Pittsburgh PA","scan_time":"2026-09-19T11:58:52Z","stale":false,"bins":25,"density_birds_km3":2.8392857142857144,"heading_deg":277.53895017286686,"speed_ms":6.857320754716982,"peak_altitude_m":400.0,"u_ms":-6.786150943396227,"v_ms":0.8438062893081761}},{"type":"Feature","geometry":{"type":"Point","coordinates":[-78.4899,35.6655]},"properties":{"site":"KRAX","name":"Raleigh NC","scan_time":"2026-09-19T12:00:51Z","stale":false,"bins":25,"density_birds_km3":1.45375,"heading_deg":240.6321684041061,"speed_ms":9.38056082830026,"peak_altitude_m":400.0,"u_ms":-8.173917169974116,"v_ms":-4.5242666091458155}},{"type":"Feature","geometry":{"type":"Point","coordinates":[-82.4017,27.7055]},"properties":{"site":"KTBW","name":"Tampa FL","scan_time":"2026-09-19T11:59:40Z","stale":false,"bins":25,"density_birds_km3":1.396875,"heading_deg":221.31313127361918,"speed_ms":3.5691185682326623,"peak_altitude_m":0.0,"u_ms":-2.287776286353467,"v_ms":-2.613436241610738}}]}