{"type":"FeatureCollection","frame":"2026-10-10T02","site_count":20,"fresh_count":20,"failures":{},"features":[{"type":"Feature","geometry":{"type":"Point","coordinates":[-77.0073,36.984]},"properties":{"site":"KAKQ","name":"Wakefield VA","scan_time":"2026-10-10T01:58:48Z","stale":false,"bins":25,"density_birds_km3":13.889375,"heading_deg":208.94592621682335,"speed_ms":8.567853381936006,"peak_altitude_m":200.0,"u_ms":-4.145890373970568,"v_ms":-7.408404212231673}},{"type":"Feature","geometry":{"type":"Point","coordinates":[-71.1369,41.9558]},"properties":{"site":"KBOX","name":"Boston MA","scan_time":"2026-10-10T02:00:34Z","stale":false,"bins":25,"density_birds_km3":6.4575,"heading_deg":135.71261342193918,"speed_ms":7.454778100775193,"peak_altitude_m":0.0,"u_ms":5.245878875968992,"v_ms":-5.093331395348837}},{"type":"Feature","geometry":{"type":"Point","coordinates":[-78.7369,42.9489]},"properties":{"site":"KBUF","name":"Buffalo NY","scan_time":"2026-10-10T02:02:28Z","stale":false,"bins":25,"density_birds_km3":12.386,"heading_deg":158.37475078716457,"speed_ms":8.786415845847463,"peak_altitude_m":600.0,"u_ms":3.167398675924431,"v_ms":-8.09997039668443}},{"type":"Feature","geometry":{"type":"Point","coordinates":[-81.8597,41.4131]},"properties":{"site":"KCLE","name":"Cleveland OH","scan_time":"2026-10-10T02:01:25Z","stale":false,"bins":25,"density_birds_km3":4.636666666666667,"heading_deg":283.320041040986,"speed_ms":9.378551912568307,"peak_altitude_m":400.0,"u_ms":-8.809587287891862,"v_ms":1.8771325855622665}},{"type":"Feature","geometry":{"type":"Point","coordinates":[-81.0423,32.6555]},"properties":{"site":"KCLX","name":"Charleston SC","scan_time":"2026-10-10T01:58:34Z","stale":false,"bins":25,"density_birds_km3":52.870000000000005,"heading_deg":216.11460136930694,"speed_ms":12.296349952244508,"peak_altitude_m":0.0,"u_ms":-7.653152053486152,"v_ms":-8.87781241642789}},{"type":"Feature","geometry":{"type":"Point","coordinates":[-74.4108,39.947]},"properties":{"site":"KDIX","name":"Philadelphia PA","scan_time":"2026-10-10T01:59:13Z","stale":false,"bins":25,"density_birds_km3":13.341249999999999,"heading_deg":184.49070884266848,"speed_ms":8.555736237994847,"peak_altitude_m":200.0,"u_ms":-0.7090053876786133,"v_ms":-8.51580370110096}},{"type":"Feature","geometry":{"type":"Point","coordinates":[-84.5658,33.3636]},"properties":{"site":"KFFC","name":"Atlanta GA","scan_time":"2026-10-10T01:59:46Z","stale":false,"bins":25,"density_birds_km3":238.78333333333333,"heading_deg":null,"speed_ms":null,"peak_altitude_m":400.0,"u_ms":null,"v_ms":null}},{"type":"Feature","geometry":{"type":"Point","coordinates":[-85.5449,42.8939]},"properties":{"site":"KGRR","name":"Grand Rapids MI","scan_time":"2026-10-10T01:57:01Z","stale":false,"bins":25,"density_birds_km3":5.4206666666666665,"heading_deg":279.30910488382597,"speed_ms":12.767755503628091,"peak_altitude_m":200.0,"u_ms":-12.323139835198623,"v_ms":1.9192485549132947}},{"type":"Feature","geometry":{"type":"Point","coordinates":[-83.8217,39.4203]},"properties":{"site":"KILN","name":"Wilmington OH","scan_time":"2026-10-10T02:02:06Z","stale":false,"bins":25,"density_birds_km3":2.366,"heading_deg":311.173162729879,"speed_ms":10.950132468996618,"peak_altitude_m":400.0,"u_ms":-7.793210259301015,"v_ms":7.018441375422774}},{"type":"Feature","geometry":{"type":"Point","coordinates":[-81.7019,30.4846]},"properties":{"site":"KJAX","name":"Jacksonville FL","scan_time":"2026-10-10T01:58:13Z","stale":false,"bins":25,"density_birds_km3":116.81800000000001,"heading_deg":227.91165859946304,"speed_ms":7.775609031276048,"peak_altitude_m":0.0,"u_ms":-5.890104374297829,"v_ms":-4.5401348168013635}},{"type":"Feature","geometry":{"type":"Point","coordinates":[-88.0847,41.6045]},"properties":{"site":"KLOT","name":"Chicago IL","scan_time":"2026-10-10T02:00:00Z","stale":false,"bins":25,"density_birds_km3":1.9573333333333336,"heading_deg":307.22498148902486,"speed_ms":13.27141244870041,"peak_altitude_m":200.0,"u_ms":-10.085861833105335,"v_ms":7.689702462380302}},{"type":"Feature","geometry":{"type":"Point","coordinates":[-78.4292,33.9892]},"properties":{"site":"KLTX","name":"Wilmington NC","scan_time":"2026-10-10T01:59:16Z","stale":false,"bins":25,"density_birds_km3":32.409375000000004,"heading_deg":225.77497670627952,"speed_ms":11.793132388390704,"peak_altitude_m":0.0,"u_ms":-8.673310191881207,"v_ms":-7.6612291967987645}},{"type":"Feature","geometry":{"type":"Point","coordinates":[-77.4778,38.9753]},"properties":{"site":"KLWX","name":"Sterling VA","scan_time":"2026-10-10T01:59:09Z","stale":false,"bins":25,"density_birds_km3":20.23875,"heading_deg":279.8477823559362,"speed_ms":4.488223822474966,"peak_altitude_m":200.0,"u_ms":-2.136755779453579,"v_ms":-0.30152800098899724}},{"type":"Feature","geometry":{"type":"Point","coordinates":[-76.8762,34.7759]},"properties":{"site":"KMHX","name":"Morehead City NC","scan_time":"2026-10-10T01:58:52Z","stale":false,"bins":25,"density_birds_km3":20.033125,"heading_deg":216.94370476967623,"speed_ms":10.888254141578011,"peak_altitude_m":0.0,"u_ms":-6.346289582878358,"v_ms":-8.50425919570711}},{"type":"Feature","geometry":{"type":"Point","coordinates":[-80.6542,28.1133]},"properties":{"site":"KMLB","name":"Melbourne FL","scan_time":"2026-10-10T01:58:04Z","stale":false,"bins":25,"density_birds_km3":5.721875,"heading_deg":336.7149591106431,"speed_ms":8.963092299290006,"peak_altitude_m":200.0,"u_ms":-3.135612233752048,"v_ms":8.245690879300929}},{"type":"Feature","geometry":{"type":"Point","coordinates":[-86.5625,36.2472]},"properties":{"site":"KOHX","name":"Nashville TN","scan_time":"2026-10-10T02:02:17Z","stale":false,"bins":25,"density_birds_km3":10.083333333333334,"heading_deg":278.8521292476449,"speed_ms":10.029145123966943,"peak_altitude_m":200.0,"u_ms":-9.799052561983471,"v_ms":1.7191206611570247}},{"type":"Feature","geometry":{"type":"Point","coordinates":[-72.8639,40.8655]},"properties":{"site":"KOKX","name":"Upton NY","scan_time":"2026-10-10T01:56:43Z","stale":false,"bins":25,"density_birds_km3":16.149375,"heading_deg":177.50594047041264,"speed_ms":8.0646795417602,"peak_altitude_m":0.0,"u_ms":0.4172594628067188,"v_ms":-7.972132130969889}},{"type":"Feature","geometry":{"type":"Point","coordinates":[-80.2183,40.5317]},"properties":{"site":"KPBZ","name":"Pittsburgh PA","scan_time":"2026-10-10T02:02:40Z","stale":false,"bins":25,"density_birds_km3":9.395714285714286,"heading_deg":232.1795419853471,"speed_ms":6.238252870067666,"peak_altitude_m":600.0,"u_ms":-4.5724625560708585,"v_ms":-3.821346460883449}},{"type":"Feature","geometry":{"type":"Point","coordinates":[-78.4899,35.6655]},"properties":{"site":"KRAX","name":"Raleigh NC","scan_time":"2026-10-10T02:01:25Z","stale":false,"bins":25,"density_birds_km3":61.23375,"heading_deg":242.66376358202746,"speed_ms":10.932666448919601,"peak_altitude_m":200.0,"u_ms":-9.6112326865565,"v_ms":-4.952302062813224}},{"type":"Feature","geometry":{"type":"Point","coordinates":[-82.4017,27.7055]},"properties":{"site":"KTBW","name":"Tampa FL","scan_time":"2026-10-10T02:00:49Z","stale":false,"bins":25,"density_birds_km3":8.7575,"heading_deg":336.9715546721692,"speed_ms":9.39184199257779,"peak_altitude_m":0.0,"u_ms":-3.2149914359120753,"v_ms":8.645493862403654}}]}