{"type":"FeatureCollection","frame":"2026-08-21T00","site_count":20,"fresh_count":20,"failures":{},"features":[{"type":"Feature","geometry":{"type":"Point","coordinates":[-77.0073,36.984]},"properties":{"site":"KAKQ","name":"Wakefield VA","scan_time":"2026-08-21T00:02:07Z","stale":false,"bins":25,"density_birds_km3":5.401875,"heading_deg":30.377772496445644,"speed_ms":6.810629411084114,"peak_altitude_m":0.0,"u_ms":3.4235172972347563,"v_ms":5.883016313779938}},{"type":"Feature","geometry":{"type":"Point","coordinates":[-71.1369,41.9558]},"properties":{"site":"KBOX","name":"Boston MA","scan_time":"2026-08-20T23:57:21Z","stale":false,"bins":25,"density_birds_km3":2.8737500000000002,"heading_deg":null,"speed_ms":null,"peak_altitude_m":200.0,"u_ms":null,"v_ms":null}},{"type":"Feature","geometry":{"type":"Point","coordinates":[-78.7369,42.9489]},"properties":{"site":"KBUF","name":"Buffalo NY","scan_time":"2026-08-20T23:59:16Z","stale":false,"bins":25,"density_birds_km3":0.762,"heading_deg":234.47646777723682,"speed_ms":3.365031390134529,"peak_altitude_m":200.0,"u_ms":-2.707704035874439,"v_ms":-1.7888430493273542}},{"type":"Feature","geometry":{"type":"Point","coordinates":[-81.8597,41.4131]},"properties":{"site":"KCLE","name":"Cleveland OH","scan_time":"2026-08-20T23:59:57Z","stale":false,"bins":25,"density_birds_km3":3.1106666666666665,"heading_deg":232.93081666663602,"speed_ms":6.56618782161235,"peak_altitude_m":200.0,"u_ms":-5.2320711835334475,"v_ms":-3.9253687821612346}},{"type":"Feature","geometry":{"type":"Point","coordinates":[-81.0423,32.6555]},"properties":{"site":"KCLX","name":"Charleston SC","scan_time":"2026-08-20T23:58:41Z","stale":false,"bins":25,"density_birds_km3":2.6462499999999998,"heading_deg":350.3631332638282,"speed_ms":7.413649031648561,"peak_altitude_m":400.0,"u_ms":-1.2081435994331602,"v_ms":7.148377420878601}},{"type":"Feature","geometry":{"type":"Point","coordinates":[-74.4108,39.947]},"properties":{"site":"KDIX","name":"Philadelphia PA","scan_time":"2026-08-20T23:57:25Z","stale":false,"bins":25,"density_birds_km3":0.025,"heading_deg":null,"speed_ms":null,"peak_altitude_m":2400.0,"u_ms":null,"v_ms":null}},{"type":"Feature","geometry":{"type":"Point","coordinates":[-84.5658,33.3636]},"properties":{"site":"KFFC","name":"Atlanta GA","scan_time":"2026-08-20T23:58:28Z","stale":false,"bins":25,"density_birds_km3":0.37399999999999994,"heading_deg":103.18786644157451,"speed_ms":3.368479427549195,"peak_altitude_m":200.0,"u_ms":3.1899105545617177,"v_ms":-0.7308944543828264}},{"type":"Feature","geometry":{"type":"Point","coordinates":[-85.5449,42.8939]},"properties":{"site":"KGRR","name":"Grand Rapids MI","scan_time":"2026-08-21T00:02:01Z","stale":false,"bins":25,"density_birds_km3":1.0186666666666668,"heading_deg":269.5249083565566,"speed_ms":3.5844626474442984,"peak_altitude_m":200.0,"u_ms":-3.5628636959370903,"v_ms":-0.02161205766710355}},{"type":"Feature","geometry":{"type":"Point","coordinates":[-83.8217,39.4203]},"properties":{"site":"KILN","name":"Wilmington OH","scan_time":"2026-08-20T23:59:46Z","stale":false,"bins":25,"density_birds_km3":0.88,"heading_deg":66.43930941053335,"speed_ms":2.5291411042944785,"peak_altitude_m":200.0,"u_ms":1.8609509202453989,"v_ms":1.1539187116564418}},{"type":"Feature","geometry":{"type":"Point","coordinates":[-81.7019,30.4846]},"properties":{"site":"KJAX","name":"Jacksonville FL","scan_time":"2026-08-20T23:58:24Z","stale":false,"bins":25,"density_birds_km3":1.875625,"heading_deg":null,"speed_ms":null,"peak_altitude_m":0.0,"u_ms":null,"v_ms":null}},{"type":"Feature","geometry":{"type":"Point","coordinates":[-88.0847,41.6045]},"properties":{"site":"KLOT","name":"Chicago IL","scan_time":"2026-08-20T23:59:17Z","stale":false,"bins":25,"density_birds_km3":0.7506666666666667,"heading_deg":209.49473487782404,"speed_ms":5.354822888283379,"peak_altitude_m":200.0,"u_ms":-2.6304087193460495,"v_ms":-4.631226158038148}},{"type":"Feature","geometry":{"type":"Point","coordinates":[-78.4292,33.9892]},"properties":{"site":"KLTX","name":"Wilmington NC","scan_time":"2026-08-21T00:00:57Z","stale":false,"bins":25,"density_birds_km3":0.52625,"heading_deg":327.8759375367629,"speed_ms":5.835534441805225,"peak_altitude_m":0.0,"u_ms":-3.1160451306413304,"v_ms":4.907790973871735}},{"type":"Feature","geometry":{"type":"Point","coordinates":[-77.4778,38.9753]},"properties":{"site":"KLWX","name":"Sterling VA","scan_time":"2026-08-21T00:01:03Z","stale":false,"bins":25,"density_birds_km3":3.32125,"heading_deg":185.39958833040896,"speed_ms":9.952320722755505,"peak_altitude_m":400.0,"u_ms":-0.9307773386034256,"v_ms":-9.877686805947675}},{"type":"Feature","geometry":{"type":"Point","coordinates":[-76.8762,34.7759]},"properties":{"site":"KMHX","name":"Morehead City NC","scan_time":"2026-08-20T23:58:34Z","stale":false,"bins":25,"density_birds_km3":1.94125,"heading_deg":343.3123978616658,"speed_ms":3.9864488087572445,"peak_altitude_m":0.0,"u_ms":-1.1416709594333547,"v_ms":3.820402446877013}},{"type":"Feature","geometry":{"type":"Point","coordinates":[-80.6542,28.1133]},"properties":{"site":"KMLB","name":"Melbourne FL","scan_time":"2026-08-20T23:57:18Z","stale":false,"bins":25,"density_birds_km3":1.346875,"heading_deg":248.37353864610412,"speed_ms":1.5657142857142856,"peak_altitude_m":0.0,"u_ms":-1.4428571428571428,"v_ms":-0.5928571428571429}},{"type":"Feature","geometry":{"type":"Point","coordinates":[-86.5625,36.2472]},"properties":{"site":"KOHX","name":"Nashville TN","scan_time":"2026-08-21T00:01:06Z","stale":false,"bins":25,"density_birds_km3":2.6733333333333333,"heading_deg":208.72609783106125,"speed_ms":6.240387362637362,"peak_altitude_m":200.0,"u_ms":-2.916093406593407,"v_ms":-5.340041208791209}},{"type":"Feature","geometry":{"type":"Point","coordinates":[-72.8639,40.8655]},"properties":{"site":"KOKX","name":"Upton NY","scan_time":"2026-08-20T23:58:18Z","stale":false,"bins":25,"density_birds_km3":null,"heading_deg":null,"speed_ms":null,"peak_altitude_m":null,"u_ms":null,"v_ms":null}},{"type":"Feature","geometry":{"type":"Point","coordinates":[-80.2183,40.5317]},"properties":{"site":"KPBZ","name":"Pittsburgh PA","scan_time":"2026-08-21T00:01:33Z","stale":false,"bins":25,"density_birds_km3":0.3742857142857143,"heading_deg":234.07495382301673,"speed_ms":4.464370229007633,"peak_altitude_m":400.0,"u_ms":-3.4858015267175575,"v_ms":-2.6955152671755727}},{"type":"Feature","geometry":{"type":"Point","coordinates":[-78.4899,35.6655]},"properties":{"site":"KRAX","name":"Raleigh NC","scan_time":"2026-08-21T00:01:10Z","stale":false,"bins":25,"density_birds_km3":0.398125,"heading_deg":3.8480722094869617,"speed_ms":6.229685534591195,"peak_altitude_m":0.0,"u_ms":0.39943396226415095,"v_ms":6.153694968553459}},{"type":"Feature","geometry":{"type":"Point","coordinates":[-82.4017,27.7055]},"properties":{"site":"KTBW","name":"Tampa FL","scan_time":"2026-08-21T00:01:40Z","stale":false,"bins":25,"density_birds_km3":0.77625,"heading_deg":249.72291197604227,"speed_ms":5.886908212560386,"peak_altitude_m":0.0,"u_ms":-5.500305958132045,"v_ms":-2.033180354267311}}]}