{"type":"FeatureCollection","frame":"2026-08-15T05","site_count":20,"fresh_count":20,"failures":{},"features":[{"type":"Feature","geometry":{"type":"Point","coordinates":[-77.0073,36.984]},"properties":{"site":"KAKQ","name":"Wakefield VA","scan_time":"2026-08-15T04:57:44Z","stale":false,"bins":25,"density_birds_km3":13.6875,"heading_deg":192.61332567330933,"speed_ms":6.209134703196347,"peak_altitude_m":200.0,"u_ms":-1.2943789954337899,"v_ms":-5.800683561643836}},{"type":"Feature","geometry":{"type":"Point","coordinates":[-71.1369,41.9558]},"properties":{"site":"KBOX","name":"Boston MA","scan_time":"2026-08-15T05:01:25Z","stale":false,"bins":25,"density_birds_km3":2.58,"heading_deg":207.92646567431848,"speed_ms":9.159566375968993,"peak_altitude_m":0.0,"u_ms":-4.3636603682170545,"v_ms":-8.009091569767442}},{"type":"Feature","geometry":{"type":"Point","coordinates":[-78.7369,42.9489]},"properties":{"site":"KBUF","name":"Buffalo NY","scan_time":"2026-08-15T05:02:58Z","stale":false,"bins":25,"density_birds_km3":5.141333333333334,"heading_deg":252.0816781264599,"speed_ms":5.932464989626556,"peak_altitude_m":200.0,"u_ms":-5.0822186203319495,"v_ms":-0.8809439834024896}},{"type":"Feature","geometry":{"type":"Point","coordinates":[-81.8597,41.4131]},"properties":{"site":"KCLE","name":"Cleveland OH","scan_time":"2026-08-15T05:01:16Z","stale":false,"bins":25,"density_birds_km3":5.9479999999999995,"heading_deg":254.17228377768808,"speed_ms":6.965636628558619,"peak_altitude_m":400.0,"u_ms":-6.630777852499439,"v_ms":-2.0161634162743782}},{"type":"Feature","geometry":{"type":"Point","coordinates":[-81.0423,32.6555]},"properties":{"site":"KCLX","name":"Charleston SC","scan_time":"2026-08-15T04:59:49Z","stale":false,"bins":25,"density_birds_km3":2.670625,"heading_deg":83.59419917214362,"speed_ms":5.33417232498244,"peak_altitude_m":0.0,"u_ms":4.855558417232498,"v_ms":0.5222079138375088}},{"type":"Feature","geometry":{"type":"Point","coordinates":[-74.4108,39.947]},"properties":{"site":"KDIX","name":"Philadelphia PA","scan_time":"2026-08-15T04:59:47Z","stale":false,"bins":25,"density_birds_km3":6.3950000000000005,"heading_deg":188.45106744115253,"speed_ms":7.607071191081557,"peak_altitude_m":200.0,"u_ms":-2.030185800899668,"v_ms":-6.672822217876002}},{"type":"Feature","geometry":{"type":"Point","coordinates":[-84.5658,33.3636]},"properties":{"site":"KFFC","name":"Atlanta GA","scan_time":"2026-08-15T04:58:19Z","stale":false,"bins":25,"density_birds_km3":21.824,"heading_deg":185.49782769979672,"speed_ms":5.571052052785924,"peak_altitude_m":1800.0,"u_ms":-0.6489748289345062,"v_ms":-4.610908174486803}},{"type":"Feature","geometry":{"type":"Point","coordinates":[-85.5449,42.8939]},"properties":{"site":"KGRR","name":"Grand Rapids MI","scan_time":"2026-08-15T05:00:01Z","stale":false,"bins":25,"density_birds_km3":5.0600000000000005,"heading_deg":264.29221871572884,"speed_ms":8.703444005270091,"peak_altitude_m":200.0,"u_ms":-8.482640316205533,"v_ms":-0.8725125164690383}},{"type":"Feature","geometry":{"type":"Point","coordinates":[-83.8217,39.4203]},"properties":{"site":"KILN","name":"Wilmington OH","scan_time":"2026-08-15T04:57:50Z","stale":false,"bins":25,"density_birds_km3":33.632666666666665,"heading_deg":219.68961480375017,"speed_ms":7.0230462918850245,"peak_altitude_m":400.0,"u_ms":-4.489515046847705,"v_ms":-4.323416904875337}},{"type":"Feature","geometry":{"type":"Point","coordinates":[-81.7019,30.4846]},"properties":{"site":"KJAX","name":"Jacksonville FL","scan_time":"2026-08-15T04:58:17Z","stale":false,"bins":25,"density_birds_km3":11.51,"heading_deg":173.8662295682229,"speed_ms":6.101185513430713,"peak_altitude_m":200.0,"u_ms":0.6570687674380437,"v_ms":-5.970581541659828}},{"type":"Feature","geometry":{"type":"Point","coordinates":[-88.0847,41.6045]},"properties":{"site":"KLOT","name":"Chicago IL","scan_time":"2026-08-15T04:58:56Z","stale":false,"bins":25,"density_birds_km3":3.380666666666667,"heading_deg":273.8211211118523,"speed_ms":8.11567835214894,"peak_altitude_m":400.0,"u_ms":-7.631247771836007,"v_ms":0.7649356308179837}},{"type":"Feature","geometry":{"type":"Point","coordinates":[-78.4292,33.9892]},"properties":{"site":"KLTX","name":"Wilmington NC","scan_time":"2026-08-15T05:01:36Z","stale":false,"bins":25,"density_birds_km3":1.588125,"heading_deg":51.88163939694811,"speed_ms":6.531124704025257,"peak_altitude_m":0.0,"u_ms":4.768417521704815,"v_ms":3.1384056827150753}},{"type":"Feature","geometry":{"type":"Point","coordinates":[-77.4778,38.9753]},"properties":{"site":"KLWX","name":"Sterling VA","scan_time":"2026-08-15T05:00:14Z","stale":false,"bins":25,"density_birds_km3":20.79,"heading_deg":224.39233571860697,"speed_ms":6.941390292313245,"peak_altitude_m":400.0,"u_ms":-4.776214964513413,"v_ms":-4.475423433176952}},{"type":"Feature","geometry":{"type":"Point","coordinates":[-76.8762,34.7759]},"properties":{"site":"KMHX","name":"Morehead City NC","scan_time":"2026-08-15T05:01:10Z","stale":false,"bins":25,"density_birds_km3":1.10375,"heading_deg":69.67152845583179,"speed_ms":9.231030577576444,"peak_altitude_m":0.0,"u_ms":8.408822197055493,"v_ms":3.1643544733861835}},{"type":"Feature","geometry":{"type":"Point","coordinates":[-80.6542,28.1133]},"properties":{"site":"KMLB","name":"Melbourne FL","scan_time":"2026-08-15T05:01:04Z","stale":false,"bins":25,"density_birds_km3":2.14125,"heading_deg":275.94365564632994,"speed_ms":1.7117483946293055,"peak_altitude_m":0.0,"u_ms":-0.45073847051955634,"v_ms":1.492364273204904}},{"type":"Feature","geometry":{"type":"Point","coordinates":[-86.5625,36.2472]},"properties":{"site":"KOHX","name":"Nashville TN","scan_time":"2026-08-15T05:03:56Z","stale":false,"bins":25,"density_birds_km3":18.729333333333333,"heading_deg":133.4840506587628,"speed_ms":3.847497330390831,"peak_altitude_m":200.0,"u_ms":1.4463953157257778,"v_ms":-1.8080533209938066}},{"type":"Feature","geometry":{"type":"Point","coordinates":[-72.8639,40.8655]},"properties":{"site":"KOKX","name":"Upton NY","scan_time":"2026-08-15T04:59:55Z","stale":false,"bins":25,"density_birds_km3":8.02625,"heading_deg":227.22558226467507,"speed_ms":6.1352338495229155,"peak_altitude_m":0.0,"u_ms":-4.3921210699202256,"v_ms":-4.198228531206007}},{"type":"Feature","geometry":{"type":"Point","coordinates":[-80.2183,40.5317]},"properties":{"site":"KPBZ","name":"Pittsburgh PA","scan_time":"2026-08-15T04:59:56Z","stale":false,"bins":25,"density_birds_km3":14.725714285714286,"heading_deg":230.73823449062468,"speed_ms":6.761545406008833,"peak_altitude_m":800.0,"u_ms":-4.902653982429743,"v_ms":-3.619277775081299}},{"type":"Feature","geometry":{"type":"Point","coordinates":[-78.4899,35.6655]},"properties":{"site":"KRAX","name":"Raleigh NC","scan_time":"2026-08-15T05:02:20Z","stale":false,"bins":25,"density_birds_km3":6.2775,"heading_deg":166.9816139555435,"speed_ms":3.9015760653126246,"peak_altitude_m":200.0,"u_ms":1.022751891676623,"v_ms":-3.72610115491836}},{"type":"Feature","geometry":{"type":"Point","coordinates":[-82.4017,27.7055]},"properties":{"site":"KTBW","name":"Tampa FL","scan_time":"2026-08-15T05:00:30Z","stale":false,"bins":25,"density_birds_km3":6.751875,"heading_deg":229.4827268436993,"speed_ms":4.949798204202536,"peak_altitude_m":200.0,"u_ms":-3.4988114412663154,"v_ms":-3.128573544385819}}]}