{"type":"FeatureCollection","frame":"2026-10-01T09","site_count":20,"fresh_count":20,"failures":{},"features":[{"type":"Feature","geometry":{"type":"Point","coordinates":[-77.0073,36.984]},"properties":{"site":"KAKQ","name":"Wakefield VA","scan_time":"2026-10-01T08:58:22Z","stale":false,"bins":25,"density_birds_km3":1.7025000000000001,"heading_deg":69.99640099915689,"speed_ms":6.403273328434975,"peak_altitude_m":0.0,"u_ms":5.759643644379134,"v_ms":2.109900808229243}},{"type":"Feature","geometry":{"type":"Point","coordinates":[-71.1369,41.9558]},"properties":{"site":"KBOX","name":"Boston MA","scan_time":"2026-10-01T09:01:16Z","stale":false,"bins":25,"density_birds_km3":1.6600000000000001,"heading_deg":68.85654420860332,"speed_ms":5.651871234939759,"peak_altitude_m":0.0,"u_ms":5.291325301204819,"v_ms":1.8111257530120481}},{"type":"Feature","geometry":{"type":"Point","coordinates":[-78.7369,42.9489]},"properties":{"site":"KBUF","name":"Buffalo NY","scan_time":"2026-10-01T08:58:28Z","stale":false,"bins":25,"density_birds_km3":1.3619999999999999,"heading_deg":null,"speed_ms":null,"peak_altitude_m":600.0,"u_ms":null,"v_ms":null}},{"type":"Feature","geometry":{"type":"Point","coordinates":[-81.8597,41.4131]},"properties":{"site":"KCLE","name":"Cleveland OH","scan_time":"2026-10-01T09:00:41Z","stale":false,"bins":25,"density_birds_km3":0.9913333333333333,"heading_deg":34.974968937989935,"speed_ms":11.405611073598921,"peak_altitude_m":200.0,"u_ms":7.006130992572586,"v_ms":8.584145847400405}},{"type":"Feature","geometry":{"type":"Point","coordinates":[-81.0423,32.6555]},"properties":{"site":"KCLX","name":"Charleston SC","scan_time":"2026-10-01T08:59:01Z","stale":false,"bins":25,"density_birds_km3":3.778125,"heading_deg":245.681169292795,"speed_ms":7.374780810587262,"peak_altitude_m":0.0,"u_ms":-6.463981803143093,"v_ms":-2.84554011579818}},{"type":"Feature","geometry":{"type":"Point","coordinates":[-74.4108,39.947]},"properties":{"site":"KDIX","name":"Philadelphia PA","scan_time":"2026-10-01T08:58:45Z","stale":false,"bins":25,"density_birds_km3":2.7775,"heading_deg":45.04320886351439,"speed_ms":5.292357851985559,"peak_altitude_m":0.0,"u_ms":3.9466854693140796,"v_ms":3.3518727436823106}},{"type":"Feature","geometry":{"type":"Point","coordinates":[-84.5658,33.3636]},"properties":{"site":"KFFC","name":"Atlanta GA","scan_time":"2026-10-01T09:03:31Z","stale":false,"bins":25,"density_birds_km3":2.4766666666666666,"heading_deg":348.7021572544748,"speed_ms":8.7458465679677,"peak_altitude_m":200.0,"u_ms":-0.5806325706594886,"v_ms":8.408532974427995}},{"type":"Feature","geometry":{"type":"Point","coordinates":[-85.5449,42.8939]},"properties":{"site":"KGRR","name":"Grand Rapids MI","scan_time":"2026-10-01T09:02:42Z","stale":false,"bins":25,"density_birds_km3":null,"heading_deg":null,"speed_ms":null,"peak_altitude_m":null,"u_ms":null,"v_ms":null}},{"type":"Feature","geometry":{"type":"Point","coordinates":[-83.8217,39.4203]},"properties":{"site":"KILN","name":"Wilmington OH","scan_time":"2026-10-01T08:58:16Z","stale":false,"bins":25,"density_birds_km3":1.9519999999999997,"heading_deg":55.90211598711972,"speed_ms":17.535688356164385,"peak_altitude_m":400.0,"u_ms":14.610527397260276,"v_ms":9.480462328767123}},{"type":"Feature","geometry":{"type":"Point","coordinates":[-81.7019,30.4846]},"properties":{"site":"KJAX","name":"Jacksonville FL","scan_time":"2026-10-01T09:01:43Z","stale":false,"bins":25,"density_birds_km3":10.175625,"heading_deg":220.7371572390731,"speed_ms":5.800783362005407,"peak_altitude_m":0.0,"u_ms":-3.094929958220693,"v_ms":-3.2936427869255342}},{"type":"Feature","geometry":{"type":"Point","coordinates":[-88.0847,41.6045]},"properties":{"site":"KLOT","name":"Chicago IL","scan_time":"2026-10-01T08:59:16Z","stale":false,"bins":25,"density_birds_km3":0.0,"heading_deg":null,"speed_ms":null,"peak_altitude_m":1800.0,"u_ms":null,"v_ms":null}},{"type":"Feature","geometry":{"type":"Point","coordinates":[-78.4292,33.9892]},"properties":{"site":"KLTX","name":"Wilmington NC","scan_time":"2026-10-01T09:01:02Z","stale":false,"bins":25,"density_birds_km3":1.941875,"heading_deg":254.4338887030603,"speed_ms":6.029890534449452,"peak_altitude_m":0.0,"u_ms":-5.800251126851255,"v_ms":-1.59158403090792}},{"type":"Feature","geometry":{"type":"Point","coordinates":[-77.4778,38.9753]},"properties":{"site":"KLWX","name":"Sterling VA","scan_time":"2026-10-01T08:59:15Z","stale":false,"bins":25,"density_birds_km3":7.88875,"heading_deg":4.9351879018948965,"speed_ms":5.529250832408435,"peak_altitude_m":200.0,"u_ms":1.521734580624703,"v_ms":4.125652449659109}},{"type":"Feature","geometry":{"type":"Point","coordinates":[-76.8762,34.7759]},"properties":{"site":"KMHX","name":"Morehead City NC","scan_time":"2026-10-01T08:59:08Z","stale":false,"bins":25,"density_birds_km3":1.01125,"heading_deg":338.7028442933119,"speed_ms":2.484307022995649,"peak_altitude_m":0.0,"u_ms":-0.8413113735239282,"v_ms":1.4773710379117464}},{"type":"Feature","geometry":{"type":"Point","coordinates":[-80.6542,28.1133]},"properties":{"site":"KMLB","name":"Melbourne FL","scan_time":"2026-10-01T09:02:18Z","stale":false,"bins":25,"density_birds_km3":4.397142857142858,"heading_deg":null,"speed_ms":null,"peak_altitude_m":200.0,"u_ms":null,"v_ms":null}},{"type":"Feature","geometry":{"type":"Point","coordinates":[-86.5625,36.2472]},"properties":{"site":"KOHX","name":"Nashville TN","scan_time":"2026-10-01T08:56:36Z","stale":false,"bins":25,"density_birds_km3":2.734666666666667,"heading_deg":5.882909856347495,"speed_ms":12.700153621068033,"peak_altitude_m":200.0,"u_ms":2.0203657644476958,"v_ms":11.793145574250183}},{"type":"Feature","geometry":{"type":"Point","coordinates":[-72.8639,40.8655]},"properties":{"site":"KOKX","name":"Upton NY","scan_time":"2026-10-01T09:02:50Z","stale":false,"bins":25,"density_birds_km3":0.85875,"heading_deg":79.59391671508669,"speed_ms":8.697947598253274,"peak_altitude_m":0.0,"u_ms":8.554184861717612,"v_ms":1.5534643377001456}},{"type":"Feature","geometry":{"type":"Point","coordinates":[-80.2183,40.5317]},"properties":{"site":"KPBZ","name":"Pittsburgh PA","scan_time":"2026-10-01T09:00:59Z","stale":false,"bins":25,"density_birds_km3":1.4385714285714286,"heading_deg":51.24195642476538,"speed_ms":13.239265143992055,"peak_altitude_m":400.0,"u_ms":10.354359483614697,"v_ms":8.180595829195632}},{"type":"Feature","geometry":{"type":"Point","coordinates":[-78.4899,35.6655]},"properties":{"site":"KRAX","name":"Raleigh NC","scan_time":"2026-10-01T08:58:37Z","stale":false,"bins":25,"density_birds_km3":2.223125,"heading_deg":70.66727409664033,"speed_ms":6.690875070343275,"peak_altitude_m":0.0,"u_ms":5.873109172763084,"v_ms":2.482124366910523}},{"type":"Feature","geometry":{"type":"Point","coordinates":[-82.4017,27.7055]},"properties":{"site":"KTBW","name":"Tampa FL","scan_time":"2026-10-01T09:02:23Z","stale":false,"bins":25,"density_birds_km3":3.19375,"heading_deg":265.0469527204781,"speed_ms":7.432065387627252,"peak_altitude_m":0.0,"u_ms":-7.106824588880188,"v_ms":-0.3211824588880188}}]}