{"type":"FeatureCollection","frame":"2026-10-09T01","site_count":20,"fresh_count":20,"failures":{},"features":[{"type":"Feature","geometry":{"type":"Point","coordinates":[-77.0073,36.984]},"properties":{"site":"KAKQ","name":"Wakefield VA","scan_time":"2026-10-09T01:00:24Z","stale":false,"bins":25,"density_birds_km3":39.225625,"heading_deg":223.55106782831692,"speed_ms":7.236490758444869,"peak_altitude_m":200.0,"u_ms":-2.769574729126832,"v_ms":-2.805110898661568}},{"type":"Feature","geometry":{"type":"Point","coordinates":[-71.1369,41.9558]},"properties":{"site":"KBOX","name":"Boston MA","scan_time":"2026-10-09T01:00:26Z","stale":false,"bins":25,"density_birds_km3":7.940625000000001,"heading_deg":156.25491862400995,"speed_ms":9.413447182819558,"peak_altitude_m":0.0,"u_ms":3.7919755923607257,"v_ms":-8.561917743085822}},{"type":"Feature","geometry":{"type":"Point","coordinates":[-78.7369,42.9489]},"properties":{"site":"KBUF","name":"Buffalo NY","scan_time":"2026-10-09T00:58:58Z","stale":false,"bins":25,"density_birds_km3":7.565333333333333,"heading_deg":140.94855482128364,"speed_ms":11.47763021062836,"peak_altitude_m":200.0,"u_ms":7.311853353309244,"v_ms":-8.733017537675156}},{"type":"Feature","geometry":{"type":"Point","coordinates":[-81.8597,41.4131]},"properties":{"site":"KCLE","name":"Cleveland OH","scan_time":"2026-10-09T01:03:14Z","stale":false,"bins":25,"density_birds_km3":6.696666666666667,"heading_deg":138.7567096523814,"speed_ms":8.704294673967148,"peak_altitude_m":400.0,"u_ms":5.439150821304131,"v_ms":-6.648675958188154}},{"type":"Feature","geometry":{"type":"Point","coordinates":[-81.0423,32.6555]},"properties":{"site":"KCLX","name":"Charleston SC","scan_time":"2026-10-09T01:00:14Z","stale":false,"bins":25,"density_birds_km3":14.8325,"heading_deg":217.6687451635252,"speed_ms":4.289319484240687,"peak_altitude_m":0.0,"u_ms":-2.8063302713635596,"v_ms":-2.5144442103488958}},{"type":"Feature","geometry":{"type":"Point","coordinates":[-74.4108,39.947]},"properties":{"site":"KDIX","name":"Philadelphia PA","scan_time":"2026-10-09T01:02:39Z","stale":false,"bins":25,"density_birds_km3":11.240625,"heading_deg":152.67167994408464,"speed_ms":10.109679733110925,"peak_altitude_m":0.0,"u_ms":4.646631637475675,"v_ms":-8.947056991937727}},{"type":"Feature","geometry":{"type":"Point","coordinates":[-84.5658,33.3636]},"properties":{"site":"KFFC","name":"Atlanta GA","scan_time":"2026-10-09T01:01:03Z","stale":false,"bins":25,"density_birds_km3":121.53999999999999,"heading_deg":181.4002519984861,"speed_ms":7.46338028632549,"peak_altitude_m":1200.0,"u_ms":0.13387268937524,"v_ms":-6.368908726893753}},{"type":"Feature","geometry":{"type":"Point","coordinates":[-85.5449,42.8939]},"properties":{"site":"KGRR","name":"Grand Rapids MI","scan_time":"2026-10-09T01:01:57Z","stale":false,"bins":25,"density_birds_km3":26.830666666666666,"heading_deg":168.68864223853714,"speed_ms":11.025795110073052,"peak_altitude_m":1000.0,"u_ms":2.2638455995626896,"v_ms":-10.75368086269443}},{"type":"Feature","geometry":{"type":"Point","coordinates":[-83.8217,39.4203]},"properties":{"site":"KILN","name":"Wilmington OH","scan_time":"2026-10-09T00:59:06Z","stale":false,"bins":25,"density_birds_km3":83.17399999999999,"heading_deg":159.26559175626616,"speed_ms":7.955260073906039,"peak_altitude_m":400.0,"u_ms":2.9119589108077557,"v_ms":-6.911771500484958}},{"type":"Feature","geometry":{"type":"Point","coordinates":[-81.7019,30.4846]},"properties":{"site":"KJAX","name":"Jacksonville FL","scan_time":"2026-10-09T01:00:04Z","stale":false,"bins":25,"density_birds_km3":101.44375,"heading_deg":202.72304097854354,"speed_ms":5.443637022531916,"peak_altitude_m":200.0,"u_ms":-2.051655371039113,"v_ms":-4.661674698641981}},{"type":"Feature","geometry":{"type":"Point","coordinates":[-88.0847,41.6045]},"properties":{"site":"KLOT","name":"Chicago IL","scan_time":"2026-10-09T00:56:45Z","stale":false,"bins":25,"density_birds_km3":20.431333333333335,"heading_deg":191.39703148247062,"speed_ms":7.024626855930821,"peak_altitude_m":400.0,"u_ms":-0.8586686245717083,"v_ms":-6.0206493718387994}},{"type":"Feature","geometry":{"type":"Point","coordinates":[-78.4292,33.9892]},"properties":{"site":"KLTX","name":"Wilmington NC","scan_time":"2026-10-09T00:57:40Z","stale":false,"bins":25,"density_birds_km3":18.05375,"heading_deg":108.55265036222605,"speed_ms":3.633302408005837,"peak_altitude_m":400.0,"u_ms":2.4780374578685844,"v_ms":-1.0972361791584142}},{"type":"Feature","geometry":{"type":"Point","coordinates":[-77.4778,38.9753]},"properties":{"site":"KLWX","name":"Sterling VA","scan_time":"2026-10-09T00:57:24Z","stale":false,"bins":25,"density_birds_km3":60.195,"heading_deg":180.96437017423247,"speed_ms":9.824600568984135,"peak_altitude_m":200.0,"u_ms":0.07014536091037456,"v_ms":-9.447479857130991}},{"type":"Feature","geometry":{"type":"Point","coordinates":[-76.8762,34.7759]},"properties":{"site":"KMHX","name":"Morehead City NC","scan_time":"2026-10-09T00:57:35Z","stale":false,"bins":25,"density_birds_km3":6.575625,"heading_deg":90.09343910152977,"speed_ms":5.987012073391007,"peak_altitude_m":0.0,"u_ms":4.576470196786767,"v_ms":0.19601863294990016}},{"type":"Feature","geometry":{"type":"Point","coordinates":[-80.6542,28.1133]},"properties":{"site":"KMLB","name":"Melbourne FL","scan_time":"2026-10-09T01:01:49Z","stale":false,"bins":25,"density_birds_km3":54.96,"heading_deg":179.27680756441615,"speed_ms":6.621251708493653,"peak_altitude_m":0.0,"u_ms":0.11272761729742145,"v_ms":-6.608972147246311}},{"type":"Feature","geometry":{"type":"Point","coordinates":[-86.5625,36.2472]},"properties":{"site":"KOHX","name":"Nashville TN","scan_time":"2026-10-09T00:56:59Z","stale":false,"bins":25,"density_birds_km3":89.82266666666666,"heading_deg":204.2805804421884,"speed_ms":8.84251376786854,"peak_altitude_m":200.0,"u_ms":-3.6657845087357317,"v_ms":-7.950257247613817}},{"type":"Feature","geometry":{"type":"Point","coordinates":[-72.8639,40.8655]},"properties":{"site":"KOKX","name":"Upton NY","scan_time":"2026-10-09T01:00:55Z","stale":false,"bins":25,"density_birds_km3":3.355,"heading_deg":147.51365948839108,"speed_ms":8.892546572280178,"peak_altitude_m":0.0,"u_ms":4.79229694485842,"v_ms":-7.376292846497765}},{"type":"Feature","geometry":{"type":"Point","coordinates":[-80.2183,40.5317]},"properties":{"site":"KPBZ","name":"Pittsburgh PA","scan_time":"2026-10-09T00:56:46Z","stale":false,"bins":25,"density_birds_km3":30.81642857142857,"heading_deg":170.36734332080772,"speed_ms":8.709953641463077,"peak_altitude_m":600.0,"u_ms":1.5727149877149877,"v_ms":-8.312644986324232}},{"type":"Feature","geometry":{"type":"Point","coordinates":[-78.4899,35.6655]},"properties":{"site":"KRAX","name":"Raleigh NC","scan_time":"2026-10-09T01:00:24Z","stale":false,"bins":25,"density_birds_km3":35.84375,"heading_deg":92.31414902715531,"speed_ms":7.361066452771626,"peak_altitude_m":200.0,"u_ms":5.681218504245933,"v_ms":-0.4089356396798551}},{"type":"Feature","geometry":{"type":"Point","coordinates":[-82.4017,27.7055]},"properties":{"site":"KTBW","name":"Tampa FL","scan_time":"2026-10-09T00:58:40Z","stale":false,"bins":25,"density_birds_km3":18.711875,"heading_deg":210.6,"speed_ms":7.570000000000001,"peak_altitude_m":0.0,"u_ms":-3.85,"v_ms":-6.51}}]}