{"type":"FeatureCollection","frame":"2026-08-29T12","site_count":20,"fresh_count":20,"failures":{},"features":[{"type":"Feature","geometry":{"type":"Point","coordinates":[-77.0073,36.984]},"properties":{"site":"KAKQ","name":"Wakefield VA","scan_time":"2026-08-29T11:58:04Z","stale":false,"bins":25,"density_birds_km3":5.615,"heading_deg":220.92921375000088,"speed_ms":11.390231935771633,"peak_altitude_m":200.0,"u_ms":-7.469140276538805,"v_ms":-8.5362455396967}},{"type":"Feature","geometry":{"type":"Point","coordinates":[-71.1369,41.9558]},"properties":{"site":"KBOX","name":"Boston MA","scan_time":"2026-08-29T12:00:50Z","stale":false,"bins":25,"density_birds_km3":5.311875,"heading_deg":184.01983345466584,"speed_ms":11.910476526650195,"peak_altitude_m":400.0,"u_ms":-0.8388233909871748,"v_ms":-11.86183315684198}},{"type":"Feature","geometry":{"type":"Point","coordinates":[-78.7369,42.9489]},"properties":{"site":"KBUF","name":"Buffalo NY","scan_time":"2026-08-29T12:01:42Z","stale":false,"bins":25,"density_birds_km3":0.876,"heading_deg":352.20469933029625,"speed_ms":3.012146118721461,"peak_altitude_m":200.0,"u_ms":-0.39888127853881283,"v_ms":2.5074048706240486}},{"type":"Feature","geometry":{"type":"Point","coordinates":[-81.8597,41.4131]},"properties":{"site":"KCLE","name":"Cleveland OH","scan_time":"2026-08-29T11:59:00Z","stale":false,"bins":25,"density_birds_km3":0.982,"heading_deg":332.6382772145622,"speed_ms":8.260204081632653,"peak_altitude_m":200.0,"u_ms":-3.8125034013605443,"v_ms":7.312272108843536}},{"type":"Feature","geometry":{"type":"Point","coordinates":[-81.0423,32.6555]},"properties":{"site":"KCLX","name":"Charleston SC","scan_time":"2026-08-29T11:59:18Z","stale":false,"bins":25,"density_birds_km3":1.504375,"heading_deg":234.6012754273823,"speed_ms":7.32990859991691,"peak_altitude_m":0.0,"u_ms":-5.957727461570419,"v_ms":-4.254802658911508}},{"type":"Feature","geometry":{"type":"Point","coordinates":[-74.4108,39.947]},"properties":{"site":"KDIX","name":"Philadelphia PA","scan_time":"2026-08-29T12:02:10Z","stale":false,"bins":25,"density_birds_km3":20.35125,"heading_deg":199.6671846864797,"speed_ms":11.553931324672135,"peak_altitude_m":200.0,"u_ms":-3.9902143800485277,"v_ms":-10.598030959181795}},{"type":"Feature","geometry":{"type":"Point","coordinates":[-84.5658,33.3636]},"properties":{"site":"KFFC","name":"Atlanta GA","scan_time":"2026-08-29T12:01:16Z","stale":false,"bins":25,"density_birds_km3":3.5959999999999996,"heading_deg":243.52808136713114,"speed_ms":3.957434186132741,"peak_altitude_m":600.0,"u_ms":-3.504816462736374,"v_ms":-1.7610659992584354}},{"type":"Feature","geometry":{"type":"Point","coordinates":[-85.5449,42.8939]},"properties":{"site":"KGRR","name":"Grand Rapids MI","scan_time":"2026-08-29T11:58:49Z","stale":false,"bins":25,"density_birds_km3":0.956,"heading_deg":24.365567081694042,"speed_ms":6.6856394129979035,"peak_altitude_m":200.0,"u_ms":2.826457023060797,"v_ms":6.024542278127184}},{"type":"Feature","geometry":{"type":"Point","coordinates":[-83.8217,39.4203]},"properties":{"site":"KILN","name":"Wilmington OH","scan_time":"2026-08-29T11:56:43Z","stale":false,"bins":25,"density_birds_km3":0.6073333333333333,"heading_deg":297.0098394093675,"speed_ms":9.206736725663717,"peak_altitude_m":200.0,"u_ms":-8.164347345132745,"v_ms":4.121592920353983}},{"type":"Feature","geometry":{"type":"Point","coordinates":[-81.7019,30.4846]},"properties":{"site":"KJAX","name":"Jacksonville FL","scan_time":"2026-08-29T11:58:35Z","stale":false,"bins":25,"density_birds_km3":2.831875,"heading_deg":178.65356189084136,"speed_ms":7.221394835577136,"peak_altitude_m":0.0,"u_ms":0.09104833370116973,"v_ms":-7.141348488192452}},{"type":"Feature","geometry":{"type":"Point","coordinates":[-88.0847,41.6045]},"properties":{"site":"KLOT","name":"Chicago IL","scan_time":"2026-08-29T12:01:13Z","stale":false,"bins":25,"density_birds_km3":2.5300000000000002,"heading_deg":62.850514812177366,"speed_ms":8.500029031406704,"peak_altitude_m":600.0,"u_ms":7.275732383214569,"v_ms":3.5889522301398786}},{"type":"Feature","geometry":{"type":"Point","coordinates":[-78.4292,33.9892]},"properties":{"site":"KLTX","name":"Wilmington NC","scan_time":"2026-08-29T12:01:29Z","stale":false,"bins":25,"density_birds_km3":0.991875,"heading_deg":null,"speed_ms":null,"peak_altitude_m":200.0,"u_ms":null,"v_ms":null}},{"type":"Feature","geometry":{"type":"Point","coordinates":[-77.4778,38.9753]},"properties":{"site":"KLWX","name":"Sterling VA","scan_time":"2026-08-29T11:59:05Z","stale":false,"bins":25,"density_birds_km3":19.463125,"heading_deg":221.0212933682899,"speed_ms":11.569999678601274,"peak_altitude_m":400.0,"u_ms":-7.6141579353345765,"v_ms":-8.669580574660925}},{"type":"Feature","geometry":{"type":"Point","coordinates":[-76.8762,34.7759]},"properties":{"site":"KMHX","name":"Morehead City NC","scan_time":"2026-08-29T12:02:35Z","stale":false,"bins":25,"density_birds_km3":0.08,"heading_deg":null,"speed_ms":null,"peak_altitude_m":0.0,"u_ms":null,"v_ms":null}},{"type":"Feature","geometry":{"type":"Point","coordinates":[-80.6542,28.1133]},"properties":{"site":"KMLB","name":"Melbourne FL","scan_time":"2026-08-29T11:57:38Z","stale":false,"bins":25,"density_birds_km3":1.31125,"heading_deg":197.2576612177661,"speed_ms":4.928398474737845,"peak_altitude_m":0.0,"u_ms":-1.2922926596758817,"v_ms":-4.619680648236415}},{"type":"Feature","geometry":{"type":"Point","coordinates":[-86.5625,36.2472]},"properties":{"site":"KOHX","name":"Nashville TN","scan_time":"2026-08-29T12:01:46Z","stale":false,"bins":25,"density_birds_km3":9.251333333333333,"heading_deg":233.8188825267814,"speed_ms":6.925756090529047,"peak_altitude_m":200.0,"u_ms":-5.613618999567537,"v_ms":-3.98816779587718}},{"type":"Feature","geometry":{"type":"Point","coordinates":[-72.8639,40.8655]},"properties":{"site":"KOKX","name":"Upton NY","scan_time":"2026-08-29T12:02:26Z","stale":false,"bins":25,"density_birds_km3":11.52125,"heading_deg":207.55998207744668,"speed_ms":11.084291530944625,"peak_altitude_m":400.0,"u_ms":-5.1139305103148756,"v_ms":-9.734327361563519}},{"type":"Feature","geometry":{"type":"Point","coordinates":[-80.2183,40.5317]},"properties":{"site":"KPBZ","name":"Pittsburgh PA","scan_time":"2026-08-29T11:57:29Z","stale":false,"bins":25,"density_birds_km3":0.9464285714285714,"heading_deg":269.0006103863574,"speed_ms":7.568316981132075,"peak_altitude_m":400.0,"u_ms":-7.4748226415094345,"v_ms":0.01645283018867922}},{"type":"Feature","geometry":{"type":"Point","coordinates":[-78.4899,35.6655]},"properties":{"site":"KRAX","name":"Raleigh NC","scan_time":"2026-08-29T11:57:56Z","stale":false,"bins":25,"density_birds_km3":4.9799999999999995,"heading_deg":235.35358876361397,"speed_ms":6.970125502008033,"peak_altitude_m":600.0,"u_ms":-5.771381777108434,"v_ms":-3.693367218875502}},{"type":"Feature","geometry":{"type":"Point","coordinates":[-82.4017,27.7055]},"properties":{"site":"KTBW","name":"Tampa FL","scan_time":"2026-08-29T12:00:40Z","stale":false,"bins":25,"density_birds_km3":0.885625,"heading_deg":303.63021266063527,"speed_ms":5.136687898089172,"peak_altitude_m":0.0,"u_ms":-4.272540693559802,"v_ms":2.7928308563340414}}]}