{"type":"FeatureCollection","frame":"2026-09-04T07","site_count":20,"fresh_count":20,"failures":{},"features":[{"type":"Feature","geometry":{"type":"Point","coordinates":[-77.0073,36.984]},"properties":{"site":"KAKQ","name":"Wakefield VA","scan_time":"2026-09-04T07:01:21Z","stale":false,"bins":25,"density_birds_km3":4.500625,"heading_deg":84.87835221478979,"speed_ms":12.467589707927676,"peak_altitude_m":200.0,"u_ms":11.97657440890125,"v_ms":0.6189095966620307}},{"type":"Feature","geometry":{"type":"Point","coordinates":[-71.1369,41.9558]},"properties":{"site":"KBOX","name":"Boston MA","scan_time":"2026-09-04T06:56:40Z","stale":false,"bins":25,"density_birds_km3":3.614375,"heading_deg":122.85296297819059,"speed_ms":6.960029396507003,"peak_altitude_m":0.0,"u_ms":4.947964724191596,"v_ms":-3.9553484350683035}},{"type":"Feature","geometry":{"type":"Point","coordinates":[-78.7369,42.9489]},"properties":{"site":"KBUF","name":"Buffalo NY","scan_time":"2026-09-04T06:58:52Z","stale":false,"bins":25,"density_birds_km3":45.977333333333334,"heading_deg":184.82016847231796,"speed_ms":9.104035901748688,"peak_altitude_m":600.0,"u_ms":-0.840183133718064,"v_ms":-8.96215163993852}},{"type":"Feature","geometry":{"type":"Point","coordinates":[-81.8597,41.4131]},"properties":{"site":"KCLE","name":"Cleveland OH","scan_time":"2026-09-04T06:59:32Z","stale":false,"bins":25,"density_birds_km3":24.419333333333334,"heading_deg":179.34333447748122,"speed_ms":7.8822852614030765,"peak_altitude_m":200.0,"u_ms":0.6100502855893525,"v_ms":-7.311284742149709}},{"type":"Feature","geometry":{"type":"Point","coordinates":[-81.0423,32.6555]},"properties":{"site":"KCLX","name":"Charleston SC","scan_time":"2026-09-04T07:01:18Z","stale":false,"bins":25,"density_birds_km3":3.181875,"heading_deg":234.87362332547877,"speed_ms":7.722626719056975,"peak_altitude_m":0.0,"u_ms":-6.111766208251473,"v_ms":-4.467656188605108}},{"type":"Feature","geometry":{"type":"Point","coordinates":[-74.4108,39.947]},"properties":{"site":"KDIX","name":"Philadelphia PA","scan_time":"2026-09-04T06:58:58Z","stale":false,"bins":25,"density_birds_km3":9.34375,"heading_deg":156.7611448118148,"speed_ms":6.0220002706726214,"peak_altitude_m":0.0,"u_ms":2.479740154283394,"v_ms":-4.890441196372986}},{"type":"Feature","geometry":{"type":"Point","coordinates":[-84.5658,33.3636]},"properties":{"site":"KFFC","name":"Atlanta GA","scan_time":"2026-09-04T07:01:14Z","stale":false,"bins":25,"density_birds_km3":9.728000000000002,"heading_deg":268.40306586040697,"speed_ms":7.767460252192981,"peak_altitude_m":200.0,"u_ms":-5.782045641447367,"v_ms":-1.5858771929824558}},{"type":"Feature","geometry":{"type":"Point","coordinates":[-85.5449,42.8939]},"properties":{"site":"KGRR","name":"Grand Rapids MI","scan_time":"2026-09-04T06:57:12Z","stale":false,"bins":25,"density_birds_km3":17.592666666666666,"heading_deg":346.45076077293487,"speed_ms":3.5345438983566644,"peak_altitude_m":200.0,"u_ms":0.11303750760803416,"v_ms":-0.16477594339622648}},{"type":"Feature","geometry":{"type":"Point","coordinates":[-83.8217,39.4203]},"properties":{"site":"KILN","name":"Wilmington OH","scan_time":"2026-09-04T06:59:48Z","stale":false,"bins":25,"density_birds_km3":34.217333333333336,"heading_deg":144.16931933685052,"speed_ms":9.249286521451117,"peak_altitude_m":200.0,"u_ms":5.107571406304797,"v_ms":-7.387552312668044}},{"type":"Feature","geometry":{"type":"Point","coordinates":[-81.7019,30.4846]},"properties":{"site":"KJAX","name":"Jacksonville FL","scan_time":"2026-09-04T06:59:20Z","stale":false,"bins":25,"density_birds_km3":5.175,"heading_deg":209.99047575073294,"speed_ms":4.087306669888835,"peak_altitude_m":0.0,"u_ms":-1.6823670855485744,"v_ms":-3.3495964233929434}},{"type":"Feature","geometry":{"type":"Point","coordinates":[-88.0847,41.6045]},"properties":{"site":"KLOT","name":"Chicago IL","scan_time":"2026-09-04T07:00:14Z","stale":false,"bins":25,"density_birds_km3":14.795333333333334,"heading_deg":53.631841906879636,"speed_ms":5.53486594872257,"peak_altitude_m":200.0,"u_ms":4.567777677646104,"v_ms":2.6159370071644212}},{"type":"Feature","geometry":{"type":"Point","coordinates":[-78.4292,33.9892]},"properties":{"site":"KLTX","name":"Wilmington NC","scan_time":"2026-09-04T07:01:06Z","stale":false,"bins":25,"density_birds_km3":1.705625,"heading_deg":32.58087730138823,"speed_ms":2.3792943770672546,"peak_altitude_m":0.0,"u_ms":1.061319367879456,"v_ms":1.384891583976479}},{"type":"Feature","geometry":{"type":"Point","coordinates":[-77.4778,38.9753]},"properties":{"site":"KLWX","name":"Sterling VA","scan_time":"2026-09-04T06:59:04Z","stale":false,"bins":25,"density_birds_km3":9.72,"heading_deg":151.02119313740369,"speed_ms":9.722777591861322,"peak_altitude_m":200.0,"u_ms":6.3778743056020355,"v_ms":-5.565373803627602}},{"type":"Feature","geometry":{"type":"Point","coordinates":[-76.8762,34.7759]},"properties":{"site":"KMHX","name":"Morehead City NC","scan_time":"2026-09-04T07:00:39Z","stale":false,"bins":25,"density_birds_km3":1.05875,"heading_deg":71.68447108501871,"speed_ms":7.648831168831168,"peak_altitude_m":0.0,"u_ms":6.003471074380165,"v_ms":2.470749704840614}},{"type":"Feature","geometry":{"type":"Point","coordinates":[-80.6542,28.1133]},"properties":{"site":"KMLB","name":"Melbourne FL","scan_time":"2026-09-04T06:59:47Z","stale":false,"bins":25,"density_birds_km3":2.29625,"heading_deg":310.011746021931,"speed_ms":2.341536784741144,"peak_altitude_m":0.0,"u_ms":-1.0078637602179836,"v_ms":1.8056103542234332}},{"type":"Feature","geometry":{"type":"Point","coordinates":[-86.5625,36.2472]},"properties":{"site":"KOHX","name":"Nashville TN","scan_time":"2026-09-04T07:01:40Z","stale":false,"bins":25,"density_birds_km3":25.816666666666666,"heading_deg":112.1532058944523,"speed_ms":1.7080338282763072,"peak_altitude_m":400.0,"u_ms":0.6767253712072305,"v_ms":-0.5335060038734668}},{"type":"Feature","geometry":{"type":"Point","coordinates":[-72.8639,40.8655]},"properties":{"site":"KOKX","name":"Upton NY","scan_time":"2026-09-04T07:02:30Z","stale":false,"bins":25,"density_birds_km3":5.3075,"heading_deg":null,"speed_ms":null,"peak_altitude_m":0.0,"u_ms":null,"v_ms":null}},{"type":"Feature","geometry":{"type":"Point","coordinates":[-80.2183,40.5317]},"properties":{"site":"KPBZ","name":"Pittsburgh PA","scan_time":"2026-09-04T06:57:45Z","stale":false,"bins":25,"density_birds_km3":26.81142857142857,"heading_deg":155.1912164376862,"speed_ms":12.305308428645876,"peak_altitude_m":400.0,"u_ms":4.47734852848405,"v_ms":-10.607796703146}},{"type":"Feature","geometry":{"type":"Point","coordinates":[-78.4899,35.6655]},"properties":{"site":"KRAX","name":"Raleigh NC","scan_time":"2026-09-04T06:56:33Z","stale":false,"bins":25,"density_birds_km3":6.125,"heading_deg":78.48035070786044,"speed_ms":7.722219195305952,"peak_altitude_m":200.0,"u_ms":6.517758801341158,"v_ms":1.3520295473595978}},{"type":"Feature","geometry":{"type":"Point","coordinates":[-82.4017,27.7055]},"properties":{"site":"KTBW","name":"Tampa FL","scan_time":"2026-09-04T06:58:08Z","stale":false,"bins":25,"density_birds_km3":2.5949999999999998,"heading_deg":322.2630464196361,"speed_ms":3.8806406551059727,"peak_altitude_m":0.0,"u_ms":-2.248176782273603,"v_ms":2.9925072254335263}}]}