{"type":"FeatureCollection","frame":"2026-09-13T01","site_count":20,"fresh_count":20,"failures":{},"features":[{"type":"Feature","geometry":{"type":"Point","coordinates":[-77.0073,36.984]},"properties":{"site":"KAKQ","name":"Wakefield VA","scan_time":"2026-09-13T01:01:23Z","stale":false,"bins":25,"density_birds_km3":130.64,"heading_deg":279.9,"speed_ms":2.46,"peak_altitude_m":200.0,"u_ms":-2.42,"v_ms":0.42}},{"type":"Feature","geometry":{"type":"Point","coordinates":[-71.1369,41.9558]},"properties":{"site":"KBOX","name":"Boston MA","scan_time":"2026-09-13T01:00:03Z","stale":false,"bins":25,"density_birds_km3":3.745,"heading_deg":9.004362538536526,"speed_ms":8.196831914538475,"peak_altitude_m":0.0,"u_ms":1.2661275246202637,"v_ms":7.8753964279752955}},{"type":"Feature","geometry":{"type":"Point","coordinates":[-78.7369,42.9489]},"properties":{"site":"KBUF","name":"Buffalo NY","scan_time":"2026-09-13T00:57:24Z","stale":false,"bins":25,"density_birds_km3":1.152,"heading_deg":37.53003706007937,"speed_ms":9.656323103647946,"peak_altitude_m":200.0,"u_ms":5.915518239722061,"v_ms":7.495946728430805}},{"type":"Feature","geometry":{"type":"Point","coordinates":[-81.8597,41.4131]},"properties":{"site":"KCLE","name":"Cleveland OH","scan_time":"2026-09-13T00:58:01Z","stale":false,"bins":25,"density_birds_km3":3.2359999999999998,"heading_deg":54.980968259724484,"speed_ms":7.026859674428189,"peak_altitude_m":200.0,"u_ms":5.479284978363898,"v_ms":3.2773336080774778}},{"type":"Feature","geometry":{"type":"Point","coordinates":[-81.0423,32.6555]},"properties":{"site":"KCLX","name":"Charleston SC","scan_time":"2026-09-13T00:59:02Z","stale":false,"bins":25,"density_birds_km3":5.35875,"heading_deg":351.8639947622289,"speed_ms":5.490794152046783,"peak_altitude_m":0.0,"u_ms":-0.40235672514619875,"v_ms":5.245435087719298}},{"type":"Feature","geometry":{"type":"Point","coordinates":[-74.4108,39.947]},"properties":{"site":"KDIX","name":"Philadelphia PA","scan_time":"2026-09-13T01:00:21Z","stale":false,"bins":25,"density_birds_km3":10.280625,"heading_deg":306.91061856098463,"speed_ms":5.676763740272374,"peak_altitude_m":200.0,"u_ms":-3.9311059095330743,"v_ms":2.6703556663424126}},{"type":"Feature","geometry":{"type":"Point","coordinates":[-84.5658,33.3636]},"properties":{"site":"KFFC","name":"Atlanta GA","scan_time":"2026-09-13T00:59:56Z","stale":false,"bins":25,"density_birds_km3":21.712666666666667,"heading_deg":103.63339997780788,"speed_ms":5.62147072369431,"peak_altitude_m":400.0,"u_ms":3.7849743621234917,"v_ms":-1.785909607295281}},{"type":"Feature","geometry":{"type":"Point","coordinates":[-85.5449,42.8939]},"properties":{"site":"KGRR","name":"Grand Rapids MI","scan_time":"2026-09-13T00:59:42Z","stale":false,"bins":25,"density_birds_km3":8.581999999999999,"heading_deg":84.11163330557115,"speed_ms":9.540423643018455,"peak_altitude_m":400.0,"u_ms":9.039644887469823,"v_ms":0.4300428315551748}},{"type":"Feature","geometry":{"type":"Point","coordinates":[-83.8217,39.4203]},"properties":{"site":"KILN","name":"Wilmington OH","scan_time":"2026-09-13T00:57:52Z","stale":false,"bins":25,"density_birds_km3":15.254,"heading_deg":92.16855454934485,"speed_ms":5.8935889141458295,"peak_altitude_m":600.0,"u_ms":4.841592061549222,"v_ms":-1.3566349012065047}},{"type":"Feature","geometry":{"type":"Point","coordinates":[-81.7019,30.4846]},"properties":{"site":"KJAX","name":"Jacksonville FL","scan_time":"2026-09-13T01:01:53Z","stale":false,"bins":25,"density_birds_km3":6.631875,"heading_deg":12.9480438528682,"speed_ms":4.235278500780844,"peak_altitude_m":0.0,"u_ms":0.0712326913066113,"v_ms":0.7730005205622072}},{"type":"Feature","geometry":{"type":"Point","coordinates":[-88.0847,41.6045]},"properties":{"site":"KLOT","name":"Chicago IL","scan_time":"2026-09-13T00:56:55Z","stale":false,"bins":25,"density_birds_km3":33.684,"heading_deg":128.46333012926561,"speed_ms":10.043827221704381,"peak_altitude_m":400.0,"u_ms":7.813805802907403,"v_ms":-6.266405608551652}},{"type":"Feature","geometry":{"type":"Point","coordinates":[-78.4292,33.9892]},"properties":{"site":"KLTX","name":"Wilmington NC","scan_time":"2026-09-13T01:02:19Z","stale":false,"bins":25,"density_birds_km3":11.101875,"heading_deg":334.1958550600459,"speed_ms":5.833174701509349,"peak_altitude_m":0.0,"u_ms":-1.3886449650822255,"v_ms":4.496829804009912}},{"type":"Feature","geometry":{"type":"Point","coordinates":[-77.4778,38.9753]},"properties":{"site":"KLWX","name":"Sterling VA","scan_time":"2026-09-13T00:59:42Z","stale":false,"bins":25,"density_birds_km3":10.349375,"heading_deg":302.1069361863299,"speed_ms":7.537125991402797,"peak_altitude_m":200.0,"u_ms":-6.04980020584852,"v_ms":4.012539202034268}},{"type":"Feature","geometry":{"type":"Point","coordinates":[-76.8762,34.7759]},"properties":{"site":"KMHX","name":"Morehead City NC","scan_time":"2026-09-13T01:00:08Z","stale":false,"bins":25,"density_birds_km3":4.74375,"heading_deg":3.8065642591255218,"speed_ms":4.660448353392408,"peak_altitude_m":0.0,"u_ms":0.7328911519640259,"v_ms":4.2946329850548866}},{"type":"Feature","geometry":{"type":"Point","coordinates":[-80.6542,28.1133]},"properties":{"site":"KMLB","name":"Melbourne FL","scan_time":"2026-09-13T00:58:42Z","stale":false,"bins":25,"density_birds_km3":35.557857142857145,"heading_deg":180.14763574802762,"speed_ms":5.282544175824176,"peak_altitude_m":0.0,"u_ms":0.0372105494505494,"v_ms":-5.268026373626373}},{"type":"Feature","geometry":{"type":"Point","coordinates":[-86.5625,36.2472]},"properties":{"site":"KOHX","name":"Nashville TN","scan_time":"2026-09-13T01:00:51Z","stale":false,"bins":25,"density_birds_km3":107.40533333333333,"heading_deg":128.55782971007048,"speed_ms":7.871400075787225,"peak_altitude_m":200.0,"u_ms":6.1244563509072725,"v_ms":-4.784168173093051}},{"type":"Feature","geometry":{"type":"Point","coordinates":[-72.8639,40.8655]},"properties":{"site":"KOKX","name":"Upton NY","scan_time":"2026-09-13T01:02:02Z","stale":false,"bins":25,"density_birds_km3":5.143125,"heading_deg":299.01511037125783,"speed_ms":6.202511243466635,"peak_altitude_m":0.0,"u_ms":-5.288241157165431,"v_ms":2.7468287346541875}},{"type":"Feature","geometry":{"type":"Point","coordinates":[-80.2183,40.5317]},"properties":{"site":"KPBZ","name":"Pittsburgh PA","scan_time":"2026-09-13T00:59:40Z","stale":false,"bins":25,"density_birds_km3":6.225714285714285,"heading_deg":59.58728863357028,"speed_ms":5.941526378896883,"peak_altitude_m":400.0,"u_ms":5.052146282973622,"v_ms":2.992694244604317}},{"type":"Feature","geometry":{"type":"Point","coordinates":[-78.4899,35.6655]},"properties":{"site":"KRAX","name":"Raleigh NC","scan_time":"2026-09-13T00:55:20Z","stale":false,"bins":25,"density_birds_km3":22.14071428571429,"heading_deg":32.204016137022194,"speed_ms":7.453944897893344,"peak_altitude_m":0.0,"u_ms":3.996481594993063,"v_ms":6.217954963383553}},{"type":"Feature","geometry":{"type":"Point","coordinates":[-82.4017,27.7055]},"properties":{"site":"KTBW","name":"Tampa FL","scan_time":"2026-09-13T01:00:22Z","stale":false,"bins":25,"density_birds_km3":15.487499999999999,"heading_deg":241.77765997917197,"speed_ms":4.682754640839387,"peak_altitude_m":0.0,"u_ms":-1.9820270379338176,"v_ms":-2.204447538337369}}]}