{"type":"FeatureCollection","frame":"2026-09-14T05","site_count":20,"fresh_count":20,"failures":{},"features":[{"type":"Feature","geometry":{"type":"Point","coordinates":[-77.0073,36.984]},"properties":{"site":"KAKQ","name":"Wakefield VA","scan_time":"2026-09-14T04:59:50Z","stale":false,"bins":25,"density_birds_km3":29.620625,"heading_deg":153.1181893793486,"speed_ms":8.226867546174143,"peak_altitude_m":0.0,"u_ms":2.2707831134564644,"v_ms":-7.395615831134565}},{"type":"Feature","geometry":{"type":"Point","coordinates":[-71.1369,41.9558]},"properties":{"site":"KBOX","name":"Boston MA","scan_time":"2026-09-14T05:03:42Z","stale":false,"bins":25,"density_birds_km3":0.72125,"heading_deg":87.93872548828442,"speed_ms":10.065758889852559,"peak_altitude_m":0.0,"u_ms":9.949514310494363,"v_ms":0.02789245446660878}},{"type":"Feature","geometry":{"type":"Point","coordinates":[-78.7369,42.9489]},"properties":{"site":"KBUF","name":"Buffalo NY","scan_time":"2026-09-14T04:57:14Z","stale":false,"bins":25,"density_birds_km3":56.02733333333333,"heading_deg":179.41606704398157,"speed_ms":13.595404504944018,"peak_altitude_m":400.0,"u_ms":0.2180977142109209,"v_ms":-13.562689758570222}},{"type":"Feature","geometry":{"type":"Point","coordinates":[-81.8597,41.4131]},"properties":{"site":"KCLE","name":"Cleveland OH","scan_time":"2026-09-14T04:59:27Z","stale":false,"bins":25,"density_birds_km3":72.11533333333334,"heading_deg":189.14222256128875,"speed_ms":14.406424724217075,"peak_altitude_m":400.0,"u_ms":-2.289438809506182,"v_ms":-14.211861534759755}},{"type":"Feature","geometry":{"type":"Point","coordinates":[-81.0423,32.6555]},"properties":{"site":"KCLX","name":"Charleston SC","scan_time":"2026-09-14T04:59:18Z","stale":false,"bins":25,"density_birds_km3":35.424375,"heading_deg":175.4217339437063,"speed_ms":10.510552409181532,"peak_altitude_m":1600.0,"u_ms":-0.17641419220522597,"v_ms":-9.653980133735597}},{"type":"Feature","geometry":{"type":"Point","coordinates":[-74.4108,39.947]},"properties":{"site":"KDIX","name":"Philadelphia PA","scan_time":"2026-09-14T04:58:26Z","stale":false,"bins":25,"density_birds_km3":5.371875,"heading_deg":117.42902598231434,"speed_ms":7.32419159585613,"peak_altitude_m":0.0,"u_ms":4.972154580374811,"v_ms":-3.0334664183447795}},{"type":"Feature","geometry":{"type":"Point","coordinates":[-84.5658,33.3636]},"properties":{"site":"KFFC","name":"Atlanta GA","scan_time":"2026-09-14T05:00:40Z","stale":false,"bins":25,"density_birds_km3":195.60933333333332,"heading_deg":179.9262740621478,"speed_ms":9.921608273633842,"peak_altitude_m":1200.0,"u_ms":-0.3891968004253376,"v_ms":-9.642997232579223}},{"type":"Feature","geometry":{"type":"Point","coordinates":[-85.5449,42.8939]},"properties":{"site":"KGRR","name":"Grand Rapids MI","scan_time":"2026-09-14T05:00:00Z","stale":false,"bins":25,"density_birds_km3":52.800666666666665,"heading_deg":180.96086223624576,"speed_ms":11.197079219172203,"peak_altitude_m":600.0,"u_ms":0.2727138311573525,"v_ms":-11.131681481855603}},{"type":"Feature","geometry":{"type":"Point","coordinates":[-83.8217,39.4203]},"properties":{"site":"KILN","name":"Wilmington OH","scan_time":"2026-09-14T04:59:28Z","stale":false,"bins":25,"density_birds_km3":92.53733333333334,"heading_deg":171.53035016585963,"speed_ms":15.428355258418224,"peak_altitude_m":600.0,"u_ms":1.6541609152342118,"v_ms":-14.62424758295751}},{"type":"Feature","geometry":{"type":"Point","coordinates":[-81.7019,30.4846]},"properties":{"site":"KJAX","name":"Jacksonville FL","scan_time":"2026-09-14T05:00:38Z","stale":false,"bins":25,"density_birds_km3":48.784375,"heading_deg":159.24128514281293,"speed_ms":10.464942796745886,"peak_altitude_m":1600.0,"u_ms":2.3707287169303695,"v_ms":-9.513895458330666}},{"type":"Feature","geometry":{"type":"Point","coordinates":[-88.0847,41.6045]},"properties":{"site":"KLOT","name":"Chicago IL","scan_time":"2026-09-14T05:02:10Z","stale":false,"bins":25,"density_birds_km3":57.76466666666667,"heading_deg":175.18792129054447,"speed_ms":11.48321761023722,"peak_altitude_m":400.0,"u_ms":0.943175802092717,"v_ms":-11.197423370983762}},{"type":"Feature","geometry":{"type":"Point","coordinates":[-78.4292,33.9892]},"properties":{"site":"KLTX","name":"Wilmington NC","scan_time":"2026-09-14T04:58:47Z","stale":false,"bins":25,"density_birds_km3":25.730625,"heading_deg":145.94764060636257,"speed_ms":8.346321923151942,"peak_altitude_m":0.0,"u_ms":1.111204164228594,"v_ms":-6.789254193485469}},{"type":"Feature","geometry":{"type":"Point","coordinates":[-77.4778,38.9753]},"properties":{"site":"KLWX","name":"Sterling VA","scan_time":"2026-09-14T04:58:45Z","stale":false,"bins":25,"density_birds_km3":45.46,"heading_deg":174.80193084854463,"speed_ms":5.897898702155741,"peak_altitude_m":400.0,"u_ms":0.4499858391992961,"v_ms":-5.780068466783986}},{"type":"Feature","geometry":{"type":"Point","coordinates":[-76.8762,34.7759]},"properties":{"site":"KMHX","name":"Morehead City NC","scan_time":"2026-09-14T04:58:04Z","stale":false,"bins":25,"density_birds_km3":26.6675,"heading_deg":129.1777617616434,"speed_ms":7.953288489933672,"peak_altitude_m":0.0,"u_ms":3.6361780767337755,"v_ms":-4.945790189139147}},{"type":"Feature","geometry":{"type":"Point","coordinates":[-80.6542,28.1133]},"properties":{"site":"KMLB","name":"Melbourne FL","scan_time":"2026-09-14T05:03:08Z","stale":false,"bins":25,"density_birds_km3":7.13625,"heading_deg":120.15857486353664,"speed_ms":5.141667542476791,"peak_altitude_m":200.0,"u_ms":3.5405430022771065,"v_ms":-2.7007812226309333}},{"type":"Feature","geometry":{"type":"Point","coordinates":[-86.5625,36.2472]},"properties":{"site":"KOHX","name":"Nashville TN","scan_time":"2026-09-14T04:59:46Z","stale":false,"bins":25,"density_birds_km3":216.996,"heading_deg":196.21140357586557,"speed_ms":5.967607820727879,"peak_altitude_m":400.0,"u_ms":-1.4911121863997494,"v_ms":-5.423012805151554}},{"type":"Feature","geometry":{"type":"Point","coordinates":[-72.8639,40.8655]},"properties":{"site":"KOKX","name":"Upton NY","scan_time":"2026-09-14T05:03:32Z","stale":false,"bins":25,"density_birds_km3":1.413125,"heading_deg":86.04810562696616,"speed_ms":7.944728752260397,"peak_altitude_m":0.0,"u_ms":7.658743218806509,"v_ms":0.5199321880650993}},{"type":"Feature","geometry":{"type":"Point","coordinates":[-80.2183,40.5317]},"properties":{"site":"KPBZ","name":"Pittsburgh PA","scan_time":"2026-09-14T04:59:03Z","stale":false,"bins":25,"density_birds_km3":42.445,"heading_deg":180.29586319170627,"speed_ms":12.719076115308887,"peak_altitude_m":600.0,"u_ms":-0.6261602409841307,"v_ms":-12.301590966460799}},{"type":"Feature","geometry":{"type":"Point","coordinates":[-78.4899,35.6655]},"properties":{"site":"KRAX","name":"Raleigh NC","scan_time":"2026-09-14T04:56:06Z","stale":false,"bins":25,"density_birds_km3":55.055,"heading_deg":154.30410467844342,"speed_ms":9.00380054061421,"peak_altitude_m":600.0,"u_ms":3.36456591858986,"v_ms":-7.216742345084499}},{"type":"Feature","geometry":{"type":"Point","coordinates":[-82.4017,27.7055]},"properties":{"site":"KTBW","name":"Tampa FL","scan_time":"2026-09-14T04:57:27Z","stale":false,"bins":25,"density_birds_km3":20.9625,"heading_deg":194.72917439202726,"speed_ms":7.022446929039953,"peak_altitude_m":200.0,"u_ms":-1.220562909958259,"v_ms":-6.126241502683364}}]}