{"type":"FeatureCollection","frame":"2026-08-20T05","site_count":20,"fresh_count":20,"failures":{},"features":[{"type":"Feature","geometry":{"type":"Point","coordinates":[-77.0073,36.984]},"properties":{"site":"KAKQ","name":"Wakefield VA","scan_time":"2026-08-20T05:02:45Z","stale":false,"bins":25,"density_birds_km3":6.18,"heading_deg":354.4616118494502,"speed_ms":7.048274152756702,"peak_altitude_m":200.0,"u_ms":-0.8064036418816388,"v_ms":6.002796155791603}},{"type":"Feature","geometry":{"type":"Point","coordinates":[-71.1369,41.9558]},"properties":{"site":"KBOX","name":"Boston MA","scan_time":"2026-08-20T05:03:22Z","stale":false,"bins":25,"density_birds_km3":1.5518750000000001,"heading_deg":67.34874899468443,"speed_ms":6.322525171163915,"peak_altitude_m":0.0,"u_ms":5.720507450664519,"v_ms":2.404132098268224}},{"type":"Feature","geometry":{"type":"Point","coordinates":[-78.7369,42.9489]},"properties":{"site":"KBUF","name":"Buffalo NY","scan_time":"2026-08-20T05:01:41Z","stale":false,"bins":25,"density_birds_km3":7.290000000000001,"heading_deg":190.0087094029621,"speed_ms":7.751291266575216,"peak_altitude_m":600.0,"u_ms":-1.5196835848193875,"v_ms":-7.189656149977137}},{"type":"Feature","geometry":{"type":"Point","coordinates":[-81.8597,41.4131]},"properties":{"site":"KCLE","name":"Cleveland OH","scan_time":"2026-08-20T04:59:29Z","stale":false,"bins":25,"density_birds_km3":4.038,"heading_deg":217.5669188442831,"speed_ms":3.935109054857898,"peak_altitude_m":400.0,"u_ms":-1.5819117647058822,"v_ms":-3.120241242564441}},{"type":"Feature","geometry":{"type":"Point","coordinates":[-81.0423,32.6555]},"properties":{"site":"KCLX","name":"Charleston SC","scan_time":"2026-08-20T04:58:35Z","stale":false,"bins":25,"density_birds_km3":9.618125,"heading_deg":210.17271907709969,"speed_ms":4.043785611132992,"peak_altitude_m":0.0,"u_ms":-1.2022325062360508,"v_ms":-2.1546081134304846}},{"type":"Feature","geometry":{"type":"Point","coordinates":[-74.4108,39.947]},"properties":{"site":"KDIX","name":"Philadelphia PA","scan_time":"2026-08-20T05:00:45Z","stale":false,"bins":25,"density_birds_km3":2.1775,"heading_deg":142.99817840186532,"speed_ms":6.2573176335439396,"peak_altitude_m":200.0,"u_ms":3.5619184376794943,"v_ms":-4.76527570361861}},{"type":"Feature","geometry":{"type":"Point","coordinates":[-84.5658,33.3636]},"properties":{"site":"KFFC","name":"Atlanta GA","scan_time":"2026-08-20T05:02:37Z","stale":false,"bins":25,"density_birds_km3":25.57133333333333,"heading_deg":239.46233759471505,"speed_ms":4.147086320619444,"peak_altitude_m":200.0,"u_ms":-1.976024454467242,"v_ms":-2.0624660427040697}},{"type":"Feature","geometry":{"type":"Point","coordinates":[-85.5449,42.8939]},"properties":{"site":"KGRR","name":"Grand Rapids MI","scan_time":"2026-08-20T04:56:42Z","stale":false,"bins":25,"density_birds_km3":33.367333333333335,"heading_deg":203.45200837166476,"speed_ms":8.437833290033774,"peak_altitude_m":400.0,"u_ms":-2.9900305761506027,"v_ms":-7.735472131737246}},{"type":"Feature","geometry":{"type":"Point","coordinates":[-83.8217,39.4203]},"properties":{"site":"KILN","name":"Wilmington OH","scan_time":"2026-08-20T04:58:53Z","stale":false,"bins":25,"density_birds_km3":2.2093333333333334,"heading_deg":null,"speed_ms":null,"peak_altitude_m":200.0,"u_ms":null,"v_ms":null}},{"type":"Feature","geometry":{"type":"Point","coordinates":[-81.7019,30.4846]},"properties":{"site":"KJAX","name":"Jacksonville FL","scan_time":"2026-08-20T05:00:04Z","stale":false,"bins":25,"density_birds_km3":53.87125,"heading_deg":199.67315315581206,"speed_ms":7.088226147875612,"peak_altitude_m":400.0,"u_ms":-2.3011747139761103,"v_ms":-6.62610931908674}},{"type":"Feature","geometry":{"type":"Point","coordinates":[-88.0847,41.6045]},"properties":{"site":"KLOT","name":"Chicago IL","scan_time":"2026-08-20T05:00:40Z","stale":false,"bins":25,"density_birds_km3":6.838666666666667,"heading_deg":240.0141860830534,"speed_ms":7.984758237473192,"peak_altitude_m":400.0,"u_ms":-6.265961201013843,"v_ms":-3.791051861961396}},{"type":"Feature","geometry":{"type":"Point","coordinates":[-78.4292,33.9892]},"properties":{"site":"KLTX","name":"Wilmington NC","scan_time":"2026-08-20T04:58:25Z","stale":false,"bins":25,"density_birds_km3":8.78125,"heading_deg":292.08356529780986,"speed_ms":4.441754536362338,"peak_altitude_m":0.0,"u_ms":-3.4283183311901704,"v_ms":1.0322903271895987}},{"type":"Feature","geometry":{"type":"Point","coordinates":[-77.4778,38.9753]},"properties":{"site":"KLWX","name":"Sterling VA","scan_time":"2026-08-20T05:02:44Z","stale":false,"bins":25,"density_birds_km3":6.721875,"heading_deg":216.09887285818888,"speed_ms":4.38837926817797,"peak_altitude_m":200.0,"u_ms":-2.5408616310789203,"v_ms":-3.0956664471827673}},{"type":"Feature","geometry":{"type":"Point","coordinates":[-76.8762,34.7759]},"properties":{"site":"KMHX","name":"Morehead City NC","scan_time":"2026-08-20T05:00:33Z","stale":false,"bins":25,"density_birds_km3":3.1168750000000003,"heading_deg":312.2967591474654,"speed_ms":4.948199318227391,"peak_altitude_m":0.0,"u_ms":-2.3476659314216963,"v_ms":2.4723240425105275}},{"type":"Feature","geometry":{"type":"Point","coordinates":[-80.6542,28.1133]},"properties":{"site":"KMLB","name":"Melbourne FL","scan_time":"2026-08-20T05:00:06Z","stale":false,"bins":25,"density_birds_km3":5.9075,"heading_deg":159.07113728473558,"speed_ms":7.396072788827762,"peak_altitude_m":200.0,"u_ms":2.5874259415996614,"v_ms":-6.897777190012696}},{"type":"Feature","geometry":{"type":"Point","coordinates":[-86.5625,36.2472]},"properties":{"site":"KOHX","name":"Nashville TN","scan_time":"2026-08-20T05:02:08Z","stale":false,"bins":25,"density_birds_km3":11.151333333333334,"heading_deg":326.36702828533043,"speed_ms":7.493629461349912,"peak_altitude_m":200.0,"u_ms":-3.035382913851856,"v_ms":5.487562025467806}},{"type":"Feature","geometry":{"type":"Point","coordinates":[-72.8639,40.8655]},"properties":{"site":"KOKX","name":"Upton NY","scan_time":"2026-08-20T05:03:29Z","stale":false,"bins":25,"density_birds_km3":1.64875,"heading_deg":70.08564803826252,"speed_ms":6.944932975871314,"peak_altitude_m":0.0,"u_ms":6.339019532746074,"v_ms":2.2639754883186516}},{"type":"Feature","geometry":{"type":"Point","coordinates":[-80.2183,40.5317]},"properties":{"site":"KPBZ","name":"Pittsburgh PA","scan_time":"2026-08-20T05:00:44Z","stale":false,"bins":25,"density_birds_km3":2.4714285714285715,"heading_deg":54.54322052555115,"speed_ms":5.993250628140704,"peak_altitude_m":400.0,"u_ms":4.712066582914573,"v_ms":3.527666457286432}},{"type":"Feature","geometry":{"type":"Point","coordinates":[-78.4899,35.6655]},"properties":{"site":"KRAX","name":"Raleigh NC","scan_time":"2026-08-20T05:02:21Z","stale":false,"bins":25,"density_birds_km3":8.068125,"heading_deg":304.73084197991255,"speed_ms":2.681783607575287,"peak_altitude_m":0.0,"u_ms":-1.283844303011487,"v_ms":1.4151016764979818}},{"type":"Feature","geometry":{"type":"Point","coordinates":[-82.4017,27.7055]},"properties":{"site":"KTBW","name":"Tampa FL","scan_time":"2026-08-20T04:57:56Z","stale":false,"bins":25,"density_birds_km3":4.431875,"heading_deg":210.77132735166225,"speed_ms":6.170242560992808,"peak_altitude_m":0.0,"u_ms":-2.2587068114511357,"v_ms":-5.4705401212804965}}]}