{"type":"FeatureCollection","frame":"2026-10-05T10","site_count":20,"fresh_count":20,"failures":{},"features":[{"type":"Feature","geometry":{"type":"Point","coordinates":[-77.0073,36.984]},"properties":{"site":"KAKQ","name":"Wakefield VA","scan_time":"2026-10-05T10:00:33Z","stale":false,"bins":25,"density_birds_km3":40.513125,"heading_deg":188.01724448759848,"speed_ms":9.981724313483491,"peak_altitude_m":0.0,"u_ms":-1.6866675408824436,"v_ms":-9.759944924406048}},{"type":"Feature","geometry":{"type":"Point","coordinates":[-71.1369,41.9558]},"properties":{"site":"KBOX","name":"Boston MA","scan_time":"2026-10-05T10:02:07Z","stale":false,"bins":25,"density_birds_km3":0.896875,"heading_deg":141.34722121756482,"speed_ms":4.407615062761506,"peak_altitude_m":0.0,"u_ms":2.7624546722454673,"v_ms":-3.422224546722455}},{"type":"Feature","geometry":{"type":"Point","coordinates":[-78.7369,42.9489]},"properties":{"site":"KBUF","name":"Buffalo NY","scan_time":"2026-10-05T10:01:47Z","stale":false,"bins":25,"density_birds_km3":0.9453333333333334,"heading_deg":106.9368652934137,"speed_ms":8.484025423728815,"peak_altitude_m":200.0,"u_ms":7.9862711864406775,"v_ms":-2.385755649717514}},{"type":"Feature","geometry":{"type":"Point","coordinates":[-81.8597,41.4131]},"properties":{"site":"KCLE","name":"Cleveland OH","scan_time":"2026-10-05T10:02:41Z","stale":false,"bins":25,"density_birds_km3":2.7266666666666666,"heading_deg":155.00529380050918,"speed_ms":9.138696821515893,"peak_altitude_m":200.0,"u_ms":3.803921760391198,"v_ms":-8.290731051344743}},{"type":"Feature","geometry":{"type":"Point","coordinates":[-81.0423,32.6555]},"properties":{"site":"KCLX","name":"Charleston SC","scan_time":"2026-10-05T09:57:29Z","stale":false,"bins":25,"density_birds_km3":5.4093333333333335,"heading_deg":218.75607096676046,"speed_ms":3.01371132238548,"peak_altitude_m":200.0,"u_ms":-2.147960242005186,"v_ms":-2.056734658599827}},{"type":"Feature","geometry":{"type":"Point","coordinates":[-74.4108,39.947]},"properties":{"site":"KDIX","name":"Philadelphia PA","scan_time":"2026-10-05T10:02:13Z","stale":false,"bins":25,"density_birds_km3":0.40875,"heading_deg":119.43654136749713,"speed_ms":5.403384853168471,"peak_altitude_m":0.0,"u_ms":4.63451313755796,"v_ms":-2.5369088098918082}},{"type":"Feature","geometry":{"type":"Point","coordinates":[-84.5658,33.3636]},"properties":{"site":"KFFC","name":"Atlanta GA","scan_time":"2026-10-05T09:57:10Z","stale":false,"bins":25,"density_birds_km3":77.43733333333334,"heading_deg":184.83905769691935,"speed_ms":8.375788680739694,"peak_altitude_m":600.0,"u_ms":-0.7853863769413546,"v_ms":-8.309367832914354}},{"type":"Feature","geometry":{"type":"Point","coordinates":[-85.5449,42.8939]},"properties":{"site":"KGRR","name":"Grand Rapids MI","scan_time":"2026-10-05T10:00:03Z","stale":false,"bins":25,"density_birds_km3":2.8866666666666663,"heading_deg":173.92995805682992,"speed_ms":12.672956541840037,"peak_altitude_m":200.0,"u_ms":1.3566366158113732,"v_ms":-12.592272306981044}},{"type":"Feature","geometry":{"type":"Point","coordinates":[-83.8217,39.4203]},"properties":{"site":"KILN","name":"Wilmington OH","scan_time":"2026-10-05T10:02:43Z","stale":false,"bins":25,"density_birds_km3":11.572666666666667,"heading_deg":174.9522037672939,"speed_ms":13.415459207190596,"peak_altitude_m":400.0,"u_ms":0.8773041023277254,"v_ms":-13.235502419912422}},{"type":"Feature","geometry":{"type":"Point","coordinates":[-81.7019,30.4846]},"properties":{"site":"KJAX","name":"Jacksonville FL","scan_time":"2026-10-05T10:01:21Z","stale":false,"bins":25,"density_birds_km3":2.925625,"heading_deg":258.0460402153277,"speed_ms":2.4994871794871796,"peak_altitude_m":0.0,"u_ms":-2.126113247863248,"v_ms":-0.30107692307692313}},{"type":"Feature","geometry":{"type":"Point","coordinates":[-88.0847,41.6045]},"properties":{"site":"KLOT","name":"Chicago IL","scan_time":"2026-10-05T10:00:57Z","stale":false,"bins":25,"density_birds_km3":13.241999999999999,"heading_deg":181.19176024462388,"speed_ms":13.651229041840793,"peak_altitude_m":400.0,"u_ms":-0.3232385076280147,"v_ms":-13.633287850561404}},{"type":"Feature","geometry":{"type":"Point","coordinates":[-78.4292,33.9892]},"properties":{"site":"KLTX","name":"Wilmington NC","scan_time":"2026-10-05T10:00:50Z","stale":false,"bins":25,"density_birds_km3":11.885833333333332,"heading_deg":230.65081604768872,"speed_ms":4.989434826155387,"peak_altitude_m":0.0,"u_ms":-3.0628738016883674,"v_ms":-3.140369866933753}},{"type":"Feature","geometry":{"type":"Point","coordinates":[-77.4778,38.9753]},"properties":{"site":"KLWX","name":"Sterling VA","scan_time":"2026-10-05T09:57:17Z","stale":false,"bins":25,"density_birds_km3":18.308888888888887,"heading_deg":183.05317000928736,"speed_ms":13.111820670357078,"peak_altitude_m":200.0,"u_ms":2.0018468276659163,"v_ms":-9.769934302573148}},{"type":"Feature","geometry":{"type":"Point","coordinates":[-76.8762,34.7759]},"properties":{"site":"KMHX","name":"Morehead City NC","scan_time":"2026-10-05T09:59:13Z","stale":false,"bins":25,"density_birds_km3":0.894375,"heading_deg":201.79999999999998,"speed_ms":5.26,"peak_altitude_m":200.0,"u_ms":-1.95,"v_ms":-4.89}},{"type":"Feature","geometry":{"type":"Point","coordinates":[-80.6542,28.1133]},"properties":{"site":"KMLB","name":"Melbourne FL","scan_time":"2026-10-05T09:59:07Z","stale":false,"bins":25,"density_birds_km3":1.974375,"heading_deg":8.821347041060596,"speed_ms":3.0473749208359724,"peak_altitude_m":0.0,"u_ms":0.3351298290056998,"v_ms":2.9134357188093727}},{"type":"Feature","geometry":{"type":"Point","coordinates":[-86.5625,36.2472]},"properties":{"site":"KOHX","name":"Nashville TN","scan_time":"2026-10-05T09:56:44Z","stale":false,"bins":25,"density_birds_km3":97.286,"heading_deg":187.4350372421813,"speed_ms":10.58173234929315,"peak_altitude_m":200.0,"u_ms":-1.4164789041246086,"v_ms":-10.353214097266479}},{"type":"Feature","geometry":{"type":"Point","coordinates":[-72.8639,40.8655]},"properties":{"site":"KOKX","name":"Upton NY","scan_time":"2026-10-05T10:03:26Z","stale":false,"bins":25,"density_birds_km3":0.435625,"heading_deg":112.94072094948683,"speed_ms":5.432088888888888,"peak_altitude_m":0.0,"u_ms":4.83805925925926,"v_ms":-2.1482222222222225}},{"type":"Feature","geometry":{"type":"Point","coordinates":[-80.2183,40.5317]},"properties":{"site":"KPBZ","name":"Pittsburgh PA","scan_time":"2026-10-05T10:02:31Z","stale":false,"bins":25,"density_birds_km3":4.2214285714285715,"heading_deg":169.66275668559197,"speed_ms":12.83737394247039,"peak_altitude_m":600.0,"u_ms":2.146377326565144,"v_ms":-12.570732656514382}},{"type":"Feature","geometry":{"type":"Point","coordinates":[-78.4899,35.6655]},"properties":{"site":"KRAX","name":"Raleigh NC","scan_time":"2026-10-05T09:59:53Z","stale":false,"bins":25,"density_birds_km3":8.40375,"heading_deg":187.6654048459326,"speed_ms":7.823548579080493,"peak_altitude_m":200.0,"u_ms":-1.34290432971284,"v_ms":-7.655862966820413}},{"type":"Feature","geometry":{"type":"Point","coordinates":[-82.4017,27.7055]},"properties":{"site":"KTBW","name":"Tampa FL","scan_time":"2026-10-05T10:00:25Z","stale":false,"bins":25,"density_birds_km3":6.389374999999999,"heading_deg":321.40560217273844,"speed_ms":6.482617626919692,"peak_altitude_m":0.0,"u_ms":-3.9135038638364477,"v_ms":5.034929081482931}}]}