{"type":"FeatureCollection","frame":"2026-09-29T06","site_count":20,"fresh_count":20,"failures":{},"features":[{"type":"Feature","geometry":{"type":"Point","coordinates":[-77.0073,36.984]},"properties":{"site":"KAKQ","name":"Wakefield VA","scan_time":"2026-09-29T06:02:50Z","stale":false,"bins":25,"density_birds_km3":16.34875,"heading_deg":263.8891675258557,"speed_ms":6.767475241846061,"peak_altitude_m":200.0,"u_ms":-5.839657018315299,"v_ms":-0.7214273697090199}},{"type":"Feature","geometry":{"type":"Point","coordinates":[-71.1369,41.9558]},"properties":{"site":"KBOX","name":"Boston MA","scan_time":"2026-09-29T05:58:01Z","stale":false,"bins":25,"density_birds_km3":3.466875,"heading_deg":80.041460428956,"speed_ms":7.9616928069226605,"peak_altitude_m":0.0,"u_ms":7.749522264287002,"v_ms":1.3714259960338921}},{"type":"Feature","geometry":{"type":"Point","coordinates":[-78.7369,42.9489]},"properties":{"site":"KBUF","name":"Buffalo NY","scan_time":"2026-09-29T06:04:11Z","stale":false,"bins":25,"density_birds_km3":12.169333333333332,"heading_deg":149.1947998726376,"speed_ms":7.164183740550016,"peak_altitude_m":400.0,"u_ms":2.9104431905335817,"v_ms":-5.236752492604361}},{"type":"Feature","geometry":{"type":"Point","coordinates":[-81.8597,41.4131]},"properties":{"site":"KCLE","name":"Cleveland OH","scan_time":"2026-09-29T06:02:55Z","stale":false,"bins":25,"density_birds_km3":12.406666666666666,"heading_deg":143.25600113529015,"speed_ms":9.700151010318141,"peak_altitude_m":400.0,"u_ms":5.582570937231298,"v_ms":-7.5919475494411}},{"type":"Feature","geometry":{"type":"Point","coordinates":[-81.0423,32.6555]},"properties":{"site":"KCLX","name":"Charleston SC","scan_time":"2026-09-29T06:01:47Z","stale":false,"bins":25,"density_birds_km3":32.76625,"heading_deg":249.57259769492725,"speed_ms":4.1108528373867435,"peak_altitude_m":0.0,"u_ms":-3.128981783500239,"v_ms":-1.6623355269432523}},{"type":"Feature","geometry":{"type":"Point","coordinates":[-74.4108,39.947]},"properties":{"site":"KDIX","name":"Philadelphia PA","scan_time":"2026-09-29T05:59:04Z","stale":false,"bins":25,"density_birds_km3":35.790625,"heading_deg":159.21084715231814,"speed_ms":5.533910446718592,"peak_altitude_m":200.0,"u_ms":0.8693685166427997,"v_ms":-5.008130872131606}},{"type":"Feature","geometry":{"type":"Point","coordinates":[-84.5658,33.3636]},"properties":{"site":"KFFC","name":"Atlanta GA","scan_time":"2026-09-29T06:01:06Z","stale":false,"bins":25,"density_birds_km3":41.63333333333333,"heading_deg":191.65826591356983,"speed_ms":7.446365892714172,"peak_altitude_m":400.0,"u_ms":-1.554159487590072,"v_ms":-6.968244195356284}},{"type":"Feature","geometry":{"type":"Point","coordinates":[-85.5449,42.8939]},"properties":{"site":"KGRR","name":"Grand Rapids MI","scan_time":"2026-09-29T06:00:19Z","stale":false,"bins":25,"density_birds_km3":33.658,"heading_deg":178.7920985628764,"speed_ms":6.92495038326698,"peak_altitude_m":400.0,"u_ms":0.1229722502822507,"v_ms":-6.342559866896429}},{"type":"Feature","geometry":{"type":"Point","coordinates":[-83.8217,39.4203]},"properties":{"site":"KILN","name":"Wilmington OH","scan_time":"2026-09-29T06:00:20Z","stale":false,"bins":25,"density_birds_km3":35.49933333333333,"heading_deg":201.63141833636777,"speed_ms":5.4609596424346,"peak_altitude_m":400.0,"u_ms":-0.04085597851602835,"v_ms":-3.4527292531315146}},{"type":"Feature","geometry":{"type":"Point","coordinates":[-81.7019,30.4846]},"properties":{"site":"KJAX","name":"Jacksonville FL","scan_time":"2026-09-29T05:59:09Z","stale":false,"bins":25,"density_birds_km3":49.10625,"heading_deg":161.41464397816858,"speed_ms":8.4518923975715,"peak_altitude_m":600.0,"u_ms":2.3413814960479593,"v_ms":-7.2898965214403}},{"type":"Feature","geometry":{"type":"Point","coordinates":[-88.0847,41.6045]},"properties":{"site":"KLOT","name":"Chicago IL","scan_time":"2026-09-29T05:59:25Z","stale":false,"bins":25,"density_birds_km3":42.995999999999995,"heading_deg":177.56413186040913,"speed_ms":6.611468663751668,"peak_altitude_m":400.0,"u_ms":0.35555136911960794,"v_ms":-5.9512024374360415}},{"type":"Feature","geometry":{"type":"Point","coordinates":[-78.4292,33.9892]},"properties":{"site":"KLTX","name":"Wilmington NC","scan_time":"2026-09-29T05:58:45Z","stale":false,"bins":25,"density_birds_km3":15.1275,"heading_deg":310.4317320222195,"speed_ms":2.200594141222162,"peak_altitude_m":200.0,"u_ms":-1.4941428748502252,"v_ms":0.6729512870305334}},{"type":"Feature","geometry":{"type":"Point","coordinates":[-77.4778,38.9753]},"properties":{"site":"KLWX","name":"Sterling VA","scan_time":"2026-09-29T05:58:35Z","stale":false,"bins":25,"density_birds_km3":15.683125,"heading_deg":185.7641764151904,"speed_ms":7.414387405340773,"peak_altitude_m":400.0,"u_ms":-1.0889382223993622,"v_ms":-6.917986448784376}},{"type":"Feature","geometry":{"type":"Point","coordinates":[-76.8762,34.7759]},"properties":{"site":"KMHX","name":"Morehead City NC","scan_time":"2026-09-29T06:01:50Z","stale":false,"bins":25,"density_birds_km3":3.8325,"heading_deg":5.922321402787424,"speed_ms":3.1129903642005554,"peak_altitude_m":0.0,"u_ms":0.6148587293810225,"v_ms":2.50338722848277}},{"type":"Feature","geometry":{"type":"Point","coordinates":[-80.6542,28.1133]},"properties":{"site":"KMLB","name":"Melbourne FL","scan_time":"2026-09-29T06:00:46Z","stale":false,"bins":25,"density_birds_km3":13.89125,"heading_deg":116.83011381405878,"speed_ms":6.098333483307838,"peak_altitude_m":0.0,"u_ms":4.995893098173311,"v_ms":-2.809150094483938}},{"type":"Feature","geometry":{"type":"Point","coordinates":[-86.5625,36.2472]},"properties":{"site":"KOHX","name":"Nashville TN","scan_time":"2026-09-29T05:59:12Z","stale":false,"bins":25,"density_birds_km3":67.938,"heading_deg":195.43214715375706,"speed_ms":9.176137164277232,"peak_altitude_m":200.0,"u_ms":-1.5761003660199988,"v_ms":-7.50787364950396}},{"type":"Feature","geometry":{"type":"Point","coordinates":[-72.8639,40.8655]},"properties":{"site":"KOKX","name":"Upton NY","scan_time":"2026-09-29T06:02:17Z","stale":false,"bins":25,"density_birds_km3":7.57,"heading_deg":122.12721810802073,"speed_ms":6.679888531087442,"peak_altitude_m":0.0,"u_ms":5.053817190983404,"v_ms":-3.509577243827925}},{"type":"Feature","geometry":{"type":"Point","coordinates":[-80.2183,40.5317]},"properties":{"site":"KPBZ","name":"Pittsburgh PA","scan_time":"2026-09-29T06:01:59Z","stale":false,"bins":25,"density_birds_km3":13.454285714285716,"heading_deg":105.69157381988646,"speed_ms":6.56110426842217,"peak_altitude_m":600.0,"u_ms":3.853368549585899,"v_ms":-1.211326714801444}},{"type":"Feature","geometry":{"type":"Point","coordinates":[-78.4899,35.6655]},"properties":{"site":"KRAX","name":"Raleigh NC","scan_time":"2026-09-29T06:02:23Z","stale":false,"bins":25,"density_birds_km3":11.584375,"heading_deg":268.5185068912198,"speed_ms":3.8336095823891223,"peak_altitude_m":400.0,"u_ms":-3.0756506960181285,"v_ms":0.21544350922628688}},{"type":"Feature","geometry":{"type":"Point","coordinates":[-82.4017,27.7055]},"properties":{"site":"KTBW","name":"Tampa FL","scan_time":"2026-09-29T06:01:05Z","stale":false,"bins":25,"density_birds_km3":11.884375,"heading_deg":178.4349175480693,"speed_ms":6.189485669208519,"peak_altitude_m":0.0,"u_ms":-0.08608256639495132,"v_ms":-3.5790518012095713}}]}