{"type":"FeatureCollection","frame":"2026-10-07T07","site_count":20,"fresh_count":19,"failures":{"KILN":"RuntimeError('no scan within 20 min of 2026-10-07T07:00Z')"},"features":[{"type":"Feature","geometry":{"type":"Point","coordinates":[-77.0073,36.984]},"properties":{"site":"KAKQ","name":"Wakefield VA","scan_time":"2026-10-07T07:00:02Z","stale":false,"bins":25,"density_birds_km3":8.575625,"heading_deg":219.20976601512226,"speed_ms":8.753404286339116,"peak_altitude_m":0.0,"u_ms":-4.306646012538271,"v_ms":-6.755440297419449}},{"type":"Feature","geometry":{"type":"Point","coordinates":[-71.1369,41.9558]},"properties":{"site":"KBOX","name":"Boston MA","scan_time":"2026-10-07T06:59:44Z","stale":false,"bins":25,"density_birds_km3":3.7399999999999998,"heading_deg":177.94295157223107,"speed_ms":8.01431723215778,"peak_altitude_m":0.0,"u_ms":0.24604546214273798,"v_ms":-7.781500919271269}},{"type":"Feature","geometry":{"type":"Point","coordinates":[-78.7369,42.9489]},"properties":{"site":"KBUF","name":"Buffalo NY","scan_time":"2026-10-07T06:59:57Z","stale":false,"bins":25,"density_birds_km3":0.3393333333333333,"heading_deg":46.29523018503244,"speed_ms":10.231141732283463,"peak_altitude_m":400.0,"u_ms":7.214606299212598,"v_ms":6.98003937007874}},{"type":"Feature","geometry":{"type":"Point","coordinates":[-81.8597,41.4131]},"properties":{"site":"KCLE","name":"Cleveland OH","scan_time":"2026-10-07T06:56:37Z","stale":false,"bins":25,"density_birds_km3":0.41200000000000003,"heading_deg":36.33685900774902,"speed_ms":10.689595469255663,"peak_altitude_m":200.0,"u_ms":6.326375404530744,"v_ms":8.366391585760518}},{"type":"Feature","geometry":{"type":"Point","coordinates":[-81.0423,32.6555]},"properties":{"site":"KCLX","name":"Charleston SC","scan_time":"2026-10-07T07:02:10Z","stale":false,"bins":25,"density_birds_km3":49.661249999999995,"heading_deg":215.46068941704314,"speed_ms":14.530301424687877,"peak_altitude_m":0.0,"u_ms":-8.594633381997584,"v_ms":-11.413868304470398}},{"type":"Feature","geometry":{"type":"Point","coordinates":[-74.4108,39.947]},"properties":{"site":"KDIX","name":"Philadelphia PA","scan_time":"2026-10-07T07:01:48Z","stale":false,"bins":25,"density_birds_km3":30.20625,"heading_deg":219.930686881259,"speed_ms":8.821508235391493,"peak_altitude_m":0.0,"u_ms":-5.670089803012746,"v_ms":-6.709525120013243}},{"type":"Feature","geometry":{"type":"Point","coordinates":[-84.5658,33.3636]},"properties":{"site":"KFFC","name":"Atlanta GA","scan_time":"2026-10-07T06:57:07Z","stale":false,"bins":25,"density_birds_km3":38.321333333333335,"heading_deg":228.7771721914718,"speed_ms":10.127916913120627,"peak_altitude_m":200.0,"u_ms":-7.517870637764865,"v_ms":-6.011997146932954}},{"type":"Feature","geometry":{"type":"Point","coordinates":[-85.5449,42.8939]},"properties":{"site":"KGRR","name":"Grand Rapids MI","scan_time":"2026-10-07T07:03:08Z","stale":false,"bins":25,"density_birds_km3":0.3513333333333334,"heading_deg":50.82762642289555,"speed_ms":14.065863377609107,"peak_altitude_m":200.0,"u_ms":11.046148007590132,"v_ms":7.856641366223908}},{"type":"Feature","geometry":{"type":"Point","coordinates":[-81.7019,30.4846]},"properties":{"site":"KJAX","name":"Jacksonville FL","scan_time":"2026-10-07T06:58:13Z","stale":false,"bins":25,"density_birds_km3":235.159375,"heading_deg":200.27017253715601,"speed_ms":10.460105566006419,"peak_altitude_m":0.0,"u_ms":-3.757227651401382,"v_ms":-9.724365671287881}},{"type":"Feature","geometry":{"type":"Point","coordinates":[-88.0847,41.6045]},"properties":{"site":"KLOT","name":"Chicago IL","scan_time":"2026-10-07T06:59:05Z","stale":false,"bins":25,"density_birds_km3":0.314,"heading_deg":69.38549209383858,"speed_ms":16.292781316348197,"peak_altitude_m":200.0,"u_ms":14.48651804670913,"v_ms":5.373779193205945}},{"type":"Feature","geometry":{"type":"Point","coordinates":[-78.4292,33.9892]},"properties":{"site":"KLTX","name":"Wilmington NC","scan_time":"2026-10-07T07:01:23Z","stale":false,"bins":25,"density_birds_km3":30.159375,"heading_deg":222.6460864344565,"speed_ms":13.985144888483543,"peak_altitude_m":0.0,"u_ms":-9.491521639996682,"v_ms":-10.245852748528314}},{"type":"Feature","geometry":{"type":"Point","coordinates":[-77.4778,38.9753]},"properties":{"site":"KLWX","name":"Sterling VA","scan_time":"2026-10-07T07:00:45Z","stale":false,"bins":25,"density_birds_km3":20.175,"heading_deg":294.2953976807373,"speed_ms":5.826233581164808,"peak_altitude_m":0.0,"u_ms":-4.552417286245354,"v_ms":2.116613692688971}},{"type":"Feature","geometry":{"type":"Point","coordinates":[-76.8762,34.7759]},"properties":{"site":"KMHX","name":"Morehead City NC","scan_time":"2026-10-07T07:01:02Z","stale":false,"bins":25,"density_birds_km3":9.59875,"heading_deg":203.99536974150848,"speed_ms":12.23565735495214,"peak_altitude_m":0.0,"u_ms":-4.832346812528489,"v_ms":-11.060552191183175}},{"type":"Feature","geometry":{"type":"Point","coordinates":[-80.6542,28.1133]},"properties":{"site":"KMLB","name":"Melbourne FL","scan_time":"2026-10-07T07:00:32Z","stale":false,"bins":25,"density_birds_km3":65.88250000000001,"heading_deg":176.9659090500772,"speed_ms":5.625149600463671,"peak_altitude_m":0.0,"u_ms":0.13939513715355306,"v_ms":-5.403915741066254}},{"type":"Feature","geometry":{"type":"Point","coordinates":[-86.5625,36.2472]},"properties":{"site":"KOHX","name":"Nashville TN","scan_time":"2026-10-07T07:00:11Z","stale":false,"bins":25,"density_birds_km3":15.578666666666667,"heading_deg":33.592671890436606,"speed_ms":9.062467260121544,"peak_altitude_m":200.0,"u_ms":5.310361208593683,"v_ms":6.528577420183172}},{"type":"Feature","geometry":{"type":"Point","coordinates":[-72.8639,40.8655]},"properties":{"site":"KOKX","name":"Upton NY","scan_time":"2026-10-07T06:57:49Z","stale":false,"bins":25,"density_birds_km3":4.5325,"heading_deg":230.77209148289646,"speed_ms":6.216771924986211,"peak_altitude_m":0.0,"u_ms":-4.597335907335908,"v_ms":-3.5169277440706015}},{"type":"Feature","geometry":{"type":"Point","coordinates":[-80.2183,40.5317]},"properties":{"site":"KPBZ","name":"Pittsburgh PA","scan_time":"2026-10-07T07:01:38Z","stale":false,"bins":25,"density_birds_km3":2.5042857142857144,"heading_deg":323.2302368580297,"speed_ms":5.75659440958357,"peak_altitude_m":400.0,"u_ms":-3.6415031374786078,"v_ms":3.9241985168282945}},{"type":"Feature","geometry":{"type":"Point","coordinates":[-78.4899,35.6655]},"properties":{"site":"KRAX","name":"Raleigh NC","scan_time":"2026-10-07T07:03:21Z","stale":false,"bins":25,"density_birds_km3":15.64125,"heading_deg":227.76655655928522,"speed_ms":8.648972903844617,"peak_altitude_m":0.0,"u_ms":-5.907259211893534,"v_ms":-5.4654116377587725}},{"type":"Feature","geometry":{"type":"Point","coordinates":[-82.4017,27.7055]},"properties":{"site":"KTBW","name":"Tampa FL","scan_time":"2026-10-07T07:02:14Z","stale":false,"bins":25,"density_birds_km3":15.260625,"heading_deg":238.8032903318521,"speed_ms":3.93043862882418,"peak_altitude_m":0.0,"u_ms":-2.789174755293443,"v_ms":-1.9767846172748496}}]}