{"type":"FeatureCollection","frame":"2026-08-24T12","site_count":20,"fresh_count":20,"failures":{},"features":[{"type":"Feature","geometry":{"type":"Point","coordinates":[-77.0073,36.984]},"properties":{"site":"KAKQ","name":"Wakefield VA","scan_time":"2026-08-24T11:58:13Z","stale":false,"bins":25,"density_birds_km3":2.39375,"heading_deg":198.89270026100735,"speed_ms":5.370613577023499,"peak_altitude_m":0.0,"u_ms":-1.6774778067885119,"v_ms":-4.96481723237598}},{"type":"Feature","geometry":{"type":"Point","coordinates":[-71.1369,41.9558]},"properties":{"site":"KBOX","name":"Boston MA","scan_time":"2026-08-24T11:58:31Z","stale":false,"bins":25,"density_birds_km3":4.085,"heading_deg":49.011957477541706,"speed_ms":1.9453374139250192,"peak_altitude_m":0.0,"u_ms":1.5381514919663353,"v_ms":1.1463305279265494}},{"type":"Feature","geometry":{"type":"Point","coordinates":[-78.7369,42.9489]},"properties":{"site":"KBUF","name":"Buffalo NY","scan_time":"2026-08-24T12:02:23Z","stale":false,"bins":25,"density_birds_km3":0.87,"heading_deg":66.42705714675296,"speed_ms":4.968769100169779,"peak_altitude_m":400.0,"u_ms":4.560500848896434,"v_ms":1.9687521222410864}},{"type":"Feature","geometry":{"type":"Point","coordinates":[-81.8597,41.4131]},"properties":{"site":"KCLE","name":"Cleveland OH","scan_time":"2026-08-24T12:01:16Z","stale":false,"bins":25,"density_birds_km3":2.2966666666666664,"heading_deg":102.19732208332356,"speed_ms":7.250017528483786,"peak_altitude_m":200.0,"u_ms":6.946427110721589,"v_ms":-1.6143529068068945}},{"type":"Feature","geometry":{"type":"Point","coordinates":[-81.0423,32.6555]},"properties":{"site":"KCLX","name":"Charleston SC","scan_time":"2026-08-24T12:01:10Z","stale":false,"bins":25,"density_birds_km3":2.660625,"heading_deg":90.76061135912761,"speed_ms":5.469617101245008,"peak_altitude_m":200.0,"u_ms":5.462988019732206,"v_ms":-0.09393704486727743}},{"type":"Feature","geometry":{"type":"Point","coordinates":[-74.4108,39.947]},"properties":{"site":"KDIX","name":"Philadelphia PA","scan_time":"2026-08-24T11:59:57Z","stale":false,"bins":25,"density_birds_km3":2.158125,"heading_deg":322.4717945552257,"speed_ms":1.595988995076745,"peak_altitude_m":0.0,"u_ms":-0.6010222994497538,"v_ms":0.951856356791196}},{"type":"Feature","geometry":{"type":"Point","coordinates":[-84.5658,33.3636]},"properties":{"site":"KFFC","name":"Atlanta GA","scan_time":"2026-08-24T12:02:20Z","stale":false,"bins":25,"density_birds_km3":6.658,"heading_deg":216.82071623877417,"speed_ms":7.25267327724359,"peak_altitude_m":400.0,"u_ms":-4.016410256410256,"v_ms":-5.146833934294872}},{"type":"Feature","geometry":{"type":"Point","coordinates":[-85.5449,42.8939]},"properties":{"site":"KGRR","name":"Grand Rapids MI","scan_time":"2026-08-24T12:02:45Z","stale":false,"bins":25,"density_birds_km3":0.47,"heading_deg":130.62844513675086,"speed_ms":5.041858156028368,"peak_altitude_m":200.0,"u_ms":3.8129645390070923,"v_ms":-3.289375886524823}},{"type":"Feature","geometry":{"type":"Point","coordinates":[-83.8217,39.4203]},"properties":{"site":"KILN","name":"Wilmington OH","scan_time":"2026-08-24T11:58:13Z","stale":false,"bins":25,"density_birds_km3":0.5306666666666666,"heading_deg":176.89965041878753,"speed_ms":4.864168765743073,"peak_altitude_m":200.0,"u_ms":0.32625944584382877,"v_ms":-4.818501259445844}},{"type":"Feature","geometry":{"type":"Point","coordinates":[-81.7019,30.4846]},"properties":{"site":"KJAX","name":"Jacksonville FL","scan_time":"2026-08-24T11:59:30Z","stale":false,"bins":25,"density_birds_km3":2.253125,"heading_deg":103.11393382008382,"speed_ms":7.25814464534075,"peak_altitude_m":400.0,"u_ms":7.04939638386648,"v_ms":-1.6683449235048677}},{"type":"Feature","geometry":{"type":"Point","coordinates":[-88.0847,41.6045]},"properties":{"site":"KLOT","name":"Chicago IL","scan_time":"2026-08-24T12:01:28Z","stale":false,"bins":25,"density_birds_km3":0.5446666666666666,"heading_deg":175.70095060998938,"speed_ms":5.177740740740741,"peak_altitude_m":200.0,"u_ms":0.3702469135802469,"v_ms":-5.156604938271605}},{"type":"Feature","geometry":{"type":"Point","coordinates":[-78.4292,33.9892]},"properties":{"site":"KLTX","name":"Wilmington NC","scan_time":"2026-08-24T11:58:39Z","stale":false,"bins":25,"density_birds_km3":0.90625,"heading_deg":19.256844759043403,"speed_ms":3.942213001383126,"peak_altitude_m":0.0,"u_ms":1.9706569847856152,"v_ms":2.518948824343015}},{"type":"Feature","geometry":{"type":"Point","coordinates":[-77.4778,38.9753]},"properties":{"site":"KLWX","name":"Sterling VA","scan_time":"2026-08-24T11:59:34Z","stale":false,"bins":25,"density_birds_km3":1.6275,"heading_deg":169.78142935945098,"speed_ms":5.01468101460415,"peak_altitude_m":0.0,"u_ms":1.1858839354342814,"v_ms":-4.543793235972329}},{"type":"Feature","geometry":{"type":"Point","coordinates":[-76.8762,34.7759]},"properties":{"site":"KMHX","name":"Morehead City NC","scan_time":"2026-08-24T11:58:13Z","stale":false,"bins":25,"density_birds_km3":0.589375,"heading_deg":211.8269660981141,"speed_ms":3.3043796394485687,"peak_altitude_m":0.0,"u_ms":-1.4223435843054082,"v_ms":-2.3777836691410394}},{"type":"Feature","geometry":{"type":"Point","coordinates":[-80.6542,28.1133]},"properties":{"site":"KMLB","name":"Melbourne FL","scan_time":"2026-08-24T12:00:28Z","stale":false,"bins":25,"density_birds_km3":2.411875,"heading_deg":141.18496714111365,"speed_ms":3.567146929256284,"peak_altitude_m":200.0,"u_ms":2.1213060378336355,"v_ms":-2.5895128271572943}},{"type":"Feature","geometry":{"type":"Point","coordinates":[-86.5625,36.2472]},"properties":{"site":"KOHX","name":"Nashville TN","scan_time":"2026-08-24T11:57:10Z","stale":false,"bins":25,"density_birds_km3":4.92,"heading_deg":221.6255162275358,"speed_ms":6.543571815718157,"peak_altitude_m":400.0,"u_ms":-4.34320054200542,"v_ms":-4.789930894308943}},{"type":"Feature","geometry":{"type":"Point","coordinates":[-72.8639,40.8655]},"properties":{"site":"KOKX","name":"Upton NY","scan_time":"2026-08-24T11:59:41Z","stale":false,"bins":25,"density_birds_km3":2.01375,"heading_deg":69.72671841275303,"speed_ms":3.953554796647004,"peak_altitude_m":200.0,"u_ms":3.699882024216082,"v_ms":1.2930984166407948}},{"type":"Feature","geometry":{"type":"Point","coordinates":[-80.2183,40.5317]},"properties":{"site":"KPBZ","name":"Pittsburgh PA","scan_time":"2026-08-24T11:58:11Z","stale":false,"bins":25,"density_birds_km3":0.3292857142857143,"heading_deg":105.36396184909616,"speed_ms":7.2651315789473685,"peak_altitude_m":400.0,"u_ms":6.8503070175438605,"v_ms":-1.9105263157894739}},{"type":"Feature","geometry":{"type":"Point","coordinates":[-78.4899,35.6655]},"properties":{"site":"KRAX","name":"Raleigh NC","scan_time":"2026-08-24T12:00:21Z","stale":false,"bins":25,"density_birds_km3":3.7925,"heading_deg":215.86362268227492,"speed_ms":6.765791034937376,"peak_altitude_m":0.0,"u_ms":-3.9307481872116017,"v_ms":-5.435629531970996}},{"type":"Feature","geometry":{"type":"Point","coordinates":[-82.4017,27.7055]},"properties":{"site":"KTBW","name":"Tampa FL","scan_time":"2026-08-24T11:59:26Z","stale":false,"bins":25,"density_birds_km3":2.351875,"heading_deg":75.98462939101792,"speed_ms":2.4458331118788204,"peak_altitude_m":200.0,"u_ms":1.597196385862344,"v_ms":0.418612808929046}}]}