{"type":"FeatureCollection","frame":"2026-10-07T08","site_count":20,"fresh_count":19,"failures":{"KILN":"RuntimeError('no scan within 20 min of 2026-10-07T08:00Z')"},"features":[{"type":"Feature","geometry":{"type":"Point","coordinates":[-77.0073,36.984]},"properties":{"site":"KAKQ","name":"Wakefield VA","scan_time":"2026-10-07T07:56:30Z","stale":false,"bins":25,"density_birds_km3":7.151875,"heading_deg":218.79357781396146,"speed_ms":9.052070985225981,"peak_altitude_m":0.0,"u_ms":-4.732922458256841,"v_ms":-7.074830841856805}},{"type":"Feature","geometry":{"type":"Point","coordinates":[-71.1369,41.9558]},"properties":{"site":"KBOX","name":"Boston MA","scan_time":"2026-10-07T08:00:27Z","stale":false,"bins":25,"density_birds_km3":2.59625,"heading_deg":185.66970222522636,"speed_ms":6.192515056612866,"peak_altitude_m":0.0,"u_ms":-0.604170079498916,"v_ms":-6.088082389785595}},{"type":"Feature","geometry":{"type":"Point","coordinates":[-78.7369,42.9489]},"properties":{"site":"KBUF","name":"Buffalo NY","scan_time":"2026-10-07T08:01:48Z","stale":false,"bins":25,"density_birds_km3":0.3173333333333333,"heading_deg":44.14280951769183,"speed_ms":10.2724,"peak_altitude_m":200.0,"u_ms":6.920399999999999,"v_ms":7.191747368421053}},{"type":"Feature","geometry":{"type":"Point","coordinates":[-81.8597,41.4131]},"properties":{"site":"KCLE","name":"Cleveland OH","scan_time":"2026-10-07T07:59:47Z","stale":false,"bins":25,"density_birds_km3":0.3786666666666667,"heading_deg":40.270288744496064,"speed_ms":11.243045774647886,"peak_altitude_m":200.0,"u_ms":7.219278169014085,"v_ms":8.35463028169014}},{"type":"Feature","geometry":{"type":"Point","coordinates":[-81.0423,32.6555]},"properties":{"site":"KCLX","name":"Charleston SC","scan_time":"2026-10-07T07:58:13Z","stale":false,"bins":25,"density_birds_km3":37.205,"heading_deg":213.09335679275128,"speed_ms":13.840910343205605,"peak_altitude_m":0.0,"u_ms":-7.748876476220875,"v_ms":-11.191947015639963}},{"type":"Feature","geometry":{"type":"Point","coordinates":[-74.4108,39.947]},"properties":{"site":"KDIX","name":"Philadelphia PA","scan_time":"2026-10-07T07:57:46Z","stale":false,"bins":25,"density_birds_km3":21.283125,"heading_deg":227.6149201739299,"speed_ms":8.2002631347097,"peak_altitude_m":0.0,"u_ms":-6.058289918064081,"v_ms":-5.448000352412558}},{"type":"Feature","geometry":{"type":"Point","coordinates":[-84.5658,33.3636]},"properties":{"site":"KFFC","name":"Atlanta GA","scan_time":"2026-10-07T08:00:51Z","stale":false,"bins":25,"density_birds_km3":27.349333333333334,"heading_deg":224.78388986384923,"speed_ms":10.163999366224648,"peak_altitude_m":200.0,"u_ms":-7.114637529251169,"v_ms":-6.501904494929797}},{"type":"Feature","geometry":{"type":"Point","coordinates":[-85.5449,42.8939]},"properties":{"site":"KGRR","name":"Grand Rapids MI","scan_time":"2026-10-07T08:03:01Z","stale":false,"bins":25,"density_birds_km3":0.44133333333333336,"heading_deg":62.823432386836956,"speed_ms":14.423172205438066,"peak_altitude_m":200.0,"u_ms":12.447522658610271,"v_ms":4.924335347432024}},{"type":"Feature","geometry":{"type":"Point","coordinates":[-81.7019,30.4846]},"properties":{"site":"KJAX","name":"Jacksonville FL","scan_time":"2026-10-07T07:59:05Z","stale":false,"bins":25,"density_birds_km3":226.55625,"heading_deg":207.25782202683956,"speed_ms":9.13975947466427,"peak_altitude_m":0.0,"u_ms":-4.306233629036575,"v_ms":-7.994065548647361}},{"type":"Feature","geometry":{"type":"Point","coordinates":[-88.0847,41.6045]},"properties":{"site":"KLOT","name":"Chicago IL","scan_time":"2026-10-07T08:02:49Z","stale":false,"bins":25,"density_birds_km3":0.5646666666666665,"heading_deg":80.79984054716977,"speed_ms":16.983971631205673,"peak_altitude_m":200.0,"u_ms":15.999172576832152,"v_ms":2.013664302600473}},{"type":"Feature","geometry":{"type":"Point","coordinates":[-78.4292,33.9892]},"properties":{"site":"KLTX","name":"Wilmington NC","scan_time":"2026-10-07T07:58:30Z","stale":false,"bins":25,"density_birds_km3":21.54625,"heading_deg":221.62870828441032,"speed_ms":14.56248585767747,"peak_altitude_m":0.0,"u_ms":-9.709534971425256,"v_ms":-10.816893910823591}},{"type":"Feature","geometry":{"type":"Point","coordinates":[-77.4778,38.9753]},"properties":{"site":"KLWX","name":"Sterling VA","scan_time":"2026-10-07T07:57:11Z","stale":false,"bins":25,"density_birds_km3":11.690624999999999,"heading_deg":306.0655923905372,"speed_ms":6.355181521681014,"peak_altitude_m":0.0,"u_ms":-4.5677992835374,"v_ms":3.511186975351548}},{"type":"Feature","geometry":{"type":"Point","coordinates":[-76.8762,34.7759]},"properties":{"site":"KMHX","name":"Morehead City NC","scan_time":"2026-10-07T08:02:06Z","stale":false,"bins":25,"density_birds_km3":5.295,"heading_deg":208.47504460326866,"speed_ms":11.350144020776769,"peak_altitude_m":0.0,"u_ms":-5.1680604415063165,"v_ms":-9.899660016526974}},{"type":"Feature","geometry":{"type":"Point","coordinates":[-80.6542,28.1133]},"properties":{"site":"KMLB","name":"Melbourne FL","scan_time":"2026-10-07T07:59:12Z","stale":false,"bins":25,"density_birds_km3":68.044375,"heading_deg":176.7156468261355,"speed_ms":6.400299620651965,"peak_altitude_m":0.0,"u_ms":0.24179000835851602,"v_ms":-6.243098529452288}},{"type":"Feature","geometry":{"type":"Point","coordinates":[-86.5625,36.2472]},"properties":{"site":"KOHX","name":"Nashville TN","scan_time":"2026-10-07T07:56:32Z","stale":false,"bins":25,"density_birds_km3":9.484000000000002,"heading_deg":49.920566643835855,"speed_ms":10.753902284710017,"peak_altitude_m":200.0,"u_ms":7.991297715289983,"v_ms":6.61143690685413}},{"type":"Feature","geometry":{"type":"Point","coordinates":[-72.8639,40.8655]},"properties":{"site":"KOKX","name":"Upton NY","scan_time":"2026-10-07T08:02:17Z","stale":false,"bins":25,"density_birds_km3":2.61375,"heading_deg":245.3068823228014,"speed_ms":5.065834528933525,"peak_altitude_m":0.0,"u_ms":-4.210188904830225,"v_ms":-1.4582544237207078}},{"type":"Feature","geometry":{"type":"Point","coordinates":[-80.2183,40.5317]},"properties":{"site":"KPBZ","name":"Pittsburgh PA","scan_time":"2026-10-07T07:58:05Z","stale":false,"bins":25,"density_birds_km3":1.2671428571428571,"heading_deg":349.92993551382455,"speed_ms":4.948754227733936,"peak_altitude_m":400.0,"u_ms":-1.1348647125140925,"v_ms":4.358883878241263}},{"type":"Feature","geometry":{"type":"Point","coordinates":[-78.4899,35.6655]},"properties":{"site":"KRAX","name":"Raleigh NC","scan_time":"2026-10-07T07:55:55Z","stale":false,"bins":25,"density_birds_km3":10.7975,"heading_deg":228.61109170449183,"speed_ms":8.713840810419681,"peak_altitude_m":0.0,"u_ms":-6.056007525325616,"v_ms":-5.463655571635311}},{"type":"Feature","geometry":{"type":"Point","coordinates":[-82.4017,27.7055]},"properties":{"site":"KTBW","name":"Tampa FL","scan_time":"2026-10-07T08:00:21Z","stale":false,"bins":25,"density_birds_km3":37.50125,"heading_deg":291.55410684936226,"speed_ms":3.5735268003662055,"peak_altitude_m":0.0,"u_ms":-3.2946553004784853,"v_ms":0.9556310998255344}}]}