{"type":"FeatureCollection","frame":"2026-08-16T11","site_count":20,"fresh_count":20,"failures":{},"features":[{"type":"Feature","geometry":{"type":"Point","coordinates":[-77.0073,36.984]},"properties":{"site":"KAKQ","name":"Wakefield VA","scan_time":"2026-08-16T10:58:56Z","stale":false,"bins":25,"density_birds_km3":0.210625,"heading_deg":317.5115835690515,"speed_ms":6.911003039513679,"peak_altitude_m":0.0,"u_ms":-3.3736778115501522,"v_ms":3.5628267477203646}},{"type":"Feature","geometry":{"type":"Point","coordinates":[-71.1369,41.9558]},"properties":{"site":"KBOX","name":"Boston MA","scan_time":"2026-08-16T11:00:51Z","stale":false,"bins":25,"density_birds_km3":1.459375,"heading_deg":215.41589081626023,"speed_ms":4.411460385438971,"peak_altitude_m":0.0,"u_ms":-2.23637687366167,"v_ms":-3.411768736616702}},{"type":"Feature","geometry":{"type":"Point","coordinates":[-78.7369,42.9489]},"properties":{"site":"KBUF","name":"Buffalo NY","scan_time":"2026-08-16T10:57:31Z","stale":false,"bins":25,"density_birds_km3":1.496,"heading_deg":343.7447998382956,"speed_ms":4.886874721355328,"peak_altitude_m":200.0,"u_ms":-1.3063887650468122,"v_ms":4.532385198395007}},{"type":"Feature","geometry":{"type":"Point","coordinates":[-81.8597,41.4131]},"properties":{"site":"KCLE","name":"Cleveland OH","scan_time":"2026-08-16T10:58:12Z","stale":false,"bins":25,"density_birds_km3":6.540666666666667,"heading_deg":76.77980560720172,"speed_ms":4.448094995413312,"peak_altitude_m":200.0,"u_ms":4.25909285495872,"v_ms":0.7649036795433696}},{"type":"Feature","geometry":{"type":"Point","coordinates":[-81.0423,32.6555]},"properties":{"site":"KCLX","name":"Charleston SC","scan_time":"2026-08-16T11:04:03Z","stale":false,"bins":25,"density_birds_km3":2.035,"heading_deg":124.89020967609751,"speed_ms":5.906108722358722,"peak_altitude_m":0.0,"u_ms":4.794978501228501,"v_ms":-3.345718673218673}},{"type":"Feature","geometry":{"type":"Point","coordinates":[-74.4108,39.947]},"properties":{"site":"KDIX","name":"Philadelphia PA","scan_time":"2026-08-16T11:02:34Z","stale":false,"bins":25,"density_birds_km3":0.636875,"heading_deg":327.21219885746854,"speed_ms":5.835274177467597,"peak_altitude_m":200.0,"u_ms":-3.1806081754735795,"v_ms":4.852043868394817}},{"type":"Feature","geometry":{"type":"Point","coordinates":[-84.5658,33.3636]},"properties":{"site":"KFFC","name":"Atlanta GA","scan_time":"2026-08-16T11:01:48Z","stale":false,"bins":25,"density_birds_km3":2.8706666666666667,"heading_deg":163.74706389154355,"speed_ms":6.529535207994423,"peak_altitude_m":200.0,"u_ms":1.7733906576806877,"v_ms":-6.269769927957239}},{"type":"Feature","geometry":{"type":"Point","coordinates":[-85.5449,42.8939]},"properties":{"site":"KGRR","name":"Grand Rapids MI","scan_time":"2026-08-16T10:57:41Z","stale":false,"bins":25,"density_birds_km3":0.3846666666666667,"heading_deg":null,"speed_ms":null,"peak_altitude_m":200.0,"u_ms":null,"v_ms":null}},{"type":"Feature","geometry":{"type":"Point","coordinates":[-83.8217,39.4203]},"properties":{"site":"KILN","name":"Wilmington OH","scan_time":"2026-08-16T11:02:29Z","stale":false,"bins":25,"density_birds_km3":4.818666666666667,"heading_deg":208.5970457800209,"speed_ms":5.453241560597676,"peak_altitude_m":200.0,"u_ms":-1.2464346983951298,"v_ms":-2.9869299944659655}},{"type":"Feature","geometry":{"type":"Point","coordinates":[-81.7019,30.4846]},"properties":{"site":"KJAX","name":"Jacksonville FL","scan_time":"2026-08-16T10:57:42Z","stale":false,"bins":25,"density_birds_km3":4.948125,"heading_deg":146.35470815727248,"speed_ms":6.928520904382974,"peak_altitude_m":0.0,"u_ms":3.8222836933181763,"v_ms":-5.762613363647847}},{"type":"Feature","geometry":{"type":"Point","coordinates":[-88.0847,41.6045]},"properties":{"site":"KLOT","name":"Chicago IL","scan_time":"2026-08-16T11:02:08Z","stale":false,"bins":25,"density_birds_km3":1.2946666666666666,"heading_deg":95.31464072019965,"speed_ms":9.64248190279214,"peak_altitude_m":200.0,"u_ms":9.476608066184074,"v_ms":-1.0208169596690797}},{"type":"Feature","geometry":{"type":"Point","coordinates":[-78.4292,33.9892]},"properties":{"site":"KLTX","name":"Wilmington NC","scan_time":"2026-08-16T10:58:35Z","stale":false,"bins":25,"density_birds_km3":5.71375,"heading_deg":242.64219827846253,"speed_ms":5.500343918250741,"peak_altitude_m":0.0,"u_ms":-4.710227447533238,"v_ms":-2.387873860015383}},{"type":"Feature","geometry":{"type":"Point","coordinates":[-77.4778,38.9753]},"properties":{"site":"KLWX","name":"Sterling VA","scan_time":"2026-08-16T10:57:03Z","stale":false,"bins":25,"density_birds_km3":2.06375,"heading_deg":356.82196490412457,"speed_ms":7.935828536807029,"peak_altitude_m":0.0,"u_ms":-0.19172977885489242,"v_ms":7.8568918509542565}},{"type":"Feature","geometry":{"type":"Point","coordinates":[-76.8762,34.7759]},"properties":{"site":"KMHX","name":"Morehead City NC","scan_time":"2026-08-16T11:00:54Z","stale":false,"bins":25,"density_birds_km3":4.0874999999999995,"heading_deg":238.39656099277198,"speed_ms":6.797915902140673,"peak_altitude_m":200.0,"u_ms":-4.62156880733945,"v_ms":-3.1170764525993886}},{"type":"Feature","geometry":{"type":"Point","coordinates":[-80.6542,28.1133]},"properties":{"site":"KMLB","name":"Melbourne FL","scan_time":"2026-08-16T11:00:06Z","stale":false,"bins":25,"density_birds_km3":1.221875,"heading_deg":28.689466250635466,"speed_ms":3.835079283887468,"peak_altitude_m":0.0,"u_ms":1.7891918158567777,"v_ms":3.334843989769821}},{"type":"Feature","geometry":{"type":"Point","coordinates":[-86.5625,36.2472]},"properties":{"site":"KOHX","name":"Nashville TN","scan_time":"2026-08-16T11:01:29Z","stale":false,"bins":25,"density_birds_km3":8.988,"heading_deg":103.25054023906074,"speed_ms":6.989192998071503,"peak_altitude_m":200.0,"u_ms":5.209256786826881,"v_ms":-1.8164923601839489}},{"type":"Feature","geometry":{"type":"Point","coordinates":[-72.8639,40.8655]},"properties":{"site":"KOKX","name":"Upton NY","scan_time":"2026-08-16T10:57:30Z","stale":false,"bins":25,"density_birds_km3":0.7881250000000001,"heading_deg":241.63668291451384,"speed_ms":4.1527840000000005,"peak_altitude_m":0.0,"u_ms":-3.4960880000000003,"v_ms":-2.039304}},{"type":"Feature","geometry":{"type":"Point","coordinates":[-80.2183,40.5317]},"properties":{"site":"KPBZ","name":"Pittsburgh PA","scan_time":"2026-08-16T10:58:41Z","stale":false,"bins":25,"density_birds_km3":0.5207142857142857,"heading_deg":81.42295418046847,"speed_ms":7.010438957475995,"peak_altitude_m":400.0,"u_ms":6.686570644718793,"v_ms":0.713772290809328}},{"type":"Feature","geometry":{"type":"Point","coordinates":[-78.4899,35.6655]},"properties":{"site":"KRAX","name":"Raleigh NC","scan_time":"2026-08-16T10:58:35Z","stale":false,"bins":25,"density_birds_km3":3.0168749999999998,"heading_deg":284.54366808138855,"speed_ms":7.004592577234086,"peak_altitude_m":0.0,"u_ms":-6.268764254613311,"v_ms":1.6124714907733775}},{"type":"Feature","geometry":{"type":"Point","coordinates":[-82.4017,27.7055]},"properties":{"site":"KTBW","name":"Tampa FL","scan_time":"2026-08-16T10:58:53Z","stale":false,"bins":25,"density_birds_km3":5.09375,"heading_deg":330.72327405750366,"speed_ms":4.057071165644172,"peak_altitude_m":0.0,"u_ms":-1.9927950920245399,"v_ms":3.4661128834355828}}]}