{"type":"FeatureCollection","frame":"2026-10-01T03","site_count":20,"fresh_count":20,"failures":{},"features":[{"type":"Feature","geometry":{"type":"Point","coordinates":[-77.0073,36.984]},"properties":{"site":"KAKQ","name":"Wakefield VA","scan_time":"2026-10-01T02:58:50Z","stale":false,"bins":25,"density_birds_km3":18.79125,"heading_deg":272.833209775733,"speed_ms":6.107467903944654,"peak_altitude_m":0.0,"u_ms":-2.970906671988292,"v_ms":0.4232498503292756}},{"type":"Feature","geometry":{"type":"Point","coordinates":[-71.1369,41.9558]},"properties":{"site":"KBOX","name":"Boston MA","scan_time":"2026-10-01T02:59:05Z","stale":false,"bins":25,"density_birds_km3":10.360625,"heading_deg":99.60641607488803,"speed_ms":5.627016167953668,"peak_altitude_m":0.0,"u_ms":4.953309000965251,"v_ms":-0.5369781611969111}},{"type":"Feature","geometry":{"type":"Point","coordinates":[-78.7369,42.9489]},"properties":{"site":"KBUF","name":"Buffalo NY","scan_time":"2026-10-01T03:01:10Z","stale":false,"bins":25,"density_birds_km3":0.8986666666666667,"heading_deg":41.87751088157097,"speed_ms":9.334621722846443,"peak_altitude_m":200.0,"u_ms":6.221041198501872,"v_ms":6.8049588014981275}},{"type":"Feature","geometry":{"type":"Point","coordinates":[-81.8597,41.4131]},"properties":{"site":"KCLE","name":"Cleveland OH","scan_time":"2026-10-01T02:57:48Z","stale":false,"bins":25,"density_birds_km3":1.782142857142857,"heading_deg":21.371701251947986,"speed_ms":11.060777528089888,"peak_altitude_m":200.0,"u_ms":4.2344,"v_ms":10.120808988764045}},{"type":"Feature","geometry":{"type":"Point","coordinates":[-81.0423,32.6555]},"properties":{"site":"KCLX","name":"Charleston SC","scan_time":"2026-10-01T03:00:44Z","stale":false,"bins":25,"density_birds_km3":10.223125,"heading_deg":252.16083887451242,"speed_ms":7.881439139206456,"peak_altitude_m":0.0,"u_ms":-6.678526013327628,"v_ms":-2.238343216971327}},{"type":"Feature","geometry":{"type":"Point","coordinates":[-74.4108,39.947]},"properties":{"site":"KDIX","name":"Philadelphia PA","scan_time":"2026-10-01T03:00:43Z","stale":false,"bins":25,"density_birds_km3":13.901875,"heading_deg":78.62719277498888,"speed_ms":5.924668405197608,"peak_altitude_m":0.0,"u_ms":3.1924472820466705,"v_ms":1.1108407895328445}},{"type":"Feature","geometry":{"type":"Point","coordinates":[-84.5658,33.3636]},"properties":{"site":"KFFC","name":"Atlanta GA","scan_time":"2026-10-01T03:02:55Z","stale":false,"bins":25,"density_birds_km3":9.78,"heading_deg":300.53529369989025,"speed_ms":9.249970688479893,"peak_altitude_m":200.0,"u_ms":-7.563129516019087,"v_ms":4.195465576005454}},{"type":"Feature","geometry":{"type":"Point","coordinates":[-85.5449,42.8939]},"properties":{"site":"KGRR","name":"Grand Rapids MI","scan_time":"2026-10-01T02:57:40Z","stale":false,"bins":25,"density_birds_km3":0.20199999999999999,"heading_deg":43.4,"speed_ms":6.8,"peak_altitude_m":200.0,"u_ms":4.67,"v_ms":4.94}},{"type":"Feature","geometry":{"type":"Point","coordinates":[-83.8217,39.4203]},"properties":{"site":"KILN","name":"Wilmington OH","scan_time":"2026-10-01T02:59:19Z","stale":false,"bins":25,"density_birds_km3":9.882000000000001,"heading_deg":43.99302028725909,"speed_ms":11.099707211765498,"peak_altitude_m":600.0,"u_ms":7.27378735748499,"v_ms":6.740049922417863}},{"type":"Feature","geometry":{"type":"Point","coordinates":[-81.7019,30.4846]},"properties":{"site":"KJAX","name":"Jacksonville FL","scan_time":"2026-10-01T03:00:54Z","stale":false,"bins":25,"density_birds_km3":30.881249999999998,"heading_deg":224.22169076858358,"speed_ms":6.893434811651114,"peak_altitude_m":0.0,"u_ms":-4.002655911584317,"v_ms":-3.8319948181284538}},{"type":"Feature","geometry":{"type":"Point","coordinates":[-88.0847,41.6045]},"properties":{"site":"KLOT","name":"Chicago IL","scan_time":"2026-10-01T03:00:24Z","stale":false,"bins":25,"density_birds_km3":0.35,"heading_deg":21.028614525022807,"speed_ms":9.381307692307692,"peak_altitude_m":200.0,"u_ms":3.5461346153846147,"v_ms":7.721692307692307}},{"type":"Feature","geometry":{"type":"Point","coordinates":[-78.4292,33.9892]},"properties":{"site":"KLTX","name":"Wilmington NC","scan_time":"2026-10-01T03:00:49Z","stale":false,"bins":25,"density_birds_km3":10.700000000000001,"heading_deg":253.37964825977298,"speed_ms":7.658984462034594,"peak_altitude_m":0.0,"u_ms":-6.5830401641747285,"v_ms":-2.1969832893579593}},{"type":"Feature","geometry":{"type":"Point","coordinates":[-77.4778,38.9753]},"properties":{"site":"KLWX","name":"Sterling VA","scan_time":"2026-10-01T03:03:17Z","stale":false,"bins":25,"density_birds_km3":24.87875,"heading_deg":10.97157312401029,"speed_ms":9.124061870213625,"peak_altitude_m":200.0,"u_ms":1.4382295445384925,"v_ms":5.992836557839581}},{"type":"Feature","geometry":{"type":"Point","coordinates":[-76.8762,34.7759]},"properties":{"site":"KMHX","name":"Morehead City NC","scan_time":"2026-10-01T03:01:29Z","stale":false,"bins":25,"density_birds_km3":4.024375,"heading_deg":283.1395558868042,"speed_ms":5.424773611327214,"peak_altitude_m":0.0,"u_ms":-2.361812665318189,"v_ms":-0.23545355531352116}},{"type":"Feature","geometry":{"type":"Point","coordinates":[-80.6542,28.1133]},"properties":{"site":"KMLB","name":"Melbourne FL","scan_time":"2026-10-01T02:59:34Z","stale":false,"bins":25,"density_birds_km3":4.269375,"heading_deg":227.92841537373977,"speed_ms":4.666411308041599,"peak_altitude_m":0.0,"u_ms":-3.0373502270396955,"v_ms":-2.63510912553098}},{"type":"Feature","geometry":{"type":"Point","coordinates":[-86.5625,36.2472]},"properties":{"site":"KOHX","name":"Nashville TN","scan_time":"2026-10-01T03:03:28Z","stale":false,"bins":25,"density_birds_km3":9.530000000000001,"heading_deg":10.51960721340395,"speed_ms":11.03326128016789,"peak_altitude_m":200.0,"u_ms":1.7361427072402935,"v_ms":10.464228751311646}},{"type":"Feature","geometry":{"type":"Point","coordinates":[-72.8639,40.8655]},"properties":{"site":"KOKX","name":"Upton NY","scan_time":"2026-10-01T03:01:59Z","stale":false,"bins":25,"density_birds_km3":9.9825,"heading_deg":50.75400376288839,"speed_ms":4.865528608134361,"peak_altitude_m":0.0,"u_ms":1.9397136053142823,"v_ms":1.7371799210377892}},{"type":"Feature","geometry":{"type":"Point","coordinates":[-80.2183,40.5317]},"properties":{"site":"KPBZ","name":"Pittsburgh PA","scan_time":"2026-10-01T03:02:03Z","stale":false,"bins":25,"density_birds_km3":8.102142857142857,"heading_deg":36.75355457405828,"speed_ms":10.373154646446835,"peak_altitude_m":400.0,"u_ms":6.217244754011638,"v_ms":7.989975312995945}},{"type":"Feature","geometry":{"type":"Point","coordinates":[-78.4899,35.6655]},"properties":{"site":"KRAX","name":"Raleigh NC","scan_time":"2026-10-01T02:58:26Z","stale":false,"bins":25,"density_birds_km3":19.45125,"heading_deg":16.515487161049514,"speed_ms":4.005762552943839,"peak_altitude_m":0.0,"u_ms":0.21144039574509368,"v_ms":2.2958886481942513}},{"type":"Feature","geometry":{"type":"Point","coordinates":[-82.4017,27.7055]},"properties":{"site":"KTBW","name":"Tampa FL","scan_time":"2026-10-01T03:01:15Z","stale":false,"bins":25,"density_birds_km3":16.065,"heading_deg":287.1541638236954,"speed_ms":5.674184079214097,"peak_altitude_m":0.0,"u_ms":-3.6683030562919074,"v_ms":2.634048807110557}}]}