{"type":"FeatureCollection","frame":"2026-08-13T01","site_count":20,"fresh_count":20,"failures":{},"features":[{"type":"Feature","geometry":{"type":"Point","coordinates":[-77.0073,36.984]},"properties":{"site":"KAKQ","name":"Wakefield VA","scan_time":"2026-08-13T00:56:31Z","stale":false,"bins":25,"density_birds_km3":7.0493749999999995,"heading_deg":184.11588029757635,"speed_ms":3.588109821428571,"peak_altitude_m":200.0,"u_ms":-0.2660794642857143,"v_ms":-3.511379464285714}},{"type":"Feature","geometry":{"type":"Point","coordinates":[-71.1369,41.9558]},"properties":{"site":"KBOX","name":"Boston MA","scan_time":"2026-08-13T01:02:32Z","stale":false,"bins":25,"density_birds_km3":2.885625,"heading_deg":60.83513471487601,"speed_ms":4.323312910284464,"peak_altitude_m":0.0,"u_ms":3.36490590809628,"v_ms":1.6518293216630195}},{"type":"Feature","geometry":{"type":"Point","coordinates":[-78.7369,42.9489]},"properties":{"site":"KBUF","name":"Buffalo NY","scan_time":"2026-08-13T00:58:39Z","stale":false,"bins":25,"density_birds_km3":1.1733333333333333,"heading_deg":72.55129778021038,"speed_ms":6.444647727272727,"peak_altitude_m":200.0,"u_ms":6.021982954545455,"v_ms":1.893897727272727}},{"type":"Feature","geometry":{"type":"Point","coordinates":[-81.8597,41.4131]},"properties":{"site":"KCLE","name":"Cleveland OH","scan_time":"2026-08-13T01:00:53Z","stale":false,"bins":25,"density_birds_km3":1.4866666666666668,"heading_deg":75.37932084190201,"speed_ms":5.228820098698967,"peak_altitude_m":200.0,"u_ms":4.88764468371467,"v_ms":0.7931314490803051}},{"type":"Feature","geometry":{"type":"Point","coordinates":[-81.0423,32.6555]},"properties":{"site":"KCLX","name":"Charleston SC","scan_time":"2026-08-13T00:59:06Z","stale":false,"bins":25,"density_birds_km3":5.68375,"heading_deg":128.19367270873013,"speed_ms":5.769322630305696,"peak_altitude_m":0.0,"u_ms":3.5847349901033647,"v_ms":-3.202065097866725}},{"type":"Feature","geometry":{"type":"Point","coordinates":[-74.4108,39.947]},"properties":{"site":"KDIX","name":"Philadelphia PA","scan_time":"2026-08-13T00:58:28Z","stale":false,"bins":25,"density_birds_km3":5.000769230769231,"heading_deg":30.57691901122887,"speed_ms":6.16181592039801,"peak_altitude_m":0.0,"u_ms":1.6943159203980096,"v_ms":4.034892723880597}},{"type":"Feature","geometry":{"type":"Point","coordinates":[-84.5658,33.3636]},"properties":{"site":"KFFC","name":"Atlanta GA","scan_time":"2026-08-13T00:58:02Z","stale":false,"bins":25,"density_birds_km3":2.759333333333333,"heading_deg":103.86855350294434,"speed_ms":3.5065523073206086,"peak_altitude_m":200.0,"u_ms":3.3065909640009665,"v_ms":-0.8051679149553032}},{"type":"Feature","geometry":{"type":"Point","coordinates":[-85.5449,42.8939]},"properties":{"site":"KGRR","name":"Grand Rapids MI","scan_time":"2026-08-13T01:01:41Z","stale":false,"bins":25,"density_birds_km3":1.136,"heading_deg":129.80372980413716,"speed_ms":5.105624263839811,"peak_altitude_m":200.0,"u_ms":3.918168433451119,"v_ms":-3.2696937573616016}},{"type":"Feature","geometry":{"type":"Point","coordinates":[-83.8217,39.4203]},"properties":{"site":"KILN","name":"Wilmington OH","scan_time":"2026-08-13T01:01:06Z","stale":false,"bins":25,"density_birds_km3":5.128,"heading_deg":24.067574144649495,"speed_ms":6.261526548672567,"peak_altitude_m":200.0,"u_ms":2.6105322748568454,"v_ms":5.508370640291515}},{"type":"Feature","geometry":{"type":"Point","coordinates":[-81.7019,30.4846]},"properties":{"site":"KJAX","name":"Jacksonville FL","scan_time":"2026-08-13T00:58:45Z","stale":false,"bins":25,"density_birds_km3":8.693125,"heading_deg":120.03529270320936,"speed_ms":7.531058154141728,"peak_altitude_m":0.0,"u_ms":6.452227148451931,"v_ms":-3.7702061627133667}},{"type":"Feature","geometry":{"type":"Point","coordinates":[-88.0847,41.6045]},"properties":{"site":"KLOT","name":"Chicago IL","scan_time":"2026-08-13T01:00:16Z","stale":false,"bins":25,"density_birds_km3":0.7326666666666667,"heading_deg":59.731292660199856,"speed_ms":5.620092336103417,"peak_altitude_m":200.0,"u_ms":4.681052631578948,"v_ms":2.739122807017544}},{"type":"Feature","geometry":{"type":"Point","coordinates":[-78.4292,33.9892]},"properties":{"site":"KLTX","name":"Wilmington NC","scan_time":"2026-08-13T01:00:55Z","stale":false,"bins":25,"density_birds_km3":13.103333333333332,"heading_deg":109.40236085908154,"speed_ms":4.723649148018887,"peak_altitude_m":0.0,"u_ms":1.5883566002874152,"v_ms":-1.3266634161363169}},{"type":"Feature","geometry":{"type":"Point","coordinates":[-77.4778,38.9753]},"properties":{"site":"KLWX","name":"Sterling VA","scan_time":"2026-08-13T00:58:03Z","stale":false,"bins":25,"density_birds_km3":7.659375,"heading_deg":64.61984209858711,"speed_ms":3.7399991814684452,"peak_altitude_m":0.0,"u_ms":2.3281804043545877,"v_ms":0.646365719898502}},{"type":"Feature","geometry":{"type":"Point","coordinates":[-76.8762,34.7759]},"properties":{"site":"KMHX","name":"Morehead City NC","scan_time":"2026-08-13T01:02:34Z","stale":false,"bins":25,"density_birds_km3":11.836875,"heading_deg":139.53504390269782,"speed_ms":3.2244483195941656,"peak_altitude_m":0.0,"u_ms":1.1096158317480447,"v_ms":-2.0976173113506658}},{"type":"Feature","geometry":{"type":"Point","coordinates":[-80.6542,28.1133]},"properties":{"site":"KMLB","name":"Melbourne FL","scan_time":"2026-08-13T01:02:33Z","stale":false,"bins":25,"density_birds_km3":19.539375,"heading_deg":205.0857273936634,"speed_ms":3.6006320570642614,"peak_altitude_m":0.0,"u_ms":1.3270617023318299,"v_ms":-2.6498499824073187}},{"type":"Feature","geometry":{"type":"Point","coordinates":[-86.5625,36.2472]},"properties":{"site":"KOHX","name":"Nashville TN","scan_time":"2026-08-13T01:00:04Z","stale":false,"bins":25,"density_birds_km3":9.686,"heading_deg":59.68933798539229,"speed_ms":4.670865854497901,"peak_altitude_m":200.0,"u_ms":4.008750086034827,"v_ms":2.163932135728543}},{"type":"Feature","geometry":{"type":"Point","coordinates":[-72.8639,40.8655]},"properties":{"site":"KOKX","name":"Upton NY","scan_time":"2026-08-13T00:58:50Z","stale":false,"bins":25,"density_birds_km3":2.185,"heading_deg":344.07311345835114,"speed_ms":3.4157200460829493,"peak_altitude_m":0.0,"u_ms":-0.17751728110599077,"v_ms":0.384827188940092}},{"type":"Feature","geometry":{"type":"Point","coordinates":[-80.2183,40.5317]},"properties":{"site":"KPBZ","name":"Pittsburgh PA","scan_time":"2026-08-13T01:00:10Z","stale":false,"bins":25,"density_birds_km3":2.052857142857143,"heading_deg":126.29530273715538,"speed_ms":9.095285316631873,"peak_altitude_m":400.0,"u_ms":6.916273486430063,"v_ms":-5.771221294363257}},{"type":"Feature","geometry":{"type":"Point","coordinates":[-78.4899,35.6655]},"properties":{"site":"KRAX","name":"Raleigh NC","scan_time":"2026-08-13T00:57:16Z","stale":false,"bins":25,"density_birds_km3":9.219375000000001,"heading_deg":21.001673580943578,"speed_ms":2.132346097915657,"peak_altitude_m":0.0,"u_ms":0.6410671006163008,"v_ms":0.4040848971677863}},{"type":"Feature","geometry":{"type":"Point","coordinates":[-82.4017,27.7055]},"properties":{"site":"KTBW","name":"Tampa FL","scan_time":"2026-08-13T00:58:16Z","stale":false,"bins":25,"density_birds_km3":26.627499999999998,"heading_deg":146.05086462600642,"speed_ms":8.80453971458079,"peak_altitude_m":0.0,"u_ms":4.899129659186931,"v_ms":-7.249719275185429}}]}