{"type":"FeatureCollection","frame":"2026-09-01T00","site_count":20,"fresh_count":20,"failures":{},"features":[{"type":"Feature","geometry":{"type":"Point","coordinates":[-77.0073,36.984]},"properties":{"site":"KAKQ","name":"Wakefield VA","scan_time":"2026-08-31T23:58:04Z","stale":false,"bins":25,"density_birds_km3":6.97875,"heading_deg":298.2462237820679,"speed_ms":2.917663501164666,"peak_altitude_m":0.0,"u_ms":-2.549362121483605,"v_ms":1.264388102490593}},{"type":"Feature","geometry":{"type":"Point","coordinates":[-71.1369,41.9558]},"properties":{"site":"KBOX","name":"Boston MA","scan_time":"2026-09-01T00:00:11Z","stale":false,"bins":25,"density_birds_km3":3.5875,"heading_deg":5.291888020486599,"speed_ms":5.45635199157747,"peak_altitude_m":200.0,"u_ms":0.21551500263204076,"v_ms":5.06690822951395}},{"type":"Feature","geometry":{"type":"Point","coordinates":[-78.7369,42.9489]},"properties":{"site":"KBUF","name":"Buffalo NY","scan_time":"2026-09-01T00:02:00Z","stale":false,"bins":25,"density_birds_km3":0.7986666666666667,"heading_deg":56.15627848309912,"speed_ms":5.172654424040066,"peak_altitude_m":200.0,"u_ms":4.07330550918197,"v_ms":2.8201085141903173}},{"type":"Feature","geometry":{"type":"Point","coordinates":[-81.8597,41.4131]},"properties":{"site":"KCLE","name":"Cleveland OH","scan_time":"2026-08-31T23:57:31Z","stale":false,"bins":25,"density_birds_km3":2.1646666666666667,"heading_deg":null,"speed_ms":null,"peak_altitude_m":200.0,"u_ms":null,"v_ms":null}},{"type":"Feature","geometry":{"type":"Point","coordinates":[-81.0423,32.6555]},"properties":{"site":"KCLX","name":"Charleston SC","scan_time":"2026-09-01T00:02:04Z","stale":false,"bins":25,"density_birds_km3":1.8875,"heading_deg":326.0956822016617,"speed_ms":5.035089820359282,"peak_altitude_m":0.0,"u_ms":-2.7997804391217564,"v_ms":4.163516300731869}},{"type":"Feature","geometry":{"type":"Point","coordinates":[-74.4108,39.947]},"properties":{"site":"KDIX","name":"Philadelphia PA","scan_time":"2026-09-01T00:00:24Z","stale":false,"bins":25,"density_birds_km3":9.346875,"heading_deg":1.5785264337322413,"speed_ms":3.7165931126713474,"peak_altitude_m":200.0,"u_ms":0.1860006686726846,"v_ms":2.9030224005349377}},{"type":"Feature","geometry":{"type":"Point","coordinates":[-84.5658,33.3636]},"properties":{"site":"KFFC","name":"Atlanta GA","scan_time":"2026-09-01T00:02:31Z","stale":false,"bins":25,"density_birds_km3":1.1926666666666668,"heading_deg":217.97621634553744,"speed_ms":4.884117647058823,"peak_altitude_m":200.0,"u_ms":-3.0033613445378147,"v_ms":-3.7624537815126042}},{"type":"Feature","geometry":{"type":"Point","coordinates":[-85.5449,42.8939]},"properties":{"site":"KGRR","name":"Grand Rapids MI","scan_time":"2026-09-01T00:00:30Z","stale":false,"bins":25,"density_birds_km3":1.7813333333333334,"heading_deg":56.13597078681162,"speed_ms":7.398502101643103,"peak_altitude_m":200.0,"u_ms":6.1834696217042415,"v_ms":3.972227741688957}},{"type":"Feature","geometry":{"type":"Point","coordinates":[-83.8217,39.4203]},"properties":{"site":"KILN","name":"Wilmington OH","scan_time":"2026-08-31T23:58:31Z","stale":false,"bins":25,"density_birds_km3":0.6706666666666667,"heading_deg":107.34447890491076,"speed_ms":3.577669322709163,"peak_altitude_m":200.0,"u_ms":3.4025896414342633,"v_ms":-0.9902689243027889}},{"type":"Feature","geometry":{"type":"Point","coordinates":[-81.7019,30.4846]},"properties":{"site":"KJAX","name":"Jacksonville FL","scan_time":"2026-08-31T23:58:28Z","stale":false,"bins":25,"density_birds_km3":2.7150000000000003,"heading_deg":238.56102618928185,"speed_ms":6.426431860036832,"peak_altitude_m":0.0,"u_ms":-5.4326197053406995,"v_ms":-3.3260290055248616}},{"type":"Feature","geometry":{"type":"Point","coordinates":[-88.0847,41.6045]},"properties":{"site":"KLOT","name":"Chicago IL","scan_time":"2026-08-31T23:59:33Z","stale":false,"bins":25,"density_birds_km3":1.8853333333333333,"heading_deg":57.92384682858512,"speed_ms":6.144861878453038,"peak_altitude_m":200.0,"u_ms":5.184790844514601,"v_ms":3.2178295185477506}},{"type":"Feature","geometry":{"type":"Point","coordinates":[-78.4292,33.9892]},"properties":{"site":"KLTX","name":"Wilmington NC","scan_time":"2026-09-01T00:00:37Z","stale":false,"bins":25,"density_birds_km3":1.544375,"heading_deg":318.8791398650519,"speed_ms":6.138412698412698,"peak_altitude_m":0.0,"u_ms":-3.953394383394383,"v_ms":4.544778184778186}},{"type":"Feature","geometry":{"type":"Point","coordinates":[-77.4778,38.9753]},"properties":{"site":"KLWX","name":"Sterling VA","scan_time":"2026-09-01T00:00:56Z","stale":false,"bins":25,"density_birds_km3":8.163125,"heading_deg":359.8738597792579,"speed_ms":3.5331796599785568,"peak_altitude_m":0.0,"u_ms":0.002890182263746353,"v_ms":3.2835686935212127}},{"type":"Feature","geometry":{"type":"Point","coordinates":[-76.8762,34.7759]},"properties":{"site":"KMHX","name":"Morehead City NC","scan_time":"2026-09-01T00:00:22Z","stale":false,"bins":25,"density_birds_km3":1.566875,"heading_deg":328.1605686557925,"speed_ms":5.013505863323898,"peak_altitude_m":0.0,"u_ms":-2.0532591993530125,"v_ms":3.1831864132632433}},{"type":"Feature","geometry":{"type":"Point","coordinates":[-80.6542,28.1133]},"properties":{"site":"KMLB","name":"Melbourne FL","scan_time":"2026-08-31T23:59:29Z","stale":false,"bins":25,"density_birds_km3":5.1425,"heading_deg":224.45176274228504,"speed_ms":5.603972036474165,"peak_altitude_m":0.0,"u_ms":-3.8571550151975686,"v_ms":-3.959136778115502}},{"type":"Feature","geometry":{"type":"Point","coordinates":[-86.5625,36.2472]},"properties":{"site":"KOHX","name":"Nashville TN","scan_time":"2026-08-31T23:58:30Z","stale":false,"bins":25,"density_birds_km3":2.0433333333333334,"heading_deg":207.30306168352448,"speed_ms":2.384124755062051,"peak_altitude_m":200.0,"u_ms":-1.0463030698889615,"v_ms":-2.0455715218811235}},{"type":"Feature","geometry":{"type":"Point","coordinates":[-72.8639,40.8655]},"properties":{"site":"KOKX","name":"Upton NY","scan_time":"2026-09-01T00:00:31Z","stale":false,"bins":25,"density_birds_km3":11.91875,"heading_deg":295.10717109571226,"speed_ms":4.44664999473518,"peak_altitude_m":0.0,"u_ms":-3.909272928293145,"v_ms":1.830875013162051}},{"type":"Feature","geometry":{"type":"Point","coordinates":[-80.2183,40.5317]},"properties":{"site":"KPBZ","name":"Pittsburgh PA","scan_time":"2026-08-31T23:59:46Z","stale":false,"bins":25,"density_birds_km3":0.5985714285714286,"heading_deg":44.58270445972842,"speed_ms":5.493245823389021,"peak_altitude_m":400.0,"u_ms":3.7855369928400955,"v_ms":3.6884844868735076}},{"type":"Feature","geometry":{"type":"Point","coordinates":[-78.4899,35.6655]},"properties":{"site":"KRAX","name":"Raleigh NC","scan_time":"2026-09-01T00:01:28Z","stale":false,"bins":25,"density_birds_km3":5.43625,"heading_deg":350.45818325991047,"speed_ms":3.579644705070714,"peak_altitude_m":0.0,"u_ms":-0.566849488329309,"v_ms":3.4728814533747268}},{"type":"Feature","geometry":{"type":"Point","coordinates":[-82.4017,27.7055]},"properties":{"site":"KTBW","name":"Tampa FL","scan_time":"2026-09-01T00:02:17Z","stale":false,"bins":25,"density_birds_km3":10.991875,"heading_deg":256.1,"speed_ms":3.7800000000000002,"peak_altitude_m":200.0,"u_ms":-3.67,"v_ms":-0.91}}]}