{"type":"FeatureCollection","frame":"2026-08-28T05","site_count":20,"fresh_count":20,"failures":{},"features":[{"type":"Feature","geometry":{"type":"Point","coordinates":[-77.0073,36.984]},"properties":{"site":"KAKQ","name":"Wakefield VA","scan_time":"2026-08-28T04:57:54Z","stale":false,"bins":25,"density_birds_km3":2.49,"heading_deg":61.33241702431104,"speed_ms":6.501423532375913,"peak_altitude_m":0.0,"u_ms":5.725689090450995,"v_ms":2.976334089191232}},{"type":"Feature","geometry":{"type":"Point","coordinates":[-71.1369,41.9558]},"properties":{"site":"KBOX","name":"Boston MA","scan_time":"2026-08-28T05:02:43Z","stale":false,"bins":25,"density_birds_km3":0.8218749999999999,"heading_deg":5.350177858722085,"speed_ms":6.332366818873668,"peak_altitude_m":0.0,"u_ms":0.7332496194824962,"v_ms":6.1399162861491625}},{"type":"Feature","geometry":{"type":"Point","coordinates":[-78.7369,42.9489]},"properties":{"site":"KBUF","name":"Buffalo NY","scan_time":"2026-08-28T05:00:13Z","stale":false,"bins":25,"density_birds_km3":13.684666666666667,"heading_deg":175.35546414075387,"speed_ms":6.876870463292248,"peak_altitude_m":400.0,"u_ms":0.4198285185365616,"v_ms":-6.7594762995079645}},{"type":"Feature","geometry":{"type":"Point","coordinates":[-81.8597,41.4131]},"properties":{"site":"KCLE","name":"Cleveland OH","scan_time":"2026-08-28T04:59:05Z","stale":false,"bins":25,"density_birds_km3":24.150666666666666,"heading_deg":194.3805534597471,"speed_ms":7.618234092477571,"peak_altitude_m":800.0,"u_ms":-2.230786473429952,"v_ms":-7.176378467908903}},{"type":"Feature","geometry":{"type":"Point","coordinates":[-81.0423,32.6555]},"properties":{"site":"KCLX","name":"Charleston SC","scan_time":"2026-08-28T04:57:09Z","stale":false,"bins":25,"density_birds_km3":1.030625,"heading_deg":57.03527613872594,"speed_ms":3.6099817961165046,"peak_altitude_m":0.0,"u_ms":2.844878640776699,"v_ms":1.60814927184466}},{"type":"Feature","geometry":{"type":"Point","coordinates":[-74.4108,39.947]},"properties":{"site":"KDIX","name":"Philadelphia PA","scan_time":"2026-08-28T04:59:53Z","stale":false,"bins":25,"density_birds_km3":4.458125,"heading_deg":162.6066244833558,"speed_ms":3.1279109930255733,"peak_altitude_m":0.0,"u_ms":-0.04264862172035863,"v_ms":-1.9120375290601128}},{"type":"Feature","geometry":{"type":"Point","coordinates":[-84.5658,33.3636]},"properties":{"site":"KFFC","name":"Atlanta GA","scan_time":"2026-08-28T05:01:48Z","stale":false,"bins":25,"density_birds_km3":16.930666666666667,"heading_deg":196.12783450056824,"speed_ms":3.538693785933685,"peak_altitude_m":1400.0,"u_ms":-1.0130003150350477,"v_ms":-2.3232444671969756}},{"type":"Feature","geometry":{"type":"Point","coordinates":[-85.5449,42.8939]},"properties":{"site":"KGRR","name":"Grand Rapids MI","scan_time":"2026-08-28T05:00:46Z","stale":false,"bins":25,"density_birds_km3":50.77,"heading_deg":214.7068479241243,"speed_ms":10.977781469128347,"peak_altitude_m":400.0,"u_ms":-6.265135514877748,"v_ms":-8.937369278041864}},{"type":"Feature","geometry":{"type":"Point","coordinates":[-83.8217,39.4203]},"properties":{"site":"KILN","name":"Wilmington OH","scan_time":"2026-08-28T05:01:39Z","stale":false,"bins":25,"density_birds_km3":31.191333333333333,"heading_deg":197.20196742027912,"speed_ms":8.880866693739714,"peak_altitude_m":400.0,"u_ms":-2.640509970718362,"v_ms":-8.301682304913758}},{"type":"Feature","geometry":{"type":"Point","coordinates":[-81.7019,30.4846]},"properties":{"site":"KJAX","name":"Jacksonville FL","scan_time":"2026-08-28T04:59:18Z","stale":false,"bins":25,"density_birds_km3":10.4225,"heading_deg":194.27157434845145,"speed_ms":3.910363014520581,"peak_altitude_m":0.0,"u_ms":-0.5474534981399256,"v_ms":-3.1855070202808116}},{"type":"Feature","geometry":{"type":"Point","coordinates":[-88.0847,41.6045]},"properties":{"site":"KLOT","name":"Chicago IL","scan_time":"2026-08-28T05:02:52Z","stale":false,"bins":25,"density_birds_km3":20.859333333333332,"heading_deg":196.77547270071787,"speed_ms":7.016358627758736,"peak_altitude_m":400.0,"u_ms":-0.4623978987155258,"v_ms":-4.184959159486211}},{"type":"Feature","geometry":{"type":"Point","coordinates":[-78.4292,33.9892]},"properties":{"site":"KLTX","name":"Wilmington NC","scan_time":"2026-08-28T04:59:00Z","stale":false,"bins":25,"density_birds_km3":0.39875,"heading_deg":28.128125018851446,"speed_ms":4.931239242685026,"peak_altitude_m":0.0,"u_ms":2.341394148020654,"v_ms":4.322547332185887}},{"type":"Feature","geometry":{"type":"Point","coordinates":[-77.4778,38.9753]},"properties":{"site":"KLWX","name":"Sterling VA","scan_time":"2026-08-28T05:01:30Z","stale":false,"bins":25,"density_birds_km3":15.14875,"heading_deg":200.2901768563503,"speed_ms":5.8343514274902235,"peak_altitude_m":0.0,"u_ms":-2.1575835680948576,"v_ms":-5.025958878190303}},{"type":"Feature","geometry":{"type":"Point","coordinates":[-76.8762,34.7759]},"properties":{"site":"KMHX","name":"Morehead City NC","scan_time":"2026-08-28T05:01:53Z","stale":false,"bins":25,"density_birds_km3":0.301875,"heading_deg":63.89999999999999,"speed_ms":7.72,"peak_altitude_m":0.0,"u_ms":6.94,"v_ms":3.4}},{"type":"Feature","geometry":{"type":"Point","coordinates":[-80.6542,28.1133]},"properties":{"site":"KMLB","name":"Melbourne FL","scan_time":"2026-08-28T04:59:16Z","stale":false,"bins":25,"density_birds_km3":4.0912500000000005,"heading_deg":184.17063425397663,"speed_ms":2.4002627558814544,"peak_altitude_m":0.0,"u_ms":0.34799266727772676,"v_ms":-2.0268560953253894}},{"type":"Feature","geometry":{"type":"Point","coordinates":[-86.5625,36.2472]},"properties":{"site":"KOHX","name":"Nashville TN","scan_time":"2026-08-28T05:01:55Z","stale":false,"bins":25,"density_birds_km3":45.532000000000004,"heading_deg":206.60539474248756,"speed_ms":6.752787929368355,"peak_altitude_m":400.0,"u_ms":-3.084771442794811,"v_ms":-5.78157369176257}},{"type":"Feature","geometry":{"type":"Point","coordinates":[-72.8639,40.8655]},"properties":{"site":"KOKX","name":"Upton NY","scan_time":"2026-08-28T04:59:22Z","stale":false,"bins":25,"density_birds_km3":1.2275,"heading_deg":304.8556519542609,"speed_ms":4.4964085583290885,"peak_altitude_m":0.0,"u_ms":-3.310295466123281,"v_ms":2.3681100356597047}},{"type":"Feature","geometry":{"type":"Point","coordinates":[-80.2183,40.5317]},"properties":{"site":"KPBZ","name":"Pittsburgh PA","scan_time":"2026-08-28T04:59:07Z","stale":false,"bins":25,"density_birds_km3":31.117142857142856,"heading_deg":202.18418360927845,"speed_ms":8.078341712003306,"peak_altitude_m":600.0,"u_ms":-3.339422904758626,"v_ms":-7.192731675963548}},{"type":"Feature","geometry":{"type":"Point","coordinates":[-78.4899,35.6655]},"properties":{"site":"KRAX","name":"Raleigh NC","scan_time":"2026-08-28T05:01:35Z","stale":false,"bins":25,"density_birds_km3":1.173125,"heading_deg":74.11815704574333,"speed_ms":3.438571428571428,"peak_altitude_m":0.0,"u_ms":2.5359594882729213,"v_ms":1.2118390191897654}},{"type":"Feature","geometry":{"type":"Point","coordinates":[-82.4017,27.7055]},"properties":{"site":"KTBW","name":"Tampa FL","scan_time":"2026-08-28T05:00:23Z","stale":false,"bins":25,"density_birds_km3":2.245,"heading_deg":301.5275487455938,"speed_ms":4.40531624407913,"peak_altitude_m":0.0,"u_ms":-3.740599052660909,"v_ms":2.094750626915576}}]}