{"type":"FeatureCollection","frame":"2026-08-29T04","site_count":20,"fresh_count":20,"failures":{},"features":[{"type":"Feature","geometry":{"type":"Point","coordinates":[-77.0073,36.984]},"properties":{"site":"KAKQ","name":"Wakefield VA","scan_time":"2026-08-29T04:00:03Z","stale":false,"bins":25,"density_birds_km3":17.854375,"heading_deg":195.20375480806285,"speed_ms":6.995317346402941,"peak_altitude_m":400.0,"u_ms":-1.6948342377034835,"v_ms":-6.420728863994399}},{"type":"Feature","geometry":{"type":"Point","coordinates":[-71.1369,41.9558]},"properties":{"site":"KBOX","name":"Boston MA","scan_time":"2026-08-29T03:57:50Z","stale":false,"bins":25,"density_birds_km3":14.56375,"heading_deg":170.14645754744748,"speed_ms":11.092918329685423,"peak_altitude_m":400.0,"u_ms":1.90613965065877,"v_ms":-10.894753444058194}},{"type":"Feature","geometry":{"type":"Point","coordinates":[-78.7369,42.9489]},"properties":{"site":"KBUF","name":"Buffalo NY","scan_time":"2026-08-29T03:56:15Z","stale":false,"bins":25,"density_birds_km3":11.218,"heading_deg":157.6773151702852,"speed_ms":8.738488144054198,"peak_altitude_m":600.0,"u_ms":3.2214452962500744,"v_ms":-7.942415760385095}},{"type":"Feature","geometry":{"type":"Point","coordinates":[-81.8597,41.4131]},"properties":{"site":"KCLE","name":"Cleveland OH","scan_time":"2026-08-29T04:01:55Z","stale":false,"bins":25,"density_birds_km3":9.472666666666667,"heading_deg":247.99330135863545,"speed_ms":7.112329509465831,"peak_altitude_m":400.0,"u_ms":-5.875351537757759,"v_ms":-2.084715321275248}},{"type":"Feature","geometry":{"type":"Point","coordinates":[-81.0423,32.6555]},"properties":{"site":"KCLX","name":"Charleston SC","scan_time":"2026-08-29T03:58:17Z","stale":false,"bins":25,"density_birds_km3":3.5012499999999998,"heading_deg":195.54859231856074,"speed_ms":2.652242135367016,"peak_altitude_m":0.0,"u_ms":-0.7342631077216398,"v_ms":-2.529925643469972}},{"type":"Feature","geometry":{"type":"Point","coordinates":[-74.4108,39.947]},"properties":{"site":"KDIX","name":"Philadelphia PA","scan_time":"2026-08-29T04:01:27Z","stale":false,"bins":25,"density_birds_km3":39.16,"heading_deg":200.7686736137075,"speed_ms":11.603487948922586,"peak_altitude_m":400.0,"u_ms":-4.159426815642458,"v_ms":-10.803840383080606}},{"type":"Feature","geometry":{"type":"Point","coordinates":[-84.5658,33.3636]},"properties":{"site":"KFFC","name":"Atlanta GA","scan_time":"2026-08-29T03:58:48Z","stale":false,"bins":25,"density_birds_km3":19.844,"heading_deg":235.02174532453046,"speed_ms":4.386550090707518,"peak_altitude_m":1800.0,"u_ms":-1.974312638580931,"v_ms":-1.3124276019619698}},{"type":"Feature","geometry":{"type":"Point","coordinates":[-85.5449,42.8939]},"properties":{"site":"KGRR","name":"Grand Rapids MI","scan_time":"2026-08-29T04:02:49Z","stale":false,"bins":25,"density_birds_km3":8.247333333333334,"heading_deg":27.520754342093888,"speed_ms":3.832340528741208,"peak_altitude_m":400.0,"u_ms":1.6292157813889565,"v_ms":2.4231619371008164}},{"type":"Feature","geometry":{"type":"Point","coordinates":[-83.8217,39.4203]},"properties":{"site":"KILN","name":"Wilmington OH","scan_time":"2026-08-29T03:59:45Z","stale":false,"bins":25,"density_birds_km3":25.17733333333333,"heading_deg":241.12544563722616,"speed_ms":10.180997458031035,"peak_altitude_m":200.0,"u_ms":-8.743420801779378,"v_ms":-4.80928189376688}},{"type":"Feature","geometry":{"type":"Point","coordinates":[-81.7019,30.4846]},"properties":{"site":"KJAX","name":"Jacksonville FL","scan_time":"2026-08-29T03:58:32Z","stale":false,"bins":25,"density_birds_km3":7.950625,"heading_deg":176.4784124078043,"speed_ms":4.322781083868921,"peak_altitude_m":200.0,"u_ms":0.08977068951836861,"v_ms":-4.2685162262953265}},{"type":"Feature","geometry":{"type":"Point","coordinates":[-88.0847,41.6045]},"properties":{"site":"KLOT","name":"Chicago IL","scan_time":"2026-08-29T03:59:19Z","stale":false,"bins":25,"density_birds_km3":9.15,"heading_deg":119.8428993683756,"speed_ms":6.872186759478673,"peak_altitude_m":600.0,"u_ms":5.0403050947867305,"v_ms":-3.6506153732227493}},{"type":"Feature","geometry":{"type":"Point","coordinates":[-78.4292,33.9892]},"properties":{"site":"KLTX","name":"Wilmington NC","scan_time":"2026-08-29T03:59:39Z","stale":false,"bins":25,"density_birds_km3":3.286875,"heading_deg":62.407492630508536,"speed_ms":2.1414563667886726,"peak_altitude_m":400.0,"u_ms":1.8072933924099401,"v_ms":0.9875187825081873}},{"type":"Feature","geometry":{"type":"Point","coordinates":[-77.4778,38.9753]},"properties":{"site":"KLWX","name":"Sterling VA","scan_time":"2026-08-29T03:58:52Z","stale":false,"bins":25,"density_birds_km3":40.043749999999996,"heading_deg":207.19897289147312,"speed_ms":8.84394617151967,"peak_altitude_m":400.0,"u_ms":-4.074145762023101,"v_ms":-7.753849267751365}},{"type":"Feature","geometry":{"type":"Point","coordinates":[-76.8762,34.7759]},"properties":{"site":"KMHX","name":"Morehead City NC","scan_time":"2026-08-29T03:59:20Z","stale":false,"bins":25,"density_birds_km3":1.554375,"heading_deg":98.12883962773313,"speed_ms":4.991480289621883,"peak_altitude_m":200.0,"u_ms":4.754533386967015,"v_ms":-0.1738576025744167}},{"type":"Feature","geometry":{"type":"Point","coordinates":[-80.6542,28.1133]},"properties":{"site":"KMLB","name":"Melbourne FL","scan_time":"2026-08-29T04:01:03Z","stale":false,"bins":25,"density_birds_km3":6.2612499999999995,"heading_deg":186.41399586844074,"speed_ms":3.0126522259932127,"peak_altitude_m":0.0,"u_ms":0.21182271910560987,"v_ms":-2.206983429826313}},{"type":"Feature","geometry":{"type":"Point","coordinates":[-86.5625,36.2472]},"properties":{"site":"KOHX","name":"Nashville TN","scan_time":"2026-08-29T03:59:25Z","stale":false,"bins":25,"density_birds_km3":77.83533333333334,"heading_deg":231.1076587961984,"speed_ms":10.854341815627865,"peak_altitude_m":400.0,"u_ms":-8.473560508081162,"v_ms":-6.685120211043828}},{"type":"Feature","geometry":{"type":"Point","coordinates":[-72.8639,40.8655]},"properties":{"site":"KOKX","name":"Upton NY","scan_time":"2026-08-29T03:59:41Z","stale":false,"bins":25,"density_birds_km3":19.873749999999998,"heading_deg":207.16069771572083,"speed_ms":10.31666109604591,"peak_altitude_m":200.0,"u_ms":-4.661810556851863,"v_ms":-9.163100208109983}},{"type":"Feature","geometry":{"type":"Point","coordinates":[-80.2183,40.5317]},"properties":{"site":"KPBZ","name":"Pittsburgh PA","scan_time":"2026-08-29T03:57:35Z","stale":false,"bins":25,"density_birds_km3":26.460714285714285,"heading_deg":215.95297737254856,"speed_ms":10.017993462816392,"peak_altitude_m":600.0,"u_ms":-6.050342796942111,"v_ms":-7.872206164402064}},{"type":"Feature","geometry":{"type":"Point","coordinates":[-78.4899,35.6655]},"properties":{"site":"KRAX","name":"Raleigh NC","scan_time":"2026-08-29T04:00:26Z","stale":false,"bins":25,"density_birds_km3":14.73625,"heading_deg":193.28852409309664,"speed_ms":5.980518301734741,"peak_altitude_m":200.0,"u_ms":-1.6821788183399073,"v_ms":-5.327365652966874}},{"type":"Feature","geometry":{"type":"Point","coordinates":[-82.4017,27.7055]},"properties":{"site":"KTBW","name":"Tampa FL","scan_time":"2026-08-29T04:00:23Z","stale":false,"bins":25,"density_birds_km3":3.998125,"heading_deg":257.42335863465314,"speed_ms":5.581889566713593,"peak_altitude_m":0.0,"u_ms":-4.254867824182701,"v_ms":-1.5985405912717037}}]}