{"type":"FeatureCollection","frame":"2026-08-17T01","site_count":20,"fresh_count":19,"failures":{"KLWX":"RuntimeError('no scan within 20 min of 2026-08-17T01:00Z')"},"features":[{"type":"Feature","geometry":{"type":"Point","coordinates":[-77.0073,36.984]},"properties":{"site":"KAKQ","name":"Wakefield VA","scan_time":"2026-08-17T01:00:25Z","stale":false,"bins":25,"density_birds_km3":2.3556250000000003,"heading_deg":15.044509956508595,"speed_ms":9.048100425079703,"peak_altitude_m":0.0,"u_ms":2.5724096705632307,"v_ms":8.422611583421892}},{"type":"Feature","geometry":{"type":"Point","coordinates":[-71.1369,41.9558]},"properties":{"site":"KBOX","name":"Boston MA","scan_time":"2026-08-17T01:00:02Z","stale":false,"bins":25,"density_birds_km3":1.265625,"heading_deg":12.104964531015375,"speed_ms":9.078418972332017,"peak_altitude_m":0.0,"u_ms":2.139975296442688,"v_ms":8.524639328063241}},{"type":"Feature","geometry":{"type":"Point","coordinates":[-78.7369,42.9489]},"properties":{"site":"KBUF","name":"Buffalo NY","scan_time":"2026-08-17T01:02:58Z","stale":false,"bins":25,"density_birds_km3":2.576,"heading_deg":64.49367829228473,"speed_ms":5.894876974876975,"peak_altitude_m":200.0,"u_ms":5.271655011655012,"v_ms":2.4563895363895365}},{"type":"Feature","geometry":{"type":"Point","coordinates":[-81.8597,41.4131]},"properties":{"site":"KCLE","name":"Cleveland OH","scan_time":"2026-08-17T00:59:05Z","stale":false,"bins":25,"density_birds_km3":4.832,"heading_deg":111.48066820282068,"speed_ms":5.779609439690865,"peak_altitude_m":200.0,"u_ms":5.28645321556721,"v_ms":-2.2050276014352748}},{"type":"Feature","geometry":{"type":"Point","coordinates":[-81.0423,32.6555]},"properties":{"site":"KCLX","name":"Charleston SC","scan_time":"2026-08-17T01:00:56Z","stale":false,"bins":25,"density_birds_km3":7.20375,"heading_deg":28.760892416024124,"speed_ms":2.083104,"peak_altitude_m":200.0,"u_ms":0.97,"v_ms":1.834064}},{"type":"Feature","geometry":{"type":"Point","coordinates":[-74.4108,39.947]},"properties":{"site":"KDIX","name":"Philadelphia PA","scan_time":"2026-08-17T01:02:09Z","stale":false,"bins":25,"density_birds_km3":1.055625,"heading_deg":337.710432390787,"speed_ms":11.906647940074908,"peak_altitude_m":200.0,"u_ms":-3.842815230961299,"v_ms":10.863882646691636}},{"type":"Feature","geometry":{"type":"Point","coordinates":[-84.5658,33.3636]},"properties":{"site":"KFFC","name":"Atlanta GA","scan_time":"2026-08-17T01:00:57Z","stale":false,"bins":25,"density_birds_km3":4.923333333333333,"heading_deg":137.456675403121,"speed_ms":4.441280974949222,"peak_altitude_m":200.0,"u_ms":2.841217332430603,"v_ms":-3.1737698036560595}},{"type":"Feature","geometry":{"type":"Point","coordinates":[-85.5449,42.8939]},"properties":{"site":"KGRR","name":"Grand Rapids MI","scan_time":"2026-08-17T01:00:09Z","stale":false,"bins":25,"density_birds_km3":2.456666666666666,"heading_deg":115.34454195556987,"speed_ms":6.491115332428765,"peak_altitude_m":200.0,"u_ms":5.8418697421981,"v_ms":-2.7978805970149256}},{"type":"Feature","geometry":{"type":"Point","coordinates":[-83.8217,39.4203]},"properties":{"site":"KILN","name":"Wilmington OH","scan_time":"2026-08-17T01:01:03Z","stale":false,"bins":25,"density_birds_km3":8.900666666666666,"heading_deg":87.31101684268123,"speed_ms":4.201496582968594,"peak_altitude_m":200.0,"u_ms":3.7674752361207093,"v_ms":-0.6735629271289258}},{"type":"Feature","geometry":{"type":"Point","coordinates":[-81.7019,30.4846]},"properties":{"site":"KJAX","name":"Jacksonville FL","scan_time":"2026-08-17T01:02:04Z","stale":false,"bins":25,"density_birds_km3":29.92375,"heading_deg":184.52499896854874,"speed_ms":7.519976604278075,"peak_altitude_m":200.0,"u_ms":0.15814568014705882,"v_ms":-7.204617312834224}},{"type":"Feature","geometry":{"type":"Point","coordinates":[-88.0847,41.6045]},"properties":{"site":"KLOT","name":"Chicago IL","scan_time":"2026-08-17T00:57:54Z","stale":false,"bins":25,"density_birds_km3":1.5053333333333332,"heading_deg":105.66336826594963,"speed_ms":7.534362267493358,"peak_altitude_m":200.0,"u_ms":7.135504871567759,"v_ms":-2.117564216120461}},{"type":"Feature","geometry":{"type":"Point","coordinates":[-78.4292,33.9892]},"properties":{"site":"KLTX","name":"Wilmington NC","scan_time":"2026-08-17T00:59:10Z","stale":false,"bins":25,"density_birds_km3":9.895625,"heading_deg":312.31405028525853,"speed_ms":2.7759248938428875,"peak_altitude_m":0.0,"u_ms":-2.0728343949044588,"v_ms":1.841583067940552}},{"type":"Feature","geometry":{"type":"Point","coordinates":[-76.8762,34.7759]},"properties":{"site":"KMHX","name":"Morehead City NC","scan_time":"2026-08-17T00:59:06Z","stale":false,"bins":25,"density_birds_km3":4.5181249999999995,"heading_deg":15.800239679453188,"speed_ms":7.037152345371524,"peak_altitude_m":0.0,"u_ms":1.8956676352566764,"v_ms":6.587820672478206}},{"type":"Feature","geometry":{"type":"Point","coordinates":[-80.6542,28.1133]},"properties":{"site":"KMLB","name":"Melbourne FL","scan_time":"2026-08-17T01:01:36Z","stale":false,"bins":25,"density_birds_km3":11.56,"heading_deg":291.7303008995855,"speed_ms":5.744838325943549,"peak_altitude_m":0.0,"u_ms":-5.160262247215313,"v_ms":1.7139602033091814}},{"type":"Feature","geometry":{"type":"Point","coordinates":[-86.5625,36.2472]},"properties":{"site":"KOHX","name":"Nashville TN","scan_time":"2026-08-17T01:00:16Z","stale":false,"bins":25,"density_birds_km3":8.212,"heading_deg":75.26111678674926,"speed_ms":7.5202606154095974,"peak_altitude_m":200.0,"u_ms":7.247941868961598,"v_ms":1.918320207842819}},{"type":"Feature","geometry":{"type":"Point","coordinates":[-72.8639,40.8655]},"properties":{"site":"KOKX","name":"Upton NY","scan_time":"2026-08-17T00:58:21Z","stale":false,"bins":25,"density_birds_km3":2.1685714285714286,"heading_deg":20.196727746088744,"speed_ms":7.383772835583797,"peak_altitude_m":0.0,"u_ms":2.561016679904686,"v_ms":6.926163621922161}},{"type":"Feature","geometry":{"type":"Point","coordinates":[-80.2183,40.5317]},"properties":{"site":"KPBZ","name":"Pittsburgh PA","scan_time":"2026-08-17T01:00:36Z","stale":false,"bins":25,"density_birds_km3":1.895,"heading_deg":89.82979308321207,"speed_ms":8.035340272217775,"peak_altitude_m":400.0,"u_ms":7.281637309847878,"v_ms":-0.8096397117694156}},{"type":"Feature","geometry":{"type":"Point","coordinates":[-78.4899,35.6655]},"properties":{"site":"KRAX","name":"Raleigh NC","scan_time":"2026-08-17T01:00:01Z","stale":false,"bins":25,"density_birds_km3":5.995,"heading_deg":22.02680642529579,"speed_ms":7.046846486144768,"peak_altitude_m":0.0,"u_ms":2.759843009166579,"v_ms":6.433373722473923}},{"type":"Feature","geometry":{"type":"Point","coordinates":[-82.4017,27.7055]},"properties":{"site":"KTBW","name":"Tampa FL","scan_time":"2026-08-17T00:59:11Z","stale":false,"bins":25,"density_birds_km3":25.575,"heading_deg":128.40087380293195,"speed_ms":7.687547289701354,"peak_altitude_m":0.0,"u_ms":5.998748961337308,"v_ms":-4.7448401681411605}}]}