{"type":"FeatureCollection","frame":"2026-08-26T10","site_count":20,"fresh_count":20,"failures":{},"features":[{"type":"Feature","geometry":{"type":"Point","coordinates":[-77.0073,36.984]},"properties":{"site":"KAKQ","name":"Wakefield VA","scan_time":"2026-08-26T10:01:46Z","stale":false,"bins":25,"density_birds_km3":0.33125,"heading_deg":249.87616213198754,"speed_ms":4.502765151515151,"peak_altitude_m":200.0,"u_ms":-3.1167992424242423,"v_ms":-1.802064393939394}},{"type":"Feature","geometry":{"type":"Point","coordinates":[-71.1369,41.9558]},"properties":{"site":"KBOX","name":"Boston MA","scan_time":"2026-08-26T09:59:07Z","stale":false,"bins":25,"density_birds_km3":6.675,"heading_deg":181.96525551097938,"speed_ms":8.988006554307116,"peak_altitude_m":200.0,"u_ms":-0.3497425093632959,"v_ms":-8.93681086142322}},{"type":"Feature","geometry":{"type":"Point","coordinates":[-78.7369,42.9489]},"properties":{"site":"KBUF","name":"Buffalo NY","scan_time":"2026-08-26T10:00:17Z","stale":false,"bins":25,"density_birds_km3":0.2773333333333333,"heading_deg":60.068966960285934,"speed_ms":5.038149038461539,"peak_altitude_m":200.0,"u_ms":3.9257211538461534,"v_ms":2.554711538461538}},{"type":"Feature","geometry":{"type":"Point","coordinates":[-81.8597,41.4131]},"properties":{"site":"KCLE","name":"Cleveland OH","scan_time":"2026-08-26T10:01:30Z","stale":false,"bins":25,"density_birds_km3":1.272,"heading_deg":8.469932649747646,"speed_ms":4.528377952755906,"peak_altitude_m":200.0,"u_ms":0.5798530183727033,"v_ms":4.185333333333333}},{"type":"Feature","geometry":{"type":"Point","coordinates":[-81.0423,32.6555]},"properties":{"site":"KCLX","name":"Charleston SC","scan_time":"2026-08-26T09:57:39Z","stale":false,"bins":25,"density_birds_km3":3.7818750000000003,"heading_deg":238.84689881838074,"speed_ms":6.802150057841679,"peak_altitude_m":0.0,"u_ms":-5.598996860023136,"v_ms":-3.594048917534292}},{"type":"Feature","geometry":{"type":"Point","coordinates":[-74.4108,39.947]},"properties":{"site":"KDIX","name":"Philadelphia PA","scan_time":"2026-08-26T10:01:42Z","stale":false,"bins":25,"density_birds_km3":1.6613333333333336,"heading_deg":203.73205724589087,"speed_ms":9.17702738515901,"peak_altitude_m":400.0,"u_ms":-3.6761307420494695,"v_ms":-7.625229681978798}},{"type":"Feature","geometry":{"type":"Point","coordinates":[-84.5658,33.3636]},"properties":{"site":"KFFC","name":"Atlanta GA","scan_time":"2026-08-26T10:00:08Z","stale":false,"bins":25,"density_birds_km3":4.942666666666667,"heading_deg":232.79208504007082,"speed_ms":3.6851379870129874,"peak_altitude_m":400.0,"u_ms":-2.3772159090909093,"v_ms":-1.1198498376623378}},{"type":"Feature","geometry":{"type":"Point","coordinates":[-85.5449,42.8939]},"properties":{"site":"KGRR","name":"Grand Rapids MI","scan_time":"2026-08-26T10:00:22Z","stale":false,"bins":25,"density_birds_km3":0.22066666666666668,"heading_deg":29.376029483851113,"speed_ms":8.990454545454545,"peak_altitude_m":200.0,"u_ms":4.422727272727273,"v_ms":7.755575757575758}},{"type":"Feature","geometry":{"type":"Point","coordinates":[-83.8217,39.4203]},"properties":{"site":"KILN","name":"Wilmington OH","scan_time":"2026-08-26T09:59:24Z","stale":false,"bins":25,"density_birds_km3":0.7506666666666667,"heading_deg":8.528727892945241,"speed_ms":4.05608734402852,"peak_altitude_m":200.0,"u_ms":0.36586452762923344,"v_ms":3.74102495543672}},{"type":"Feature","geometry":{"type":"Point","coordinates":[-81.7019,30.4846]},"properties":{"site":"KJAX","name":"Jacksonville FL","scan_time":"2026-08-26T10:00:46Z","stale":false,"bins":25,"density_birds_km3":23.201875,"heading_deg":223.75926461046816,"speed_ms":4.233936912426259,"peak_altitude_m":0.0,"u_ms":-2.7223220106133663,"v_ms":-2.989516202893085}},{"type":"Feature","geometry":{"type":"Point","coordinates":[-88.0847,41.6045]},"properties":{"site":"KLOT","name":"Chicago IL","scan_time":"2026-08-26T09:58:12Z","stale":false,"bins":25,"density_birds_km3":0.696,"heading_deg":49.90402359497059,"speed_ms":12.443288461538462,"peak_altitude_m":200.0,"u_ms":9.102317307692308,"v_ms":7.410894230769229}},{"type":"Feature","geometry":{"type":"Point","coordinates":[-78.4292,33.9892]},"properties":{"site":"KLTX","name":"Wilmington NC","scan_time":"2026-08-26T09:59:25Z","stale":false,"bins":25,"density_birds_km3":3.93375,"heading_deg":252.10623751473327,"speed_ms":10.179336726578654,"peak_altitude_m":200.0,"u_ms":-9.666540480356291,"v_ms":-3.097832034356609}},{"type":"Feature","geometry":{"type":"Point","coordinates":[-77.4778,38.9753]},"properties":{"site":"KLWX","name":"Sterling VA","scan_time":"2026-08-26T09:58:10Z","stale":false,"bins":25,"density_birds_km3":5.9193750000000005,"heading_deg":234.53450393960793,"speed_ms":6.752964569011105,"peak_altitude_m":400.0,"u_ms":-5.5040042305658385,"v_ms":-3.8581300898995243}},{"type":"Feature","geometry":{"type":"Point","coordinates":[-76.8762,34.7759]},"properties":{"site":"KMHX","name":"Morehead City NC","scan_time":"2026-08-26T10:01:08Z","stale":false,"bins":25,"density_birds_km3":0.635,"heading_deg":268.8301621396668,"speed_ms":1.899488188976378,"peak_altitude_m":200.0,"u_ms":-1.78869094488189,"v_ms":-0.09314960629921258}},{"type":"Feature","geometry":{"type":"Point","coordinates":[-80.6542,28.1133]},"properties":{"site":"KMLB","name":"Melbourne FL","scan_time":"2026-08-26T10:01:24Z","stale":false,"bins":25,"density_birds_km3":3.1174999999999997,"heading_deg":216.78088906175262,"speed_ms":1.6807618283881316,"peak_altitude_m":0.0,"u_ms":-0.6144667201283079,"v_ms":-0.7642101042502004}},{"type":"Feature","geometry":{"type":"Point","coordinates":[-86.5625,36.2472]},"properties":{"site":"KOHX","name":"Nashville TN","scan_time":"2026-08-26T09:56:40Z","stale":false,"bins":25,"density_birds_km3":5.7219999999999995,"heading_deg":304.47495529748306,"speed_ms":3.4400792263777236,"peak_altitude_m":200.0,"u_ms":0.3291588022835838,"v_ms":-0.2564953978795293}},{"type":"Feature","geometry":{"type":"Point","coordinates":[-72.8639,40.8655]},"properties":{"site":"KOKX","name":"Upton NY","scan_time":"2026-08-26T10:04:04Z","stale":false,"bins":25,"density_birds_km3":10.90125,"heading_deg":182.37956174572074,"speed_ms":5.853927281068992,"peak_altitude_m":0.0,"u_ms":-0.2465246315306532,"v_ms":-5.822236049779205}},{"type":"Feature","geometry":{"type":"Point","coordinates":[-80.2183,40.5317]},"properties":{"site":"KPBZ","name":"Pittsburgh PA","scan_time":"2026-08-26T10:01:49Z","stale":false,"bins":25,"density_birds_km3":3.0542857142857143,"heading_deg":260.62335043318205,"speed_ms":3.8949006152389978,"peak_altitude_m":600.0,"u_ms":-3.460967818267866,"v_ms":-0.7007714150496924}},{"type":"Feature","geometry":{"type":"Point","coordinates":[-78.4899,35.6655]},"properties":{"site":"KRAX","name":"Raleigh NC","scan_time":"2026-08-26T09:58:44Z","stale":false,"bins":25,"density_birds_km3":1.3925,"heading_deg":278.8342882820716,"speed_ms":3.5405610412926385,"peak_altitude_m":200.0,"u_ms":-3.4059829443447036,"v_ms":0.4020511669658886}},{"type":"Feature","geometry":{"type":"Point","coordinates":[-82.4017,27.7055]},"properties":{"site":"KTBW","name":"Tampa FL","scan_time":"2026-08-26T09:59:18Z","stale":false,"bins":25,"density_birds_km3":1.465,"heading_deg":277.3148548240039,"speed_ms":2.190119760479042,"peak_altitude_m":0.0,"u_ms":-1.521852010265184,"v_ms":0.6903892215568862}}]}