{"type":"FeatureCollection","frame":"2026-08-14T11","site_count":20,"fresh_count":19,"failures":{"KJAX":"RuntimeError('no scan within 20 min of 2026-08-14T11:00Z')"},"features":[{"type":"Feature","geometry":{"type":"Point","coordinates":[-77.0073,36.984]},"properties":{"site":"KAKQ","name":"Wakefield VA","scan_time":"2026-08-14T10:58:22Z","stale":false,"bins":25,"density_birds_km3":0.49937499999999996,"heading_deg":60.309366340611696,"speed_ms":2.8319899874843553,"peak_altitude_m":0.0,"u_ms":2.255431789737172,"v_ms":1.4192866082603253}},{"type":"Feature","geometry":{"type":"Point","coordinates":[-71.1369,41.9558]},"properties":{"site":"KBOX","name":"Boston MA","scan_time":"2026-08-14T11:00:43Z","stale":false,"bins":25,"density_birds_km3":3.9050000000000002,"heading_deg":176.38486722588914,"speed_ms":9.690949559647718,"peak_altitude_m":0.0,"u_ms":0.6040160128102481,"v_ms":-9.664041633306645}},{"type":"Feature","geometry":{"type":"Point","coordinates":[-78.7369,42.9489]},"properties":{"site":"KBUF","name":"Buffalo NY","scan_time":"2026-08-14T11:02:13Z","stale":false,"bins":25,"density_birds_km3":1.9666666666666666,"heading_deg":162.03492503663426,"speed_ms":2.7450101694915254,"peak_altitude_m":200.0,"u_ms":1.1709389830508474,"v_ms":-2.057983050847458}},{"type":"Feature","geometry":{"type":"Point","coordinates":[-81.8597,41.4131]},"properties":{"site":"KCLE","name":"Cleveland OH","scan_time":"2026-08-14T11:01:34Z","stale":false,"bins":25,"density_birds_km3":5.069333333333333,"heading_deg":275.86775674249174,"speed_ms":3.833375854813257,"peak_altitude_m":200.0,"u_ms":-3.2542635455023676,"v_ms":0.3257548658600737}},{"type":"Feature","geometry":{"type":"Point","coordinates":[-81.0423,32.6555]},"properties":{"site":"KCLX","name":"Charleston SC","scan_time":"2026-08-14T10:59:08Z","stale":false,"bins":25,"density_birds_km3":0.50625,"heading_deg":82.2299439072189,"speed_ms":4.65846913580247,"peak_altitude_m":0.0,"u_ms":4.449753086419753,"v_ms":0.41401234567901235}},{"type":"Feature","geometry":{"type":"Point","coordinates":[-74.4108,39.947]},"properties":{"site":"KDIX","name":"Philadelphia PA","scan_time":"2026-08-14T10:57:48Z","stale":false,"bins":25,"density_birds_km3":5.22,"heading_deg":216.4913179830521,"speed_ms":7.314308677785835,"peak_altitude_m":200.0,"u_ms":-4.364642252840223,"v_ms":-5.765896785109984}},{"type":"Feature","geometry":{"type":"Point","coordinates":[-84.5658,33.3636]},"properties":{"site":"KFFC","name":"Atlanta GA","scan_time":"2026-08-14T11:01:02Z","stale":false,"bins":25,"density_birds_km3":1.3906666666666667,"heading_deg":115.9690417284559,"speed_ms":6.741351869606903,"peak_altitude_m":200.0,"u_ms":5.9849280920421855,"v_ms":-2.8695254074784278}},{"type":"Feature","geometry":{"type":"Point","coordinates":[-85.5449,42.8939]},"properties":{"site":"KGRR","name":"Grand Rapids MI","scan_time":"2026-08-14T10:58:05Z","stale":false,"bins":25,"density_birds_km3":4.939333333333334,"heading_deg":237.04657942151476,"speed_ms":8.285295636808481,"peak_altitude_m":200.0,"u_ms":-6.96218431425853,"v_ms":-4.427490825064565}},{"type":"Feature","geometry":{"type":"Point","coordinates":[-83.8217,39.4203]},"properties":{"site":"KILN","name":"Wilmington OH","scan_time":"2026-08-14T11:00:58Z","stale":false,"bins":25,"density_birds_km3":2.2126666666666663,"heading_deg":131.71872167745298,"speed_ms":4.330562480997263,"peak_altitude_m":200.0,"u_ms":3.468358163575555,"v_ms":-2.4544147157190634}},{"type":"Feature","geometry":{"type":"Point","coordinates":[-88.0847,41.6045]},"properties":{"site":"KLOT","name":"Chicago IL","scan_time":"2026-08-14T11:00:26Z","stale":false,"bins":25,"density_birds_km3":0.6586666666666666,"heading_deg":274.2116904981168,"speed_ms":6.951205673758865,"peak_altitude_m":200.0,"u_ms":-6.867355623100305,"v_ms":0.5184397163120568}},{"type":"Feature","geometry":{"type":"Point","coordinates":[-78.4292,33.9892]},"properties":{"site":"KLTX","name":"Wilmington NC","scan_time":"2026-08-14T11:00:13Z","stale":false,"bins":25,"density_birds_km3":0.446875,"heading_deg":92.3607426253238,"speed_ms":5.970979020979021,"peak_altitude_m":0.0,"u_ms":5.627160839160839,"v_ms":-0.3543076923076924}},{"type":"Feature","geometry":{"type":"Point","coordinates":[-77.4778,38.9753]},"properties":{"site":"KLWX","name":"Sterling VA","scan_time":"2026-08-14T10:59:12Z","stale":false,"bins":25,"density_birds_km3":4.297499999999999,"heading_deg":204.53225426903907,"speed_ms":6.605567220764071,"peak_altitude_m":0.0,"u_ms":-2.637357830271216,"v_ms":-5.927777777777778}},{"type":"Feature","geometry":{"type":"Point","coordinates":[-76.8762,34.7759]},"properties":{"site":"KMHX","name":"Morehead City NC","scan_time":"2026-08-14T10:57:45Z","stale":false,"bins":25,"density_birds_km3":0.58375,"heading_deg":57.041697001886526,"speed_ms":3.8088432432432433,"peak_altitude_m":0.0,"u_ms":2.973491891891892,"v_ms":1.9882702702702704}},{"type":"Feature","geometry":{"type":"Point","coordinates":[-80.6542,28.1133]},"properties":{"site":"KMLB","name":"Melbourne FL","scan_time":"2026-08-14T10:57:40Z","stale":false,"bins":25,"density_birds_km3":3.26375,"heading_deg":96.03349179331548,"speed_ms":3.4411343169189497,"peak_altitude_m":0.0,"u_ms":3.3635485725234715,"v_ms":-0.2882621191799195}},{"type":"Feature","geometry":{"type":"Point","coordinates":[-86.5625,36.2472]},"properties":{"site":"KOHX","name":"Nashville TN","scan_time":"2026-08-14T11:03:43Z","stale":false,"bins":25,"density_birds_km3":8.346,"heading_deg":105.92491406180717,"speed_ms":5.432433101685438,"peak_altitude_m":200.0,"u_ms":4.821080757248982,"v_ms":-1.884170460899433}},{"type":"Feature","geometry":{"type":"Point","coordinates":[-72.8639,40.8655]},"properties":{"site":"KOKX","name":"Upton NY","scan_time":"2026-08-14T10:56:14Z","stale":false,"bins":25,"density_birds_km3":13.343125,"heading_deg":183.86455176514355,"speed_ms":7.828471773249005,"peak_altitude_m":200.0,"u_ms":-0.5516870461466387,"v_ms":-7.788618411806043}},{"type":"Feature","geometry":{"type":"Point","coordinates":[-80.2183,40.5317]},"properties":{"site":"KPBZ","name":"Pittsburgh PA","scan_time":"2026-08-14T11:02:24Z","stale":false,"bins":25,"density_birds_km3":1.4507142857142858,"heading_deg":279.2738312740349,"speed_ms":5.944066962087641,"peak_altitude_m":400.0,"u_ms":-5.746376169374692,"v_ms":0.9706696208764154}},{"type":"Feature","geometry":{"type":"Point","coordinates":[-78.4899,35.6655]},"properties":{"site":"KRAX","name":"Raleigh NC","scan_time":"2026-08-14T10:58:32Z","stale":false,"bins":25,"density_birds_km3":1.726875,"heading_deg":139.88584589567466,"speed_ms":5.487459283387622,"peak_altitude_m":0.0,"u_ms":3.4510314875135726,"v_ms":-4.197046688382193}},{"type":"Feature","geometry":{"type":"Point","coordinates":[-82.4017,27.7055]},"properties":{"site":"KTBW","name":"Tampa FL","scan_time":"2026-08-14T11:03:03Z","stale":false,"bins":25,"density_birds_km3":4.54875,"heading_deg":198.88911105660034,"speed_ms":3.8471738831615125,"peak_altitude_m":0.0,"u_ms":-1.21513264604811,"v_ms":-3.636008247422681}}]}