{"type":"FeatureCollection","frame":"2026-08-28T07","site_count":20,"fresh_count":20,"failures":{},"features":[{"type":"Feature","geometry":{"type":"Point","coordinates":[-77.0073,36.984]},"properties":{"site":"KAKQ","name":"Wakefield VA","scan_time":"2026-08-28T06:59:46Z","stale":false,"bins":25,"density_birds_km3":2.7225,"heading_deg":90.5631736302635,"speed_ms":5.465999081304548,"peak_altitude_m":200.0,"u_ms":5.269200734956363,"v_ms":-0.07305695911805227}},{"type":"Feature","geometry":{"type":"Point","coordinates":[-71.1369,41.9558]},"properties":{"site":"KBOX","name":"Boston MA","scan_time":"2026-08-28T07:02:11Z","stale":false,"bins":25,"density_birds_km3":0.364375,"heading_deg":21.327030706036435,"speed_ms":6.369810344827587,"peak_altitude_m":0.0,"u_ms":2.343396551724138,"v_ms":5.7125}},{"type":"Feature","geometry":{"type":"Point","coordinates":[-78.7369,42.9489]},"properties":{"site":"KBUF","name":"Buffalo NY","scan_time":"2026-08-28T06:57:08Z","stale":false,"bins":25,"density_birds_km3":11.808666666666666,"heading_deg":167.7647345346702,"speed_ms":8.5624400158076,"peak_altitude_m":400.0,"u_ms":1.6437593857618698,"v_ms":-8.31803195393214}},{"type":"Feature","geometry":{"type":"Point","coordinates":[-81.8597,41.4131]},"properties":{"site":"KCLE","name":"Cleveland OH","scan_time":"2026-08-28T06:57:39Z","stale":false,"bins":25,"density_birds_km3":11.094,"heading_deg":202.95595237166336,"speed_ms":6.563022724540098,"peak_altitude_m":600.0,"u_ms":-3.047609113863172,"v_ms":-5.413785619814837}},{"type":"Feature","geometry":{"type":"Point","coordinates":[-81.0423,32.6555]},"properties":{"site":"KCLX","name":"Charleston SC","scan_time":"2026-08-28T06:58:53Z","stale":false,"bins":25,"density_birds_km3":0.96875,"heading_deg":70.21296558499509,"speed_ms":3.8970284237726096,"peak_altitude_m":200.0,"u_ms":3.2646834625323,"v_ms":1.2963695090439278}},{"type":"Feature","geometry":{"type":"Point","coordinates":[-74.4108,39.947]},"properties":{"site":"KDIX","name":"Philadelphia PA","scan_time":"2026-08-28T07:02:13Z","stale":false,"bins":25,"density_birds_km3":5.250624999999999,"heading_deg":233.13462147384297,"speed_ms":3.89911750541777,"peak_altitude_m":200.0,"u_ms":-2.644156031784252,"v_ms":-2.3052070792198407}},{"type":"Feature","geometry":{"type":"Point","coordinates":[-84.5658,33.3636]},"properties":{"site":"KFFC","name":"Atlanta GA","scan_time":"2026-08-28T07:00:53Z","stale":false,"bins":25,"density_birds_km3":15.68,"heading_deg":175.83973636292853,"speed_ms":4.421549780972228,"peak_altitude_m":1400.0,"u_ms":0.3728784076893633,"v_ms":-3.0530799982988133}},{"type":"Feature","geometry":{"type":"Point","coordinates":[-85.5449,42.8939]},"properties":{"site":"KGRR","name":"Grand Rapids MI","scan_time":"2026-08-28T07:02:02Z","stale":false,"bins":25,"density_birds_km3":23.81933333333333,"heading_deg":232.8452762586549,"speed_ms":10.334058607853564,"peak_altitude_m":400.0,"u_ms":-8.108948753113717,"v_ms":-6.129195051638725}},{"type":"Feature","geometry":{"type":"Point","coordinates":[-83.8217,39.4203]},"properties":{"site":"KILN","name":"Wilmington OH","scan_time":"2026-08-28T07:00:52Z","stale":false,"bins":25,"density_birds_km3":41.394,"heading_deg":201.2366240410316,"speed_ms":8.227063664621282,"peak_altitude_m":400.0,"u_ms":-2.955247298320207,"v_ms":-7.527094909085053}},{"type":"Feature","geometry":{"type":"Point","coordinates":[-81.7019,30.4846]},"properties":{"site":"KJAX","name":"Jacksonville FL","scan_time":"2026-08-28T07:01:05Z","stale":false,"bins":25,"density_birds_km3":8.35,"heading_deg":144.01609916209648,"speed_ms":3.650321131821244,"peak_altitude_m":0.0,"u_ms":2.1948731192454525,"v_ms":-2.811327943708361}},{"type":"Feature","geometry":{"type":"Point","coordinates":[-88.0847,41.6045]},"properties":{"site":"KLOT","name":"Chicago IL","scan_time":"2026-08-28T07:01:16Z","stale":false,"bins":25,"density_birds_km3":19.050666666666665,"heading_deg":230.15629078866698,"speed_ms":7.768037742504409,"peak_altitude_m":400.0,"u_ms":-4.116658906525574,"v_ms":-3.61869770723104}},{"type":"Feature","geometry":{"type":"Point","coordinates":[-78.4292,33.9892]},"properties":{"site":"KLTX","name":"Wilmington NC","scan_time":"2026-08-28T06:57:43Z","stale":false,"bins":25,"density_birds_km3":0.864375,"heading_deg":106.69158042543674,"speed_ms":3.555910447761194,"peak_altitude_m":0.0,"u_ms":3.3422537313432836,"v_ms":-0.8707462686567163}},{"type":"Feature","geometry":{"type":"Point","coordinates":[-77.4778,38.9753]},"properties":{"site":"KLWX","name":"Sterling VA","scan_time":"2026-08-28T07:00:38Z","stale":false,"bins":25,"density_birds_km3":15.053125,"heading_deg":204.62728046639157,"speed_ms":5.544727803133674,"peak_altitude_m":200.0,"u_ms":-2.4451244530183973,"v_ms":-4.852870183032984}},{"type":"Feature","geometry":{"type":"Point","coordinates":[-76.8762,34.7759]},"properties":{"site":"KMHX","name":"Morehead City NC","scan_time":"2026-08-28T07:00:27Z","stale":false,"bins":25,"density_birds_km3":0.3225,"heading_deg":69.69636820545618,"speed_ms":8.625401174168296,"peak_altitude_m":0.0,"u_ms":8.065264187866928,"v_ms":3.0241682974559687}},{"type":"Feature","geometry":{"type":"Point","coordinates":[-80.6542,28.1133]},"properties":{"site":"KMLB","name":"Melbourne FL","scan_time":"2026-08-28T07:00:29Z","stale":false,"bins":25,"density_birds_km3":2.791875,"heading_deg":79.65569120830675,"speed_ms":1.4629131213613973,"peak_altitude_m":200.0,"u_ms":0.8547984773846844,"v_ms":-0.11952754142409314}},{"type":"Feature","geometry":{"type":"Point","coordinates":[-86.5625,36.2472]},"properties":{"site":"KOHX","name":"Nashville TN","scan_time":"2026-08-28T06:58:12Z","stale":false,"bins":25,"density_birds_km3":43.06133333333333,"heading_deg":199.79374025983316,"speed_ms":6.737021302947734,"peak_altitude_m":400.0,"u_ms":-2.3111614441416894,"v_ms":-6.193634196185287}},{"type":"Feature","geometry":{"type":"Point","coordinates":[-72.8639,40.8655]},"properties":{"site":"KOKX","name":"Upton NY","scan_time":"2026-08-28T06:58:53Z","stale":false,"bins":25,"density_birds_km3":0.48750000000000004,"heading_deg":351.685181702441,"speed_ms":3.2771725032425416,"peak_altitude_m":0.0,"u_ms":-0.37368352788586245,"v_ms":2.9119974059662774}},{"type":"Feature","geometry":{"type":"Point","coordinates":[-80.2183,40.5317]},"properties":{"site":"KPBZ","name":"Pittsburgh PA","scan_time":"2026-08-28T06:58:57Z","stale":false,"bins":25,"density_birds_km3":25.824285714285715,"heading_deg":214.7808307673282,"speed_ms":8.270826693227091,"peak_altitude_m":600.0,"u_ms":-4.81668077689243,"v_ms":-6.607875442673749}},{"type":"Feature","geometry":{"type":"Point","coordinates":[-78.4899,35.6655]},"properties":{"site":"KRAX","name":"Raleigh NC","scan_time":"2026-08-28T07:01:47Z","stale":false,"bins":25,"density_birds_km3":1.444375,"heading_deg":110.30178006036355,"speed_ms":4.494701298701298,"peak_altitude_m":0.0,"u_ms":4.227082251082251,"v_ms":-0.9053116883116883}},{"type":"Feature","geometry":{"type":"Point","coordinates":[-82.4017,27.7055]},"properties":{"site":"KTBW","name":"Tampa FL","scan_time":"2026-08-28T06:58:05Z","stale":false,"bins":25,"density_birds_km3":2.255,"heading_deg":342.08467565816375,"speed_ms":3.2401165695253953,"peak_altitude_m":200.0,"u_ms":-1.1434859839023035,"v_ms":2.715675825700805}}]}