{"type":"FeatureCollection","frame":"2026-08-22T04","site_count":20,"fresh_count":20,"failures":{},"features":[{"type":"Feature","geometry":{"type":"Point","coordinates":[-77.0073,36.984]},"properties":{"site":"KAKQ","name":"Wakefield VA","scan_time":"2026-08-22T04:00:33Z","stale":false,"bins":25,"density_birds_km3":7.527500000000001,"heading_deg":256.30185157667614,"speed_ms":4.251715519388857,"peak_altitude_m":200.0,"u_ms":-3.1082172216225192,"v_ms":-1.0272058457195052}},{"type":"Feature","geometry":{"type":"Point","coordinates":[-71.1369,41.9558]},"properties":{"site":"KBOX","name":"Boston MA","scan_time":"2026-08-22T04:00:17Z","stale":false,"bins":25,"density_birds_km3":5.556875000000001,"heading_deg":203.3196308451947,"speed_ms":9.013942361814703,"peak_altitude_m":200.0,"u_ms":-3.4766767983789264,"v_ms":-8.089528312507037}},{"type":"Feature","geometry":{"type":"Point","coordinates":[-78.7369,42.9489]},"properties":{"site":"KBUF","name":"Buffalo NY","scan_time":"2026-08-22T03:59:02Z","stale":false,"bins":25,"density_birds_km3":1.5633333333333332,"heading_deg":306.5593577868358,"speed_ms":9.161078891257997,"peak_altitude_m":200.0,"u_ms":-7.332063965884862,"v_ms":4.975816631130065}},{"type":"Feature","geometry":{"type":"Point","coordinates":[-81.8597,41.4131]},"properties":{"site":"KCLE","name":"Cleveland OH","scan_time":"2026-08-22T03:59:59Z","stale":false,"bins":25,"density_birds_km3":2.908666666666667,"heading_deg":329.099836539764,"speed_ms":9.638228283291312,"peak_altitude_m":200.0,"u_ms":-4.96914737565895,"v_ms":8.109216135686454}},{"type":"Feature","geometry":{"type":"Point","coordinates":[-81.0423,32.6555]},"properties":{"site":"KCLX","name":"Charleston SC","scan_time":"2026-08-22T04:02:11Z","stale":false,"bins":25,"density_birds_km3":4.93625,"heading_deg":207.02945621017741,"speed_ms":2.67344434595416,"peak_altitude_m":200.0,"u_ms":-0.873768519691022,"v_ms":-2.003836900088641}},{"type":"Feature","geometry":{"type":"Point","coordinates":[-74.4108,39.947]},"properties":{"site":"KDIX","name":"Philadelphia PA","scan_time":"2026-08-22T03:59:54Z","stale":false,"bins":25,"density_birds_km3":14.22125,"heading_deg":221.9634116900464,"speed_ms":7.109663283318623,"peak_altitude_m":400.0,"u_ms":-4.6773442188879075,"v_ms":-5.175680935569285}},{"type":"Feature","geometry":{"type":"Point","coordinates":[-84.5658,33.3636]},"properties":{"site":"KFFC","name":"Atlanta GA","scan_time":"2026-08-22T03:59:17Z","stale":false,"bins":25,"density_birds_km3":13.241333333333333,"heading_deg":176.11655701267844,"speed_ms":4.121267938969736,"peak_altitude_m":1400.0,"u_ms":0.3637207311546402,"v_ms":-2.3643975023918626}},{"type":"Feature","geometry":{"type":"Point","coordinates":[-85.5449,42.8939]},"properties":{"site":"KGRR","name":"Grand Rapids MI","scan_time":"2026-08-22T04:01:09Z","stale":false,"bins":25,"density_birds_km3":1.6173333333333335,"heading_deg":26.91750615908603,"speed_ms":6.404569072164948,"peak_altitude_m":200.0,"u_ms":2.7765773195876293,"v_ms":5.161942268041237}},{"type":"Feature","geometry":{"type":"Point","coordinates":[-83.8217,39.4203]},"properties":{"site":"KILN","name":"Wilmington OH","scan_time":"2026-08-22T03:58:33Z","stale":false,"bins":25,"density_birds_km3":8.494666666666667,"heading_deg":330.97634955462865,"speed_ms":5.403011301208602,"peak_altitude_m":400.0,"u_ms":-2.6786964369800654,"v_ms":3.717334798304819}},{"type":"Feature","geometry":{"type":"Point","coordinates":[-81.7019,30.4846]},"properties":{"site":"KJAX","name":"Jacksonville FL","scan_time":"2026-08-22T04:01:52Z","stale":false,"bins":25,"density_birds_km3":14.051250000000001,"heading_deg":194.73188735888246,"speed_ms":5.730193380796613,"peak_altitude_m":200.0,"u_ms":-0.684647392726573,"v_ms":-5.276580238599192}},{"type":"Feature","geometry":{"type":"Point","coordinates":[-88.0847,41.6045]},"properties":{"site":"KLOT","name":"Chicago IL","scan_time":"2026-08-22T04:02:21Z","stale":false,"bins":25,"density_birds_km3":1.2953333333333332,"heading_deg":79.05574013404298,"speed_ms":8.598481729284611,"peak_altitude_m":200.0,"u_ms":8.256845084920226,"v_ms":1.4177817807514153}},{"type":"Feature","geometry":{"type":"Point","coordinates":[-78.4292,33.9892]},"properties":{"site":"KLTX","name":"Wilmington NC","scan_time":"2026-08-22T03:58:00Z","stale":false,"bins":25,"density_birds_km3":3.1306249999999998,"heading_deg":null,"speed_ms":null,"peak_altitude_m":200.0,"u_ms":null,"v_ms":null}},{"type":"Feature","geometry":{"type":"Point","coordinates":[-77.4778,38.9753]},"properties":{"site":"KLWX","name":"Sterling VA","scan_time":"2026-08-22T04:00:52Z","stale":false,"bins":25,"density_birds_km3":12.474375,"heading_deg":263.2957131658658,"speed_ms":3.6935153823028357,"peak_altitude_m":200.0,"u_ms":-3.363938270367772,"v_ms":-0.4408878645154825}},{"type":"Feature","geometry":{"type":"Point","coordinates":[-76.8762,34.7759]},"properties":{"site":"KMHX","name":"Morehead City NC","scan_time":"2026-08-22T03:58:29Z","stale":false,"bins":25,"density_birds_km3":2.176875,"heading_deg":167.91834707235813,"speed_ms":3.617283950617284,"peak_altitude_m":200.0,"u_ms":1.1415790984783232,"v_ms":-3.1924863623313238}},{"type":"Feature","geometry":{"type":"Point","coordinates":[-80.6542,28.1133]},"properties":{"site":"KMLB","name":"Melbourne FL","scan_time":"2026-08-22T04:01:24Z","stale":false,"bins":25,"density_birds_km3":5.773125,"heading_deg":0.638739658027088,"speed_ms":3.041277082199238,"peak_altitude_m":200.0,"u_ms":0.16893630919978225,"v_ms":2.783843222645618}},{"type":"Feature","geometry":{"type":"Point","coordinates":[-86.5625,36.2472]},"properties":{"site":"KOHX","name":"Nashville TN","scan_time":"2026-08-22T04:01:25Z","stale":false,"bins":25,"density_birds_km3":50.59733333333334,"heading_deg":220.49206530682338,"speed_ms":6.485203831558975,"peak_altitude_m":400.0,"u_ms":-4.211677163486877,"v_ms":-4.827919653209655}},{"type":"Feature","geometry":{"type":"Point","coordinates":[-72.8639,40.8655]},"properties":{"site":"KOKX","name":"Upton NY","scan_time":"2026-08-22T04:03:24Z","stale":false,"bins":25,"density_birds_km3":3.456875,"heading_deg":229.79841672026907,"speed_ms":5.74,"peak_altitude_m":200.0,"u_ms":-4.291047463175123,"v_ms":-3.6262720494635388}},{"type":"Feature","geometry":{"type":"Point","coordinates":[-80.2183,40.5317]},"properties":{"site":"KPBZ","name":"Pittsburgh PA","scan_time":"2026-08-22T03:59:04Z","stale":false,"bins":25,"density_birds_km3":9.844999999999999,"heading_deg":273.6749417193607,"speed_ms":6.222439962272365,"peak_altitude_m":400.0,"u_ms":-5.4398099107596325,"v_ms":0.047353261263875734}},{"type":"Feature","geometry":{"type":"Point","coordinates":[-78.4899,35.6655]},"properties":{"site":"KRAX","name":"Raleigh NC","scan_time":"2026-08-22T04:00:49Z","stale":false,"bins":25,"density_birds_km3":4.215625,"heading_deg":32.56135112937567,"speed_ms":2.0012412561393065,"peak_altitude_m":200.0,"u_ms":0.48435630302128296,"v_ms":0.09395148087513021}},{"type":"Feature","geometry":{"type":"Point","coordinates":[-82.4017,27.7055]},"properties":{"site":"KTBW","name":"Tampa FL","scan_time":"2026-08-22T03:59:26Z","stale":false,"bins":25,"density_birds_km3":5.263125,"heading_deg":219.65493051009318,"speed_ms":3.384783176903885,"peak_altitude_m":0.0,"u_ms":-1.0142093382440298,"v_ms":-2.7497493168587384}}]}