{"type":"FeatureCollection","frame":"2026-10-03T04","site_count":20,"fresh_count":19,"failures":{"KILN":"RuntimeError('no scan within 20 min of 2026-10-03T04:00Z')"},"features":[{"type":"Feature","geometry":{"type":"Point","coordinates":[-77.0073,36.984]},"properties":{"site":"KAKQ","name":"Wakefield VA","scan_time":"2026-10-03T04:00:04Z","stale":false,"bins":25,"density_birds_km3":6.885625,"heading_deg":109.26417856694378,"speed_ms":12.177038685070832,"peak_altitude_m":0.0,"u_ms":10.062375590265164,"v_ms":-3.715233381765347}},{"type":"Feature","geometry":{"type":"Point","coordinates":[-71.1369,41.9558]},"properties":{"site":"KBOX","name":"Boston MA","scan_time":"2026-10-03T04:00:20Z","stale":false,"bins":25,"density_birds_km3":26.661875,"heading_deg":192.68157702282497,"speed_ms":12.649880857451098,"peak_altitude_m":400.0,"u_ms":-2.87943782541395,"v_ms":-12.291037806651342}},{"type":"Feature","geometry":{"type":"Point","coordinates":[-78.7369,42.9489]},"properties":{"site":"KBUF","name":"Buffalo NY","scan_time":"2026-10-03T03:59:33Z","stale":false,"bins":25,"density_birds_km3":163.46,"heading_deg":187.42364134364868,"speed_ms":15.415534646600594,"peak_altitude_m":400.0,"u_ms":-2.027418614135976,"v_ms":-15.164598026020638}},{"type":"Feature","geometry":{"type":"Point","coordinates":[-81.8597,41.4131]},"properties":{"site":"KCLE","name":"Cleveland OH","scan_time":"2026-10-03T03:58:32Z","stale":false,"bins":25,"density_birds_km3":62.792,"heading_deg":196.1229875074297,"speed_ms":14.381389136620376,"peak_altitude_m":200.0,"u_ms":-4.104992249543466,"v_ms":-13.678901133902407}},{"type":"Feature","geometry":{"type":"Point","coordinates":[-81.0423,32.6555]},"properties":{"site":"KCLX","name":"Charleston SC","scan_time":"2026-10-03T04:00:30Z","stale":false,"bins":25,"density_birds_km3":3.485625,"heading_deg":16.223896622997096,"speed_ms":2.6157686676427527,"peak_altitude_m":0.0,"u_ms":0.6003440702781846,"v_ms":2.5289860907759887}},{"type":"Feature","geometry":{"type":"Point","coordinates":[-74.4108,39.947]},"properties":{"site":"KDIX","name":"Philadelphia PA","scan_time":"2026-10-03T04:01:33Z","stale":false,"bins":25,"density_birds_km3":39.82,"heading_deg":195.6095025288539,"speed_ms":11.850813414423333,"peak_altitude_m":600.0,"u_ms":-3.268104285512234,"v_ms":-11.310926720412365}},{"type":"Feature","geometry":{"type":"Point","coordinates":[-84.5658,33.3636]},"properties":{"site":"KFFC","name":"Atlanta GA","scan_time":"2026-10-03T04:01:54Z","stale":false,"bins":25,"density_birds_km3":11.235333333333333,"heading_deg":146.64843612083186,"speed_ms":6.698953723530812,"peak_altitude_m":400.0,"u_ms":-0.23651023078753272,"v_ms":-0.18774744230311688}},{"type":"Feature","geometry":{"type":"Point","coordinates":[-85.5449,42.8939]},"properties":{"site":"KGRR","name":"Grand Rapids MI","scan_time":"2026-10-03T03:57:04Z","stale":false,"bins":25,"density_birds_km3":144.50933333333333,"heading_deg":204.71246850630075,"speed_ms":13.387174044428043,"peak_altitude_m":400.0,"u_ms":-5.591896749786626,"v_ms":-11.963326428456092}},{"type":"Feature","geometry":{"type":"Point","coordinates":[-81.7019,30.4846]},"properties":{"site":"KJAX","name":"Jacksonville FL","scan_time":"2026-10-03T03:58:31Z","stale":false,"bins":25,"density_birds_km3":7.820625,"heading_deg":210.91138553378966,"speed_ms":4.179100201207244,"peak_altitude_m":0.0,"u_ms":-2.115061569416499,"v_ms":-3.4860925553319917}},{"type":"Feature","geometry":{"type":"Point","coordinates":[-88.0847,41.6045]},"properties":{"site":"KLOT","name":"Chicago IL","scan_time":"2026-10-03T03:57:00Z","stale":false,"bins":25,"density_birds_km3":112.904,"heading_deg":198.95201311856994,"speed_ms":10.297267176834596,"peak_altitude_m":400.0,"u_ms":-2.7789718699071777,"v_ms":-9.47340011573254}},{"type":"Feature","geometry":{"type":"Point","coordinates":[-78.4292,33.9892]},"properties":{"site":"KLTX","name":"Wilmington NC","scan_time":"2026-10-03T03:58:41Z","stale":false,"bins":25,"density_birds_km3":4.005,"heading_deg":54.50757077848497,"speed_ms":8.637262369283597,"peak_altitude_m":0.0,"u_ms":6.586561573279226,"v_ms":4.601926018417356}},{"type":"Feature","geometry":{"type":"Point","coordinates":[-77.4778,38.9753]},"properties":{"site":"KLWX","name":"Sterling VA","scan_time":"2026-10-03T04:00:35Z","stale":false,"bins":25,"density_birds_km3":129.966875,"heading_deg":205.54892957377675,"speed_ms":10.587725363333494,"peak_altitude_m":400.0,"u_ms":-4.597654241707305,"v_ms":-9.357375307807446}},{"type":"Feature","geometry":{"type":"Point","coordinates":[-76.8762,34.7759]},"properties":{"site":"KMHX","name":"Morehead City NC","scan_time":"2026-10-03T03:58:10Z","stale":false,"bins":25,"density_birds_km3":3.43875,"heading_deg":76.65627824859087,"speed_ms":9.874536026200872,"peak_altitude_m":0.0,"u_ms":8.673316957787483,"v_ms":2.867543668122271}},{"type":"Feature","geometry":{"type":"Point","coordinates":[-80.6542,28.1133]},"properties":{"site":"KMLB","name":"Melbourne FL","scan_time":"2026-10-03T04:00:22Z","stale":false,"bins":25,"density_birds_km3":1.4906249999999999,"heading_deg":283.5272685231057,"speed_ms":5.349924528301887,"peak_altitude_m":200.0,"u_ms":-5.189144654088051,"v_ms":1.2731027253668763}},{"type":"Feature","geometry":{"type":"Point","coordinates":[-86.5625,36.2472]},"properties":{"site":"KOHX","name":"Nashville TN","scan_time":"2026-10-03T04:00:44Z","stale":false,"bins":25,"density_birds_km3":21.51066666666667,"heading_deg":203.7412394964822,"speed_ms":6.775710345255067,"peak_altitude_m":400.0,"u_ms":-2.759892146531953,"v_ms":-5.688055538337569}},{"type":"Feature","geometry":{"type":"Point","coordinates":[-72.8639,40.8655]},"properties":{"site":"KOKX","name":"Upton NY","scan_time":"2026-10-03T03:57:36Z","stale":false,"bins":25,"density_birds_km3":34.64375,"heading_deg":197.36220395044847,"speed_ms":11.450124032978607,"peak_altitude_m":0.0,"u_ms":-3.1939763193258996,"v_ms":-10.811348745142194}},{"type":"Feature","geometry":{"type":"Point","coordinates":[-80.2183,40.5317]},"properties":{"site":"KPBZ","name":"Pittsburgh PA","scan_time":"2026-10-03T04:01:14Z","stale":false,"bins":25,"density_birds_km3":136.29928571428573,"heading_deg":212.23297566491226,"speed_ms":12.671813236627381,"peak_altitude_m":600.0,"u_ms":-6.849015244813148,"v_ms":-10.59299577086139}},{"type":"Feature","geometry":{"type":"Point","coordinates":[-78.4899,35.6655]},"properties":{"site":"KRAX","name":"Raleigh NC","scan_time":"2026-10-03T04:00:43Z","stale":false,"bins":25,"density_birds_km3":5.291875,"heading_deg":66.66916322713226,"speed_ms":9.375299397661509,"peak_altitude_m":200.0,"u_ms":6.510896421400732,"v_ms":2.308753986063541}},{"type":"Feature","geometry":{"type":"Point","coordinates":[-82.4017,27.7055]},"properties":{"site":"KTBW","name":"Tampa FL","scan_time":"2026-10-03T04:00:58Z","stale":false,"bins":25,"density_birds_km3":6.33875,"heading_deg":267.3499650783636,"speed_ms":7.410148900502908,"peak_altitude_m":0.0,"u_ms":-6.882493836899713,"v_ms":0.13252933635736133}}]}