{"type":"FeatureCollection","frame":"2026-08-22T05","site_count":20,"fresh_count":20,"failures":{},"features":[{"type":"Feature","geometry":{"type":"Point","coordinates":[-77.0073,36.984]},"properties":{"site":"KAKQ","name":"Wakefield VA","scan_time":"2026-08-22T04:58:42Z","stale":false,"bins":25,"density_birds_km3":5.924375,"heading_deg":234.33763666175594,"speed_ms":3.1430572575533486,"peak_altitude_m":200.0,"u_ms":-1.7984935558842174,"v_ms":-1.4878079442214243}},{"type":"Feature","geometry":{"type":"Point","coordinates":[-71.1369,41.9558]},"properties":{"site":"KBOX","name":"Boston MA","scan_time":"2026-08-22T04:59:55Z","stale":false,"bins":25,"density_birds_km3":7.099375,"heading_deg":190.72103849916405,"speed_ms":9.173154788124393,"peak_altitude_m":200.0,"u_ms":-1.6079111972513433,"v_ms":-8.851654479781516}},{"type":"Feature","geometry":{"type":"Point","coordinates":[-78.7369,42.9489]},"properties":{"site":"KBUF","name":"Buffalo NY","scan_time":"2026-08-22T05:00:43Z","stale":false,"bins":25,"density_birds_km3":1.494,"heading_deg":317.59548854484353,"speed_ms":9.105684962070505,"peak_altitude_m":200.0,"u_ms":-6.110896921017403,"v_ms":6.470428380187416}},{"type":"Feature","geometry":{"type":"Point","coordinates":[-81.8597,41.4131]},"properties":{"site":"KCLE","name":"Cleveland OH","scan_time":"2026-08-22T05:01:23Z","stale":false,"bins":25,"density_birds_km3":2.292,"heading_deg":342.21788093530165,"speed_ms":9.503096906012843,"peak_altitude_m":200.0,"u_ms":-2.786474022183304,"v_ms":8.917834208990076}},{"type":"Feature","geometry":{"type":"Point","coordinates":[-81.0423,32.6555]},"properties":{"site":"KCLX","name":"Charleston SC","scan_time":"2026-08-22T05:02:21Z","stale":false,"bins":25,"density_birds_km3":3.54,"heading_deg":158.00116968478477,"speed_ms":3.270703801945181,"peak_altitude_m":0.0,"u_ms":1.2490592396109637,"v_ms":-2.949450044208665}},{"type":"Feature","geometry":{"type":"Point","coordinates":[-74.4108,39.947]},"properties":{"site":"KDIX","name":"Philadelphia PA","scan_time":"2026-08-22T05:01:54Z","stale":false,"bins":25,"density_birds_km3":10.606250000000001,"heading_deg":219.501348828908,"speed_ms":6.245783822054398,"peak_altitude_m":400.0,"u_ms":-3.951473243259189,"v_ms":-4.741795976163784}},{"type":"Feature","geometry":{"type":"Point","coordinates":[-84.5658,33.3636]},"properties":{"site":"KFFC","name":"Atlanta GA","scan_time":"2026-08-22T05:00:42Z","stale":false,"bins":25,"density_birds_km3":17.680666666666664,"heading_deg":190.69370864760958,"speed_ms":4.238338675012255,"peak_altitude_m":1200.0,"u_ms":-0.8567271219033975,"v_ms":-3.048674258135063}},{"type":"Feature","geometry":{"type":"Point","coordinates":[-85.5449,42.8939]},"properties":{"site":"KGRR","name":"Grand Rapids MI","scan_time":"2026-08-22T04:58:06Z","stale":false,"bins":25,"density_birds_km3":1.1386666666666667,"heading_deg":14.659445590989371,"speed_ms":7.312845433255269,"peak_altitude_m":200.0,"u_ms":1.8127927400468382,"v_ms":6.6159074941451985}},{"type":"Feature","geometry":{"type":"Point","coordinates":[-83.8217,39.4203]},"properties":{"site":"KILN","name":"Wilmington OH","scan_time":"2026-08-22T04:58:47Z","stale":false,"bins":25,"density_birds_km3":6.013333333333334,"heading_deg":348.36698993949403,"speed_ms":5.273310421286031,"peak_altitude_m":200.0,"u_ms":-1.3909290465631927,"v_ms":3.7254711751662968}},{"type":"Feature","geometry":{"type":"Point","coordinates":[-81.7019,30.4846]},"properties":{"site":"KJAX","name":"Jacksonville FL","scan_time":"2026-08-22T05:01:41Z","stale":false,"bins":25,"density_birds_km3":11.958125,"heading_deg":171.67480972486493,"speed_ms":4.754780222651962,"peak_altitude_m":0.0,"u_ms":0.7874557048032195,"v_ms":-4.445917002038363}},{"type":"Feature","geometry":{"type":"Point","coordinates":[-88.0847,41.6045]},"properties":{"site":"KLOT","name":"Chicago IL","scan_time":"2026-08-22T05:00:20Z","stale":false,"bins":25,"density_birds_km3":2.3073333333333332,"heading_deg":106.85278275934527,"speed_ms":9.015293267841663,"peak_altitude_m":800.0,"u_ms":7.965535972262352,"v_ms":-2.7304391794279113}},{"type":"Feature","geometry":{"type":"Point","coordinates":[-78.4292,33.9892]},"properties":{"site":"KLTX","name":"Wilmington NC","scan_time":"2026-08-22T04:58:05Z","stale":false,"bins":25,"density_birds_km3":1.9313333333333333,"heading_deg":null,"speed_ms":null,"peak_altitude_m":200.0,"u_ms":null,"v_ms":null}},{"type":"Feature","geometry":{"type":"Point","coordinates":[-77.4778,38.9753]},"properties":{"site":"KLWX","name":"Sterling VA","scan_time":"2026-08-22T04:59:13Z","stale":false,"bins":25,"density_birds_km3":7.491875,"heading_deg":260.7726547306352,"speed_ms":3.4206723950946856,"peak_altitude_m":200.0,"u_ms":-3.200384583298573,"v_ms":-0.5563410361224659}},{"type":"Feature","geometry":{"type":"Point","coordinates":[-76.8762,34.7759]},"properties":{"site":"KMHX","name":"Morehead City NC","scan_time":"2026-08-22T04:59:50Z","stale":false,"bins":25,"density_birds_km3":1.6825,"heading_deg":229.29591580392864,"speed_ms":3.6547585438335806,"peak_altitude_m":200.0,"u_ms":-2.191589895988113,"v_ms":-2.215586924219911}},{"type":"Feature","geometry":{"type":"Point","coordinates":[-80.6542,28.1133]},"properties":{"site":"KMLB","name":"Melbourne FL","scan_time":"2026-08-22T05:00:47Z","stale":false,"bins":25,"density_birds_km3":4.546875,"heading_deg":25.552341321089763,"speed_ms":3.734369759450172,"peak_altitude_m":0.0,"u_ms":1.669512027491409,"v_ms":3.1711408934707905}},{"type":"Feature","geometry":{"type":"Point","coordinates":[-86.5625,36.2472]},"properties":{"site":"KOHX","name":"Nashville TN","scan_time":"2026-08-22T05:02:27Z","stale":false,"bins":25,"density_birds_km3":42.74133333333334,"heading_deg":221.64385637832848,"speed_ms":5.645334726728225,"peak_altitude_m":600.0,"u_ms":-3.7041081232842523,"v_ms":-4.062619322435737}},{"type":"Feature","geometry":{"type":"Point","coordinates":[-72.8639,40.8655]},"properties":{"site":"KOKX","name":"Upton NY","scan_time":"2026-08-22T04:56:26Z","stale":false,"bins":25,"density_birds_km3":2.6025,"heading_deg":224.97143804350304,"speed_ms":4.966265700483093,"peak_altitude_m":0.0,"u_ms":-3.416106280193237,"v_ms":-3.4200676328502415}},{"type":"Feature","geometry":{"type":"Point","coordinates":[-80.2183,40.5317]},"properties":{"site":"KPBZ","name":"Pittsburgh PA","scan_time":"2026-08-22T04:57:51Z","stale":false,"bins":25,"density_birds_km3":4.735714285714286,"heading_deg":277.5025909564297,"speed_ms":4.584914027149321,"peak_altitude_m":600.0,"u_ms":-3.319161387631976,"v_ms":0.7594193061840123}},{"type":"Feature","geometry":{"type":"Point","coordinates":[-78.4899,35.6655]},"properties":{"site":"KRAX","name":"Raleigh NC","scan_time":"2026-08-22T04:59:49Z","stale":false,"bins":25,"density_birds_km3":3.8175,"heading_deg":107.06198484114036,"speed_ms":1.6131153344512763,"peak_altitude_m":200.0,"u_ms":0.6462977454816471,"v_ms":-0.29487423141419794}},{"type":"Feature","geometry":{"type":"Point","coordinates":[-82.4017,27.7055]},"properties":{"site":"KTBW","name":"Tampa FL","scan_time":"2026-08-22T04:59:44Z","stale":false,"bins":25,"density_birds_km3":3.895,"heading_deg":246.04395408879088,"speed_ms":3.3484780863702044,"peak_altitude_m":0.0,"u_ms":-2.0143570396532353,"v_ms":-1.2401493016535559}}]}