{"type":"FeatureCollection","frame":"2026-09-24T08","site_count":20,"fresh_count":20,"failures":{},"features":[{"type":"Feature","geometry":{"type":"Point","coordinates":[-77.0073,36.984]},"properties":{"site":"KAKQ","name":"Wakefield VA","scan_time":"2026-09-24T07:59:36Z","stale":false,"bins":25,"density_birds_km3":44.10875,"heading_deg":182.17312892232817,"speed_ms":12.904934330225153,"peak_altitude_m":0.0,"u_ms":-0.6368057766659085,"v_ms":-12.787288492153742}},{"type":"Feature","geometry":{"type":"Point","coordinates":[-71.1369,41.9558]},"properties":{"site":"KBOX","name":"Boston MA","scan_time":"2026-09-24T08:00:37Z","stale":false,"bins":25,"density_birds_km3":0.241875,"heading_deg":220.2894838387067,"speed_ms":8.92843665768194,"peak_altitude_m":0.0,"u_ms":-5.806361185983827,"v_ms":-6.735013477088949}},{"type":"Feature","geometry":{"type":"Point","coordinates":[-78.7369,42.9489]},"properties":{"site":"KBUF","name":"Buffalo NY","scan_time":"2026-09-24T07:57:19Z","stale":false,"bins":25,"density_birds_km3":3.3546666666666667,"heading_deg":283.54643673235483,"speed_ms":7.549684022257551,"peak_altitude_m":200.0,"u_ms":-6.963350556438792,"v_ms":1.7645548489666136}},{"type":"Feature","geometry":{"type":"Point","coordinates":[-81.8597,41.4131]},"properties":{"site":"KCLE","name":"Cleveland OH","scan_time":"2026-09-24T07:58:50Z","stale":false,"bins":25,"density_birds_km3":8.920666666666667,"heading_deg":259.84288570671816,"speed_ms":10.129890142739704,"peak_altitude_m":200.0,"u_ms":-9.47383603617069,"v_ms":-1.3246663179134595}},{"type":"Feature","geometry":{"type":"Point","coordinates":[-81.0423,32.6555]},"properties":{"site":"KCLX","name":"Charleston SC","scan_time":"2026-09-24T08:02:04Z","stale":false,"bins":25,"density_birds_km3":3.0056249999999998,"heading_deg":217.61796581306191,"speed_ms":7.933125389893949,"peak_altitude_m":0.0,"u_ms":-4.848234560199626,"v_ms":-6.266146808068206}},{"type":"Feature","geometry":{"type":"Point","coordinates":[-74.4108,39.947]},"properties":{"site":"KDIX","name":"Philadelphia PA","scan_time":"2026-09-24T07:58:50Z","stale":false,"bins":25,"density_birds_km3":0.6012500000000001,"heading_deg":214.06050592749355,"speed_ms":13.308659549228945,"peak_altitude_m":200.0,"u_ms":-7.530581257413998,"v_ms":-10.957603795966786}},{"type":"Feature","geometry":{"type":"Point","coordinates":[-84.5658,33.3636]},"properties":{"site":"KFFC","name":"Atlanta GA","scan_time":"2026-09-24T08:01:09Z","stale":false,"bins":25,"density_birds_km3":6.281333333333333,"heading_deg":230.33309456667754,"speed_ms":7.30552748885587,"peak_altitude_m":400.0,"u_ms":-4.593420717469752,"v_ms":-4.748985353428147}},{"type":"Feature","geometry":{"type":"Point","coordinates":[-85.5449,42.8939]},"properties":{"site":"KGRR","name":"Grand Rapids MI","scan_time":"2026-09-24T08:00:30Z","stale":false,"bins":25,"density_birds_km3":4.206666666666666,"heading_deg":242.78226177994648,"speed_ms":9.567630744849446,"peak_altitude_m":200.0,"u_ms":-8.252339144215531,"v_ms":-3.8481648177496037}},{"type":"Feature","geometry":{"type":"Point","coordinates":[-83.8217,39.4203]},"properties":{"site":"KILN","name":"Wilmington OH","scan_time":"2026-09-24T08:00:40Z","stale":false,"bins":25,"density_birds_km3":9.424666666666667,"heading_deg":211.97061661717353,"speed_ms":6.000888952002272,"peak_altitude_m":200.0,"u_ms":-2.993420903152513,"v_ms":-4.478663731894349}},{"type":"Feature","geometry":{"type":"Point","coordinates":[-81.7019,30.4846]},"properties":{"site":"KJAX","name":"Jacksonville FL","scan_time":"2026-09-24T07:58:02Z","stale":false,"bins":25,"density_birds_km3":45.626875,"heading_deg":184.36990928786165,"speed_ms":14.038910657770348,"peak_altitude_m":200.0,"u_ms":-1.2529603090876706,"v_ms":-13.883173902916878}},{"type":"Feature","geometry":{"type":"Point","coordinates":[-88.0847,41.6045]},"properties":{"site":"KLOT","name":"Chicago IL","scan_time":"2026-09-24T08:02:33Z","stale":false,"bins":25,"density_birds_km3":21.985384615384614,"heading_deg":181.30582368640188,"speed_ms":10.696314697571271,"peak_altitude_m":200.0,"u_ms":-0.8134173909933116,"v_ms":-6.984135279178739}},{"type":"Feature","geometry":{"type":"Point","coordinates":[-78.4292,33.9892]},"properties":{"site":"KLTX","name":"Wilmington NC","scan_time":"2026-09-24T08:02:04Z","stale":false,"bins":25,"density_birds_km3":4.4075,"heading_deg":223.95032260261078,"speed_ms":11.383547929665346,"peak_altitude_m":0.0,"u_ms":-7.6879608621667614,"v_ms":-8.318645774248441}},{"type":"Feature","geometry":{"type":"Point","coordinates":[-77.4778,38.9753]},"properties":{"site":"KLWX","name":"Sterling VA","scan_time":"2026-09-24T08:00:13Z","stale":false,"bins":25,"density_birds_km3":19.29,"heading_deg":210.50727147310207,"speed_ms":15.414709046137895,"peak_altitude_m":200.0,"u_ms":-7.85961800155521,"v_ms":-13.010953538102646}},{"type":"Feature","geometry":{"type":"Point","coordinates":[-76.8762,34.7759]},"properties":{"site":"KMHX","name":"Morehead City NC","scan_time":"2026-09-24T07:59:15Z","stale":false,"bins":25,"density_birds_km3":1.199375,"heading_deg":199.53556244164483,"speed_ms":14.248837936425222,"peak_altitude_m":200.0,"u_ms":-4.694742053152684,"v_ms":-13.42656070870245}},{"type":"Feature","geometry":{"type":"Point","coordinates":[-80.6542,28.1133]},"properties":{"site":"KMLB","name":"Melbourne FL","scan_time":"2026-09-24T08:01:12Z","stale":false,"bins":25,"density_birds_km3":16.67125,"heading_deg":161.94821271828843,"speed_ms":13.859423012034641,"peak_altitude_m":0.0,"u_ms":4.2557046451467775,"v_ms":-13.175472200352415}},{"type":"Feature","geometry":{"type":"Point","coordinates":[-86.5625,36.2472]},"properties":{"site":"KOHX","name":"Nashville TN","scan_time":"2026-09-24T07:57:32Z","stale":false,"bins":25,"density_birds_km3":18.133333333333333,"heading_deg":171.78290881963255,"speed_ms":4.800375,"peak_altitude_m":200.0,"u_ms":1.017562867647059,"v_ms":-4.092120588235295}},{"type":"Feature","geometry":{"type":"Point","coordinates":[-72.8639,40.8655]},"properties":{"site":"KOKX","name":"Upton NY","scan_time":"2026-09-24T07:59:35Z","stale":false,"bins":25,"density_birds_km3":0.10250000000000001,"heading_deg":224.72839110369821,"speed_ms":10.593203883495145,"peak_altitude_m":0.0,"u_ms":-7.48504854368932,"v_ms":-7.433398058252427}},{"type":"Feature","geometry":{"type":"Point","coordinates":[-80.2183,40.5317]},"properties":{"site":"KPBZ","name":"Pittsburgh PA","scan_time":"2026-09-24T08:01:33Z","stale":false,"bins":25,"density_birds_km3":9.544285714285715,"heading_deg":243.71525845060364,"speed_ms":12.088874335753312,"peak_altitude_m":400.0,"u_ms":-10.630605493600777,"v_ms":-5.214618666267494}},{"type":"Feature","geometry":{"type":"Point","coordinates":[-78.4899,35.6655]},"properties":{"site":"KRAX","name":"Raleigh NC","scan_time":"2026-09-24T07:59:53Z","stale":false,"bins":25,"density_birds_km3":28.975,"heading_deg":213.60199723387342,"speed_ms":13.75922185787634,"peak_altitude_m":200.0,"u_ms":-7.5886784312033475,"v_ms":-11.472883246321784}},{"type":"Feature","geometry":{"type":"Point","coordinates":[-82.4017,27.7055]},"properties":{"site":"KTBW","name":"Tampa FL","scan_time":"2026-09-24T07:58:21Z","stale":false,"bins":25,"density_birds_km3":8.784375,"heading_deg":181.11475904062058,"speed_ms":11.484605478477409,"peak_altitude_m":200.0,"u_ms":-0.3315652792600498,"v_ms":-11.385866239772323}}]}