{"type":"FeatureCollection","frame":"2026-09-05T03","site_count":20,"fresh_count":20,"failures":{},"features":[{"type":"Feature","geometry":{"type":"Point","coordinates":[-77.0073,36.984]},"properties":{"site":"KAKQ","name":"Wakefield VA","scan_time":"2026-09-05T02:59:11Z","stale":false,"bins":25,"density_birds_km3":6.715,"heading_deg":117.47950886055732,"speed_ms":9.436261169024572,"peak_altitude_m":0.0,"u_ms":6.0583432613551755,"v_ms":-4.0614268428890545}},{"type":"Feature","geometry":{"type":"Point","coordinates":[-71.1369,41.9558]},"properties":{"site":"KBOX","name":"Boston MA","scan_time":"2026-09-05T02:57:30Z","stale":false,"bins":25,"density_birds_km3":15.87125,"heading_deg":183.45630335507826,"speed_ms":12.586302524317725,"peak_altitude_m":400.0,"u_ms":-0.9452412082069863,"v_ms":-12.452732249045011}},{"type":"Feature","geometry":{"type":"Point","coordinates":[-78.7369,42.9489]},"properties":{"site":"KBUF","name":"Buffalo NY","scan_time":"2026-09-05T03:03:53Z","stale":false,"bins":25,"density_birds_km3":55.156,"heading_deg":192.0998798567118,"speed_ms":10.13414424541301,"peak_altitude_m":400.0,"u_ms":-2.128414194889646,"v_ms":-9.854532961055915}},{"type":"Feature","geometry":{"type":"Point","coordinates":[-81.8597,41.4131]},"properties":{"site":"KCLE","name":"Cleveland OH","scan_time":"2026-09-05T02:59:45Z","stale":false,"bins":25,"density_birds_km3":13.809333333333335,"heading_deg":173.76213443720042,"speed_ms":8.511391329535579,"peak_altitude_m":600.0,"u_ms":1.4978343149560684,"v_ms":-8.066780438350873}},{"type":"Feature","geometry":{"type":"Point","coordinates":[-81.0423,32.6555]},"properties":{"site":"KCLX","name":"Charleston SC","scan_time":"2026-09-05T03:00:23Z","stale":false,"bins":25,"density_birds_km3":1.71125,"heading_deg":53.602068419079885,"speed_ms":5.479599065784352,"peak_altitude_m":0.0,"u_ms":2.8178201634877387,"v_ms":2.224114441416894}},{"type":"Feature","geometry":{"type":"Point","coordinates":[-74.4108,39.947]},"properties":{"site":"KDIX","name":"Philadelphia PA","scan_time":"2026-09-05T02:58:45Z","stale":false,"bins":25,"density_birds_km3":62.48125,"heading_deg":204.05478978698318,"speed_ms":9.70838721616485,"peak_altitude_m":400.0,"u_ms":-3.9912647794338305,"v_ms":-8.534998799639892}},{"type":"Feature","geometry":{"type":"Point","coordinates":[-84.5658,33.3636]},"properties":{"site":"KFFC","name":"Atlanta GA","scan_time":"2026-09-05T02:59:22Z","stale":false,"bins":25,"density_birds_km3":24.578666666666667,"heading_deg":248.68908916882924,"speed_ms":6.142887056525984,"peak_altitude_m":1600.0,"u_ms":-4.834748291201041,"v_ms":-2.326262341325811}},{"type":"Feature","geometry":{"type":"Point","coordinates":[-85.5449,42.8939]},"properties":{"site":"KGRR","name":"Grand Rapids MI","scan_time":"2026-09-05T02:58:44Z","stale":false,"bins":25,"density_birds_km3":36.392,"heading_deg":242.72307873912834,"speed_ms":7.36277057228695,"peak_altitude_m":400.0,"u_ms":-4.602863083461567,"v_ms":-2.8072647834688946}},{"type":"Feature","geometry":{"type":"Point","coordinates":[-83.8217,39.4203]},"properties":{"site":"KILN","name":"Wilmington OH","scan_time":"2026-09-05T03:00:58Z","stale":false,"bins":25,"density_birds_km3":36.34533333333333,"heading_deg":174.69896867422705,"speed_ms":9.279238966946696,"peak_altitude_m":200.0,"u_ms":1.6256972009244652,"v_ms":-8.482085916578011}},{"type":"Feature","geometry":{"type":"Point","coordinates":[-81.7019,30.4846]},"properties":{"site":"KJAX","name":"Jacksonville FL","scan_time":"2026-09-05T02:58:03Z","stale":false,"bins":25,"density_birds_km3":8.576875000000001,"heading_deg":157.49103721904342,"speed_ms":3.207914843977836,"peak_altitude_m":0.0,"u_ms":1.2287634878973464,"v_ms":-2.8991586468358124}},{"type":"Feature","geometry":{"type":"Point","coordinates":[-88.0847,41.6045]},"properties":{"site":"KLOT","name":"Chicago IL","scan_time":"2026-09-05T03:01:30Z","stale":false,"bins":25,"density_birds_km3":21.299333333333333,"heading_deg":132.97899660087342,"speed_ms":8.707207737331371,"peak_altitude_m":400.0,"u_ms":6.255591724310619,"v_ms":-5.977255000156499}},{"type":"Feature","geometry":{"type":"Point","coordinates":[-78.4292,33.9892]},"properties":{"site":"KLTX","name":"Wilmington NC","scan_time":"2026-09-05T03:01:45Z","stale":false,"bins":25,"density_birds_km3":3.015,"heading_deg":112.81800508530381,"speed_ms":7.78421029082774,"peak_altitude_m":0.0,"u_ms":1.6597427293064877,"v_ms":-1.7519999999999998}},{"type":"Feature","geometry":{"type":"Point","coordinates":[-77.4778,38.9753]},"properties":{"site":"KLWX","name":"Sterling VA","scan_time":"2026-09-05T02:59:04Z","stale":false,"bins":25,"density_birds_km3":52.56125,"heading_deg":195.53900397456476,"speed_ms":9.620420699659919,"peak_altitude_m":1200.0,"u_ms":-2.474216033674998,"v_ms":-8.932775571357226}},{"type":"Feature","geometry":{"type":"Point","coordinates":[-76.8762,34.7759]},"properties":{"site":"KMHX","name":"Morehead City NC","scan_time":"2026-09-05T03:01:12Z","stale":false,"bins":25,"density_birds_km3":12.45875,"heading_deg":172.36767169442396,"speed_ms":7.158493576876756,"peak_altitude_m":0.0,"u_ms":0.9880299076676033,"v_ms":-7.07143817743878}},{"type":"Feature","geometry":{"type":"Point","coordinates":[-80.6542,28.1133]},"properties":{"site":"KMLB","name":"Melbourne FL","scan_time":"2026-09-05T02:58:08Z","stale":false,"bins":25,"density_birds_km3":9.08875,"heading_deg":89.30863743376004,"speed_ms":3.3387683949938114,"peak_altitude_m":0.0,"u_ms":2.5357268601292806,"v_ms":0.3113677623435567}},{"type":"Feature","geometry":{"type":"Point","coordinates":[-86.5625,36.2472]},"properties":{"site":"KOHX","name":"Nashville TN","scan_time":"2026-09-05T02:59:37Z","stale":false,"bins":25,"density_birds_km3":27.023333333333333,"heading_deg":287.3242115917631,"speed_ms":3.895885777722955,"peak_altitude_m":400.0,"u_ms":-1.188106327864808,"v_ms":-0.4051252004440607}},{"type":"Feature","geometry":{"type":"Point","coordinates":[-72.8639,40.8655]},"properties":{"site":"KOKX","name":"Upton NY","scan_time":"2026-09-05T02:56:55Z","stale":false,"bins":25,"density_birds_km3":58.836875,"heading_deg":206.57731777331213,"speed_ms":10.183124135583121,"peak_altitude_m":200.0,"u_ms":-4.58174234525608,"v_ms":-9.047804327935824}},{"type":"Feature","geometry":{"type":"Point","coordinates":[-80.2183,40.5317]},"properties":{"site":"KPBZ","name":"Pittsburgh PA","scan_time":"2026-09-05T03:01:53Z","stale":false,"bins":25,"density_birds_km3":53.604285714285716,"heading_deg":173.72023267306554,"speed_ms":8.799091890307277,"peak_altitude_m":600.0,"u_ms":1.141800495695973,"v_ms":-8.556884044452735}},{"type":"Feature","geometry":{"type":"Point","coordinates":[-78.4899,35.6655]},"properties":{"site":"KRAX","name":"Raleigh NC","scan_time":"2026-09-05T02:58:28Z","stale":false,"bins":25,"density_birds_km3":19.445625,"heading_deg":320.4537905993322,"speed_ms":3.3455254025811985,"peak_altitude_m":200.0,"u_ms":-1.5654466409326626,"v_ms":1.4090950208601392}},{"type":"Feature","geometry":{"type":"Point","coordinates":[-82.4017,27.7055]},"properties":{"site":"KTBW","name":"Tampa FL","scan_time":"2026-09-05T02:58:35Z","stale":false,"bins":25,"density_birds_km3":8.03125,"heading_deg":50.02701301305726,"speed_ms":2.0369090059936172,"peak_altitude_m":0.0,"u_ms":0.7329851327158091,"v_ms":-0.9934918658052464}}]}