{"type":"FeatureCollection","frame":"2026-09-21T08","site_count":20,"fresh_count":20,"failures":{},"features":[{"type":"Feature","geometry":{"type":"Point","coordinates":[-77.0073,36.984]},"properties":{"site":"KAKQ","name":"Wakefield VA","scan_time":"2026-09-21T07:59:24Z","stale":false,"bins":25,"density_birds_km3":13.211875000000001,"heading_deg":114.44107568696123,"speed_ms":6.4979666950515655,"peak_altitude_m":0.0,"u_ms":5.939912952975684,"v_ms":-2.245437600529851}},{"type":"Feature","geometry":{"type":"Point","coordinates":[-71.1369,41.9558]},"properties":{"site":"KBOX","name":"Boston MA","scan_time":"2026-09-21T07:58:06Z","stale":false,"bins":25,"density_birds_km3":0.28928571428571426,"heading_deg":98.85005352767975,"speed_ms":4.665,"peak_altitude_m":0.0,"u_ms":4.16375,"v_ms":-0.10374999999999994}},{"type":"Feature","geometry":{"type":"Point","coordinates":[-78.7369,42.9489]},"properties":{"site":"KBUF","name":"Buffalo NY","scan_time":"2026-09-21T08:01:16Z","stale":false,"bins":25,"density_birds_km3":5.640666666666666,"heading_deg":230.8341444571995,"speed_ms":14.848915021865029,"peak_altitude_m":400.0,"u_ms":-11.420343930977426,"v_ms":-9.352835362250325}},{"type":"Feature","geometry":{"type":"Point","coordinates":[-81.8597,41.4131]},"properties":{"site":"KCLE","name":"Cleveland OH","scan_time":"2026-09-21T08:01:13Z","stale":false,"bins":25,"density_birds_km3":27.461333333333336,"heading_deg":226.5315614167055,"speed_ms":13.71622821073076,"peak_altitude_m":400.0,"u_ms":-10.068562029618839,"v_ms":-8.578240106822046}},{"type":"Feature","geometry":{"type":"Point","coordinates":[-81.0423,32.6555]},"properties":{"site":"KCLX","name":"Charleston SC","scan_time":"2026-09-21T08:00:49Z","stale":false,"bins":25,"density_birds_km3":11.446250000000001,"heading_deg":183.0797178045667,"speed_ms":5.416588402315169,"peak_altitude_m":0.0,"u_ms":-0.4192240908594518,"v_ms":-5.327237632412361}},{"type":"Feature","geometry":{"type":"Point","coordinates":[-74.4108,39.947]},"properties":{"site":"KDIX","name":"Philadelphia PA","scan_time":"2026-09-21T07:57:44Z","stale":false,"bins":25,"density_birds_km3":3.155625,"heading_deg":197.38061709969136,"speed_ms":8.413673469387755,"peak_altitude_m":600.0,"u_ms":-2.5153877551020405,"v_ms":-8.022204081632651}},{"type":"Feature","geometry":{"type":"Point","coordinates":[-84.5658,33.3636]},"properties":{"site":"KFFC","name":"Atlanta GA","scan_time":"2026-09-21T07:57:30Z","stale":false,"bins":25,"density_birds_km3":33.95,"heading_deg":163.85322461861765,"speed_ms":3.532350122729504,"peak_altitude_m":400.0,"u_ms":-0.37154737358861073,"v_ms":-2.569798330878743}},{"type":"Feature","geometry":{"type":"Point","coordinates":[-85.5449,42.8939]},"properties":{"site":"KGRR","name":"Grand Rapids MI","scan_time":"2026-09-21T07:56:27Z","stale":false,"bins":25,"density_birds_km3":25.502,"heading_deg":211.29080718337715,"speed_ms":12.227370856425807,"peak_altitude_m":200.0,"u_ms":-6.736750235281815,"v_ms":-9.472073617065774}},{"type":"Feature","geometry":{"type":"Point","coordinates":[-83.8217,39.4203]},"properties":{"site":"KILN","name":"Wilmington OH","scan_time":"2026-09-21T07:59:12Z","stale":false,"bins":25,"density_birds_km3":17.71333333333333,"heading_deg":211.47020970424876,"speed_ms":8.381900334976851,"peak_altitude_m":200.0,"u_ms":-4.162946290790018,"v_ms":-6.785268546049908}},{"type":"Feature","geometry":{"type":"Point","coordinates":[-81.7019,30.4846]},"properties":{"site":"KJAX","name":"Jacksonville FL","scan_time":"2026-09-21T08:01:54Z","stale":false,"bins":25,"density_birds_km3":47.04625,"heading_deg":184.49460601150776,"speed_ms":9.033834125993039,"peak_altitude_m":0.0,"u_ms":-0.6861123362648458,"v_ms":-8.97219690729867}},{"type":"Feature","geometry":{"type":"Point","coordinates":[-88.0847,41.6045]},"properties":{"site":"KLOT","name":"Chicago IL","scan_time":"2026-09-21T07:59:55Z","stale":false,"bins":25,"density_birds_km3":12.54,"heading_deg":237.76497979159632,"speed_ms":11.757558517728604,"peak_altitude_m":200.0,"u_ms":-9.675327112769928,"v_ms":-5.867762196747534}},{"type":"Feature","geometry":{"type":"Point","coordinates":[-78.4292,33.9892]},"properties":{"site":"KLTX","name":"Wilmington NC","scan_time":"2026-09-21T07:59:37Z","stale":false,"bins":25,"density_birds_km3":4.1118749999999995,"heading_deg":163.81035466362476,"speed_ms":2.314847931873479,"peak_altitude_m":0.0,"u_ms":0.30392031630170313,"v_ms":-2.012928832116788}},{"type":"Feature","geometry":{"type":"Point","coordinates":[-77.4778,38.9753]},"properties":{"site":"KLWX","name":"Sterling VA","scan_time":"2026-09-21T08:01:47Z","stale":false,"bins":25,"density_birds_km3":14.666875,"heading_deg":212.30703858167504,"speed_ms":9.55685430180949,"peak_altitude_m":400.0,"u_ms":-4.960657220894504,"v_ms":-7.638077415500171}},{"type":"Feature","geometry":{"type":"Point","coordinates":[-76.8762,34.7759]},"properties":{"site":"KMHX","name":"Morehead City NC","scan_time":"2026-09-21T07:57:54Z","stale":false,"bins":25,"density_birds_km3":1.621875,"heading_deg":107.52566554292109,"speed_ms":2.422991518889745,"peak_altitude_m":0.0,"u_ms":1.527995373939861,"v_ms":-0.3706129529683885}},{"type":"Feature","geometry":{"type":"Point","coordinates":[-80.6542,28.1133]},"properties":{"site":"KMLB","name":"Melbourne FL","scan_time":"2026-09-21T07:58:37Z","stale":false,"bins":25,"density_birds_km3":6.203125,"heading_deg":146.9344594448797,"speed_ms":5.314211586901764,"peak_altitude_m":0.0,"u_ms":2.688329471032745,"v_ms":-4.452997481108312}},{"type":"Feature","geometry":{"type":"Point","coordinates":[-86.5625,36.2472]},"properties":{"site":"KOHX","name":"Nashville TN","scan_time":"2026-09-21T07:58:07Z","stale":false,"bins":25,"density_birds_km3":38.17333333333333,"heading_deg":68.68458128782957,"speed_ms":7.492816625916871,"peak_altitude_m":200.0,"u_ms":5.89317761089766,"v_ms":1.9686159622773316}},{"type":"Feature","geometry":{"type":"Point","coordinates":[-72.8639,40.8655]},"properties":{"site":"KOKX","name":"Upton NY","scan_time":"2026-09-21T08:03:23Z","stale":false,"bins":25,"density_birds_km3":0.15200000000000002,"heading_deg":null,"speed_ms":null,"peak_altitude_m":0.0,"u_ms":null,"v_ms":null}},{"type":"Feature","geometry":{"type":"Point","coordinates":[-80.2183,40.5317]},"properties":{"site":"KPBZ","name":"Pittsburgh PA","scan_time":"2026-09-21T07:58:16Z","stale":false,"bins":25,"density_birds_km3":43.62571428571429,"heading_deg":208.40001072560304,"speed_ms":9.44881224610143,"peak_altitude_m":400.0,"u_ms":-4.431332394181627,"v_ms":-7.41386106014939}},{"type":"Feature","geometry":{"type":"Point","coordinates":[-78.4899,35.6655]},"properties":{"site":"KRAX","name":"Raleigh NC","scan_time":"2026-09-21T08:01:01Z","stale":false,"bins":25,"density_birds_km3":8.815,"heading_deg":88.24442565325185,"speed_ms":7.682117889940912,"peak_altitude_m":200.0,"u_ms":7.390768135544956,"v_ms":0.5108806150779526}},{"type":"Feature","geometry":{"type":"Point","coordinates":[-82.4017,27.7055]},"properties":{"site":"KTBW","name":"Tampa FL","scan_time":"2026-09-21T07:59:04Z","stale":false,"bins":25,"density_birds_km3":16.215625,"heading_deg":199.86376303464448,"speed_ms":6.62941718382608,"peak_altitude_m":0.0,"u_ms":-1.8344825193693868,"v_ms":-6.1580075550244775}}]}