{"type":"FeatureCollection","frame":"2026-08-23T08","site_count":20,"fresh_count":20,"failures":{},"features":[{"type":"Feature","geometry":{"type":"Point","coordinates":[-77.0073,36.984]},"properties":{"site":"KAKQ","name":"Wakefield VA","scan_time":"2026-08-23T07:59:00Z","stale":false,"bins":25,"density_birds_km3":2.058125,"heading_deg":32.27327553978009,"speed_ms":3.1811577028258893,"peak_altitude_m":0.0,"u_ms":2.5887784867821337,"v_ms":0.28164387724096024}},{"type":"Feature","geometry":{"type":"Point","coordinates":[-71.1369,41.9558]},"properties":{"site":"KBOX","name":"Boston MA","scan_time":"2026-08-23T08:01:40Z","stale":false,"bins":25,"density_birds_km3":0.455625,"heading_deg":255.2276004225713,"speed_ms":4.026964285714286,"peak_altitude_m":0.0,"u_ms":-3.778763736263736,"v_ms":-1.0242582417582418}},{"type":"Feature","geometry":{"type":"Point","coordinates":[-78.7369,42.9489]},"properties":{"site":"KBUF","name":"Buffalo NY","scan_time":"2026-08-23T08:02:00Z","stale":false,"bins":25,"density_birds_km3":0.9806666666666666,"heading_deg":60.1168113430953,"speed_ms":9.291604350781782,"peak_altitude_m":200.0,"u_ms":8.045268524813054,"v_ms":4.397811012916383}},{"type":"Feature","geometry":{"type":"Point","coordinates":[-81.8597,41.4131]},"properties":{"site":"KCLE","name":"Cleveland OH","scan_time":"2026-08-23T08:01:01Z","stale":false,"bins":25,"density_birds_km3":2.491333333333333,"heading_deg":131.56573536137614,"speed_ms":7.552573726541555,"peak_altitude_m":600.0,"u_ms":5.599817694369973,"v_ms":-4.954056300268096}},{"type":"Feature","geometry":{"type":"Point","coordinates":[-81.0423,32.6555]},"properties":{"site":"KCLX","name":"Charleston SC","scan_time":"2026-08-23T07:58:22Z","stale":false,"bins":25,"density_birds_km3":1.0775,"heading_deg":40.47935130858528,"speed_ms":6.948118466898955,"peak_altitude_m":0.0,"u_ms":3.5378745644599308,"v_ms":3.7712427409988396}},{"type":"Feature","geometry":{"type":"Point","coordinates":[-74.4108,39.947]},"properties":{"site":"KDIX","name":"Philadelphia PA","scan_time":"2026-08-23T08:00:01Z","stale":false,"bins":25,"density_birds_km3":0.151875,"heading_deg":315.6669579282337,"speed_ms":6.37835390946502,"peak_altitude_m":200.0,"u_ms":-3.844526748971193,"v_ms":4.297283950617284}},{"type":"Feature","geometry":{"type":"Point","coordinates":[-84.5658,33.3636]},"properties":{"site":"KFFC","name":"Atlanta GA","scan_time":"2026-08-23T07:59:23Z","stale":false,"bins":25,"density_birds_km3":16.18466666666667,"heading_deg":173.8353609208149,"speed_ms":6.327258609326083,"peak_altitude_m":400.0,"u_ms":0.7525737353765036,"v_ms":-6.052078184214863}},{"type":"Feature","geometry":{"type":"Point","coordinates":[-85.5449,42.8939]},"properties":{"site":"KGRR","name":"Grand Rapids MI","scan_time":"2026-08-23T07:56:17Z","stale":false,"bins":25,"density_birds_km3":18.596,"heading_deg":192.98954329563705,"speed_ms":14.76822753030629,"peak_altitude_m":400.0,"u_ms":-3.2120364392798217,"v_ms":-14.36440822035722}},{"type":"Feature","geometry":{"type":"Point","coordinates":[-83.8217,39.4203]},"properties":{"site":"KILN","name":"Wilmington OH","scan_time":"2026-08-23T07:59:36Z","stale":false,"bins":25,"density_birds_km3":15.542,"heading_deg":151.28644118784146,"speed_ms":10.686072072072072,"peak_altitude_m":400.0,"u_ms":5.0716006006006005,"v_ms":-9.346993564993566}},{"type":"Feature","geometry":{"type":"Point","coordinates":[-81.7019,30.4846]},"properties":{"site":"KJAX","name":"Jacksonville FL","scan_time":"2026-08-23T07:59:16Z","stale":false,"bins":25,"density_birds_km3":5.8774999999999995,"heading_deg":152.94209948004843,"speed_ms":4.6946670212765955,"peak_altitude_m":0.0,"u_ms":2.128168085106383,"v_ms":-4.057404255319148}},{"type":"Feature","geometry":{"type":"Point","coordinates":[-88.0847,41.6045]},"properties":{"site":"KLOT","name":"Chicago IL","scan_time":"2026-08-23T07:59:06Z","stale":false,"bins":25,"density_birds_km3":18.590666666666667,"heading_deg":178.03383175090352,"speed_ms":9.250776789556735,"peak_altitude_m":400.0,"u_ms":0.42565915937455184,"v_ms":-9.049192009754698}},{"type":"Feature","geometry":{"type":"Point","coordinates":[-78.4292,33.9892]},"properties":{"site":"KLTX","name":"Wilmington NC","scan_time":"2026-08-23T07:58:16Z","stale":false,"bins":25,"density_birds_km3":5.39375,"heading_deg":170.44097631497803,"speed_ms":4.768118479016925,"peak_altitude_m":0.0,"u_ms":1.1921725017389286,"v_ms":-3.8994122420588915}},{"type":"Feature","geometry":{"type":"Point","coordinates":[-77.4778,38.9753]},"properties":{"site":"KLWX","name":"Sterling VA","scan_time":"2026-08-23T08:01:37Z","stale":false,"bins":25,"density_birds_km3":2.385625,"heading_deg":134.65534754946142,"speed_ms":3.1942148324096067,"peak_altitude_m":0.0,"u_ms":2.8160833993138032,"v_ms":-1.2667907099498548}},{"type":"Feature","geometry":{"type":"Point","coordinates":[-76.8762,34.7759]},"properties":{"site":"KMHX","name":"Morehead City NC","scan_time":"2026-08-23T07:58:44Z","stale":false,"bins":25,"density_birds_km3":0.78,"heading_deg":86.42035481965748,"speed_ms":5.792315705128205,"peak_altitude_m":0.0,"u_ms":5.744935897435897,"v_ms":0.42854166666666665}},{"type":"Feature","geometry":{"type":"Point","coordinates":[-80.6542,28.1133]},"properties":{"site":"KMLB","name":"Melbourne FL","scan_time":"2026-08-23T08:00:23Z","stale":false,"bins":25,"density_birds_km3":3.166875,"heading_deg":98.15479993091134,"speed_ms":3.607375172686007,"peak_altitude_m":200.0,"u_ms":3.4862620880205246,"v_ms":-0.5505150976909414}},{"type":"Feature","geometry":{"type":"Point","coordinates":[-86.5625,36.2472]},"properties":{"site":"KOHX","name":"Nashville TN","scan_time":"2026-08-23T07:59:43Z","stale":false,"bins":25,"density_birds_km3":18.891333333333332,"heading_deg":198.37392335397433,"speed_ms":7.92225217912976,"peak_altitude_m":400.0,"u_ms":-2.647481384761972,"v_ms":-7.0844309559939305}},{"type":"Feature","geometry":{"type":"Point","coordinates":[-72.8639,40.8655]},"properties":{"site":"KOKX","name":"Upton NY","scan_time":"2026-08-23T08:00:20Z","stale":false,"bins":25,"density_birds_km3":1.0425,"heading_deg":293.8255191390718,"speed_ms":5.201323706377859,"peak_altitude_m":0.0,"u_ms":-4.692280385078218,"v_ms":2.100956678700361}},{"type":"Feature","geometry":{"type":"Point","coordinates":[-80.2183,40.5317]},"properties":{"site":"KPBZ","name":"Pittsburgh PA","scan_time":"2026-08-23T08:00:36Z","stale":false,"bins":25,"density_birds_km3":1.6014285714285716,"heading_deg":124.10400455310543,"speed_ms":9.439884032114183,"peak_altitude_m":800.0,"u_ms":7.631891168599465,"v_ms":-5.373407671721677}},{"type":"Feature","geometry":{"type":"Point","coordinates":[-78.4899,35.6655]},"properties":{"site":"KRAX","name":"Raleigh NC","scan_time":"2026-08-23T07:58:38Z","stale":false,"bins":25,"density_birds_km3":1.83,"heading_deg":107.68175785848273,"speed_ms":6.389726682610181,"peak_altitude_m":0.0,"u_ms":6.019726682610182,"v_ms":-1.5077622138708577}},{"type":"Feature","geometry":{"type":"Point","coordinates":[-82.4017,27.7055]},"properties":{"site":"KTBW","name":"Tampa FL","scan_time":"2026-08-23T08:01:16Z","stale":false,"bins":25,"density_birds_km3":1.348125,"heading_deg":351.07960412365577,"speed_ms":2.5616682156133828,"peak_altitude_m":0.0,"u_ms":-0.18714219330855,"v_ms":2.052755576208178}}]}