{"type":"FeatureCollection","frame":"2026-08-13T07","site_count":20,"fresh_count":20,"failures":{},"features":[{"type":"Feature","geometry":{"type":"Point","coordinates":[-77.0073,36.984]},"properties":{"site":"KAKQ","name":"Wakefield VA","scan_time":"2026-08-13T07:00:19Z","stale":false,"bins":25,"density_birds_km3":1.40125,"heading_deg":59.90497893805898,"speed_ms":5.814906082289803,"peak_altitude_m":0.0,"u_ms":5.049087656529518,"v_ms":2.6382066189624327}},{"type":"Feature","geometry":{"type":"Point","coordinates":[-71.1369,41.9558]},"properties":{"site":"KBOX","name":"Boston MA","scan_time":"2026-08-13T06:59:12Z","stale":false,"bins":25,"density_birds_km3":0.78125,"heading_deg":39.2,"speed_ms":6.61,"peak_altitude_m":0.0,"u_ms":4.18,"v_ms":5.13}},{"type":"Feature","geometry":{"type":"Point","coordinates":[-78.7369,42.9489]},"properties":{"site":"KBUF","name":"Buffalo NY","scan_time":"2026-08-13T06:59:17Z","stale":false,"bins":25,"density_birds_km3":0.6066666666666667,"heading_deg":128.09924882634522,"speed_ms":5.690538461538462,"peak_altitude_m":200.0,"u_ms":4.453681318681319,"v_ms":-3.487362637362638}},{"type":"Feature","geometry":{"type":"Point","coordinates":[-81.8597,41.4131]},"properties":{"site":"KCLE","name":"Cleveland OH","scan_time":"2026-08-13T07:00:03Z","stale":false,"bins":25,"density_birds_km3":0.6046666666666667,"heading_deg":100.3843205501184,"speed_ms":6.6939534883720935,"peak_altitude_m":200.0,"u_ms":5.57968992248062,"v_ms":-0.9918826135105205}},{"type":"Feature","geometry":{"type":"Point","coordinates":[-81.0423,32.6555]},"properties":{"site":"KCLX","name":"Charleston SC","scan_time":"2026-08-13T07:03:01Z","stale":false,"bins":25,"density_birds_km3":2.25375,"heading_deg":124.7571483685843,"speed_ms":6.578509988901221,"peak_altitude_m":0.0,"u_ms":5.399714206437292,"v_ms":-3.4182658157602663}},{"type":"Feature","geometry":{"type":"Point","coordinates":[-74.4108,39.947]},"properties":{"site":"KDIX","name":"Philadelphia PA","scan_time":"2026-08-13T06:59:12Z","stale":false,"bins":25,"density_birds_km3":0.39875,"heading_deg":56.30004487041928,"speed_ms":10.322244897959182,"peak_altitude_m":0.0,"u_ms":8.477362637362637,"v_ms":5.6318838304552585}},{"type":"Feature","geometry":{"type":"Point","coordinates":[-84.5658,33.3636]},"properties":{"site":"KFFC","name":"Atlanta GA","scan_time":"2026-08-13T06:57:44Z","stale":false,"bins":25,"density_birds_km3":6.516,"heading_deg":108.03767853261614,"speed_ms":6.082122173334699,"peak_altitude_m":200.0,"u_ms":4.945180599611175,"v_ms":-1.8846382891640234}},{"type":"Feature","geometry":{"type":"Point","coordinates":[-85.5449,42.8939]},"properties":{"site":"KGRR","name":"Grand Rapids MI","scan_time":"2026-08-13T06:57:39Z","stale":false,"bins":25,"density_birds_km3":4.537333333333334,"heading_deg":199.5659676224298,"speed_ms":6.49603062426384,"peak_altitude_m":400.0,"u_ms":-2.1734923439340403,"v_ms":-5.326303003533568}},{"type":"Feature","geometry":{"type":"Point","coordinates":[-83.8217,39.4203]},"properties":{"site":"KILN","name":"Wilmington OH","scan_time":"2026-08-13T07:01:25Z","stale":false,"bins":25,"density_birds_km3":5.666666666666667,"heading_deg":211.21653425771862,"speed_ms":5.482385165434492,"peak_altitude_m":200.0,"u_ms":-1.9818834080717485,"v_ms":-3.744101321051994}},{"type":"Feature","geometry":{"type":"Point","coordinates":[-81.7019,30.4846]},"properties":{"site":"KJAX","name":"Jacksonville FL","scan_time":"2026-08-13T06:58:10Z","stale":false,"bins":25,"density_birds_km3":21.436875,"heading_deg":156.70553215287498,"speed_ms":8.803385725405665,"peak_altitude_m":0.0,"u_ms":2.751433447098976,"v_ms":-7.6680599964074005}},{"type":"Feature","geometry":{"type":"Point","coordinates":[-88.0847,41.6045]},"properties":{"site":"KLOT","name":"Chicago IL","scan_time":"2026-08-13T06:56:48Z","stale":false,"bins":25,"density_birds_km3":4.384,"heading_deg":176.86922358917013,"speed_ms":5.366622466087487,"peak_altitude_m":400.0,"u_ms":-0.38847584209724134,"v_ms":-4.568451455570798}},{"type":"Feature","geometry":{"type":"Point","coordinates":[-78.4292,33.9892]},"properties":{"site":"KLTX","name":"Wilmington NC","scan_time":"2026-08-13T07:01:06Z","stale":false,"bins":25,"density_birds_km3":18.775000000000002,"heading_deg":206.71338546318032,"speed_ms":4.922774306255459,"peak_altitude_m":0.0,"u_ms":-2.144347913727071,"v_ms":-4.392174964724854}},{"type":"Feature","geometry":{"type":"Point","coordinates":[-77.4778,38.9753]},"properties":{"site":"KLWX","name":"Sterling VA","scan_time":"2026-08-13T07:00:01Z","stale":false,"bins":25,"density_birds_km3":4.54,"heading_deg":149.87601103756248,"speed_ms":5.82335077092511,"peak_altitude_m":200.0,"u_ms":2.995553414096916,"v_ms":-4.754892621145374}},{"type":"Feature","geometry":{"type":"Point","coordinates":[-76.8762,34.7759]},"properties":{"site":"KMHX","name":"Morehead City NC","scan_time":"2026-08-13T06:57:30Z","stale":false,"bins":25,"density_birds_km3":5.5275,"heading_deg":184.44426501520627,"speed_ms":4.464209454874463,"peak_altitude_m":0.0,"u_ms":0.10596810676317575,"v_ms":-4.2681667043655285}},{"type":"Feature","geometry":{"type":"Point","coordinates":[-80.6542,28.1133]},"properties":{"site":"KMLB","name":"Melbourne FL","scan_time":"2026-08-13T06:59:56Z","stale":false,"bins":25,"density_birds_km3":3.9425,"heading_deg":127.58169452567236,"speed_ms":6.5010129993658845,"peak_altitude_m":200.0,"u_ms":4.822331959416614,"v_ms":-3.860223525681674}},{"type":"Feature","geometry":{"type":"Point","coordinates":[-86.5625,36.2472]},"properties":{"site":"KOHX","name":"Nashville TN","scan_time":"2026-08-13T07:02:23Z","stale":false,"bins":25,"density_birds_km3":12.174666666666667,"heading_deg":46.449410969862925,"speed_ms":5.163641441244113,"peak_altitude_m":200.0,"u_ms":3.4965348811740222,"v_ms":2.0745307195268867}},{"type":"Feature","geometry":{"type":"Point","coordinates":[-72.8639,40.8655]},"properties":{"site":"KOKX","name":"Upton NY","scan_time":"2026-08-13T07:00:38Z","stale":false,"bins":25,"density_birds_km3":0.901875,"heading_deg":47.06552036755462,"speed_ms":9.09328431372549,"peak_altitude_m":0.0,"u_ms":6.575759803921569,"v_ms":5.986200980392158}},{"type":"Feature","geometry":{"type":"Point","coordinates":[-80.2183,40.5317]},"properties":{"site":"KPBZ","name":"Pittsburgh PA","scan_time":"2026-08-13T06:59:13Z","stale":false,"bins":25,"density_birds_km3":0.3385714285714286,"heading_deg":78.50631520270224,"speed_ms":11.064386422976503,"peak_altitude_m":400.0,"u_ms":10.831644908616187,"v_ms":2.1845953002610967}},{"type":"Feature","geometry":{"type":"Point","coordinates":[-78.4899,35.6655]},"properties":{"site":"KRAX","name":"Raleigh NC","scan_time":"2026-08-13T07:02:31Z","stale":false,"bins":25,"density_birds_km3":3.7275,"heading_deg":128.4289578339521,"speed_ms":6.154235690235691,"peak_altitude_m":0.0,"u_ms":4.479116161616162,"v_ms":-3.9033114478114483}},{"type":"Feature","geometry":{"type":"Point","coordinates":[-82.4017,27.7055]},"properties":{"site":"KTBW","name":"Tampa FL","scan_time":"2026-08-13T06:57:04Z","stale":false,"bins":25,"density_birds_km3":2.283125,"heading_deg":160.51261974321454,"speed_ms":4.207623220153341,"peak_altitude_m":0.0,"u_ms":1.3790416210295728,"v_ms":-3.969408543263964}}]}