{"type":"FeatureCollection","frame":"2026-09-22T02","site_count":20,"fresh_count":20,"failures":{},"features":[{"type":"Feature","geometry":{"type":"Point","coordinates":[-77.0073,36.984]},"properties":{"site":"KAKQ","name":"Wakefield VA","scan_time":"2026-09-22T02:00:00Z","stale":false,"bins":25,"density_birds_km3":14.309375,"heading_deg":229.92791762607737,"speed_ms":8.324621778886119,"peak_altitude_m":200.0,"u_ms":-6.012627641422759,"v_ms":-5.170193376208601}},{"type":"Feature","geometry":{"type":"Point","coordinates":[-71.1369,41.9558]},"properties":{"site":"KBOX","name":"Boston MA","scan_time":"2026-09-22T02:00:04Z","stale":false,"bins":25,"density_birds_km3":8.2125,"heading_deg":202.1635308092126,"speed_ms":9.730771748230458,"peak_altitude_m":0.0,"u_ms":-3.891105868026486,"v_ms":-8.438318745718853}},{"type":"Feature","geometry":{"type":"Point","coordinates":[-78.7369,42.9489]},"properties":{"site":"KBUF","name":"Buffalo NY","scan_time":"2026-09-22T01:59:22Z","stale":false,"bins":25,"density_birds_km3":8.807333333333334,"heading_deg":236.21358586457796,"speed_ms":13.692098728043607,"peak_altitude_m":400.0,"u_ms":-11.28792549969715,"v_ms":-7.510935039370078}},{"type":"Feature","geometry":{"type":"Point","coordinates":[-81.8597,41.4131]},"properties":{"site":"KCLE","name":"Cleveland OH","scan_time":"2026-09-22T01:59:48Z","stale":false,"bins":25,"density_birds_km3":12.596666666666666,"heading_deg":229.70327666738274,"speed_ms":13.730821642225635,"peak_altitude_m":400.0,"u_ms":-10.38418762242575,"v_ms":-8.891716342845042}},{"type":"Feature","geometry":{"type":"Point","coordinates":[-81.0423,32.6555]},"properties":{"site":"KCLX","name":"Charleston SC","scan_time":"2026-09-22T01:59:18Z","stale":false,"bins":25,"density_birds_km3":4.713125,"heading_deg":262.7924068953666,"speed_ms":6.359228219069089,"peak_altitude_m":0.0,"u_ms":-4.939233523405384,"v_ms":-1.4217318658002918}},{"type":"Feature","geometry":{"type":"Point","coordinates":[-74.4108,39.947]},"properties":{"site":"KDIX","name":"Philadelphia PA","scan_time":"2026-09-22T02:00:43Z","stale":false,"bins":25,"density_birds_km3":12.989285714285714,"heading_deg":222.56815774323044,"speed_ms":8.567370430601711,"peak_altitude_m":200.0,"u_ms":-5.830171816446298,"v_ms":-6.1440217775578025}},{"type":"Feature","geometry":{"type":"Point","coordinates":[-84.5658,33.3636]},"properties":{"site":"KFFC","name":"Atlanta GA","scan_time":"2026-09-22T02:00:33Z","stale":false,"bins":25,"density_birds_km3":65.11533333333334,"heading_deg":186.60851889288116,"speed_ms":5.257306113255455,"peak_altitude_m":400.0,"u_ms":-0.9046394602397797,"v_ms":-4.608741207908019}},{"type":"Feature","geometry":{"type":"Point","coordinates":[-85.5449,42.8939]},"properties":{"site":"KGRR","name":"Grand Rapids MI","scan_time":"2026-09-22T02:01:56Z","stale":false,"bins":25,"density_birds_km3":58.053999999999995,"heading_deg":209.84424382353467,"speed_ms":12.584515451131704,"peak_altitude_m":200.0,"u_ms":-6.6173506275766245,"v_ms":-9.895210665931721}},{"type":"Feature","geometry":{"type":"Point","coordinates":[-83.8217,39.4203]},"properties":{"site":"KILN","name":"Wilmington OH","scan_time":"2026-09-22T02:01:43Z","stale":false,"bins":25,"density_birds_km3":28.848000000000003,"heading_deg":200.5113746319628,"speed_ms":11.13563287190035,"peak_altitude_m":200.0,"u_ms":-3.919609900395184,"v_ms":-9.777791823623213}},{"type":"Feature","geometry":{"type":"Point","coordinates":[-81.7019,30.4846]},"properties":{"site":"KJAX","name":"Jacksonville FL","scan_time":"2026-09-22T01:59:47Z","stale":false,"bins":25,"density_birds_km3":29.995,"heading_deg":208.09712939216143,"speed_ms":7.014499395606686,"peak_altitude_m":0.0,"u_ms":-3.2675476220249258,"v_ms":-6.165950773206619}},{"type":"Feature","geometry":{"type":"Point","coordinates":[-88.0847,41.6045]},"properties":{"site":"KLOT","name":"Chicago IL","scan_time":"2026-09-22T01:59:46Z","stale":false,"bins":25,"density_birds_km3":147.28466666666665,"heading_deg":202.44437696226163,"speed_ms":10.377194322106396,"peak_altitude_m":200.0,"u_ms":-4.061116115277898,"v_ms":-8.53569495806307}},{"type":"Feature","geometry":{"type":"Point","coordinates":[-78.4292,33.9892]},"properties":{"site":"KLTX","name":"Wilmington NC","scan_time":"2026-09-22T02:02:02Z","stale":false,"bins":25,"density_birds_km3":8.584375,"heading_deg":241.62799657663987,"speed_ms":6.791101478837327,"peak_altitude_m":0.0,"u_ms":-5.406023894514461,"v_ms":-3.2905325271363}},{"type":"Feature","geometry":{"type":"Point","coordinates":[-77.4778,38.9753]},"properties":{"site":"KLWX","name":"Sterling VA","scan_time":"2026-09-22T02:00:40Z","stale":false,"bins":25,"density_birds_km3":40.59285714285714,"heading_deg":259.29656349049947,"speed_ms":6.444958460054892,"peak_altitude_m":0.0,"u_ms":-6.081177212372969,"v_ms":-0.6905949113567242}},{"type":"Feature","geometry":{"type":"Point","coordinates":[-76.8762,34.7759]},"properties":{"site":"KMHX","name":"Morehead City NC","scan_time":"2026-09-22T01:58:07Z","stale":false,"bins":25,"density_birds_km3":5.8862499999999995,"heading_deg":262.9164017949656,"speed_ms":6.114842854109153,"peak_altitude_m":0.0,"u_ms":-5.969682522828626,"v_ms":-0.8572786154172861}},{"type":"Feature","geometry":{"type":"Point","coordinates":[-80.6542,28.1133]},"properties":{"site":"KMLB","name":"Melbourne FL","scan_time":"2026-09-22T01:58:29Z","stale":false,"bins":25,"density_birds_km3":10.655625,"heading_deg":204.07642752704507,"speed_ms":6.206110035779225,"peak_altitude_m":200.0,"u_ms":-2.4565106457856762,"v_ms":-5.580949029268578}},{"type":"Feature","geometry":{"type":"Point","coordinates":[-86.5625,36.2472]},"properties":{"site":"KOHX","name":"Nashville TN","scan_time":"2026-09-22T02:01:39Z","stale":false,"bins":25,"density_birds_km3":300.13,"heading_deg":187.45223110494703,"speed_ms":10.2298195004387,"peak_altitude_m":600.0,"u_ms":-1.5350569197792068,"v_ms":-9.748175035262499}},{"type":"Feature","geometry":{"type":"Point","coordinates":[-72.8639,40.8655]},"properties":{"site":"KOKX","name":"Upton NY","scan_time":"2026-09-22T02:01:33Z","stale":false,"bins":25,"density_birds_km3":13.240666666666666,"heading_deg":239.7082025757294,"speed_ms":13.481523648993768,"peak_altitude_m":200.0,"u_ms":-11.654102053325161,"v_ms":-6.76931045050567}},{"type":"Feature","geometry":{"type":"Point","coordinates":[-80.2183,40.5317]},"properties":{"site":"KPBZ","name":"Pittsburgh PA","scan_time":"2026-09-22T02:01:45Z","stale":false,"bins":25,"density_birds_km3":8.975,"heading_deg":null,"speed_ms":null,"peak_altitude_m":400.0,"u_ms":null,"v_ms":null}},{"type":"Feature","geometry":{"type":"Point","coordinates":[-78.4899,35.6655]},"properties":{"site":"KRAX","name":"Raleigh NC","scan_time":"2026-09-22T01:59:01Z","stale":false,"bins":25,"density_birds_km3":29.005,"heading_deg":234.95683973984953,"speed_ms":6.791743891797557,"peak_altitude_m":200.0,"u_ms":-5.372031631762653,"v_ms":-3.8409834205933686}},{"type":"Feature","geometry":{"type":"Point","coordinates":[-82.4017,27.7055]},"properties":{"site":"KTBW","name":"Tampa FL","scan_time":"2026-09-22T02:00:33Z","stale":false,"bins":25,"density_birds_km3":17.075,"heading_deg":243.5274115512668,"speed_ms":5.831374816983895,"peak_altitude_m":0.0,"u_ms":-4.53469289897511,"v_ms":-2.3046599560761347}}]}