{"type":"FeatureCollection","frame":"2026-10-05T05","site_count":20,"fresh_count":20,"failures":{},"features":[{"type":"Feature","geometry":{"type":"Point","coordinates":[-77.0073,36.984]},"properties":{"site":"KAKQ","name":"Wakefield VA","scan_time":"2026-10-05T05:01:36Z","stale":false,"bins":25,"density_birds_km3":30.333125,"heading_deg":182.52885793255683,"speed_ms":7.936413896845186,"peak_altitude_m":0.0,"u_ms":-0.15695913783510881,"v_ms":-7.762909806507449}},{"type":"Feature","geometry":{"type":"Point","coordinates":[-71.1369,41.9558]},"properties":{"site":"KBOX","name":"Boston MA","scan_time":"2026-10-05T05:01:40Z","stale":false,"bins":25,"density_birds_km3":1.37125,"heading_deg":166.54033733941162,"speed_ms":5.634102096627164,"peak_altitude_m":0.0,"u_ms":1.3500546946216956,"v_ms":-5.437479489516864}},{"type":"Feature","geometry":{"type":"Point","coordinates":[-78.7369,42.9489]},"properties":{"site":"KBUF","name":"Buffalo NY","scan_time":"2026-10-05T04:57:45Z","stale":false,"bins":25,"density_birds_km3":4.374666666666667,"heading_deg":129.7922616882058,"speed_ms":11.620198110332217,"peak_altitude_m":400.0,"u_ms":8.813073758000609,"v_ms":-7.45392106065224}},{"type":"Feature","geometry":{"type":"Point","coordinates":[-81.8597,41.4131]},"properties":{"site":"KCLE","name":"Cleveland OH","scan_time":"2026-10-05T04:57:28Z","stale":false,"bins":25,"density_birds_km3":10.515333333333333,"heading_deg":158.94268207490947,"speed_ms":12.70195333798263,"peak_altitude_m":400.0,"u_ms":4.536052748367464,"v_ms":-11.837957902745199}},{"type":"Feature","geometry":{"type":"Point","coordinates":[-81.0423,32.6555]},"properties":{"site":"KCLX","name":"Charleston SC","scan_time":"2026-10-05T04:59:00Z","stale":false,"bins":25,"density_birds_km3":49.769999999999996,"heading_deg":178.06751309619338,"speed_ms":2.696241421413835,"peak_altitude_m":0.0,"u_ms":0.08871458043871838,"v_ms":-2.5543425539977265}},{"type":"Feature","geometry":{"type":"Point","coordinates":[-74.4108,39.947]},"properties":{"site":"KDIX","name":"Philadelphia PA","scan_time":"2026-10-05T05:01:50Z","stale":false,"bins":25,"density_birds_km3":3.9325,"heading_deg":176.29124204111287,"speed_ms":6.301327160493828,"peak_altitude_m":0.0,"u_ms":0.22660273368606712,"v_ms":-6.248044532627867}},{"type":"Feature","geometry":{"type":"Point","coordinates":[-84.5658,33.3636]},"properties":{"site":"KFFC","name":"Atlanta GA","scan_time":"2026-10-05T05:01:03Z","stale":false,"bins":25,"density_birds_km3":45.23733333333334,"heading_deg":215.69275541541862,"speed_ms":5.942673185211052,"peak_altitude_m":600.0,"u_ms":-3.7106405779388014,"v_ms":-4.3159123052075605}},{"type":"Feature","geometry":{"type":"Point","coordinates":[-85.5449,42.8939]},"properties":{"site":"KGRR","name":"Grand Rapids MI","scan_time":"2026-10-05T04:56:56Z","stale":false,"bins":25,"density_birds_km3":34.244,"heading_deg":148.01554052349823,"speed_ms":13.804255232161978,"peak_altitude_m":600.0,"u_ms":6.992204419351698,"v_ms":-11.799943541321912}},{"type":"Feature","geometry":{"type":"Point","coordinates":[-83.8217,39.4203]},"properties":{"site":"KILN","name":"Wilmington OH","scan_time":"2026-10-05T04:59:59Z","stale":false,"bins":25,"density_birds_km3":40.76733333333333,"heading_deg":166.48026171649343,"speed_ms":13.43600637775961,"peak_altitude_m":400.0,"u_ms":2.96079035159444,"v_ms":-13.01213671300082}},{"type":"Feature","geometry":{"type":"Point","coordinates":[-81.7019,30.4846]},"properties":{"site":"KJAX","name":"Jacksonville FL","scan_time":"2026-10-05T04:58:50Z","stale":false,"bins":25,"density_birds_km3":27.135,"heading_deg":205.28107902465007,"speed_ms":7.419400909712238,"peak_altitude_m":200.0,"u_ms":-3.1791197473545285,"v_ms":-6.635377671985105}},{"type":"Feature","geometry":{"type":"Point","coordinates":[-88.0847,41.6045]},"properties":{"site":"KLOT","name":"Chicago IL","scan_time":"2026-10-05T05:02:09Z","stale":false,"bins":25,"density_birds_km3":49.474000000000004,"heading_deg":170.42611572483568,"speed_ms":13.68662776752146,"peak_altitude_m":400.0,"u_ms":2.3452610869301567,"v_ms":-13.403390020078426}},{"type":"Feature","geometry":{"type":"Point","coordinates":[-78.4292,33.9892]},"properties":{"site":"KLTX","name":"Wilmington NC","scan_time":"2026-10-05T04:59:44Z","stale":false,"bins":25,"density_birds_km3":49.599374999999995,"heading_deg":184.65688593842745,"speed_ms":5.596924469529566,"peak_altitude_m":0.0,"u_ms":-0.00968491254226453,"v_ms":-4.9389222864141}},{"type":"Feature","geometry":{"type":"Point","coordinates":[-77.4778,38.9753]},"properties":{"site":"KLWX","name":"Sterling VA","scan_time":"2026-10-05T04:57:59Z","stale":false,"bins":25,"density_birds_km3":55.81545454545455,"heading_deg":200.2589305276483,"speed_ms":11.498009709539458,"peak_altitude_m":200.0,"u_ms":-3.405935203685662,"v_ms":-10.539674862530754}},{"type":"Feature","geometry":{"type":"Point","coordinates":[-76.8762,34.7759]},"properties":{"site":"KMHX","name":"Morehead City NC","scan_time":"2026-10-05T05:00:39Z","stale":false,"bins":25,"density_birds_km3":12.575624999999999,"heading_deg":129.34027346933976,"speed_ms":3.0467531563773735,"peak_altitude_m":0.0,"u_ms":1.9658912416741228,"v_ms":-2.1326881399741526}},{"type":"Feature","geometry":{"type":"Point","coordinates":[-80.6542,28.1133]},"properties":{"site":"KMLB","name":"Melbourne FL","scan_time":"2026-10-05T05:01:58Z","stale":false,"bins":25,"density_birds_km3":2.423125,"heading_deg":281.0594450410424,"speed_ms":3.658877708978329,"peak_altitude_m":200.0,"u_ms":-3.4832481940144486,"v_ms":0.6809158926728586}},{"type":"Feature","geometry":{"type":"Point","coordinates":[-86.5625,36.2472]},"properties":{"site":"KOHX","name":"Nashville TN","scan_time":"2026-10-05T05:00:57Z","stale":false,"bins":25,"density_birds_km3":157.87466666666666,"heading_deg":192.38345343816098,"speed_ms":10.094878975727582,"peak_altitude_m":200.0,"u_ms":-2.182957662618448,"v_ms":-9.75266485651065}},{"type":"Feature","geometry":{"type":"Point","coordinates":[-72.8639,40.8655]},"properties":{"site":"KOKX","name":"Upton NY","scan_time":"2026-10-05T04:59:50Z","stale":false,"bins":25,"density_birds_km3":3.536875,"heading_deg":205.2394448715985,"speed_ms":5.773699381078691,"peak_altitude_m":0.0,"u_ms":-2.3840654288240497,"v_ms":-5.150445623342175}},{"type":"Feature","geometry":{"type":"Point","coordinates":[-80.2183,40.5317]},"properties":{"site":"KPBZ","name":"Pittsburgh PA","scan_time":"2026-10-05T04:58:31Z","stale":false,"bins":25,"density_birds_km3":9.461428571428572,"heading_deg":102.26053201996044,"speed_ms":13.803654209135521,"peak_altitude_m":400.0,"u_ms":13.053614949037373,"v_ms":-2.956870517176293}},{"type":"Feature","geometry":{"type":"Point","coordinates":[-78.4899,35.6655]},"properties":{"site":"KRAX","name":"Raleigh NC","scan_time":"2026-10-05T05:00:54Z","stale":false,"bins":25,"density_birds_km3":21.1525,"heading_deg":169.04092535349272,"speed_ms":7.940350135917741,"peak_altitude_m":200.0,"u_ms":1.4713721782295237,"v_ms":-7.68451571918213}},{"type":"Feature","geometry":{"type":"Point","coordinates":[-82.4017,27.7055]},"properties":{"site":"KTBW","name":"Tampa FL","scan_time":"2026-10-05T04:59:13Z","stale":false,"bins":25,"density_birds_km3":6.2825,"heading_deg":253.50592602009277,"speed_ms":5.396039200079594,"peak_altitude_m":0.0,"u_ms":-4.370550194010547,"v_ms":-1.4156740622823596}}]}