{"type":"FeatureCollection","frame":"2026-08-12T06","site_count":20,"fresh_count":20,"failures":{},"features":[{"type":"Feature","geometry":{"type":"Point","coordinates":[-77.0073,36.984]},"properties":{"site":"KAKQ","name":"Wakefield VA","scan_time":"2026-08-12T06:01:25Z","stale":false,"bins":25,"density_birds_km3":1.961875,"heading_deg":146.73556162812062,"speed_ms":7.401525963682701,"peak_altitude_m":400.0,"u_ms":3.7253838802166297,"v_ms":-5.7072124880535196}},{"type":"Feature","geometry":{"type":"Point","coordinates":[-71.1369,41.9558]},"properties":{"site":"KBOX","name":"Boston MA","scan_time":"2026-08-12T05:59:36Z","stale":false,"bins":25,"density_birds_km3":1.105625,"heading_deg":124.95267881436038,"speed_ms":7.306346153846154,"peak_altitude_m":0.0,"u_ms":5.955316742081449,"v_ms":-4.07133484162896}},{"type":"Feature","geometry":{"type":"Point","coordinates":[-78.7369,42.9489]},"properties":{"site":"KBUF","name":"Buffalo NY","scan_time":"2026-08-12T06:02:49Z","stale":false,"bins":25,"density_birds_km3":4.478,"heading_deg":204.5147262876475,"speed_ms":6.021036176864672,"peak_altitude_m":600.0,"u_ms":-3.200859014440971,"v_ms":-4.517862140836684}},{"type":"Feature","geometry":{"type":"Point","coordinates":[-81.8597,41.4131]},"properties":{"site":"KCLE","name":"Cleveland OH","scan_time":"2026-08-12T06:03:15Z","stale":false,"bins":25,"density_birds_km3":3.932666666666667,"heading_deg":117.34718314163841,"speed_ms":5.029781271360219,"peak_altitude_m":200.0,"u_ms":1.8974743677375254,"v_ms":-0.9720505809979493}},{"type":"Feature","geometry":{"type":"Point","coordinates":[-81.0423,32.6555]},"properties":{"site":"KCLX","name":"Charleston SC","scan_time":"2026-08-12T06:01:17Z","stale":false,"bins":25,"density_birds_km3":3.838125,"heading_deg":142.2403753631416,"speed_ms":8.336505945593744,"peak_altitude_m":0.0,"u_ms":5.083702557419775,"v_ms":-6.5673790519628605}},{"type":"Feature","geometry":{"type":"Point","coordinates":[-74.4108,39.947]},"properties":{"site":"KDIX","name":"Philadelphia PA","scan_time":"2026-08-12T06:02:07Z","stale":false,"bins":25,"density_birds_km3":2.831875,"heading_deg":183.54977807498392,"speed_ms":8.04813392857143,"peak_altitude_m":400.0,"u_ms":-0.6649218750000001,"v_ms":-7.9072120535714285}},{"type":"Feature","geometry":{"type":"Point","coordinates":[-84.5658,33.3636]},"properties":{"site":"KFFC","name":"Atlanta GA","scan_time":"2026-08-12T05:58:14Z","stale":false,"bins":25,"density_birds_km3":3.794,"heading_deg":117.44832674531514,"speed_ms":5.766041117554032,"peak_altitude_m":200.0,"u_ms":4.9232015463011765,"v_ms":-2.6386118432612897}},{"type":"Feature","geometry":{"type":"Point","coordinates":[-85.5449,42.8939]},"properties":{"site":"KGRR","name":"Grand Rapids MI","scan_time":"2026-08-12T05:57:27Z","stale":false,"bins":25,"density_birds_km3":1.8599999999999999,"heading_deg":258.13200349918253,"speed_ms":2.481501792114696,"peak_altitude_m":200.0,"u_ms":-0.3289462365591399,"v_ms":-0.2870824372759857}},{"type":"Feature","geometry":{"type":"Point","coordinates":[-83.8217,39.4203]},"properties":{"site":"KILN","name":"Wilmington OH","scan_time":"2026-08-12T06:01:18Z","stale":false,"bins":25,"density_birds_km3":3.7973333333333334,"heading_deg":119.90006293699261,"speed_ms":6.519924919556669,"peak_altitude_m":200.0,"u_ms":4.130427243475152,"v_ms":-3.21627279227744}},{"type":"Feature","geometry":{"type":"Point","coordinates":[-81.7019,30.4846]},"properties":{"site":"KJAX","name":"Jacksonville FL","scan_time":"2026-08-12T05:59:46Z","stale":false,"bins":25,"density_birds_km3":7.373125,"heading_deg":103.18999963896243,"speed_ms":6.338378952963062,"peak_altitude_m":200.0,"u_ms":4.51214899459651,"v_ms":-2.1960864558419697}},{"type":"Feature","geometry":{"type":"Point","coordinates":[-88.0847,41.6045]},"properties":{"site":"KLOT","name":"Chicago IL","scan_time":"2026-08-12T06:00:32Z","stale":false,"bins":25,"density_birds_km3":2.3633333333333337,"heading_deg":41.059656770435055,"speed_ms":7.142517006802721,"peak_altitude_m":200.0,"u_ms":3.8653458049886624,"v_ms":3.8667346938775506}},{"type":"Feature","geometry":{"type":"Point","coordinates":[-78.4292,33.9892]},"properties":{"site":"KLTX","name":"Wilmington NC","scan_time":"2026-08-12T05:58:40Z","stale":false,"bins":25,"density_birds_km3":11.21625,"heading_deg":164.65238508514634,"speed_ms":3.001440432408336,"peak_altitude_m":0.0,"u_ms":0.9337083472640142,"v_ms":-2.7409032653516103}},{"type":"Feature","geometry":{"type":"Point","coordinates":[-77.4778,38.9753]},"properties":{"site":"KLWX","name":"Sterling VA","scan_time":"2026-08-12T06:01:30Z","stale":false,"bins":25,"density_birds_km3":3.6,"heading_deg":172.72046729731082,"speed_ms":7.0799000999001,"peak_altitude_m":0.0,"u_ms":1.3546973026973028,"v_ms":-6.459260739260739}},{"type":"Feature","geometry":{"type":"Point","coordinates":[-76.8762,34.7759]},"properties":{"site":"KMHX","name":"Morehead City NC","scan_time":"2026-08-12T05:57:44Z","stale":false,"bins":25,"density_birds_km3":10.580625,"heading_deg":185.62274690137042,"speed_ms":6.085529564652372,"peak_altitude_m":0.0,"u_ms":-0.3836753499911396,"v_ms":-5.628086124401914}},{"type":"Feature","geometry":{"type":"Point","coordinates":[-80.6542,28.1133]},"properties":{"site":"KMLB","name":"Melbourne FL","scan_time":"2026-08-12T06:00:40Z","stale":false,"bins":25,"density_birds_km3":2.71375,"heading_deg":52.45130172375268,"speed_ms":4.910234968901175,"peak_altitude_m":0.0,"u_ms":2.964828380557475,"v_ms":1.6510066804883667}},{"type":"Feature","geometry":{"type":"Point","coordinates":[-86.5625,36.2472]},"properties":{"site":"KOHX","name":"Nashville TN","scan_time":"2026-08-12T05:59:45Z","stale":false,"bins":25,"density_birds_km3":15.483333333333333,"heading_deg":346.7269205935798,"speed_ms":6.834703121636168,"peak_altitude_m":400.0,"u_ms":-0.9913136706135629,"v_ms":4.500817653390742}},{"type":"Feature","geometry":{"type":"Point","coordinates":[-72.8639,40.8655]},"properties":{"site":"KOKX","name":"Upton NY","scan_time":"2026-08-12T06:02:33Z","stale":false,"bins":25,"density_birds_km3":2.2312499999999997,"heading_deg":164.19535883849713,"speed_ms":7.095145821648907,"peak_altitude_m":0.0,"u_ms":1.8710067302299493,"v_ms":-6.740325294447561}},{"type":"Feature","geometry":{"type":"Point","coordinates":[-80.2183,40.5317]},"properties":{"site":"KPBZ","name":"Pittsburgh PA","scan_time":"2026-08-12T06:01:14Z","stale":false,"bins":25,"density_birds_km3":3.41,"heading_deg":181.65275178028946,"speed_ms":6.494099287808964,"peak_altitude_m":1000.0,"u_ms":-0.2676916631755341,"v_ms":-5.8655215751989935}},{"type":"Feature","geometry":{"type":"Point","coordinates":[-78.4899,35.6655]},"properties":{"site":"KRAX","name":"Raleigh NC","scan_time":"2026-08-12T05:59:12Z","stale":false,"bins":25,"density_birds_km3":2.364375,"heading_deg":127.95973849076972,"speed_ms":6.67541170240932,"peak_altitude_m":0.0,"u_ms":5.387760127084988,"v_ms":-3.704789515488483}},{"type":"Feature","geometry":{"type":"Point","coordinates":[-82.4017,27.7055]},"properties":{"site":"KTBW","name":"Tampa FL","scan_time":"2026-08-12T05:58:41Z","stale":false,"bins":25,"density_birds_km3":5.08,"heading_deg":200.93549080480867,"speed_ms":6.344977236372586,"peak_altitude_m":0.0,"u_ms":-1.4299458594807433,"v_ms":-5.998497600590625}}]}