{"type":"FeatureCollection","frame":"2026-09-12T08","site_count":20,"fresh_count":20,"failures":{},"features":[{"type":"Feature","geometry":{"type":"Point","coordinates":[-77.0073,36.984]},"properties":{"site":"KAKQ","name":"Wakefield VA","scan_time":"2026-09-12T08:01:59Z","stale":false,"bins":25,"density_birds_km3":51.49187499999999,"heading_deg":199.62765814686173,"speed_ms":8.822457060315841,"peak_altitude_m":0.0,"u_ms":-2.61349926562519,"v_ms":-8.065350618452836}},{"type":"Feature","geometry":{"type":"Point","coordinates":[-71.1369,41.9558]},"properties":{"site":"KBOX","name":"Boston MA","scan_time":"2026-09-12T07:58:10Z","stale":false,"bins":25,"density_birds_km3":2.485,"heading_deg":219.45127601339365,"speed_ms":6.088702213279679,"peak_altitude_m":0.0,"u_ms":-3.9487801810865193,"v_ms":-4.464600100603621}},{"type":"Feature","geometry":{"type":"Point","coordinates":[-78.7369,42.9489]},"properties":{"site":"KBUF","name":"Buffalo NY","scan_time":"2026-09-12T07:59:47Z","stale":false,"bins":25,"density_birds_km3":6.1593333333333335,"heading_deg":292.5771195290358,"speed_ms":5.580728433813182,"peak_altitude_m":200.0,"u_ms":-3.3550892953782876,"v_ms":0.9543110726269077}},{"type":"Feature","geometry":{"type":"Point","coordinates":[-81.8597,41.4131]},"properties":{"site":"KCLE","name":"Cleveland OH","scan_time":"2026-09-12T08:01:38Z","stale":false,"bins":25,"density_birds_km3":14.984,"heading_deg":307.71450589986546,"speed_ms":8.734511033991813,"peak_altitude_m":200.0,"u_ms":-6.595362609005161,"v_ms":4.922267752269087}},{"type":"Feature","geometry":{"type":"Point","coordinates":[-81.0423,32.6555]},"properties":{"site":"KCLX","name":"Charleston SC","scan_time":"2026-09-12T08:01:57Z","stale":false,"bins":25,"density_birds_km3":5.496875,"heading_deg":124.89611007692518,"speed_ms":3.8149744172825466,"peak_altitude_m":0.0,"u_ms":3.119102899374645,"v_ms":-1.7835110858442298}},{"type":"Feature","geometry":{"type":"Point","coordinates":[-74.4108,39.947]},"properties":{"site":"KDIX","name":"Philadelphia PA","scan_time":"2026-09-12T08:02:11Z","stale":false,"bins":25,"density_birds_km3":45.67,"heading_deg":219.36321616662775,"speed_ms":8.458748528405202,"peak_altitude_m":200.0,"u_ms":-5.344030116358658,"v_ms":-6.4250713210130055}},{"type":"Feature","geometry":{"type":"Point","coordinates":[-84.5658,33.3636]},"properties":{"site":"KFFC","name":"Atlanta GA","scan_time":"2026-09-12T08:00:15Z","stale":false,"bins":25,"density_birds_km3":5.037333333333334,"heading_deg":349.0974593011234,"speed_ms":3.1581014166556334,"peak_altitude_m":400.0,"u_ms":0.21398119952336822,"v_ms":2.3838991129352576}},{"type":"Feature","geometry":{"type":"Point","coordinates":[-85.5449,42.8939]},"properties":{"site":"KGRR","name":"Grand Rapids MI","scan_time":"2026-09-12T07:55:45Z","stale":false,"bins":25,"density_birds_km3":6.348666666666667,"heading_deg":339.97471297127106,"speed_ms":9.40775065754866,"peak_altitude_m":200.0,"u_ms":-2.203285639137296,"v_ms":8.489153077327725}},{"type":"Feature","geometry":{"type":"Point","coordinates":[-83.8217,39.4203]},"properties":{"site":"KILN","name":"Wilmington OH","scan_time":"2026-09-12T07:59:00Z","stale":false,"bins":25,"density_birds_km3":19.922,"heading_deg":253.61432928264236,"speed_ms":4.857965999598421,"peak_altitude_m":200.0,"u_ms":-2.3838431162572786,"v_ms":-0.8680453115587977}},{"type":"Feature","geometry":{"type":"Point","coordinates":[-81.7019,30.4846]},"properties":{"site":"KJAX","name":"Jacksonville FL","scan_time":"2026-09-12T07:59:00Z","stale":false,"bins":25,"density_birds_km3":13.974375,"heading_deg":183.71018265877058,"speed_ms":3.8035153629410976,"peak_altitude_m":0.0,"u_ms":-0.33428641710273266,"v_ms":-3.67011673151751}},{"type":"Feature","geometry":{"type":"Point","coordinates":[-88.0847,41.6045]},"properties":{"site":"KLOT","name":"Chicago IL","scan_time":"2026-09-12T07:57:24Z","stale":false,"bins":25,"density_birds_km3":2.824,"heading_deg":15.19200437696729,"speed_ms":9.088952426717922,"peak_altitude_m":200.0,"u_ms":2.4658313310908215,"v_ms":8.308832292167226}},{"type":"Feature","geometry":{"type":"Point","coordinates":[-78.4292,33.9892]},"properties":{"site":"KLTX","name":"Wilmington NC","scan_time":"2026-09-12T08:00:51Z","stale":false,"bins":25,"density_birds_km3":22.2725,"heading_deg":185.74617316589666,"speed_ms":5.887932708497026,"peak_altitude_m":0.0,"u_ms":-0.6440105511280727,"v_ms":-5.6097463239420815}},{"type":"Feature","geometry":{"type":"Point","coordinates":[-77.4778,38.9753]},"properties":{"site":"KLWX","name":"Sterling VA","scan_time":"2026-09-12T07:59:00Z","stale":false,"bins":25,"density_birds_km3":44.24875,"heading_deg":269.1284971991836,"speed_ms":6.751849905343166,"peak_altitude_m":200.0,"u_ms":-6.577982114096804,"v_ms":-0.05509790624735103}},{"type":"Feature","geometry":{"type":"Point","coordinates":[-76.8762,34.7759]},"properties":{"site":"KMHX","name":"Morehead City NC","scan_time":"2026-09-12T08:00:16Z","stale":false,"bins":25,"density_birds_km3":8.93125,"heading_deg":276.5585313369431,"speed_ms":1.856148355493352,"peak_altitude_m":0.0,"u_ms":0.39151084674597636,"v_ms":0.0633442967109867}},{"type":"Feature","geometry":{"type":"Point","coordinates":[-80.6542,28.1133]},"properties":{"site":"KMLB","name":"Melbourne FL","scan_time":"2026-09-12T08:01:40Z","stale":false,"bins":25,"density_birds_km3":5.479375,"heading_deg":126.54867244526011,"speed_ms":4.0892665678111095,"peak_altitude_m":0.0,"u_ms":1.528310710619368,"v_ms":-1.7648363180107218}},{"type":"Feature","geometry":{"type":"Point","coordinates":[-86.5625,36.2472]},"properties":{"site":"KOHX","name":"Nashville TN","scan_time":"2026-09-12T08:02:02Z","stale":false,"bins":25,"density_birds_km3":27.307333333333336,"heading_deg":66.82142604795328,"speed_ms":5.285070556640624,"peak_altitude_m":400.0,"u_ms":4.223123046875,"v_ms":0.9953063964843751}},{"type":"Feature","geometry":{"type":"Point","coordinates":[-72.8639,40.8655]},"properties":{"site":"KOKX","name":"Upton NY","scan_time":"2026-09-12T08:00:31Z","stale":false,"bins":25,"density_birds_km3":7.82625,"heading_deg":247.49354477527208,"speed_ms":8.975827766599597,"peak_altitude_m":200.0,"u_ms":-8.269449496981892,"v_ms":-3.4235066398390344}},{"type":"Feature","geometry":{"type":"Point","coordinates":[-80.2183,40.5317]},"properties":{"site":"KPBZ","name":"Pittsburgh PA","scan_time":"2026-09-12T08:01:53Z","stale":false,"bins":25,"density_birds_km3":41.13,"heading_deg":245.46151714106026,"speed_ms":7.40162672362891,"peak_altitude_m":400.0,"u_ms":-6.226678823243374,"v_ms":-2.907838386995936}},{"type":"Feature","geometry":{"type":"Point","coordinates":[-78.4899,35.6655]},"properties":{"site":"KRAX","name":"Raleigh NC","scan_time":"2026-09-12T08:03:30Z","stale":false,"bins":25,"density_birds_km3":28.48875,"heading_deg":209.73155393394248,"speed_ms":4.574393497290537,"peak_altitude_m":200.0,"u_ms":-1.3241096070731226,"v_ms":-3.875791009411816}},{"type":"Feature","geometry":{"type":"Point","coordinates":[-82.4017,27.7055]},"properties":{"site":"KTBW","name":"Tampa FL","scan_time":"2026-09-12T08:00:17Z","stale":false,"bins":25,"density_birds_km3":3.2087499999999998,"heading_deg":295.9361393925194,"speed_ms":4.257432800934944,"peak_altitude_m":0.0,"u_ms":-3.6156057654850016,"v_ms":1.4396221269964942}}]}