{"type":"FeatureCollection","frame":"2026-09-12T01","site_count":20,"fresh_count":20,"failures":{},"features":[{"type":"Feature","geometry":{"type":"Point","coordinates":[-77.0073,36.984]},"properties":{"site":"KAKQ","name":"Wakefield VA","scan_time":"2026-09-12T00:58:10Z","stale":false,"bins":25,"density_birds_km3":35.483125,"heading_deg":237.5929445572436,"speed_ms":6.908556846678204,"peak_altitude_m":0.0,"u_ms":-5.742212941051814,"v_ms":-3.390378801257373}},{"type":"Feature","geometry":{"type":"Point","coordinates":[-71.1369,41.9558]},"properties":{"site":"KBOX","name":"Boston MA","scan_time":"2026-09-12T01:00:44Z","stale":false,"bins":25,"density_birds_km3":19.38625,"heading_deg":187.4591129962317,"speed_ms":8.997543469144166,"peak_altitude_m":200.0,"u_ms":-1.2090783573663668,"v_ms":-8.85454337236685}},{"type":"Feature","geometry":{"type":"Point","coordinates":[-78.7369,42.9489]},"properties":{"site":"KBUF","name":"Buffalo NY","scan_time":"2026-09-12T01:00:18Z","stale":false,"bins":25,"density_birds_km3":19.578666666666667,"heading_deg":196.17269731782076,"speed_ms":6.829951648052302,"peak_altitude_m":400.0,"u_ms":-1.9647575592481612,"v_ms":-6.376746118223917}},{"type":"Feature","geometry":{"type":"Point","coordinates":[-81.8597,41.4131]},"properties":{"site":"KCLE","name":"Cleveland OH","scan_time":"2026-09-12T00:57:59Z","stale":false,"bins":25,"density_birds_km3":36.02466666666667,"heading_deg":259.81078677778726,"speed_ms":7.0619691062067425,"peak_altitude_m":400.0,"u_ms":-5.380967296606533,"v_ms":-1.0867884260209315}},{"type":"Feature","geometry":{"type":"Point","coordinates":[-81.0423,32.6555]},"properties":{"site":"KCLX","name":"Charleston SC","scan_time":"2026-09-12T00:59:14Z","stale":false,"bins":25,"density_birds_km3":10.524,"heading_deg":270.3,"speed_ms":2.05,"peak_altitude_m":600.0,"u_ms":-2.05,"v_ms":0.01}},{"type":"Feature","geometry":{"type":"Point","coordinates":[-74.4108,39.947]},"properties":{"site":"KDIX","name":"Philadelphia PA","scan_time":"2026-09-12T00:58:43Z","stale":false,"bins":25,"density_birds_km3":37.33714285714286,"heading_deg":175.05687188396467,"speed_ms":7.402969260326609,"peak_altitude_m":800.0,"u_ms":-0.49892564841498555,"v_ms":-6.672716426512968}},{"type":"Feature","geometry":{"type":"Point","coordinates":[-84.5658,33.3636]},"properties":{"site":"KFFC","name":"Atlanta GA","scan_time":"2026-09-12T01:00:10Z","stale":false,"bins":25,"density_birds_km3":19.505999999999997,"heading_deg":63.31932748921426,"speed_ms":3.03050035886394,"peak_altitude_m":400.0,"u_ms":1.807743258484569,"v_ms":0.8364882600225573}},{"type":"Feature","geometry":{"type":"Point","coordinates":[-85.5449,42.8939]},"properties":{"site":"KGRR","name":"Grand Rapids MI","scan_time":"2026-09-12T00:59:14Z","stale":false,"bins":25,"density_birds_km3":10.947333333333335,"heading_deg":329.753423159393,"speed_ms":6.183656902746483,"peak_altitude_m":400.0,"u_ms":-2.7513507094574017,"v_ms":4.762473661774557}},{"type":"Feature","geometry":{"type":"Point","coordinates":[-83.8217,39.4203]},"properties":{"site":"KILN","name":"Wilmington OH","scan_time":"2026-09-12T01:00:07Z","stale":false,"bins":25,"density_birds_km3":24.792666666666666,"heading_deg":282.8801040257807,"speed_ms":4.87369332544506,"peak_altitude_m":200.0,"u_ms":-2.4355249287366214,"v_ms":0.9137774969074383}},{"type":"Feature","geometry":{"type":"Point","coordinates":[-81.7019,30.4846]},"properties":{"site":"KJAX","name":"Jacksonville FL","scan_time":"2026-09-12T01:00:24Z","stale":false,"bins":25,"density_birds_km3":19.860625,"heading_deg":190.04527460613517,"speed_ms":4.7423919703836095,"peak_altitude_m":200.0,"u_ms":-1.0737789621497416,"v_ms":-4.489220654879683}},{"type":"Feature","geometry":{"type":"Point","coordinates":[-88.0847,41.6045]},"properties":{"site":"KLOT","name":"Chicago IL","scan_time":"2026-09-12T01:00:20Z","stale":false,"bins":25,"density_birds_km3":12.446666666666667,"heading_deg":327.8656034147896,"speed_ms":6.13358803986711,"peak_altitude_m":200.0,"u_ms":-2.980382059800664,"v_ms":4.343909548815775}},{"type":"Feature","geometry":{"type":"Point","coordinates":[-78.4292,33.9892]},"properties":{"site":"KLTX","name":"Wilmington NC","scan_time":"2026-09-12T00:57:47Z","stale":false,"bins":25,"density_birds_km3":4.255625,"heading_deg":346.71366211947566,"speed_ms":3.4813985807214665,"peak_altitude_m":0.0,"u_ms":-0.5183353045535186,"v_ms":2.936014192785334}},{"type":"Feature","geometry":{"type":"Point","coordinates":[-77.4778,38.9753]},"properties":{"site":"KLWX","name":"Sterling VA","scan_time":"2026-09-12T01:01:40Z","stale":false,"bins":25,"density_birds_km3":57.004666666666665,"heading_deg":228.08165029549562,"speed_ms":5.969970368976789,"peak_altitude_m":200.0,"u_ms":-3.3903215906685795,"v_ms":-3.37796122098629}},{"type":"Feature","geometry":{"type":"Point","coordinates":[-76.8762,34.7759]},"properties":{"site":"KMHX","name":"Morehead City NC","scan_time":"2026-09-12T00:59:16Z","stale":false,"bins":25,"density_birds_km3":3.86625,"heading_deg":34.678466938507995,"speed_ms":6.225741309620048,"peak_altitude_m":0.0,"u_ms":1.6692400970088925,"v_ms":1.8534745351657236}},{"type":"Feature","geometry":{"type":"Point","coordinates":[-80.6542,28.1133]},"properties":{"site":"KMLB","name":"Melbourne FL","scan_time":"2026-09-12T01:00:20Z","stale":false,"bins":25,"density_birds_km3":9.5775,"heading_deg":285.8424781105376,"speed_ms":3.120186079916427,"peak_altitude_m":0.0,"u_ms":-2.6359983024288325,"v_ms":0.5702246017236876}},{"type":"Feature","geometry":{"type":"Point","coordinates":[-86.5625,36.2472]},"properties":{"site":"KOHX","name":"Nashville TN","scan_time":"2026-09-12T01:00:31Z","stale":false,"bins":25,"density_birds_km3":48.872,"heading_deg":312.90218145688186,"speed_ms":1.6410771484512559,"peak_altitude_m":400.0,"u_ms":0.05653402448128688,"v_ms":0.3085054864564112}},{"type":"Feature","geometry":{"type":"Point","coordinates":[-72.8639,40.8655]},"properties":{"site":"KOKX","name":"Upton NY","scan_time":"2026-09-12T01:00:09Z","stale":false,"bins":25,"density_birds_km3":21.306875,"heading_deg":206.6219521951566,"speed_ms":7.858248126460147,"peak_altitude_m":200.0,"u_ms":-3.2202230043387234,"v_ms":-6.654812949422009}},{"type":"Feature","geometry":{"type":"Point","coordinates":[-80.2183,40.5317]},"properties":{"site":"KPBZ","name":"Pittsburgh PA","scan_time":"2026-09-12T01:02:10Z","stale":false,"bins":25,"density_birds_km3":86.9557142857143,"heading_deg":217.35915492115353,"speed_ms":6.736046601462974,"peak_altitude_m":800.0,"u_ms":-3.9851979945754907,"v_ms":-4.690656365579025}},{"type":"Feature","geometry":{"type":"Point","coordinates":[-78.4899,35.6655]},"properties":{"site":"KRAX","name":"Raleigh NC","scan_time":"2026-09-12T00:59:49Z","stale":false,"bins":25,"density_birds_km3":40.140625,"heading_deg":155.860718775422,"speed_ms":3.282259008938861,"peak_altitude_m":400.0,"u_ms":1.085597221789641,"v_ms":-2.950193727224593}},{"type":"Feature","geometry":{"type":"Point","coordinates":[-82.4017,27.7055]},"properties":{"site":"KTBW","name":"Tampa FL","scan_time":"2026-09-12T01:01:38Z","stale":false,"bins":25,"density_birds_km3":10.845625,"heading_deg":265.77638782006693,"speed_ms":4.643369446205266,"peak_altitude_m":0.0,"u_ms":-4.006344724255172,"v_ms":-0.12198121362300457}}]}