{"type":"FeatureCollection","frame":"2026-09-09T08","site_count":20,"fresh_count":20,"failures":{},"features":[{"type":"Feature","geometry":{"type":"Point","coordinates":[-77.0073,36.984]},"properties":{"site":"KAKQ","name":"Wakefield VA","scan_time":"2026-09-09T08:01:25Z","stale":false,"bins":25,"density_birds_km3":0.743125,"heading_deg":73.8493139297707,"speed_ms":8.972053872053872,"peak_altitude_m":0.0,"u_ms":2.241759259259259,"v_ms":0.6382828282828283}},{"type":"Feature","geometry":{"type":"Point","coordinates":[-71.1369,41.9558]},"properties":{"site":"KBOX","name":"Boston MA","scan_time":"2026-09-09T07:59:30Z","stale":false,"bins":25,"density_birds_km3":3.984375,"heading_deg":231.7147331523645,"speed_ms":4.101512631413777,"peak_altitude_m":200.0,"u_ms":-2.828699199748941,"v_ms":-2.3673356347089283}},{"type":"Feature","geometry":{"type":"Point","coordinates":[-78.7369,42.9489]},"properties":{"site":"KBUF","name":"Buffalo NY","scan_time":"2026-09-09T07:57:16Z","stale":false,"bins":25,"density_birds_km3":0.7799999999999999,"heading_deg":46.27032301863347,"speed_ms":12.463752136752136,"peak_altitude_m":200.0,"u_ms":8.844709401709403,"v_ms":7.9842051282051285}},{"type":"Feature","geometry":{"type":"Point","coordinates":[-81.8597,41.4131]},"properties":{"site":"KCLE","name":"Cleveland OH","scan_time":"2026-09-09T08:01:49Z","stale":false,"bins":25,"density_birds_km3":1.8539999999999999,"heading_deg":58.65032192191353,"speed_ms":11.49703405346027,"peak_altitude_m":200.0,"u_ms":9.911343830098867,"v_ms":5.512288538996705}},{"type":"Feature","geometry":{"type":"Point","coordinates":[-81.0423,32.6555]},"properties":{"site":"KCLX","name":"Charleston SC","scan_time":"2026-09-09T08:00:23Z","stale":false,"bins":25,"density_birds_km3":5.653125,"heading_deg":220.68383010802097,"speed_ms":12.72858802700011,"peak_altitude_m":0.0,"u_ms":-8.164487108553724,"v_ms":-9.509932499723359}},{"type":"Feature","geometry":{"type":"Point","coordinates":[-74.4108,39.947]},"properties":{"site":"KDIX","name":"Philadelphia PA","scan_time":"2026-09-09T08:00:52Z","stale":false,"bins":25,"density_birds_km3":1.799375,"heading_deg":57.557511129371896,"speed_ms":7.143866806136681,"peak_altitude_m":0.0,"u_ms":6.026809623430962,"v_ms":3.804644351464435}},{"type":"Feature","geometry":{"type":"Point","coordinates":[-84.5658,33.3636]},"properties":{"site":"KFFC","name":"Atlanta GA","scan_time":"2026-09-09T08:01:29Z","stale":false,"bins":25,"density_birds_km3":12.012,"heading_deg":258.4068267966337,"speed_ms":7.084174159174159,"peak_altitude_m":200.0,"u_ms":-6.28054168054168,"v_ms":-0.7908197358197359}},{"type":"Feature","geometry":{"type":"Point","coordinates":[-85.5449,42.8939]},"properties":{"site":"KGRR","name":"Grand Rapids MI","scan_time":"2026-09-09T08:01:02Z","stale":false,"bins":25,"density_birds_km3":1.4857142857142858,"heading_deg":null,"speed_ms":null,"peak_altitude_m":200.0,"u_ms":null,"v_ms":null}},{"type":"Feature","geometry":{"type":"Point","coordinates":[-83.8217,39.4203]},"properties":{"site":"KILN","name":"Wilmington OH","scan_time":"2026-09-09T07:57:49Z","stale":false,"bins":25,"density_birds_km3":2.2013333333333334,"heading_deg":61.266640349756656,"speed_ms":13.31361760242792,"peak_altitude_m":400.0,"u_ms":11.210151745068284,"v_ms":5.962345978755691}},{"type":"Feature","geometry":{"type":"Point","coordinates":[-81.7019,30.4846]},"properties":{"site":"KJAX","name":"Jacksonville FL","scan_time":"2026-09-09T08:00:17Z","stale":false,"bins":25,"density_birds_km3":21.138125,"heading_deg":195.33004080265707,"speed_ms":9.410332643406267,"peak_altitude_m":0.0,"u_ms":-2.4030192193968065,"v_ms":-9.052118273211118}},{"type":"Feature","geometry":{"type":"Point","coordinates":[-88.0847,41.6045]},"properties":{"site":"KLOT","name":"Chicago IL","scan_time":"2026-09-09T07:59:56Z","stale":false,"bins":25,"density_birds_km3":2.472666666666667,"heading_deg":74.2335396777184,"speed_ms":13.51264705882353,"peak_altitude_m":400.0,"u_ms":12.874029411764706,"v_ms":3.784302941176471}},{"type":"Feature","geometry":{"type":"Point","coordinates":[-78.4292,33.9892]},"properties":{"site":"KLTX","name":"Wilmington NC","scan_time":"2026-09-09T08:00:38Z","stale":false,"bins":25,"density_birds_km3":2.139375,"heading_deg":243.12874228467604,"speed_ms":8.673829973707274,"peak_altitude_m":0.0,"u_ms":-7.570555068653228,"v_ms":-3.8589921121822965}},{"type":"Feature","geometry":{"type":"Point","coordinates":[-77.4778,38.9753]},"properties":{"site":"KLWX","name":"Sterling VA","scan_time":"2026-09-09T08:02:52Z","stale":false,"bins":25,"density_birds_km3":3.4346666666666668,"heading_deg":35.590283580169434,"speed_ms":8.799730904574622,"peak_altitude_m":0.0,"u_ms":5.581126060856965,"v_ms":6.424127509832333}},{"type":"Feature","geometry":{"type":"Point","coordinates":[-76.8762,34.7759]},"properties":{"site":"KMHX","name":"Morehead City NC","scan_time":"2026-09-09T08:02:30Z","stale":false,"bins":25,"density_birds_km3":0.7899999999999999,"heading_deg":261.3811537668798,"speed_ms":5.133589128697042,"peak_altitude_m":200.0,"u_ms":-4.717745803357314,"v_ms":-0.8768665067945642}},{"type":"Feature","geometry":{"type":"Point","coordinates":[-80.6542,28.1133]},"properties":{"site":"KMLB","name":"Melbourne FL","scan_time":"2026-09-09T08:00:25Z","stale":false,"bins":25,"density_birds_km3":4.979375,"heading_deg":314.08300678336303,"speed_ms":2.0039379864423803,"peak_altitude_m":200.0,"u_ms":-1.4053075571177505,"v_ms":1.409244288224956}},{"type":"Feature","geometry":{"type":"Point","coordinates":[-86.5625,36.2472]},"properties":{"site":"KOHX","name":"Nashville TN","scan_time":"2026-09-09T08:01:41Z","stale":false,"bins":25,"density_birds_km3":8.065333333333333,"heading_deg":15.346990418445614,"speed_ms":10.58273350967102,"peak_altitude_m":200.0,"u_ms":3.0957298727062326,"v_ms":9.32876921805257}},{"type":"Feature","geometry":{"type":"Point","coordinates":[-72.8639,40.8655]},"properties":{"site":"KOKX","name":"Upton NY","scan_time":"2026-09-09T08:01:50Z","stale":false,"bins":25,"density_birds_km3":1.060625,"heading_deg":30.975457813643622,"speed_ms":4.372572614107884,"peak_altitude_m":0.0,"u_ms":2.3931594546532304,"v_ms":3.20366330764671}},{"type":"Feature","geometry":{"type":"Point","coordinates":[-80.2183,40.5317]},"properties":{"site":"KPBZ","name":"Pittsburgh PA","scan_time":"2026-09-09T08:00:12Z","stale":false,"bins":25,"density_birds_km3":2.5557142857142856,"heading_deg":64.61598858275849,"speed_ms":11.19580347144457,"peak_altitude_m":400.0,"u_ms":10.142365621500561,"v_ms":4.560783874580067}},{"type":"Feature","geometry":{"type":"Point","coordinates":[-78.4899,35.6655]},"properties":{"site":"KRAX","name":"Raleigh NC","scan_time":"2026-09-09T07:57:18Z","stale":false,"bins":25,"density_birds_km3":1.4725,"heading_deg":3.742720421019151,"speed_ms":6.111473460721868,"peak_altitude_m":0.0,"u_ms":0.09952016985137999,"v_ms":4.006912951167728}},{"type":"Feature","geometry":{"type":"Point","coordinates":[-82.4017,27.7055]},"properties":{"site":"KTBW","name":"Tampa FL","scan_time":"2026-09-09T08:00:50Z","stale":false,"bins":25,"density_birds_km3":6.674375,"heading_deg":188.13798812232116,"speed_ms":2.186068183946802,"peak_altitude_m":0.0,"u_ms":-0.3106696637632294,"v_ms":-2.1041940620024353}}]}