{"type":"FeatureCollection","frame":"2026-08-12T01","site_count":20,"fresh_count":20,"failures":{},"features":[{"type":"Feature","geometry":{"type":"Point","coordinates":[-77.0073,36.984]},"properties":{"site":"KAKQ","name":"Wakefield VA","scan_time":"2026-08-12T00:59:43Z","stale":false,"bins":25,"density_birds_km3":2.6931249999999998,"heading_deg":98.49498076536118,"speed_ms":7.525740611149988,"peak_altitude_m":0.0,"u_ms":7.422675530674132,"v_ms":-1.0763331000699792}},{"type":"Feature","geometry":{"type":"Point","coordinates":[-71.1369,41.9558]},"properties":{"site":"KBOX","name":"Boston MA","scan_time":"2026-08-12T01:02:32Z","stale":false,"bins":25,"density_birds_km3":1.443125,"heading_deg":126.37317496965164,"speed_ms":6.656194968553459,"peak_altitude_m":0.0,"u_ms":5.002430368373765,"v_ms":-3.66788409703504}},{"type":"Feature","geometry":{"type":"Point","coordinates":[-78.7369,42.9489]},"properties":{"site":"KBUF","name":"Buffalo NY","scan_time":"2026-08-12T01:00:00Z","stale":false,"bins":25,"density_birds_km3":2.6746666666666665,"heading_deg":111.56168536686701,"speed_ms":4.117554225878833,"peak_altitude_m":200.0,"u_ms":3.1520269259536278,"v_ms":-1.6387983046621788}},{"type":"Feature","geometry":{"type":"Point","coordinates":[-81.8597,41.4131]},"properties":{"site":"KCLE","name":"Cleveland OH","scan_time":"2026-08-12T00:57:16Z","stale":false,"bins":25,"density_birds_km3":2.0553333333333335,"heading_deg":134.73814042898064,"speed_ms":5.442327922077921,"peak_altitude_m":200.0,"u_ms":3.823912337662338,"v_ms":-3.860853896103896}},{"type":"Feature","geometry":{"type":"Point","coordinates":[-81.0423,32.6555]},"properties":{"site":"KCLX","name":"Charleston SC","scan_time":"2026-08-12T01:00:58Z","stale":false,"bins":25,"density_birds_km3":2.02625,"heading_deg":88.74399896625492,"speed_ms":7.733989509410675,"peak_altitude_m":0.0,"u_ms":6.772193767355754,"v_ms":-0.2845973464979945}},{"type":"Feature","geometry":{"type":"Point","coordinates":[-74.4108,39.947]},"properties":{"site":"KDIX","name":"Philadelphia PA","scan_time":"2026-08-12T00:59:59Z","stale":false,"bins":25,"density_birds_km3":2.004,"heading_deg":102.2702665538038,"speed_ms":6.156398327234711,"peak_altitude_m":200.0,"u_ms":5.248139048614742,"v_ms":-1.1160742289597492}},{"type":"Feature","geometry":{"type":"Point","coordinates":[-84.5658,33.3636]},"properties":{"site":"KFFC","name":"Atlanta GA","scan_time":"2026-08-12T01:01:17Z","stale":false,"bins":25,"density_birds_km3":2.1420000000000003,"heading_deg":51.18360557839514,"speed_ms":4.628689655172415,"peak_altitude_m":200.0,"u_ms":3.2209686520376177,"v_ms":2.417112852664577}},{"type":"Feature","geometry":{"type":"Point","coordinates":[-85.5449,42.8939]},"properties":{"site":"KGRR","name":"Grand Rapids MI","scan_time":"2026-08-12T00:56:00Z","stale":false,"bins":25,"density_birds_km3":2.89,"heading_deg":345.3661980640431,"speed_ms":3.911483364140481,"peak_altitude_m":200.0,"u_ms":-0.9620009242144179,"v_ms":3.7662199630314235}},{"type":"Feature","geometry":{"type":"Point","coordinates":[-83.8217,39.4203]},"properties":{"site":"KILN","name":"Wilmington OH","scan_time":"2026-08-12T00:59:42Z","stale":false,"bins":25,"density_birds_km3":7.782,"heading_deg":45.52324006375177,"speed_ms":6.050822226068894,"peak_altitude_m":200.0,"u_ms":4.030946858230915,"v_ms":3.7272433789163926}},{"type":"Feature","geometry":{"type":"Point","coordinates":[-81.7019,30.4846]},"properties":{"site":"KJAX","name":"Jacksonville FL","scan_time":"2026-08-12T01:02:04Z","stale":false,"bins":25,"density_birds_km3":17.791875,"heading_deg":172.43678674556784,"speed_ms":6.939288927273383,"peak_altitude_m":0.0,"u_ms":1.2996606570945337,"v_ms":-6.707591493036814}},{"type":"Feature","geometry":{"type":"Point","coordinates":[-88.0847,41.6045]},"properties":{"site":"KLOT","name":"Chicago IL","scan_time":"2026-08-12T00:59:43Z","stale":false,"bins":25,"density_birds_km3":0.36200000000000004,"heading_deg":309.50610127944,"speed_ms":4.236179775280899,"peak_altitude_m":200.0,"u_ms":-2.80563670411985,"v_ms":2.3056741573033706}},{"type":"Feature","geometry":{"type":"Point","coordinates":[-78.4292,33.9892]},"properties":{"site":"KLTX","name":"Wilmington NC","scan_time":"2026-08-12T01:00:47Z","stale":false,"bins":25,"density_birds_km3":4.438125,"heading_deg":86.89772168189138,"speed_ms":6.368526028185217,"peak_altitude_m":0.0,"u_ms":5.364426229508196,"v_ms":-0.34220448662640207}},{"type":"Feature","geometry":{"type":"Point","coordinates":[-77.4778,38.9753]},"properties":{"site":"KLWX","name":"Sterling VA","scan_time":"2026-08-12T00:59:22Z","stale":false,"bins":25,"density_birds_km3":9.147499999999999,"heading_deg":136.2803029180609,"speed_ms":5.298991739038339,"peak_altitude_m":0.0,"u_ms":3.611420602979595,"v_ms":-3.84154910682765}},{"type":"Feature","geometry":{"type":"Point","coordinates":[-76.8762,34.7759]},"properties":{"site":"KMHX","name":"Morehead City NC","scan_time":"2026-08-12T00:58:44Z","stale":false,"bins":25,"density_birds_km3":3.995625,"heading_deg":95.94719906299285,"speed_ms":7.348013452213359,"peak_altitude_m":0.0,"u_ms":6.993871421867667,"v_ms":-0.7589801345221336}},{"type":"Feature","geometry":{"type":"Point","coordinates":[-80.6542,28.1133]},"properties":{"site":"KMLB","name":"Melbourne FL","scan_time":"2026-08-12T01:01:25Z","stale":false,"bins":25,"density_birds_km3":11.580625,"heading_deg":278.05479576664476,"speed_ms":5.442139888822926,"peak_altitude_m":0.0,"u_ms":-5.1534831885153,"v_ms":0.5713983485347294}},{"type":"Feature","geometry":{"type":"Point","coordinates":[-86.5625,36.2472]},"properties":{"site":"KOHX","name":"Nashville TN","scan_time":"2026-08-12T01:00:54Z","stale":false,"bins":25,"density_birds_km3":7.058666666666666,"heading_deg":80.96149573847413,"speed_ms":6.751022856063468,"peak_altitude_m":200.0,"u_ms":6.655215338118625,"v_ms":1.0757895731016245}},{"type":"Feature","geometry":{"type":"Point","coordinates":[-72.8639,40.8655]},"properties":{"site":"KOKX","name":"Upton NY","scan_time":"2026-08-12T00:59:50Z","stale":false,"bins":25,"density_birds_km3":1.163125,"heading_deg":55.466599793906056,"speed_ms":5.334511602806261,"peak_altitude_m":0.0,"u_ms":4.342406907717215,"v_ms":2.800798704803022}},{"type":"Feature","geometry":{"type":"Point","coordinates":[-80.2183,40.5317]},"properties":{"site":"KPBZ","name":"Pittsburgh PA","scan_time":"2026-08-12T01:01:43Z","stale":false,"bins":25,"density_birds_km3":2.0085714285714285,"heading_deg":145.4660840432763,"speed_ms":6.606742563349247,"peak_altitude_m":600.0,"u_ms":2.3227065736320234,"v_ms":-5.097495409474844}},{"type":"Feature","geometry":{"type":"Point","coordinates":[-78.4899,35.6655]},"properties":{"site":"KRAX","name":"Raleigh NC","scan_time":"2026-08-12T01:00:10Z","stale":false,"bins":25,"density_birds_km3":4.5975,"heading_deg":81.5454670610459,"speed_ms":6.367222855514391,"peak_altitude_m":200.0,"u_ms":6.2500199487033345,"v_ms":0.9019335993160443}},{"type":"Feature","geometry":{"type":"Point","coordinates":[-82.4017,27.7055]},"properties":{"site":"KTBW","name":"Tampa FL","scan_time":"2026-08-12T00:59:02Z","stale":false,"bins":25,"density_birds_km3":40.88125,"heading_deg":131.2328149794536,"speed_ms":7.98895947040927,"peak_altitude_m":0.0,"u_ms":6.009655551988258,"v_ms":-5.251336207555535}}]}