{"type":"FeatureCollection","frame":"2026-09-06T01","site_count":20,"fresh_count":20,"failures":{},"features":[{"type":"Feature","geometry":{"type":"Point","coordinates":[-77.0073,36.984]},"properties":{"site":"KAKQ","name":"Wakefield VA","scan_time":"2026-09-06T01:01:42Z","stale":false,"bins":25,"density_birds_km3":57.905625,"heading_deg":198.3567826774878,"speed_ms":9.47507624776459,"peak_altitude_m":400.0,"u_ms":-2.810106432558392,"v_ms":-8.834966997236222}},{"type":"Feature","geometry":{"type":"Point","coordinates":[-71.1369,41.9558]},"properties":{"site":"KBOX","name":"Boston MA","scan_time":"2026-09-06T00:57:12Z","stale":false,"bins":25,"density_birds_km3":8.14625,"heading_deg":226.26186238780465,"speed_ms":7.414090122680087,"peak_altitude_m":200.0,"u_ms":-5.480331078955646,"v_ms":-4.950378263604907}},{"type":"Feature","geometry":{"type":"Point","coordinates":[-78.7369,42.9489]},"properties":{"site":"KBUF","name":"Buffalo NY","scan_time":"2026-09-06T01:04:29Z","stale":false,"bins":25,"density_birds_km3":33.64533333333333,"heading_deg":202.064145737884,"speed_ms":8.22015831814219,"peak_altitude_m":600.0,"u_ms":-3.0727397558849168,"v_ms":-7.622347626218594}},{"type":"Feature","geometry":{"type":"Point","coordinates":[-81.8597,41.4131]},"properties":{"site":"KCLE","name":"Cleveland OH","scan_time":"2026-09-06T00:59:43Z","stale":false,"bins":25,"density_birds_km3":33.345333333333336,"heading_deg":223.9609019283346,"speed_ms":10.782783853489814,"peak_altitude_m":800.0,"u_ms":-7.311038846792091,"v_ms":-7.790498630465641}},{"type":"Feature","geometry":{"type":"Point","coordinates":[-81.0423,32.6555]},"properties":{"site":"KCLX","name":"Charleston SC","scan_time":"2026-09-06T00:58:04Z","stale":false,"bins":25,"density_birds_km3":25.24875,"heading_deg":217.3803774686652,"speed_ms":6.136493411971389,"peak_altitude_m":0.0,"u_ms":-1.9473979169280964,"v_ms":-4.819246831471954}},{"type":"Feature","geometry":{"type":"Point","coordinates":[-74.4108,39.947]},"properties":{"site":"KDIX","name":"Philadelphia PA","scan_time":"2026-09-06T00:59:36Z","stale":false,"bins":25,"density_birds_km3":53.983125,"heading_deg":201.65865484494898,"speed_ms":9.793123078172684,"peak_altitude_m":600.0,"u_ms":-3.751927803112055,"v_ms":-9.03552140262935}},{"type":"Feature","geometry":{"type":"Point","coordinates":[-84.5658,33.3636]},"properties":{"site":"KFFC","name":"Atlanta GA","scan_time":"2026-09-06T00:59:45Z","stale":false,"bins":25,"density_birds_km3":26.934666666666665,"heading_deg":206.72194001646966,"speed_ms":5.92342912261362,"peak_altitude_m":600.0,"u_ms":-2.0054366888810944,"v_ms":-4.8642411184045695}},{"type":"Feature","geometry":{"type":"Point","coordinates":[-85.5449,42.8939]},"properties":{"site":"KGRR","name":"Grand Rapids MI","scan_time":"2026-09-06T01:00:33Z","stale":false,"bins":25,"density_birds_km3":49.400666666666666,"heading_deg":222.4595990745387,"speed_ms":9.832669634882398,"peak_altitude_m":600.0,"u_ms":-6.667031558719246,"v_ms":-7.127616044604434}},{"type":"Feature","geometry":{"type":"Point","coordinates":[-83.8217,39.4203]},"properties":{"site":"KILN","name":"Wilmington OH","scan_time":"2026-09-06T01:01:00Z","stale":false,"bins":25,"density_birds_km3":14.246,"heading_deg":209.4853759598329,"speed_ms":8.563205563413485,"peak_altitude_m":600.0,"u_ms":-4.147606789250354,"v_ms":-7.321728901461575}},{"type":"Feature","geometry":{"type":"Point","coordinates":[-81.7019,30.4846]},"properties":{"site":"KJAX","name":"Jacksonville FL","scan_time":"2026-09-06T00:57:47Z","stale":false,"bins":25,"density_birds_km3":21.71,"heading_deg":66.45555292674725,"speed_ms":6.1889511879049675,"peak_altitude_m":0.0,"u_ms":1.756471706263499,"v_ms":-0.7084659467242622}},{"type":"Feature","geometry":{"type":"Point","coordinates":[-88.0847,41.6045]},"properties":{"site":"KLOT","name":"Chicago IL","scan_time":"2026-09-06T01:02:39Z","stale":false,"bins":25,"density_birds_km3":38.583999999999996,"heading_deg":198.72695056614288,"speed_ms":10.112548121943608,"peak_altitude_m":400.0,"u_ms":-3.2349571671348802,"v_ms":-9.567991190649602}},{"type":"Feature","geometry":{"type":"Point","coordinates":[-78.4292,33.9892]},"properties":{"site":"KLTX","name":"Wilmington NC","scan_time":"2026-09-06T01:00:40Z","stale":false,"bins":25,"density_birds_km3":35.20625,"heading_deg":206.22767593009462,"speed_ms":7.3175199244776055,"peak_altitude_m":0.0,"u_ms":-2.5448523137810213,"v_ms":-6.070362725341757}},{"type":"Feature","geometry":{"type":"Point","coordinates":[-77.4778,38.9753]},"properties":{"site":"KLWX","name":"Sterling VA","scan_time":"2026-09-06T01:01:35Z","stale":false,"bins":25,"density_birds_km3":78.794375,"heading_deg":225.43274666556036,"speed_ms":10.671689714985916,"peak_altitude_m":600.0,"u_ms":-7.290420439535958,"v_ms":-7.363983592991614}},{"type":"Feature","geometry":{"type":"Point","coordinates":[-76.8762,34.7759]},"properties":{"site":"KMHX","name":"Morehead City NC","scan_time":"2026-09-06T00:59:58Z","stale":false,"bins":25,"density_birds_km3":17.805,"heading_deg":210.67823052983778,"speed_ms":2.2779930548097234,"peak_altitude_m":0.0,"u_ms":0.034877743171159575,"v_ms":-2.040993806608671}},{"type":"Feature","geometry":{"type":"Point","coordinates":[-80.6542,28.1133]},"properties":{"site":"KMLB","name":"Melbourne FL","scan_time":"2026-09-06T00:59:48Z","stale":false,"bins":25,"density_birds_km3":13.134375,"heading_deg":null,"speed_ms":null,"peak_altitude_m":0.0,"u_ms":null,"v_ms":null}},{"type":"Feature","geometry":{"type":"Point","coordinates":[-86.5625,36.2472]},"properties":{"site":"KOHX","name":"Nashville TN","scan_time":"2026-09-06T00:57:40Z","stale":false,"bins":25,"density_birds_km3":28.046666666666667,"heading_deg":200.96213917918834,"speed_ms":4.086520889905198,"peak_altitude_m":400.0,"u_ms":-0.297689962364823,"v_ms":-2.938571292458673}},{"type":"Feature","geometry":{"type":"Point","coordinates":[-72.8639,40.8655]},"properties":{"site":"KOKX","name":"Upton NY","scan_time":"2026-09-06T01:00:54Z","stale":false,"bins":25,"density_birds_km3":26.19125,"heading_deg":236.20203304968723,"speed_ms":10.434280702597494,"peak_altitude_m":200.0,"u_ms":-7.826680923661002,"v_ms":-5.445751976355816}},{"type":"Feature","geometry":{"type":"Point","coordinates":[-80.2183,40.5317]},"properties":{"site":"KPBZ","name":"Pittsburgh PA","scan_time":"2026-09-06T01:01:43Z","stale":false,"bins":25,"density_birds_km3":50.96230769230769,"heading_deg":208.61046470100447,"speed_ms":11.679646903980274,"peak_altitude_m":800.0,"u_ms":-5.545632289980484,"v_ms":-10.113273626722743}},{"type":"Feature","geometry":{"type":"Point","coordinates":[-78.4899,35.6655]},"properties":{"site":"KRAX","name":"Raleigh NC","scan_time":"2026-09-06T00:57:54Z","stale":false,"bins":25,"density_birds_km3":41.223125,"heading_deg":201.3454447538462,"speed_ms":6.851382587133639,"peak_altitude_m":400.0,"u_ms":-2.531035746738745,"v_ms":-5.985400822436817}},{"type":"Feature","geometry":{"type":"Point","coordinates":[-82.4017,27.7055]},"properties":{"site":"KTBW","name":"Tampa FL","scan_time":"2026-09-06T00:59:26Z","stale":false,"bins":25,"density_birds_km3":19.108125,"heading_deg":145.39934902300894,"speed_ms":6.986545632973503,"peak_altitude_m":0.0,"u_ms":3.303723912332352,"v_ms":-5.643614000654236}}]}