{"type":"FeatureCollection","frame":"2026-09-16T11","site_count":20,"fresh_count":19,"failures":{"KDIX":"RuntimeError('no scan within 20 min of 2026-09-16T11:00Z')"},"features":[{"type":"Feature","geometry":{"type":"Point","coordinates":[-77.0073,36.984]},"properties":{"site":"KAKQ","name":"Wakefield VA","scan_time":"2026-09-16T10:59:28Z","stale":false,"bins":25,"density_birds_km3":0.57,"heading_deg":283.0186428681067,"speed_ms":5.103314977973569,"peak_altitude_m":0.0,"u_ms":-3.993348017621145,"v_ms":0.6694052863436123}},{"type":"Feature","geometry":{"type":"Point","coordinates":[-71.1369,41.9558]},"properties":{"site":"KBOX","name":"Boston MA","scan_time":"2026-09-16T11:00:34Z","stale":false,"bins":25,"density_birds_km3":0.806875,"heading_deg":56.022570238466415,"speed_ms":2.917405112316034,"peak_altitude_m":0.0,"u_ms":2.4176297443841985,"v_ms":1.593756777691712}},{"type":"Feature","geometry":{"type":"Point","coordinates":[-78.7369,42.9489]},"properties":{"site":"KBUF","name":"Buffalo NY","scan_time":"2026-09-16T10:59:04Z","stale":false,"bins":25,"density_birds_km3":1.4893333333333334,"heading_deg":53.206435273940386,"speed_ms":6.66536077705828,"peak_altitude_m":400.0,"u_ms":5.107118408880665,"v_ms":3.8643987049028676}},{"type":"Feature","geometry":{"type":"Point","coordinates":[-81.8597,41.4131]},"properties":{"site":"KCLE","name":"Cleveland OH","scan_time":"2026-09-16T10:58:44Z","stale":false,"bins":25,"density_birds_km3":1.0919999999999999,"heading_deg":107.09338058525887,"speed_ms":7.696962102689486,"peak_altitude_m":200.0,"u_ms":6.787286063569683,"v_ms":-2.6372860635696824}},{"type":"Feature","geometry":{"type":"Point","coordinates":[-81.0423,32.6555]},"properties":{"site":"KCLX","name":"Charleston SC","scan_time":"2026-09-16T10:56:58Z","stale":false,"bins":25,"density_birds_km3":10.55625,"heading_deg":218.55550003390013,"speed_ms":9.188305004441814,"peak_altitude_m":0.0,"u_ms":-5.677073734083507,"v_ms":-7.058727864968907}},{"type":"Feature","geometry":{"type":"Point","coordinates":[-84.5658,33.3636]},"properties":{"site":"KFFC","name":"Atlanta GA","scan_time":"2026-09-16T10:58:07Z","stale":false,"bins":25,"density_birds_km3":1.2633333333333334,"heading_deg":277.66382554324014,"speed_ms":3.196730360934183,"peak_altitude_m":200.0,"u_ms":-3.0127813163481956,"v_ms":0.5404193205944798}},{"type":"Feature","geometry":{"type":"Point","coordinates":[-85.5449,42.8939]},"properties":{"site":"KGRR","name":"Grand Rapids MI","scan_time":"2026-09-16T10:58:40Z","stale":false,"bins":25,"density_birds_km3":0.7140000000000001,"heading_deg":254.1923751986497,"speed_ms":5.894271028037383,"peak_altitude_m":200.0,"u_ms":-5.162999999999999,"v_ms":-1.724719626168224}},{"type":"Feature","geometry":{"type":"Point","coordinates":[-83.8217,39.4203]},"properties":{"site":"KILN","name":"Wilmington OH","scan_time":"2026-09-16T10:58:46Z","stale":false,"bins":25,"density_birds_km3":2.5746666666666664,"heading_deg":113.53985057627477,"speed_ms":10.36529701686122,"peak_altitude_m":800.0,"u_ms":8.788114137483788,"v_ms":-2.7941037613488975}},{"type":"Feature","geometry":{"type":"Point","coordinates":[-81.7019,30.4846]},"properties":{"site":"KJAX","name":"Jacksonville FL","scan_time":"2026-09-16T10:57:11Z","stale":false,"bins":25,"density_birds_km3":131.020625,"heading_deg":222.7777857242133,"speed_ms":10.314139705459809,"peak_altitude_m":0.0,"u_ms":-7.004084328978095,"v_ms":-7.42984583396459}},{"type":"Feature","geometry":{"type":"Point","coordinates":[-88.0847,41.6045]},"properties":{"site":"KLOT","name":"Chicago IL","scan_time":"2026-09-16T10:59:26Z","stale":false,"bins":25,"density_birds_km3":13.196666666666665,"heading_deg":null,"speed_ms":null,"peak_altitude_m":400.0,"u_ms":null,"v_ms":null}},{"type":"Feature","geometry":{"type":"Point","coordinates":[-78.4292,33.9892]},"properties":{"site":"KLTX","name":"Wilmington NC","scan_time":"2026-09-16T11:00:23Z","stale":false,"bins":25,"density_birds_km3":5.07875,"heading_deg":230.64707276846465,"speed_ms":11.144248937765559,"peak_altitude_m":200.0,"u_ms":-8.339121469632593,"v_ms":-7.212224443889029}},{"type":"Feature","geometry":{"type":"Point","coordinates":[-77.4778,38.9753]},"properties":{"site":"KLWX","name":"Sterling VA","scan_time":"2026-09-16T11:02:48Z","stale":false,"bins":25,"density_birds_km3":1.4525,"heading_deg":336.5407525370939,"speed_ms":5.032972856527358,"peak_altitude_m":0.0,"u_ms":-1.9532055148642826,"v_ms":4.279978457561396}},{"type":"Feature","geometry":{"type":"Point","coordinates":[-76.8762,34.7759]},"properties":{"site":"KMHX","name":"Morehead City NC","scan_time":"2026-09-16T10:58:13Z","stale":false,"bins":25,"density_birds_km3":2.4343749999999997,"heading_deg":241.39451324052845,"speed_ms":8.174089391215002,"peak_altitude_m":0.0,"u_ms":-6.4843924993578215,"v_ms":-3.570626765990239}},{"type":"Feature","geometry":{"type":"Point","coordinates":[-80.6542,28.1133]},"properties":{"site":"KMLB","name":"Melbourne FL","scan_time":"2026-09-16T10:56:56Z","stale":false,"bins":25,"density_birds_km3":3.9975,"heading_deg":246.93156923397208,"speed_ms":7.976341119297695,"peak_altitude_m":200.0,"u_ms":-7.349686471233736,"v_ms":-3.0494058629879293}},{"type":"Feature","geometry":{"type":"Point","coordinates":[-86.5625,36.2472]},"properties":{"site":"KOHX","name":"Nashville TN","scan_time":"2026-09-16T11:01:25Z","stale":false,"bins":25,"density_birds_km3":1.8913333333333333,"heading_deg":11.005724292427221,"speed_ms":9.7953721340388,"peak_altitude_m":200.0,"u_ms":2.312716049382716,"v_ms":9.215026455026454}},{"type":"Feature","geometry":{"type":"Point","coordinates":[-72.8639,40.8655]},"properties":{"site":"KOKX","name":"Upton NY","scan_time":"2026-09-16T11:01:34Z","stale":false,"bins":25,"density_birds_km3":1.5074999999999998,"heading_deg":27.553413863231828,"speed_ms":2.264589552238806,"peak_altitude_m":0.0,"u_ms":0.9788764510779436,"v_ms":1.7085820895522386}},{"type":"Feature","geometry":{"type":"Point","coordinates":[-80.2183,40.5317]},"properties":{"site":"KPBZ","name":"Pittsburgh PA","scan_time":"2026-09-16T10:58:37Z","stale":false,"bins":25,"density_birds_km3":0.53,"heading_deg":56.980185006802955,"speed_ms":9.215377358490565,"peak_altitude_m":400.0,"u_ms":7.57742587601078,"v_ms":4.701280323450135}},{"type":"Feature","geometry":{"type":"Point","coordinates":[-78.4899,35.6655]},"properties":{"site":"KRAX","name":"Raleigh NC","scan_time":"2026-09-16T11:03:55Z","stale":false,"bins":25,"density_birds_km3":2.55375,"heading_deg":267.7118339393442,"speed_ms":5.535274240940255,"peak_altitude_m":0.0,"u_ms":-4.686753183153771,"v_ms":-0.6156072477962783}},{"type":"Feature","geometry":{"type":"Point","coordinates":[-82.4017,27.7055]},"properties":{"site":"KTBW","name":"Tampa FL","scan_time":"2026-09-16T10:59:12Z","stale":false,"bins":25,"density_birds_km3":1.31625,"heading_deg":239.51557853019284,"speed_ms":7.862972459639127,"peak_altitude_m":0.0,"u_ms":-6.7374738841405515,"v_ms":-3.9172934472934475}}]}