{"type":"FeatureCollection","frame":"2026-09-15T08","site_count":20,"fresh_count":18,"failures":{"KDIX":"RuntimeError('no scan within 20 min of 2026-09-15T08:00Z')","KBUF":"RuntimeError('no scan within 20 min of 2026-09-15T08:00Z')"},"features":[{"type":"Feature","geometry":{"type":"Point","coordinates":[-77.0073,36.984]},"properties":{"site":"KAKQ","name":"Wakefield VA","scan_time":"2026-09-15T08:02:07Z","stale":false,"bins":25,"density_birds_km3":48.652499999999996,"heading_deg":196.95764422460223,"speed_ms":11.875394506962644,"peak_altitude_m":0.0,"u_ms":-3.2818371358100817,"v_ms":-11.141014850213246}},{"type":"Feature","geometry":{"type":"Point","coordinates":[-71.1369,41.9558]},"properties":{"site":"KBOX","name":"Boston MA","scan_time":"2026-09-15T07:57:25Z","stale":false,"bins":25,"density_birds_km3":1.475,"heading_deg":216.6555715688675,"speed_ms":10.10583721916066,"peak_altitude_m":0.0,"u_ms":-6.228872403560831,"v_ms":-7.6848028825773635}},{"type":"Feature","geometry":{"type":"Point","coordinates":[-81.8597,41.4131]},"properties":{"site":"KCLE","name":"Cleveland OH","scan_time":"2026-09-15T07:59:25Z","stale":false,"bins":25,"density_birds_km3":9.978666666666667,"heading_deg":298.6013872172842,"speed_ms":10.46150751754093,"peak_altitude_m":200.0,"u_ms":-8.613330437687939,"v_ms":4.977329769462078}},{"type":"Feature","geometry":{"type":"Point","coordinates":[-81.0423,32.6555]},"properties":{"site":"KCLX","name":"Charleston SC","scan_time":"2026-09-15T08:00:32Z","stale":false,"bins":25,"density_birds_km3":56.184999999999995,"heading_deg":207.3079573711769,"speed_ms":6.60880239387737,"peak_altitude_m":0.0,"u_ms":-3.1566412298656226,"v_ms":-5.605224147904245}},{"type":"Feature","geometry":{"type":"Point","coordinates":[-84.5658,33.3636]},"properties":{"site":"KFFC","name":"Atlanta GA","scan_time":"2026-09-15T08:01:44Z","stale":false,"bins":25,"density_birds_km3":44.152,"heading_deg":262.74422868534594,"speed_ms":8.21187111191641,"peak_altitude_m":200.0,"u_ms":-7.530115208069094,"v_ms":-1.027338134927825}},{"type":"Feature","geometry":{"type":"Point","coordinates":[-85.5449,42.8939]},"properties":{"site":"KGRR","name":"Grand Rapids MI","scan_time":"2026-09-15T08:02:57Z","stale":false,"bins":25,"density_birds_km3":0.44133333333333336,"heading_deg":1.829795896118558,"speed_ms":14.914522003034904,"peak_altitude_m":200.0,"u_ms":2.4593171471927167,"v_ms":13.417481031866467}},{"type":"Feature","geometry":{"type":"Point","coordinates":[-83.8217,39.4203]},"properties":{"site":"KILN","name":"Wilmington OH","scan_time":"2026-09-15T07:59:46Z","stale":false,"bins":25,"density_birds_km3":10.838666666666667,"heading_deg":271.62629558766594,"speed_ms":9.664653581097712,"peak_altitude_m":200.0,"u_ms":-9.135611001722864,"v_ms":0.1602682746738861}},{"type":"Feature","geometry":{"type":"Point","coordinates":[-81.7019,30.4846]},"properties":{"site":"KJAX","name":"Jacksonville FL","scan_time":"2026-09-15T08:00:10Z","stale":false,"bins":25,"density_birds_km3":107.09375,"heading_deg":195.97383619846707,"speed_ms":9.172231926022791,"peak_altitude_m":0.0,"u_ms":-2.6013634293853913,"v_ms":-8.734119068746496}},{"type":"Feature","geometry":{"type":"Point","coordinates":[-88.0847,41.6045]},"properties":{"site":"KLOT","name":"Chicago IL","scan_time":"2026-09-15T08:00:48Z","stale":false,"bins":25,"density_birds_km3":0.6833333333333333,"heading_deg":21.45150152775175,"speed_ms":22.450899315738027,"peak_altitude_m":400.0,"u_ms":8.497917888563052,"v_ms":19.956383186705768}},{"type":"Feature","geometry":{"type":"Point","coordinates":[-78.4292,33.9892]},"properties":{"site":"KLTX","name":"Wilmington NC","scan_time":"2026-09-15T07:59:45Z","stale":false,"bins":25,"density_birds_km3":79.57187499999999,"heading_deg":223.2933676587388,"speed_ms":11.914663629580176,"peak_altitude_m":0.0,"u_ms":-8.191933236460747,"v_ms":-8.524562070455172}},{"type":"Feature","geometry":{"type":"Point","coordinates":[-77.4778,38.9753]},"properties":{"site":"KLWX","name":"Sterling VA","scan_time":"2026-09-15T08:01:28Z","stale":false,"bins":25,"density_birds_km3":88.6725,"heading_deg":238.7792615024283,"speed_ms":11.327306821787415,"peak_altitude_m":200.0,"u_ms":-9.535010400141019,"v_ms":-5.579843187026265}},{"type":"Feature","geometry":{"type":"Point","coordinates":[-76.8762,34.7759]},"properties":{"site":"KMHX","name":"Morehead City NC","scan_time":"2026-09-15T07:59:44Z","stale":false,"bins":25,"density_birds_km3":48.685624999999995,"heading_deg":201.4009537137336,"speed_ms":13.029651334454472,"peak_altitude_m":0.0,"u_ms":-4.727279356072763,"v_ms":-12.017899919123971}},{"type":"Feature","geometry":{"type":"Point","coordinates":[-80.6542,28.1133]},"properties":{"site":"KMLB","name":"Melbourne FL","scan_time":"2026-09-15T07:58:33Z","stale":false,"bins":25,"density_birds_km3":3.466875,"heading_deg":171.18676473231085,"speed_ms":2.07760736196319,"peak_altitude_m":0.0,"u_ms":0.39739805124503785,"v_ms":-1.5332262721039336}},{"type":"Feature","geometry":{"type":"Point","coordinates":[-86.5625,36.2472]},"properties":{"site":"KOHX","name":"Nashville TN","scan_time":"2026-09-15T08:02:26Z","stale":false,"bins":25,"density_birds_km3":70.758,"heading_deg":305.1438115689353,"speed_ms":6.378411487040335,"peak_altitude_m":200.0,"u_ms":-3.283105514570791,"v_ms":3.0125551881059387}},{"type":"Feature","geometry":{"type":"Point","coordinates":[-72.8639,40.8655]},"properties":{"site":"KOKX","name":"Upton NY","scan_time":"2026-09-15T07:59:24Z","stale":false,"bins":25,"density_birds_km3":5.350625,"heading_deg":231.33286467056115,"speed_ms":11.87398084335942,"peak_altitude_m":0.0,"u_ms":-9.259509403107113,"v_ms":-7.393323209905385}},{"type":"Feature","geometry":{"type":"Point","coordinates":[-80.2183,40.5317]},"properties":{"site":"KPBZ","name":"Pittsburgh PA","scan_time":"2026-09-15T08:00:56Z","stale":false,"bins":25,"density_birds_km3":36.253571428571426,"heading_deg":273.9559577007359,"speed_ms":10.969928070313733,"peak_altitude_m":400.0,"u_ms":-10.701417704556205,"v_ms":0.7120966025539965}},{"type":"Feature","geometry":{"type":"Point","coordinates":[-78.4899,35.6655]},"properties":{"site":"KRAX","name":"Raleigh NC","scan_time":"2026-09-15T08:03:07Z","stale":false,"bins":25,"density_birds_km3":82.65599999999999,"heading_deg":209.21004251120215,"speed_ms":12.14310118648043,"peak_altitude_m":0.0,"u_ms":-5.743455351293644,"v_ms":-10.335910322460633}},{"type":"Feature","geometry":{"type":"Point","coordinates":[-82.4017,27.7055]},"properties":{"site":"KTBW","name":"Tampa FL","scan_time":"2026-09-15T07:58:44Z","stale":false,"bins":25,"density_birds_km3":30.06,"heading_deg":212.90577134738632,"speed_ms":5.283906724331517,"peak_altitude_m":0.0,"u_ms":-2.354227970224976,"v_ms":-4.328269014845926}}]}