{"type":"FeatureCollection","frame":"2026-09-03T03","site_count":20,"fresh_count":20,"failures":{},"features":[{"type":"Feature","geometry":{"type":"Point","coordinates":[-77.0073,36.984]},"properties":{"site":"KAKQ","name":"Wakefield VA","scan_time":"2026-09-03T03:02:11Z","stale":false,"bins":25,"density_birds_km3":18.136875,"heading_deg":236.7073277461023,"speed_ms":3.4748106413039737,"peak_altitude_m":0.0,"u_ms":-1.8006064991901858,"v_ms":-1.8167324856128741}},{"type":"Feature","geometry":{"type":"Point","coordinates":[-71.1369,41.9558]},"properties":{"site":"KBOX","name":"Boston MA","scan_time":"2026-09-03T02:57:45Z","stale":false,"bins":25,"density_birds_km3":1.7493750000000001,"heading_deg":310.7599304278692,"speed_ms":5.830028591851322,"peak_altitude_m":200.0,"u_ms":-4.288917083631166,"v_ms":3.7657719799857037}},{"type":"Feature","geometry":{"type":"Point","coordinates":[-78.7369,42.9489]},"properties":{"site":"KBUF","name":"Buffalo NY","scan_time":"2026-09-03T03:00:16Z","stale":false,"bins":25,"density_birds_km3":2.0846666666666667,"heading_deg":65.21293394032926,"speed_ms":10.289507515190278,"peak_altitude_m":200.0,"u_ms":8.801004157339303,"v_ms":2.773463383434602}},{"type":"Feature","geometry":{"type":"Point","coordinates":[-81.8597,41.4131]},"properties":{"site":"KCLE","name":"Cleveland OH","scan_time":"2026-09-03T02:58:16Z","stale":false,"bins":25,"density_birds_km3":3.9046666666666665,"heading_deg":91.49927651246217,"speed_ms":13.61811166126003,"peak_altitude_m":200.0,"u_ms":11.879805361106369,"v_ms":-0.6777821410278299}},{"type":"Feature","geometry":{"type":"Point","coordinates":[-81.0423,32.6555]},"properties":{"site":"KCLX","name":"Charleston SC","scan_time":"2026-09-03T03:02:29Z","stale":false,"bins":25,"density_birds_km3":4.15375,"heading_deg":254.0481745727231,"speed_ms":9.53993047158404,"peak_altitude_m":0.0,"u_ms":-6.86490477629988,"v_ms":-4.134605501813785}},{"type":"Feature","geometry":{"type":"Point","coordinates":[-74.4108,39.947]},"properties":{"site":"KDIX","name":"Philadelphia PA","scan_time":"2026-09-03T02:57:50Z","stale":false,"bins":25,"density_birds_km3":5.488125,"heading_deg":252.47200925108515,"speed_ms":3.8669575000000003,"peak_altitude_m":200.0,"u_ms":-2.99872125,"v_ms":-1.1043924999999999}},{"type":"Feature","geometry":{"type":"Point","coordinates":[-84.5658,33.3636]},"properties":{"site":"KFFC","name":"Atlanta GA","scan_time":"2026-09-03T02:57:17Z","stale":false,"bins":25,"density_birds_km3":30.228,"heading_deg":249.95510331334782,"speed_ms":6.413649596400688,"peak_altitude_m":1600.0,"u_ms":-4.560331260200255,"v_ms":-2.538276432446738}},{"type":"Feature","geometry":{"type":"Point","coordinates":[-85.5449,42.8939]},"properties":{"site":"KGRR","name":"Grand Rapids MI","scan_time":"2026-09-03T02:59:58Z","stale":false,"bins":25,"density_birds_km3":109.49066666666666,"heading_deg":168.11483903836702,"speed_ms":7.329535487488268,"peak_altitude_m":400.0,"u_ms":1.8582904696317784,"v_ms":-6.4223359092183365}},{"type":"Feature","geometry":{"type":"Point","coordinates":[-83.8217,39.4203]},"properties":{"site":"KILN","name":"Wilmington OH","scan_time":"2026-09-03T03:00:38Z","stale":false,"bins":25,"density_birds_km3":9.408,"heading_deg":139.42702604098668,"speed_ms":11.43219387755102,"peak_altitude_m":1800.0,"u_ms":6.364652069160997,"v_ms":-7.951437074829932}},{"type":"Feature","geometry":{"type":"Point","coordinates":[-81.7019,30.4846]},"properties":{"site":"KJAX","name":"Jacksonville FL","scan_time":"2026-09-03T02:59:42Z","stale":false,"bins":25,"density_birds_km3":9.44,"heading_deg":196.2608161785425,"speed_ms":8.686566580499766,"peak_altitude_m":0.0,"u_ms":-2.4201292503479817,"v_ms":-8.285633989527406}},{"type":"Feature","geometry":{"type":"Point","coordinates":[-88.0847,41.6045]},"properties":{"site":"KLOT","name":"Chicago IL","scan_time":"2026-09-03T03:01:28Z","stale":false,"bins":25,"density_birds_km3":11.368,"heading_deg":84.90847673553688,"speed_ms":9.604032371569316,"peak_altitude_m":200.0,"u_ms":8.992686488388458,"v_ms":0.4517499413558526}},{"type":"Feature","geometry":{"type":"Point","coordinates":[-78.4292,33.9892]},"properties":{"site":"KLTX","name":"Wilmington NC","scan_time":"2026-09-03T02:59:42Z","stale":false,"bins":25,"density_birds_km3":3.8337499999999998,"heading_deg":278.89746379088984,"speed_ms":8.643736465100783,"peak_altitude_m":200.0,"u_ms":-1.8146010328169249,"v_ms":-1.300704647676162}},{"type":"Feature","geometry":{"type":"Point","coordinates":[-77.4778,38.9753]},"properties":{"site":"KLWX","name":"Sterling VA","scan_time":"2026-09-03T02:59:14Z","stale":false,"bins":25,"density_birds_km3":19.136875,"heading_deg":262.2417358964227,"speed_ms":4.9647130866455464,"peak_altitude_m":200.0,"u_ms":-2.0392187857212845,"v_ms":-0.09012998465005403}},{"type":"Feature","geometry":{"type":"Point","coordinates":[-76.8762,34.7759]},"properties":{"site":"KMHX","name":"Morehead City NC","scan_time":"2026-09-03T02:56:50Z","stale":false,"bins":25,"density_birds_km3":5.36375,"heading_deg":194.64227328404183,"speed_ms":8.600725938009788,"peak_altitude_m":1600.0,"u_ms":-1.3770473083197392,"v_ms":-5.856827079934747}},{"type":"Feature","geometry":{"type":"Point","coordinates":[-80.6542,28.1133]},"properties":{"site":"KMLB","name":"Melbourne FL","scan_time":"2026-09-03T03:01:00Z","stale":false,"bins":25,"density_birds_km3":8.443125,"heading_deg":203.10046421762345,"speed_ms":4.644846734784541,"peak_altitude_m":0.0,"u_ms":-1.794687546275729,"v_ms":-4.269854138901229}},{"type":"Feature","geometry":{"type":"Point","coordinates":[-86.5625,36.2472]},"properties":{"site":"KOHX","name":"Nashville TN","scan_time":"2026-09-03T02:58:31Z","stale":false,"bins":25,"density_birds_km3":21.529333333333334,"heading_deg":261.8352732119271,"speed_ms":2.962504180343098,"peak_altitude_m":200.0,"u_ms":-2.741735306868149,"v_ms":-0.3814296773394439}},{"type":"Feature","geometry":{"type":"Point","coordinates":[-72.8639,40.8655]},"properties":{"site":"KOKX","name":"Upton NY","scan_time":"2026-09-03T02:58:12Z","stale":false,"bins":25,"density_birds_km3":5.298125,"heading_deg":264.7461221381501,"speed_ms":9.574728691334673,"peak_altitude_m":0.0,"u_ms":-9.027524530086298,"v_ms":-0.9406631989596879}},{"type":"Feature","geometry":{"type":"Point","coordinates":[-80.2183,40.5317]},"properties":{"site":"KPBZ","name":"Pittsburgh PA","scan_time":"2026-09-03T02:58:32Z","stale":false,"bins":25,"density_birds_km3":8.192857142857143,"heading_deg":73.77549835026979,"speed_ms":11.789207497820401,"peak_altitude_m":400.0,"u_ms":11.207534437663469,"v_ms":2.7805666957279858}},{"type":"Feature","geometry":{"type":"Point","coordinates":[-78.4899,35.6655]},"properties":{"site":"KRAX","name":"Raleigh NC","scan_time":"2026-09-03T03:00:34Z","stale":false,"bins":25,"density_birds_km3":30.56375,"heading_deg":254.8752974534084,"speed_ms":4.616556991534089,"peak_altitude_m":200.0,"u_ms":-3.512224039916568,"v_ms":-0.9203817839761155}},{"type":"Feature","geometry":{"type":"Point","coordinates":[-82.4017,27.7055]},"properties":{"site":"KTBW","name":"Tampa FL","scan_time":"2026-09-03T03:02:13Z","stale":false,"bins":25,"density_birds_km3":68.57692307692308,"heading_deg":216.91821419734288,"speed_ms":6.151458990181064,"peak_altitude_m":0.0,"u_ms":-3.6982417124583367,"v_ms":-4.568596297630844}}]}