{"type":"FeatureCollection","frame":"2026-09-25T12","site_count":20,"fresh_count":19,"failures":{"KDIX":"RuntimeError('no scan within 20 min of 2026-09-25T12:00Z')"},"features":[{"type":"Feature","geometry":{"type":"Point","coordinates":[-77.0073,36.984]},"properties":{"site":"KAKQ","name":"Wakefield VA","scan_time":"2026-09-25T11:59:32Z","stale":false,"bins":25,"density_birds_km3":1.390625,"heading_deg":188.3190248335288,"speed_ms":10.040364044943821,"peak_altitude_m":200.0,"u_ms":-1.489941573033708,"v_ms":-9.887842696629214}},{"type":"Feature","geometry":{"type":"Point","coordinates":[-71.1369,41.9558]},"properties":{"site":"KBOX","name":"Boston MA","scan_time":"2026-09-25T11:59:00Z","stale":false,"bins":25,"density_birds_km3":0.45625,"heading_deg":201.36726948685663,"speed_ms":11.085529247910864,"peak_altitude_m":0.0,"u_ms":-4.056504178272981,"v_ms":-10.29724233983287}},{"type":"Feature","geometry":{"type":"Point","coordinates":[-78.7369,42.9489]},"properties":{"site":"KBUF","name":"Buffalo NY","scan_time":"2026-09-25T12:02:52Z","stale":false,"bins":25,"density_birds_km3":0.498,"heading_deg":216.18684203905994,"speed_ms":3.760883534136546,"peak_altitude_m":200.0,"u_ms":-2.167389558232932,"v_ms":-3.0195448460508705}},{"type":"Feature","geometry":{"type":"Point","coordinates":[-81.8597,41.4131]},"properties":{"site":"KCLE","name":"Cleveland OH","scan_time":"2026-09-25T12:00:00Z","stale":false,"bins":25,"density_birds_km3":3.1753333333333336,"heading_deg":232.7942196679649,"speed_ms":2.875693568726356,"peak_altitude_m":200.0,"u_ms":-2.220582177385456,"v_ms":-1.7574653215636822}},{"type":"Feature","geometry":{"type":"Point","coordinates":[-81.0423,32.6555]},"properties":{"site":"KCLX","name":"Charleston SC","scan_time":"2026-09-25T12:00:16Z","stale":false,"bins":25,"density_birds_km3":0.96875,"heading_deg":205.0255445594036,"speed_ms":12.813470967741935,"peak_altitude_m":200.0,"u_ms":-5.5485870967741935,"v_ms":-11.505548387096775}},{"type":"Feature","geometry":{"type":"Point","coordinates":[-84.5658,33.3636]},"properties":{"site":"KFFC","name":"Atlanta GA","scan_time":"2026-09-25T11:59:25Z","stale":false,"bins":25,"density_birds_km3":5.992,"heading_deg":221.53379003045148,"speed_ms":9.559695240407965,"peak_altitude_m":200.0,"u_ms":-5.713589120932491,"v_ms":-6.935970131131617}},{"type":"Feature","geometry":{"type":"Point","coordinates":[-85.5449,42.8939]},"properties":{"site":"KGRR","name":"Grand Rapids MI","scan_time":"2026-09-25T12:02:02Z","stale":false,"bins":25,"density_birds_km3":1.6633333333333333,"heading_deg":301.1363705023474,"speed_ms":2.522700642054575,"peak_altitude_m":200.0,"u_ms":-2.1610754414125197,"v_ms":1.2518298555377207}},{"type":"Feature","geometry":{"type":"Point","coordinates":[-83.8217,39.4203]},"properties":{"site":"KILN","name":"Wilmington OH","scan_time":"2026-09-25T11:59:00Z","stale":false,"bins":25,"density_birds_km3":0.9026666666666666,"heading_deg":216.5594478696065,"speed_ms":7.411949215832712,"peak_altitude_m":200.0,"u_ms":-4.435832710978342,"v_ms":-5.913659447348768}},{"type":"Feature","geometry":{"type":"Point","coordinates":[-81.7019,30.4846]},"properties":{"site":"KJAX","name":"Jacksonville FL","scan_time":"2026-09-25T11:58:37Z","stale":false,"bins":25,"density_birds_km3":0.796875,"heading_deg":188.57737180340757,"speed_ms":10.369590032154342,"peak_altitude_m":0.0,"u_ms":-2.1222186495176847,"v_ms":-9.956736334405145}},{"type":"Feature","geometry":{"type":"Point","coordinates":[-88.0847,41.6045]},"properties":{"site":"KLOT","name":"Chicago IL","scan_time":"2026-09-25T12:02:11Z","stale":false,"bins":25,"density_birds_km3":3.8526666666666665,"heading_deg":354.3034352118229,"speed_ms":2.7693807618716297,"peak_altitude_m":200.0,"u_ms":-0.23398678030961903,"v_ms":2.6863506696816835}},{"type":"Feature","geometry":{"type":"Point","coordinates":[-78.4292,33.9892]},"properties":{"site":"KLTX","name":"Wilmington NC","scan_time":"2026-09-25T12:01:17Z","stale":false,"bins":25,"density_birds_km3":0.733125,"heading_deg":257.76514411264816,"speed_ms":3.3718686006825944,"peak_altitude_m":0.0,"u_ms":-2.666825938566553,"v_ms":-1.2984470989761092}},{"type":"Feature","geometry":{"type":"Point","coordinates":[-77.4778,38.9753]},"properties":{"site":"KLWX","name":"Sterling VA","scan_time":"2026-09-25T12:03:26Z","stale":false,"bins":25,"density_birds_km3":2.63875,"heading_deg":202.52342864285555,"speed_ms":11.922841232227489,"peak_altitude_m":0.0,"u_ms":-5.1623957345971565,"v_ms":-10.404322274881517}},{"type":"Feature","geometry":{"type":"Point","coordinates":[-76.8762,34.7759]},"properties":{"site":"KMHX","name":"Morehead City NC","scan_time":"2026-09-25T12:01:06Z","stale":false,"bins":25,"density_birds_km3":0.3075,"heading_deg":186.00942666584695,"speed_ms":7.064735772357723,"peak_altitude_m":0.0,"u_ms":-0.7807317073170732,"v_ms":-7.007439024390243}},{"type":"Feature","geometry":{"type":"Point","coordinates":[-80.6542,28.1133]},"properties":{"site":"KMLB","name":"Melbourne FL","scan_time":"2026-09-25T11:58:19Z","stale":false,"bins":25,"density_birds_km3":0.41000000000000003,"heading_deg":175.00404040205908,"speed_ms":7.392546583850931,"peak_altitude_m":0.0,"u_ms":0.5482763975155279,"v_ms":-7.337577639751552}},{"type":"Feature","geometry":{"type":"Point","coordinates":[-86.5625,36.2472]},"properties":{"site":"KOHX","name":"Nashville TN","scan_time":"2026-09-25T12:00:05Z","stale":false,"bins":25,"density_birds_km3":6.6946666666666665,"heading_deg":226.76080831411807,"speed_ms":8.644066918940451,"peak_altitude_m":200.0,"u_ms":-6.278060147381,"v_ms":-5.85743278231428}},{"type":"Feature","geometry":{"type":"Point","coordinates":[-72.8639,40.8655]},"properties":{"site":"KOKX","name":"Upton NY","scan_time":"2026-09-25T12:01:58Z","stale":false,"bins":25,"density_birds_km3":0.15866666666666665,"heading_deg":224.59999999999997,"speed_ms":9.28,"peak_altitude_m":0.0,"u_ms":-6.52,"v_ms":-6.61}},{"type":"Feature","geometry":{"type":"Point","coordinates":[-80.2183,40.5317]},"properties":{"site":"KPBZ","name":"Pittsburgh PA","scan_time":"2026-09-25T11:58:23Z","stale":false,"bins":25,"density_birds_km3":0.7635714285714286,"heading_deg":228.6983665832658,"speed_ms":6.184209541627689,"peak_altitude_m":400.0,"u_ms":-4.671674462114126,"v_ms":-4.03622076707203}},{"type":"Feature","geometry":{"type":"Point","coordinates":[-78.4899,35.6655]},"properties":{"site":"KRAX","name":"Raleigh NC","scan_time":"2026-09-25T11:58:32Z","stale":false,"bins":25,"density_birds_km3":1.585625,"heading_deg":191.08053848782575,"speed_ms":12.306909735908555,"peak_altitude_m":0.0,"u_ms":-2.7027788726842727,"v_ms":-11.8441702798581}},{"type":"Feature","geometry":{"type":"Point","coordinates":[-82.4017,27.7055]},"properties":{"site":"KTBW","name":"Tampa FL","scan_time":"2026-09-25T11:56:13Z","stale":false,"bins":25,"density_birds_km3":0.631875,"heading_deg":199.56526364501832,"speed_ms":5.786438492063492,"peak_altitude_m":0.0,"u_ms":-1.8671825396825397,"v_ms":-5.328789682539682}}]}