{"type":"FeatureCollection","frame":"2026-09-30T04","site_count":20,"fresh_count":20,"failures":{},"features":[{"type":"Feature","geometry":{"type":"Point","coordinates":[-77.0073,36.984]},"properties":{"site":"KAKQ","name":"Wakefield VA","scan_time":"2026-09-30T04:00:37Z","stale":false,"bins":25,"density_birds_km3":17.11,"heading_deg":218.55288673811347,"speed_ms":5.047972819932051,"peak_altitude_m":400.0,"u_ms":-2.0629843276221096,"v_ms":-3.153544368538341}},{"type":"Feature","geometry":{"type":"Point","coordinates":[-71.1369,41.9558]},"properties":{"site":"KBOX","name":"Boston MA","scan_time":"2026-09-30T03:58:53Z","stale":false,"bins":25,"density_birds_km3":21.203125,"heading_deg":149.7423033953145,"speed_ms":8.214999263080324,"peak_altitude_m":200.0,"u_ms":3.8709302873986733,"v_ms":-6.979104495210022}},{"type":"Feature","geometry":{"type":"Point","coordinates":[-78.7369,42.9489]},"properties":{"site":"KBUF","name":"Buffalo NY","scan_time":"2026-09-30T04:00:28Z","stale":false,"bins":25,"density_birds_km3":10.047333333333334,"heading_deg":104.25192831828771,"speed_ms":5.721250082940747,"peak_altitude_m":400.0,"u_ms":4.854151682038352,"v_ms":-1.663208811624975}},{"type":"Feature","geometry":{"type":"Point","coordinates":[-81.8597,41.4131]},"properties":{"site":"KCLE","name":"Cleveland OH","scan_time":"2026-09-30T03:57:22Z","stale":false,"bins":25,"density_birds_km3":10.594666666666665,"heading_deg":19.689862168096738,"speed_ms":10.332515731185502,"peak_altitude_m":200.0,"u_ms":3.439745784042285,"v_ms":9.134026554241128}},{"type":"Feature","geometry":{"type":"Point","coordinates":[-81.0423,32.6555]},"properties":{"site":"KCLX","name":"Charleston SC","scan_time":"2026-09-30T04:00:53Z","stale":false,"bins":25,"density_birds_km3":14.49625,"heading_deg":249.43704404837325,"speed_ms":8.60703888936794,"peak_altitude_m":0.0,"u_ms":-6.771039492972321,"v_ms":-2.61779382598948}},{"type":"Feature","geometry":{"type":"Point","coordinates":[-74.4108,39.947]},"properties":{"site":"KDIX","name":"Philadelphia PA","scan_time":"2026-09-30T04:02:50Z","stale":false,"bins":25,"density_birds_km3":30.3075,"heading_deg":173.2123271376062,"speed_ms":8.803671272427303,"peak_altitude_m":400.0,"u_ms":0.9836908640956897,"v_ms":-8.27833305836255}},{"type":"Feature","geometry":{"type":"Point","coordinates":[-84.5658,33.3636]},"properties":{"site":"KFFC","name":"Atlanta GA","scan_time":"2026-09-30T03:58:15Z","stale":false,"bins":25,"density_birds_km3":24.59333333333333,"heading_deg":235.77750823249664,"speed_ms":9.278676877202495,"peak_altitude_m":200.0,"u_ms":-6.042106532935755,"v_ms":-4.587830577392248}},{"type":"Feature","geometry":{"type":"Point","coordinates":[-85.5449,42.8939]},"properties":{"site":"KGRR","name":"Grand Rapids MI","scan_time":"2026-09-30T04:02:08Z","stale":false,"bins":25,"density_birds_km3":1.1253333333333333,"heading_deg":17.986319589219242,"speed_ms":12.36911677534084,"peak_altitude_m":200.0,"u_ms":3.5898636633076464,"v_ms":11.251606401896858}},{"type":"Feature","geometry":{"type":"Point","coordinates":[-83.8217,39.4203]},"properties":{"site":"KILN","name":"Wilmington OH","scan_time":"2026-09-30T04:03:20Z","stale":false,"bins":25,"density_birds_km3":17.254666666666665,"heading_deg":43.54294446109595,"speed_ms":11.857063982690674,"peak_altitude_m":400.0,"u_ms":5.219403832779538,"v_ms":5.03979483811143}},{"type":"Feature","geometry":{"type":"Point","coordinates":[-81.7019,30.4846]},"properties":{"site":"KJAX","name":"Jacksonville FL","scan_time":"2026-09-30T03:58:31Z","stale":false,"bins":25,"density_birds_km3":39.576875,"heading_deg":244.81624346226926,"speed_ms":6.2837585673225735,"peak_altitude_m":0.0,"u_ms":-2.662360632955371,"v_ms":-2.645652379899561}},{"type":"Feature","geometry":{"type":"Point","coordinates":[-88.0847,41.6045]},"properties":{"site":"KLOT","name":"Chicago IL","scan_time":"2026-09-30T04:02:15Z","stale":false,"bins":25,"density_birds_km3":2.0533333333333332,"heading_deg":32.746744646540016,"speed_ms":13.890691558441558,"peak_altitude_m":400.0,"u_ms":6.666022727272727,"v_ms":10.957753246753246}},{"type":"Feature","geometry":{"type":"Point","coordinates":[-78.4292,33.9892]},"properties":{"site":"KLTX","name":"Wilmington NC","scan_time":"2026-09-30T03:59:06Z","stale":false,"bins":25,"density_birds_km3":10.96,"heading_deg":268.22143299387704,"speed_ms":4.789860849729114,"peak_altitude_m":200.0,"u_ms":-2.438161391502709,"v_ms":-0.9693190761334473}},{"type":"Feature","geometry":{"type":"Point","coordinates":[-77.4778,38.9753]},"properties":{"site":"KLWX","name":"Sterling VA","scan_time":"2026-09-30T04:00:18Z","stale":false,"bins":25,"density_birds_km3":38.055625,"heading_deg":203.86316504162383,"speed_ms":5.874744467990735,"peak_altitude_m":400.0,"u_ms":-2.6642000558539913,"v_ms":-3.822731917270382}},{"type":"Feature","geometry":{"type":"Point","coordinates":[-76.8762,34.7759]},"properties":{"site":"KMHX","name":"Morehead City NC","scan_time":"2026-09-30T03:59:40Z","stale":false,"bins":25,"density_birds_km3":3.6475,"heading_deg":278.02150818771844,"speed_ms":3.0538748928877464,"peak_altitude_m":0.0,"u_ms":-1.7634327335047126,"v_ms":-0.1938526135389888}},{"type":"Feature","geometry":{"type":"Point","coordinates":[-80.6542,28.1133]},"properties":{"site":"KMLB","name":"Melbourne FL","scan_time":"2026-09-30T03:59:27Z","stale":false,"bins":25,"density_birds_km3":12.897499999999999,"heading_deg":71.50404213827566,"speed_ms":2.7404434428612965,"peak_altitude_m":0.0,"u_ms":2.025815644082582,"v_ms":0.32198264999515364}},{"type":"Feature","geometry":{"type":"Point","coordinates":[-86.5625,36.2472]},"properties":{"site":"KOHX","name":"Nashville TN","scan_time":"2026-09-30T03:57:14Z","stale":false,"bins":25,"density_birds_km3":32.13133333333334,"heading_deg":30.21587692174339,"speed_ms":5.552851837251281,"peak_altitude_m":200.0,"u_ms":1.1072353051019772,"v_ms":0.850530323464116}},{"type":"Feature","geometry":{"type":"Point","coordinates":[-72.8639,40.8655]},"properties":{"site":"KOKX","name":"Upton NY","scan_time":"2026-09-30T03:57:09Z","stale":false,"bins":25,"density_birds_km3":29.4325,"heading_deg":194.12098828703023,"speed_ms":8.226850086011002,"peak_altitude_m":200.0,"u_ms":-2.0828738292947095,"v_ms":-7.816589716907002}},{"type":"Feature","geometry":{"type":"Point","coordinates":[-80.2183,40.5317]},"properties":{"site":"KPBZ","name":"Pittsburgh PA","scan_time":"2026-09-30T04:01:15Z","stale":false,"bins":25,"density_birds_km3":19.832142857142856,"heading_deg":53.384089556869256,"speed_ms":8.971681973707906,"peak_altitude_m":400.0,"u_ms":5.406239870340357,"v_ms":4.4683666486583835}},{"type":"Feature","geometry":{"type":"Point","coordinates":[-78.4899,35.6655]},"properties":{"site":"KRAX","name":"Raleigh NC","scan_time":"2026-09-30T04:00:41Z","stale":false,"bins":25,"density_birds_km3":26.76125,"heading_deg":242.7301602551458,"speed_ms":6.300569012636939,"peak_altitude_m":200.0,"u_ms":-4.858947933942211,"v_ms":-2.396811099950947}},{"type":"Feature","geometry":{"type":"Point","coordinates":[-82.4017,27.7055]},"properties":{"site":"KTBW","name":"Tampa FL","scan_time":"2026-09-30T04:00:32Z","stale":false,"bins":25,"density_birds_km3":12.8575,"heading_deg":283.9842558590756,"speed_ms":5.992659926113164,"peak_altitude_m":0.0,"u_ms":-2.2179029749173633,"v_ms":-0.49133871281353303}}]}