{"type":"FeatureCollection","frame":"2026-08-19T06","site_count":20,"fresh_count":20,"failures":{},"features":[{"type":"Feature","geometry":{"type":"Point","coordinates":[-77.0073,36.984]},"properties":{"site":"KAKQ","name":"Wakefield VA","scan_time":"2026-08-19T05:59:43Z","stale":false,"bins":25,"density_birds_km3":10.55875,"heading_deg":201.65655913222503,"speed_ms":6.604672310698005,"peak_altitude_m":200.0,"u_ms":-2.439277129832455,"v_ms":-6.101829968622344}},{"type":"Feature","geometry":{"type":"Point","coordinates":[-71.1369,41.9558]},"properties":{"site":"KBOX","name":"Boston MA","scan_time":"2026-08-19T05:59:01Z","stale":false,"bins":25,"density_birds_km3":0.788125,"heading_deg":42.86194407421359,"speed_ms":4.828626984126984,"peak_altitude_m":0.0,"u_ms":3.135928571428572,"v_ms":3.4822460317460315}},{"type":"Feature","geometry":{"type":"Point","coordinates":[-78.7369,42.9489]},"properties":{"site":"KBUF","name":"Buffalo NY","scan_time":"2026-08-19T05:58:16Z","stale":false,"bins":25,"density_birds_km3":0.45133333333333336,"heading_deg":58.05468133595942,"speed_ms":8.150472673559822,"peak_altitude_m":200.0,"u_ms":6.501787296898079,"v_ms":4.162644017725258}},{"type":"Feature","geometry":{"type":"Point","coordinates":[-81.8597,41.4131]},"properties":{"site":"KCLE","name":"Cleveland OH","scan_time":"2026-08-19T06:00:20Z","stale":false,"bins":25,"density_birds_km3":0.6853333333333332,"heading_deg":68.82164029125008,"speed_ms":8.644153696498055,"peak_altitude_m":200.0,"u_ms":7.96932879377432,"v_ms":2.956468871595331}},{"type":"Feature","geometry":{"type":"Point","coordinates":[-81.0423,32.6555]},"properties":{"site":"KCLX","name":"Charleston SC","scan_time":"2026-08-19T06:03:19Z","stale":false,"bins":25,"density_birds_km3":11.83625,"heading_deg":167.31278586248484,"speed_ms":9.614902840849087,"peak_altitude_m":0.0,"u_ms":2.035045411342275,"v_ms":-9.377203506178054}},{"type":"Feature","geometry":{"type":"Point","coordinates":[-74.4108,39.947]},"properties":{"site":"KDIX","name":"Philadelphia PA","scan_time":"2026-08-19T06:02:49Z","stale":false,"bins":25,"density_birds_km3":7.385625,"heading_deg":202.78176937887483,"speed_ms":4.776209260983663,"peak_altitude_m":400.0,"u_ms":-1.902934055701346,"v_ms":-3.8348979937357153}},{"type":"Feature","geometry":{"type":"Point","coordinates":[-84.5658,33.3636]},"properties":{"site":"KFFC","name":"Atlanta GA","scan_time":"2026-08-19T06:00:19Z","stale":false,"bins":25,"density_birds_km3":38.424,"heading_deg":166.02682970937076,"speed_ms":9.118792489535025,"peak_altitude_m":400.0,"u_ms":1.6429890747398954,"v_ms":-8.48189932780991}},{"type":"Feature","geometry":{"type":"Point","coordinates":[-85.5449,42.8939]},"properties":{"site":"KGRR","name":"Grand Rapids MI","scan_time":"2026-08-19T05:58:48Z","stale":false,"bins":25,"density_birds_km3":0.6166666666666667,"heading_deg":32.60121874406669,"speed_ms":5.238365800865801,"peak_altitude_m":200.0,"u_ms":2.8143073593073593,"v_ms":3.521450216450216}},{"type":"Feature","geometry":{"type":"Point","coordinates":[-83.8217,39.4203]},"properties":{"site":"KILN","name":"Wilmington OH","scan_time":"2026-08-19T06:01:41Z","stale":false,"bins":25,"density_birds_km3":5.644,"heading_deg":79.7015690060463,"speed_ms":2.358870643827525,"peak_altitude_m":200.0,"u_ms":2.0867914943886587,"v_ms":-0.37103839338452443}},{"type":"Feature","geometry":{"type":"Point","coordinates":[-81.7019,30.4846]},"properties":{"site":"KJAX","name":"Jacksonville FL","scan_time":"2026-08-19T05:59:53Z","stale":false,"bins":25,"density_birds_km3":19.127499999999998,"heading_deg":141.1153230976939,"speed_ms":7.466485032659192,"peak_altitude_m":0.0,"u_ms":4.899152956792064,"v_ms":-5.140909567222048}},{"type":"Feature","geometry":{"type":"Point","coordinates":[-88.0847,41.6045]},"properties":{"site":"KLOT","name":"Chicago IL","scan_time":"2026-08-19T06:00:56Z","stale":false,"bins":25,"density_birds_km3":3.4186666666666667,"heading_deg":111.52572732659539,"speed_ms":6.777811023622046,"peak_altitude_m":200.0,"u_ms":5.241267716535432,"v_ms":-2.708025590551181}},{"type":"Feature","geometry":{"type":"Point","coordinates":[-78.4292,33.9892]},"properties":{"site":"KLTX","name":"Wilmington NC","scan_time":"2026-08-19T05:58:02Z","stale":false,"bins":25,"density_birds_km3":24.70625,"heading_deg":193.54248928490978,"speed_ms":7.981239564887427,"peak_altitude_m":200.0,"u_ms":-1.932326587401973,"v_ms":-7.653347837085758}},{"type":"Feature","geometry":{"type":"Point","coordinates":[-77.4778,38.9753]},"properties":{"site":"KLWX","name":"Sterling VA","scan_time":"2026-08-19T06:02:30Z","stale":false,"bins":25,"density_birds_km3":9.25375,"heading_deg":189.58389717478343,"speed_ms":6.451910150426887,"peak_altitude_m":400.0,"u_ms":-1.1160916113294483,"v_ms":-5.9294850250711475}},{"type":"Feature","geometry":{"type":"Point","coordinates":[-76.8762,34.7759]},"properties":{"site":"KMHX","name":"Morehead City NC","scan_time":"2026-08-19T06:01:19Z","stale":false,"bins":25,"density_birds_km3":11.958124999999999,"heading_deg":200.23855895859202,"speed_ms":4.865116826093775,"peak_altitude_m":0.0,"u_ms":-1.5009042914641157,"v_ms":-3.9470749046050906}},{"type":"Feature","geometry":{"type":"Point","coordinates":[-80.6542,28.1133]},"properties":{"site":"KMLB","name":"Melbourne FL","scan_time":"2026-08-19T06:00:55Z","stale":false,"bins":25,"density_birds_km3":1.683125,"heading_deg":96.93640916288308,"speed_ms":8.045774229483849,"peak_altitude_m":0.0,"u_ms":7.918949127367248,"v_ms":-0.9605272929818047}},{"type":"Feature","geometry":{"type":"Point","coordinates":[-86.5625,36.2472]},"properties":{"site":"KOHX","name":"Nashville TN","scan_time":"2026-08-19T06:02:11Z","stale":false,"bins":25,"density_birds_km3":47.62733333333333,"heading_deg":209.04395786028994,"speed_ms":3.7370074607018378,"peak_altitude_m":400.0,"u_ms":-1.7357432006830813,"v_ms":-2.9414522473089684}},{"type":"Feature","geometry":{"type":"Point","coordinates":[-72.8639,40.8655]},"properties":{"site":"KOKX","name":"Upton NY","scan_time":"2026-08-19T06:01:19Z","stale":false,"bins":25,"density_birds_km3":2.26625,"heading_deg":89.59384866191749,"speed_ms":5.224115862068966,"peak_altitude_m":0.0,"u_ms":4.843164137931034,"v_ms":0.15480275862068968}},{"type":"Feature","geometry":{"type":"Point","coordinates":[-80.2183,40.5317]},"properties":{"site":"KPBZ","name":"Pittsburgh PA","scan_time":"2026-08-19T06:01:51Z","stale":false,"bins":25,"density_birds_km3":2.755,"heading_deg":67.92307590749476,"speed_ms":4.289587762509722,"peak_altitude_m":400.0,"u_ms":3.8657868809955924,"v_ms":1.4941664506092818}},{"type":"Feature","geometry":{"type":"Point","coordinates":[-78.4899,35.6655]},"properties":{"site":"KRAX","name":"Raleigh NC","scan_time":"2026-08-19T06:04:12Z","stale":false,"bins":25,"density_birds_km3":15.4975,"heading_deg":209.91966510569628,"speed_ms":7.411058685824992,"peak_altitude_m":200.0,"u_ms":-3.5412948014207295,"v_ms":-5.995572328059413}},{"type":"Feature","geometry":{"type":"Point","coordinates":[-82.4017,27.7055]},"properties":{"site":"KTBW","name":"Tampa FL","scan_time":"2026-08-19T05:59:03Z","stale":false,"bins":25,"density_birds_km3":2.228125,"heading_deg":147.6737478002727,"speed_ms":4.876255259467041,"peak_altitude_m":0.0,"u_ms":2.5032314165497898,"v_ms":-4.096274894810659}}]}