{"type":"FeatureCollection","frame":"2026-08-27T04","site_count":20,"fresh_count":20,"failures":{},"features":[{"type":"Feature","geometry":{"type":"Point","coordinates":[-77.0073,36.984]},"properties":{"site":"KAKQ","name":"Wakefield VA","scan_time":"2026-08-27T03:58:35Z","stale":false,"bins":25,"density_birds_km3":4.75,"heading_deg":331.1974969180977,"speed_ms":8.343926445296997,"peak_altitude_m":0.0,"u_ms":-3.5031445958460115,"v_ms":7.107577721920888}},{"type":"Feature","geometry":{"type":"Point","coordinates":[-71.1369,41.9558]},"properties":{"site":"KBOX","name":"Boston MA","scan_time":"2026-08-27T04:00:10Z","stale":false,"bins":25,"density_birds_km3":1.9793749999999999,"heading_deg":45.10585256807932,"speed_ms":5.331247237132933,"peak_altitude_m":200.0,"u_ms":3.4252952320808334,"v_ms":3.50498263340701}},{"type":"Feature","geometry":{"type":"Point","coordinates":[-78.7369,42.9489]},"properties":{"site":"KBUF","name":"Buffalo NY","scan_time":"2026-08-27T04:01:01Z","stale":false,"bins":25,"density_birds_km3":2.698,"heading_deg":356.478984242765,"speed_ms":4.871126760563381,"peak_altitude_m":200.0,"u_ms":0.2736767976278724,"v_ms":4.239471213244379}},{"type":"Feature","geometry":{"type":"Point","coordinates":[-81.8597,41.4131]},"properties":{"site":"KCLE","name":"Cleveland OH","scan_time":"2026-08-27T04:02:23Z","stale":false,"bins":25,"density_birds_km3":1.464,"heading_deg":28.138217834502626,"speed_ms":8.734296400187004,"peak_altitude_m":200.0,"u_ms":4.180341280972417,"v_ms":7.653646563814867}},{"type":"Feature","geometry":{"type":"Point","coordinates":[-81.0423,32.6555]},"properties":{"site":"KCLX","name":"Charleston SC","scan_time":"2026-08-27T03:59:51Z","stale":false,"bins":25,"density_birds_km3":1.96625,"heading_deg":352.93183325969267,"speed_ms":5.833962384443737,"peak_altitude_m":0.0,"u_ms":-0.563847625119541,"v_ms":5.499448517692063}},{"type":"Feature","geometry":{"type":"Point","coordinates":[-74.4108,39.947]},"properties":{"site":"KDIX","name":"Philadelphia PA","scan_time":"2026-08-27T03:59:32Z","stale":false,"bins":25,"density_birds_km3":2.7625,"heading_deg":3.008365318566578,"speed_ms":7.0999773601992295,"peak_altitude_m":0.0,"u_ms":0.34344124971700246,"v_ms":6.642766583654064}},{"type":"Feature","geometry":{"type":"Point","coordinates":[-84.5658,33.3636]},"properties":{"site":"KFFC","name":"Atlanta GA","scan_time":"2026-08-27T03:56:45Z","stale":false,"bins":25,"density_birds_km3":13.279333333333334,"heading_deg":230.96997500718874,"speed_ms":3.0980847432100003,"peak_altitude_m":1400.0,"u_ms":-1.4298257944675936,"v_ms":-0.8427139916662484}},{"type":"Feature","geometry":{"type":"Point","coordinates":[-85.5449,42.8939]},"properties":{"site":"KGRR","name":"Grand Rapids MI","scan_time":"2026-08-27T04:01:05Z","stale":false,"bins":25,"density_birds_km3":4.27,"heading_deg":119.8168244946885,"speed_ms":10.939581511555279,"peak_altitude_m":400.0,"u_ms":9.140240474703312,"v_ms":-5.705687070580888}},{"type":"Feature","geometry":{"type":"Point","coordinates":[-83.8217,39.4203]},"properties":{"site":"KILN","name":"Wilmington OH","scan_time":"2026-08-27T04:00:49Z","stale":false,"bins":25,"density_birds_km3":2.006666666666667,"heading_deg":58.7,"speed_ms":7.46,"peak_altitude_m":200.0,"u_ms":6.38,"v_ms":3.87}},{"type":"Feature","geometry":{"type":"Point","coordinates":[-81.7019,30.4846]},"properties":{"site":"KJAX","name":"Jacksonville FL","scan_time":"2026-08-27T03:58:35Z","stale":false,"bins":25,"density_birds_km3":7.43,"heading_deg":173.9079509369462,"speed_ms":1.8516995666827154,"peak_altitude_m":0.0,"u_ms":-0.12308810784785751,"v_ms":-1.6811035146846416}},{"type":"Feature","geometry":{"type":"Point","coordinates":[-88.0847,41.6045]},"properties":{"site":"KLOT","name":"Chicago IL","scan_time":"2026-08-27T04:01:37Z","stale":false,"bins":25,"density_birds_km3":22.497999999999998,"heading_deg":148.78951835075375,"speed_ms":12.205098823599135,"peak_altitude_m":400.0,"u_ms":6.289402909888286,"v_ms":-10.44285062375915}},{"type":"Feature","geometry":{"type":"Point","coordinates":[-78.4292,33.9892]},"properties":{"site":"KLTX","name":"Wilmington NC","scan_time":"2026-08-27T03:59:56Z","stale":false,"bins":25,"density_birds_km3":1.224375,"heading_deg":320.8233137076564,"speed_ms":4.378736102984202,"peak_altitude_m":0.0,"u_ms":-2.529016968987712,"v_ms":2.8756816851960214}},{"type":"Feature","geometry":{"type":"Point","coordinates":[-77.4778,38.9753]},"properties":{"site":"KLWX","name":"Sterling VA","scan_time":"2026-08-27T03:58:03Z","stale":false,"bins":25,"density_birds_km3":5.32625,"heading_deg":316.64443585695903,"speed_ms":8.115476413987327,"peak_altitude_m":200.0,"u_ms":-4.56914808730345,"v_ms":5.917730579676133}},{"type":"Feature","geometry":{"type":"Point","coordinates":[-76.8762,34.7759]},"properties":{"site":"KMHX","name":"Morehead City NC","scan_time":"2026-08-27T04:00:39Z","stale":false,"bins":25,"density_birds_km3":0.745625,"heading_deg":337.1524208474006,"speed_ms":5.083671416596815,"peak_altitude_m":0.0,"u_ms":-1.8304442581726739,"v_ms":4.302908633696563}},{"type":"Feature","geometry":{"type":"Point","coordinates":[-80.6542,28.1133]},"properties":{"site":"KMLB","name":"Melbourne FL","scan_time":"2026-08-27T04:02:40Z","stale":false,"bins":25,"density_birds_km3":11.0225,"heading_deg":93.7842919083713,"speed_ms":1.6810957350272233,"peak_altitude_m":200.0,"u_ms":0.42501928312159715,"v_ms":0.212171052631579}},{"type":"Feature","geometry":{"type":"Point","coordinates":[-86.5625,36.2472]},"properties":{"site":"KOHX","name":"Nashville TN","scan_time":"2026-08-27T03:57:41Z","stale":false,"bins":25,"density_birds_km3":8.216666666666667,"heading_deg":50.54101496037885,"speed_ms":4.735556186612577,"peak_altitude_m":200.0,"u_ms":2.4418279918864094,"v_ms":1.8491918864097363}},{"type":"Feature","geometry":{"type":"Point","coordinates":[-72.8639,40.8655]},"properties":{"site":"KOKX","name":"Upton NY","scan_time":"2026-08-27T04:01:17Z","stale":false,"bins":25,"density_birds_km3":4.193125,"heading_deg":315.50864166474554,"speed_ms":6.513120238984317,"peak_altitude_m":0.0,"u_ms":-3.8614368932038836,"v_ms":4.181175504107542}},{"type":"Feature","geometry":{"type":"Point","coordinates":[-80.2183,40.5317]},"properties":{"site":"KPBZ","name":"Pittsburgh PA","scan_time":"2026-08-27T04:01:16Z","stale":false,"bins":25,"density_birds_km3":4.305,"heading_deg":24.722409059958647,"speed_ms":4.449847353575577,"peak_altitude_m":400.0,"u_ms":2.482687904430065,"v_ms":2.8851717272274766}},{"type":"Feature","geometry":{"type":"Point","coordinates":[-78.4899,35.6655]},"properties":{"site":"KRAX","name":"Raleigh NC","scan_time":"2026-08-27T04:00:33Z","stale":false,"bins":25,"density_birds_km3":3.120625,"heading_deg":1.208399975670029,"speed_ms":6.307891783567134,"peak_altitude_m":0.0,"u_ms":0.32519438877755513,"v_ms":6.153036072144289}},{"type":"Feature","geometry":{"type":"Point","coordinates":[-82.4017,27.7055]},"properties":{"site":"KTBW","name":"Tampa FL","scan_time":"2026-08-27T03:58:29Z","stale":false,"bins":25,"density_birds_km3":4.274375,"heading_deg":260.24457843644416,"speed_ms":5.8939420544337136,"peak_altitude_m":0.0,"u_ms":-2.548045068773778,"v_ms":-1.132968978636231}}]}