{"type":"FeatureCollection","frame":"2026-08-19T12","site_count":20,"fresh_count":19,"failures":{"KAKQ":"RuntimeError(\"vol2bird failed rc=139 on KAKQ20260819_115725_V06: Warning: no user configuration file 'options.conf' found. Using default settings ...\\nWarning: load_wsr88d_m31_into_radar: Unexpected end of file.\\nCurrent sweep index: 3\\nLast ray read: 720\\nReading RSL polar volume with nominal time 20260819-115726, source: RAD:KAKQ,PLC:NORFOLK/RICH,state:VA,radar_name:KAKQ\\n\")"},"features":[{"type":"Feature","geometry":{"type":"Point","coordinates":[-71.1369,41.9558]},"properties":{"site":"KBOX","name":"Boston MA","scan_time":"2026-08-19T11:59:17Z","stale":false,"bins":25,"density_birds_km3":3.075,"heading_deg":60.18351487983485,"speed_ms":3.4165290768605123,"peak_altitude_m":0.0,"u_ms":2.9482980886539245,"v_ms":1.6138674257828387}},{"type":"Feature","geometry":{"type":"Point","coordinates":[-78.7369,42.9489]},"properties":{"site":"KBUF","name":"Buffalo NY","scan_time":"2026-08-19T12:02:42Z","stale":false,"bins":25,"density_birds_km3":4.748571428571429,"heading_deg":97.0,"speed_ms":2.39,"peak_altitude_m":600.0,"u_ms":2.37,"v_ms":-0.29}},{"type":"Feature","geometry":{"type":"Point","coordinates":[-81.8597,41.4131]},"properties":{"site":"KCLE","name":"Cleveland OH","scan_time":"2026-08-19T11:58:10Z","stale":false,"bins":25,"density_birds_km3":1.0186666666666668,"heading_deg":67.40717450350388,"speed_ms":7.398985507246377,"peak_altitude_m":200.0,"u_ms":6.712951251646904,"v_ms":2.5825428194993414}},{"type":"Feature","geometry":{"type":"Point","coordinates":[-81.0423,32.6555]},"properties":{"site":"KCLX","name":"Charleston SC","scan_time":"2026-08-19T11:59:09Z","stale":false,"bins":25,"density_birds_km3":4.283125,"heading_deg":206.05042881266155,"speed_ms":5.499646612149533,"peak_altitude_m":0.0,"u_ms":-2.4097970210280377,"v_ms":-4.897825642523364}},{"type":"Feature","geometry":{"type":"Point","coordinates":[-74.4108,39.947]},"properties":{"site":"KDIX","name":"Philadelphia PA","scan_time":"2026-08-19T11:59:00Z","stale":false,"bins":25,"density_birds_km3":7.454375,"heading_deg":209.30214083195867,"speed_ms":5.204660853525614,"peak_altitude_m":200.0,"u_ms":-2.5415913473631258,"v_ms":-4.407484698583047}},{"type":"Feature","geometry":{"type":"Point","coordinates":[-84.5658,33.3636]},"properties":{"site":"KFFC","name":"Atlanta GA","scan_time":"2026-08-19T12:01:43Z","stale":false,"bins":25,"density_birds_km3":5.826,"heading_deg":166.43907510134107,"speed_ms":9.290327306019686,"peak_altitude_m":400.0,"u_ms":2.3310574502174415,"v_ms":-8.797256809338522}},{"type":"Feature","geometry":{"type":"Point","coordinates":[-85.5449,42.8939]},"properties":{"site":"KGRR","name":"Grand Rapids MI","scan_time":"2026-08-19T11:57:01Z","stale":false,"bins":25,"density_birds_km3":0.282,"heading_deg":123.71395173298998,"speed_ms":2.8783770883054896,"peak_altitude_m":200.0,"u_ms":2.3931742243436758,"v_ms":-1.6042959427207637}},{"type":"Feature","geometry":{"type":"Point","coordinates":[-83.8217,39.4203]},"properties":{"site":"KILN","name":"Wilmington OH","scan_time":"2026-08-19T11:58:42Z","stale":false,"bins":25,"density_birds_km3":0.22933333333333333,"heading_deg":82.63267476284213,"speed_ms":7.540909090909092,"peak_altitude_m":200.0,"u_ms":7.137448680351906,"v_ms":0.4340762463343108}},{"type":"Feature","geometry":{"type":"Point","coordinates":[-81.7019,30.4846]},"properties":{"site":"KJAX","name":"Jacksonville FL","scan_time":"2026-08-19T12:01:54Z","stale":false,"bins":25,"density_birds_km3":8.869375,"heading_deg":181.05457678879296,"speed_ms":9.806313191849396,"peak_altitude_m":0.0,"u_ms":-0.14109708806317411,"v_ms":-9.706006486638934}},{"type":"Feature","geometry":{"type":"Point","coordinates":[-88.0847,41.6045]},"properties":{"site":"KLOT","name":"Chicago IL","scan_time":"2026-08-19T12:02:32Z","stale":false,"bins":25,"density_birds_km3":1.6233333333333335,"heading_deg":198.81792667399455,"speed_ms":4.43859375,"peak_altitude_m":200.0,"u_ms":-1.4008963815789475,"v_ms":-4.178416940789473}},{"type":"Feature","geometry":{"type":"Point","coordinates":[-78.4292,33.9892]},"properties":{"site":"KLTX","name":"Wilmington NC","scan_time":"2026-08-19T12:02:17Z","stale":false,"bins":25,"density_birds_km3":7.274375,"heading_deg":230.5683379338367,"speed_ms":5.7059623683756255,"peak_altitude_m":0.0,"u_ms":-4.359873122734335,"v_ms":-3.46364836872087}},{"type":"Feature","geometry":{"type":"Point","coordinates":[-77.4778,38.9753]},"properties":{"site":"KLWX","name":"Sterling VA","scan_time":"2026-08-19T12:01:37Z","stale":false,"bins":25,"density_birds_km3":10.94125,"heading_deg":168.47113268414884,"speed_ms":6.482260258315236,"peak_altitude_m":400.0,"u_ms":1.3873591267573437,"v_ms":-6.2177563150074295}},{"type":"Feature","geometry":{"type":"Point","coordinates":[-76.8762,34.7759]},"properties":{"site":"KMHX","name":"Morehead City NC","scan_time":"2026-08-19T12:02:42Z","stale":false,"bins":25,"density_birds_km3":6.804375,"heading_deg":205.30636031472227,"speed_ms":5.790222283457334,"peak_altitude_m":0.0,"u_ms":-2.230822081381464,"v_ms":-4.1343666758519335}},{"type":"Feature","geometry":{"type":"Point","coordinates":[-80.6542,28.1133]},"properties":{"site":"KMLB","name":"Melbourne FL","scan_time":"2026-08-19T12:00:06Z","stale":false,"bins":25,"density_birds_km3":1.59375,"heading_deg":159.01119562233905,"speed_ms":8.2476186739898,"peak_altitude_m":0.0,"u_ms":2.8357002746174973,"v_ms":-7.599262455865045}},{"type":"Feature","geometry":{"type":"Point","coordinates":[-86.5625,36.2472]},"properties":{"site":"KOHX","name":"Nashville TN","scan_time":"2026-08-19T12:01:28Z","stale":false,"bins":25,"density_birds_km3":3.008,"heading_deg":190.58500079502727,"speed_ms":4.2537300531914894,"peak_altitude_m":200.0,"u_ms":0.6655939716312057,"v_ms":-2.927214095744681}},{"type":"Feature","geometry":{"type":"Point","coordinates":[-72.8639,40.8655]},"properties":{"site":"KOKX","name":"Upton NY","scan_time":"2026-08-19T11:58:58Z","stale":false,"bins":25,"density_birds_km3":8.29375,"heading_deg":164.54587103038918,"speed_ms":6.068825081015901,"peak_altitude_m":200.0,"u_ms":1.6723332579697037,"v_ms":-5.614857939558369}},{"type":"Feature","geometry":{"type":"Point","coordinates":[-80.2183,40.5317]},"properties":{"site":"KPBZ","name":"Pittsburgh PA","scan_time":"2026-08-19T12:00:41Z","stale":false,"bins":25,"density_birds_km3":0.37,"heading_deg":76.13952952393896,"speed_ms":4.305135135135135,"peak_altitude_m":400.0,"u_ms":4.156235521235521,"v_ms":0.9614285714285713}},{"type":"Feature","geometry":{"type":"Point","coordinates":[-78.4899,35.6655]},"properties":{"site":"KRAX","name":"Raleigh NC","scan_time":"2026-08-19T12:02:21Z","stale":false,"bins":25,"density_birds_km3":4.946875,"heading_deg":213.79542260492187,"speed_ms":6.243158569596808,"peak_altitude_m":200.0,"u_ms":-3.242543097307309,"v_ms":-4.913090183786864}},{"type":"Feature","geometry":{"type":"Point","coordinates":[-82.4017,27.7055]},"properties":{"site":"KTBW","name":"Tampa FL","scan_time":"2026-08-19T11:59:06Z","stale":false,"bins":25,"density_birds_km3":1.720625,"heading_deg":122.62928124047379,"speed_ms":4.345517617144933,"peak_altitude_m":0.0,"u_ms":3.1819142753359966,"v_ms":-2.336857973120232}}]}