{"type":"FeatureCollection","frame":"2026-09-19T08","site_count":20,"fresh_count":20,"failures":{},"features":[{"type":"Feature","geometry":{"type":"Point","coordinates":[-77.0073,36.984]},"properties":{"site":"KAKQ","name":"Wakefield VA","scan_time":"2026-09-19T07:57:23Z","stale":false,"bins":25,"density_birds_km3":45.0025,"heading_deg":203.72638473542125,"speed_ms":8.667716980607878,"peak_altitude_m":0.0,"u_ms":-3.33553342223704,"v_ms":-7.895196699449909}},{"type":"Feature","geometry":{"type":"Point","coordinates":[-71.1369,41.9558]},"properties":{"site":"KBOX","name":"Boston MA","scan_time":"2026-09-19T08:01:37Z","stale":false,"bins":25,"density_birds_km3":6.89125,"heading_deg":215.3526223103306,"speed_ms":9.927521313259568,"peak_altitude_m":200.0,"u_ms":-5.801854707056049,"v_ms":-7.895331942680936}},{"type":"Feature","geometry":{"type":"Point","coordinates":[-78.7369,42.9489]},"properties":{"site":"KBUF","name":"Buffalo NY","scan_time":"2026-09-19T07:56:44Z","stale":false,"bins":25,"density_birds_km3":29.416,"heading_deg":258.122992097375,"speed_ms":12.798090381651708,"peak_altitude_m":200.0,"u_ms":-12.481927975704833,"v_ms":-2.4713960656332152}},{"type":"Feature","geometry":{"type":"Point","coordinates":[-81.8597,41.4131]},"properties":{"site":"KCLE","name":"Cleveland OH","scan_time":"2026-09-19T08:02:10Z","stale":false,"bins":25,"density_birds_km3":53.437333333333335,"heading_deg":249.54941097987225,"speed_ms":9.742423474799406,"peak_altitude_m":400.0,"u_ms":-8.944374009508715,"v_ms":-3.2085970275902516}},{"type":"Feature","geometry":{"type":"Point","coordinates":[-81.0423,32.6555]},"properties":{"site":"KCLX","name":"Charleston SC","scan_time":"2026-09-19T08:02:51Z","stale":false,"bins":25,"density_birds_km3":21.649375,"heading_deg":183.3195193238993,"speed_ms":8.383463725858139,"peak_altitude_m":0.0,"u_ms":-0.8342691763619043,"v_ms":-8.215908080487313}},{"type":"Feature","geometry":{"type":"Point","coordinates":[-74.4108,39.947]},"properties":{"site":"KDIX","name":"Philadelphia PA","scan_time":"2026-09-19T08:00:12Z","stale":false,"bins":25,"density_birds_km3":10.6925,"heading_deg":233.60208603723805,"speed_ms":11.194426517011575,"peak_altitude_m":200.0,"u_ms":-8.121145796796446,"v_ms":-6.785424412486846}},{"type":"Feature","geometry":{"type":"Point","coordinates":[-84.5658,33.3636]},"properties":{"site":"KFFC","name":"Atlanta GA","scan_time":"2026-09-19T08:01:20Z","stale":false,"bins":25,"density_birds_km3":176.4586666666667,"heading_deg":174.19530298926688,"speed_ms":8.848766925587862,"peak_altitude_m":1000.0,"u_ms":0.08888000211569855,"v_ms":-8.29461566070241}},{"type":"Feature","geometry":{"type":"Point","coordinates":[-85.5449,42.8939]},"properties":{"site":"KGRR","name":"Grand Rapids MI","scan_time":"2026-09-19T08:01:56Z","stale":false,"bins":25,"density_birds_km3":16.305,"heading_deg":null,"speed_ms":null,"peak_altitude_m":400.0,"u_ms":null,"v_ms":null}},{"type":"Feature","geometry":{"type":"Point","coordinates":[-83.8217,39.4203]},"properties":{"site":"KILN","name":"Wilmington OH","scan_time":"2026-09-19T07:58:36Z","stale":false,"bins":25,"density_birds_km3":66.71733333333333,"heading_deg":246.1675493219273,"speed_ms":9.233825230843266,"peak_altitude_m":200.0,"u_ms":-7.487506090652978,"v_ms":-3.5111563718757206}},{"type":"Feature","geometry":{"type":"Point","coordinates":[-81.7019,30.4846]},"properties":{"site":"KJAX","name":"Jacksonville FL","scan_time":"2026-09-19T08:01:02Z","stale":false,"bins":25,"density_birds_km3":15.89875,"heading_deg":189.99662491250064,"speed_ms":9.689130434782609,"peak_altitude_m":200.0,"u_ms":-1.8262595329821527,"v_ms":-9.470156458841103}},{"type":"Feature","geometry":{"type":"Point","coordinates":[-88.0847,41.6045]},"properties":{"site":"KLOT","name":"Chicago IL","scan_time":"2026-09-19T08:01:49Z","stale":false,"bins":25,"density_birds_km3":6.458666666666667,"heading_deg":309.99014058431214,"speed_ms":12.610935297211993,"peak_altitude_m":200.0,"u_ms":-7.514893214097842,"v_ms":7.379322461862179}},{"type":"Feature","geometry":{"type":"Point","coordinates":[-78.4292,33.9892]},"properties":{"site":"KLTX","name":"Wilmington NC","scan_time":"2026-09-19T07:59:02Z","stale":false,"bins":25,"density_birds_km3":40.50375,"heading_deg":177.88699047626076,"speed_ms":8.428250779248836,"peak_altitude_m":0.0,"u_ms":0.12030321266549394,"v_ms":-8.392048575749161}},{"type":"Feature","geometry":{"type":"Point","coordinates":[-77.4778,38.9753]},"properties":{"site":"KLWX","name":"Sterling VA","scan_time":"2026-09-19T08:01:51Z","stale":false,"bins":25,"density_birds_km3":189.96,"heading_deg":227.61431988843407,"speed_ms":13.167360508015852,"peak_altitude_m":400.0,"u_ms":-9.777058759517399,"v_ms":-8.239141828112878}},{"type":"Feature","geometry":{"type":"Point","coordinates":[-76.8762,34.7759]},"properties":{"site":"KMHX","name":"Morehead City NC","scan_time":"2026-09-19T08:00:00Z","stale":false,"bins":25,"density_birds_km3":9.519375,"heading_deg":222.6724568352697,"speed_ms":6.126880583289543,"peak_altitude_m":0.0,"u_ms":-3.960534682080924,"v_ms":-4.505823042564372}},{"type":"Feature","geometry":{"type":"Point","coordinates":[-80.6542,28.1133]},"properties":{"site":"KMLB","name":"Melbourne FL","scan_time":"2026-09-19T07:59:50Z","stale":false,"bins":25,"density_birds_km3":2.899375,"heading_deg":171.1042552711743,"speed_ms":6.297277430480706,"peak_altitude_m":0.0,"u_ms":1.1212481138176331,"v_ms":-6.096438887691313}},{"type":"Feature","geometry":{"type":"Point","coordinates":[-86.5625,36.2472]},"properties":{"site":"KOHX","name":"Nashville TN","scan_time":"2026-09-19T08:01:42Z","stale":false,"bins":25,"density_birds_km3":83.618,"heading_deg":289.8113095266834,"speed_ms":5.605134859320561,"peak_altitude_m":200.0,"u_ms":-1.8494431023623308,"v_ms":-0.07859153132898027}},{"type":"Feature","geometry":{"type":"Point","coordinates":[-72.8639,40.8655]},"properties":{"site":"KOKX","name":"Upton NY","scan_time":"2026-09-19T07:57:28Z","stale":false,"bins":25,"density_birds_km3":3.87,"heading_deg":240.49618234131793,"speed_ms":10.018621265540917,"peak_altitude_m":200.0,"u_ms":-8.721788829096306,"v_ms":-4.898574874744851}},{"type":"Feature","geometry":{"type":"Point","coordinates":[-80.2183,40.5317]},"properties":{"site":"KPBZ","name":"Pittsburgh PA","scan_time":"2026-09-19T07:58:15Z","stale":false,"bins":25,"density_birds_km3":59.56071428571429,"heading_deg":244.79019521509153,"speed_ms":8.480679258859507,"peak_altitude_m":400.0,"u_ms":-6.692463752473467,"v_ms":-3.1152348743778853}},{"type":"Feature","geometry":{"type":"Point","coordinates":[-78.4899,35.6655]},"properties":{"site":"KRAX","name":"Raleigh NC","scan_time":"2026-09-19T08:00:33Z","stale":false,"bins":25,"density_birds_km3":42.265625,"heading_deg":213.82228460256667,"speed_ms":9.939240123383556,"peak_altitude_m":200.0,"u_ms":-5.386536955748013,"v_ms":-8.12581919563412}},{"type":"Feature","geometry":{"type":"Point","coordinates":[-82.4017,27.7055]},"properties":{"site":"KTBW","name":"Tampa FL","scan_time":"2026-09-19T08:00:06Z","stale":false,"bins":25,"density_birds_km3":5.700625,"heading_deg":208.50279351453952,"speed_ms":5.550611909200571,"peak_altitude_m":0.0,"u_ms":-2.5788408816756223,"v_ms":-4.871868625945828}}]}