{"type":"FeatureCollection","frame":"2026-09-20T08","site_count":20,"fresh_count":20,"failures":{},"features":[{"type":"Feature","geometry":{"type":"Point","coordinates":[-77.0073,36.984]},"properties":{"site":"KAKQ","name":"Wakefield VA","scan_time":"2026-09-20T07:57:38Z","stale":false,"bins":25,"density_birds_km3":1.39625,"heading_deg":292.7135072355182,"speed_ms":5.993987455197134,"peak_altitude_m":0.0,"u_ms":-5.133198924731183,"v_ms":2.078328853046595}},{"type":"Feature","geometry":{"type":"Point","coordinates":[-71.1369,41.9558]},"properties":{"site":"KBOX","name":"Boston MA","scan_time":"2026-09-20T08:00:53Z","stale":false,"bins":25,"density_birds_km3":0.573125,"heading_deg":337.8450830224044,"speed_ms":3.88917943107221,"peak_altitude_m":0.0,"u_ms":-1.3462363238512034,"v_ms":3.53171772428884}},{"type":"Feature","geometry":{"type":"Point","coordinates":[-78.7369,42.9489]},"properties":{"site":"KBUF","name":"Buffalo NY","scan_time":"2026-09-20T08:01:51Z","stale":false,"bins":25,"density_birds_km3":2.509333333333333,"heading_deg":188.71582579358997,"speed_ms":2.4402470775770455,"peak_altitude_m":200.0,"u_ms":-0.5744925611052071,"v_ms":-1.867372476089267}},{"type":"Feature","geometry":{"type":"Point","coordinates":[-81.8597,41.4131]},"properties":{"site":"KCLE","name":"Cleveland OH","scan_time":"2026-09-20T07:58:45Z","stale":false,"bins":25,"density_birds_km3":3.4193333333333333,"heading_deg":117.13156781444123,"speed_ms":3.3518522129069996,"peak_altitude_m":400.0,"u_ms":3.0807564827451746,"v_ms":-1.136901930200819}},{"type":"Feature","geometry":{"type":"Point","coordinates":[-81.0423,32.6555]},"properties":{"site":"KCLX","name":"Charleston SC","scan_time":"2026-09-20T08:00:28Z","stale":false,"bins":25,"density_birds_km3":15.315625,"heading_deg":216.33479612039358,"speed_ms":9.796957338232293,"peak_altitude_m":0.0,"u_ms":-5.642997754643804,"v_ms":-7.909828536436008}},{"type":"Feature","geometry":{"type":"Point","coordinates":[-74.4108,39.947]},"properties":{"site":"KDIX","name":"Philadelphia PA","scan_time":"2026-09-20T07:58:13Z","stale":false,"bins":25,"density_birds_km3":0.269375,"heading_deg":312.6690013867951,"speed_ms":8.492992874109262,"peak_altitude_m":200.0,"u_ms":-6.095201900237529,"v_ms":5.823491686460808}},{"type":"Feature","geometry":{"type":"Point","coordinates":[-84.5658,33.3636]},"properties":{"site":"KFFC","name":"Atlanta GA","scan_time":"2026-09-20T07:59:19Z","stale":false,"bins":25,"density_birds_km3":91.68933333333334,"heading_deg":218.1920783607606,"speed_ms":8.776702633530617,"peak_altitude_m":400.0,"u_ms":-4.9092119039655655,"v_ms":-6.3464797795454215}},{"type":"Feature","geometry":{"type":"Point","coordinates":[-85.5449,42.8939]},"properties":{"site":"KGRR","name":"Grand Rapids MI","scan_time":"2026-09-20T08:01:42Z","stale":false,"bins":25,"density_birds_km3":0.5653333333333334,"heading_deg":234.5942894381561,"speed_ms":3.0690579710144927,"peak_altitude_m":200.0,"u_ms":-2.4731159420289854,"v_ms":-1.7632971014492753}},{"type":"Feature","geometry":{"type":"Point","coordinates":[-83.8217,39.4203]},"properties":{"site":"KILN","name":"Wilmington OH","scan_time":"2026-09-20T08:00:24Z","stale":false,"bins":25,"density_birds_km3":16.646363636363635,"heading_deg":null,"speed_ms":null,"peak_altitude_m":800.0,"u_ms":null,"v_ms":null}},{"type":"Feature","geometry":{"type":"Point","coordinates":[-81.7019,30.4846]},"properties":{"site":"KJAX","name":"Jacksonville FL","scan_time":"2026-09-20T08:00:47Z","stale":false,"bins":25,"density_birds_km3":101.41875,"heading_deg":187.6962283949443,"speed_ms":9.344032846490416,"peak_altitude_m":0.0,"u_ms":-1.2591694706353607,"v_ms":-9.249433536698094}},{"type":"Feature","geometry":{"type":"Point","coordinates":[-88.0847,41.6045]},"properties":{"site":"KLOT","name":"Chicago IL","scan_time":"2026-09-20T07:59:39Z","stale":false,"bins":25,"density_birds_km3":7.3933333333333335,"heading_deg":null,"speed_ms":null,"peak_altitude_m":400.0,"u_ms":null,"v_ms":null}},{"type":"Feature","geometry":{"type":"Point","coordinates":[-78.4292,33.9892]},"properties":{"site":"KLTX","name":"Wilmington NC","scan_time":"2026-09-20T08:02:29Z","stale":false,"bins":25,"density_birds_km3":17.889375,"heading_deg":234.57246257817206,"speed_ms":11.186261082880671,"peak_altitude_m":0.0,"u_ms":-9.03622884177326,"v_ms":-6.4451193271421054}},{"type":"Feature","geometry":{"type":"Point","coordinates":[-77.4778,38.9753]},"properties":{"site":"KLWX","name":"Sterling VA","scan_time":"2026-09-20T07:58:06Z","stale":false,"bins":25,"density_birds_km3":3.2875,"heading_deg":6.547206314648412,"speed_ms":10.628425673039407,"peak_altitude_m":200.0,"u_ms":1.8332071790870073,"v_ms":10.222370269215762}},{"type":"Feature","geometry":{"type":"Point","coordinates":[-76.8762,34.7759]},"properties":{"site":"KMHX","name":"Morehead City NC","scan_time":"2026-09-20T08:01:53Z","stale":false,"bins":25,"density_birds_km3":2.956875,"heading_deg":229.23048209661508,"speed_ms":7.584272727272726,"peak_altitude_m":0.0,"u_ms":-5.455463002114165,"v_ms":-4.833128964059196}},{"type":"Feature","geometry":{"type":"Point","coordinates":[-80.6542,28.1133]},"properties":{"site":"KMLB","name":"Melbourne FL","scan_time":"2026-09-20T08:01:55Z","stale":false,"bins":25,"density_birds_km3":4.148125,"heading_deg":171.43734226756848,"speed_ms":5.017812263436791,"peak_altitude_m":0.0,"u_ms":0.8582482967448902,"v_ms":-4.8322831188493565}},{"type":"Feature","geometry":{"type":"Point","coordinates":[-86.5625,36.2472]},"properties":{"site":"KOHX","name":"Nashville TN","scan_time":"2026-09-20T08:00:06Z","stale":false,"bins":25,"density_birds_km3":38.397333333333336,"heading_deg":35.529869383331565,"speed_ms":7.66881189665949,"peak_altitude_m":200.0,"u_ms":3.732906104590597,"v_ms":4.09313928050559}},{"type":"Feature","geometry":{"type":"Point","coordinates":[-72.8639,40.8655]},"properties":{"site":"KOKX","name":"Upton NY","scan_time":"2026-09-20T07:58:12Z","stale":false,"bins":25,"density_birds_km3":0.236875,"heading_deg":294.45361060800974,"speed_ms":7.364067278287461,"peak_altitude_m":0.0,"u_ms":-6.606391437308868,"v_ms":2.9688990825688077}},{"type":"Feature","geometry":{"type":"Point","coordinates":[-80.2183,40.5317]},"properties":{"site":"KPBZ","name":"Pittsburgh PA","scan_time":"2026-09-20T08:01:14Z","stale":false,"bins":25,"density_birds_km3":2.6621428571428574,"heading_deg":95.03071093902872,"speed_ms":9.639769251408637,"peak_altitude_m":400.0,"u_ms":9.55685806278508,"v_ms":-0.948320364904749}},{"type":"Feature","geometry":{"type":"Point","coordinates":[-78.4899,35.6655]},"properties":{"site":"KRAX","name":"Raleigh NC","scan_time":"2026-09-20T08:00:23Z","stale":false,"bins":25,"density_birds_km3":14.97125,"heading_deg":242.62638390836702,"speed_ms":6.997957734714333,"peak_altitude_m":0.0,"u_ms":-5.565344136318076,"v_ms":-3.2107003842298694}},{"type":"Feature","geometry":{"type":"Point","coordinates":[-82.4017,27.7055]},"properties":{"site":"KTBW","name":"Tampa FL","scan_time":"2026-09-20T08:01:53Z","stale":false,"bins":25,"density_birds_km3":10.67,"heading_deg":206.5752288457167,"speed_ms":5.4539436372158425,"peak_altitude_m":0.0,"u_ms":-2.3963510663229437,"v_ms":-4.8457470119521915}}]}