{"type":"FeatureCollection","frame":"2026-09-15T12","site_count":20,"fresh_count":17,"failures":{"KDIX":"RuntimeError('no scan within 20 min of 2026-09-15T12:00Z')","KBUF":"RuntimeError('no scan within 20 min of 2026-09-15T12:00Z')","KILN":"RuntimeError(\"vol2bird failed rc=255 on KILN20260915_120104_V06: Warning: no user configuration file 'options.conf' found. Using default settings ...\\nCan't read file identifier string\\nWarning: load_wsr88d_m31_into_radar: Unexpected end of file.\\nCurrent sweep index: 0\\nLast ray read: 360\\nError: RSL radar object contains no radial velocity volume...\\nError: failed to read radar volume\\n\")"},"features":[{"type":"Feature","geometry":{"type":"Point","coordinates":[-77.0073,36.984]},"properties":{"site":"KAKQ","name":"Wakefield VA","scan_time":"2026-09-15T12:00:53Z","stale":false,"bins":25,"density_birds_km3":6.604375,"heading_deg":232.20524452907466,"speed_ms":8.483645833333334,"peak_altitude_m":200.0,"u_ms":-6.23023768939394,"v_ms":-5.179035037878789}},{"type":"Feature","geometry":{"type":"Point","coordinates":[-71.1369,41.9558]},"properties":{"site":"KBOX","name":"Boston MA","scan_time":"2026-09-15T12:02:09Z","stale":false,"bins":25,"density_birds_km3":1.963125,"heading_deg":209.64378627401945,"speed_ms":6.396802547770701,"peak_altitude_m":0.0,"u_ms":-3.3026305732484076,"v_ms":-5.365920382165606}},{"type":"Feature","geometry":{"type":"Point","coordinates":[-81.8597,41.4131]},"properties":{"site":"KCLE","name":"Cleveland OH","scan_time":"2026-09-15T12:02:16Z","stale":false,"bins":25,"density_birds_km3":3.7520000000000002,"heading_deg":317.62292452732305,"speed_ms":3.464681535985284,"peak_altitude_m":200.0,"u_ms":-2.222867325822028,"v_ms":2.5959507932858124}},{"type":"Feature","geometry":{"type":"Point","coordinates":[-81.0423,32.6555]},"properties":{"site":"KCLX","name":"Charleston SC","scan_time":"2026-09-15T11:59:12Z","stale":false,"bins":25,"density_birds_km3":9.83,"heading_deg":250.11134482944902,"speed_ms":8.808195165737,"peak_altitude_m":0.0,"u_ms":-8.265261909341541,"v_ms":-2.693308328524716}},{"type":"Feature","geometry":{"type":"Point","coordinates":[-84.5658,33.3636]},"properties":{"site":"KFFC","name":"Atlanta GA","scan_time":"2026-09-15T12:02:06Z","stale":false,"bins":25,"density_birds_km3":23.13266666666667,"heading_deg":245.1452491346613,"speed_ms":9.621096285195538,"peak_altitude_m":200.0,"u_ms":-8.636089512666071,"v_ms":-4.074632121963169}},{"type":"Feature","geometry":{"type":"Point","coordinates":[-85.5449,42.8939]},"properties":{"site":"KGRR","name":"Grand Rapids MI","scan_time":"2026-09-15T11:58:28Z","stale":false,"bins":25,"density_birds_km3":1.1813333333333333,"heading_deg":null,"speed_ms":null,"peak_altitude_m":200.0,"u_ms":null,"v_ms":null}},{"type":"Feature","geometry":{"type":"Point","coordinates":[-81.7019,30.4846]},"properties":{"site":"KJAX","name":"Jacksonville FL","scan_time":"2026-09-15T12:00:12Z","stale":false,"bins":25,"density_birds_km3":13.95875,"heading_deg":206.33297851942453,"speed_ms":7.2883185882352945,"peak_altitude_m":0.0,"u_ms":-3.2226875294117647,"v_ms":-6.329938352941177}},{"type":"Feature","geometry":{"type":"Point","coordinates":[-88.0847,41.6045]},"properties":{"site":"KLOT","name":"Chicago IL","scan_time":"2026-09-15T11:59:55Z","stale":false,"bins":25,"density_birds_km3":0.6893333333333334,"heading_deg":52.83557732459314,"speed_ms":4.654690522243714,"peak_altitude_m":200.0,"u_ms":3.696034816247582,"v_ms":2.8072243713733074}},{"type":"Feature","geometry":{"type":"Point","coordinates":[-78.4292,33.9892]},"properties":{"site":"KLTX","name":"Wilmington NC","scan_time":"2026-09-15T11:58:17Z","stale":false,"bins":25,"density_birds_km3":34.95125,"heading_deg":230.14493128194212,"speed_ms":10.938586492696537,"peak_altitude_m":200.0,"u_ms":-7.991327548005908,"v_ms":-6.004715452158214}},{"type":"Feature","geometry":{"type":"Point","coordinates":[-77.4778,38.9753]},"properties":{"site":"KLWX","name":"Sterling VA","scan_time":"2026-09-15T11:59:13Z","stale":false,"bins":25,"density_birds_km3":3.865,"heading_deg":245.58397836664096,"speed_ms":7.849412621359223,"peak_altitude_m":200.0,"u_ms":-7.120139158576052,"v_ms":-3.1638398058252424}},{"type":"Feature","geometry":{"type":"Point","coordinates":[-76.8762,34.7759]},"properties":{"site":"KMHX","name":"Morehead City NC","scan_time":"2026-09-15T11:59:49Z","stale":false,"bins":25,"density_birds_km3":11.388125,"heading_deg":181.84668596606318,"speed_ms":13.271927446353109,"peak_altitude_m":1600.0,"u_ms":1.31973821414851,"v_ms":-11.346276823445475}},{"type":"Feature","geometry":{"type":"Point","coordinates":[-80.6542,28.1133]},"properties":{"site":"KMLB","name":"Melbourne FL","scan_time":"2026-09-15T12:00:09Z","stale":false,"bins":25,"density_birds_km3":0.469375,"heading_deg":231.7303123358423,"speed_ms":1.9028475935828875,"peak_altitude_m":0.0,"u_ms":-1.3923663101604278,"v_ms":-1.24725935828877}},{"type":"Feature","geometry":{"type":"Point","coordinates":[-86.5625,36.2472]},"properties":{"site":"KOHX","name":"Nashville TN","scan_time":"2026-09-15T11:56:39Z","stale":false,"bins":25,"density_birds_km3":7.157333333333333,"heading_deg":324.4394411192128,"speed_ms":6.355209019255713,"peak_altitude_m":200.0,"u_ms":-2.3561249127007886,"v_ms":4.3468093385214015}},{"type":"Feature","geometry":{"type":"Point","coordinates":[-72.8639,40.8655]},"properties":{"site":"KOKX","name":"Upton NY","scan_time":"2026-09-15T12:01:11Z","stale":false,"bins":25,"density_birds_km3":2.794375,"heading_deg":248.25041448602428,"speed_ms":8.647676135092821,"peak_altitude_m":0.0,"u_ms":-8.016369939610826,"v_ms":-3.20093491388951}},{"type":"Feature","geometry":{"type":"Point","coordinates":[-80.2183,40.5317]},"properties":{"site":"KPBZ","name":"Pittsburgh PA","scan_time":"2026-09-15T12:02:17Z","stale":false,"bins":25,"density_birds_km3":0.5578571428571428,"heading_deg":313.2232347652652,"speed_ms":7.4328425096030735,"peak_altitude_m":400.0,"u_ms":-5.351254801536492,"v_ms":5.026837387964148}},{"type":"Feature","geometry":{"type":"Point","coordinates":[-78.4899,35.6655]},"properties":{"site":"KRAX","name":"Raleigh NC","scan_time":"2026-09-15T11:58:39Z","stale":false,"bins":25,"density_birds_km3":8.77625,"heading_deg":236.15614925777376,"speed_ms":10.978768092974114,"peak_altitude_m":200.0,"u_ms":-8.922506075013205,"v_ms":-5.741230850501849}},{"type":"Feature","geometry":{"type":"Point","coordinates":[-82.4017,27.7055]},"properties":{"site":"KTBW","name":"Tampa FL","scan_time":"2026-09-15T11:59:36Z","stale":false,"bins":25,"density_birds_km3":1.7393750000000001,"heading_deg":281.97702650759976,"speed_ms":4.498281193815175,"peak_altitude_m":0.0,"u_ms":-4.317691477885653,"v_ms":0.9451743976986694}}]}