{"type":"FeatureCollection","frame":"2026-09-20T03","site_count":20,"fresh_count":20,"failures":{},"features":[{"type":"Feature","geometry":{"type":"Point","coordinates":[-77.0073,36.984]},"properties":{"site":"KAKQ","name":"Wakefield VA","scan_time":"2026-09-20T03:02:21Z","stale":false,"bins":25,"density_birds_km3":21.0825,"heading_deg":247.2173771421422,"speed_ms":6.271509926699705,"peak_altitude_m":0.0,"u_ms":-4.9914093242721895,"v_ms":-2.275935543223432}},{"type":"Feature","geometry":{"type":"Point","coordinates":[-71.1369,41.9558]},"properties":{"site":"KBOX","name":"Boston MA","scan_time":"2026-09-20T03:02:02Z","stale":false,"bins":25,"density_birds_km3":4.386875,"heading_deg":287.4518034908973,"speed_ms":5.156952025280091,"peak_altitude_m":200.0,"u_ms":-4.611628842286699,"v_ms":1.7692415972421716}},{"type":"Feature","geometry":{"type":"Point","coordinates":[-78.7369,42.9489]},"properties":{"site":"KBUF","name":"Buffalo NY","scan_time":"2026-09-20T02:57:24Z","stale":false,"bins":25,"density_birds_km3":3.731333333333333,"heading_deg":315.1841143955091,"speed_ms":6.283190995175987,"peak_altitude_m":200.0,"u_ms":-4.349535465427908,"v_ms":3.181423977130606}},{"type":"Feature","geometry":{"type":"Point","coordinates":[-81.8597,41.4131]},"properties":{"site":"KCLE","name":"Cleveland OH","scan_time":"2026-09-20T03:02:34Z","stale":false,"bins":25,"density_birds_km3":21.09333333333333,"heading_deg":277.50523497854897,"speed_ms":6.990435552184082,"peak_altitude_m":400.0,"u_ms":-5.49080567671787,"v_ms":0.044540742145521145}},{"type":"Feature","geometry":{"type":"Point","coordinates":[-81.0423,32.6555]},"properties":{"site":"KCLX","name":"Charleston SC","scan_time":"2026-09-20T02:59:17Z","stale":false,"bins":25,"density_birds_km3":43.355624999999996,"heading_deg":215.9408203423395,"speed_ms":9.112578673470859,"peak_altitude_m":0.0,"u_ms":-5.006678919978665,"v_ms":-7.101323790165637}},{"type":"Feature","geometry":{"type":"Point","coordinates":[-74.4108,39.947]},"properties":{"site":"KDIX","name":"Philadelphia PA","scan_time":"2026-09-20T02:57:39Z","stale":false,"bins":25,"density_birds_km3":2.82125,"heading_deg":305.365247689343,"speed_ms":6.889128205128205,"peak_altitude_m":200.0,"u_ms":-5.23409364548495,"v_ms":3.5208517279821625}},{"type":"Feature","geometry":{"type":"Point","coordinates":[-84.5658,33.3636]},"properties":{"site":"KFFC","name":"Atlanta GA","scan_time":"2026-09-20T03:02:26Z","stale":false,"bins":25,"density_birds_km3":186.47066666666666,"heading_deg":248.3,"speed_ms":7.3,"peak_altitude_m":1000.0,"u_ms":-6.79,"v_ms":-2.7}},{"type":"Feature","geometry":{"type":"Point","coordinates":[-85.5449,42.8939]},"properties":{"site":"KGRR","name":"Grand Rapids MI","scan_time":"2026-09-20T02:59:17Z","stale":false,"bins":25,"density_birds_km3":1.7146666666666666,"heading_deg":305.94596346358924,"speed_ms":3.4795838195254762,"peak_altitude_m":400.0,"u_ms":-2.1765227537922986,"v_ms":1.756499416569428}},{"type":"Feature","geometry":{"type":"Point","coordinates":[-83.8217,39.4203]},"properties":{"site":"KILN","name":"Wilmington OH","scan_time":"2026-09-20T02:57:32Z","stale":false,"bins":25,"density_birds_km3":20.632,"heading_deg":111.63063572993691,"speed_ms":5.8243985613863,"peak_altitude_m":600.0,"u_ms":4.6201974824260255,"v_ms":-1.9740009808729768}},{"type":"Feature","geometry":{"type":"Point","coordinates":[-81.7019,30.4846]},"properties":{"site":"KJAX","name":"Jacksonville FL","scan_time":"2026-09-20T03:00:47Z","stale":false,"bins":25,"density_birds_km3":22.413125,"heading_deg":191.59809997579669,"speed_ms":10.699658682133792,"peak_altitude_m":1400.0,"u_ms":-1.605219876746326,"v_ms":-10.380643874961656}},{"type":"Feature","geometry":{"type":"Point","coordinates":[-88.0847,41.6045]},"properties":{"site":"KLOT","name":"Chicago IL","scan_time":"2026-09-20T02:59:00Z","stale":false,"bins":25,"density_birds_km3":9.61125,"heading_deg":50.4263093335626,"speed_ms":1.894268828098615,"peak_altitude_m":200.0,"u_ms":0.3147348868625464,"v_ms":1.7043431273218506}},{"type":"Feature","geometry":{"type":"Point","coordinates":[-78.4292,33.9892]},"properties":{"site":"KLTX","name":"Wilmington NC","scan_time":"2026-09-20T02:59:12Z","stale":false,"bins":25,"density_birds_km3":40.851875,"heading_deg":221.75412010812073,"speed_ms":11.77335164246699,"peak_altitude_m":0.0,"u_ms":-7.706777949479031,"v_ms":-8.619650086445631}},{"type":"Feature","geometry":{"type":"Point","coordinates":[-77.4778,38.9753]},"properties":{"site":"KLWX","name":"Sterling VA","scan_time":"2026-09-20T02:58:17Z","stale":false,"bins":25,"density_birds_km3":23.155625,"heading_deg":314.9492899259286,"speed_ms":7.9118248668523075,"peak_altitude_m":200.0,"u_ms":-4.533682716483279,"v_ms":5.627998323826002}},{"type":"Feature","geometry":{"type":"Point","coordinates":[-76.8762,34.7759]},"properties":{"site":"KMHX","name":"Morehead City NC","scan_time":"2026-09-20T02:58:33Z","stale":false,"bins":25,"density_birds_km3":23.584374999999998,"heading_deg":204.25553453727517,"speed_ms":12.457684988868865,"peak_altitude_m":0.0,"u_ms":-4.837680748436341,"v_ms":-11.15958284745044}},{"type":"Feature","geometry":{"type":"Point","coordinates":[-80.6542,28.1133]},"properties":{"site":"KMLB","name":"Melbourne FL","scan_time":"2026-09-20T03:01:51Z","stale":false,"bins":25,"density_birds_km3":8.7675,"heading_deg":180.46207050523958,"speed_ms":7.37982249786142,"peak_altitude_m":200.0,"u_ms":-0.043845166809238674,"v_ms":-7.3703521528371825}},{"type":"Feature","geometry":{"type":"Point","coordinates":[-86.5625,36.2472]},"properties":{"site":"KOHX","name":"Nashville TN","scan_time":"2026-09-20T02:58:57Z","stale":false,"bins":25,"density_birds_km3":73.51333333333334,"heading_deg":39.36787118795657,"speed_ms":5.449826788791149,"peak_altitude_m":400.0,"u_ms":0.556500589462229,"v_ms":2.7823499591910763}},{"type":"Feature","geometry":{"type":"Point","coordinates":[-72.8639,40.8655]},"properties":{"site":"KOKX","name":"Upton NY","scan_time":"2026-09-20T02:58:38Z","stale":false,"bins":25,"density_birds_km3":2.5637499999999998,"heading_deg":264.6608367382762,"speed_ms":7.742786324786326,"peak_altitude_m":200.0,"u_ms":-7.558136752136753,"v_ms":-0.4716214896214896}},{"type":"Feature","geometry":{"type":"Point","coordinates":[-80.2183,40.5317]},"properties":{"site":"KPBZ","name":"Pittsburgh PA","scan_time":"2026-09-20T03:01:11Z","stale":false,"bins":25,"density_birds_km3":23.059285714285714,"heading_deg":308.0392518029124,"speed_ms":8.07703868909333,"peak_altitude_m":400.0,"u_ms":-2.666162686243533,"v_ms":2.6752832760276313}},{"type":"Feature","geometry":{"type":"Point","coordinates":[-78.4899,35.6655]},"properties":{"site":"KRAX","name":"Raleigh NC","scan_time":"2026-09-20T03:00:40Z","stale":false,"bins":25,"density_birds_km3":48.696875,"heading_deg":247.28319976463607,"speed_ms":7.4636994160302885,"peak_altitude_m":0.0,"u_ms":-5.9146326124623,"v_ms":-2.537838028620933}},{"type":"Feature","geometry":{"type":"Point","coordinates":[-82.4017,27.7055]},"properties":{"site":"KTBW","name":"Tampa FL","scan_time":"2026-09-20T03:02:23Z","stale":false,"bins":25,"density_birds_km3":15.270624999999999,"heading_deg":226.9847567728397,"speed_ms":6.4983427440959485,"peak_altitude_m":0.0,"u_ms":-4.153211886411408,"v_ms":-4.582410666446853}}]}