{"type":"FeatureCollection","frame":"2026-09-27T02","site_count":20,"fresh_count":20,"failures":{},"features":[{"type":"Feature","geometry":{"type":"Point","coordinates":[-77.0073,36.984]},"properties":{"site":"KAKQ","name":"Wakefield VA","scan_time":"2026-09-27T01:59:19Z","stale":false,"bins":25,"density_birds_km3":2.198125,"heading_deg":169.1,"speed_ms":15.340000000000002,"peak_altitude_m":200.0,"u_ms":2.9,"v_ms":-15.070000000000002}},{"type":"Feature","geometry":{"type":"Point","coordinates":[-71.1369,41.9558]},"properties":{"site":"KBOX","name":"Boston MA","scan_time":"2026-09-27T01:56:34Z","stale":false,"bins":25,"density_birds_km3":0.02909090909090909,"heading_deg":null,"speed_ms":null,"peak_altitude_m":200.0,"u_ms":null,"v_ms":null}},{"type":"Feature","geometry":{"type":"Point","coordinates":[-78.7369,42.9489]},"properties":{"site":"KBUF","name":"Buffalo NY","scan_time":"2026-09-27T01:58:30Z","stale":false,"bins":25,"density_birds_km3":23.997333333333334,"heading_deg":196.7383491725032,"speed_ms":17.022669741082343,"peak_altitude_m":200.0,"u_ms":-5.273190076675187,"v_ms":-15.946565173908214}},{"type":"Feature","geometry":{"type":"Point","coordinates":[-81.8597,41.4131]},"properties":{"site":"KCLE","name":"Cleveland OH","scan_time":"2026-09-27T02:01:15Z","stale":false,"bins":25,"density_birds_km3":22.451999999999998,"heading_deg":184.90410443395638,"speed_ms":11.303483089348815,"peak_altitude_m":400.0,"u_ms":-1.046007661014936,"v_ms":-11.043904148231732}},{"type":"Feature","geometry":{"type":"Point","coordinates":[-81.0423,32.6555]},"properties":{"site":"KCLX","name":"Charleston SC","scan_time":"2026-09-27T02:00:27Z","stale":false,"bins":25,"density_birds_km3":33.925,"heading_deg":169.39170251767737,"speed_ms":10.74124350134582,"peak_altitude_m":200.0,"u_ms":2.05090262158475,"v_ms":-10.490776335680838}},{"type":"Feature","geometry":{"type":"Point","coordinates":[-74.4108,39.947]},"properties":{"site":"KDIX","name":"Philadelphia PA","scan_time":"2026-09-27T01:59:49Z","stale":false,"bins":25,"density_birds_km3":null,"heading_deg":null,"speed_ms":null,"peak_altitude_m":null,"u_ms":null,"v_ms":null}},{"type":"Feature","geometry":{"type":"Point","coordinates":[-84.5658,33.3636]},"properties":{"site":"KFFC","name":"Atlanta GA","scan_time":"2026-09-27T01:57:26Z","stale":false,"bins":25,"density_birds_km3":242.73999999999998,"heading_deg":169.20124123723917,"speed_ms":13.879139820383951,"peak_altitude_m":800.0,"u_ms":2.6422142484414053,"v_ms":-13.586819230452337}},{"type":"Feature","geometry":{"type":"Point","coordinates":[-85.5449,42.8939]},"properties":{"site":"KGRR","name":"Grand Rapids MI","scan_time":"2026-09-27T01:59:12Z","stale":false,"bins":25,"density_birds_km3":83.07600000000001,"heading_deg":195.94232209254432,"speed_ms":8.519454475420098,"peak_altitude_m":200.0,"u_ms":-2.3260497215401155,"v_ms":-8.14913845956313}},{"type":"Feature","geometry":{"type":"Point","coordinates":[-83.8217,39.4203]},"properties":{"site":"KILN","name":"Wilmington OH","scan_time":"2026-09-27T02:02:01Z","stale":false,"bins":25,"density_birds_km3":78.78533333333333,"heading_deg":183.25156239514993,"speed_ms":13.279046327989969,"peak_altitude_m":200.0,"u_ms":-0.8865357372826788,"v_ms":-13.03893643881113}},{"type":"Feature","geometry":{"type":"Point","coordinates":[-81.7019,30.4846]},"properties":{"site":"KJAX","name":"Jacksonville FL","scan_time":"2026-09-27T02:02:26Z","stale":false,"bins":25,"density_birds_km3":140.891875,"heading_deg":179.03116741998994,"speed_ms":11.071871115704862,"peak_altitude_m":600.0,"u_ms":0.574636090619136,"v_ms":-10.819886792620228}},{"type":"Feature","geometry":{"type":"Point","coordinates":[-88.0847,41.6045]},"properties":{"site":"KLOT","name":"Chicago IL","scan_time":"2026-09-27T01:56:39Z","stale":false,"bins":25,"density_birds_km3":26.065333333333335,"heading_deg":176.74389131941552,"speed_ms":6.133329582075809,"peak_altitude_m":400.0,"u_ms":0.2045332242058417,"v_ms":-5.234610466008491}},{"type":"Feature","geometry":{"type":"Point","coordinates":[-78.4292,33.9892]},"properties":{"site":"KLTX","name":"Wilmington NC","scan_time":"2026-09-27T02:02:01Z","stale":false,"bins":25,"density_birds_km3":36.19375,"heading_deg":157.17473516813277,"speed_ms":9.604023236916268,"peak_altitude_m":0.0,"u_ms":2.655378032123654,"v_ms":-8.185998201905289}},{"type":"Feature","geometry":{"type":"Point","coordinates":[-77.4778,38.9753]},"properties":{"site":"KLWX","name":"Sterling VA","scan_time":"2026-09-27T01:58:43Z","stale":false,"bins":25,"density_birds_km3":5.798666666666667,"heading_deg":167.44118614898153,"speed_ms":14.552408376963351,"peak_altitude_m":600.0,"u_ms":2.874915648632926,"v_ms":-14.238916036455302}},{"type":"Feature","geometry":{"type":"Point","coordinates":[-76.8762,34.7759]},"properties":{"site":"KMHX","name":"Morehead City NC","scan_time":"2026-09-27T02:03:19Z","stale":false,"bins":25,"density_birds_km3":35.885625,"heading_deg":202.19279034004137,"speed_ms":8.21085357995019,"peak_altitude_m":200.0,"u_ms":-0.7139415155790098,"v_ms":-7.01741592211366}},{"type":"Feature","geometry":{"type":"Point","coordinates":[-80.6542,28.1133]},"properties":{"site":"KMLB","name":"Melbourne FL","scan_time":"2026-09-27T02:00:20Z","stale":false,"bins":25,"density_birds_km3":72.23375,"heading_deg":164.48809221905157,"speed_ms":13.319106736468653,"peak_altitude_m":0.0,"u_ms":3.627694976852853,"v_ms":-12.697628607277288}},{"type":"Feature","geometry":{"type":"Point","coordinates":[-86.5625,36.2472]},"properties":{"site":"KOHX","name":"Nashville TN","scan_time":"2026-09-27T01:58:05Z","stale":false,"bins":25,"density_birds_km3":47.42666666666666,"heading_deg":192.11021589182502,"speed_ms":10.384078577452911,"peak_altitude_m":200.0,"u_ms":-2.2444484115827947,"v_ms":-10.014544981726175}},{"type":"Feature","geometry":{"type":"Point","coordinates":[-72.8639,40.8655]},"properties":{"site":"KOKX","name":"Upton NY","scan_time":"2026-09-27T01:59:11Z","stale":false,"bins":25,"density_birds_km3":null,"heading_deg":null,"speed_ms":null,"peak_altitude_m":null,"u_ms":null,"v_ms":null}},{"type":"Feature","geometry":{"type":"Point","coordinates":[-80.2183,40.5317]},"properties":{"site":"KPBZ","name":"Pittsburgh PA","scan_time":"2026-09-27T01:58:23Z","stale":false,"bins":25,"density_birds_km3":51.07714285714286,"heading_deg":198.90156837710066,"speed_ms":18.903776920064885,"peak_altitude_m":600.0,"u_ms":-6.72408220059294,"v_ms":-17.034154360351287}},{"type":"Feature","geometry":{"type":"Point","coordinates":[-78.4899,35.6655]},"properties":{"site":"KRAX","name":"Raleigh NC","scan_time":"2026-09-27T01:55:55Z","stale":false,"bins":25,"density_birds_km3":96.006875,"heading_deg":198.93051776271602,"speed_ms":7.654518514660695,"peak_altitude_m":400.0,"u_ms":-1.8868738607364202,"v_ms":-7.056576350190094}},{"type":"Feature","geometry":{"type":"Point","coordinates":[-82.4017,27.7055]},"properties":{"site":"KTBW","name":"Tampa FL","scan_time":"2026-09-27T01:57:36Z","stale":false,"bins":25,"density_birds_km3":41.383125,"heading_deg":183.03947505273473,"speed_ms":12.382261791491096,"peak_altitude_m":400.0,"u_ms":-0.5344524489148657,"v_ms":-12.278835123012097}}]}