{"type":"FeatureCollection","frame":"2026-10-06T08","site_count":20,"fresh_count":19,"failures":{"KILN":"RuntimeError('no scan within 20 min of 2026-10-06T08:00Z')"},"features":[{"type":"Feature","geometry":{"type":"Point","coordinates":[-77.0073,36.984]},"properties":{"site":"KAKQ","name":"Wakefield VA","scan_time":"2026-10-06T07:59:48Z","stale":false,"bins":25,"density_birds_km3":33.914375,"heading_deg":212.1050229882195,"speed_ms":16.834482326489994,"peak_altitude_m":200.0,"u_ms":-9.038393535070583,"v_ms":-14.103402012458073}},{"type":"Feature","geometry":{"type":"Point","coordinates":[-71.1369,41.9558]},"properties":{"site":"KBOX","name":"Boston MA","scan_time":"2026-10-06T07:56:11Z","stale":false,"bins":25,"density_birds_km3":1.97875,"heading_deg":118.90861232358434,"speed_ms":7.6165855969677825,"peak_altitude_m":0.0,"u_ms":6.517703727100441,"v_ms":-3.844933670246368}},{"type":"Feature","geometry":{"type":"Point","coordinates":[-78.7369,42.9489]},"properties":{"site":"KBUF","name":"Buffalo NY","scan_time":"2026-10-06T07:58:15Z","stale":false,"bins":25,"density_birds_km3":9.025333333333332,"heading_deg":182.6701092464009,"speed_ms":11.159625498596544,"peak_altitude_m":400.0,"u_ms":-0.5920172846801595,"v_ms":-11.112719013148176}},{"type":"Feature","geometry":{"type":"Point","coordinates":[-81.8597,41.4131]},"properties":{"site":"KCLE","name":"Cleveland OH","scan_time":"2026-10-06T07:59:58Z","stale":false,"bins":25,"density_birds_km3":10.162,"heading_deg":233.29452508721766,"speed_ms":7.82638785016073,"peak_altitude_m":400.0,"u_ms":-5.707160663911303,"v_ms":-4.708838155218789}},{"type":"Feature","geometry":{"type":"Point","coordinates":[-81.0423,32.6555]},"properties":{"site":"KCLX","name":"Charleston SC","scan_time":"2026-10-06T08:02:29Z","stale":false,"bins":25,"density_birds_km3":158.524375,"heading_deg":218.25657308492754,"speed_ms":11.224549418661956,"peak_altitude_m":0.0,"u_ms":-7.253352363004112,"v_ms":-8.365288697716045}},{"type":"Feature","geometry":{"type":"Point","coordinates":[-74.4108,39.947]},"properties":{"site":"KDIX","name":"Philadelphia PA","scan_time":"2026-10-06T07:56:43Z","stale":false,"bins":25,"density_birds_km3":4.547499999999999,"heading_deg":188.01928569641575,"speed_ms":12.709359538207808,"peak_altitude_m":0.0,"u_ms":-1.5685170423309511,"v_ms":-12.546801814183619}},{"type":"Feature","geometry":{"type":"Point","coordinates":[-84.5658,33.3636]},"properties":{"site":"KFFC","name":"Atlanta GA","scan_time":"2026-10-06T07:59:46Z","stale":false,"bins":25,"density_birds_km3":278.956,"heading_deg":211.01395054779795,"speed_ms":10.094739600510474,"peak_altitude_m":200.0,"u_ms":-5.335737344479655,"v_ms":-8.280803926067195}},{"type":"Feature","geometry":{"type":"Point","coordinates":[-85.5449,42.8939]},"properties":{"site":"KGRR","name":"Grand Rapids MI","scan_time":"2026-10-06T07:58:37Z","stale":false,"bins":25,"density_birds_km3":30.900666666666666,"heading_deg":254.5787129862345,"speed_ms":10.201258495328918,"peak_altitude_m":200.0,"u_ms":-9.606397764784571,"v_ms":-2.4573166627111696}},{"type":"Feature","geometry":{"type":"Point","coordinates":[-81.7019,30.4846]},"properties":{"site":"KJAX","name":"Jacksonville FL","scan_time":"2026-10-06T08:01:49Z","stale":false,"bins":25,"density_birds_km3":145.59125,"heading_deg":201.85056333049144,"speed_ms":10.50768681011897,"peak_altitude_m":0.0,"u_ms":-3.9639884465060344,"v_ms":-9.71345857492591}},{"type":"Feature","geometry":{"type":"Point","coordinates":[-88.0847,41.6045]},"properties":{"site":"KLOT","name":"Chicago IL","scan_time":"2026-10-06T08:03:05Z","stale":false,"bins":25,"density_birds_km3":2.598,"heading_deg":321.02401097501104,"speed_ms":11.328886316872428,"peak_altitude_m":200.0,"u_ms":-6.835987654320988,"v_ms":8.414673353909466}},{"type":"Feature","geometry":{"type":"Point","coordinates":[-78.4292,33.9892]},"properties":{"site":"KLTX","name":"Wilmington NC","scan_time":"2026-10-06T08:01:08Z","stale":false,"bins":25,"density_birds_km3":139.524375,"heading_deg":226.05523745265074,"speed_ms":15.435797194934576,"peak_altitude_m":0.0,"u_ms":-11.11015857444264,"v_ms":-10.60859554110169}},{"type":"Feature","geometry":{"type":"Point","coordinates":[-77.4778,38.9753]},"properties":{"site":"KLWX","name":"Sterling VA","scan_time":"2026-10-06T07:58:23Z","stale":false,"bins":25,"density_birds_km3":31.205625,"heading_deg":204.16036835418967,"speed_ms":12.605783011876865,"peak_altitude_m":200.0,"u_ms":-4.748128141961585,"v_ms":-11.591310661138817}},{"type":"Feature","geometry":{"type":"Point","coordinates":[-76.8762,34.7759]},"properties":{"site":"KMHX","name":"Morehead City NC","scan_time":"2026-10-06T07:58:52Z","stale":false,"bins":25,"density_birds_km3":110.85562499999999,"heading_deg":205.6868594658426,"speed_ms":14.104011794753252,"peak_altitude_m":0.0,"u_ms":-6.058168881471751,"v_ms":-12.694110347471629}},{"type":"Feature","geometry":{"type":"Point","coordinates":[-80.6542,28.1133]},"properties":{"site":"KMLB","name":"Melbourne FL","scan_time":"2026-10-06T07:58:51Z","stale":false,"bins":25,"density_birds_km3":18.45625,"heading_deg":171.69080551622758,"speed_ms":6.304385186189138,"peak_altitude_m":0.0,"u_ms":0.9058032053671263,"v_ms":-6.2242601565411855}},{"type":"Feature","geometry":{"type":"Point","coordinates":[-86.5625,36.2472]},"properties":{"site":"KOHX","name":"Nashville TN","scan_time":"2026-10-06T08:00:42Z","stale":false,"bins":25,"density_birds_km3":37.396,"heading_deg":224.00105836881326,"speed_ms":9.608500730915962,"peak_altitude_m":200.0,"u_ms":-6.603641387670695,"v_ms":-6.3592697971262515}},{"type":"Feature","geometry":{"type":"Point","coordinates":[-72.8639,40.8655]},"properties":{"site":"KOKX","name":"Upton NY","scan_time":"2026-10-06T08:00:04Z","stale":false,"bins":25,"density_birds_km3":1.51125,"heading_deg":136.96498992038065,"speed_ms":6.878209263854425,"peak_altitude_m":0.0,"u_ms":4.583763440860214,"v_ms":-5.106017369727048}},{"type":"Feature","geometry":{"type":"Point","coordinates":[-80.2183,40.5317]},"properties":{"site":"KPBZ","name":"Pittsburgh PA","scan_time":"2026-10-06T08:00:51Z","stale":false,"bins":25,"density_birds_km3":18.502857142857142,"heading_deg":212.85335547462427,"speed_ms":9.878184064237184,"peak_altitude_m":600.0,"u_ms":-5.2359531346510195,"v_ms":-8.06237183446572}},{"type":"Feature","geometry":{"type":"Point","coordinates":[-78.4899,35.6655]},"properties":{"site":"KRAX","name":"Raleigh NC","scan_time":"2026-10-06T07:58:15Z","stale":false,"bins":25,"density_birds_km3":149.524375,"heading_deg":208.4574373153418,"speed_ms":12.430056263140955,"peak_altitude_m":200.0,"u_ms":-5.923312252072248,"v_ms":-10.91863517992919}},{"type":"Feature","geometry":{"type":"Point","coordinates":[-82.4017,27.7055]},"properties":{"site":"KTBW","name":"Tampa FL","scan_time":"2026-10-06T08:00:51Z","stale":false,"bins":25,"density_birds_km3":10.0925,"heading_deg":255.46941501310397,"speed_ms":3.70552892098873,"peak_altitude_m":0.0,"u_ms":-3.3569952057779706,"v_ms":-0.9140707303405766}}]}