{"type":"FeatureCollection","frame":"2026-10-02T04","site_count":20,"fresh_count":20,"failures":{},"features":[{"type":"Feature","geometry":{"type":"Point","coordinates":[-77.0073,36.984]},"properties":{"site":"KAKQ","name":"Wakefield VA","scan_time":"2026-10-02T04:02:47Z","stale":false,"bins":25,"density_birds_km3":2.6062499999999997,"heading_deg":56.54357784827727,"speed_ms":9.862966426858513,"peak_altitude_m":0.0,"u_ms":6.893829736211031,"v_ms":4.6340311750599525}},{"type":"Feature","geometry":{"type":"Point","coordinates":[-71.1369,41.9558]},"properties":{"site":"KBOX","name":"Boston MA","scan_time":"2026-10-02T03:59:11Z","stale":false,"bins":25,"density_birds_km3":2.124375,"heading_deg":59.72453600914019,"speed_ms":12.119623418652544,"peak_altitude_m":0.0,"u_ms":10.648937922918504,"v_ms":5.629429243895263}},{"type":"Feature","geometry":{"type":"Point","coordinates":[-78.7369,42.9489]},"properties":{"site":"KBUF","name":"Buffalo NY","scan_time":"2026-10-02T04:00:03Z","stale":false,"bins":25,"density_birds_km3":1.8820000000000001,"heading_deg":76.76132410356676,"speed_ms":11.708416370106763,"peak_altitude_m":200.0,"u_ms":11.146750889679716,"v_ms":3.064177935943061}},{"type":"Feature","geometry":{"type":"Point","coordinates":[-81.8597,41.4131]},"properties":{"site":"KCLE","name":"Cleveland OH","scan_time":"2026-10-02T04:00:21Z","stale":false,"bins":25,"density_birds_km3":12.788666666666666,"heading_deg":64.94227009959629,"speed_ms":11.538576269419247,"peak_altitude_m":200.0,"u_ms":10.17287665519758,"v_ms":5.221289750808049}},{"type":"Feature","geometry":{"type":"Point","coordinates":[-81.0423,32.6555]},"properties":{"site":"KCLX","name":"Charleston SC","scan_time":"2026-10-02T04:01:38Z","stale":false,"bins":25,"density_birds_km3":15.193125,"heading_deg":256.79690702254027,"speed_ms":6.103951775500968,"peak_altitude_m":0.0,"u_ms":-5.852042546187714,"v_ms":-1.3041891947496196}},{"type":"Feature","geometry":{"type":"Point","coordinates":[-74.4108,39.947]},"properties":{"site":"KDIX","name":"Philadelphia PA","scan_time":"2026-10-02T03:57:38Z","stale":false,"bins":25,"density_birds_km3":4.11625,"heading_deg":41.187841929986185,"speed_ms":10.931479119210326,"peak_altitude_m":0.0,"u_ms":7.289673500379652,"v_ms":7.895611237661351}},{"type":"Feature","geometry":{"type":"Point","coordinates":[-84.5658,33.3636]},"properties":{"site":"KFFC","name":"Atlanta GA","scan_time":"2026-10-02T04:00:52Z","stale":false,"bins":25,"density_birds_km3":6.206,"heading_deg":329.2740748423179,"speed_ms":8.912858524009025,"peak_altitude_m":400.0,"u_ms":-4.222496508754968,"v_ms":7.695610699323235}},{"type":"Feature","geometry":{"type":"Point","coordinates":[-85.5449,42.8939]},"properties":{"site":"KGRR","name":"Grand Rapids MI","scan_time":"2026-10-02T03:58:56Z","stale":false,"bins":25,"density_birds_km3":71.41666666666667,"heading_deg":null,"speed_ms":null,"peak_altitude_m":400.0,"u_ms":null,"v_ms":null}},{"type":"Feature","geometry":{"type":"Point","coordinates":[-83.8217,39.4203]},"properties":{"site":"KILN","name":"Wilmington OH","scan_time":"2026-10-02T03:58:46Z","stale":false,"bins":25,"density_birds_km3":5.874666666666667,"heading_deg":35.643758214409104,"speed_ms":15.709906913384039,"peak_altitude_m":200.0,"u_ms":9.35944942672267,"v_ms":12.375405834941537}},{"type":"Feature","geometry":{"type":"Point","coordinates":[-81.7019,30.4846]},"properties":{"site":"KJAX","name":"Jacksonville FL","scan_time":"2026-10-02T03:57:48Z","stale":false,"bins":25,"density_birds_km3":15.356875,"heading_deg":239.35065971334814,"speed_ms":4.686279467448394,"peak_altitude_m":0.0,"u_ms":-3.7619050527258664,"v_ms":-1.842405846667481}},{"type":"Feature","geometry":{"type":"Point","coordinates":[-88.0847,41.6045]},"properties":{"site":"KLOT","name":"Chicago IL","scan_time":"2026-10-02T04:02:23Z","stale":false,"bins":25,"density_birds_km3":0.0,"heading_deg":null,"speed_ms":null,"peak_altitude_m":1000.0,"u_ms":null,"v_ms":null}},{"type":"Feature","geometry":{"type":"Point","coordinates":[-78.4292,33.9892]},"properties":{"site":"KLTX","name":"Wilmington NC","scan_time":"2026-10-02T03:58:32Z","stale":false,"bins":25,"density_birds_km3":7.761875,"heading_deg":264.06993562414766,"speed_ms":4.247266870671607,"peak_altitude_m":0.0,"u_ms":-3.33105733612498,"v_ms":-0.38616121758737315}},{"type":"Feature","geometry":{"type":"Point","coordinates":[-77.4778,38.9753]},"properties":{"site":"KLWX","name":"Sterling VA","scan_time":"2026-10-02T04:01:14Z","stale":false,"bins":25,"density_birds_km3":12.164375,"heading_deg":15.397414623837443,"speed_ms":9.182008940040076,"peak_altitude_m":0.0,"u_ms":3.4279067975132302,"v_ms":6.1881446847865185}},{"type":"Feature","geometry":{"type":"Point","coordinates":[-76.8762,34.7759]},"properties":{"site":"KMHX","name":"Morehead City NC","scan_time":"2026-10-02T04:02:29Z","stale":false,"bins":25,"density_birds_km3":1.9525000000000001,"heading_deg":13.42987019834019,"speed_ms":4.566514762516046,"peak_altitude_m":0.0,"u_ms":0.573170731707317,"v_ms":3.528713093709884}},{"type":"Feature","geometry":{"type":"Point","coordinates":[-80.6542,28.1133]},"properties":{"site":"KMLB","name":"Melbourne FL","scan_time":"2026-10-02T04:01:13Z","stale":false,"bins":25,"density_birds_km3":1.338125,"heading_deg":246.5045903215077,"speed_ms":5.857407753386268,"peak_altitude_m":200.0,"u_ms":-5.329766464269033,"v_ms":-2.2600420364315736}},{"type":"Feature","geometry":{"type":"Point","coordinates":[-86.5625,36.2472]},"properties":{"site":"KOHX","name":"Nashville TN","scan_time":"2026-10-02T03:57:49Z","stale":false,"bins":25,"density_birds_km3":4.8453333333333335,"heading_deg":10.441729876513284,"speed_ms":13.38966703357182,"peak_altitude_m":200.0,"u_ms":2.563970831040176,"v_ms":12.812802696752886}},{"type":"Feature","geometry":{"type":"Point","coordinates":[-72.8639,40.8655]},"properties":{"site":"KOKX","name":"Upton NY","scan_time":"2026-10-02T04:02:38Z","stale":false,"bins":25,"density_birds_km3":0.9075,"heading_deg":62.491396848969,"speed_ms":13.361261199172985,"peak_altitude_m":0.0,"u_ms":11.830957960027568,"v_ms":5.962653342522398}},{"type":"Feature","geometry":{"type":"Point","coordinates":[-80.2183,40.5317]},"properties":{"site":"KPBZ","name":"Pittsburgh PA","scan_time":"2026-10-02T04:02:01Z","stale":false,"bins":25,"density_birds_km3":2.832857142857143,"heading_deg":53.28156711955466,"speed_ms":15.39974533535048,"peak_altitude_m":400.0,"u_ms":12.34649520927887,"v_ms":9.133714069591528}},{"type":"Feature","geometry":{"type":"Point","coordinates":[-78.4899,35.6655]},"properties":{"site":"KRAX","name":"Raleigh NC","scan_time":"2026-10-02T04:01:02Z","stale":false,"bins":25,"density_birds_km3":4.24125,"heading_deg":33.79735315943652,"speed_ms":8.661236733490567,"peak_altitude_m":0.0,"u_ms":4.375420106132076,"v_ms":6.9335406839622635}},{"type":"Feature","geometry":{"type":"Point","coordinates":[-82.4017,27.7055]},"properties":{"site":"KTBW","name":"Tampa FL","scan_time":"2026-10-02T04:02:15Z","stale":false,"bins":25,"density_birds_km3":5.485625000000001,"heading_deg":260.4282553079657,"speed_ms":7.2559222969123836,"peak_altitude_m":0.0,"u_ms":-6.817139113592344,"v_ms":-0.8099008772929247}}]}