{"type":"FeatureCollection","frame":"2026-09-28T09","site_count":20,"fresh_count":20,"failures":{},"features":[{"type":"Feature","geometry":{"type":"Point","coordinates":[-77.0073,36.984]},"properties":{"site":"KAKQ","name":"Wakefield VA","scan_time":"2026-09-28T09:01:52Z","stale":false,"bins":25,"density_birds_km3":3.81875,"heading_deg":163.6764435097099,"speed_ms":7.003138315306456,"peak_altitude_m":200.0,"u_ms":1.6560668633235005,"v_ms":-6.523698787282858}},{"type":"Feature","geometry":{"type":"Point","coordinates":[-71.1369,41.9558]},"properties":{"site":"KBOX","name":"Boston MA","scan_time":"2026-09-28T09:02:38Z","stale":false,"bins":25,"density_birds_km3":0.40692307692307694,"heading_deg":null,"speed_ms":null,"peak_altitude_m":0.0,"u_ms":null,"v_ms":null}},{"type":"Feature","geometry":{"type":"Point","coordinates":[-78.7369,42.9489]},"properties":{"site":"KBUF","name":"Buffalo NY","scan_time":"2026-09-28T09:03:54Z","stale":false,"bins":25,"density_birds_km3":0.42933333333333334,"heading_deg":192.38031497783936,"speed_ms":4.434773790951638,"peak_altitude_m":200.0,"u_ms":-0.9577691107644306,"v_ms":-4.227613104524181}},{"type":"Feature","geometry":{"type":"Point","coordinates":[-81.8597,41.4131]},"properties":{"site":"KCLE","name":"Cleveland OH","scan_time":"2026-09-28T08:59:36Z","stale":false,"bins":25,"density_birds_km3":11.553333333333333,"heading_deg":167.8898316024778,"speed_ms":10.675357493219458,"peak_altitude_m":200.0,"u_ms":2.2699036297535926,"v_ms":-10.312305384038318}},{"type":"Feature","geometry":{"type":"Point","coordinates":[-81.0423,32.6555]},"properties":{"site":"KCLX","name":"Charleston SC","scan_time":"2026-09-28T08:56:23Z","stale":false,"bins":25,"density_birds_km3":28.89875,"heading_deg":215.6209066690872,"speed_ms":8.506679787188027,"peak_altitude_m":0.0,"u_ms":-4.38038604610926,"v_ms":-6.580662225874821}},{"type":"Feature","geometry":{"type":"Point","coordinates":[-74.4108,39.947]},"properties":{"site":"KDIX","name":"Philadelphia PA","scan_time":"2026-09-28T09:00:34Z","stale":false,"bins":25,"density_birds_km3":0.5257142857142857,"heading_deg":null,"speed_ms":null,"peak_altitude_m":200.0,"u_ms":null,"v_ms":null}},{"type":"Feature","geometry":{"type":"Point","coordinates":[-84.5658,33.3636]},"properties":{"site":"KFFC","name":"Atlanta GA","scan_time":"2026-09-28T08:59:57Z","stale":false,"bins":25,"density_birds_km3":49.733333333333334,"heading_deg":198.1974827487678,"speed_ms":12.574149865951743,"peak_altitude_m":400.0,"u_ms":-3.7575108579088474,"v_ms":-11.465155495978552}},{"type":"Feature","geometry":{"type":"Point","coordinates":[-85.5449,42.8939]},"properties":{"site":"KGRR","name":"Grand Rapids MI","scan_time":"2026-09-28T08:56:27Z","stale":false,"bins":25,"density_birds_km3":27.38133333333333,"heading_deg":181.08647538416878,"speed_ms":8.375694042024787,"peak_altitude_m":400.0,"u_ms":0.3415799469211854,"v_ms":-8.21028000292177}},{"type":"Feature","geometry":{"type":"Point","coordinates":[-83.8217,39.4203]},"properties":{"site":"KILN","name":"Wilmington OH","scan_time":"2026-09-28T09:00:33Z","stale":false,"bins":25,"density_birds_km3":37.83266666666667,"heading_deg":168.57066779867287,"speed_ms":12.457683225544962,"peak_altitude_m":200.0,"u_ms":2.365431124112288,"v_ms":-12.157883412338977}},{"type":"Feature","geometry":{"type":"Point","coordinates":[-81.7019,30.4846]},"properties":{"site":"KJAX","name":"Jacksonville FL","scan_time":"2026-09-28T09:00:39Z","stale":false,"bins":25,"density_birds_km3":47.49,"heading_deg":117.75816972369208,"speed_ms":5.950473551902499,"peak_altitude_m":0.0,"u_ms":3.726267389673462,"v_ms":-3.128990115689861}},{"type":"Feature","geometry":{"type":"Point","coordinates":[-88.0847,41.6045]},"properties":{"site":"KLOT","name":"Chicago IL","scan_time":"2026-09-28T09:02:51Z","stale":false,"bins":25,"density_birds_km3":70.578,"heading_deg":173.00805881845093,"speed_ms":12.038310049401607,"peak_altitude_m":200.0,"u_ms":1.5022975998186403,"v_ms":-11.91733202981099}},{"type":"Feature","geometry":{"type":"Point","coordinates":[-78.4292,33.9892]},"properties":{"site":"KLTX","name":"Wilmington NC","scan_time":"2026-09-28T08:58:32Z","stale":false,"bins":25,"density_birds_km3":22.886875,"heading_deg":230.7281123924668,"speed_ms":6.683925118794035,"peak_altitude_m":0.0,"u_ms":-4.5890086842536455,"v_ms":-4.038458954612485}},{"type":"Feature","geometry":{"type":"Point","coordinates":[-77.4778,38.9753]},"properties":{"site":"KLWX","name":"Sterling VA","scan_time":"2026-09-28T09:00:33Z","stale":false,"bins":25,"density_birds_km3":4.437142857142858,"heading_deg":151.26273209946572,"speed_ms":10.451335593220339,"peak_altitude_m":0.0,"u_ms":1.0626305084745764,"v_ms":-6.3572644067796595}},{"type":"Feature","geometry":{"type":"Point","coordinates":[-76.8762,34.7759]},"properties":{"site":"KMHX","name":"Morehead City NC","scan_time":"2026-09-28T09:02:26Z","stale":false,"bins":25,"density_birds_km3":7.11125,"heading_deg":232.7537206241296,"speed_ms":6.452328586497891,"peak_altitude_m":0.0,"u_ms":-4.0701916315049225,"v_ms":-3.162897327707455}},{"type":"Feature","geometry":{"type":"Point","coordinates":[-80.6542,28.1133]},"properties":{"site":"KMLB","name":"Melbourne FL","scan_time":"2026-09-28T09:03:22Z","stale":false,"bins":25,"density_birds_km3":10.566875,"heading_deg":101.49813192958946,"speed_ms":3.7291150547175387,"peak_altitude_m":0.0,"u_ms":1.2918006506950606,"v_ms":-2.389924282756581}},{"type":"Feature","geometry":{"type":"Point","coordinates":[-86.5625,36.2472]},"properties":{"site":"KOHX","name":"Nashville TN","scan_time":"2026-09-28T08:58:10Z","stale":false,"bins":25,"density_birds_km3":89.30666666666666,"heading_deg":178.51134041563498,"speed_ms":9.530481860256794,"peak_altitude_m":200.0,"u_ms":0.23489452075246342,"v_ms":-9.392171842341}},{"type":"Feature","geometry":{"type":"Point","coordinates":[-72.8639,40.8655]},"properties":{"site":"KOKX","name":"Upton NY","scan_time":"2026-09-28T08:59:04Z","stale":false,"bins":25,"density_birds_km3":null,"heading_deg":null,"speed_ms":null,"peak_altitude_m":null,"u_ms":null,"v_ms":null}},{"type":"Feature","geometry":{"type":"Point","coordinates":[-80.2183,40.5317]},"properties":{"site":"KPBZ","name":"Pittsburgh PA","scan_time":"2026-09-28T08:58:39Z","stale":false,"bins":25,"density_birds_km3":4.872142857142856,"heading_deg":170.01320795723214,"speed_ms":9.900359184870254,"peak_altitude_m":400.0,"u_ms":1.133143234129893,"v_ms":-9.461263744319016}},{"type":"Feature","geometry":{"type":"Point","coordinates":[-78.4899,35.6655]},"properties":{"site":"KRAX","name":"Raleigh NC","scan_time":"2026-09-28T08:57:25Z","stale":false,"bins":25,"density_birds_km3":7.7924999999999995,"heading_deg":220.5310412131394,"speed_ms":4.638810364190598,"peak_altitude_m":200.0,"u_ms":-2.576098187068827,"v_ms":-3.117209209048612}},{"type":"Feature","geometry":{"type":"Point","coordinates":[-82.4017,27.7055]},"properties":{"site":"KTBW","name":"Tampa FL","scan_time":"2026-09-28T08:57:14Z","stale":false,"bins":25,"density_birds_km3":20.430625,"heading_deg":178.19415152674722,"speed_ms":10.894028266389306,"peak_altitude_m":600.0,"u_ms":0.3611052647679648,"v_ms":-10.871747376793417}}]}