{"type":"FeatureCollection","frame":"2026-09-24T09","site_count":20,"fresh_count":20,"failures":{},"features":[{"type":"Feature","geometry":{"type":"Point","coordinates":[-77.0073,36.984]},"properties":{"site":"KAKQ","name":"Wakefield VA","scan_time":"2026-09-24T09:00:50Z","stale":false,"bins":25,"density_birds_km3":26.355,"heading_deg":183.87760322552055,"speed_ms":12.778608100399316,"peak_altitude_m":0.0,"u_ms":-0.9565860905115042,"v_ms":-12.692682306522153}},{"type":"Feature","geometry":{"type":"Point","coordinates":[-71.1369,41.9558]},"properties":{"site":"KBOX","name":"Boston MA","scan_time":"2026-09-24T09:00:25Z","stale":false,"bins":25,"density_birds_km3":0.25,"heading_deg":220.01094652786395,"speed_ms":9.075501285347043,"peak_altitude_m":0.0,"u_ms":-5.907352185089974,"v_ms":-6.788200514138817}},{"type":"Feature","geometry":{"type":"Point","coordinates":[-78.7369,42.9489]},"properties":{"site":"KBUF","name":"Buffalo NY","scan_time":"2026-09-24T08:59:37Z","stale":false,"bins":25,"density_birds_km3":1.8760000000000001,"heading_deg":291.3001372043085,"speed_ms":6.60545842217484,"peak_altitude_m":200.0,"u_ms":-5.981943852167732,"v_ms":2.41498933901919}},{"type":"Feature","geometry":{"type":"Point","coordinates":[-81.8597,41.4131]},"properties":{"site":"KCLE","name":"Cleveland OH","scan_time":"2026-09-24T09:01:43Z","stale":false,"bins":25,"density_birds_km3":2.8266666666666667,"heading_deg":281.60973863091874,"speed_ms":8.744911535739561,"peak_altitude_m":200.0,"u_ms":-8.086456711488559,"v_ms":2.070566171266808}},{"type":"Feature","geometry":{"type":"Point","coordinates":[-81.0423,32.6555]},"properties":{"site":"KCLX","name":"Charleston SC","scan_time":"2026-09-24T09:01:50Z","stale":false,"bins":25,"density_birds_km3":1.925625,"heading_deg":206.49234040428584,"speed_ms":7.536303754266211,"peak_altitude_m":0.0,"u_ms":-3.357361774744027,"v_ms":-6.732160409556314}},{"type":"Feature","geometry":{"type":"Point","coordinates":[-74.4108,39.947]},"properties":{"site":"KDIX","name":"Philadelphia PA","scan_time":"2026-09-24T09:01:29Z","stale":false,"bins":25,"density_birds_km3":0.1275,"heading_deg":223.29867127993518,"speed_ms":12.35772972972973,"peak_altitude_m":400.0,"u_ms":-8.558864864864864,"v_ms":-8.858756756756756}},{"type":"Feature","geometry":{"type":"Point","coordinates":[-84.5658,33.3636]},"properties":{"site":"KFFC","name":"Atlanta GA","scan_time":"2026-09-24T08:58:13Z","stale":false,"bins":25,"density_birds_km3":4.618666666666667,"heading_deg":224.11343960480042,"speed_ms":7.172298019945079,"peak_altitude_m":400.0,"u_ms":-4.327037144095968,"v_ms":-5.118043069807776}},{"type":"Feature","geometry":{"type":"Point","coordinates":[-85.5449,42.8939]},"properties":{"site":"KGRR","name":"Grand Rapids MI","scan_time":"2026-09-24T08:59:36Z","stale":false,"bins":25,"density_birds_km3":2.396,"heading_deg":244.5185807974308,"speed_ms":9.243102392877017,"peak_altitude_m":200.0,"u_ms":-8.091502504173624,"v_ms":-3.7366972732331662}},{"type":"Feature","geometry":{"type":"Point","coordinates":[-83.8217,39.4203]},"properties":{"site":"KILN","name":"Wilmington OH","scan_time":"2026-09-24T08:58:43Z","stale":false,"bins":25,"density_birds_km3":3.732666666666667,"heading_deg":255.90918883036517,"speed_ms":5.379552058111379,"peak_altitude_m":200.0,"u_ms":-4.98817191283293,"v_ms":-1.3756577885391443}},{"type":"Feature","geometry":{"type":"Point","coordinates":[-81.7019,30.4846]},"properties":{"site":"KJAX","name":"Jacksonville FL","scan_time":"2026-09-24T08:58:08Z","stale":false,"bins":25,"density_birds_km3":31.709999999999997,"heading_deg":185.03275515264593,"speed_ms":13.138656534102285,"peak_altitude_m":200.0,"u_ms":-1.2648121670871881,"v_ms":-13.033284873242822}},{"type":"Feature","geometry":{"type":"Point","coordinates":[-88.0847,41.6045]},"properties":{"site":"KLOT","name":"Chicago IL","scan_time":"2026-09-24T08:56:25Z","stale":false,"bins":25,"density_birds_km3":10.365,"heading_deg":175.08851550074831,"speed_ms":10.436273372952604,"peak_altitude_m":200.0,"u_ms":0.3116284968836065,"v_ms":-5.761355268879548}},{"type":"Feature","geometry":{"type":"Point","coordinates":[-78.4292,33.9892]},"properties":{"site":"KLTX","name":"Wilmington NC","scan_time":"2026-09-24T09:01:56Z","stale":false,"bins":25,"density_birds_km3":3.8981250000000003,"heading_deg":222.22928302929887,"speed_ms":11.2563957083106,"peak_altitude_m":0.0,"u_ms":-7.528083287870523,"v_ms":-8.362598654300783}},{"type":"Feature","geometry":{"type":"Point","coordinates":[-77.4778,38.9753]},"properties":{"site":"KLWX","name":"Sterling VA","scan_time":"2026-09-24T08:58:21Z","stale":false,"bins":25,"density_birds_km3":8.811875,"heading_deg":212.36924452135722,"speed_ms":15.264090715502556,"peak_altitude_m":200.0,"u_ms":-8.24205139125497,"v_ms":-12.648393668370245}},{"type":"Feature","geometry":{"type":"Point","coordinates":[-76.8762,34.7759]},"properties":{"site":"KMHX","name":"Morehead City NC","scan_time":"2026-09-24T09:00:43Z","stale":false,"bins":25,"density_birds_km3":0.996875,"heading_deg":211.00737142181265,"speed_ms":16.4852,"peak_altitude_m":0.0,"u_ms":-8.4876,"v_ms":-14.0928}},{"type":"Feature","geometry":{"type":"Point","coordinates":[-80.6542,28.1133]},"properties":{"site":"KMLB","name":"Melbourne FL","scan_time":"2026-09-24T08:59:34Z","stale":false,"bins":25,"density_birds_km3":8.353125,"heading_deg":160.743811406144,"speed_ms":14.09849262779732,"peak_altitude_m":0.0,"u_ms":4.657328044308061,"v_ms":-13.299055459920663}},{"type":"Feature","geometry":{"type":"Point","coordinates":[-86.5625,36.2472]},"properties":{"site":"KOHX","name":"Nashville TN","scan_time":"2026-09-24T09:01:00Z","stale":false,"bins":25,"density_birds_km3":14.624666666666666,"heading_deg":168.42168908364897,"speed_ms":6.1472120162282895,"peak_altitude_m":200.0,"u_ms":1.6277904909513605,"v_ms":-5.424047043807266}},{"type":"Feature","geometry":{"type":"Point","coordinates":[-72.8639,40.8655]},"properties":{"site":"KOKX","name":"Upton NY","scan_time":"2026-09-24T08:57:23Z","stale":false,"bins":25,"density_birds_km3":0.12375,"heading_deg":230.5937758804275,"speed_ms":11.508967391304346,"peak_altitude_m":0.0,"u_ms":-8.901304347826086,"v_ms":-7.217934782608696}},{"type":"Feature","geometry":{"type":"Point","coordinates":[-80.2183,40.5317]},"properties":{"site":"KPBZ","name":"Pittsburgh PA","scan_time":"2026-09-24T08:58:08Z","stale":false,"bins":25,"density_birds_km3":5.426428571428572,"heading_deg":244.39596237093775,"speed_ms":12.117385121790651,"peak_altitude_m":400.0,"u_ms":-10.680341013824885,"v_ms":-5.107778801843318}},{"type":"Feature","geometry":{"type":"Point","coordinates":[-78.4899,35.6655]},"properties":{"site":"KRAX","name":"Raleigh NC","scan_time":"2026-09-24T08:59:33Z","stale":false,"bins":25,"density_birds_km3":22.196250000000003,"heading_deg":213.7352534257858,"speed_ms":14.233838139220547,"peak_altitude_m":200.0,"u_ms":-7.848670027033116,"v_ms":-11.868126548772247}},{"type":"Feature","geometry":{"type":"Point","coordinates":[-82.4017,27.7055]},"properties":{"site":"KTBW","name":"Tampa FL","scan_time":"2026-09-24T09:01:01Z","stale":false,"bins":25,"density_birds_km3":9.5875,"heading_deg":183.58262901635916,"speed_ms":12.119570404172098,"peak_altitude_m":0.0,"u_ms":-0.9483624511082136,"v_ms":-11.959001955671447}}]}