{"type":"FeatureCollection","frame":"2026-09-21T03","site_count":20,"fresh_count":20,"failures":{},"features":[{"type":"Feature","geometry":{"type":"Point","coordinates":[-77.0073,36.984]},"properties":{"site":"KAKQ","name":"Wakefield VA","scan_time":"2026-09-21T03:03:29Z","stale":false,"bins":25,"density_birds_km3":4.0875,"heading_deg":57.60243960779019,"speed_ms":7.739145535577072,"peak_altitude_m":0.0,"u_ms":4.954635008452437,"v_ms":2.4947748578453974}},{"type":"Feature","geometry":{"type":"Point","coordinates":[-71.1369,41.9558]},"properties":{"site":"KBOX","name":"Boston MA","scan_time":"2026-09-21T02:59:07Z","stale":false,"bins":25,"density_birds_km3":0.4358333333333333,"heading_deg":null,"speed_ms":null,"peak_altitude_m":0.0,"u_ms":null,"v_ms":null}},{"type":"Feature","geometry":{"type":"Point","coordinates":[-78.7369,42.9489]},"properties":{"site":"KBUF","name":"Buffalo NY","scan_time":"2026-09-21T02:58:26Z","stale":false,"bins":25,"density_birds_km3":40.669333333333334,"heading_deg":198.36768237904533,"speed_ms":11.483753196511705,"peak_altitude_m":600.0,"u_ms":-3.9468579109566586,"v_ms":-10.633384696085503}},{"type":"Feature","geometry":{"type":"Point","coordinates":[-81.8597,41.4131]},"properties":{"site":"KCLE","name":"Cleveland OH","scan_time":"2026-09-21T03:00:09Z","stale":false,"bins":25,"density_birds_km3":59.358666666666664,"heading_deg":225.81940324804953,"speed_ms":13.509845076448467,"peak_altitude_m":400.0,"u_ms":-9.841231844896305,"v_ms":-8.98258010763584}},{"type":"Feature","geometry":{"type":"Point","coordinates":[-81.0423,32.6555]},"properties":{"site":"KCLX","name":"Charleston SC","scan_time":"2026-09-21T03:00:12Z","stale":false,"bins":25,"density_birds_km3":15.445,"heading_deg":237.54210527949746,"speed_ms":7.183642764648754,"peak_altitude_m":200.0,"u_ms":-5.146721835545484,"v_ms":-4.276677727419877}},{"type":"Feature","geometry":{"type":"Point","coordinates":[-74.4108,39.947]},"properties":{"site":"KDIX","name":"Philadelphia PA","scan_time":"2026-09-21T03:01:43Z","stale":false,"bins":25,"density_birds_km3":2.429375,"heading_deg":null,"speed_ms":null,"peak_altitude_m":200.0,"u_ms":null,"v_ms":null}},{"type":"Feature","geometry":{"type":"Point","coordinates":[-84.5658,33.3636]},"properties":{"site":"KFFC","name":"Atlanta GA","scan_time":"2026-09-21T03:00:47Z","stale":false,"bins":25,"density_birds_km3":35.797333333333334,"heading_deg":245.83438790078242,"speed_ms":7.706252793504171,"peak_altitude_m":400.0,"u_ms":-4.790250484207389,"v_ms":-3.922183775327771}},{"type":"Feature","geometry":{"type":"Point","coordinates":[-85.5449,42.8939]},"properties":{"site":"KGRR","name":"Grand Rapids MI","scan_time":"2026-09-21T02:58:39Z","stale":false,"bins":25,"density_birds_km3":251.12933333333334,"heading_deg":211.82359943321862,"speed_ms":15.55854122975147,"peak_altitude_m":200.0,"u_ms":-8.729645946046393,"v_ms":-12.361704646211514}},{"type":"Feature","geometry":{"type":"Point","coordinates":[-83.8217,39.4203]},"properties":{"site":"KILN","name":"Wilmington OH","scan_time":"2026-09-21T02:58:18Z","stale":false,"bins":25,"density_birds_km3":49.308,"heading_deg":203.79442170758293,"speed_ms":5.093350486915585,"peak_altitude_m":200.0,"u_ms":-0.5971138136336365,"v_ms":-3.9351229981077216}},{"type":"Feature","geometry":{"type":"Point","coordinates":[-81.7019,30.4846]},"properties":{"site":"KJAX","name":"Jacksonville FL","scan_time":"2026-09-21T02:57:51Z","stale":false,"bins":25,"density_birds_km3":74.89125,"heading_deg":186.94500496026842,"speed_ms":10.27556869585538,"peak_altitude_m":200.0,"u_ms":-1.2518235156654258,"v_ms":-10.198440634963028}},{"type":"Feature","geometry":{"type":"Point","coordinates":[-88.0847,41.6045]},"properties":{"site":"KLOT","name":"Chicago IL","scan_time":"2026-09-21T03:00:59Z","stale":false,"bins":25,"density_birds_km3":5.652,"heading_deg":239.51558593633106,"speed_ms":14.173117480537863,"peak_altitude_m":400.0,"u_ms":-12.224006841236141,"v_ms":-6.993801604151922}},{"type":"Feature","geometry":{"type":"Point","coordinates":[-78.4292,33.9892]},"properties":{"site":"KLTX","name":"Wilmington NC","scan_time":"2026-09-21T03:00:26Z","stale":false,"bins":25,"density_birds_km3":8.173125,"heading_deg":248.15086051118467,"speed_ms":6.317170593200829,"peak_altitude_m":200.0,"u_ms":-4.944148568797483,"v_ms":-2.780579387614151}},{"type":"Feature","geometry":{"type":"Point","coordinates":[-77.4778,38.9753]},"properties":{"site":"KLWX","name":"Sterling VA","scan_time":"2026-09-21T03:01:40Z","stale":false,"bins":25,"density_birds_km3":30.11125,"heading_deg":149.2021319837587,"speed_ms":7.039328796652437,"peak_altitude_m":200.0,"u_ms":3.639209814446933,"v_ms":-5.999575214506107}},{"type":"Feature","geometry":{"type":"Point","coordinates":[-76.8762,34.7759]},"properties":{"site":"KMHX","name":"Morehead City NC","scan_time":"2026-09-21T03:01:44Z","stale":false,"bins":25,"density_birds_km3":3.2275,"heading_deg":285.3056354934656,"speed_ms":4.437382797365363,"peak_altitude_m":200.0,"u_ms":-2.3348740798140257,"v_ms":0.2893161565284773}},{"type":"Feature","geometry":{"type":"Point","coordinates":[-80.6542,28.1133]},"properties":{"site":"KMLB","name":"Melbourne FL","scan_time":"2026-09-21T02:59:35Z","stale":false,"bins":25,"density_birds_km3":33.264375,"heading_deg":162.44054006534085,"speed_ms":9.765513969524454,"peak_altitude_m":0.0,"u_ms":2.9860092441237813,"v_ms":-9.202039907558762}},{"type":"Feature","geometry":{"type":"Point","coordinates":[-86.5625,36.2472]},"properties":{"site":"KOHX","name":"Nashville TN","scan_time":"2026-09-21T03:00:52Z","stale":false,"bins":25,"density_birds_km3":79.47733333333333,"heading_deg":193.51514301100295,"speed_ms":3.421885569051134,"peak_altitude_m":400.0,"u_ms":-0.4071401489732922,"v_ms":-2.407247600993155}},{"type":"Feature","geometry":{"type":"Point","coordinates":[-72.8639,40.8655]},"properties":{"site":"KOKX","name":"Upton NY","scan_time":"2026-09-21T02:59:42Z","stale":false,"bins":25,"density_birds_km3":0.20625,"heading_deg":81.55101050684604,"speed_ms":6.121254125412541,"peak_altitude_m":200.0,"u_ms":6.022739273927392,"v_ms":0.7950825082508252}},{"type":"Feature","geometry":{"type":"Point","coordinates":[-80.2183,40.5317]},"properties":{"site":"KPBZ","name":"Pittsburgh PA","scan_time":"2026-09-21T03:01:33Z","stale":false,"bins":25,"density_birds_km3":41.079166666666666,"heading_deg":212.15220755855188,"speed_ms":9.281008123094551,"peak_altitude_m":600.0,"u_ms":-4.907472837763183,"v_ms":-7.407487979047736}},{"type":"Feature","geometry":{"type":"Point","coordinates":[-78.4899,35.6655]},"properties":{"site":"KRAX","name":"Raleigh NC","scan_time":"2026-09-21T03:02:08Z","stale":false,"bins":25,"density_birds_km3":8.0675,"heading_deg":83.25958518390031,"speed_ms":4.943342888131391,"peak_altitude_m":200.0,"u_ms":1.5342802912922218,"v_ms":-0.5316757049891538}},{"type":"Feature","geometry":{"type":"Point","coordinates":[-82.4017,27.7055]},"properties":{"site":"KTBW","name":"Tampa FL","scan_time":"2026-09-21T03:00:10Z","stale":false,"bins":25,"density_birds_km3":23.868125,"heading_deg":205.48807780853346,"speed_ms":7.700725639615576,"peak_altitude_m":0.0,"u_ms":-2.6151491345222198,"v_ms":-6.890081703197422}}]}