{"type":"FeatureCollection","frame":"2026-09-25T09","site_count":20,"fresh_count":19,"failures":{"KDIX":"RuntimeError('no scan within 20 min of 2026-09-25T09:00Z')"},"features":[{"type":"Feature","geometry":{"type":"Point","coordinates":[-77.0073,36.984]},"properties":{"site":"KAKQ","name":"Wakefield VA","scan_time":"2026-09-25T08:57:55Z","stale":false,"bins":25,"density_birds_km3":9.993125000000001,"heading_deg":183.28057423609127,"speed_ms":19.410212646194257,"peak_altitude_m":200.0,"u_ms":-1.232929514040903,"v_ms":-19.283191569203826}},{"type":"Feature","geometry":{"type":"Point","coordinates":[-71.1369,41.9558]},"properties":{"site":"KBOX","name":"Boston MA","scan_time":"2026-09-25T09:00:16Z","stale":false,"bins":25,"density_birds_km3":0.19062500000000002,"heading_deg":206.93899121500468,"speed_ms":11.057326732673268,"peak_altitude_m":0.0,"u_ms":-5.178349834983498,"v_ms":-9.501188118811882}},{"type":"Feature","geometry":{"type":"Point","coordinates":[-78.7369,42.9489]},"properties":{"site":"KBUF","name":"Buffalo NY","scan_time":"2026-09-25T09:01:10Z","stale":false,"bins":25,"density_birds_km3":4.819333333333334,"heading_deg":211.80902665486624,"speed_ms":10.16668280536727,"peak_altitude_m":200.0,"u_ms":-5.253952137225065,"v_ms":-8.583604924609213}},{"type":"Feature","geometry":{"type":"Point","coordinates":[-81.8597,41.4131]},"properties":{"site":"KCLE","name":"Cleveland OH","scan_time":"2026-09-25T09:01:23Z","stale":false,"bins":25,"density_birds_km3":2.701333333333333,"heading_deg":270.41175029673354,"speed_ms":8.16431992100716,"peak_altitude_m":200.0,"u_ms":-7.885482596889657,"v_ms":-0.021757590718341144}},{"type":"Feature","geometry":{"type":"Point","coordinates":[-81.0423,32.6555]},"properties":{"site":"KCLX","name":"Charleston SC","scan_time":"2026-09-25T08:57:34Z","stale":false,"bins":25,"density_birds_km3":63.386874999999996,"heading_deg":194.51059162661858,"speed_ms":16.03423956772107,"peak_altitude_m":200.0,"u_ms":-4.3723083142699375,"v_ms":-15.176005659856433}},{"type":"Feature","geometry":{"type":"Point","coordinates":[-84.5658,33.3636]},"properties":{"site":"KFFC","name":"Atlanta GA","scan_time":"2026-09-25T09:02:28Z","stale":false,"bins":25,"density_birds_km3":90.104,"heading_deg":230.84416729006844,"speed_ms":14.421730148865016,"peak_altitude_m":600.0,"u_ms":-9.606611619166001,"v_ms":-9.21915216490574}},{"type":"Feature","geometry":{"type":"Point","coordinates":[-85.5449,42.8939]},"properties":{"site":"KGRR","name":"Grand Rapids MI","scan_time":"2026-09-25T09:00:38Z","stale":false,"bins":25,"density_birds_km3":4.253333333333333,"heading_deg":268.3045310578862,"speed_ms":3.6623683385579944,"peak_altitude_m":200.0,"u_ms":-3.4810846394984325,"v_ms":0.2645141065830721}},{"type":"Feature","geometry":{"type":"Point","coordinates":[-83.8217,39.4203]},"properties":{"site":"KILN","name":"Wilmington OH","scan_time":"2026-09-25T09:03:02Z","stale":false,"bins":25,"density_birds_km3":14.839333333333334,"heading_deg":213.18198085109736,"speed_ms":10.53280251911831,"peak_altitude_m":200.0,"u_ms":-5.519057130004498,"v_ms":-8.518076473234368}},{"type":"Feature","geometry":{"type":"Point","coordinates":[-81.7019,30.4846]},"properties":{"site":"KJAX","name":"Jacksonville FL","scan_time":"2026-09-25T08:58:49Z","stale":false,"bins":25,"density_birds_km3":45.924375,"heading_deg":178.50914276386013,"speed_ms":13.849476714118515,"peak_altitude_m":200.0,"u_ms":0.22318503497645553,"v_ms":-13.776506981681594}},{"type":"Feature","geometry":{"type":"Point","coordinates":[-88.0847,41.6045]},"properties":{"site":"KLOT","name":"Chicago IL","scan_time":"2026-09-25T09:01:40Z","stale":false,"bins":25,"density_birds_km3":4.809333333333333,"heading_deg":233.7374136489082,"speed_ms":4.661809986130375,"peak_altitude_m":400.0,"u_ms":-1.1959098474341192,"v_ms":-1.2691165048543687}},{"type":"Feature","geometry":{"type":"Point","coordinates":[-78.4292,33.9892]},"properties":{"site":"KLTX","name":"Wilmington NC","scan_time":"2026-09-25T08:58:13Z","stale":false,"bins":25,"density_birds_km3":58.540625000000006,"heading_deg":212.53122077109185,"speed_ms":10.744054022313565,"peak_altitude_m":0.0,"u_ms":-4.652878876848342,"v_ms":-9.300935781775477}},{"type":"Feature","geometry":{"type":"Point","coordinates":[-77.4778,38.9753]},"properties":{"site":"KLWX","name":"Sterling VA","scan_time":"2026-09-25T08:58:14Z","stale":false,"bins":25,"density_birds_km3":7.93625,"heading_deg":202.10686007910064,"speed_ms":20.279524035046176,"peak_altitude_m":400.0,"u_ms":-7.8591388428447395,"v_ms":-18.428537374694137}},{"type":"Feature","geometry":{"type":"Point","coordinates":[-76.8762,34.7759]},"properties":{"site":"KMHX","name":"Morehead City NC","scan_time":"2026-09-25T08:58:00Z","stale":false,"bins":25,"density_birds_km3":6.663749999999999,"heading_deg":174.4443453551026,"speed_ms":10.073520915400488,"peak_altitude_m":0.0,"u_ms":0.8315719377227537,"v_ms":-10.005271993997374}},{"type":"Feature","geometry":{"type":"Point","coordinates":[-80.6542,28.1133]},"properties":{"site":"KMLB","name":"Melbourne FL","scan_time":"2026-09-25T08:58:09Z","stale":false,"bins":25,"density_birds_km3":2.476875,"heading_deg":164.16599133634668,"speed_ms":14.54041102884861,"peak_altitude_m":0.0,"u_ms":3.8719887669134545,"v_ms":-13.997074291549655}},{"type":"Feature","geometry":{"type":"Point","coordinates":[-86.5625,36.2472]},"properties":{"site":"KOHX","name":"Nashville TN","scan_time":"2026-09-25T09:00:37Z","stale":false,"bins":25,"density_birds_km3":100.54133333333333,"heading_deg":217.4052226229511,"speed_ms":10.6209286396308,"peak_altitude_m":200.0,"u_ms":-6.04218868525051,"v_ms":-7.765849998673846}},{"type":"Feature","geometry":{"type":"Point","coordinates":[-72.8639,40.8655]},"properties":{"site":"KOKX","name":"Upton NY","scan_time":"2026-09-25T08:58:27Z","stale":false,"bins":25,"density_birds_km3":0.12866666666666665,"heading_deg":225.55330831165648,"speed_ms":11.435925925925925,"peak_altitude_m":0.0,"u_ms":-8.314907407407407,"v_ms":-7.751203703703703}},{"type":"Feature","geometry":{"type":"Point","coordinates":[-80.2183,40.5317]},"properties":{"site":"KPBZ","name":"Pittsburgh PA","scan_time":"2026-09-25T09:03:17Z","stale":false,"bins":25,"density_birds_km3":12.537142857142857,"heading_deg":228.424752947601,"speed_ms":13.742687043795621,"peak_altitude_m":400.0,"u_ms":-10.207952782846716,"v_ms":-9.02544308850365}},{"type":"Feature","geometry":{"type":"Point","coordinates":[-78.4899,35.6655]},"properties":{"site":"KRAX","name":"Raleigh NC","scan_time":"2026-09-25T09:03:28Z","stale":false,"bins":25,"density_birds_km3":21.92625,"heading_deg":193.2271854315277,"speed_ms":17.989474644394402,"peak_altitude_m":200.0,"u_ms":-4.709304751859981,"v_ms":-17.162641885921154}},{"type":"Feature","geometry":{"type":"Point","coordinates":[-82.4017,27.7055]},"properties":{"site":"KTBW","name":"Tampa FL","scan_time":"2026-09-25T08:58:53Z","stale":false,"bins":25,"density_birds_km3":1.068125,"heading_deg":195.22276835668484,"speed_ms":9.028741217798595,"peak_altitude_m":0.0,"u_ms":-2.1700292740046834,"v_ms":-8.654332552693207}}]}