{"type":"FeatureCollection","frame":"2026-08-14T00","site_count":20,"fresh_count":20,"failures":{},"features":[{"type":"Feature","geometry":{"type":"Point","coordinates":[-77.0073,36.984]},"properties":{"site":"KAKQ","name":"Wakefield VA","scan_time":"2026-08-14T00:00:15Z","stale":false,"bins":25,"density_birds_km3":3.1681250000000003,"heading_deg":286.8545740615918,"speed_ms":2.4492436808846763,"peak_altitude_m":0.0,"u_ms":-2.3137598736176934,"v_ms":0.5856378357030015}},{"type":"Feature","geometry":{"type":"Point","coordinates":[-71.1369,41.9558]},"properties":{"site":"KBOX","name":"Boston MA","scan_time":"2026-08-14T00:00:16Z","stale":false,"bins":25,"density_birds_km3":1.109375,"heading_deg":153.83227793783158,"speed_ms":3.823358123569794,"peak_altitude_m":0.0,"u_ms":1.691744851258581,"v_ms":-3.420966819221968}},{"type":"Feature","geometry":{"type":"Point","coordinates":[-78.7369,42.9489]},"properties":{"site":"KBUF","name":"Buffalo NY","scan_time":"2026-08-14T00:02:28Z","stale":false,"bins":25,"density_birds_km3":0.9139999999999999,"heading_deg":79.41244841978961,"speed_ms":6.068088986141503,"peak_altitude_m":200.0,"u_ms":5.71619985412108,"v_ms":1.233158278628738}},{"type":"Feature","geometry":{"type":"Point","coordinates":[-81.8597,41.4131]},"properties":{"site":"KCLE","name":"Cleveland OH","scan_time":"2026-08-13T23:59:50Z","stale":false,"bins":25,"density_birds_km3":2.202,"heading_deg":320.2420332465381,"speed_ms":2.2558340902210117,"peak_altitude_m":200.0,"u_ms":-1.3733030578262186,"v_ms":1.6467120799273387}},{"type":"Feature","geometry":{"type":"Point","coordinates":[-81.0423,32.6555]},"properties":{"site":"KCLX","name":"Charleston SC","scan_time":"2026-08-14T00:02:17Z","stale":false,"bins":25,"density_birds_km3":1.724375,"heading_deg":315.7476940425556,"speed_ms":0.7505062362435804,"peak_altitude_m":0.0,"u_ms":-0.09328686720469553,"v_ms":-0.03957813646368302}},{"type":"Feature","geometry":{"type":"Point","coordinates":[-74.4108,39.947]},"properties":{"site":"KDIX","name":"Philadelphia PA","scan_time":"2026-08-14T00:00:50Z","stale":false,"bins":25,"density_birds_km3":0.408125,"heading_deg":302.0466700632784,"speed_ms":2.3837366003062783,"peak_altitude_m":0.0,"u_ms":-0.8897090352220521,"v_ms":0.48623277182235836}},{"type":"Feature","geometry":{"type":"Point","coordinates":[-84.5658,33.3636]},"properties":{"site":"KFFC","name":"Atlanta GA","scan_time":"2026-08-13T23:58:36Z","stale":false,"bins":25,"density_birds_km3":0.428,"heading_deg":60.509192046333816,"speed_ms":4.373598130841122,"peak_altitude_m":200.0,"u_ms":3.13601246105919,"v_ms":1.8117912772585671}},{"type":"Feature","geometry":{"type":"Point","coordinates":[-85.5449,42.8939]},"properties":{"site":"KGRR","name":"Grand Rapids MI","scan_time":"2026-08-14T00:00:06Z","stale":false,"bins":25,"density_birds_km3":0.41800000000000004,"heading_deg":269.98789384835675,"speed_ms":4.0586173633440525,"peak_altitude_m":200.0,"u_ms":-3.9785530546623793,"v_ms":0.0032958199356913106}},{"type":"Feature","geometry":{"type":"Point","coordinates":[-83.8217,39.4203]},"properties":{"site":"KILN","name":"Wilmington OH","scan_time":"2026-08-14T00:01:08Z","stale":false,"bins":25,"density_birds_km3":17.21,"heading_deg":null,"speed_ms":null,"peak_altitude_m":400.0,"u_ms":null,"v_ms":null}},{"type":"Feature","geometry":{"type":"Point","coordinates":[-81.7019,30.4846]},"properties":{"site":"KJAX","name":"Jacksonville FL","scan_time":"2026-08-13T23:58:49Z","stale":false,"bins":25,"density_birds_km3":1.69375,"heading_deg":182.34337784114376,"speed_ms":0.7789352148813341,"peak_altitude_m":0.0,"u_ms":-0.026677357280307887,"v_ms":-0.7545991019884541}},{"type":"Feature","geometry":{"type":"Point","coordinates":[-88.0847,41.6045]},"properties":{"site":"KLOT","name":"Chicago IL","scan_time":"2026-08-14T00:01:58Z","stale":false,"bins":25,"density_birds_km3":0.5226666666666666,"heading_deg":232.07137770781287,"speed_ms":6.049422336328626,"peak_altitude_m":200.0,"u_ms":-4.638652118100128,"v_ms":-3.5973684210526313}},{"type":"Feature","geometry":{"type":"Point","coordinates":[-78.4292,33.9892]},"properties":{"site":"KLTX","name":"Wilmington NC","scan_time":"2026-08-13T23:58:20Z","stale":false,"bins":25,"density_birds_km3":0.10125,"heading_deg":48.06224004206173,"speed_ms":7.6025949367088606,"peak_altitude_m":0.0,"u_ms":5.388987341772151,"v_ms":4.820379746835443}},{"type":"Feature","geometry":{"type":"Point","coordinates":[-77.4778,38.9753]},"properties":{"site":"KLWX","name":"Sterling VA","scan_time":"2026-08-14T00:00:53Z","stale":false,"bins":25,"density_birds_km3":0.949375,"heading_deg":244.2714290082573,"speed_ms":4.771543535620052,"peak_altitude_m":0.0,"u_ms":-4.1618931398416885,"v_ms":-2.0257849604221634}},{"type":"Feature","geometry":{"type":"Point","coordinates":[-76.8762,34.7759]},"properties":{"site":"KMHX","name":"Morehead City NC","scan_time":"2026-08-14T00:01:17Z","stale":false,"bins":25,"density_birds_km3":2.34,"heading_deg":23.259135589264844,"speed_ms":6.90296008572194,"peak_altitude_m":0.0,"u_ms":2.698432895794267,"v_ms":6.253402089472275}},{"type":"Feature","geometry":{"type":"Point","coordinates":[-80.6542,28.1133]},"properties":{"site":"KMLB","name":"Melbourne FL","scan_time":"2026-08-13T23:57:27Z","stale":false,"bins":25,"density_birds_km3":0.89875,"heading_deg":296.5376810888373,"speed_ms":1.2705354659248957,"peak_altitude_m":0.0,"u_ms":-0.9757510431154381,"v_ms":0.00022253129346311995}},{"type":"Feature","geometry":{"type":"Point","coordinates":[-86.5625,36.2472]},"properties":{"site":"KOHX","name":"Nashville TN","scan_time":"2026-08-14T00:00:24Z","stale":false,"bins":25,"density_birds_km3":3.9986666666666664,"heading_deg":313.297339922214,"speed_ms":1.6165538512837612,"peak_altitude_m":200.0,"u_ms":0.5666588862954318,"v_ms":0.6828692897632545}},{"type":"Feature","geometry":{"type":"Point","coordinates":[-72.8639,40.8655]},"properties":{"site":"KOKX","name":"Upton NY","scan_time":"2026-08-14T00:00:55Z","stale":false,"bins":25,"density_birds_km3":0.18625,"heading_deg":63.145935850555404,"speed_ms":5.415759717314488,"peak_altitude_m":0.0,"u_ms":4.822120141342756,"v_ms":2.4245936395759715}},{"type":"Feature","geometry":{"type":"Point","coordinates":[-80.2183,40.5317]},"properties":{"site":"KPBZ","name":"Pittsburgh PA","scan_time":"2026-08-14T00:02:21Z","stale":false,"bins":25,"density_birds_km3":0.3442857142857143,"heading_deg":144.14942294178272,"speed_ms":3.6577708333333336,"peak_altitude_m":400.0,"u_ms":2.1880833333333336,"v_ms":-2.8753749999999996}},{"type":"Feature","geometry":{"type":"Point","coordinates":[-78.4899,35.6655]},"properties":{"site":"KRAX","name":"Raleigh NC","scan_time":"2026-08-13T23:58:14Z","stale":false,"bins":25,"density_birds_km3":0.268125,"heading_deg":71.14266537098517,"speed_ms":3.212695035460993,"peak_altitude_m":0.0,"u_ms":3.00645390070922,"v_ms":0.9413475177304965}},{"type":"Feature","geometry":{"type":"Point","coordinates":[-82.4017,27.7055]},"properties":{"site":"KTBW","name":"Tampa FL","scan_time":"2026-08-14T00:00:43Z","stale":false,"bins":25,"density_birds_km3":0.683125,"heading_deg":132.96175554375955,"speed_ms":5.047035681610247,"peak_altitude_m":0.0,"u_ms":3.669624885635865,"v_ms":-3.4433760292772186}}]}