{"type":"FeatureCollection","frame":"2026-09-23T04","site_count":20,"fresh_count":20,"failures":{},"features":[{"type":"Feature","geometry":{"type":"Point","coordinates":[-77.0073,36.984]},"properties":{"site":"KAKQ","name":"Wakefield VA","scan_time":"2026-09-23T04:00:24Z","stale":false,"bins":25,"density_birds_km3":2.0407692307692304,"heading_deg":null,"speed_ms":null,"peak_altitude_m":0.0,"u_ms":null,"v_ms":null}},{"type":"Feature","geometry":{"type":"Point","coordinates":[-71.1369,41.9558]},"properties":{"site":"KBOX","name":"Boston MA","scan_time":"2026-09-23T03:56:38Z","stale":false,"bins":25,"density_birds_km3":1.010625,"heading_deg":237.41691424799563,"speed_ms":10.326332714904144,"peak_altitude_m":0.0,"u_ms":-8.730538033395177,"v_ms":-5.343364254792826}},{"type":"Feature","geometry":{"type":"Point","coordinates":[-78.7369,42.9489]},"properties":{"site":"KBUF","name":"Buffalo NY","scan_time":"2026-09-23T03:56:48Z","stale":false,"bins":25,"density_birds_km3":21.588,"heading_deg":233.0370388839581,"speed_ms":14.462421098140943,"peak_altitude_m":200.0,"u_ms":-11.500033969489223,"v_ms":-8.235821444012107}},{"type":"Feature","geometry":{"type":"Point","coordinates":[-81.8597,41.4131]},"properties":{"site":"KCLE","name":"Cleveland OH","scan_time":"2026-09-23T03:58:09Z","stale":false,"bins":25,"density_birds_km3":53.574,"heading_deg":250.7185521183677,"speed_ms":15.2549520961814,"peak_altitude_m":200.0,"u_ms":-14.272589048775929,"v_ms":-3.8473545131751075}},{"type":"Feature","geometry":{"type":"Point","coordinates":[-81.0423,32.6555]},"properties":{"site":"KCLX","name":"Charleston SC","scan_time":"2026-09-23T04:00:34Z","stale":false,"bins":25,"density_birds_km3":25.144375,"heading_deg":210.72118574655954,"speed_ms":11.09769096876865,"peak_altitude_m":200.0,"u_ms":-5.645226278098269,"v_ms":-9.41377337378158}},{"type":"Feature","geometry":{"type":"Point","coordinates":[-74.4108,39.947]},"properties":{"site":"KDIX","name":"Philadelphia PA","scan_time":"2026-09-23T03:58:08Z","stale":false,"bins":25,"density_birds_km3":27.0,"heading_deg":226.75126284530884,"speed_ms":19.216660020179695,"peak_altitude_m":600.0,"u_ms":-14.056402969298036,"v_ms":-12.918472589247106}},{"type":"Feature","geometry":{"type":"Point","coordinates":[-84.5658,33.3636]},"properties":{"site":"KFFC","name":"Atlanta GA","scan_time":"2026-09-23T03:58:32Z","stale":false,"bins":25,"density_birds_km3":71.99533333333333,"heading_deg":209.2195287333689,"speed_ms":8.903739131239986,"peak_altitude_m":1600.0,"u_ms":-2.943798764734751,"v_ms":-7.646949524506218}},{"type":"Feature","geometry":{"type":"Point","coordinates":[-85.5449,42.8939]},"properties":{"site":"KGRR","name":"Grand Rapids MI","scan_time":"2026-09-23T03:56:42Z","stale":false,"bins":25,"density_birds_km3":40.007333333333335,"heading_deg":219.3017271151774,"speed_ms":13.045929079668728,"peak_altitude_m":200.0,"u_ms":-8.433298062021963,"v_ms":-8.875733115595473}},{"type":"Feature","geometry":{"type":"Point","coordinates":[-83.8217,39.4203]},"properties":{"site":"KILN","name":"Wilmington OH","scan_time":"2026-09-23T03:57:26Z","stale":false,"bins":25,"density_birds_km3":22.536923076923078,"heading_deg":183.85055662980437,"speed_ms":9.19315299212869,"peak_altitude_m":200.0,"u_ms":-0.30332519850135786,"v_ms":-7.736677895026294}},{"type":"Feature","geometry":{"type":"Point","coordinates":[-81.7019,30.4846]},"properties":{"site":"KJAX","name":"Jacksonville FL","scan_time":"2026-09-23T04:00:58Z","stale":false,"bins":25,"density_birds_km3":32.13125,"heading_deg":192.5580036310441,"speed_ms":9.141345069052713,"peak_altitude_m":0.0,"u_ms":-1.9396862478117096,"v_ms":-8.896958568371913}},{"type":"Feature","geometry":{"type":"Point","coordinates":[-88.0847,41.6045]},"properties":{"site":"KLOT","name":"Chicago IL","scan_time":"2026-09-23T03:57:12Z","stale":false,"bins":25,"density_birds_km3":64.69133333333333,"heading_deg":191.77948751696175,"speed_ms":8.464407525194117,"peak_altitude_m":200.0,"u_ms":-2.0831603130679004,"v_ms":-6.979100033041467}},{"type":"Feature","geometry":{"type":"Point","coordinates":[-78.4292,33.9892]},"properties":{"site":"KLTX","name":"Wilmington NC","scan_time":"2026-09-23T03:58:39Z","stale":false,"bins":25,"density_birds_km3":13.353125,"heading_deg":202.6491513787601,"speed_ms":11.717253451907325,"peak_altitude_m":200.0,"u_ms":-4.805389187924175,"v_ms":-10.455198689445355}},{"type":"Feature","geometry":{"type":"Point","coordinates":[-77.4778,38.9753]},"properties":{"site":"KLWX","name":"Sterling VA","scan_time":"2026-09-23T04:01:28Z","stale":false,"bins":25,"density_birds_km3":47.13384615384616,"heading_deg":201.1,"speed_ms":11.76,"peak_altitude_m":200.0,"u_ms":-4.24,"v_ms":-10.97}},{"type":"Feature","geometry":{"type":"Point","coordinates":[-76.8762,34.7759]},"properties":{"site":"KMHX","name":"Morehead City NC","scan_time":"2026-09-23T03:57:57Z","stale":false,"bins":25,"density_birds_km3":2.96375,"heading_deg":198.75798795803232,"speed_ms":12.197728327357098,"peak_altitude_m":200.0,"u_ms":-3.929500105462982,"v_ms":-11.346933136469099}},{"type":"Feature","geometry":{"type":"Point","coordinates":[-80.6542,28.1133]},"properties":{"site":"KMLB","name":"Melbourne FL","scan_time":"2026-09-23T04:01:44Z","stale":false,"bins":25,"density_birds_km3":7.319375,"heading_deg":141.21975102608914,"speed_ms":3.7019050465374437,"peak_altitude_m":0.0,"u_ms":2.279783109896678,"v_ms":-2.8840295448723423}},{"type":"Feature","geometry":{"type":"Point","coordinates":[-86.5625,36.2472]},"properties":{"site":"KOHX","name":"Nashville TN","scan_time":"2026-09-23T03:58:12Z","stale":false,"bins":25,"density_birds_km3":57.019999999999996,"heading_deg":217.5456514599818,"speed_ms":8.230519011317933,"peak_altitude_m":400.0,"u_ms":-4.994885066878683,"v_ms":-6.245311360022448}},{"type":"Feature","geometry":{"type":"Point","coordinates":[-72.8639,40.8655]},"properties":{"site":"KOKX","name":"Upton NY","scan_time":"2026-09-23T04:00:20Z","stale":false,"bins":25,"density_birds_km3":5.389375,"heading_deg":241.1602886761696,"speed_ms":17.95671541318477,"peak_altitude_m":200.0,"u_ms":-15.732450092850511,"v_ms":-8.503263695450324}},{"type":"Feature","geometry":{"type":"Point","coordinates":[-80.2183,40.5317]},"properties":{"site":"KPBZ","name":"Pittsburgh PA","scan_time":"2026-09-23T04:01:10Z","stale":false,"bins":25,"density_birds_km3":36.386428571428574,"heading_deg":247.15372485695286,"speed_ms":14.892712353507,"peak_altitude_m":400.0,"u_ms":-13.37496005182466,"v_ms":-5.191426748591508}},{"type":"Feature","geometry":{"type":"Point","coordinates":[-78.4899,35.6655]},"properties":{"site":"KRAX","name":"Raleigh NC","scan_time":"2026-09-23T04:00:30Z","stale":false,"bins":25,"density_birds_km3":11.426874999999999,"heading_deg":205.29455450816565,"speed_ms":9.327882500957278,"peak_altitude_m":200.0,"u_ms":-4.020632350527871,"v_ms":-8.376330069471036}},{"type":"Feature","geometry":{"type":"Point","coordinates":[-82.4017,27.7055]},"properties":{"site":"KTBW","name":"Tampa FL","scan_time":"2026-09-23T03:57:09Z","stale":false,"bins":25,"density_birds_km3":12.050625,"heading_deg":210.46011297897903,"speed_ms":5.449595975312484,"peak_altitude_m":0.0,"u_ms":-2.506425496602873,"v_ms":-4.741575125771485}}]}