{"type":"FeatureCollection","frame":"2026-09-02T03","site_count":20,"fresh_count":20,"failures":{},"features":[{"type":"Feature","geometry":{"type":"Point","coordinates":[-77.0073,36.984]},"properties":{"site":"KAKQ","name":"Wakefield VA","scan_time":"2026-09-02T03:02:22Z","stale":false,"bins":25,"density_birds_km3":9.05375,"heading_deg":75.87868144298788,"speed_ms":7.362611486952919,"peak_altitude_m":200.0,"u_ms":2.288869943393621,"v_ms":-0.2910423857517603}},{"type":"Feature","geometry":{"type":"Point","coordinates":[-71.1369,41.9558]},"properties":{"site":"KBOX","name":"Boston MA","scan_time":"2026-09-02T02:58:12Z","stale":false,"bins":25,"density_birds_km3":3.58375,"heading_deg":228.01313254302653,"speed_ms":6.339211306927238,"peak_altitude_m":200.0,"u_ms":-4.3563426976094926,"v_ms":-3.765515616820799}},{"type":"Feature","geometry":{"type":"Point","coordinates":[-78.7369,42.9489]},"properties":{"site":"KBUF","name":"Buffalo NY","scan_time":"2026-09-02T02:57:20Z","stale":false,"bins":25,"density_birds_km3":11.017333333333333,"heading_deg":130.3705180471987,"speed_ms":4.005798741377224,"peak_altitude_m":200.0,"u_ms":1.0881035943361976,"v_ms":-2.022457945056275}},{"type":"Feature","geometry":{"type":"Point","coordinates":[-81.8597,41.4131]},"properties":{"site":"KCLE","name":"Cleveland OH","scan_time":"2026-09-02T02:59:27Z","stale":false,"bins":25,"density_birds_km3":8.851333333333335,"heading_deg":131.10371213281363,"speed_ms":14.182007230549068,"peak_altitude_m":400.0,"u_ms":10.089983429991713,"v_ms":-9.536739474278827}},{"type":"Feature","geometry":{"type":"Point","coordinates":[-81.0423,32.6555]},"properties":{"site":"KCLX","name":"Charleston SC","scan_time":"2026-09-02T02:59:04Z","stale":false,"bins":25,"density_birds_km3":8.36,"heading_deg":235.95304207941624,"speed_ms":9.569943357752436,"peak_altitude_m":0.0,"u_ms":-5.140127633864512,"v_ms":-6.011734008005438}},{"type":"Feature","geometry":{"type":"Point","coordinates":[-74.4108,39.947]},"properties":{"site":"KDIX","name":"Philadelphia PA","scan_time":"2026-09-02T03:01:41Z","stale":false,"bins":25,"density_birds_km3":7.561249999999999,"heading_deg":198.27217966069782,"speed_ms":4.486385201920362,"peak_altitude_m":200.0,"u_ms":-1.523110232514356,"v_ms":-3.781253883083875}},{"type":"Feature","geometry":{"type":"Point","coordinates":[-84.5658,33.3636]},"properties":{"site":"KFFC","name":"Atlanta GA","scan_time":"2026-09-02T02:59:00Z","stale":false,"bins":25,"density_birds_km3":46.09666666666667,"heading_deg":206.7998518050953,"speed_ms":5.373192421722466,"peak_altitude_m":1600.0,"u_ms":-2.7082591655217296,"v_ms":-4.434696073468797}},{"type":"Feature","geometry":{"type":"Point","coordinates":[-85.5449,42.8939]},"properties":{"site":"KGRR","name":"Grand Rapids MI","scan_time":"2026-09-02T02:58:09Z","stale":false,"bins":25,"density_birds_km3":29.243333333333332,"heading_deg":144.21341179734947,"speed_ms":6.209902412330703,"peak_altitude_m":200.0,"u_ms":3.489486524693328,"v_ms":-4.277904601213005}},{"type":"Feature","geometry":{"type":"Point","coordinates":[-83.8217,39.4203]},"properties":{"site":"KILN","name":"Wilmington OH","scan_time":"2026-09-02T02:58:42Z","stale":false,"bins":25,"density_birds_km3":5.615333333333334,"heading_deg":121.27026680692445,"speed_ms":9.51808975424433,"peak_altitude_m":1800.0,"u_ms":6.466570105663066,"v_ms":-4.073672088329574}},{"type":"Feature","geometry":{"type":"Point","coordinates":[-81.7019,30.4846]},"properties":{"site":"KJAX","name":"Jacksonville FL","scan_time":"2026-09-02T02:57:04Z","stale":false,"bins":25,"density_birds_km3":18.414375,"heading_deg":196.62025793887116,"speed_ms":9.340438989610918,"peak_altitude_m":0.0,"u_ms":-2.6943837848849053,"v_ms":-8.916398791335642}},{"type":"Feature","geometry":{"type":"Point","coordinates":[-88.0847,41.6045]},"properties":{"site":"KLOT","name":"Chicago IL","scan_time":"2026-09-02T02:59:31Z","stale":false,"bins":25,"density_birds_km3":20.723333333333336,"heading_deg":93.38092882693647,"speed_ms":11.222543348882096,"peak_altitude_m":200.0,"u_ms":10.716684896252211,"v_ms":-1.1747785105356279}},{"type":"Feature","geometry":{"type":"Point","coordinates":[-78.4292,33.9892]},"properties":{"site":"KLTX","name":"Wilmington NC","scan_time":"2026-09-02T03:00:12Z","stale":false,"bins":25,"density_birds_km3":3.535625,"heading_deg":254.59033685016925,"speed_ms":7.6754729729729725,"peak_altitude_m":200.0,"u_ms":-1.9604694167852061,"v_ms":-2.8322403982930298}},{"type":"Feature","geometry":{"type":"Point","coordinates":[-77.4778,38.9753]},"properties":{"site":"KLWX","name":"Sterling VA","scan_time":"2026-09-02T03:01:52Z","stale":false,"bins":25,"density_birds_km3":11.63875,"heading_deg":157.02332432295808,"speed_ms":10.683811620663732,"peak_altitude_m":0.0,"u_ms":3.500340457523359,"v_ms":-9.71468639243905}},{"type":"Feature","geometry":{"type":"Point","coordinates":[-76.8762,34.7759]},"properties":{"site":"KMHX","name":"Morehead City NC","scan_time":"2026-09-02T02:58:55Z","stale":false,"bins":25,"density_birds_km3":1.243125,"heading_deg":61.74448585189544,"speed_ms":7.274298642533936,"peak_altitude_m":0.0,"u_ms":2.143529411764706,"v_ms":1.0375766716943184}},{"type":"Feature","geometry":{"type":"Point","coordinates":[-80.6542,28.1133]},"properties":{"site":"KMLB","name":"Melbourne FL","scan_time":"2026-09-02T02:58:17Z","stale":false,"bins":25,"density_birds_km3":7.62875,"heading_deg":168.2076319781512,"speed_ms":10.268738834712776,"peak_altitude_m":0.0,"u_ms":2.0959198557731704,"v_ms":-10.030027862001148}},{"type":"Feature","geometry":{"type":"Point","coordinates":[-86.5625,36.2472]},"properties":{"site":"KOHX","name":"Nashville TN","scan_time":"2026-09-02T02:58:32Z","stale":false,"bins":25,"density_birds_km3":21.753333333333334,"heading_deg":348.4432137931781,"speed_ms":1.5433018694452958,"peak_altitude_m":200.0,"u_ms":-0.27400122586576764,"v_ms":-0.11374471345387681}},{"type":"Feature","geometry":{"type":"Point","coordinates":[-72.8639,40.8655]},"properties":{"site":"KOKX","name":"Upton NY","scan_time":"2026-09-02T02:59:53Z","stale":false,"bins":25,"density_birds_km3":1.6925000000000001,"heading_deg":261.27805007062295,"speed_ms":7.196358475263586,"peak_altitude_m":0.0,"u_ms":-7.093187347931874,"v_ms":-1.0842741281427413}},{"type":"Feature","geometry":{"type":"Point","coordinates":[-80.2183,40.5317]},"properties":{"site":"KPBZ","name":"Pittsburgh PA","scan_time":"2026-09-02T02:57:51Z","stale":false,"bins":25,"density_birds_km3":9.140714285714285,"heading_deg":117.10473904204103,"speed_ms":11.815241119736534,"peak_altitude_m":600.0,"u_ms":9.541235787657806,"v_ms":-5.8765168979847875}},{"type":"Feature","geometry":{"type":"Point","coordinates":[-78.4899,35.6655]},"properties":{"site":"KRAX","name":"Raleigh NC","scan_time":"2026-09-02T03:02:27Z","stale":false,"bins":25,"density_birds_km3":14.851875,"heading_deg":144.505230371244,"speed_ms":8.466332112948702,"peak_altitude_m":200.0,"u_ms":1.4048689138576782,"v_ms":-3.6338867146404072}},{"type":"Feature","geometry":{"type":"Point","coordinates":[-82.4017,27.7055]},"properties":{"site":"KTBW","name":"Tampa FL","scan_time":"2026-09-02T03:02:57Z","stale":false,"bins":25,"density_birds_km3":17.900625,"heading_deg":206.68682952309297,"speed_ms":4.700645927167347,"peak_altitude_m":0.0,"u_ms":-2.298892496770364,"v_ms":-3.9290845291714667}}]}