{"type":"FeatureCollection","frame":"2026-08-12T09","site_count":20,"fresh_count":20,"failures":{},"features":[{"type":"Feature","geometry":{"type":"Point","coordinates":[-77.0073,36.984]},"properties":{"site":"KAKQ","name":"Wakefield VA","scan_time":"2026-08-12T08:56:29Z","stale":false,"bins":25,"density_birds_km3":5.125,"heading_deg":182.47085211421094,"speed_ms":8.509358380092705,"peak_altitude_m":200.0,"u_ms":-0.3987460356184435,"v_ms":-8.386536960234203}},{"type":"Feature","geometry":{"type":"Point","coordinates":[-71.1369,41.9558]},"properties":{"site":"KBOX","name":"Boston MA","scan_time":"2026-08-12T09:01:36Z","stale":false,"bins":25,"density_birds_km3":1.815,"heading_deg":170.83269646509623,"speed_ms":7.704109396914445,"peak_altitude_m":0.0,"u_ms":1.200273492286115,"v_ms":-7.550988779803647}},{"type":"Feature","geometry":{"type":"Point","coordinates":[-78.7369,42.9489]},"properties":{"site":"KBUF","name":"Buffalo NY","scan_time":"2026-08-12T08:58:05Z","stale":false,"bins":25,"density_birds_km3":1.4293333333333333,"heading_deg":193.24256673547353,"speed_ms":2.6818438697318006,"peak_altitude_m":200.0,"u_ms":0.6502298850574713,"v_ms":-0.40705459770114955}},{"type":"Feature","geometry":{"type":"Point","coordinates":[-81.8597,41.4131]},"properties":{"site":"KCLE","name":"Cleveland OH","scan_time":"2026-08-12T09:02:40Z","stale":false,"bins":25,"density_birds_km3":0.9033333333333332,"heading_deg":16.867090964380207,"speed_ms":5.490405904059041,"peak_altitude_m":200.0,"u_ms":1.664959409594096,"v_ms":3.4463985239852404}},{"type":"Feature","geometry":{"type":"Point","coordinates":[-81.0423,32.6555]},"properties":{"site":"KCLX","name":"Charleston SC","scan_time":"2026-08-12T09:01:43Z","stale":false,"bins":25,"density_birds_km3":7.26375,"heading_deg":170.4290765016662,"speed_ms":7.480097304744683,"peak_altitude_m":0.0,"u_ms":1.5962404202187204,"v_ms":-7.098097821407044}},{"type":"Feature","geometry":{"type":"Point","coordinates":[-74.4108,39.947]},"properties":{"site":"KDIX","name":"Philadelphia PA","scan_time":"2026-08-12T08:59:05Z","stale":false,"bins":25,"density_birds_km3":2.643125,"heading_deg":190.50342461859677,"speed_ms":8.501451414514145,"peak_altitude_m":400.0,"u_ms":-1.688359163591636,"v_ms":-8.280223862238623}},{"type":"Feature","geometry":{"type":"Point","coordinates":[-84.5658,33.3636]},"properties":{"site":"KFFC","name":"Atlanta GA","scan_time":"2026-08-12T08:59:11Z","stale":false,"bins":25,"density_birds_km3":7.072,"heading_deg":263.0011431379732,"speed_ms":2.284983031674208,"peak_altitude_m":600.0,"u_ms":-1.09609068627451,"v_ms":0.06715969079939665}},{"type":"Feature","geometry":{"type":"Point","coordinates":[-85.5449,42.8939]},"properties":{"site":"KGRR","name":"Grand Rapids MI","scan_time":"2026-08-12T09:01:41Z","stale":false,"bins":25,"density_birds_km3":1.0886666666666664,"heading_deg":285.50140638147025,"speed_ms":2.724004898958971,"peak_altitude_m":400.0,"u_ms":-1.5895958358848747,"v_ms":-0.2993570116350276}},{"type":"Feature","geometry":{"type":"Point","coordinates":[-83.8217,39.4203]},"properties":{"site":"KILN","name":"Wilmington OH","scan_time":"2026-08-12T09:01:47Z","stale":false,"bins":25,"density_birds_km3":4.76875,"heading_deg":132.4,"speed_ms":5.02,"peak_altitude_m":400.0,"u_ms":3.7100000000000004,"v_ms":-3.38}},{"type":"Feature","geometry":{"type":"Point","coordinates":[-81.7019,30.4846]},"properties":{"site":"KJAX","name":"Jacksonville FL","scan_time":"2026-08-12T09:01:38Z","stale":false,"bins":25,"density_birds_km3":10.431875,"heading_deg":149.6873370885653,"speed_ms":8.826736564615661,"peak_altitude_m":0.0,"u_ms":4.352715235755797,"v_ms":-7.640695584446709}},{"type":"Feature","geometry":{"type":"Point","coordinates":[-88.0847,41.6045]},"properties":{"site":"KLOT","name":"Chicago IL","scan_time":"2026-08-12T08:59:03Z","stale":false,"bins":25,"density_birds_km3":1.3126666666666666,"heading_deg":74.96143307316592,"speed_ms":6.200345352971051,"peak_altitude_m":200.0,"u_ms":5.354997460639918,"v_ms":0.10794311833417994}},{"type":"Feature","geometry":{"type":"Point","coordinates":[-78.4292,33.9892]},"properties":{"site":"KLTX","name":"Wilmington NC","scan_time":"2026-08-12T08:58:47Z","stale":false,"bins":25,"density_birds_km3":11.22375,"heading_deg":207.12812000626658,"speed_ms":5.746999888616618,"peak_altitude_m":0.0,"u_ms":-2.7661734239251503,"v_ms":-4.636350523501894}},{"type":"Feature","geometry":{"type":"Point","coordinates":[-77.4778,38.9753]},"properties":{"site":"KLWX","name":"Sterling VA","scan_time":"2026-08-12T08:59:58Z","stale":false,"bins":25,"density_birds_km3":2.454375,"heading_deg":171.31898102414266,"speed_ms":7.642512188863229,"peak_altitude_m":600.0,"u_ms":1.0747677700795484,"v_ms":-7.47886066204773}},{"type":"Feature","geometry":{"type":"Point","coordinates":[-76.8762,34.7759]},"properties":{"site":"KMHX","name":"Morehead City NC","scan_time":"2026-08-12T09:01:39Z","stale":false,"bins":25,"density_birds_km3":2.90375,"heading_deg":86.84351077983229,"speed_ms":3.4798945329315543,"peak_altitude_m":0.0,"u_ms":3.3242337494619023,"v_ms":-0.3819156263452431}},{"type":"Feature","geometry":{"type":"Point","coordinates":[-80.6542,28.1133]},"properties":{"site":"KMLB","name":"Melbourne FL","scan_time":"2026-08-12T08:58:06Z","stale":false,"bins":25,"density_birds_km3":4.786875,"heading_deg":75.44746220198132,"speed_ms":4.112490206320189,"peak_altitude_m":0.0,"u_ms":3.270568033429094,"v_ms":0.8217563332462785}},{"type":"Feature","geometry":{"type":"Point","coordinates":[-86.5625,36.2472]},"properties":{"site":"KOHX","name":"Nashville TN","scan_time":"2026-08-12T08:59:15Z","stale":false,"bins":25,"density_birds_km3":7.172666666666667,"heading_deg":36.99383005205445,"speed_ms":8.05405892740961,"peak_altitude_m":200.0,"u_ms":4.536355609257366,"v_ms":4.779384701180407}},{"type":"Feature","geometry":{"type":"Point","coordinates":[-72.8639,40.8655]},"properties":{"site":"KOKX","name":"Upton NY","scan_time":"2026-08-12T09:01:02Z","stale":false,"bins":25,"density_birds_km3":1.575,"heading_deg":177.83785092210573,"speed_ms":8.219717131474104,"peak_altitude_m":0.0,"u_ms":0.2547051792828685,"v_ms":-8.028171314741035}},{"type":"Feature","geometry":{"type":"Point","coordinates":[-80.2183,40.5317]},"properties":{"site":"KPBZ","name":"Pittsburgh PA","scan_time":"2026-08-12T08:59:28Z","stale":false,"bins":25,"density_birds_km3":3.032857142857143,"heading_deg":160.5740810006976,"speed_ms":4.572756820877817,"peak_altitude_m":800.0,"u_ms":1.0461660735468565,"v_ms":-3.7671625148279952}},{"type":"Feature","geometry":{"type":"Point","coordinates":[-78.4899,35.6655]},"properties":{"site":"KRAX","name":"Raleigh NC","scan_time":"2026-08-12T08:58:01Z","stale":false,"bins":25,"density_birds_km3":3.469375,"heading_deg":161.45975405731247,"speed_ms":5.110005404431633,"peak_altitude_m":200.0,"u_ms":2.147683300306251,"v_ms":-4.444492884165016}},{"type":"Feature","geometry":{"type":"Point","coordinates":[-82.4017,27.7055]},"properties":{"site":"KTBW","name":"Tampa FL","scan_time":"2026-08-12T09:02:58Z","stale":false,"bins":25,"density_birds_km3":5.888125,"heading_deg":263.3468606432841,"speed_ms":3.1787113894491035,"peak_altitude_m":0.0,"u_ms":-2.051903194989916,"v_ms":-0.710185755227683}}]}