{"type":"FeatureCollection","frame":"2026-10-01T01","site_count":20,"fresh_count":20,"failures":{},"features":[{"type":"Feature","geometry":{"type":"Point","coordinates":[-77.0073,36.984]},"properties":{"site":"KAKQ","name":"Wakefield VA","scan_time":"2026-10-01T00:58:59Z","stale":false,"bins":25,"density_birds_km3":25.591875,"heading_deg":292.40092228410157,"speed_ms":6.533291723666211,"peak_altitude_m":0.0,"u_ms":-3.6775754836818444,"v_ms":1.4689266171584912}},{"type":"Feature","geometry":{"type":"Point","coordinates":[-71.1369,41.9558]},"properties":{"site":"KBOX","name":"Boston MA","scan_time":"2026-10-01T01:02:31Z","stale":false,"bins":25,"density_birds_km3":8.40375,"heading_deg":72.93223057491103,"speed_ms":6.29654613095238,"peak_altitude_m":0.0,"u_ms":5.447889136904761,"v_ms":1.327861607142857}},{"type":"Feature","geometry":{"type":"Point","coordinates":[-78.7369,42.9489]},"properties":{"site":"KBUF","name":"Buffalo NY","scan_time":"2026-10-01T01:01:38Z","stale":false,"bins":25,"density_birds_km3":1.1346666666666667,"heading_deg":37.87936739891323,"speed_ms":7.368303886925795,"peak_altitude_m":200.0,"u_ms":4.533928150765606,"v_ms":5.701643109540635}},{"type":"Feature","geometry":{"type":"Point","coordinates":[-81.8597,41.4131]},"properties":{"site":"KCLE","name":"Cleveland OH","scan_time":"2026-10-01T01:02:17Z","stale":false,"bins":25,"density_birds_km3":8.883333333333333,"heading_deg":null,"speed_ms":null,"peak_altitude_m":200.0,"u_ms":null,"v_ms":null}},{"type":"Feature","geometry":{"type":"Point","coordinates":[-81.0423,32.6555]},"properties":{"site":"KCLX","name":"Charleston SC","scan_time":"2026-10-01T00:59:40Z","stale":false,"bins":25,"density_birds_km3":10.5375,"heading_deg":289.77503793825065,"speed_ms":5.9571644803229065,"peak_altitude_m":0.0,"u_ms":-4.990144239330444,"v_ms":1.8622033596486023}},{"type":"Feature","geometry":{"type":"Point","coordinates":[-74.4108,39.947]},"properties":{"site":"KDIX","name":"Philadelphia PA","scan_time":"2026-10-01T01:01:56Z","stale":false,"bins":25,"density_birds_km3":18.406875,"heading_deg":64.73916630467254,"speed_ms":5.334100309008794,"peak_altitude_m":200.0,"u_ms":2.1508855988318785,"v_ms":1.9137522496519404}},{"type":"Feature","geometry":{"type":"Point","coordinates":[-84.5658,33.3636]},"properties":{"site":"KFFC","name":"Atlanta GA","scan_time":"2026-10-01T01:01:33Z","stale":false,"bins":25,"density_birds_km3":28.292666666666666,"heading_deg":285.3386486172412,"speed_ms":7.285609359536265,"peak_altitude_m":400.0,"u_ms":-6.619355530420849,"v_ms":1.651944719355295}},{"type":"Feature","geometry":{"type":"Point","coordinates":[-85.5449,42.8939]},"properties":{"site":"KGRR","name":"Grand Rapids MI","scan_time":"2026-10-01T00:57:55Z","stale":false,"bins":25,"density_birds_km3":0.17333333333333334,"heading_deg":40.92347379720766,"speed_ms":8.343361702127659,"peak_altitude_m":200.0,"u_ms":5.522510638297872,"v_ms":6.217744680851064}},{"type":"Feature","geometry":{"type":"Point","coordinates":[-83.8217,39.4203]},"properties":{"site":"KILN","name":"Wilmington OH","scan_time":"2026-10-01T01:01:20Z","stale":false,"bins":25,"density_birds_km3":10.524666666666667,"heading_deg":27.841953665915337,"speed_ms":9.990703110153925,"peak_altitude_m":200.0,"u_ms":4.41806993095585,"v_ms":7.913579527459302}},{"type":"Feature","geometry":{"type":"Point","coordinates":[-81.7019,30.4846]},"properties":{"site":"KJAX","name":"Jacksonville FL","scan_time":"2026-10-01T00:59:34Z","stale":false,"bins":25,"density_birds_km3":38.12625,"heading_deg":234.23743133122795,"speed_ms":7.283325188185709,"peak_altitude_m":0.0,"u_ms":-5.436805352837956,"v_ms":-3.9025939288584226}},{"type":"Feature","geometry":{"type":"Point","coordinates":[-88.0847,41.6045]},"properties":{"site":"KLOT","name":"Chicago IL","scan_time":"2026-10-01T00:58:44Z","stale":false,"bins":25,"density_birds_km3":0.5646666666666668,"heading_deg":23.350375611273744,"speed_ms":11.623190348525469,"peak_altitude_m":200.0,"u_ms":4.627506702412869,"v_ms":10.24538873994638}},{"type":"Feature","geometry":{"type":"Point","coordinates":[-78.4292,33.9892]},"properties":{"site":"KLTX","name":"Wilmington NC","scan_time":"2026-10-01T00:59:37Z","stale":false,"bins":25,"density_birds_km3":24.705,"heading_deg":272.9449389230978,"speed_ms":8.870702069523857,"peak_altitude_m":0.0,"u_ms":-8.555809593685169,"v_ms":0.4664410767596012}},{"type":"Feature","geometry":{"type":"Point","coordinates":[-77.4778,38.9753]},"properties":{"site":"KLWX","name":"Sterling VA","scan_time":"2026-10-01T01:02:09Z","stale":false,"bins":25,"density_birds_km3":21.073125,"heading_deg":14.657873009338303,"speed_ms":8.602018862888157,"peak_altitude_m":200.0,"u_ms":1.7058003381083726,"v_ms":7.271437257169974}},{"type":"Feature","geometry":{"type":"Point","coordinates":[-76.8762,34.7759]},"properties":{"site":"KMHX","name":"Morehead City NC","scan_time":"2026-10-01T01:01:03Z","stale":false,"bins":25,"density_birds_km3":8.1875,"heading_deg":296.03446862585145,"speed_ms":7.252581557032624,"peak_altitude_m":0.0,"u_ms":-5.777298494919398,"v_ms":2.7948101459240586}},{"type":"Feature","geometry":{"type":"Point","coordinates":[-80.6542,28.1133]},"properties":{"site":"KMLB","name":"Melbourne FL","scan_time":"2026-10-01T00:58:22Z","stale":false,"bins":25,"density_birds_km3":10.505625,"heading_deg":249.8447884117346,"speed_ms":4.382633240040493,"peak_altitude_m":0.0,"u_ms":-3.6876466384803193,"v_ms":-1.111230274519145}},{"type":"Feature","geometry":{"type":"Point","coordinates":[-86.5625,36.2472]},"properties":{"site":"KOHX","name":"Nashville TN","scan_time":"2026-10-01T00:59:33Z","stale":false,"bins":25,"density_birds_km3":20.290000000000003,"heading_deg":10.693890095827818,"speed_ms":8.622277312304913,"peak_altitude_m":400.0,"u_ms":1.5296533596188597,"v_ms":8.440863808115656}},{"type":"Feature","geometry":{"type":"Point","coordinates":[-72.8639,40.8655]},"properties":{"site":"KOKX","name":"Upton NY","scan_time":"2026-10-01T01:01:11Z","stale":false,"bins":25,"density_birds_km3":13.446250000000001,"heading_deg":313.6136332004384,"speed_ms":4.641770721956208,"peak_altitude_m":0.0,"u_ms":-0.3339133466598484,"v_ms":-0.18261819534191778}},{"type":"Feature","geometry":{"type":"Point","coordinates":[-80.2183,40.5317]},"properties":{"site":"KPBZ","name":"Pittsburgh PA","scan_time":"2026-10-01T01:00:36Z","stale":false,"bins":25,"density_birds_km3":4.507857142857143,"heading_deg":41.65702079976981,"speed_ms":7.732641419743305,"peak_altitude_m":600.0,"u_ms":5.221207415623515,"v_ms":5.207982887022659}},{"type":"Feature","geometry":{"type":"Point","coordinates":[-78.4899,35.6655]},"properties":{"site":"KRAX","name":"Raleigh NC","scan_time":"2026-10-01T00:55:55Z","stale":false,"bins":25,"density_birds_km3":35.581875,"heading_deg":352.27371223904976,"speed_ms":3.3724465998833946,"peak_altitude_m":0.0,"u_ms":-0.562042366742637,"v_ms":2.7277403226091415}},{"type":"Feature","geometry":{"type":"Point","coordinates":[-82.4017,27.7055]},"properties":{"site":"KTBW","name":"Tampa FL","scan_time":"2026-10-01T00:59:43Z","stale":false,"bins":25,"density_birds_km3":38.115625,"heading_deg":67.23158764580556,"speed_ms":3.5886630683377554,"peak_altitude_m":0.0,"u_ms":-1.3749172079407193,"v_ms":1.352697831854359}}]}