{"type":"FeatureCollection","frame":"2026-09-09T01","site_count":20,"fresh_count":20,"failures":{},"features":[{"type":"Feature","geometry":{"type":"Point","coordinates":[-77.0073,36.984]},"properties":{"site":"KAKQ","name":"Wakefield VA","scan_time":"2026-09-09T00:58:07Z","stale":false,"bins":25,"density_birds_km3":4.114375,"heading_deg":359.58738005174774,"speed_ms":4.975966514459665,"peak_altitude_m":0.0,"u_ms":-0.30445357686453567,"v_ms":2.8137884322678843}},{"type":"Feature","geometry":{"type":"Point","coordinates":[-71.1369,41.9558]},"properties":{"site":"KBOX","name":"Boston MA","scan_time":"2026-09-09T01:01:38Z","stale":false,"bins":25,"density_birds_km3":4.4018749999999995,"heading_deg":303.4270192165208,"speed_ms":4.301952225223944,"peak_altitude_m":200.0,"u_ms":-1.7161325181288214,"v_ms":2.035458552538035}},{"type":"Feature","geometry":{"type":"Point","coordinates":[-78.7369,42.9489]},"properties":{"site":"KBUF","name":"Buffalo NY","scan_time":"2026-09-09T00:57:00Z","stale":false,"bins":25,"density_birds_km3":3.5020000000000002,"heading_deg":311.68570337608816,"speed_ms":3.573854940034266,"peak_altitude_m":200.0,"u_ms":-1.849166190748144,"v_ms":2.0434627831715213}},{"type":"Feature","geometry":{"type":"Point","coordinates":[-81.8597,41.4131]},"properties":{"site":"KCLE","name":"Cleveland OH","scan_time":"2026-09-09T00:59:46Z","stale":false,"bins":25,"density_birds_km3":3.4126666666666665,"heading_deg":344.9814397683589,"speed_ms":8.361238765142634,"peak_altitude_m":200.0,"u_ms":-1.8852266510355609,"v_ms":7.453647909339586}},{"type":"Feature","geometry":{"type":"Point","coordinates":[-81.0423,32.6555]},"properties":{"site":"KCLX","name":"Charleston SC","scan_time":"2026-09-09T00:58:14Z","stale":false,"bins":25,"density_birds_km3":7.445,"heading_deg":249.35584640549678,"speed_ms":10.552701091519733,"peak_altitude_m":0.0,"u_ms":-9.839182199832075,"v_ms":-3.6787497900923594}},{"type":"Feature","geometry":{"type":"Point","coordinates":[-74.4108,39.947]},"properties":{"site":"KDIX","name":"Philadelphia PA","scan_time":"2026-09-09T01:00:33Z","stale":false,"bins":25,"density_birds_km3":11.820625,"heading_deg":5.331000169407948,"speed_ms":3.7098199107522314,"peak_altitude_m":0.0,"u_ms":-0.3723294730131747,"v_ms":0.06557214194645136}},{"type":"Feature","geometry":{"type":"Point","coordinates":[-84.5658,33.3636]},"properties":{"site":"KFFC","name":"Atlanta GA","scan_time":"2026-09-09T00:56:47Z","stale":false,"bins":25,"density_birds_km3":20.084,"heading_deg":257.1195769576854,"speed_ms":7.5698754401116055,"peak_altitude_m":400.0,"u_ms":-7.316126021391085,"v_ms":-1.5687670231847473}},{"type":"Feature","geometry":{"type":"Point","coordinates":[-85.5449,42.8939]},"properties":{"site":"KGRR","name":"Grand Rapids MI","scan_time":"2026-09-09T00:58:13Z","stale":false,"bins":25,"density_birds_km3":7.797272727272727,"heading_deg":62.5646080850032,"speed_ms":4.146052063339731,"peak_altitude_m":200.0,"u_ms":2.605014395393474,"v_ms":2.846922984644914}},{"type":"Feature","geometry":{"type":"Point","coordinates":[-83.8217,39.4203]},"properties":{"site":"KILN","name":"Wilmington OH","scan_time":"2026-09-09T00:56:36Z","stale":false,"bins":25,"density_birds_km3":5.234,"heading_deg":30.60064501197161,"speed_ms":8.134351851851852,"peak_altitude_m":200.0,"u_ms":3.9296566358024694,"v_ms":6.217694187242798}},{"type":"Feature","geometry":{"type":"Point","coordinates":[-81.7019,30.4846]},"properties":{"site":"KJAX","name":"Jacksonville FL","scan_time":"2026-09-09T00:59:59Z","stale":false,"bins":25,"density_birds_km3":30.643125,"heading_deg":202.43678296651888,"speed_ms":11.592531513890588,"peak_altitude_m":0.0,"u_ms":-4.494032350181536,"v_ms":-10.586306449638968}},{"type":"Feature","geometry":{"type":"Point","coordinates":[-88.0847,41.6045]},"properties":{"site":"KLOT","name":"Chicago IL","scan_time":"2026-09-09T01:00:47Z","stale":false,"bins":25,"density_birds_km3":2.7666666666666666,"heading_deg":20.43341722941458,"speed_ms":10.801552181248493,"peak_altitude_m":200.0,"u_ms":3.9590768859966254,"v_ms":9.694051578693662}},{"type":"Feature","geometry":{"type":"Point","coordinates":[-78.4292,33.9892]},"properties":{"site":"KLTX","name":"Wilmington NC","scan_time":"2026-09-09T01:02:06Z","stale":false,"bins":25,"density_birds_km3":8.21375,"heading_deg":238.0095130940124,"speed_ms":9.452421429114983,"peak_altitude_m":0.0,"u_ms":-6.9100395708089195,"v_ms":-4.916136519290769}},{"type":"Feature","geometry":{"type":"Point","coordinates":[-77.4778,38.9753]},"properties":{"site":"KLWX","name":"Sterling VA","scan_time":"2026-09-09T00:58:20Z","stale":false,"bins":25,"density_birds_km3":12.10625,"heading_deg":21.50943441895066,"speed_ms":7.115088967971531,"peak_altitude_m":0.0,"u_ms":2.3633849696462215,"v_ms":6.553570232363408}},{"type":"Feature","geometry":{"type":"Point","coordinates":[-76.8762,34.7759]},"properties":{"site":"KMHX","name":"Morehead City NC","scan_time":"2026-09-09T00:57:12Z","stale":false,"bins":25,"density_birds_km3":12.933125,"heading_deg":246.99983340729295,"speed_ms":6.020866959841492,"peak_altitude_m":0.0,"u_ms":-5.2328009471802055,"v_ms":-2.1638520272555937}},{"type":"Feature","geometry":{"type":"Point","coordinates":[-80.6542,28.1133]},"properties":{"site":"KMLB","name":"Melbourne FL","scan_time":"2026-09-09T00:59:23Z","stale":false,"bins":25,"density_birds_km3":18.021874999999998,"heading_deg":189.52334600552,"speed_ms":7.4510680217836205,"peak_altitude_m":0.0,"u_ms":-1.2081126643310554,"v_ms":-7.2901578271879}},{"type":"Feature","geometry":{"type":"Point","coordinates":[-86.5625,36.2472]},"properties":{"site":"KOHX","name":"Nashville TN","scan_time":"2026-09-09T00:58:40Z","stale":false,"bins":25,"density_birds_km3":9.283333333333333,"heading_deg":6.3835979931271165,"speed_ms":7.308431739631336,"peak_altitude_m":200.0,"u_ms":0.7955285138248849,"v_ms":7.211636664746544}},{"type":"Feature","geometry":{"type":"Point","coordinates":[-72.8639,40.8655]},"properties":{"site":"KOKX","name":"Upton NY","scan_time":"2026-09-09T01:01:36Z","stale":false,"bins":25,"density_birds_km3":3.1425,"heading_deg":146.40142944515893,"speed_ms":5.7144117045222025,"peak_altitude_m":0.0,"u_ms":-0.08847145488029466,"v_ms":-2.027204829138531}},{"type":"Feature","geometry":{"type":"Point","coordinates":[-80.2183,40.5317]},"properties":{"site":"KPBZ","name":"Pittsburgh PA","scan_time":"2026-09-09T01:00:27Z","stale":false,"bins":25,"density_birds_km3":4.589285714285714,"heading_deg":19.719016220230852,"speed_ms":6.248964709556526,"peak_altitude_m":400.0,"u_ms":1.4459946908182384,"v_ms":4.294481574016239}},{"type":"Feature","geometry":{"type":"Point","coordinates":[-78.4899,35.6655]},"properties":{"site":"KRAX","name":"Raleigh NC","scan_time":"2026-09-09T00:56:10Z","stale":false,"bins":25,"density_birds_km3":18.285,"heading_deg":270.4061769288029,"speed_ms":4.438624286153952,"peak_altitude_m":200.0,"u_ms":-3.2517190438737478,"v_ms":-0.08371918065861911}},{"type":"Feature","geometry":{"type":"Point","coordinates":[-82.4017,27.7055]},"properties":{"site":"KTBW","name":"Tampa FL","scan_time":"2026-09-09T01:01:40Z","stale":false,"bins":25,"density_birds_km3":22.81125,"heading_deg":194.32024639489885,"speed_ms":5.317794399693134,"peak_altitude_m":0.0,"u_ms":-1.1211019781905858,"v_ms":-5.111780919502438}}]}