{"type":"FeatureCollection","frame":"2026-10-01T12","site_count":20,"fresh_count":20,"failures":{},"features":[{"type":"Feature","geometry":{"type":"Point","coordinates":[-77.0073,36.984]},"properties":{"site":"KAKQ","name":"Wakefield VA","scan_time":"2026-10-01T12:01:48Z","stale":false,"bins":25,"density_birds_km3":0.1275,"heading_deg":54.36822094824518,"speed_ms":5.775940594059406,"peak_altitude_m":0.0,"u_ms":3.9889108910891093,"v_ms":2.951881188118812}},{"type":"Feature","geometry":{"type":"Point","coordinates":[-71.1369,41.9558]},"properties":{"site":"KBOX","name":"Boston MA","scan_time":"2026-10-01T12:02:32Z","stale":false,"bins":25,"density_birds_km3":2.033125,"heading_deg":272.49748117771463,"speed_ms":4.125204426683061,"peak_altitude_m":0.0,"u_ms":-4.045533353827236,"v_ms":0.024949277589916993}},{"type":"Feature","geometry":{"type":"Point","coordinates":[-78.7369,42.9489]},"properties":{"site":"KBUF","name":"Buffalo NY","scan_time":"2026-10-01T11:57:03Z","stale":false,"bins":25,"density_birds_km3":2.0286666666666666,"heading_deg":30.62244213663994,"speed_ms":8.237611842105263,"peak_altitude_m":200.0,"u_ms":4.215907894736842,"v_ms":7.052243421052632}},{"type":"Feature","geometry":{"type":"Point","coordinates":[-81.8597,41.4131]},"properties":{"site":"KCLE","name":"Cleveland OH","scan_time":"2026-10-01T12:00:26Z","stale":false,"bins":25,"density_birds_km3":3.3699999999999997,"heading_deg":53.970221456899395,"speed_ms":7.476028157842554,"peak_altitude_m":200.0,"u_ms":6.152805869522108,"v_ms":4.048709101725163}},{"type":"Feature","geometry":{"type":"Point","coordinates":[-81.0423,32.6555]},"properties":{"site":"KCLX","name":"Charleston SC","scan_time":"2026-10-01T11:59:11Z","stale":false,"bins":25,"density_birds_km3":2.768125,"heading_deg":241.7319898313174,"speed_ms":4.9943248133906355,"peak_altitude_m":0.0,"u_ms":-4.389102013119204,"v_ms":-2.3340149287491516}},{"type":"Feature","geometry":{"type":"Point","coordinates":[-74.4108,39.947]},"properties":{"site":"KDIX","name":"Philadelphia PA","scan_time":"2026-10-01T12:00:18Z","stale":false,"bins":25,"density_birds_km3":0.81375,"heading_deg":36.342508734715146,"speed_ms":3.7515898617511523,"peak_altitude_m":0.0,"u_ms":2.4810829493087563,"v_ms":2.040468509984639}},{"type":"Feature","geometry":{"type":"Point","coordinates":[-84.5658,33.3636]},"properties":{"site":"KFFC","name":"Atlanta GA","scan_time":"2026-10-01T12:01:24Z","stale":false,"bins":25,"density_birds_km3":2.5606666666666666,"heading_deg":332.61820558239776,"speed_ms":7.174447916666668,"peak_altitude_m":400.0,"u_ms":-3.2347916666666667,"v_ms":6.3513906250000005}},{"type":"Feature","geometry":{"type":"Point","coordinates":[-85.5449,42.8939]},"properties":{"site":"KGRR","name":"Grand Rapids MI","scan_time":"2026-10-01T11:57:05Z","stale":false,"bins":25,"density_birds_km3":2.164,"heading_deg":54.5,"speed_ms":1.25,"peak_altitude_m":200.0,"u_ms":1.02,"v_ms":0.73}},{"type":"Feature","geometry":{"type":"Point","coordinates":[-83.8217,39.4203]},"properties":{"site":"KILN","name":"Wilmington OH","scan_time":"2026-10-01T11:59:28Z","stale":false,"bins":25,"density_birds_km3":0.7473333333333333,"heading_deg":44.252741778621164,"speed_ms":8.664317573595007,"peak_altitude_m":200.0,"u_ms":6.545084745762713,"v_ms":4.385851917930419}},{"type":"Feature","geometry":{"type":"Point","coordinates":[-81.7019,30.4846]},"properties":{"site":"KJAX","name":"Jacksonville FL","scan_time":"2026-10-01T12:00:57Z","stale":false,"bins":25,"density_birds_km3":0.2175,"heading_deg":280.58336784144456,"speed_ms":5.728567164179104,"peak_altitude_m":0.0,"u_ms":-5.508388059701492,"v_ms":1.0937611940298508}},{"type":"Feature","geometry":{"type":"Point","coordinates":[-88.0847,41.6045]},"properties":{"site":"KLOT","name":"Chicago IL","scan_time":"2026-10-01T11:59:30Z","stale":false,"bins":25,"density_birds_km3":20.565714285714286,"heading_deg":null,"speed_ms":null,"peak_altitude_m":200.0,"u_ms":null,"v_ms":null}},{"type":"Feature","geometry":{"type":"Point","coordinates":[-78.4292,33.9892]},"properties":{"site":"KLTX","name":"Wilmington NC","scan_time":"2026-10-01T12:01:11Z","stale":false,"bins":25,"density_birds_km3":0.296875,"heading_deg":266.0800851234224,"speed_ms":5.000238095238095,"peak_altitude_m":0.0,"u_ms":-4.624761904761905,"v_ms":-0.4404761904761905}},{"type":"Feature","geometry":{"type":"Point","coordinates":[-77.4778,38.9753]},"properties":{"site":"KLWX","name":"Sterling VA","scan_time":"2026-10-01T11:59:57Z","stale":false,"bins":25,"density_birds_km3":3.815625,"heading_deg":298.4892578152352,"speed_ms":3.2946157627396357,"peak_altitude_m":0.0,"u_ms":-1.7279632967393088,"v_ms":0.769993445846305}},{"type":"Feature","geometry":{"type":"Point","coordinates":[-76.8762,34.7759]},"properties":{"site":"KMHX","name":"Morehead City NC","scan_time":"2026-10-01T11:59:54Z","stale":false,"bins":25,"density_birds_km3":1.1875,"heading_deg":245.8935098990156,"speed_ms":3.0644913020558775,"peak_altitude_m":200.0,"u_ms":-2.6913125988402737,"v_ms":-1.1742013705851342}},{"type":"Feature","geometry":{"type":"Point","coordinates":[-80.6542,28.1133]},"properties":{"site":"KMLB","name":"Melbourne FL","scan_time":"2026-10-01T11:57:26Z","stale":false,"bins":25,"density_birds_km3":0.960625,"heading_deg":null,"speed_ms":null,"peak_altitude_m":0.0,"u_ms":null,"v_ms":null}},{"type":"Feature","geometry":{"type":"Point","coordinates":[-86.5625,36.2472]},"properties":{"site":"KOHX","name":"Nashville TN","scan_time":"2026-10-01T11:58:16Z","stale":false,"bins":25,"density_birds_km3":1.4013333333333333,"heading_deg":354.6020314517629,"speed_ms":5.7984285714285715,"peak_altitude_m":200.0,"u_ms":-0.361352380952381,"v_ms":5.668742857142857}},{"type":"Feature","geometry":{"type":"Point","coordinates":[-72.8639,40.8655]},"properties":{"site":"KOKX","name":"Upton NY","scan_time":"2026-10-01T11:55:56Z","stale":false,"bins":25,"density_birds_km3":1.9175,"heading_deg":66.23665542446977,"speed_ms":6.26253259452412,"peak_altitude_m":0.0,"u_ms":5.7512190352020855,"v_ms":2.3209485006518906}},{"type":"Feature","geometry":{"type":"Point","coordinates":[-80.2183,40.5317]},"properties":{"site":"KPBZ","name":"Pittsburgh PA","scan_time":"2026-10-01T12:01:28Z","stale":false,"bins":25,"density_birds_km3":0.7835714285714286,"heading_deg":50.34103401234648,"speed_ms":7.9677575205104825,"peak_altitude_m":400.0,"u_ms":6.1959161349134,"v_ms":4.9443573381950765}},{"type":"Feature","geometry":{"type":"Point","coordinates":[-78.4899,35.6655]},"properties":{"site":"KRAX","name":"Raleigh NC","scan_time":"2026-10-01T12:02:30Z","stale":false,"bins":25,"density_birds_km3":0.695,"heading_deg":87.00719791321373,"speed_ms":4.589906976744187,"peak_altitude_m":0.0,"u_ms":4.480679069767443,"v_ms":0.3468}},{"type":"Feature","geometry":{"type":"Point","coordinates":[-82.4017,27.7055]},"properties":{"site":"KTBW","name":"Tampa FL","scan_time":"2026-10-01T12:02:14Z","stale":false,"bins":25,"density_birds_km3":1.16875,"heading_deg":271.90997605798543,"speed_ms":8.173873729266987,"peak_altitude_m":0.0,"u_ms":-8.075040128410913,"v_ms":0.30764579989299085}}]}