{"type":"FeatureCollection","frame":"2026-09-21T07","site_count":20,"fresh_count":20,"failures":{},"features":[{"type":"Feature","geometry":{"type":"Point","coordinates":[-77.0073,36.984]},"properties":{"site":"KAKQ","name":"Wakefield VA","scan_time":"2026-09-21T06:58:40Z","stale":false,"bins":25,"density_birds_km3":8.82625,"heading_deg":96.09576715013381,"speed_ms":6.90439572116747,"peak_altitude_m":0.0,"u_ms":6.78753400396713,"v_ms":-0.6159124397846416}},{"type":"Feature","geometry":{"type":"Point","coordinates":[-71.1369,41.9558]},"properties":{"site":"KBOX","name":"Boston MA","scan_time":"2026-09-21T07:01:38Z","stale":false,"bins":25,"density_birds_km3":0.017499999999999998,"heading_deg":90.88062004515973,"speed_ms":5.694,"peak_altitude_m":800.0,"u_ms":5.604,"v_ms":0.08399999999999995}},{"type":"Feature","geometry":{"type":"Point","coordinates":[-78.7369,42.9489]},"properties":{"site":"KBUF","name":"Buffalo NY","scan_time":"2026-09-21T06:57:56Z","stale":false,"bins":25,"density_birds_km3":16.21933333333333,"heading_deg":215.62563847727927,"speed_ms":12.83972625262033,"peak_altitude_m":200.0,"u_ms":-7.418929672407416,"v_ms":-10.355683751901024}},{"type":"Feature","geometry":{"type":"Point","coordinates":[-81.8597,41.4131]},"properties":{"site":"KCLE","name":"Cleveland OH","scan_time":"2026-09-21T07:01:47Z","stale":false,"bins":25,"density_birds_km3":42.684,"heading_deg":226.00577024315766,"speed_ms":14.037518627864475,"peak_altitude_m":400.0,"u_ms":-10.244498180170893,"v_ms":-9.025239858162676}},{"type":"Feature","geometry":{"type":"Point","coordinates":[-81.0423,32.6555]},"properties":{"site":"KCLX","name":"Charleston SC","scan_time":"2026-09-21T07:00:42Z","stale":false,"bins":25,"density_birds_km3":12.8725,"heading_deg":195.53740021333292,"speed_ms":5.081365688487585,"peak_altitude_m":0.0,"u_ms":-1.2932986554127,"v_ms":-4.86560162920797}},{"type":"Feature","geometry":{"type":"Point","coordinates":[-74.4108,39.947]},"properties":{"site":"KDIX","name":"Philadelphia PA","scan_time":"2026-09-21T06:58:33Z","stale":false,"bins":25,"density_birds_km3":4.110833333333333,"heading_deg":null,"speed_ms":null,"peak_altitude_m":200.0,"u_ms":null,"v_ms":null}},{"type":"Feature","geometry":{"type":"Point","coordinates":[-84.5658,33.3636]},"properties":{"site":"KFFC","name":"Atlanta GA","scan_time":"2026-09-21T07:00:58Z","stale":false,"bins":25,"density_birds_km3":37.93933333333334,"heading_deg":178.70070114027837,"speed_ms":4.032795339928658,"peak_altitude_m":400.0,"u_ms":-1.5777014180533835,"v_ms":-2.996712646505825}},{"type":"Feature","geometry":{"type":"Point","coordinates":[-85.5449,42.8939]},"properties":{"site":"KGRR","name":"Grand Rapids MI","scan_time":"2026-09-21T06:55:58Z","stale":false,"bins":25,"density_birds_km3":53.654666666666664,"heading_deg":209.44069298550932,"speed_ms":12.745121517854924,"peak_altitude_m":200.0,"u_ms":-6.575366168832782,"v_ms":-10.231399194851024}},{"type":"Feature","geometry":{"type":"Point","coordinates":[-83.8217,39.4203]},"properties":{"site":"KILN","name":"Wilmington OH","scan_time":"2026-09-21T06:58:52Z","stale":false,"bins":25,"density_birds_km3":25.546,"heading_deg":207.96609559028963,"speed_ms":7.994687614176106,"peak_altitude_m":200.0,"u_ms":-3.34102119108513,"v_ms":-6.187974320162847}},{"type":"Feature","geometry":{"type":"Point","coordinates":[-81.7019,30.4846]},"properties":{"site":"KJAX","name":"Jacksonville FL","scan_time":"2026-09-21T07:02:26Z","stale":false,"bins":25,"density_birds_km3":55.871875,"heading_deg":177.900524350497,"speed_ms":9.15294989540568,"peak_altitude_m":0.0,"u_ms":0.3441752709943731,"v_ms":-9.089032474578545}},{"type":"Feature","geometry":{"type":"Point","coordinates":[-88.0847,41.6045]},"properties":{"site":"KLOT","name":"Chicago IL","scan_time":"2026-09-21T07:00:51Z","stale":false,"bins":25,"density_birds_km3":20.65533333333333,"heading_deg":226.4364148889333,"speed_ms":12.324597359842496,"peak_altitude_m":200.0,"u_ms":-8.741838427524772,"v_ms":-7.829196333473195}},{"type":"Feature","geometry":{"type":"Point","coordinates":[-78.4292,33.9892]},"properties":{"site":"KLTX","name":"Wilmington NC","scan_time":"2026-09-21T06:59:04Z","stale":false,"bins":25,"density_birds_km3":5.84375,"heading_deg":220.2299778500793,"speed_ms":2.397812366281557,"peak_altitude_m":0.0,"u_ms":-1.3801626016260164,"v_ms":-1.8931792896876336}},{"type":"Feature","geometry":{"type":"Point","coordinates":[-77.4778,38.9753]},"properties":{"site":"KLWX","name":"Sterling VA","scan_time":"2026-09-21T06:59:11Z","stale":false,"bins":25,"density_birds_km3":19.218125,"heading_deg":204.7254556098538,"speed_ms":9.343868146214101,"peak_altitude_m":400.0,"u_ms":-3.9196132506527417,"v_ms":-8.050065274151436}},{"type":"Feature","geometry":{"type":"Point","coordinates":[-76.8762,34.7759]},"properties":{"site":"KMHX","name":"Morehead City NC","scan_time":"2026-09-21T07:02:01Z","stale":false,"bins":25,"density_birds_km3":1.779375,"heading_deg":34.18459173619595,"speed_ms":2.2429140239605356,"peak_altitude_m":0.0,"u_ms":0.7759795630725864,"v_ms":1.487554615926709}},{"type":"Feature","geometry":{"type":"Point","coordinates":[-80.6542,28.1133]},"properties":{"site":"KMLB","name":"Melbourne FL","scan_time":"2026-09-21T06:58:54Z","stale":false,"bins":25,"density_birds_km3":12.359375,"heading_deg":164.03370518804965,"speed_ms":6.08236551298592,"peak_altitude_m":0.0,"u_ms":1.7167145341336174,"v_ms":-5.73470073484041}},{"type":"Feature","geometry":{"type":"Point","coordinates":[-86.5625,36.2472]},"properties":{"site":"KOHX","name":"Nashville TN","scan_time":"2026-09-21T07:01:53Z","stale":false,"bins":25,"density_birds_km3":36.83133333333333,"heading_deg":54.865344068459365,"speed_ms":6.262863141890056,"peak_altitude_m":200.0,"u_ms":4.2608103607435694,"v_ms":3.1113783553858125}},{"type":"Feature","geometry":{"type":"Point","coordinates":[-72.8639,40.8655]},"properties":{"site":"KOKX","name":"Upton NY","scan_time":"2026-09-21T07:00:40Z","stale":false,"bins":25,"density_birds_km3":0.002727272727272727,"heading_deg":null,"speed_ms":null,"peak_altitude_m":1000.0,"u_ms":null,"v_ms":null}},{"type":"Feature","geometry":{"type":"Point","coordinates":[-80.2183,40.5317]},"properties":{"site":"KPBZ","name":"Pittsburgh PA","scan_time":"2026-09-21T06:58:44Z","stale":false,"bins":25,"density_birds_km3":52.49857142857143,"heading_deg":208.8921034239108,"speed_ms":9.858393571564653,"peak_altitude_m":400.0,"u_ms":-4.594814114253055,"v_ms":-7.511164847726097}},{"type":"Feature","geometry":{"type":"Point","coordinates":[-78.4899,35.6655]},"properties":{"site":"KRAX","name":"Raleigh NC","scan_time":"2026-09-21T06:59:42Z","stale":false,"bins":25,"density_birds_km3":8.4975,"heading_deg":88.99018357385066,"speed_ms":7.4767073352179745,"peak_altitude_m":200.0,"u_ms":6.710990923969648,"v_ms":0.5034950156226753}},{"type":"Feature","geometry":{"type":"Point","coordinates":[-82.4017,27.7055]},"properties":{"site":"KTBW","name":"Tampa FL","scan_time":"2026-09-21T06:59:06Z","stale":false,"bins":25,"density_birds_km3":21.334374999999998,"heading_deg":201.23227357252526,"speed_ms":6.975318313655406,"peak_altitude_m":0.0,"u_ms":-2.2302197287082883,"v_ms":-6.424481879705857}}]}