{"type":"FeatureCollection","frame":"2026-10-04T05","site_count":20,"fresh_count":20,"failures":{},"features":[{"type":"Feature","geometry":{"type":"Point","coordinates":[-77.0073,36.984]},"properties":{"site":"KAKQ","name":"Wakefield VA","scan_time":"2026-10-04T05:00:26Z","stale":false,"bins":25,"density_birds_km3":3.0849999999999995,"heading_deg":181.3985042709917,"speed_ms":5.616593718338399,"peak_altitude_m":0.0,"u_ms":-0.17517325227963532,"v_ms":-5.258626139817629}},{"type":"Feature","geometry":{"type":"Point","coordinates":[-71.1369,41.9558]},"properties":{"site":"KBOX","name":"Boston MA","scan_time":"2026-10-04T05:02:03Z","stale":false,"bins":25,"density_birds_km3":7.180625,"heading_deg":214.48159996589453,"speed_ms":8.556261641187842,"peak_altitude_m":0.0,"u_ms":-4.818351783517835,"v_ms":-6.860707257072571}},{"type":"Feature","geometry":{"type":"Point","coordinates":[-78.7369,42.9489]},"properties":{"site":"KBUF","name":"Buffalo NY","scan_time":"2026-10-04T04:59:12Z","stale":false,"bins":25,"density_birds_km3":11.488666666666667,"heading_deg":270.24958835764096,"speed_ms":10.392991934079964,"peak_altitude_m":200.0,"u_ms":-10.125545755237045,"v_ms":0.11121394997969028}},{"type":"Feature","geometry":{"type":"Point","coordinates":[-81.8597,41.4131]},"properties":{"site":"KCLE","name":"Cleveland OH","scan_time":"2026-10-04T05:01:58Z","stale":false,"bins":25,"density_birds_km3":21.470000000000002,"heading_deg":251.18472848295727,"speed_ms":7.737771464058376,"peak_altitude_m":400.0,"u_ms":-6.925964912280702,"v_ms":-2.7015246079801276}},{"type":"Feature","geometry":{"type":"Point","coordinates":[-81.0423,32.6555]},"properties":{"site":"KCLX","name":"Charleston SC","scan_time":"2026-10-04T05:00:11Z","stale":false,"bins":25,"density_birds_km3":2.980625,"heading_deg":264.6527857061168,"speed_ms":3.693943054357204,"peak_altitude_m":0.0,"u_ms":-3.133673425366695,"v_ms":-0.22836496980155302}},{"type":"Feature","geometry":{"type":"Point","coordinates":[-74.4108,39.947]},"properties":{"site":"KDIX","name":"Philadelphia PA","scan_time":"2026-10-04T05:01:51Z","stale":false,"bins":25,"density_birds_km3":106.80437500000001,"heading_deg":228.44545657538688,"speed_ms":13.09419096027712,"peak_altitude_m":0.0,"u_ms":-9.81551180258788,"v_ms":-8.40988262882855}},{"type":"Feature","geometry":{"type":"Point","coordinates":[-84.5658,33.3636]},"properties":{"site":"KFFC","name":"Atlanta GA","scan_time":"2026-10-04T04:59:24Z","stale":false,"bins":25,"density_birds_km3":66.942,"heading_deg":147.121241921706,"speed_ms":5.551631362472986,"peak_altitude_m":400.0,"u_ms":1.5337499128598886,"v_ms":-4.624983717247766}},{"type":"Feature","geometry":{"type":"Point","coordinates":[-85.5449,42.8939]},"properties":{"site":"KGRR","name":"Grand Rapids MI","scan_time":"2026-10-04T04:59:36Z","stale":false,"bins":25,"density_birds_km3":2.692,"heading_deg":328.7356790350111,"speed_ms":8.638840148698884,"peak_altitude_m":200.0,"u_ms":-4.097142503097894,"v_ms":7.171890954151177}},{"type":"Feature","geometry":{"type":"Point","coordinates":[-83.8217,39.4203]},"properties":{"site":"KILN","name":"Wilmington OH","scan_time":"2026-10-04T05:02:09Z","stale":false,"bins":25,"density_birds_km3":30.52,"heading_deg":252.58779285121858,"speed_ms":9.9074522012717,"peak_altitude_m":400.0,"u_ms":-8.346047171679391,"v_ms":-2.8293043057358473}},{"type":"Feature","geometry":{"type":"Point","coordinates":[-81.7019,30.4846]},"properties":{"site":"KJAX","name":"Jacksonville FL","scan_time":"2026-10-04T05:00:34Z","stale":false,"bins":25,"density_birds_km3":9.743125000000001,"heading_deg":263.04708885601895,"speed_ms":2.3192112712300568,"peak_altitude_m":0.0,"u_ms":-1.1487905301080803,"v_ms":0.17250836335563563}},{"type":"Feature","geometry":{"type":"Point","coordinates":[-88.0847,41.6045]},"properties":{"site":"KLOT","name":"Chicago IL","scan_time":"2026-10-04T05:01:00Z","stale":false,"bins":25,"density_birds_km3":4.1593333333333335,"heading_deg":4.847899398851959,"speed_ms":9.803516589196986,"peak_altitude_m":200.0,"u_ms":0.841764705882353,"v_ms":9.218403590318962}},{"type":"Feature","geometry":{"type":"Point","coordinates":[-78.4292,33.9892]},"properties":{"site":"KLTX","name":"Wilmington NC","scan_time":"2026-10-04T04:57:28Z","stale":false,"bins":25,"density_birds_km3":5.39125,"heading_deg":null,"speed_ms":null,"peak_altitude_m":0.0,"u_ms":null,"v_ms":null}},{"type":"Feature","geometry":{"type":"Point","coordinates":[-77.4778,38.9753]},"properties":{"site":"KLWX","name":"Sterling VA","scan_time":"2026-10-04T05:02:14Z","stale":false,"bins":25,"density_birds_km3":132.18625,"heading_deg":216.25512029019714,"speed_ms":6.947879089657596,"peak_altitude_m":200.0,"u_ms":-3.974356882731418,"v_ms":-5.056977680794352}},{"type":"Feature","geometry":{"type":"Point","coordinates":[-76.8762,34.7759]},"properties":{"site":"KMHX","name":"Morehead City NC","scan_time":"2026-10-04T05:00:27Z","stale":false,"bins":25,"density_birds_km3":4.971875,"heading_deg":247.5693482655322,"speed_ms":6.590667504714016,"peak_altitude_m":0.0,"u_ms":-5.765423004399749,"v_ms":-2.534839723444375}},{"type":"Feature","geometry":{"type":"Point","coordinates":[-80.6542,28.1133]},"properties":{"site":"KMLB","name":"Melbourne FL","scan_time":"2026-10-04T05:00:43Z","stale":false,"bins":25,"density_birds_km3":2.4562500000000003,"heading_deg":319.4136546778464,"speed_ms":5.485045801526717,"peak_altitude_m":200.0,"u_ms":-3.6394758269720096,"v_ms":4.041562340966921}},{"type":"Feature","geometry":{"type":"Point","coordinates":[-86.5625,36.2472]},"properties":{"site":"KOHX","name":"Nashville TN","scan_time":"2026-10-04T04:58:58Z","stale":false,"bins":25,"density_birds_km3":301.866,"heading_deg":195.73616858595156,"speed_ms":5.896156396105115,"peak_altitude_m":400.0,"u_ms":-1.1671516942396074,"v_ms":-5.143834284086316}},{"type":"Feature","geometry":{"type":"Point","coordinates":[-72.8639,40.8655]},"properties":{"site":"KOKX","name":"Upton NY","scan_time":"2026-10-04T04:59:59Z","stale":false,"bins":25,"density_birds_km3":31.004375,"heading_deg":244.29571198978547,"speed_ms":13.895461857914682,"peak_altitude_m":0.0,"u_ms":-12.446380533827917,"v_ms":-5.944404080316104}},{"type":"Feature","geometry":{"type":"Point","coordinates":[-80.2183,40.5317]},"properties":{"site":"KPBZ","name":"Pittsburgh PA","scan_time":"2026-10-04T05:00:33Z","stale":false,"bins":25,"density_birds_km3":28.80142857142857,"heading_deg":269.64044767100944,"speed_ms":10.218415009176132,"peak_altitude_m":400.0,"u_ms":-9.862383562323297,"v_ms":-0.10894176876147015}},{"type":"Feature","geometry":{"type":"Point","coordinates":[-78.4899,35.6655]},"properties":{"site":"KRAX","name":"Raleigh NC","scan_time":"2026-10-04T04:57:46Z","stale":false,"bins":25,"density_birds_km3":15.085,"heading_deg":215.1453091353458,"speed_ms":6.749856528587849,"peak_altitude_m":0.0,"u_ms":-3.8619660266507725,"v_ms":-5.452204861850228}},{"type":"Feature","geometry":{"type":"Point","coordinates":[-82.4017,27.7055]},"properties":{"site":"KTBW","name":"Tampa FL","scan_time":"2026-10-04T04:59:12Z","stale":false,"bins":25,"density_birds_km3":8.0425,"heading_deg":290.0475712706857,"speed_ms":6.301240285980727,"peak_altitude_m":0.0,"u_ms":-5.474215107242773,"v_ms":2.562975598383587}}]}