{"type":"FeatureCollection","frame":"2026-09-17T07","site_count":20,"fresh_count":20,"failures":{},"features":[{"type":"Feature","geometry":{"type":"Point","coordinates":[-77.0073,36.984]},"properties":{"site":"KAKQ","name":"Wakefield VA","scan_time":"2026-09-17T06:58:59Z","stale":false,"bins":25,"density_birds_km3":1.27875,"heading_deg":72.52658743046265,"speed_ms":7.168338235294117,"peak_altitude_m":0.0,"u_ms":4.541303921568627,"v_ms":2.100647058823529}},{"type":"Feature","geometry":{"type":"Point","coordinates":[-71.1369,41.9558]},"properties":{"site":"KBOX","name":"Boston MA","scan_time":"2026-09-17T07:02:02Z","stale":false,"bins":25,"density_birds_km3":4.64,"heading_deg":140.47628157118154,"speed_ms":6.644116141201832,"peak_altitude_m":200.0,"u_ms":3.351490164376179,"v_ms":-4.88960253300997}},{"type":"Feature","geometry":{"type":"Point","coordinates":[-78.7369,42.9489]},"properties":{"site":"KBUF","name":"Buffalo NY","scan_time":"2026-09-17T07:00:10Z","stale":false,"bins":25,"density_birds_km3":75.85066666666667,"heading_deg":229.95304574926587,"speed_ms":7.911829471944874,"peak_altitude_m":400.0,"u_ms":-5.684768404584447,"v_ms":-4.9520189670932355}},{"type":"Feature","geometry":{"type":"Point","coordinates":[-81.8597,41.4131]},"properties":{"site":"KCLE","name":"Cleveland OH","scan_time":"2026-09-17T06:59:29Z","stale":false,"bins":25,"density_birds_km3":50.678,"heading_deg":252.2628120083531,"speed_ms":5.959096220654805,"peak_altitude_m":400.0,"u_ms":-4.418484708916728,"v_ms":-2.04054861038004}},{"type":"Feature","geometry":{"type":"Point","coordinates":[-81.0423,32.6555]},"properties":{"site":"KCLX","name":"Charleston SC","scan_time":"2026-09-17T07:01:01Z","stale":false,"bins":25,"density_birds_km3":10.161875,"heading_deg":226.91303501535154,"speed_ms":9.699226889722613,"peak_altitude_m":0.0,"u_ms":-6.9865194661418295,"v_ms":-6.549503044467678}},{"type":"Feature","geometry":{"type":"Point","coordinates":[-74.4108,39.947]},"properties":{"site":"KDIX","name":"Philadelphia PA","scan_time":"2026-09-17T06:56:50Z","stale":false,"bins":25,"density_birds_km3":1.63,"heading_deg":84.56552994802178,"speed_ms":6.405251439539347,"peak_altitude_m":0.0,"u_ms":5.434287907869481,"v_ms":1.0522840690978885}},{"type":"Feature","geometry":{"type":"Point","coordinates":[-84.5658,33.3636]},"properties":{"site":"KFFC","name":"Atlanta GA","scan_time":"2026-09-17T06:59:12Z","stale":false,"bins":25,"density_birds_km3":28.901333333333334,"heading_deg":242.1472282853242,"speed_ms":8.917592254123962,"peak_altitude_m":1200.0,"u_ms":-6.723110381047128,"v_ms":-4.6781600074034655}},{"type":"Feature","geometry":{"type":"Point","coordinates":[-85.5449,42.8939]},"properties":{"site":"KGRR","name":"Grand Rapids MI","scan_time":"2026-09-17T06:59:34Z","stale":false,"bins":25,"density_birds_km3":16.585333333333335,"heading_deg":280.38870825220897,"speed_ms":7.028775007072707,"peak_altitude_m":400.0,"u_ms":-6.285973810774764,"v_ms":1.3206765549852484}},{"type":"Feature","geometry":{"type":"Point","coordinates":[-83.8217,39.4203]},"properties":{"site":"KILN","name":"Wilmington OH","scan_time":"2026-09-17T06:59:43Z","stale":false,"bins":25,"density_birds_km3":20.112000000000002,"heading_deg":88.22482768265297,"speed_ms":9.57462509944312,"peak_altitude_m":200.0,"u_ms":9.28434168655529,"v_ms":-0.021585786263590572}},{"type":"Feature","geometry":{"type":"Point","coordinates":[-81.7019,30.4846]},"properties":{"site":"KJAX","name":"Jacksonville FL","scan_time":"2026-09-17T06:58:02Z","stale":false,"bins":25,"density_birds_km3":108.871875,"heading_deg":195.57140540629464,"speed_ms":10.17291652073058,"peak_altitude_m":0.0,"u_ms":-2.846678513806032,"v_ms":-9.656664733611615}},{"type":"Feature","geometry":{"type":"Point","coordinates":[-88.0847,41.6045]},"properties":{"site":"KLOT","name":"Chicago IL","scan_time":"2026-09-17T06:58:36Z","stale":false,"bins":25,"density_birds_km3":18.255333333333333,"heading_deg":133.61157602392055,"speed_ms":6.3246864843150865,"peak_altitude_m":400.0,"u_ms":4.75809188182449,"v_ms":-2.749012160829712}},{"type":"Feature","geometry":{"type":"Point","coordinates":[-78.4292,33.9892]},"properties":{"site":"KLTX","name":"Wilmington NC","scan_time":"2026-09-17T06:59:33Z","stale":false,"bins":25,"density_birds_km3":4.324375,"heading_deg":232.896144322764,"speed_ms":5.884938539407085,"peak_altitude_m":0.0,"u_ms":-4.483973969631236,"v_ms":-3.5078076644974687}},{"type":"Feature","geometry":{"type":"Point","coordinates":[-77.4778,38.9753]},"properties":{"site":"KLWX","name":"Sterling VA","scan_time":"2026-09-17T06:59:02Z","stale":false,"bins":25,"density_birds_km3":8.844375,"heading_deg":66.33513158161638,"speed_ms":4.2205409663865545,"peak_altitude_m":200.0,"u_ms":2.935327130852341,"v_ms":0.7130012004801921}},{"type":"Feature","geometry":{"type":"Point","coordinates":[-76.8762,34.7759]},"properties":{"site":"KMHX","name":"Morehead City NC","scan_time":"2026-09-17T07:02:17Z","stale":false,"bins":25,"density_birds_km3":1.625625,"heading_deg":228.3680863606782,"speed_ms":3.190826605151864,"peak_altitude_m":0.0,"u_ms":-2.108458285274894,"v_ms":-2.1372433679354095}},{"type":"Feature","geometry":{"type":"Point","coordinates":[-80.6542,28.1133]},"properties":{"site":"KMLB","name":"Melbourne FL","scan_time":"2026-09-17T07:00:34Z","stale":false,"bins":25,"density_birds_km3":2.74375,"heading_deg":244.85154192285773,"speed_ms":3.90002279462047,"peak_altitude_m":0.0,"u_ms":-3.459904262594028,"v_ms":-1.625716890813768}},{"type":"Feature","geometry":{"type":"Point","coordinates":[-86.5625,36.2472]},"properties":{"site":"KOHX","name":"Nashville TN","scan_time":"2026-09-17T07:01:49Z","stale":false,"bins":25,"density_birds_km3":22.206666666666667,"heading_deg":12.898766232680483,"speed_ms":7.0831501050735515,"peak_altitude_m":200.0,"u_ms":1.09264455118583,"v_ms":5.048240768537977}},{"type":"Feature","geometry":{"type":"Point","coordinates":[-72.8639,40.8655]},"properties":{"site":"KOKX","name":"Upton NY","scan_time":"2026-09-17T07:02:30Z","stale":false,"bins":25,"density_birds_km3":0.9037499999999999,"heading_deg":68.94003988615898,"speed_ms":5.449217451523546,"peak_altitude_m":0.0,"u_ms":3.9650415512465376,"v_ms":1.6093628808864264}},{"type":"Feature","geometry":{"type":"Point","coordinates":[-80.2183,40.5317]},"properties":{"site":"KPBZ","name":"Pittsburgh PA","scan_time":"2026-09-17T07:00:39Z","stale":false,"bins":25,"density_birds_km3":23.256428571428568,"heading_deg":129.01950434915562,"speed_ms":7.316905047891835,"peak_altitude_m":600.0,"u_ms":5.715268409867874,"v_ms":-4.076693153469463}},{"type":"Feature","geometry":{"type":"Point","coordinates":[-78.4899,35.6655]},"properties":{"site":"KRAX","name":"Raleigh NC","scan_time":"2026-09-17T06:57:11Z","stale":false,"bins":25,"density_birds_km3":4.350625,"heading_deg":96.94723685469542,"speed_ms":6.6024235870818915,"peak_altitude_m":200.0,"u_ms":3.14386678200692,"v_ms":-0.4386173587081892}},{"type":"Feature","geometry":{"type":"Point","coordinates":[-82.4017,27.7055]},"properties":{"site":"KTBW","name":"Tampa FL","scan_time":"2026-09-17T07:01:47Z","stale":false,"bins":25,"density_birds_km3":16.4775,"heading_deg":186.92305102374567,"speed_ms":9.329022910028828,"peak_altitude_m":0.0,"u_ms":-1.1391526323774843,"v_ms":-9.0723573812775}}]}