{"type":"FeatureCollection","frame":"2026-09-26T10","site_count":20,"fresh_count":20,"failures":{},"features":[{"type":"Feature","geometry":{"type":"Point","coordinates":[-77.0073,36.984]},"properties":{"site":"KAKQ","name":"Wakefield VA","scan_time":"2026-09-26T09:59:23Z","stale":false,"bins":25,"density_birds_km3":1.54,"heading_deg":173.14595100176462,"speed_ms":18.222166123778504,"peak_altitude_m":0.0,"u_ms":1.5855578175895766,"v_ms":-18.060525244299676}},{"type":"Feature","geometry":{"type":"Point","coordinates":[-71.1369,41.9558]},"properties":{"site":"KBOX","name":"Boston MA","scan_time":"2026-09-26T09:57:10Z","stale":false,"bins":25,"density_birds_km3":0.01,"heading_deg":null,"speed_ms":null,"peak_altitude_m":2200.0,"u_ms":null,"v_ms":null}},{"type":"Feature","geometry":{"type":"Point","coordinates":[-78.7369,42.9489]},"properties":{"site":"KBUF","name":"Buffalo NY","scan_time":"2026-09-26T10:00:05Z","stale":false,"bins":25,"density_birds_km3":2.394,"heading_deg":216.03536754785497,"speed_ms":13.82574491785018,"peak_altitude_m":400.0,"u_ms":-8.202631578947367,"v_ms":-11.035563909774435}},{"type":"Feature","geometry":{"type":"Point","coordinates":[-81.8597,41.4131]},"properties":{"site":"KCLE","name":"Cleveland OH","scan_time":"2026-09-26T10:02:10Z","stale":false,"bins":25,"density_birds_km3":8.844,"heading_deg":197.03487591674568,"speed_ms":11.914476362813843,"peak_altitude_m":200.0,"u_ms":-3.547494533665083,"v_ms":-11.298540300082937}},{"type":"Feature","geometry":{"type":"Point","coordinates":[-81.0423,32.6555]},"properties":{"site":"KCLX","name":"Charleston SC","scan_time":"2026-09-26T09:57:57Z","stale":false,"bins":25,"density_birds_km3":36.674375,"heading_deg":198.12236512594023,"speed_ms":11.88407468002795,"peak_altitude_m":0.0,"u_ms":-3.6404367980639774,"v_ms":-11.195168464645432}},{"type":"Feature","geometry":{"type":"Point","coordinates":[-74.4108,39.947]},"properties":{"site":"KDIX","name":"Philadelphia PA","scan_time":"2026-09-26T09:59:31Z","stale":false,"bins":25,"density_birds_km3":0.0,"heading_deg":null,"speed_ms":null,"peak_altitude_m":2000.0,"u_ms":null,"v_ms":null}},{"type":"Feature","geometry":{"type":"Point","coordinates":[-84.5658,33.3636]},"properties":{"site":"KFFC","name":"Atlanta GA","scan_time":"2026-09-26T10:00:46Z","stale":false,"bins":25,"density_birds_km3":78.41733333333333,"heading_deg":228.64992193015786,"speed_ms":9.370563055786985,"peak_altitude_m":200.0,"u_ms":-6.2239912944417055,"v_ms":-5.98335835614575}},{"type":"Feature","geometry":{"type":"Point","coordinates":[-85.5449,42.8939]},"properties":{"site":"KGRR","name":"Grand Rapids MI","scan_time":"2026-09-26T09:58:31Z","stale":false,"bins":25,"density_birds_km3":4.926666666666667,"heading_deg":233.3703992235415,"speed_ms":11.730243572395128,"peak_altitude_m":200.0,"u_ms":-9.421401894451963,"v_ms":-6.881932341001352}},{"type":"Feature","geometry":{"type":"Point","coordinates":[-83.8217,39.4203]},"properties":{"site":"KILN","name":"Wilmington OH","scan_time":"2026-09-26T10:01:02Z","stale":false,"bins":25,"density_birds_km3":44.47533333333333,"heading_deg":189.5813208710062,"speed_ms":13.203753297757524,"peak_altitude_m":200.0,"u_ms":-2.1848737858256384,"v_ms":-12.798088499820123}},{"type":"Feature","geometry":{"type":"Point","coordinates":[-81.7019,30.4846]},"properties":{"site":"KJAX","name":"Jacksonville FL","scan_time":"2026-09-26T09:58:00Z","stale":false,"bins":25,"density_birds_km3":160.986875,"heading_deg":188.50258625004716,"speed_ms":12.946868999413772,"peak_altitude_m":0.0,"u_ms":-1.9117228500770636,"v_ms":-12.782311446197088}},{"type":"Feature","geometry":{"type":"Point","coordinates":[-88.0847,41.6045]},"properties":{"site":"KLOT","name":"Chicago IL","scan_time":"2026-09-26T09:56:37Z","stale":false,"bins":25,"density_birds_km3":4.608666666666666,"heading_deg":205.74829073540468,"speed_ms":6.824699754015337,"peak_altitude_m":800.0,"u_ms":-2.238217334683837,"v_ms":-5.2351844884966}},{"type":"Feature","geometry":{"type":"Point","coordinates":[-78.4292,33.9892]},"properties":{"site":"KLTX","name":"Wilmington NC","scan_time":"2026-09-26T10:00:31Z","stale":false,"bins":25,"density_birds_km3":29.054374999999997,"heading_deg":204.72614937284737,"speed_ms":9.284504227351935,"peak_altitude_m":0.0,"u_ms":-3.375189854355356,"v_ms":-8.57395757588796}},{"type":"Feature","geometry":{"type":"Point","coordinates":[-77.4778,38.9753]},"properties":{"site":"KLWX","name":"Sterling VA","scan_time":"2026-09-26T10:00:11Z","stale":false,"bins":25,"density_birds_km3":2.335,"heading_deg":179.80570138759356,"speed_ms":18.76220908357968,"peak_altitude_m":600.0,"u_ms":-1.1193147003493684,"v_ms":-18.12060736361193}},{"type":"Feature","geometry":{"type":"Point","coordinates":[-76.8762,34.7759]},"properties":{"site":"KMHX","name":"Morehead City NC","scan_time":"2026-09-26T09:58:29Z","stale":false,"bins":25,"density_birds_km3":9.324375,"heading_deg":128.236411382973,"speed_ms":5.180317045378376,"peak_altitude_m":0.0,"u_ms":2.4874408472417726,"v_ms":-3.9686728332998196}},{"type":"Feature","geometry":{"type":"Point","coordinates":[-80.6542,28.1133]},"properties":{"site":"KMLB","name":"Melbourne FL","scan_time":"2026-09-26T09:59:00Z","stale":false,"bins":25,"density_birds_km3":64.459375,"heading_deg":172.72369441204188,"speed_ms":15.126778300286034,"peak_altitude_m":0.0,"u_ms":1.8636677170698601,"v_ms":-14.990061666747467}},{"type":"Feature","geometry":{"type":"Point","coordinates":[-86.5625,36.2472]},"properties":{"site":"KOHX","name":"Nashville TN","scan_time":"2026-09-26T09:57:48Z","stale":false,"bins":25,"density_birds_km3":25.483333333333334,"heading_deg":201.9175595130722,"speed_ms":7.5233504251144545,"peak_altitude_m":200.0,"u_ms":-2.6729483322432963,"v_ms":-6.667353564421191}},{"type":"Feature","geometry":{"type":"Point","coordinates":[-72.8639,40.8655]},"properties":{"site":"KOKX","name":"Upton NY","scan_time":"2026-09-26T09:59:52Z","stale":false,"bins":25,"density_birds_km3":0.0,"heading_deg":null,"speed_ms":null,"peak_altitude_m":2000.0,"u_ms":null,"v_ms":null}},{"type":"Feature","geometry":{"type":"Point","coordinates":[-80.2183,40.5317]},"properties":{"site":"KPBZ","name":"Pittsburgh PA","scan_time":"2026-09-26T10:03:01Z","stale":false,"bins":25,"density_birds_km3":19.297857142857143,"heading_deg":203.62255717382814,"speed_ms":17.611962468075657,"peak_altitude_m":400.0,"u_ms":-7.425164155901839,"v_ms":-15.523852389236406}},{"type":"Feature","geometry":{"type":"Point","coordinates":[-78.4899,35.6655]},"properties":{"site":"KRAX","name":"Raleigh NC","scan_time":"2026-09-26T10:01:39Z","stale":false,"bins":25,"density_birds_km3":6.22,"heading_deg":180.05358711638746,"speed_ms":19.788441362677116,"peak_altitude_m":200.0,"u_ms":-0.29708572002813777,"v_ms":-19.680474324188523}},{"type":"Feature","geometry":{"type":"Point","coordinates":[-82.4017,27.7055]},"properties":{"site":"KTBW","name":"Tampa FL","scan_time":"2026-09-26T10:01:59Z","stale":false,"bins":25,"density_birds_km3":60.011250000000004,"heading_deg":191.64296517508345,"speed_ms":15.819417811429227,"peak_altitude_m":400.0,"u_ms":-3.3743441265609215,"v_ms":-15.403521043148611}}]}