{"type":"FeatureCollection","frame":"2026-10-02T09","site_count":20,"fresh_count":20,"failures":{},"features":[{"type":"Feature","geometry":{"type":"Point","coordinates":[-77.0073,36.984]},"properties":{"site":"KAKQ","name":"Wakefield VA","scan_time":"2026-10-02T08:58:50Z","stale":false,"bins":25,"density_birds_km3":0.685,"heading_deg":61.99110475492363,"speed_ms":9.885656934306569,"peak_altitude_m":0.0,"u_ms":8.752910583941604,"v_ms":4.492718978102189}},{"type":"Feature","geometry":{"type":"Point","coordinates":[-71.1369,41.9558]},"properties":{"site":"KBOX","name":"Boston MA","scan_time":"2026-10-02T09:01:10Z","stale":false,"bins":25,"density_birds_km3":0.9506249999999999,"heading_deg":60.06065539432037,"speed_ms":11.357429322813937,"peak_altitude_m":0.0,"u_ms":9.952478632478632,"v_ms":5.044930966469428}},{"type":"Feature","geometry":{"type":"Point","coordinates":[-78.7369,42.9489]},"properties":{"site":"KBUF","name":"Buffalo NY","scan_time":"2026-10-02T08:57:04Z","stale":false,"bins":25,"density_birds_km3":2.9586666666666663,"heading_deg":null,"speed_ms":null,"peak_altitude_m":200.0,"u_ms":null,"v_ms":null}},{"type":"Feature","geometry":{"type":"Point","coordinates":[-81.8597,41.4131]},"properties":{"site":"KCLE","name":"Cleveland OH","scan_time":"2026-10-02T09:01:26Z","stale":false,"bins":25,"density_birds_km3":18.283571428571427,"heading_deg":166.46533496323175,"speed_ms":10.115598377281948,"peak_altitude_m":200.0,"u_ms":2.6092026837260107,"v_ms":-9.43818692463723}},{"type":"Feature","geometry":{"type":"Point","coordinates":[-81.0423,32.6555]},"properties":{"site":"KCLX","name":"Charleston SC","scan_time":"2026-10-02T08:58:47Z","stale":false,"bins":25,"density_birds_km3":2.20625,"heading_deg":287.2812407045692,"speed_ms":5.224611898016997,"peak_altitude_m":0.0,"u_ms":-4.152815864022664,"v_ms":1.221169971671388}},{"type":"Feature","geometry":{"type":"Point","coordinates":[-74.4108,39.947]},"properties":{"site":"KDIX","name":"Philadelphia PA","scan_time":"2026-10-02T08:59:16Z","stale":false,"bins":25,"density_birds_km3":0.765625,"heading_deg":59.200092062139454,"speed_ms":11.162733224222583,"peak_altitude_m":0.0,"u_ms":9.680785597381341,"v_ms":5.207790507364975}},{"type":"Feature","geometry":{"type":"Point","coordinates":[-84.5658,33.3636]},"properties":{"site":"KFFC","name":"Atlanta GA","scan_time":"2026-10-02T08:57:45Z","stale":false,"bins":25,"density_birds_km3":2.901333333333333,"heading_deg":352.8244635768842,"speed_ms":4.930160882555735,"peak_altitude_m":200.0,"u_ms":0.42622845322914277,"v_ms":4.688919788554355}},{"type":"Feature","geometry":{"type":"Point","coordinates":[-85.5449,42.8939]},"properties":{"site":"KGRR","name":"Grand Rapids MI","scan_time":"2026-10-02T09:01:58Z","stale":false,"bins":25,"density_birds_km3":46.68533333333333,"heading_deg":193.16355480077203,"speed_ms":10.524652557621454,"peak_altitude_m":400.0,"u_ms":-2.9605739296832603,"v_ms":-9.87724202439094}},{"type":"Feature","geometry":{"type":"Point","coordinates":[-83.8217,39.4203]},"properties":{"site":"KILN","name":"Wilmington OH","scan_time":"2026-10-02T09:01:29Z","stale":false,"bins":25,"density_birds_km3":3.1333333333333333,"heading_deg":63.31054429322915,"speed_ms":19.92512880562061,"peak_altitude_m":600.0,"u_ms":18.016880987864596,"v_ms":8.082007664466682}},{"type":"Feature","geometry":{"type":"Point","coordinates":[-81.7019,30.4846]},"properties":{"site":"KJAX","name":"Jacksonville FL","scan_time":"2026-10-02T09:00:43Z","stale":false,"bins":25,"density_birds_km3":2.623125,"heading_deg":270.2263779287826,"speed_ms":3.76132237312366,"peak_altitude_m":0.0,"u_ms":-3.447741243745533,"v_ms":0.461756016202049}},{"type":"Feature","geometry":{"type":"Point","coordinates":[-88.0847,41.6045]},"properties":{"site":"KLOT","name":"Chicago IL","scan_time":"2026-10-02T09:00:07Z","stale":false,"bins":25,"density_birds_km3":146.6173333333333,"heading_deg":165.53651965215212,"speed_ms":14.063775715299125,"peak_altitude_m":200.0,"u_ms":2.228336395219819,"v_ms":-13.046681021154301}},{"type":"Feature","geometry":{"type":"Point","coordinates":[-78.4292,33.9892]},"properties":{"site":"KLTX","name":"Wilmington NC","scan_time":"2026-10-02T08:57:53Z","stale":false,"bins":25,"density_birds_km3":0.398125,"heading_deg":21.78461263513987,"speed_ms":4.484335443037975,"peak_altitude_m":0.0,"u_ms":1.6988291139240503,"v_ms":3.898924050632911}},{"type":"Feature","geometry":{"type":"Point","coordinates":[-77.4778,38.9753]},"properties":{"site":"KLWX","name":"Sterling VA","scan_time":"2026-10-02T08:57:32Z","stale":false,"bins":25,"density_birds_km3":4.146875,"heading_deg":60.830134688713486,"speed_ms":3.94841851349314,"peak_altitude_m":200.0,"u_ms":3.3644926880747774,"v_ms":0.3132097090306045}},{"type":"Feature","geometry":{"type":"Point","coordinates":[-76.8762,34.7759]},"properties":{"site":"KMHX","name":"Morehead City NC","scan_time":"2026-10-02T08:58:07Z","stale":false,"bins":25,"density_birds_km3":0.3725,"heading_deg":64.02613229351081,"speed_ms":7.036913996627319,"peak_altitude_m":0.0,"u_ms":6.2626306913996626,"v_ms":2.9528161888701514}},{"type":"Feature","geometry":{"type":"Point","coordinates":[-80.6542,28.1133]},"properties":{"site":"KMLB","name":"Melbourne FL","scan_time":"2026-10-02T09:01:01Z","stale":false,"bins":25,"density_birds_km3":0.7993750000000001,"heading_deg":306.6275007749016,"speed_ms":5.221513377926421,"peak_altitude_m":0.0,"u_ms":-4.173461538461538,"v_ms":3.1297909698996653}},{"type":"Feature","geometry":{"type":"Point","coordinates":[-86.5625,36.2472]},"properties":{"site":"KOHX","name":"Nashville TN","scan_time":"2026-10-02T08:59:10Z","stale":false,"bins":25,"density_birds_km3":4.054,"heading_deg":30.18653922328335,"speed_ms":14.422333881578945,"peak_altitude_m":200.0,"u_ms":7.490509868421052,"v_ms":11.984348684210525}},{"type":"Feature","geometry":{"type":"Point","coordinates":[-72.8639,40.8655]},"properties":{"site":"KOKX","name":"Upton NY","scan_time":"2026-10-02T08:56:50Z","stale":false,"bins":25,"density_birds_km3":0.40812499999999996,"heading_deg":67.53029166663798,"speed_ms":13.054003067484663,"peak_altitude_m":0.0,"u_ms":11.979769938650309,"v_ms":4.476564417177914}},{"type":"Feature","geometry":{"type":"Point","coordinates":[-80.2183,40.5317]},"properties":{"site":"KPBZ","name":"Pittsburgh PA","scan_time":"2026-10-02T08:58:08Z","stale":false,"bins":25,"density_birds_km3":0.6728571428571428,"heading_deg":58.86361758710806,"speed_ms":15.489214437367304,"peak_altitude_m":400.0,"u_ms":13.404861995753716,"v_ms":7.441305732484076}},{"type":"Feature","geometry":{"type":"Point","coordinates":[-78.4899,35.6655]},"properties":{"site":"KRAX","name":"Raleigh NC","scan_time":"2026-10-02T08:59:52Z","stale":false,"bins":25,"density_birds_km3":1.374375,"heading_deg":57.09538088472298,"speed_ms":8.214394353369764,"peak_altitude_m":0.0,"u_ms":6.776693989071037,"v_ms":4.335514571948997}},{"type":"Feature","geometry":{"type":"Point","coordinates":[-82.4017,27.7055]},"properties":{"site":"KTBW","name":"Tampa FL","scan_time":"2026-10-02T08:57:17Z","stale":false,"bins":25,"density_birds_km3":2.21,"heading_deg":278.8082994850143,"speed_ms":8.835099037917372,"peak_altitude_m":0.0,"u_ms":-8.577538200339557,"v_ms":1.6214799094510468}}]}