{"type":"FeatureCollection","frame":"2026-10-01T06","site_count":20,"fresh_count":20,"failures":{},"features":[{"type":"Feature","geometry":{"type":"Point","coordinates":[-77.0073,36.984]},"properties":{"site":"KAKQ","name":"Wakefield VA","scan_time":"2026-10-01T06:02:05Z","stale":false,"bins":25,"density_birds_km3":4.519375,"heading_deg":45.09649492225272,"speed_ms":6.615636841377403,"peak_altitude_m":0.0,"u_ms":3.3750283501590377,"v_ms":1.927734753146176}},{"type":"Feature","geometry":{"type":"Point","coordinates":[-71.1369,41.9558]},"properties":{"site":"KBOX","name":"Boston MA","scan_time":"2026-10-01T06:02:30Z","stale":false,"bins":25,"density_birds_km3":4.7056249999999995,"heading_deg":83.59855810730586,"speed_ms":9.417840350644177,"peak_altitude_m":0.0,"u_ms":8.18813388232169,"v_ms":0.7025102935316775}},{"type":"Feature","geometry":{"type":"Point","coordinates":[-78.7369,42.9489]},"properties":{"site":"KBUF","name":"Buffalo NY","scan_time":"2026-10-01T06:01:00Z","stale":false,"bins":25,"density_birds_km3":1.81,"heading_deg":null,"speed_ms":null,"peak_altitude_m":200.0,"u_ms":null,"v_ms":null}},{"type":"Feature","geometry":{"type":"Point","coordinates":[-81.8597,41.4131]},"properties":{"site":"KCLE","name":"Cleveland OH","scan_time":"2026-10-01T05:57:59Z","stale":false,"bins":25,"density_birds_km3":1.6829999999999998,"heading_deg":29.80805354066302,"speed_ms":13.483986690865093,"peak_altitude_m":200.0,"u_ms":7.03638838475499,"v_ms":11.185196612220205}},{"type":"Feature","geometry":{"type":"Point","coordinates":[-81.0423,32.6555]},"properties":{"site":"KCLX","name":"Charleston SC","scan_time":"2026-10-01T05:58:02Z","stale":false,"bins":25,"density_birds_km3":9.73625,"heading_deg":249.73148807198572,"speed_ms":7.0164235732169224,"peak_altitude_m":0.0,"u_ms":-5.97621043846697,"v_ms":-2.2999492842010656}},{"type":"Feature","geometry":{"type":"Point","coordinates":[-74.4108,39.947]},"properties":{"site":"KDIX","name":"Philadelphia PA","scan_time":"2026-10-01T06:02:24Z","stale":false,"bins":25,"density_birds_km3":8.34375,"heading_deg":56.65153380044179,"speed_ms":4.750749288176232,"peak_altitude_m":0.0,"u_ms":3.6891150906638694,"v_ms":1.9760602427693692}},{"type":"Feature","geometry":{"type":"Point","coordinates":[-84.5658,33.3636]},"properties":{"site":"KFFC","name":"Atlanta GA","scan_time":"2026-10-01T05:59:42Z","stale":false,"bins":25,"density_birds_km3":5.919333333333333,"heading_deg":313.34772259526267,"speed_ms":9.95149791643203,"peak_altitude_m":200.0,"u_ms":-5.763649059578781,"v_ms":6.565161617299245}},{"type":"Feature","geometry":{"type":"Point","coordinates":[-85.5449,42.8939]},"properties":{"site":"KGRR","name":"Grand Rapids MI","scan_time":"2026-10-01T06:02:44Z","stale":false,"bins":25,"density_birds_km3":0.6633333333333333,"heading_deg":null,"speed_ms":null,"peak_altitude_m":200.0,"u_ms":null,"v_ms":null}},{"type":"Feature","geometry":{"type":"Point","coordinates":[-83.8217,39.4203]},"properties":{"site":"KILN","name":"Wilmington OH","scan_time":"2026-10-01T06:01:25Z","stale":false,"bins":25,"density_birds_km3":4.937333333333333,"heading_deg":42.98717620138416,"speed_ms":14.304500405076965,"peak_altitude_m":400.0,"u_ms":9.580130974885227,"v_ms":10.205884418039428}},{"type":"Feature","geometry":{"type":"Point","coordinates":[-81.7019,30.4846]},"properties":{"site":"KJAX","name":"Jacksonville FL","scan_time":"2026-10-01T06:01:27Z","stale":false,"bins":25,"density_birds_km3":25.258125,"heading_deg":201.74731992884696,"speed_ms":6.507953324918949,"peak_altitude_m":0.0,"u_ms":-2.022415918034004,"v_ms":-5.315015715098869}},{"type":"Feature","geometry":{"type":"Point","coordinates":[-88.0847,41.6045]},"properties":{"site":"KLOT","name":"Chicago IL","scan_time":"2026-10-01T06:02:15Z","stale":false,"bins":25,"density_birds_km3":0.734,"heading_deg":29.726222681930235,"speed_ms":9.305669050051073,"peak_altitude_m":400.0,"u_ms":5.00873340143003,"v_ms":7.743993871297243}},{"type":"Feature","geometry":{"type":"Point","coordinates":[-78.4292,33.9892]},"properties":{"site":"KLTX","name":"Wilmington NC","scan_time":"2026-10-01T05:57:59Z","stale":false,"bins":25,"density_birds_km3":6.135625,"heading_deg":246.1187655059178,"speed_ms":7.020772307692308,"peak_altitude_m":0.0,"u_ms":-6.057343589743589,"v_ms":-2.757762051282051}},{"type":"Feature","geometry":{"type":"Point","coordinates":[-77.4778,38.9753]},"properties":{"site":"KLWX","name":"Sterling VA","scan_time":"2026-10-01T05:59:44Z","stale":false,"bins":25,"density_birds_km3":18.550625,"heading_deg":345.54389648273894,"speed_ms":6.510061655604596,"peak_altitude_m":0.0,"u_ms":0.6953943600283008,"v_ms":3.9378302617836325}},{"type":"Feature","geometry":{"type":"Point","coordinates":[-76.8762,34.7759]},"properties":{"site":"KMHX","name":"Morehead City NC","scan_time":"2026-10-01T05:58:15Z","stale":false,"bins":25,"density_birds_km3":3.745625,"heading_deg":301.01483984298113,"speed_ms":3.6925513098615053,"peak_altitude_m":0.0,"u_ms":-1.4978808610045053,"v_ms":0.37985149340897695}},{"type":"Feature","geometry":{"type":"Point","coordinates":[-80.6542,28.1133]},"properties":{"site":"KMLB","name":"Melbourne FL","scan_time":"2026-10-01T06:02:15Z","stale":false,"bins":25,"density_birds_km3":1.81125,"heading_deg":233.725142642052,"speed_ms":4.939872325741891,"peak_altitude_m":200.0,"u_ms":-3.89635955831608,"v_ms":-2.8571704623878533}},{"type":"Feature","geometry":{"type":"Point","coordinates":[-86.5625,36.2472]},"properties":{"site":"KOHX","name":"Nashville TN","scan_time":"2026-10-01T05:59:28Z","stale":false,"bins":25,"density_birds_km3":7.247333333333333,"heading_deg":21.750581958078154,"speed_ms":12.51037531045902,"peak_altitude_m":200.0,"u_ms":4.429243859810505,"v_ms":10.365024376782266}},{"type":"Feature","geometry":{"type":"Point","coordinates":[-72.8639,40.8655]},"properties":{"site":"KOKX","name":"Upton NY","scan_time":"2026-10-01T06:04:25Z","stale":false,"bins":25,"density_birds_km3":5.698125,"heading_deg":70.70399263122965,"speed_ms":7.219402084476139,"peak_altitude_m":0.0,"u_ms":6.503783872737246,"v_ms":1.9177630279758642}},{"type":"Feature","geometry":{"type":"Point","coordinates":[-80.2183,40.5317]},"properties":{"site":"KPBZ","name":"Pittsburgh PA","scan_time":"2026-10-01T06:00:58Z","stale":false,"bins":25,"density_birds_km3":4.367142857142857,"heading_deg":46.725391634680804,"speed_ms":12.834563297350343,"peak_altitude_m":400.0,"u_ms":9.315376185803075,"v_ms":8.587315996074583}},{"type":"Feature","geometry":{"type":"Point","coordinates":[-78.4899,35.6655]},"properties":{"site":"KRAX","name":"Raleigh NC","scan_time":"2026-10-01T06:02:14Z","stale":false,"bins":25,"density_birds_km3":8.845,"heading_deg":77.20013745042073,"speed_ms":6.17256254078747,"peak_altitude_m":0.0,"u_ms":4.858400406061925,"v_ms":1.699016024943804}},{"type":"Feature","geometry":{"type":"Point","coordinates":[-82.4017,27.7055]},"properties":{"site":"KTBW","name":"Tampa FL","scan_time":"2026-10-01T06:00:34Z","stale":false,"bins":25,"density_birds_km3":5.92125,"heading_deg":248.22450431530444,"speed_ms":6.125515676132166,"peak_altitude_m":0.0,"u_ms":-5.047671276258842,"v_ms":-1.4010820225905203}}]}