{"type":"FeatureCollection","frame":"2026-09-17T02","site_count":20,"fresh_count":20,"failures":{},"features":[{"type":"Feature","geometry":{"type":"Point","coordinates":[-77.0073,36.984]},"properties":{"site":"KAKQ","name":"Wakefield VA","scan_time":"2026-09-17T02:02:53Z","stale":false,"bins":25,"density_birds_km3":5.3031250000000005,"heading_deg":345.1401629064252,"speed_ms":5.404919952210275,"peak_altitude_m":0.0,"u_ms":-1.3979414575866187,"v_ms":2.9879605734767023}},{"type":"Feature","geometry":{"type":"Point","coordinates":[-71.1369,41.9558]},"properties":{"site":"KBOX","name":"Boston MA","scan_time":"2026-09-17T02:02:36Z","stale":false,"bins":25,"density_birds_km3":2.528125,"heading_deg":100.77637006353144,"speed_ms":7.6679549393414215,"peak_altitude_m":0.0,"u_ms":6.886751671205745,"v_ms":-1.475711809853924}},{"type":"Feature","geometry":{"type":"Point","coordinates":[-78.7369,42.9489]},"properties":{"site":"KBUF","name":"Buffalo NY","scan_time":"2026-09-17T01:59:54Z","stale":false,"bins":25,"density_birds_km3":44.56666666666667,"heading_deg":230.1519400883277,"speed_ms":6.546084667165296,"peak_altitude_m":400.0,"u_ms":-4.889536275243081,"v_ms":-4.10617038145101}},{"type":"Feature","geometry":{"type":"Point","coordinates":[-81.8597,41.4131]},"properties":{"site":"KCLE","name":"Cleveland OH","scan_time":"2026-09-17T02:01:50Z","stale":false,"bins":25,"density_birds_km3":30.11866666666667,"heading_deg":264.4144163860057,"speed_ms":7.322068599012422,"peak_altitude_m":600.0,"u_ms":-6.594107083545537,"v_ms":-0.9740298044773144}},{"type":"Feature","geometry":{"type":"Point","coordinates":[-81.0423,32.6555]},"properties":{"site":"KCLX","name":"Charleston SC","scan_time":"2026-09-17T01:58:18Z","stale":false,"bins":25,"density_birds_km3":26.281875,"heading_deg":226.36414243855563,"speed_ms":10.529731084015367,"peak_altitude_m":0.0,"u_ms":-6.904782266338972,"v_ms":-7.1755968884965045}},{"type":"Feature","geometry":{"type":"Point","coordinates":[-74.4108,39.947]},"properties":{"site":"KDIX","name":"Philadelphia PA","scan_time":"2026-09-17T02:02:37Z","stale":false,"bins":25,"density_birds_km3":2.09125,"heading_deg":52.11607823139352,"speed_ms":7.992031812725089,"peak_altitude_m":200.0,"u_ms":5.7686614645858345,"v_ms":4.850912364945979}},{"type":"Feature","geometry":{"type":"Point","coordinates":[-84.5658,33.3636]},"properties":{"site":"KFFC","name":"Atlanta GA","scan_time":"2026-09-17T02:02:17Z","stale":false,"bins":25,"density_birds_km3":42.89666666666667,"heading_deg":240.05079591353265,"speed_ms":9.063532520009323,"peak_altitude_m":400.0,"u_ms":-7.303900225347734,"v_ms":-4.805545730048955}},{"type":"Feature","geometry":{"type":"Point","coordinates":[-85.5449,42.8939]},"properties":{"site":"KGRR","name":"Grand Rapids MI","scan_time":"2026-09-17T01:58:38Z","stale":false,"bins":25,"density_birds_km3":41.09533333333333,"heading_deg":245.50650144617418,"speed_ms":8.149955035387313,"peak_altitude_m":400.0,"u_ms":-6.835040257126161,"v_ms":-3.006034348418934}},{"type":"Feature","geometry":{"type":"Point","coordinates":[-83.8217,39.4203]},"properties":{"site":"KILN","name":"Wilmington OH","scan_time":"2026-09-17T02:01:25Z","stale":false,"bins":25,"density_birds_km3":27.68066666666667,"heading_deg":96.31133061565842,"speed_ms":7.157152284386213,"peak_altitude_m":200.0,"u_ms":7.035276847860118,"v_ms":-0.5539389706413622}},{"type":"Feature","geometry":{"type":"Point","coordinates":[-81.7019,30.4846]},"properties":{"site":"KJAX","name":"Jacksonville FL","scan_time":"2026-09-17T02:00:20Z","stale":false,"bins":25,"density_birds_km3":102.340625,"heading_deg":187.67407421459345,"speed_ms":12.085317223529705,"peak_altitude_m":0.0,"u_ms":-1.6854374293497398,"v_ms":-11.885254155625152}},{"type":"Feature","geometry":{"type":"Point","coordinates":[-88.0847,41.6045]},"properties":{"site":"KLOT","name":"Chicago IL","scan_time":"2026-09-17T01:58:02Z","stale":false,"bins":25,"density_birds_km3":22.436,"heading_deg":200.05920935898084,"speed_ms":6.840014702729194,"peak_altitude_m":200.0,"u_ms":-1.1118216068857782,"v_ms":-4.203064906423255}},{"type":"Feature","geometry":{"type":"Point","coordinates":[-78.4292,33.9892]},"properties":{"site":"KLTX","name":"Wilmington NC","scan_time":"2026-09-17T02:01:29Z","stale":false,"bins":25,"density_birds_km3":6.77625,"heading_deg":243.39390351992728,"speed_ms":8.538646006271906,"peak_altitude_m":0.0,"u_ms":-6.012359343294595,"v_ms":-3.661912931193507}},{"type":"Feature","geometry":{"type":"Point","coordinates":[-77.4778,38.9753]},"properties":{"site":"KLWX","name":"Sterling VA","scan_time":"2026-09-17T02:02:22Z","stale":false,"bins":25,"density_birds_km3":6.05875,"heading_deg":36.577054326111664,"speed_ms":9.015913776944704,"peak_altitude_m":200.0,"u_ms":3.7360345725294177,"v_ms":5.950894512131625}},{"type":"Feature","geometry":{"type":"Point","coordinates":[-76.8762,34.7759]},"properties":{"site":"KMHX","name":"Morehead City NC","scan_time":"2026-09-17T02:00:13Z","stale":false,"bins":25,"density_birds_km3":6.039375,"heading_deg":247.33166897638006,"speed_ms":4.624685915347201,"peak_altitude_m":0.0,"u_ms":-3.4488761254268865,"v_ms":-1.2983824899099659}},{"type":"Feature","geometry":{"type":"Point","coordinates":[-80.6542,28.1133]},"properties":{"site":"KMLB","name":"Melbourne FL","scan_time":"2026-09-17T02:00:27Z","stale":false,"bins":25,"density_birds_km3":14.261875,"heading_deg":191.18335880152128,"speed_ms":8.636741169252344,"peak_altitude_m":0.0,"u_ms":-1.6912687352090454,"v_ms":-8.435828293452538}},{"type":"Feature","geometry":{"type":"Point","coordinates":[-86.5625,36.2472]},"properties":{"site":"KOHX","name":"Nashville TN","scan_time":"2026-09-17T02:01:21Z","stale":false,"bins":25,"density_birds_km3":22.554,"heading_deg":295.4393823239264,"speed_ms":4.507723094203541,"peak_altitude_m":200.0,"u_ms":-3.7737255771333986,"v_ms":1.5555978244805062}},{"type":"Feature","geometry":{"type":"Point","coordinates":[-72.8639,40.8655]},"properties":{"site":"KOKX","name":"Upton NY","scan_time":"2026-09-17T01:59:20Z","stale":false,"bins":25,"density_birds_km3":0.33375,"heading_deg":68.09869229610977,"speed_ms":6.5268749999999995,"peak_altitude_m":0.0,"u_ms":5.3225,"v_ms":2.264609375}},{"type":"Feature","geometry":{"type":"Point","coordinates":[-80.2183,40.5317]},"properties":{"site":"KPBZ","name":"Pittsburgh PA","scan_time":"2026-09-17T02:01:14Z","stale":false,"bins":25,"density_birds_km3":23.920714285714286,"heading_deg":122.65342628158197,"speed_ms":4.259937292842426,"peak_altitude_m":600.0,"u_ms":3.3713819463107293,"v_ms":-2.1628734808444565}},{"type":"Feature","geometry":{"type":"Point","coordinates":[-78.4899,35.6655]},"properties":{"site":"KRAX","name":"Raleigh NC","scan_time":"2026-09-17T01:58:16Z","stale":false,"bins":25,"density_birds_km3":22.239375,"heading_deg":270.2240012338625,"speed_ms":3.7248549955537706,"peak_altitude_m":200.0,"u_ms":-2.454400045896561,"v_ms":-0.18883021141103234}},{"type":"Feature","geometry":{"type":"Point","coordinates":[-82.4017,27.7055]},"properties":{"site":"KTBW","name":"Tampa FL","scan_time":"2026-09-17T02:00:31Z","stale":false,"bins":25,"density_birds_km3":32.22,"heading_deg":202.01080035064902,"speed_ms":11.280371663563004,"peak_altitude_m":0.0,"u_ms":-4.594537748292986,"v_ms":-9.850278165735569}}]}