{"type":"FeatureCollection","frame":"2026-09-27T06","site_count":20,"fresh_count":20,"failures":{},"features":[{"type":"Feature","geometry":{"type":"Point","coordinates":[-77.0073,36.984]},"properties":{"site":"KAKQ","name":"Wakefield VA","scan_time":"2026-09-27T05:58:22Z","stale":false,"bins":25,"density_birds_km3":4.333125,"heading_deg":157.40989946036103,"speed_ms":14.821003406627439,"peak_altitude_m":200.0,"u_ms":5.039831217095076,"v_ms":-13.740735521833386}},{"type":"Feature","geometry":{"type":"Point","coordinates":[-71.1369,41.9558]},"properties":{"site":"KBOX","name":"Boston MA","scan_time":"2026-09-27T06:02:08Z","stale":false,"bins":25,"density_birds_km3":0.015454545454545455,"heading_deg":null,"speed_ms":null,"peak_altitude_m":1800.0,"u_ms":null,"v_ms":null}},{"type":"Feature","geometry":{"type":"Point","coordinates":[-78.7369,42.9489]},"properties":{"site":"KBUF","name":"Buffalo NY","scan_time":"2026-09-27T06:00:27Z","stale":false,"bins":25,"density_birds_km3":26.493999999999996,"heading_deg":203.18671089170377,"speed_ms":16.752106388867922,"peak_altitude_m":200.0,"u_ms":-6.754824236934149,"v_ms":-14.976165924360235}},{"type":"Feature","geometry":{"type":"Point","coordinates":[-81.8597,41.4131]},"properties":{"site":"KCLE","name":"Cleveland OH","scan_time":"2026-09-27T05:56:39Z","stale":false,"bins":25,"density_birds_km3":29.171333333333333,"heading_deg":184.80917789905567,"speed_ms":11.417150497086046,"peak_altitude_m":200.0,"u_ms":-1.2559426351274139,"v_ms":-10.755442120900469}},{"type":"Feature","geometry":{"type":"Point","coordinates":[-81.0423,32.6555]},"properties":{"site":"KCLX","name":"Charleston SC","scan_time":"2026-09-27T06:03:55Z","stale":false,"bins":25,"density_birds_km3":55.039375,"heading_deg":181.44887651277008,"speed_ms":8.238517311470197,"peak_altitude_m":0.0,"u_ms":-1.4929878609631742,"v_ms":-8.045321417621475}},{"type":"Feature","geometry":{"type":"Point","coordinates":[-74.4108,39.947]},"properties":{"site":"KDIX","name":"Philadelphia PA","scan_time":"2026-09-27T06:00:32Z","stale":false,"bins":25,"density_birds_km3":null,"heading_deg":null,"speed_ms":null,"peak_altitude_m":null,"u_ms":null,"v_ms":null}},{"type":"Feature","geometry":{"type":"Point","coordinates":[-84.5658,33.3636]},"properties":{"site":"KFFC","name":"Atlanta GA","scan_time":"2026-09-27T05:57:50Z","stale":false,"bins":25,"density_birds_km3":90.664,"heading_deg":192.98031962041554,"speed_ms":13.969039971763873,"peak_altitude_m":400.0,"u_ms":-3.018285464278361,"v_ms":-13.436470116768138}},{"type":"Feature","geometry":{"type":"Point","coordinates":[-85.5449,42.8939]},"properties":{"site":"KGRR","name":"Grand Rapids MI","scan_time":"2026-09-27T05:56:12Z","stale":false,"bins":25,"density_birds_km3":50.622,"heading_deg":214.4780443947294,"speed_ms":10.38994613552144,"peak_altitude_m":200.0,"u_ms":-5.725651667548967,"v_ms":-8.459148623610375}},{"type":"Feature","geometry":{"type":"Point","coordinates":[-83.8217,39.4203]},"properties":{"site":"KILN","name":"Wilmington OH","scan_time":"2026-09-27T06:01:42Z","stale":false,"bins":25,"density_birds_km3":68.69,"heading_deg":197.83859023606183,"speed_ms":12.691127966225071,"peak_altitude_m":200.0,"u_ms":-3.9407559567137387,"v_ms":-11.089374872616103}},{"type":"Feature","geometry":{"type":"Point","coordinates":[-81.7019,30.4846]},"properties":{"site":"KJAX","name":"Jacksonville FL","scan_time":"2026-09-27T05:59:53Z","stale":false,"bins":25,"density_birds_km3":87.268125,"heading_deg":189.41138108774697,"speed_ms":12.182147834618883,"peak_altitude_m":1200.0,"u_ms":-1.2236450164364137,"v_ms":-11.97279419031863}},{"type":"Feature","geometry":{"type":"Point","coordinates":[-88.0847,41.6045]},"properties":{"site":"KLOT","name":"Chicago IL","scan_time":"2026-09-27T06:00:11Z","stale":false,"bins":25,"density_birds_km3":23.672666666666668,"heading_deg":194.81762448976494,"speed_ms":9.196344946066972,"peak_altitude_m":200.0,"u_ms":-2.199693018278086,"v_ms":-6.894521080350354}},{"type":"Feature","geometry":{"type":"Point","coordinates":[-78.4292,33.9892]},"properties":{"site":"KLTX","name":"Wilmington NC","scan_time":"2026-09-27T06:02:10Z","stale":false,"bins":25,"density_birds_km3":109.44624999999999,"heading_deg":159.2825926176764,"speed_ms":10.09252793391829,"peak_altitude_m":0.0,"u_ms":3.3991883740060325,"v_ms":-9.303203546293759}},{"type":"Feature","geometry":{"type":"Point","coordinates":[-77.4778,38.9753]},"properties":{"site":"KLWX","name":"Sterling VA","scan_time":"2026-09-27T06:01:22Z","stale":false,"bins":25,"density_birds_km3":4.476875,"heading_deg":174.51953558050587,"speed_ms":17.412513974287307,"peak_altitude_m":600.0,"u_ms":0.6557546115148128,"v_ms":-16.828661263275574}},{"type":"Feature","geometry":{"type":"Point","coordinates":[-76.8762,34.7759]},"properties":{"site":"KMHX","name":"Morehead City NC","scan_time":"2026-09-27T06:01:37Z","stale":false,"bins":25,"density_birds_km3":14.6025,"heading_deg":150.01727200667162,"speed_ms":9.296344168915157,"peak_altitude_m":0.0,"u_ms":5.119219666795152,"v_ms":-7.349139149428241}},{"type":"Feature","geometry":{"type":"Point","coordinates":[-80.6542,28.1133]},"properties":{"site":"KMLB","name":"Melbourne FL","scan_time":"2026-09-27T05:59:41Z","stale":false,"bins":25,"density_birds_km3":31.0825,"heading_deg":167.8326106021766,"speed_ms":12.85625256384476,"peak_altitude_m":600.0,"u_ms":2.7858105771164285,"v_ms":-12.48844339432938}},{"type":"Feature","geometry":{"type":"Point","coordinates":[-86.5625,36.2472]},"properties":{"site":"KOHX","name":"Nashville TN","scan_time":"2026-09-27T05:59:36Z","stale":false,"bins":25,"density_birds_km3":67.706,"heading_deg":207.55026643884827,"speed_ms":11.373487529416398,"peak_altitude_m":200.0,"u_ms":-5.022539705983714,"v_ms":-9.511540286926811}},{"type":"Feature","geometry":{"type":"Point","coordinates":[-72.8639,40.8655]},"properties":{"site":"KOKX","name":"Upton NY","scan_time":"2026-09-27T06:01:58Z","stale":false,"bins":25,"density_birds_km3":1.108,"heading_deg":null,"speed_ms":null,"peak_altitude_m":0.0,"u_ms":null,"v_ms":null}},{"type":"Feature","geometry":{"type":"Point","coordinates":[-80.2183,40.5317]},"properties":{"site":"KPBZ","name":"Pittsburgh PA","scan_time":"2026-09-27T06:00:48Z","stale":false,"bins":25,"density_birds_km3":37.80571428571428,"heading_deg":197.5815237969106,"speed_ms":20.128218712212817,"peak_altitude_m":600.0,"u_ms":-6.526638641172915,"v_ms":-18.21110225211608}},{"type":"Feature","geometry":{"type":"Point","coordinates":[-78.4899,35.6655]},"properties":{"site":"KRAX","name":"Raleigh NC","scan_time":"2026-09-27T05:58:06Z","stale":false,"bins":25,"density_birds_km3":14.154375,"heading_deg":182.9100317873148,"speed_ms":11.021600123663987,"peak_altitude_m":0.0,"u_ms":-0.3848719194417454,"v_ms":-10.762851338221004}},{"type":"Feature","geometry":{"type":"Point","coordinates":[-82.4017,27.7055]},"properties":{"site":"KTBW","name":"Tampa FL","scan_time":"2026-09-27T06:02:43Z","stale":false,"bins":25,"density_birds_km3":32.090625,"heading_deg":190.82853467407023,"speed_ms":10.593376180738142,"peak_altitude_m":600.0,"u_ms":-1.1732610770279481,"v_ms":-9.93401830752751}}]}