{"type":"FeatureCollection","frame":"2026-09-15T11","site_count":20,"fresh_count":18,"failures":{"KDIX":"RuntimeError('no scan within 20 min of 2026-09-15T11:00Z')","KBUF":"RuntimeError('no scan within 20 min of 2026-09-15T11:00Z')"},"features":[{"type":"Feature","geometry":{"type":"Point","coordinates":[-77.0073,36.984]},"properties":{"site":"KAKQ","name":"Wakefield VA","scan_time":"2026-09-15T10:57:22Z","stale":false,"bins":25,"density_birds_km3":6.769375,"heading_deg":232.56925132155817,"speed_ms":9.60735606690694,"peak_altitude_m":200.0,"u_ms":-7.313533869328159,"v_ms":-5.782083910913964}},{"type":"Feature","geometry":{"type":"Point","coordinates":[-71.1369,41.9558]},"properties":{"site":"KBOX","name":"Boston MA","scan_time":"2026-09-15T10:58:35Z","stale":false,"bins":25,"density_birds_km3":4.533125,"heading_deg":218.70880669292347,"speed_ms":5.386080242658211,"peak_altitude_m":0.0,"u_ms":-3.248484764924859,"v_ms":-4.107743002895353}},{"type":"Feature","geometry":{"type":"Point","coordinates":[-81.8597,41.4131]},"properties":{"site":"KCLE","name":"Cleveland OH","scan_time":"2026-09-15T11:01:24Z","stale":false,"bins":25,"density_birds_km3":2.052,"heading_deg":344.0164966026846,"speed_ms":9.849785365853657,"peak_altitude_m":200.0,"u_ms":-2.699713821138211,"v_ms":9.414273170731706}},{"type":"Feature","geometry":{"type":"Point","coordinates":[-81.0423,32.6555]},"properties":{"site":"KCLX","name":"Charleston SC","scan_time":"2026-09-15T10:58:59Z","stale":false,"bins":25,"density_birds_km3":23.389375,"heading_deg":241.4292735138869,"speed_ms":7.49313480978026,"peak_altitude_m":0.0,"u_ms":-6.568833914120324,"v_ms":-3.4325127437145406}},{"type":"Feature","geometry":{"type":"Point","coordinates":[-84.5658,33.3636]},"properties":{"site":"KFFC","name":"Atlanta GA","scan_time":"2026-09-15T10:58:27Z","stale":false,"bins":25,"density_birds_km3":4.257333333333333,"heading_deg":259.12785278089524,"speed_ms":6.6105058731401725,"peak_altitude_m":400.0,"u_ms":-6.434250587314017,"v_ms":-1.2225262333594362}},{"type":"Feature","geometry":{"type":"Point","coordinates":[-85.5449,42.8939]},"properties":{"site":"KGRR","name":"Grand Rapids MI","scan_time":"2026-09-15T11:00:58Z","stale":false,"bins":25,"density_birds_km3":0.322,"heading_deg":null,"speed_ms":null,"peak_altitude_m":200.0,"u_ms":null,"v_ms":null}},{"type":"Feature","geometry":{"type":"Point","coordinates":[-83.8217,39.4203]},"properties":{"site":"KILN","name":"Wilmington OH","scan_time":"2026-09-15T10:58:56Z","stale":false,"bins":25,"density_birds_km3":0.09466666666666666,"heading_deg":1.0911078310150244,"speed_ms":6.274680851063831,"peak_altitude_m":600.0,"u_ms":-1.185886524822695,"v_ms":5.467517730496454}},{"type":"Feature","geometry":{"type":"Point","coordinates":[-81.7019,30.4846]},"properties":{"site":"KJAX","name":"Jacksonville FL","scan_time":"2026-09-15T10:59:06Z","stale":false,"bins":25,"density_birds_km3":37.64,"heading_deg":215.22446875064526,"speed_ms":7.253917170405155,"peak_altitude_m":0.0,"u_ms":-4.235867512614278,"v_ms":-5.788084128490783}},{"type":"Feature","geometry":{"type":"Point","coordinates":[-88.0847,41.6045]},"properties":{"site":"KLOT","name":"Chicago IL","scan_time":"2026-09-15T11:00:29Z","stale":false,"bins":25,"density_birds_km3":0.3446666666666667,"heading_deg":38.491506991173054,"speed_ms":9.267485493230174,"peak_altitude_m":200.0,"u_ms":5.721663442940039,"v_ms":7.2241586073500965}},{"type":"Feature","geometry":{"type":"Point","coordinates":[-78.4292,33.9892]},"properties":{"site":"KLTX","name":"Wilmington NC","scan_time":"2026-09-15T11:02:15Z","stale":false,"bins":25,"density_birds_km3":72.15125,"heading_deg":231.0636504649473,"speed_ms":10.47378717246638,"peak_altitude_m":200.0,"u_ms":-7.808831103563011,"v_ms":-5.503967575904617}},{"type":"Feature","geometry":{"type":"Point","coordinates":[-77.4778,38.9753]},"properties":{"site":"KLWX","name":"Sterling VA","scan_time":"2026-09-15T11:02:42Z","stale":false,"bins":25,"density_birds_km3":4.279375,"heading_deg":242.89338408160165,"speed_ms":7.3127957931638905,"peak_altitude_m":0.0,"u_ms":-6.3676716330704055,"v_ms":-3.3088066023955593}},{"type":"Feature","geometry":{"type":"Point","coordinates":[-76.8762,34.7759]},"properties":{"site":"KMHX","name":"Morehead City NC","scan_time":"2026-09-15T10:59:38Z","stale":false,"bins":25,"density_birds_km3":16.491875,"heading_deg":213.63550277812118,"speed_ms":10.878089968545117,"peak_altitude_m":0.0,"u_ms":-4.596680562398151,"v_ms":-8.108421950202752}},{"type":"Feature","geometry":{"type":"Point","coordinates":[-80.6542,28.1133]},"properties":{"site":"KMLB","name":"Melbourne FL","scan_time":"2026-09-15T11:00:22Z","stale":false,"bins":25,"density_birds_km3":2.34,"heading_deg":240.71546433572252,"speed_ms":2.604946495452113,"peak_altitude_m":0.0,"u_ms":-2.052517388978063,"v_ms":-1.1098475120385232}},{"type":"Feature","geometry":{"type":"Point","coordinates":[-86.5625,36.2472]},"properties":{"site":"KOHX","name":"Nashville TN","scan_time":"2026-09-15T11:00:06Z","stale":false,"bins":25,"density_birds_km3":8.021333333333333,"heading_deg":3.8104803901606386,"speed_ms":11.032887540520322,"peak_altitude_m":400.0,"u_ms":1.1955381930014128,"v_ms":10.228350095586402}},{"type":"Feature","geometry":{"type":"Point","coordinates":[-72.8639,40.8655]},"properties":{"site":"KOKX","name":"Upton NY","scan_time":"2026-09-15T10:59:47Z","stale":false,"bins":25,"density_birds_km3":3.436875,"heading_deg":243.13764919099435,"speed_ms":8.831031096563011,"peak_altitude_m":0.0,"u_ms":-7.844346244771777,"v_ms":-4.005635570103655}},{"type":"Feature","geometry":{"type":"Point","coordinates":[-80.2183,40.5317]},"properties":{"site":"KPBZ","name":"Pittsburgh PA","scan_time":"2026-09-15T11:00:50Z","stale":false,"bins":25,"density_birds_km3":0.8099999999999999,"heading_deg":318.2343195816236,"speed_ms":7.114435626102293,"peak_altitude_m":400.0,"u_ms":-4.716975308641976,"v_ms":5.242283950617284}},{"type":"Feature","geometry":{"type":"Point","coordinates":[-78.4899,35.6655]},"properties":{"site":"KRAX","name":"Raleigh NC","scan_time":"2026-09-15T11:00:47Z","stale":false,"bins":25,"density_birds_km3":15.065625,"heading_deg":200.6163758534072,"speed_ms":11.177914176822096,"peak_altitude_m":0.0,"u_ms":-2.4208488213428696,"v_ms":-7.184425728132498}},{"type":"Feature","geometry":{"type":"Point","coordinates":[-82.4017,27.7055]},"properties":{"site":"KTBW","name":"Tampa FL","scan_time":"2026-09-15T10:58:19Z","stale":false,"bins":25,"density_birds_km3":2.294375,"heading_deg":291.9212200625017,"speed_ms":4.855711559432934,"peak_altitude_m":0.0,"u_ms":-3.9513822246455836,"v_ms":1.625542529989095}}]}