{"type":"FeatureCollection","frame":"2026-08-17T12","site_count":20,"fresh_count":19,"failures":{"KGRR":"RuntimeError('no scan within 20 min of 2026-08-17T12:00Z')"},"features":[{"type":"Feature","geometry":{"type":"Point","coordinates":[-77.0073,36.984]},"properties":{"site":"KAKQ","name":"Wakefield VA","scan_time":"2026-08-17T11:57:40Z","stale":false,"bins":25,"density_birds_km3":0.6062500000000001,"heading_deg":52.18089188059883,"speed_ms":7.798134020618557,"peak_altitude_m":0.0,"u_ms":6.020762886597938,"v_ms":4.539474226804123}},{"type":"Feature","geometry":{"type":"Point","coordinates":[-71.1369,41.9558]},"properties":{"site":"KBOX","name":"Boston MA","scan_time":"2026-08-17T11:58:09Z","stale":false,"bins":25,"density_birds_km3":1.2175,"heading_deg":342.3068814091369,"speed_ms":3.643701923076923,"peak_altitude_m":0.0,"u_ms":-1.102451923076923,"v_ms":3.4643269230769227}},{"type":"Feature","geometry":{"type":"Point","coordinates":[-78.7369,42.9489]},"properties":{"site":"KBUF","name":"Buffalo NY","scan_time":"2026-08-17T12:01:42Z","stale":false,"bins":25,"density_birds_km3":0.9206666666666667,"heading_deg":163.7728267674158,"speed_ms":4.48281679942071,"peak_altitude_m":200.0,"u_ms":1.2259739319333818,"v_ms":-4.199297610427226}},{"type":"Feature","geometry":{"type":"Point","coordinates":[-81.8597,41.4131]},"properties":{"site":"KCLE","name":"Cleveland OH","scan_time":"2026-08-17T12:01:38Z","stale":false,"bins":25,"density_birds_km3":5.252,"heading_deg":195.93528241860574,"speed_ms":5.16962173140391,"peak_altitude_m":200.0,"u_ms":-1.347047473978167,"v_ms":-4.872495557248032}},{"type":"Feature","geometry":{"type":"Point","coordinates":[-81.0423,32.6555]},"properties":{"site":"KCLX","name":"Charleston SC","scan_time":"2026-08-17T12:04:12Z","stale":false,"bins":25,"density_birds_km3":0.594375,"heading_deg":125.57164546353147,"speed_ms":8.063001060445387,"peak_altitude_m":0.0,"u_ms":6.317051961823966,"v_ms":-4.6627359490986215}},{"type":"Feature","geometry":{"type":"Point","coordinates":[-74.4108,39.947]},"properties":{"site":"KDIX","name":"Philadelphia PA","scan_time":"2026-08-17T12:00:50Z","stale":false,"bins":25,"density_birds_km3":0.19562500000000002,"heading_deg":129.4634190533217,"speed_ms":4.941428571428571,"peak_altitude_m":0.0,"u_ms":3.7957142857142854,"v_ms":-3.134285714285714}},{"type":"Feature","geometry":{"type":"Point","coordinates":[-84.5658,33.3636]},"properties":{"site":"KFFC","name":"Atlanta GA","scan_time":"2026-08-17T11:58:23Z","stale":false,"bins":25,"density_birds_km3":1.6493333333333333,"heading_deg":117.09738722960029,"speed_ms":6.201329830234439,"peak_altitude_m":200.0,"u_ms":5.002954729183509,"v_ms":-3.0368472109943414}},{"type":"Feature","geometry":{"type":"Point","coordinates":[-83.8217,39.4203]},"properties":{"site":"KILN","name":"Wilmington OH","scan_time":"2026-08-17T12:00:00Z","stale":false,"bins":25,"density_birds_km3":0.7793333333333333,"heading_deg":93.1070548183924,"speed_ms":5.821786516853932,"peak_altitude_m":400.0,"u_ms":5.769539325842697,"v_ms":-0.4286404494382022}},{"type":"Feature","geometry":{"type":"Point","coordinates":[-81.7019,30.4846]},"properties":{"site":"KJAX","name":"Jacksonville FL","scan_time":"2026-08-17T12:01:13Z","stale":false,"bins":25,"density_birds_km3":1.39625,"heading_deg":124.53452698023492,"speed_ms":9.280671742051053,"peak_altitude_m":0.0,"u_ms":7.638105687416033,"v_ms":-5.249977608598298}},{"type":"Feature","geometry":{"type":"Point","coordinates":[-88.0847,41.6045]},"properties":{"site":"KLOT","name":"Chicago IL","scan_time":"2026-08-17T12:03:23Z","stale":false,"bins":25,"density_birds_km3":9.664666666666667,"heading_deg":179.13641632856567,"speed_ms":10.04501439101439,"peak_altitude_m":200.0,"u_ms":0.14042471042471044,"v_ms":-10.024759564759567}},{"type":"Feature","geometry":{"type":"Point","coordinates":[-78.4292,33.9892]},"properties":{"site":"KLTX","name":"Wilmington NC","scan_time":"2026-08-17T12:01:16Z","stale":false,"bins":25,"density_birds_km3":0.306875,"heading_deg":92.01492837169603,"speed_ms":6.954351464435145,"peak_altitude_m":0.0,"u_ms":6.553012552301254,"v_ms":-0.2661087866108787}},{"type":"Feature","geometry":{"type":"Point","coordinates":[-77.4778,38.9753]},"properties":{"site":"KLWX","name":"Sterling VA","scan_time":"2026-08-17T11:58:30Z","stale":false,"bins":25,"density_birds_km3":1.22375,"heading_deg":111.8138271006276,"speed_ms":5.71166837256909,"peak_altitude_m":0.0,"u_ms":4.792057318321393,"v_ms":-2.6421392016376664}},{"type":"Feature","geometry":{"type":"Point","coordinates":[-76.8762,34.7759]},"properties":{"site":"KMHX","name":"Morehead City NC","scan_time":"2026-08-17T11:59:53Z","stale":false,"bins":25,"density_birds_km3":0.26875,"heading_deg":80.6152444282495,"speed_ms":8.64814814814815,"peak_altitude_m":0.0,"u_ms":8.211283950617284,"v_ms":1.511234567901235}},{"type":"Feature","geometry":{"type":"Point","coordinates":[-80.6542,28.1133]},"properties":{"site":"KMLB","name":"Melbourne FL","scan_time":"2026-08-17T11:59:50Z","stale":false,"bins":25,"density_birds_km3":3.57375,"heading_deg":149.42159327938543,"speed_ms":6.637833245752321,"peak_altitude_m":200.0,"u_ms":3.3606883867577504,"v_ms":-5.707990891574707}},{"type":"Feature","geometry":{"type":"Point","coordinates":[-86.5625,36.2472]},"properties":{"site":"KOHX","name":"Nashville TN","scan_time":"2026-08-17T12:01:01Z","stale":false,"bins":25,"density_birds_km3":7.259333333333333,"heading_deg":166.41297594607965,"speed_ms":6.823356598402056,"peak_altitude_m":200.0,"u_ms":2.138525117090642,"v_ms":-4.579867756451464}},{"type":"Feature","geometry":{"type":"Point","coordinates":[-72.8639,40.8655]},"properties":{"site":"KOKX","name":"Upton NY","scan_time":"2026-08-17T11:57:04Z","stale":false,"bins":25,"density_birds_km3":1.4606666666666668,"heading_deg":null,"speed_ms":null,"peak_altitude_m":0.0,"u_ms":null,"v_ms":null}},{"type":"Feature","geometry":{"type":"Point","coordinates":[-80.2183,40.5317]},"properties":{"site":"KPBZ","name":"Pittsburgh PA","scan_time":"2026-08-17T12:01:31Z","stale":false,"bins":25,"density_birds_km3":0.19214285714285714,"heading_deg":110.76556899700535,"speed_ms":5.091853281853282,"peak_altitude_m":400.0,"u_ms":4.591119691119691,"v_ms":-1.8862162162162164}},{"type":"Feature","geometry":{"type":"Point","coordinates":[-78.4899,35.6655]},"properties":{"site":"KRAX","name":"Raleigh NC","scan_time":"2026-08-17T12:02:49Z","stale":false,"bins":25,"density_birds_km3":0.938125,"heading_deg":111.93218092626621,"speed_ms":10.244058744993325,"peak_altitude_m":0.0,"u_ms":8.289238985313752,"v_ms":-4.622456608811749}},{"type":"Feature","geometry":{"type":"Point","coordinates":[-82.4017,27.7055]},"properties":{"site":"KTBW","name":"Tampa FL","scan_time":"2026-08-17T12:02:06Z","stale":false,"bins":25,"density_birds_km3":2.87125,"heading_deg":170.06938223857796,"speed_ms":3.8687891986062715,"peak_altitude_m":0.0,"u_ms":0.8606184668989547,"v_ms":-3.6787434668989545}}]}