{"type":"FeatureCollection","frame":"2026-08-13T12","site_count":20,"fresh_count":20,"failures":{},"features":[{"type":"Feature","geometry":{"type":"Point","coordinates":[-77.0073,36.984]},"properties":{"site":"KAKQ","name":"Wakefield VA","scan_time":"2026-08-13T11:59:39Z","stale":false,"bins":25,"density_birds_km3":4.3725,"heading_deg":196.6006713424929,"speed_ms":10.679070897655805,"peak_altitude_m":200.0,"u_ms":-3.1704488279016583,"v_ms":-10.163920811892512}},{"type":"Feature","geometry":{"type":"Point","coordinates":[-71.1369,41.9558]},"properties":{"site":"KBOX","name":"Boston MA","scan_time":"2026-08-13T12:00:39Z","stale":false,"bins":25,"density_birds_km3":1.066875,"heading_deg":37.44638831376114,"speed_ms":3.973421206795548,"peak_altitude_m":0.0,"u_ms":2.405717633274751,"v_ms":3.1419566490919744}},{"type":"Feature","geometry":{"type":"Point","coordinates":[-78.7369,42.9489]},"properties":{"site":"KBUF","name":"Buffalo NY","scan_time":"2026-08-13T12:01:34Z","stale":false,"bins":25,"density_birds_km3":0.8433333333333334,"heading_deg":131.87483185109753,"speed_ms":2.6526561264822135,"peak_altitude_m":200.0,"u_ms":1.9355573122529643,"v_ms":-1.7798102766798416}},{"type":"Feature","geometry":{"type":"Point","coordinates":[-81.8597,41.4131]},"properties":{"site":"KCLE","name":"Cleveland OH","scan_time":"2026-08-13T12:02:48Z","stale":false,"bins":25,"density_birds_km3":3.0533333333333337,"heading_deg":91.29325583846332,"speed_ms":2.823136740934906,"peak_altitude_m":200.0,"u_ms":2.601795543905636,"v_ms":-0.1469353429445172}},{"type":"Feature","geometry":{"type":"Point","coordinates":[-81.0423,32.6555]},"properties":{"site":"KCLX","name":"Charleston SC","scan_time":"2026-08-13T11:57:23Z","stale":false,"bins":25,"density_birds_km3":0.339375,"heading_deg":117.96973603788095,"speed_ms":8.082121771217711,"peak_altitude_m":0.0,"u_ms":7.057343173431734,"v_ms":-3.8440405904059043}},{"type":"Feature","geometry":{"type":"Point","coordinates":[-74.4108,39.947]},"properties":{"site":"KDIX","name":"Philadelphia PA","scan_time":"2026-08-13T11:59:55Z","stale":false,"bins":25,"density_birds_km3":0.43624999999999997,"heading_deg":127.48117954305641,"speed_ms":8.17054519368723,"peak_altitude_m":400.0,"u_ms":5.611506456241032,"v_ms":-5.326398852223816}},{"type":"Feature","geometry":{"type":"Point","coordinates":[-84.5658,33.3636]},"properties":{"site":"KFFC","name":"Atlanta GA","scan_time":"2026-08-13T12:02:05Z","stale":false,"bins":25,"density_birds_km3":2.1733333333333333,"heading_deg":119.8087623189666,"speed_ms":8.650987730061349,"peak_altitude_m":200.0,"u_ms":6.642904907975461,"v_ms":-4.852825153374233}},{"type":"Feature","geometry":{"type":"Point","coordinates":[-85.5449,42.8939]},"properties":{"site":"KGRR","name":"Grand Rapids MI","scan_time":"2026-08-13T12:00:26Z","stale":false,"bins":25,"density_birds_km3":1.6106666666666667,"heading_deg":214.68686832808658,"speed_ms":4.002495854063018,"peak_altitude_m":200.0,"u_ms":-2.2483665008291873,"v_ms":-3.278611111111111}},{"type":"Feature","geometry":{"type":"Point","coordinates":[-83.8217,39.4203]},"properties":{"site":"KILN","name":"Wilmington OH","scan_time":"2026-08-13T11:59:51Z","stale":false,"bins":25,"density_birds_km3":0.07933333333333333,"heading_deg":193.47063443135622,"speed_ms":2.651913043478261,"peak_altitude_m":200.0,"u_ms":-0.6533913043478261,"v_ms":-2.437913043478261}},{"type":"Feature","geometry":{"type":"Point","coordinates":[-81.7019,30.4846]},"properties":{"site":"KJAX","name":"Jacksonville FL","scan_time":"2026-08-13T12:02:39Z","stale":false,"bins":25,"density_birds_km3":2.421875,"heading_deg":147.1186698895965,"speed_ms":8.264758335487205,"peak_altitude_m":0.0,"u_ms":4.322856035151202,"v_ms":-6.9635590591884196}},{"type":"Feature","geometry":{"type":"Point","coordinates":[-88.0847,41.6045]},"properties":{"site":"KLOT","name":"Chicago IL","scan_time":"2026-08-13T12:00:59Z","stale":false,"bins":25,"density_birds_km3":13.971333333333332,"heading_deg":234.5830507851552,"speed_ms":5.10120385470719,"peak_altitude_m":400.0,"u_ms":-4.1509330368173964,"v_ms":-2.9500212503088705}},{"type":"Feature","geometry":{"type":"Point","coordinates":[-78.4292,33.9892]},"properties":{"site":"KLTX","name":"Wilmington NC","scan_time":"2026-08-13T12:00:30Z","stale":false,"bins":25,"density_birds_km3":1.154375,"heading_deg":33.94187288005683,"speed_ms":3.3711123168746613,"peak_altitude_m":0.0,"u_ms":1.7926370048833424,"v_ms":2.3603147042864894}},{"type":"Feature","geometry":{"type":"Point","coordinates":[-77.4778,38.9753]},"properties":{"site":"KLWX","name":"Sterling VA","scan_time":"2026-08-13T11:58:17Z","stale":false,"bins":25,"density_birds_km3":1.12,"heading_deg":156.7572008844117,"speed_ms":6.581502793296091,"peak_altitude_m":0.0,"u_ms":2.847128491620112,"v_ms":-5.873743016759777}},{"type":"Feature","geometry":{"type":"Point","coordinates":[-76.8762,34.7759]},"properties":{"site":"KMHX","name":"Morehead City NC","scan_time":"2026-08-13T11:59:36Z","stale":false,"bins":25,"density_birds_km3":3.075625,"heading_deg":104.41684738909056,"speed_ms":5.0336008941272095,"peak_altitude_m":0.0,"u_ms":3.092660028449502,"v_ms":-2.3305974395448077}},{"type":"Feature","geometry":{"type":"Point","coordinates":[-80.6542,28.1133]},"properties":{"site":"KMLB","name":"Melbourne FL","scan_time":"2026-08-13T11:57:25Z","stale":false,"bins":25,"density_birds_km3":2.070625,"heading_deg":145.51542884263904,"speed_ms":8.047197221383268,"peak_altitude_m":200.0,"u_ms":4.540480217456961,"v_ms":-6.638151615826034}},{"type":"Feature","geometry":{"type":"Point","coordinates":[-86.5625,36.2472]},"properties":{"site":"KOHX","name":"Nashville TN","scan_time":"2026-08-13T11:57:34Z","stale":false,"bins":25,"density_birds_km3":2.054666666666667,"heading_deg":72.1567334421975,"speed_ms":8.505330953926022,"peak_altitude_m":200.0,"u_ms":8.034737183646982,"v_ms":1.686534717715769}},{"type":"Feature","geometry":{"type":"Point","coordinates":[-72.8639,40.8655]},"properties":{"site":"KOKX","name":"Upton NY","scan_time":"2026-08-13T12:01:55Z","stale":false,"bins":25,"density_birds_km3":1.425,"heading_deg":283.2412239892018,"speed_ms":2.6921052631578943,"peak_altitude_m":0.0,"u_ms":-2.080925438596491,"v_ms":0.4472105263157894}},{"type":"Feature","geometry":{"type":"Point","coordinates":[-80.2183,40.5317]},"properties":{"site":"KPBZ","name":"Pittsburgh PA","scan_time":"2026-08-13T11:58:05Z","stale":false,"bins":25,"density_birds_km3":0.6492857142857142,"heading_deg":141.9552615387315,"speed_ms":3.583784378437844,"peak_altitude_m":400.0,"u_ms":2.193157315731573,"v_ms":-2.8006270627062704}},{"type":"Feature","geometry":{"type":"Point","coordinates":[-78.4899,35.6655]},"properties":{"site":"KRAX","name":"Raleigh NC","scan_time":"2026-08-13T12:00:08Z","stale":false,"bins":25,"density_birds_km3":2.1225,"heading_deg":205.02417045210007,"speed_ms":4.401360424028269,"peak_altitude_m":200.0,"u_ms":-1.727788574793875,"v_ms":-3.8467196702002355}},{"type":"Feature","geometry":{"type":"Point","coordinates":[-82.4017,27.7055]},"properties":{"site":"KTBW","name":"Tampa FL","scan_time":"2026-08-13T12:00:24Z","stale":false,"bins":25,"density_birds_km3":1.38375,"heading_deg":152.28174805792798,"speed_ms":2.662842295526435,"peak_altitude_m":0.0,"u_ms":1.2466154541346588,"v_ms":-2.354197921373701}}]}