{"type":"FeatureCollection","frame":"2026-09-22T07","site_count":20,"fresh_count":20,"failures":{},"features":[{"type":"Feature","geometry":{"type":"Point","coordinates":[-77.0073,36.984]},"properties":{"site":"KAKQ","name":"Wakefield VA","scan_time":"2026-09-22T07:01:20Z","stale":false,"bins":25,"density_birds_km3":4.521875,"heading_deg":236.51967075455747,"speed_ms":5.993792531120332,"peak_altitude_m":0.0,"u_ms":-4.272031811894883,"v_ms":-2.630206085753804}},{"type":"Feature","geometry":{"type":"Point","coordinates":[-71.1369,41.9558]},"properties":{"site":"KBOX","name":"Boston MA","scan_time":"2026-09-22T06:59:58Z","stale":false,"bins":25,"density_birds_km3":15.16875,"heading_deg":171.4401674040956,"speed_ms":13.093617222908941,"peak_altitude_m":0.0,"u_ms":1.9395447053976105,"v_ms":-12.528075813761847}},{"type":"Feature","geometry":{"type":"Point","coordinates":[-78.7369,42.9489]},"properties":{"site":"KBUF","name":"Buffalo NY","scan_time":"2026-09-22T06:57:38Z","stale":false,"bins":25,"density_birds_km3":14.598666666666668,"heading_deg":237.62284281642854,"speed_ms":16.46573457551263,"peak_altitude_m":400.0,"u_ms":-13.847021966479428,"v_ms":-8.511518016166598}},{"type":"Feature","geometry":{"type":"Point","coordinates":[-81.8597,41.4131]},"properties":{"site":"KCLE","name":"Cleveland OH","scan_time":"2026-09-22T06:57:06Z","stale":false,"bins":25,"density_birds_km3":19.46333333333333,"heading_deg":227.31501632518692,"speed_ms":13.790560408317061,"peak_altitude_m":400.0,"u_ms":-10.221241393484739,"v_ms":-8.59389202891104}},{"type":"Feature","geometry":{"type":"Point","coordinates":[-81.0423,32.6555]},"properties":{"site":"KCLX","name":"Charleston SC","scan_time":"2026-09-22T06:57:57Z","stale":false,"bins":25,"density_birds_km3":7.743125,"heading_deg":203.51439060450215,"speed_ms":3.4189807162534436,"peak_altitude_m":0.0,"u_ms":-0.6543169664560038,"v_ms":-2.599011505428618}},{"type":"Feature","geometry":{"type":"Point","coordinates":[-74.4108,39.947]},"properties":{"site":"KDIX","name":"Philadelphia PA","scan_time":"2026-09-22T07:01:33Z","stale":false,"bins":25,"density_birds_km3":9.374375,"heading_deg":221.47799571382637,"speed_ms":11.24446083345267,"peak_altitude_m":200.0,"u_ms":-7.43282471717027,"v_ms":-8.27184805957325}},{"type":"Feature","geometry":{"type":"Point","coordinates":[-84.5658,33.3636]},"properties":{"site":"KFFC","name":"Atlanta GA","scan_time":"2026-09-22T07:00:31Z","stale":false,"bins":25,"density_birds_km3":31.766666666666666,"heading_deg":226.87202575606602,"speed_ms":5.629963903462749,"peak_altitude_m":200.0,"u_ms":-2.858391815320042,"v_ms":-4.121470724029381}},{"type":"Feature","geometry":{"type":"Point","coordinates":[-85.5449,42.8939]},"properties":{"site":"KGRR","name":"Grand Rapids MI","scan_time":"2026-09-22T06:58:07Z","stale":false,"bins":25,"density_birds_km3":7.624666666666667,"heading_deg":231.86871378209312,"speed_ms":13.194842178893065,"peak_altitude_m":200.0,"u_ms":-10.695899274285214,"v_ms":-6.70572964938358}},{"type":"Feature","geometry":{"type":"Point","coordinates":[-83.8217,39.4203]},"properties":{"site":"KILN","name":"Wilmington OH","scan_time":"2026-09-22T07:00:41Z","stale":false,"bins":25,"density_birds_km3":58.09866666666667,"heading_deg":171.88741138860613,"speed_ms":9.28058440813329,"peak_altitude_m":200.0,"u_ms":1.2526928902556569,"v_ms":-9.009620874833617}},{"type":"Feature","geometry":{"type":"Point","coordinates":[-81.7019,30.4846]},"properties":{"site":"KJAX","name":"Jacksonville FL","scan_time":"2026-09-22T06:59:45Z","stale":false,"bins":25,"density_birds_km3":20.959374999999998,"heading_deg":159.93320596513718,"speed_ms":6.78527598031907,"peak_altitude_m":0.0,"u_ms":2.3347645743253316,"v_ms":-6.366517071716118}},{"type":"Feature","geometry":{"type":"Point","coordinates":[-88.0847,41.6045]},"properties":{"site":"KLOT","name":"Chicago IL","scan_time":"2026-09-22T07:01:05Z","stale":false,"bins":25,"density_birds_km3":18.459333333333333,"heading_deg":252.8814519041373,"speed_ms":9.250933256284311,"peak_altitude_m":400.0,"u_ms":-8.396767552730426,"v_ms":-2.101577217567177}},{"type":"Feature","geometry":{"type":"Point","coordinates":[-78.4292,33.9892]},"properties":{"site":"KLTX","name":"Wilmington NC","scan_time":"2026-09-22T06:59:08Z","stale":false,"bins":25,"density_birds_km3":5.640625,"heading_deg":239.59037594680188,"speed_ms":5.523994902482269,"peak_altitude_m":0.0,"u_ms":-4.877013519503547,"v_ms":-2.4757391400709223}},{"type":"Feature","geometry":{"type":"Point","coordinates":[-77.4778,38.9753]},"properties":{"site":"KLWX","name":"Sterling VA","scan_time":"2026-09-22T06:59:04Z","stale":false,"bins":25,"density_birds_km3":12.161538461538461,"heading_deg":261.6,"speed_ms":7.5,"peak_altitude_m":200.0,"u_ms":-7.42,"v_ms":-1.1}},{"type":"Feature","geometry":{"type":"Point","coordinates":[-76.8762,34.7759]},"properties":{"site":"KMHX","name":"Morehead City NC","scan_time":"2026-09-22T07:02:02Z","stale":false,"bins":25,"density_birds_km3":2.404375,"heading_deg":239.71279688432716,"speed_ms":4.218101430429129,"peak_altitude_m":0.0,"u_ms":-3.3274668400520153,"v_ms":-2.0751053315994796}},{"type":"Feature","geometry":{"type":"Point","coordinates":[-80.6542,28.1133]},"properties":{"site":"KMLB","name":"Melbourne FL","scan_time":"2026-09-22T07:01:18Z","stale":false,"bins":25,"density_birds_km3":3.788125,"heading_deg":4.695995771526498,"speed_ms":5.015419897706649,"peak_altitude_m":0.0,"u_ms":0.3864213826101303,"v_ms":4.8250684705494145}},{"type":"Feature","geometry":{"type":"Point","coordinates":[-86.5625,36.2472]},"properties":{"site":"KOHX","name":"Nashville TN","scan_time":"2026-09-22T07:00:55Z","stale":false,"bins":25,"density_birds_km3":159.32866666666666,"heading_deg":203.6698147131769,"speed_ms":8.578117894666372,"peak_altitude_m":400.0,"u_ms":-3.0675292163368804,"v_ms":-6.983905846614754}},{"type":"Feature","geometry":{"type":"Point","coordinates":[-72.8639,40.8655]},"properties":{"site":"KOKX","name":"Upton NY","scan_time":"2026-09-22T07:02:13Z","stale":false,"bins":25,"density_birds_km3":14.616363636363637,"heading_deg":241.6781501493801,"speed_ms":13.152374680067418,"peak_altitude_m":200.0,"u_ms":-11.541057494225607,"v_ms":-6.222588800799051}},{"type":"Feature","geometry":{"type":"Point","coordinates":[-80.2183,40.5317]},"properties":{"site":"KPBZ","name":"Pittsburgh PA","scan_time":"2026-09-22T07:00:58Z","stale":false,"bins":25,"density_birds_km3":3.27,"heading_deg":259.19737905853185,"speed_ms":8.814226711560044,"peak_altitude_m":400.0,"u_ms":-7.591970819304153,"v_ms":-1.2068439955106622}},{"type":"Feature","geometry":{"type":"Point","coordinates":[-78.4899,35.6655]},"properties":{"site":"KRAX","name":"Raleigh NC","scan_time":"2026-09-22T07:01:29Z","stale":false,"bins":25,"density_birds_km3":57.5775,"heading_deg":203.06658580734776,"speed_ms":7.222387176620022,"peak_altitude_m":200.0,"u_ms":-2.2518209156145166,"v_ms":-6.651672076688415}},{"type":"Feature","geometry":{"type":"Point","coordinates":[-82.4017,27.7055]},"properties":{"site":"KTBW","name":"Tampa FL","scan_time":"2026-09-22T07:01:38Z","stale":false,"bins":25,"density_birds_km3":11.30625,"heading_deg":222.98900968824043,"speed_ms":3.2811952675807166,"peak_altitude_m":0.0,"u_ms":-1.5404605263157896,"v_ms":-2.139621295886776}}]}