{"type":"FeatureCollection","frame":"2026-09-25T08","site_count":20,"fresh_count":19,"failures":{"KDIX":"RuntimeError('no scan within 20 min of 2026-09-25T08:00Z')"},"features":[{"type":"Feature","geometry":{"type":"Point","coordinates":[-77.0073,36.984]},"properties":{"site":"KAKQ","name":"Wakefield VA","scan_time":"2026-09-25T07:58:40Z","stale":false,"bins":25,"density_birds_km3":19.27375,"heading_deg":181.29227771096453,"speed_ms":18.543600752318568,"peak_altitude_m":200.0,"u_ms":-0.6649098514819378,"v_ms":-18.312291653155196}},{"type":"Feature","geometry":{"type":"Point","coordinates":[-71.1369,41.9558]},"properties":{"site":"KBOX","name":"Boston MA","scan_time":"2026-09-25T07:58:39Z","stale":false,"bins":25,"density_birds_km3":0.205,"heading_deg":204.90093884857083,"speed_ms":11.163822629969419,"peak_altitude_m":0.0,"u_ms":-4.953914373088685,"v_ms":-9.770275229357798}},{"type":"Feature","geometry":{"type":"Point","coordinates":[-78.7369,42.9489]},"properties":{"site":"KBUF","name":"Buffalo NY","scan_time":"2026-09-25T08:00:11Z","stale":false,"bins":25,"density_birds_km3":11.302666666666665,"heading_deg":205.50456301006344,"speed_ms":10.743884628996108,"peak_altitude_m":200.0,"u_ms":-4.541991860327946,"v_ms":-9.602703196885694}},{"type":"Feature","geometry":{"type":"Point","coordinates":[-81.8597,41.4131]},"properties":{"site":"KCLE","name":"Cleveland OH","scan_time":"2026-09-25T07:57:27Z","stale":false,"bins":25,"density_birds_km3":5.404,"heading_deg":238.0312568656082,"speed_ms":9.932108574953732,"peak_altitude_m":400.0,"u_ms":-8.374957433682914,"v_ms":-5.236060456508328}},{"type":"Feature","geometry":{"type":"Point","coordinates":[-81.0423,32.6555]},"properties":{"site":"KCLX","name":"Charleston SC","scan_time":"2026-09-25T07:57:01Z","stale":false,"bins":25,"density_birds_km3":67.92812500000001,"heading_deg":197.90463289038271,"speed_ms":16.752676198888516,"peak_altitude_m":200.0,"u_ms":-5.444331180302528,"v_ms":-15.645915682161126}},{"type":"Feature","geometry":{"type":"Point","coordinates":[-84.5658,33.3636]},"properties":{"site":"KFFC","name":"Atlanta GA","scan_time":"2026-09-25T07:57:42Z","stale":false,"bins":25,"density_birds_km3":114.26333333333334,"heading_deg":217.12476587483226,"speed_ms":15.580483969777415,"peak_altitude_m":1000.0,"u_ms":-8.001243793576243,"v_ms":-12.165096589748826}},{"type":"Feature","geometry":{"type":"Point","coordinates":[-85.5449,42.8939]},"properties":{"site":"KGRR","name":"Grand Rapids MI","scan_time":"2026-09-25T08:02:32Z","stale":false,"bins":25,"density_birds_km3":6.483333333333333,"heading_deg":275.84633993213913,"speed_ms":3.980773264781491,"peak_altitude_m":200.0,"u_ms":-3.8030611825192806,"v_ms":0.6930796915167096}},{"type":"Feature","geometry":{"type":"Point","coordinates":[-83.8217,39.4203]},"properties":{"site":"KILN","name":"Wilmington OH","scan_time":"2026-09-25T07:59:41Z","stale":false,"bins":25,"density_birds_km3":40.22866666666666,"heading_deg":212.92606031002026,"speed_ms":11.612546442835127,"peak_altitude_m":200.0,"u_ms":-6.195038364019026,"v_ms":-9.524591584773711}},{"type":"Feature","geometry":{"type":"Point","coordinates":[-81.7019,30.4846]},"properties":{"site":"KJAX","name":"Jacksonville FL","scan_time":"2026-09-25T07:59:23Z","stale":false,"bins":25,"density_birds_km3":41.161874999999995,"heading_deg":177.26409280072892,"speed_ms":15.163657414437123,"peak_altitude_m":200.0,"u_ms":0.5869186735096724,"v_ms":-15.076117252270036}},{"type":"Feature","geometry":{"type":"Point","coordinates":[-88.0847,41.6045]},"properties":{"site":"KLOT","name":"Chicago IL","scan_time":"2026-09-25T08:01:26Z","stale":false,"bins":25,"density_birds_km3":8.192,"heading_deg":235.4554883876292,"speed_ms":4.866426595052084,"peak_altitude_m":200.0,"u_ms":-1.6930900065104166,"v_ms":-2.3276961263020834}},{"type":"Feature","geometry":{"type":"Point","coordinates":[-78.4292,33.9892]},"properties":{"site":"KLTX","name":"Wilmington NC","scan_time":"2026-09-25T07:58:59Z","stale":false,"bins":25,"density_birds_km3":71.94,"heading_deg":206.21595113245795,"speed_ms":13.859431547670761,"peak_altitude_m":0.0,"u_ms":-5.3946122569547015,"v_ms":-12.486936890757763}},{"type":"Feature","geometry":{"type":"Point","coordinates":[-77.4778,38.9753]},"properties":{"site":"KLWX","name":"Sterling VA","scan_time":"2026-09-25T07:58:32Z","stale":false,"bins":25,"density_birds_km3":14.824375,"heading_deg":202.02089717469087,"speed_ms":20.83298334387518,"peak_altitude_m":400.0,"u_ms":-8.02801771030993,"v_ms":-18.986604680581912}},{"type":"Feature","geometry":{"type":"Point","coordinates":[-76.8762,34.7759]},"properties":{"site":"KMHX","name":"Morehead City NC","scan_time":"2026-09-25T07:59:03Z","stale":false,"bins":25,"density_birds_km3":14.299999999999999,"heading_deg":174.0964329946767,"speed_ms":14.252723895275144,"peak_altitude_m":0.0,"u_ms":1.1806280868919095,"v_ms":-14.116491979544561}},{"type":"Feature","geometry":{"type":"Point","coordinates":[-80.6542,28.1133]},"properties":{"site":"KMLB","name":"Melbourne FL","scan_time":"2026-09-25T08:01:43Z","stale":false,"bins":25,"density_birds_km3":4.090625,"heading_deg":164.44114131422288,"speed_ms":16.805388379204892,"peak_altitude_m":200.0,"u_ms":4.404735474006116,"v_ms":-16.20588226299694}},{"type":"Feature","geometry":{"type":"Point","coordinates":[-86.5625,36.2472]},"properties":{"site":"KOHX","name":"Nashville TN","scan_time":"2026-09-25T08:00:35Z","stale":false,"bins":25,"density_birds_km3":95.14466666666667,"heading_deg":212.4559989838148,"speed_ms":10.17445356895114,"peak_altitude_m":200.0,"u_ms":-4.9099640547376975,"v_ms":-7.850123250909141}},{"type":"Feature","geometry":{"type":"Point","coordinates":[-72.8639,40.8655]},"properties":{"site":"KOKX","name":"Upton NY","scan_time":"2026-09-25T07:58:03Z","stale":false,"bins":25,"density_birds_km3":0.12933333333333333,"heading_deg":223.65837577754067,"speed_ms":11.425535714285717,"peak_altitude_m":0.0,"u_ms":-8.082232142857142,"v_ms":-7.91544642857143}},{"type":"Feature","geometry":{"type":"Point","coordinates":[-80.2183,40.5317]},"properties":{"site":"KPBZ","name":"Pittsburgh PA","scan_time":"2026-09-25T07:59:54Z","stale":false,"bins":25,"density_birds_km3":25.673571428571428,"heading_deg":225.63286385639782,"speed_ms":13.371863170786016,"peak_altitude_m":400.0,"u_ms":-9.441734023602761,"v_ms":-9.177307392562904}},{"type":"Feature","geometry":{"type":"Point","coordinates":[-78.4899,35.6655]},"properties":{"site":"KRAX","name":"Raleigh NC","scan_time":"2026-09-25T08:02:51Z","stale":false,"bins":25,"density_birds_km3":27.780625,"heading_deg":195.80638304755342,"speed_ms":17.173328233626567,"peak_altitude_m":200.0,"u_ms":-5.249742164825522,"v_ms":-16.1383674938691}},{"type":"Feature","geometry":{"type":"Point","coordinates":[-82.4017,27.7055]},"properties":{"site":"KTBW","name":"Tampa FL","scan_time":"2026-09-25T07:59:03Z","stale":false,"bins":25,"density_birds_km3":1.629375,"heading_deg":186.40494330344595,"speed_ms":12.013224568138195,"peak_altitude_m":200.0,"u_ms":-1.274172744721689,"v_ms":-11.921209213051824}}]}