{"type":"FeatureCollection","frame":"2026-09-08T12","site_count":20,"fresh_count":19,"failures":{"KOKX":"RuntimeError('no scan within 20 min of 2026-09-08T12:00Z')"},"features":[{"type":"Feature","geometry":{"type":"Point","coordinates":[-77.0073,36.984]},"properties":{"site":"KAKQ","name":"Wakefield VA","scan_time":"2026-09-08T12:01:14Z","stale":false,"bins":25,"density_birds_km3":0.31875,"heading_deg":228.34909887716415,"speed_ms":3.735138339920949,"peak_altitude_m":0.0,"u_ms":-2.3309881422924903,"v_ms":-2.523833992094862}},{"type":"Feature","geometry":{"type":"Point","coordinates":[-71.1369,41.9558]},"properties":{"site":"KBOX","name":"Boston MA","scan_time":"2026-09-08T11:59:29Z","stale":false,"bins":25,"density_birds_km3":0.850625,"heading_deg":124.26057837178624,"speed_ms":7.941322556943424,"peak_altitude_m":0.0,"u_ms":6.555282880235121,"v_ms":-4.462762674504042}},{"type":"Feature","geometry":{"type":"Point","coordinates":[-78.7369,42.9489]},"properties":{"site":"KBUF","name":"Buffalo NY","scan_time":"2026-09-08T12:02:08Z","stale":false,"bins":25,"density_birds_km3":0.8666666666666667,"heading_deg":255.0535694312282,"speed_ms":2.694515384615385,"peak_altitude_m":200.0,"u_ms":-2.552392307692308,"v_ms":-0.7439692307692307}},{"type":"Feature","geometry":{"type":"Point","coordinates":[-81.8597,41.4131]},"properties":{"site":"KCLE","name":"Cleveland OH","scan_time":"2026-09-08T12:03:16Z","stale":false,"bins":25,"density_birds_km3":1.8619999999999999,"heading_deg":315.5985254887781,"speed_ms":6.837091104734576,"peak_altitude_m":200.0,"u_ms":-4.7846162123385945,"v_ms":4.8493830703012915}},{"type":"Feature","geometry":{"type":"Point","coordinates":[-81.0423,32.6555]},"properties":{"site":"KCLX","name":"Charleston SC","scan_time":"2026-09-08T12:02:01Z","stale":false,"bins":25,"density_birds_km3":4.68125,"heading_deg":225.782879802087,"speed_ms":12.519663236669786,"peak_altitude_m":0.0,"u_ms":-8.971725243886143,"v_ms":-8.562690097554459}},{"type":"Feature","geometry":{"type":"Point","coordinates":[-74.4108,39.947]},"properties":{"site":"KDIX","name":"Philadelphia PA","scan_time":"2026-09-08T12:01:46Z","stale":false,"bins":25,"density_birds_km3":0.6962499999999999,"heading_deg":144.0999063117088,"speed_ms":4.404021543985638,"peak_altitude_m":0.0,"u_ms":2.5990215439856375,"v_ms":-3.5110682226211853}},{"type":"Feature","geometry":{"type":"Point","coordinates":[-84.5658,33.3636]},"properties":{"site":"KFFC","name":"Atlanta GA","scan_time":"2026-09-08T12:02:41Z","stale":false,"bins":25,"density_birds_km3":23.216666666666665,"heading_deg":252.25528143661927,"speed_ms":10.70982167982771,"peak_altitude_m":200.0,"u_ms":-10.083376310122038,"v_ms":-3.0135339554917446}},{"type":"Feature","geometry":{"type":"Point","coordinates":[-85.5449,42.8939]},"properties":{"site":"KGRR","name":"Grand Rapids MI","scan_time":"2026-09-08T12:00:29Z","stale":false,"bins":25,"density_birds_km3":2.0653333333333332,"heading_deg":6.463056712249178,"speed_ms":6.620598511808476,"peak_altitude_m":200.0,"u_ms":0.7196603041087027,"v_ms":4.265276609511485}},{"type":"Feature","geometry":{"type":"Point","coordinates":[-83.8217,39.4203]},"properties":{"site":"KILN","name":"Wilmington OH","scan_time":"2026-09-08T11:58:22Z","stale":false,"bins":25,"density_birds_km3":1.294,"heading_deg":354.6779652758052,"speed_ms":7.947324742268042,"peak_altitude_m":200.0,"u_ms":-0.6147577319587628,"v_ms":7.597283505154639}},{"type":"Feature","geometry":{"type":"Point","coordinates":[-81.7019,30.4846]},"properties":{"site":"KJAX","name":"Jacksonville FL","scan_time":"2026-09-08T12:00:40Z","stale":false,"bins":25,"density_birds_km3":17.345625,"heading_deg":224.42402036726315,"speed_ms":10.080145569848307,"peak_altitude_m":0.0,"u_ms":-7.0857813569704176,"v_ms":-6.934945411306886}},{"type":"Feature","geometry":{"type":"Point","coordinates":[-88.0847,41.6045]},"properties":{"site":"KLOT","name":"Chicago IL","scan_time":"2026-09-08T12:01:51Z","stale":false,"bins":25,"density_birds_km3":0.62,"heading_deg":337.0574824804102,"speed_ms":8.329267241379311,"peak_altitude_m":200.0,"u_ms":-3.2635344827586206,"v_ms":7.630549568965518}},{"type":"Feature","geometry":{"type":"Point","coordinates":[-78.4292,33.9892]},"properties":{"site":"KLTX","name":"Wilmington NC","scan_time":"2026-09-08T11:58:55Z","stale":false,"bins":25,"density_birds_km3":0.81375,"heading_deg":229.36704132371406,"speed_ms":9.82068356374808,"peak_altitude_m":0.0,"u_ms":-7.399746543778801,"v_ms":-6.135729646697389}},{"type":"Feature","geometry":{"type":"Point","coordinates":[-77.4778,38.9753]},"properties":{"site":"KLWX","name":"Sterling VA","scan_time":"2026-09-08T11:59:26Z","stale":false,"bins":25,"density_birds_km3":1.351875,"heading_deg":194.29798376463378,"speed_ms":2.505145631067961,"peak_altitude_m":0.0,"u_ms":-0.4713314840499308,"v_ms":-1.0633287101248268}},{"type":"Feature","geometry":{"type":"Point","coordinates":[-76.8762,34.7759]},"properties":{"site":"KMHX","name":"Morehead City NC","scan_time":"2026-09-08T12:01:26Z","stale":false,"bins":25,"density_birds_km3":1.2025000000000001,"heading_deg":191.2065310102369,"speed_ms":8.456130208333335,"peak_altitude_m":0.0,"u_ms":-1.3897135416666668,"v_ms":-7.53196875}},{"type":"Feature","geometry":{"type":"Point","coordinates":[-80.6542,28.1133]},"properties":{"site":"KMLB","name":"Melbourne FL","scan_time":"2026-09-08T12:02:00Z","stale":false,"bins":25,"density_birds_km3":1.091875,"heading_deg":185.82298660892036,"speed_ms":4.340595306239267,"peak_altitude_m":0.0,"u_ms":-0.41791642816256447,"v_ms":-4.270520892959359}},{"type":"Feature","geometry":{"type":"Point","coordinates":[-86.5625,36.2472]},"properties":{"site":"KOHX","name":"Nashville TN","scan_time":"2026-09-08T11:57:03Z","stale":false,"bins":25,"density_birds_km3":2.758666666666667,"heading_deg":327.4349933997719,"speed_ms":6.715780570323828,"peak_altitude_m":200.0,"u_ms":-2.9603044949250843,"v_ms":5.594830836152731}},{"type":"Feature","geometry":{"type":"Point","coordinates":[-80.2183,40.5317]},"properties":{"site":"KPBZ","name":"Pittsburgh PA","scan_time":"2026-09-08T12:00:55Z","stale":false,"bins":25,"density_birds_km3":0.7807142857142857,"heading_deg":316.80876784224427,"speed_ms":3.3055352241537057,"peak_altitude_m":400.0,"u_ms":-2.005141811527905,"v_ms":1.854611161939616}},{"type":"Feature","geometry":{"type":"Point","coordinates":[-78.4899,35.6655]},"properties":{"site":"KRAX","name":"Raleigh NC","scan_time":"2026-09-08T12:03:00Z","stale":false,"bins":25,"density_birds_km3":2.15625,"heading_deg":237.7648701953359,"speed_ms":7.384073748902546,"peak_altitude_m":0.0,"u_ms":-5.918173836698858,"v_ms":-3.940891132572432}},{"type":"Feature","geometry":{"type":"Point","coordinates":[-82.4017,27.7055]},"properties":{"site":"KTBW","name":"Tampa FL","scan_time":"2026-09-08T11:58:19Z","stale":false,"bins":25,"density_birds_km3":1.221875,"heading_deg":251.46092288631587,"speed_ms":5.020920716112531,"peak_altitude_m":0.0,"u_ms":-4.715309462915601,"v_ms":-1.500624040920716}}]}