{"type":"FeatureCollection","frame":"2026-09-27T09","site_count":20,"fresh_count":20,"failures":{},"features":[{"type":"Feature","geometry":{"type":"Point","coordinates":[-77.0073,36.984]},"properties":{"site":"KAKQ","name":"Wakefield VA","scan_time":"2026-09-27T08:59:30Z","stale":false,"bins":25,"density_birds_km3":2.1175,"heading_deg":134.80887250972506,"speed_ms":8.859424439197166,"peak_altitude_m":0.0,"u_ms":4.922402597402598,"v_ms":-6.781307556080283}},{"type":"Feature","geometry":{"type":"Point","coordinates":[-71.1369,41.9558]},"properties":{"site":"KBOX","name":"Boston MA","scan_time":"2026-09-27T09:03:08Z","stale":false,"bins":25,"density_birds_km3":null,"heading_deg":null,"speed_ms":null,"peak_altitude_m":null,"u_ms":null,"v_ms":null}},{"type":"Feature","geometry":{"type":"Point","coordinates":[-78.7369,42.9489]},"properties":{"site":"KBUF","name":"Buffalo NY","scan_time":"2026-09-27T09:01:39Z","stale":false,"bins":25,"density_birds_km3":2.102,"heading_deg":213.11688739941948,"speed_ms":16.032787821122742,"peak_altitude_m":200.0,"u_ms":-8.803913732952743,"v_ms":-13.242546780843641}},{"type":"Feature","geometry":{"type":"Point","coordinates":[-81.8597,41.4131]},"properties":{"site":"KCLE","name":"Cleveland OH","scan_time":"2026-09-27T09:01:15Z","stale":false,"bins":25,"density_birds_km3":15.595333333333334,"heading_deg":182.47191596006854,"speed_ms":11.610939250138943,"peak_altitude_m":200.0,"u_ms":-0.5216681629686633,"v_ms":-11.534744559873456}},{"type":"Feature","geometry":{"type":"Point","coordinates":[-81.0423,32.6555]},"properties":{"site":"KCLX","name":"Charleston SC","scan_time":"2026-09-27T08:56:56Z","stale":false,"bins":25,"density_birds_km3":49.091249999999995,"heading_deg":186.70514254418893,"speed_ms":6.341625289639193,"peak_altitude_m":0.0,"u_ms":-0.5262755582715861,"v_ms":-6.002003412013343}},{"type":"Feature","geometry":{"type":"Point","coordinates":[-74.4108,39.947]},"properties":{"site":"KDIX","name":"Philadelphia PA","scan_time":"2026-09-27T08:59:33Z","stale":false,"bins":25,"density_birds_km3":0.0,"heading_deg":null,"speed_ms":null,"peak_altitude_m":1800.0,"u_ms":null,"v_ms":null}},{"type":"Feature","geometry":{"type":"Point","coordinates":[-84.5658,33.3636]},"properties":{"site":"KFFC","name":"Atlanta GA","scan_time":"2026-09-27T09:02:48Z","stale":false,"bins":25,"density_birds_km3":62.674,"heading_deg":202.96627163490376,"speed_ms":11.549386242035506,"peak_altitude_m":400.0,"u_ms":-4.039774600844582,"v_ms":-10.00869940751614}},{"type":"Feature","geometry":{"type":"Point","coordinates":[-85.5449,42.8939]},"properties":{"site":"KGRR","name":"Grand Rapids MI","scan_time":"2026-09-27T08:57:59Z","stale":false,"bins":25,"density_birds_km3":26.681333333333335,"heading_deg":228.01890301079774,"speed_ms":10.508209947513123,"peak_altitude_m":200.0,"u_ms":-7.73401024743814,"v_ms":-7.020991252186953}},{"type":"Feature","geometry":{"type":"Point","coordinates":[-83.8217,39.4203]},"properties":{"site":"KILN","name":"Wilmington OH","scan_time":"2026-09-27T08:57:15Z","stale":false,"bins":25,"density_birds_km3":44.059999999999995,"heading_deg":186.15535635820518,"speed_ms":12.992914359207141,"peak_altitude_m":200.0,"u_ms":-1.3417299137539718,"v_ms":-12.710508397639583}},{"type":"Feature","geometry":{"type":"Point","coordinates":[-81.7019,30.4846]},"properties":{"site":"KJAX","name":"Jacksonville FL","scan_time":"2026-09-27T09:01:31Z","stale":false,"bins":25,"density_birds_km3":42.64625,"heading_deg":162.81733335594797,"speed_ms":9.583485023970443,"peak_altitude_m":200.0,"u_ms":0.725936020173291,"v_ms":-8.957163864006215}},{"type":"Feature","geometry":{"type":"Point","coordinates":[-88.0847,41.6045]},"properties":{"site":"KLOT","name":"Chicago IL","scan_time":"2026-09-27T08:57:13Z","stale":false,"bins":25,"density_birds_km3":9.063333333333333,"heading_deg":201.56266609635563,"speed_ms":8.809063626333211,"peak_altitude_m":200.0,"u_ms":-1.228853990437661,"v_ms":-6.445107760205959}},{"type":"Feature","geometry":{"type":"Point","coordinates":[-78.4292,33.9892]},"properties":{"site":"KLTX","name":"Wilmington NC","scan_time":"2026-09-27T09:00:38Z","stale":false,"bins":25,"density_birds_km3":22.03625,"heading_deg":234.03932655349405,"speed_ms":10.514104019986371,"peak_altitude_m":0.0,"u_ms":-7.868327844651374,"v_ms":-5.924424540086305}},{"type":"Feature","geometry":{"type":"Point","coordinates":[-77.4778,38.9753]},"properties":{"site":"KLWX","name":"Sterling VA","scan_time":"2026-09-27T08:57:01Z","stale":false,"bins":25,"density_birds_km3":1.620625,"heading_deg":157.2736323826057,"speed_ms":15.393997975708501,"peak_altitude_m":400.0,"u_ms":5.761062753036437,"v_ms":-14.236234817813767}},{"type":"Feature","geometry":{"type":"Point","coordinates":[-76.8762,34.7759]},"properties":{"site":"KMHX","name":"Morehead City NC","scan_time":"2026-09-27T08:58:28Z","stale":false,"bins":25,"density_birds_km3":3.8850000000000002,"heading_deg":128.66711594008,"speed_ms":5.614345372460496,"peak_altitude_m":0.0,"u_ms":3.8909255079006773,"v_ms":-3.800322476620445}},{"type":"Feature","geometry":{"type":"Point","coordinates":[-80.6542,28.1133]},"properties":{"site":"KMLB","name":"Melbourne FL","scan_time":"2026-09-27T08:56:58Z","stale":false,"bins":25,"density_birds_km3":18.023125,"heading_deg":168.96491689045646,"speed_ms":12.63648331830478,"peak_altitude_m":0.0,"u_ms":2.4300943330790044,"v_ms":-12.388585350627732}},{"type":"Feature","geometry":{"type":"Point","coordinates":[-86.5625,36.2472]},"properties":{"site":"KOHX","name":"Nashville TN","scan_time":"2026-09-27T08:58:18Z","stale":false,"bins":25,"density_birds_km3":44.308,"heading_deg":208.4580611194797,"speed_ms":9.139633474767537,"peak_altitude_m":200.0,"u_ms":-4.096116427432216,"v_ms":-7.70241732117601}},{"type":"Feature","geometry":{"type":"Point","coordinates":[-72.8639,40.8655]},"properties":{"site":"KOKX","name":"Upton NY","scan_time":"2026-09-27T08:57:54Z","stale":false,"bins":25,"density_birds_km3":1.204,"heading_deg":null,"speed_ms":null,"peak_altitude_m":0.0,"u_ms":null,"v_ms":null}},{"type":"Feature","geometry":{"type":"Point","coordinates":[-80.2183,40.5317]},"properties":{"site":"KPBZ","name":"Pittsburgh PA","scan_time":"2026-09-27T09:01:55Z","stale":false,"bins":25,"density_birds_km3":13.266428571428571,"heading_deg":194.5398617838549,"speed_ms":21.537224465622142,"peak_altitude_m":600.0,"u_ms":-5.644930813546546,"v_ms":-20.425503149733487}},{"type":"Feature","geometry":{"type":"Point","coordinates":[-78.4899,35.6655]},"properties":{"site":"KRAX","name":"Raleigh NC","scan_time":"2026-09-27T09:03:15Z","stale":false,"bins":25,"density_birds_km3":6.755,"heading_deg":159.86646233300954,"speed_ms":8.072973998334412,"peak_altitude_m":200.0,"u_ms":2.482141204774683,"v_ms":-7.587278615712038}},{"type":"Feature","geometry":{"type":"Point","coordinates":[-82.4017,27.7055]},"properties":{"site":"KTBW","name":"Tampa FL","scan_time":"2026-09-27T09:00:45Z","stale":false,"bins":25,"density_birds_km3":46.873125,"heading_deg":194.80380468710607,"speed_ms":10.156767604037496,"peak_altitude_m":600.0,"u_ms":-1.9115589956931611,"v_ms":-9.397731642599037}}]}