{"type":"FeatureCollection","frame":"2026-09-28T05","site_count":20,"fresh_count":20,"failures":{},"features":[{"type":"Feature","geometry":{"type":"Point","coordinates":[-77.0073,36.984]},"properties":{"site":"KAKQ","name":"Wakefield VA","scan_time":"2026-09-28T05:03:06Z","stale":false,"bins":25,"density_birds_km3":8.31875,"heading_deg":152.5052779910469,"speed_ms":8.976587218045113,"peak_altitude_m":0.0,"u_ms":2.9222203007518797,"v_ms":-8.15503759398496}},{"type":"Feature","geometry":{"type":"Point","coordinates":[-71.1369,41.9558]},"properties":{"site":"KBOX","name":"Boston MA","scan_time":"2026-09-28T04:57:34Z","stale":false,"bins":25,"density_birds_km3":0.22999999999999998,"heading_deg":null,"speed_ms":null,"peak_altitude_m":0.0,"u_ms":null,"v_ms":null}},{"type":"Feature","geometry":{"type":"Point","coordinates":[-78.7369,42.9489]},"properties":{"site":"KBUF","name":"Buffalo NY","scan_time":"2026-09-28T04:59:47Z","stale":false,"bins":25,"density_birds_km3":1.0093333333333332,"heading_deg":179.31287729759666,"speed_ms":4.381068859198356,"peak_altitude_m":200.0,"u_ms":0.011408016443987631,"v_ms":-4.2037101747173695}},{"type":"Feature","geometry":{"type":"Point","coordinates":[-81.8597,41.4131]},"properties":{"site":"KCLE","name":"Cleveland OH","scan_time":"2026-09-28T04:58:18Z","stale":false,"bins":25,"density_birds_km3":22.467333333333332,"heading_deg":179.15188708914155,"speed_ms":11.576880638651474,"peak_altitude_m":400.0,"u_ms":0.10382300569800582,"v_ms":-11.408802528490028}},{"type":"Feature","geometry":{"type":"Point","coordinates":[-81.0423,32.6555]},"properties":{"site":"KCLX","name":"Charleston SC","scan_time":"2026-09-28T05:02:54Z","stale":false,"bins":25,"density_birds_km3":60.026875000000004,"heading_deg":180.9023419398616,"speed_ms":5.269144445717022,"peak_altitude_m":200.0,"u_ms":-1.3483531334922896,"v_ms":-4.559830180231772}},{"type":"Feature","geometry":{"type":"Point","coordinates":[-74.4108,39.947]},"properties":{"site":"KDIX","name":"Philadelphia PA","scan_time":"2026-09-28T05:02:37Z","stale":false,"bins":25,"density_birds_km3":0.003,"heading_deg":null,"speed_ms":null,"peak_altitude_m":1800.0,"u_ms":null,"v_ms":null}},{"type":"Feature","geometry":{"type":"Point","coordinates":[-84.5658,33.3636]},"properties":{"site":"KFFC","name":"Atlanta GA","scan_time":"2026-09-28T04:59:28Z","stale":false,"bins":25,"density_birds_km3":88.59866666666667,"heading_deg":190.39617888522957,"speed_ms":15.241322743758372,"peak_altitude_m":600.0,"u_ms":-2.6931297686947886,"v_ms":-14.859350930789024}},{"type":"Feature","geometry":{"type":"Point","coordinates":[-85.5449,42.8939]},"properties":{"site":"KGRR","name":"Grand Rapids MI","scan_time":"2026-09-28T04:59:24Z","stale":false,"bins":25,"density_birds_km3":64.594,"heading_deg":198.64594150359346,"speed_ms":10.685877119649916,"peak_altitude_m":200.0,"u_ms":-3.210004025141654,"v_ms":-10.058594915936466}},{"type":"Feature","geometry":{"type":"Point","coordinates":[-83.8217,39.4203]},"properties":{"site":"KILN","name":"Wilmington OH","scan_time":"2026-09-28T05:00:37Z","stale":false,"bins":25,"density_birds_km3":82.78533333333333,"heading_deg":174.94376565545102,"speed_ms":10.748429970364644,"peak_altitude_m":200.0,"u_ms":0.6222100889060689,"v_ms":-10.469593158098185}},{"type":"Feature","geometry":{"type":"Point","coordinates":[-81.7019,30.4846]},"properties":{"site":"KJAX","name":"Jacksonville FL","scan_time":"2026-09-28T05:03:27Z","stale":false,"bins":25,"density_birds_km3":84.716875,"heading_deg":137.49684997907565,"speed_ms":7.786897312371354,"peak_altitude_m":0.0,"u_ms":3.2101448206157275,"v_ms":-5.427796483876441}},{"type":"Feature","geometry":{"type":"Point","coordinates":[-88.0847,41.6045]},"properties":{"site":"KLOT","name":"Chicago IL","scan_time":"2026-09-28T05:02:01Z","stale":false,"bins":25,"density_birds_km3":88.664,"heading_deg":173.0646392504496,"speed_ms":12.519438479352761,"peak_altitude_m":600.0,"u_ms":1.5326735390538062,"v_ms":-12.420019549460134}},{"type":"Feature","geometry":{"type":"Point","coordinates":[-78.4292,33.9892]},"properties":{"site":"KLTX","name":"Wilmington NC","scan_time":"2026-09-28T04:59:28Z","stale":false,"bins":25,"density_birds_km3":31.77375,"heading_deg":152.07917598296808,"speed_ms":5.6789731888191675,"peak_altitude_m":0.0,"u_ms":2.7195884886991757,"v_ms":-4.726285185986584}},{"type":"Feature","geometry":{"type":"Point","coordinates":[-77.4778,38.9753]},"properties":{"site":"KLWX","name":"Sterling VA","scan_time":"2026-09-28T05:01:35Z","stale":false,"bins":25,"density_birds_km3":3.541875,"heading_deg":168.61904081584214,"speed_ms":11.637709546497264,"peak_altitude_m":600.0,"u_ms":0.20124580907005474,"v_ms":-10.364178577730721}},{"type":"Feature","geometry":{"type":"Point","coordinates":[-76.8762,34.7759]},"properties":{"site":"KMHX","name":"Morehead City NC","scan_time":"2026-09-28T04:58:58Z","stale":false,"bins":25,"density_birds_km3":34.8275,"heading_deg":134.63648841161756,"speed_ms":6.8820790337921505,"peak_altitude_m":0.0,"u_ms":4.815899897708308,"v_ms":-4.163788920194533}},{"type":"Feature","geometry":{"type":"Point","coordinates":[-80.6542,28.1133]},"properties":{"site":"KMLB","name":"Melbourne FL","scan_time":"2026-09-28T05:02:45Z","stale":false,"bins":25,"density_birds_km3":9.02625,"heading_deg":171.70777258340885,"speed_ms":6.454819485829117,"peak_altitude_m":0.0,"u_ms":1.750752546601067,"v_ms":-4.15158062504331}},{"type":"Feature","geometry":{"type":"Point","coordinates":[-86.5625,36.2472]},"properties":{"site":"KOHX","name":"Nashville TN","scan_time":"2026-09-28T05:01:39Z","stale":false,"bins":25,"density_birds_km3":102.57333333333334,"heading_deg":195.0017091165388,"speed_ms":11.749136877681009,"peak_altitude_m":200.0,"u_ms":-3.04630618744313,"v_ms":-11.235437865592097}},{"type":"Feature","geometry":{"type":"Point","coordinates":[-72.8639,40.8655]},"properties":{"site":"KOKX","name":"Upton NY","scan_time":"2026-09-28T04:58:15Z","stale":false,"bins":25,"density_birds_km3":0.005,"heading_deg":null,"speed_ms":null,"peak_altitude_m":2600.0,"u_ms":null,"v_ms":null}},{"type":"Feature","geometry":{"type":"Point","coordinates":[-80.2183,40.5317]},"properties":{"site":"KPBZ","name":"Pittsburgh PA","scan_time":"2026-09-28T04:58:18Z","stale":false,"bins":25,"density_birds_km3":12.767142857142858,"heading_deg":174.5594521016677,"speed_ms":12.295907463354594,"peak_altitude_m":600.0,"u_ms":0.11476222446010971,"v_ms":-11.842712879042185}},{"type":"Feature","geometry":{"type":"Point","coordinates":[-78.4899,35.6655]},"properties":{"site":"KRAX","name":"Raleigh NC","scan_time":"2026-09-28T04:59:55Z","stale":false,"bins":25,"density_birds_km3":25.303125,"heading_deg":198.10918867449115,"speed_ms":8.048632130240371,"peak_altitude_m":0.0,"u_ms":-2.493947725981373,"v_ms":-7.092066750660837}},{"type":"Feature","geometry":{"type":"Point","coordinates":[-82.4017,27.7055]},"properties":{"site":"KTBW","name":"Tampa FL","scan_time":"2026-09-28T05:02:20Z","stale":false,"bins":25,"density_birds_km3":19.56375,"heading_deg":175.84563792191727,"speed_ms":10.030184652737844,"peak_altitude_m":1800.0,"u_ms":0.1920263880902179,"v_ms":-9.899090473452176}}]}