{"type":"FeatureCollection","frame":"2026-09-21T04","site_count":20,"fresh_count":20,"failures":{},"features":[{"type":"Feature","geometry":{"type":"Point","coordinates":[-77.0073,36.984]},"properties":{"site":"KAKQ","name":"Wakefield VA","scan_time":"2026-09-21T04:04:13Z","stale":false,"bins":25,"density_birds_km3":4.58125,"heading_deg":60.523086920361244,"speed_ms":7.985934981939427,"peak_altitude_m":0.0,"u_ms":5.416539316476799,"v_ms":2.6165698805223676}},{"type":"Feature","geometry":{"type":"Point","coordinates":[-71.1369,41.9558]},"properties":{"site":"KBOX","name":"Boston MA","scan_time":"2026-09-21T03:57:05Z","stale":false,"bins":25,"density_birds_km3":0.617,"heading_deg":null,"speed_ms":null,"peak_altitude_m":0.0,"u_ms":null,"v_ms":null}},{"type":"Feature","geometry":{"type":"Point","coordinates":[-78.7369,42.9489]},"properties":{"site":"KBUF","name":"Buffalo NY","scan_time":"2026-09-21T04:01:02Z","stale":false,"bins":25,"density_birds_km3":55.214000000000006,"heading_deg":198.25647979965174,"speed_ms":10.072075198319267,"peak_altitude_m":400.0,"u_ms":-3.4573777182115646,"v_ms":-9.273125535794062}},{"type":"Feature","geometry":{"type":"Point","coordinates":[-81.8597,41.4131]},"properties":{"site":"KCLE","name":"Cleveland OH","scan_time":"2026-09-21T03:59:38Z","stale":false,"bins":25,"density_birds_km3":88.37733333333334,"heading_deg":224.5714439754291,"speed_ms":12.684320791153088,"peak_altitude_m":400.0,"u_ms":-9.153211306066412,"v_ms":-8.363989182746707}},{"type":"Feature","geometry":{"type":"Point","coordinates":[-81.0423,32.6555]},"properties":{"site":"KCLX","name":"Charleston SC","scan_time":"2026-09-21T04:00:17Z","stale":false,"bins":25,"density_birds_km3":14.323125,"heading_deg":238.06707601063817,"speed_ms":6.2086727598723055,"peak_altitude_m":0.0,"u_ms":-5.00020072593694,"v_ms":-3.418025538986312}},{"type":"Feature","geometry":{"type":"Point","coordinates":[-74.4108,39.947]},"properties":{"site":"KDIX","name":"Philadelphia PA","scan_time":"2026-09-21T04:02:53Z","stale":false,"bins":25,"density_birds_km3":14.765333333333334,"heading_deg":null,"speed_ms":null,"peak_altitude_m":0.0,"u_ms":null,"v_ms":null}},{"type":"Feature","geometry":{"type":"Point","coordinates":[-84.5658,33.3636]},"properties":{"site":"KFFC","name":"Atlanta GA","scan_time":"2026-09-21T03:59:07Z","stale":false,"bins":25,"density_birds_km3":37.63666666666666,"heading_deg":242.92946127482332,"speed_ms":7.234285891417944,"peak_altitude_m":200.0,"u_ms":-4.004941634930476,"v_ms":-4.367094500044284}},{"type":"Feature","geometry":{"type":"Point","coordinates":[-85.5449,42.8939]},"properties":{"site":"KGRR","name":"Grand Rapids MI","scan_time":"2026-09-21T04:00:43Z","stale":false,"bins":25,"density_birds_km3":190.30200000000002,"heading_deg":208.26428020074943,"speed_ms":13.655982876340413,"peak_altitude_m":200.0,"u_ms":-7.028447625353385,"v_ms":-11.130605423659937}},{"type":"Feature","geometry":{"type":"Point","coordinates":[-83.8217,39.4203]},"properties":{"site":"KILN","name":"Wilmington OH","scan_time":"2026-09-21T03:59:21Z","stale":false,"bins":25,"density_birds_km3":31.208666666666666,"heading_deg":133.4047135739716,"speed_ms":6.461934656435449,"peak_altitude_m":600.0,"u_ms":2.014376236332413,"v_ms":-1.8226959111362302}},{"type":"Feature","geometry":{"type":"Point","coordinates":[-81.7019,30.4846]},"properties":{"site":"KJAX","name":"Jacksonville FL","scan_time":"2026-09-21T04:01:38Z","stale":false,"bins":25,"density_birds_km3":64.119375,"heading_deg":187.66997412717183,"speed_ms":9.508529165204507,"peak_altitude_m":200.0,"u_ms":-1.2865661675829532,"v_ms":-9.410525207626623}},{"type":"Feature","geometry":{"type":"Point","coordinates":[-88.0847,41.6045]},"properties":{"site":"KLOT","name":"Chicago IL","scan_time":"2026-09-21T04:00:09Z","stale":false,"bins":25,"density_birds_km3":15.330666666666668,"heading_deg":235.75262501648115,"speed_ms":12.960899332373346,"peak_altitude_m":200.0,"u_ms":-10.704262338002355,"v_ms":-6.8188017628834485}},{"type":"Feature","geometry":{"type":"Point","coordinates":[-78.4292,33.9892]},"properties":{"site":"KLTX","name":"Wilmington NC","scan_time":"2026-09-21T04:00:58Z","stale":false,"bins":25,"density_birds_km3":8.274375,"heading_deg":255.17933056275024,"speed_ms":5.472460887310104,"peak_altitude_m":200.0,"u_ms":-4.916329831456428,"v_ms":-1.5817663064016325}},{"type":"Feature","geometry":{"type":"Point","coordinates":[-77.4778,38.9753]},"properties":{"site":"KLWX","name":"Sterling VA","scan_time":"2026-09-21T04:01:07Z","stale":false,"bins":25,"density_birds_km3":32.92357142857143,"heading_deg":183.80517968525152,"speed_ms":8.061629962677609,"peak_altitude_m":400.0,"u_ms":-0.4089047733374076,"v_ms":-7.457192308531768}},{"type":"Feature","geometry":{"type":"Point","coordinates":[-76.8762,34.7759]},"properties":{"site":"KMHX","name":"Morehead City NC","scan_time":"2026-09-21T03:56:54Z","stale":false,"bins":25,"density_birds_km3":2.728125,"heading_deg":309.62695647306896,"speed_ms":4.026649094659638,"peak_altitude_m":0.0,"u_ms":-1.442809993123997,"v_ms":1.0285583314233322}},{"type":"Feature","geometry":{"type":"Point","coordinates":[-80.6542,28.1133]},"properties":{"site":"KMLB","name":"Melbourne FL","scan_time":"2026-09-21T04:00:19Z","stale":false,"bins":25,"density_birds_km3":32.33375,"heading_deg":159.36375903722282,"speed_ms":9.767022654347237,"peak_altitude_m":0.0,"u_ms":3.503049831832064,"v_ms":-9.041250628213554}},{"type":"Feature","geometry":{"type":"Point","coordinates":[-86.5625,36.2472]},"properties":{"site":"KOHX","name":"Nashville TN","scan_time":"2026-09-21T04:02:24Z","stale":false,"bins":25,"density_birds_km3":59.230666666666664,"heading_deg":198.94050464146835,"speed_ms":3.9095121896314975,"peak_altitude_m":400.0,"u_ms":-0.1862799675843595,"v_ms":-1.8909023478828535}},{"type":"Feature","geometry":{"type":"Point","coordinates":[-72.8639,40.8655]},"properties":{"site":"KOKX","name":"Upton NY","scan_time":"2026-09-21T03:59:37Z","stale":false,"bins":25,"density_birds_km3":0.5423076923076923,"heading_deg":null,"speed_ms":null,"peak_altitude_m":200.0,"u_ms":null,"v_ms":null}},{"type":"Feature","geometry":{"type":"Point","coordinates":[-80.2183,40.5317]},"properties":{"site":"KPBZ","name":"Pittsburgh PA","scan_time":"2026-09-21T04:00:39Z","stale":false,"bins":25,"density_birds_km3":51.42785714285714,"heading_deg":206.5582821157748,"speed_ms":9.776710392558243,"peak_altitude_m":600.0,"u_ms":-4.304767514726156,"v_ms":-8.117302780911002}},{"type":"Feature","geometry":{"type":"Point","coordinates":[-78.4899,35.6655]},"properties":{"site":"KRAX","name":"Raleigh NC","scan_time":"2026-09-21T04:03:24Z","stale":false,"bins":25,"density_birds_km3":6.96,"heading_deg":84.214066283115,"speed_ms":5.846807418744935,"peak_altitude_m":0.0,"u_ms":1.3150238588277663,"v_ms":-0.4998694516971278}},{"type":"Feature","geometry":{"type":"Point","coordinates":[-82.4017,27.7055]},"properties":{"site":"KTBW","name":"Tampa FL","scan_time":"2026-09-21T04:01:50Z","stale":false,"bins":25,"density_birds_km3":28.584375,"heading_deg":196.021039716864,"speed_ms":8.175857989459642,"peak_altitude_m":0.0,"u_ms":-2.096420433422992,"v_ms":-7.768278772770014}}]}