{"type":"FeatureCollection","frame":"2026-08-26T11","site_count":20,"fresh_count":20,"failures":{},"features":[{"type":"Feature","geometry":{"type":"Point","coordinates":[-77.0073,36.984]},"properties":{"site":"KAKQ","name":"Wakefield VA","scan_time":"2026-08-26T11:02:34Z","stale":false,"bins":25,"density_birds_km3":2.1793750000000003,"heading_deg":266.10129525584534,"speed_ms":3.1640780040149123,"peak_altitude_m":200.0,"u_ms":-2.951127043303699,"v_ms":-0.24538285058789797}},{"type":"Feature","geometry":{"type":"Point","coordinates":[-71.1369,41.9558]},"properties":{"site":"KBOX","name":"Boston MA","scan_time":"2026-08-26T11:01:12Z","stale":false,"bins":25,"density_birds_km3":6.388125,"heading_deg":194.37198832585946,"speed_ms":9.886725386572715,"peak_altitude_m":200.0,"u_ms":-2.474311019769035,"v_ms":-9.504685848502643}},{"type":"Feature","geometry":{"type":"Point","coordinates":[-78.7369,42.9489]},"properties":{"site":"KBUF","name":"Buffalo NY","scan_time":"2026-08-26T11:03:21Z","stale":false,"bins":25,"density_birds_km3":1.444,"heading_deg":50.051561667890894,"speed_ms":3.1334533702677745,"peak_altitude_m":200.0,"u_ms":2.397617728531856,"v_ms":1.9712003693444138}},{"type":"Feature","geometry":{"type":"Point","coordinates":[-81.8597,41.4131]},"properties":{"site":"KCLE","name":"Cleveland OH","scan_time":"2026-08-26T10:58:18Z","stale":false,"bins":25,"density_birds_km3":4.988,"heading_deg":15.844514048741486,"speed_ms":4.481979564032698,"peak_altitude_m":200.0,"u_ms":1.2094250681198908,"v_ms":4.152629427792915}},{"type":"Feature","geometry":{"type":"Point","coordinates":[-81.0423,32.6555]},"properties":{"site":"KCLX","name":"Charleston SC","scan_time":"2026-08-26T10:57:53Z","stale":false,"bins":25,"density_birds_km3":7.807499999999999,"heading_deg":239.6069845593538,"speed_ms":4.636242983159583,"peak_altitude_m":0.0,"u_ms":-3.995708901363272,"v_ms":-2.142352044907778}},{"type":"Feature","geometry":{"type":"Point","coordinates":[-74.4108,39.947]},"properties":{"site":"KDIX","name":"Philadelphia PA","scan_time":"2026-08-26T10:57:33Z","stale":false,"bins":25,"density_birds_km3":4.785625,"heading_deg":195.0408759223233,"speed_ms":8.3082370740692,"peak_altitude_m":200.0,"u_ms":-2.159240889356664,"v_ms":-7.9944388896197855}},{"type":"Feature","geometry":{"type":"Point","coordinates":[-84.5658,33.3636]},"properties":{"site":"KFFC","name":"Atlanta GA","scan_time":"2026-08-26T10:56:42Z","stale":false,"bins":25,"density_birds_km3":4.1513333333333335,"heading_deg":277.1635415559402,"speed_ms":5.2505556447727635,"peak_altitude_m":200.0,"u_ms":-5.014616990525132,"v_ms":0.6571607515657619}},{"type":"Feature","geometry":{"type":"Point","coordinates":[-85.5449,42.8939]},"properties":{"site":"KGRR","name":"Grand Rapids MI","scan_time":"2026-08-26T10:58:44Z","stale":false,"bins":25,"density_birds_km3":1.3840000000000001,"heading_deg":17.19551405858178,"speed_ms":7.638578998073219,"peak_altitude_m":200.0,"u_ms":2.289022157996146,"v_ms":7.2473314065510595}},{"type":"Feature","geometry":{"type":"Point","coordinates":[-83.8217,39.4203]},"properties":{"site":"KILN","name":"Wilmington OH","scan_time":"2026-08-26T11:02:28Z","stale":false,"bins":25,"density_birds_km3":2.05,"heading_deg":113.23038699081965,"speed_ms":1.3608859934853421,"peak_altitude_m":200.0,"u_ms":0.8058925081433225,"v_ms":0.850198697068404}},{"type":"Feature","geometry":{"type":"Point","coordinates":[-81.7019,30.4846]},"properties":{"site":"KJAX","name":"Jacksonville FL","scan_time":"2026-08-26T10:58:36Z","stale":false,"bins":25,"density_birds_km3":4.546250000000001,"heading_deg":1.9391063371972064,"speed_ms":3.6429620462046204,"peak_altitude_m":0.0,"u_ms":-0.6591364136413642,"v_ms":2.811516776677668}},{"type":"Feature","geometry":{"type":"Point","coordinates":[-88.0847,41.6045]},"properties":{"site":"KLOT","name":"Chicago IL","scan_time":"2026-08-26T10:59:06Z","stale":false,"bins":25,"density_birds_km3":0.8853333333333333,"heading_deg":41.32726566892572,"speed_ms":12.176538170823884,"peak_altitude_m":200.0,"u_ms":8.182637944066515,"v_ms":8.737762660619802}},{"type":"Feature","geometry":{"type":"Point","coordinates":[-78.4292,33.9892]},"properties":{"site":"KLTX","name":"Wilmington NC","scan_time":"2026-08-26T11:01:29Z","stale":false,"bins":25,"density_birds_km3":6.553125,"heading_deg":245.84910024337904,"speed_ms":6.737818775823965,"peak_altitude_m":0.0,"u_ms":-6.108666282309984,"v_ms":-2.4229239934659366}},{"type":"Feature","geometry":{"type":"Point","coordinates":[-77.4778,38.9753]},"properties":{"site":"KLWX","name":"Sterling VA","scan_time":"2026-08-26T11:01:35Z","stale":false,"bins":25,"density_birds_km3":2.5875,"heading_deg":215.5552844776666,"speed_ms":3.5464660381919266,"peak_altitude_m":400.0,"u_ms":-2.0714334058496493,"v_ms":-2.754392071549432}},{"type":"Feature","geometry":{"type":"Point","coordinates":[-76.8762,34.7759]},"properties":{"site":"KMHX","name":"Morehead City NC","scan_time":"2026-08-26T11:01:34Z","stale":false,"bins":25,"density_birds_km3":2.80125,"heading_deg":216.29408552918943,"speed_ms":5.794993184915946,"peak_altitude_m":0.0,"u_ms":-3.3349772830531577,"v_ms":-4.354695592912313}},{"type":"Feature","geometry":{"type":"Point","coordinates":[-80.6542,28.1133]},"properties":{"site":"KMLB","name":"Melbourne FL","scan_time":"2026-08-26T10:58:09Z","stale":false,"bins":25,"density_birds_km3":3.103125,"heading_deg":319.7623925585317,"speed_ms":3.455430010070493,"peak_altitude_m":0.0,"u_ms":-1.9688862034239678,"v_ms":2.548173212487412}},{"type":"Feature","geometry":{"type":"Point","coordinates":[-86.5625,36.2472]},"properties":{"site":"KOHX","name":"Nashville TN","scan_time":"2026-08-26T11:01:45Z","stale":false,"bins":25,"density_birds_km3":7.085333333333334,"heading_deg":333.3981515794952,"speed_ms":2.5356651916015442,"peak_altitude_m":200.0,"u_ms":0.1355305526786554,"v_ms":-0.9998794840410509}},{"type":"Feature","geometry":{"type":"Point","coordinates":[-72.8639,40.8655]},"properties":{"site":"KOKX","name":"Upton NY","scan_time":"2026-08-26T10:55:48Z","stale":false,"bins":25,"density_birds_km3":3.830625,"heading_deg":188.18180369313157,"speed_ms":6.695424088903415,"peak_altitude_m":400.0,"u_ms":-0.9115296617094296,"v_ms":-6.6179539140382415}},{"type":"Feature","geometry":{"type":"Point","coordinates":[-80.2183,40.5317]},"properties":{"site":"KPBZ","name":"Pittsburgh PA","scan_time":"2026-08-26T10:58:10Z","stale":false,"bins":25,"density_birds_km3":1.739285714285714,"heading_deg":338.2517320943111,"speed_ms":1.5722012320328544,"peak_altitude_m":400.0,"u_ms":-0.5865256673511294,"v_ms":1.4370513347022587}},{"type":"Feature","geometry":{"type":"Point","coordinates":[-78.4899,35.6655]},"properties":{"site":"KRAX","name":"Raleigh NC","scan_time":"2026-08-26T10:57:29Z","stale":false,"bins":25,"density_birds_km3":3.5275,"heading_deg":255.13600590606126,"speed_ms":3.954276082327892,"peak_altitude_m":0.0,"u_ms":-3.6101685592618877,"v_ms":-0.9708232789212208}},{"type":"Feature","geometry":{"type":"Point","coordinates":[-82.4017,27.7055]},"properties":{"site":"KTBW","name":"Tampa FL","scan_time":"2026-08-26T11:00:11Z","stale":false,"bins":25,"density_birds_km3":2.085625,"heading_deg":313.880716678106,"speed_ms":3.312108578284343,"peak_altitude_m":0.0,"u_ms":-2.3316526694661066,"v_ms":2.3107708458308336}}]}