{"type":"FeatureCollection","frame":"2026-08-14T12","site_count":20,"fresh_count":19,"failures":{"KJAX":"RuntimeError('no scan within 20 min of 2026-08-14T12:00Z')"},"features":[{"type":"Feature","geometry":{"type":"Point","coordinates":[-77.0073,36.984]},"properties":{"site":"KAKQ","name":"Wakefield VA","scan_time":"2026-08-14T12:00:24Z","stale":false,"bins":25,"density_birds_km3":0.5475,"heading_deg":27.549801911368945,"speed_ms":3.383595890410959,"peak_altitude_m":0.0,"u_ms":1.562568493150685,"v_ms":2.956426940639269}},{"type":"Feature","geometry":{"type":"Point","coordinates":[-71.1369,41.9558]},"properties":{"site":"KBOX","name":"Boston MA","scan_time":"2026-08-14T12:01:15Z","stale":false,"bins":25,"density_birds_km3":2.9175,"heading_deg":172.69817513292494,"speed_ms":7.144526157804459,"peak_altitude_m":0.0,"u_ms":0.7810956260720412,"v_ms":-7.077450686106346}},{"type":"Feature","geometry":{"type":"Point","coordinates":[-78.7369,42.9489]},"properties":{"site":"KBUF","name":"Buffalo NY","scan_time":"2026-08-14T12:03:10Z","stale":false,"bins":25,"density_birds_km3":0.8226666666666667,"heading_deg":179.97629918726693,"speed_ms":2.8014100486223663,"peak_altitude_m":200.0,"u_ms":0.12162074554294972,"v_ms":-2.652771474878444}},{"type":"Feature","geometry":{"type":"Point","coordinates":[-81.8597,41.4131]},"properties":{"site":"KCLE","name":"Cleveland OH","scan_time":"2026-08-14T12:01:53Z","stale":false,"bins":25,"density_birds_km3":3.958666666666667,"heading_deg":285.5163556399255,"speed_ms":6.044402834008097,"peak_altitude_m":200.0,"u_ms":-5.75171052631579,"v_ms":1.6501973684210527}},{"type":"Feature","geometry":{"type":"Point","coordinates":[-81.0423,32.6555]},"properties":{"site":"KCLX","name":"Charleston SC","scan_time":"2026-08-14T11:59:35Z","stale":false,"bins":25,"density_birds_km3":0.3925,"heading_deg":97.8524078301412,"speed_ms":6.032332268370606,"peak_altitude_m":0.0,"u_ms":5.77052715654952,"v_ms":-1.0527156549520766}},{"type":"Feature","geometry":{"type":"Point","coordinates":[-74.4108,39.947]},"properties":{"site":"KDIX","name":"Philadelphia PA","scan_time":"2026-08-14T12:01:39Z","stale":false,"bins":25,"density_birds_km3":3.7600000000000002,"heading_deg":215.33381018038764,"speed_ms":6.600059840425533,"peak_altitude_m":200.0,"u_ms":-3.791048869680851,"v_ms":-5.330724734042554}},{"type":"Feature","geometry":{"type":"Point","coordinates":[-84.5658,33.3636]},"properties":{"site":"KFFC","name":"Atlanta GA","scan_time":"2026-08-14T11:57:28Z","stale":false,"bins":25,"density_birds_km3":1.724,"heading_deg":127.51051756333764,"speed_ms":6.236952822892498,"peak_altitude_m":200.0,"u_ms":4.8943194122196445,"v_ms":-3.7576836813611756}},{"type":"Feature","geometry":{"type":"Point","coordinates":[-85.5449,42.8939]},"properties":{"site":"KGRR","name":"Grand Rapids MI","scan_time":"2026-08-14T12:01:17Z","stale":false,"bins":25,"density_birds_km3":2.644,"heading_deg":237.01066041341574,"speed_ms":9.076758394344864,"peak_altitude_m":400.0,"u_ms":-7.592029790456956,"v_ms":-4.948305983337541}},{"type":"Feature","geometry":{"type":"Point","coordinates":[-83.8217,39.4203]},"properties":{"site":"KILN","name":"Wilmington OH","scan_time":"2026-08-14T11:58:48Z","stale":false,"bins":25,"density_birds_km3":0.5073333333333333,"heading_deg":63.65379093334463,"speed_ms":7.309907161803713,"peak_altitude_m":200.0,"u_ms":5.58445623342175,"v_ms":0.9998275862068965}},{"type":"Feature","geometry":{"type":"Point","coordinates":[-88.0847,41.6045]},"properties":{"site":"KLOT","name":"Chicago IL","scan_time":"2026-08-14T12:01:48Z","stale":false,"bins":25,"density_birds_km3":0.3526666666666667,"heading_deg":274.81598558313567,"speed_ms":5.719149338374292,"peak_altitude_m":200.0,"u_ms":-5.511890359168242,"v_ms":0.41591682419659737}},{"type":"Feature","geometry":{"type":"Point","coordinates":[-78.4292,33.9892]},"properties":{"site":"KLTX","name":"Wilmington NC","scan_time":"2026-08-14T11:56:39Z","stale":false,"bins":25,"density_birds_km3":0.40125,"heading_deg":89.69107189148605,"speed_ms":5.979640062597809,"peak_altitude_m":0.0,"u_ms":5.866353677621285,"v_ms":0.03937402190923321}},{"type":"Feature","geometry":{"type":"Point","coordinates":[-77.4778,38.9753]},"properties":{"site":"KLWX","name":"Sterling VA","scan_time":"2026-08-14T12:00:17Z","stale":false,"bins":25,"density_birds_km3":2.854375,"heading_deg":215.2701413999154,"speed_ms":7.578870366308401,"peak_altitude_m":200.0,"u_ms":-4.435016450976091,"v_ms":-6.093625795130511}},{"type":"Feature","geometry":{"type":"Point","coordinates":[-76.8762,34.7759]},"properties":{"site":"KMHX","name":"Morehead City NC","scan_time":"2026-08-14T12:01:51Z","stale":false,"bins":25,"density_birds_km3":0.306875,"heading_deg":60.32740681631526,"speed_ms":4.842082474226804,"peak_altitude_m":0.0,"u_ms":4.091546391752578,"v_ms":2.287979381443299}},{"type":"Feature","geometry":{"type":"Point","coordinates":[-80.6542,28.1133]},"properties":{"site":"KMLB","name":"Melbourne FL","scan_time":"2026-08-14T11:58:39Z","stale":false,"bins":25,"density_birds_km3":0.6687500000000001,"heading_deg":111.36150767029112,"speed_ms":4.774144059869037,"peak_altitude_m":0.0,"u_ms":4.425603367633301,"v_ms":-1.7205144995322732}},{"type":"Feature","geometry":{"type":"Point","coordinates":[-86.5625,36.2472]},"properties":{"site":"KOHX","name":"Nashville TN","scan_time":"2026-08-14T12:03:22Z","stale":false,"bins":25,"density_birds_km3":2.5439999999999996,"heading_deg":83.4170048917357,"speed_ms":6.14781741867786,"peak_altitude_m":200.0,"u_ms":5.95892444910808,"v_ms":-0.1425786988457503}},{"type":"Feature","geometry":{"type":"Point","coordinates":[-72.8639,40.8655]},"properties":{"site":"KOKX","name":"Upton NY","scan_time":"2026-08-14T11:57:25Z","stale":false,"bins":25,"density_birds_km3":10.23,"heading_deg":185.43551843301788,"speed_ms":7.231514114627887,"peak_altitude_m":200.0,"u_ms":-0.7306262984235611,"v_ms":-7.16841989490407}},{"type":"Feature","geometry":{"type":"Point","coordinates":[-80.2183,40.5317]},"properties":{"site":"KPBZ","name":"Pittsburgh PA","scan_time":"2026-08-14T11:58:48Z","stale":false,"bins":25,"density_birds_km3":0.8814285714285715,"heading_deg":280.73137674639304,"speed_ms":5.2075345809601306,"peak_altitude_m":400.0,"u_ms":-5.0624572823433684,"v_ms":0.9513506916192027}},{"type":"Feature","geometry":{"type":"Point","coordinates":[-78.4899,35.6655]},"properties":{"site":"KRAX","name":"Raleigh NC","scan_time":"2026-08-14T11:59:36Z","stale":false,"bins":25,"density_birds_km3":1.680625,"heading_deg":149.17007819082227,"speed_ms":4.893023428783934,"peak_altitude_m":400.0,"u_ms":2.365615470435106,"v_ms":-4.164157679434735}},{"type":"Feature","geometry":{"type":"Point","coordinates":[-82.4017,27.7055]},"properties":{"site":"KTBW","name":"Tampa FL","scan_time":"2026-08-14T12:04:03Z","stale":false,"bins":25,"density_birds_km3":1.491875,"heading_deg":192.52797328917262,"speed_ms":5.05947567114094,"peak_altitude_m":0.0,"u_ms":-0.9800755033557048,"v_ms":-4.920746644295303}}]}