{"type":"FeatureCollection","frame":"2026-09-04T10","site_count":20,"fresh_count":20,"failures":{},"features":[{"type":"Feature","geometry":{"type":"Point","coordinates":[-77.0073,36.984]},"properties":{"site":"KAKQ","name":"Wakefield VA","scan_time":"2026-09-04T09:59:11Z","stale":false,"bins":25,"density_birds_km3":1.78875,"heading_deg":113.45262665991685,"speed_ms":6.160686514886164,"peak_altitude_m":200.0,"u_ms":5.40447285464098,"v_ms":-2.8397618213660243}},{"type":"Feature","geometry":{"type":"Point","coordinates":[-71.1369,41.9558]},"properties":{"site":"KBOX","name":"Boston MA","scan_time":"2026-09-04T09:56:56Z","stale":false,"bins":25,"density_birds_km3":0.9756250000000001,"heading_deg":155.2116851971581,"speed_ms":5.436179930795847,"peak_altitude_m":0.0,"u_ms":2.252546712802768,"v_ms":-4.941107266435986}},{"type":"Feature","geometry":{"type":"Point","coordinates":[-78.7369,42.9489]},"properties":{"site":"KBUF","name":"Buffalo NY","scan_time":"2026-09-04T10:05:07Z","stale":false,"bins":25,"density_birds_km3":4.490666666666667,"heading_deg":168.25210743968762,"speed_ms":7.352280285035629,"peak_altitude_m":400.0,"u_ms":1.494375,"v_ms":-6.966904691211401}},{"type":"Feature","geometry":{"type":"Point","coordinates":[-81.8597,41.4131]},"properties":{"site":"KCLE","name":"Cleveland OH","scan_time":"2026-09-04T09:59:33Z","stale":false,"bins":25,"density_birds_km3":12.108,"heading_deg":211.50547553529285,"speed_ms":7.947041912210167,"peak_altitude_m":400.0,"u_ms":-3.269697086523104,"v_ms":-6.104062895852839}},{"type":"Feature","geometry":{"type":"Point","coordinates":[-81.0423,32.6555]},"properties":{"site":"KCLX","name":"Charleston SC","scan_time":"2026-09-04T09:58:39Z","stale":false,"bins":25,"density_birds_km3":1.47625,"heading_deg":261.61192621459094,"speed_ms":2.8657584745762716,"peak_altitude_m":0.0,"u_ms":-2.344237288135593,"v_ms":-0.5853135593220339}},{"type":"Feature","geometry":{"type":"Point","coordinates":[-74.4108,39.947]},"properties":{"site":"KDIX","name":"Philadelphia PA","scan_time":"2026-09-04T09:58:43Z","stale":false,"bins":25,"density_birds_km3":1.2137499999999999,"heading_deg":125.4905088442227,"speed_ms":9.268896907216496,"peak_altitude_m":0.0,"u_ms":6.93779381443299,"v_ms":-5.66908762886598}},{"type":"Feature","geometry":{"type":"Point","coordinates":[-84.5658,33.3636]},"properties":{"site":"KFFC","name":"Atlanta GA","scan_time":"2026-09-04T09:58:13Z","stale":false,"bins":25,"density_birds_km3":4.192,"heading_deg":311.07179312550375,"speed_ms":5.512791474471131,"peak_altitude_m":400.0,"u_ms":-3.42480833465882,"v_ms":0.13613965325274371}},{"type":"Feature","geometry":{"type":"Point","coordinates":[-85.5449,42.8939]},"properties":{"site":"KGRR","name":"Grand Rapids MI","scan_time":"2026-09-04T10:00:01Z","stale":false,"bins":25,"density_birds_km3":1.8359999999999999,"heading_deg":333.13551739004856,"speed_ms":4.299127292940522,"peak_altitude_m":200.0,"u_ms":-2.540911617565314,"v_ms":3.186386881600889}},{"type":"Feature","geometry":{"type":"Point","coordinates":[-83.8217,39.4203]},"properties":{"site":"KILN","name":"Wilmington OH","scan_time":"2026-09-04T09:58:46Z","stale":false,"bins":25,"density_birds_km3":7.934666666666667,"heading_deg":124.02232584680053,"speed_ms":8.001687134750572,"peak_altitude_m":400.0,"u_ms":6.454486321673584,"v_ms":-4.452491742186838}},{"type":"Feature","geometry":{"type":"Point","coordinates":[-81.7019,30.4846]},"properties":{"site":"KJAX","name":"Jacksonville FL","scan_time":"2026-09-04T09:58:51Z","stale":false,"bins":25,"density_birds_km3":4.09,"heading_deg":207.96194832729188,"speed_ms":5.021338630806846,"peak_altitude_m":0.0,"u_ms":-2.278872249388753,"v_ms":-4.332914119804401}},{"type":"Feature","geometry":{"type":"Point","coordinates":[-88.0847,41.6045]},"properties":{"site":"KLOT","name":"Chicago IL","scan_time":"2026-09-04T10:01:08Z","stale":false,"bins":25,"density_birds_km3":2.158,"heading_deg":66.7634798094299,"speed_ms":11.39499375390381,"peak_altitude_m":200.0,"u_ms":10.457976264834478,"v_ms":4.414097439100561}},{"type":"Feature","geometry":{"type":"Point","coordinates":[-78.4292,33.9892]},"properties":{"site":"KLTX","name":"Wilmington NC","scan_time":"2026-09-04T10:00:16Z","stale":false,"bins":25,"density_birds_km3":0.848125,"heading_deg":49.361529370199854,"speed_ms":2.1088356669123067,"peak_altitude_m":0.0,"u_ms":1.5427413411938098,"v_ms":1.2483419307295505}},{"type":"Feature","geometry":{"type":"Point","coordinates":[-77.4778,38.9753]},"properties":{"site":"KLWX","name":"Sterling VA","scan_time":"2026-09-04T10:01:32Z","stale":false,"bins":25,"density_birds_km3":8.225625,"heading_deg":191.3682980975099,"speed_ms":7.097388360593381,"peak_altitude_m":200.0,"u_ms":-0.1935131228604034,"v_ms":-6.249874476987447}},{"type":"Feature","geometry":{"type":"Point","coordinates":[-76.8762,34.7759]},"properties":{"site":"KMHX","name":"Morehead City NC","scan_time":"2026-09-04T09:59:56Z","stale":false,"bins":25,"density_birds_km3":0.598125,"heading_deg":74.30596518162619,"speed_ms":6.508746081504702,"peak_altitude_m":0.0,"u_ms":6.028568443051201,"v_ms":1.7751828631138977}},{"type":"Feature","geometry":{"type":"Point","coordinates":[-80.6542,28.1133]},"properties":{"site":"KMLB","name":"Melbourne FL","scan_time":"2026-09-04T09:58:35Z","stale":false,"bins":25,"density_birds_km3":1.659375,"heading_deg":37.790256791495175,"speed_ms":2.8043615819209045,"peak_altitude_m":0.0,"u_ms":1.5080828625235405,"v_ms":2.2812165725047078}},{"type":"Feature","geometry":{"type":"Point","coordinates":[-86.5625,36.2472]},"properties":{"site":"KOHX","name":"Nashville TN","scan_time":"2026-09-04T10:01:12Z","stale":false,"bins":25,"density_birds_km3":11.948666666666666,"heading_deg":79.3058293076023,"speed_ms":2.2010935669251803,"peak_altitude_m":200.0,"u_ms":2.1138525916420243,"v_ms":0.3025771355241868}},{"type":"Feature","geometry":{"type":"Point","coordinates":[-72.8639,40.8655]},"properties":{"site":"KOKX","name":"Upton NY","scan_time":"2026-09-04T09:59:58Z","stale":false,"bins":25,"density_birds_km3":3.2025,"heading_deg":149.9777181385562,"speed_ms":9.752782982045277,"peak_altitude_m":400.0,"u_ms":4.807033567525371,"v_ms":-8.396604215456675}},{"type":"Feature","geometry":{"type":"Point","coordinates":[-80.2183,40.5317]},"properties":{"site":"KPBZ","name":"Pittsburgh PA","scan_time":"2026-09-04T09:58:47Z","stale":false,"bins":25,"density_birds_km3":31.620714285714286,"heading_deg":187.40945480711707,"speed_ms":7.600520585233072,"peak_altitude_m":400.0,"u_ms":-0.7238244300782579,"v_ms":-7.187941703527276}},{"type":"Feature","geometry":{"type":"Point","coordinates":[-78.4899,35.6655]},"properties":{"site":"KRAX","name":"Raleigh NC","scan_time":"2026-09-04T10:00:18Z","stale":false,"bins":25,"density_birds_km3":1.6243750000000001,"heading_deg":85.9691803617705,"speed_ms":8.319845857418112,"peak_altitude_m":200.0,"u_ms":8.044878612716763,"v_ms":0.5323044315992292}},{"type":"Feature","geometry":{"type":"Point","coordinates":[-82.4017,27.7055]},"properties":{"site":"KTBW","name":"Tampa FL","scan_time":"2026-09-04T10:01:10Z","stale":false,"bins":25,"density_birds_km3":5.17375,"heading_deg":320.1939017310127,"speed_ms":5.136305870983329,"peak_altitude_m":0.0,"u_ms":-3.2025308045421594,"v_ms":3.799201497946364}}]}