{"type":"FeatureCollection","frame":"2026-08-16T12","site_count":20,"fresh_count":20,"failures":{},"features":[{"type":"Feature","geometry":{"type":"Point","coordinates":[-77.0073,36.984]},"properties":{"site":"KAKQ","name":"Wakefield VA","scan_time":"2026-08-16T12:00:22Z","stale":false,"bins":25,"density_birds_km3":0.37937499999999996,"heading_deg":316.5578696793158,"speed_ms":6.605564784053156,"peak_altitude_m":0.0,"u_ms":-4.301461794019934,"v_ms":4.585730897009967}},{"type":"Feature","geometry":{"type":"Point","coordinates":[-71.1369,41.9558]},"properties":{"site":"KBOX","name":"Boston MA","scan_time":"2026-08-16T12:01:26Z","stale":false,"bins":25,"density_birds_km3":0.84375,"heading_deg":208.0857521025971,"speed_ms":3.196940740740741,"peak_altitude_m":0.0,"u_ms":-1.4514962962962965,"v_ms":-2.729696296296296}},{"type":"Feature","geometry":{"type":"Point","coordinates":[-78.7369,42.9489]},"properties":{"site":"KBUF","name":"Buffalo NY","scan_time":"2026-08-16T11:58:40Z","stale":false,"bins":25,"density_birds_km3":0.7066666666666667,"heading_deg":353.58789739251216,"speed_ms":5.025424528301887,"peak_altitude_m":200.0,"u_ms":-0.5696792452830189,"v_ms":4.89127358490566}},{"type":"Feature","geometry":{"type":"Point","coordinates":[-81.8597,41.4131]},"properties":{"site":"KCLE","name":"Cleveland OH","scan_time":"2026-08-16T11:59:37Z","stale":false,"bins":25,"density_birds_km3":1.208,"heading_deg":98.59439511652258,"speed_ms":2.8436754966887414,"peak_altitude_m":200.0,"u_ms":2.5220860927152318,"v_ms":-0.7523399558498897}},{"type":"Feature","geometry":{"type":"Point","coordinates":[-81.0423,32.6555]},"properties":{"site":"KCLX","name":"Charleston SC","scan_time":"2026-08-16T11:55:56Z","stale":false,"bins":25,"density_birds_km3":1.33625,"heading_deg":131.68175452157965,"speed_ms":5.936954076850983,"peak_altitude_m":0.0,"u_ms":4.373303655107779,"v_ms":-3.87464854732896}},{"type":"Feature","geometry":{"type":"Point","coordinates":[-74.4108,39.947]},"properties":{"site":"KDIX","name":"Philadelphia PA","scan_time":"2026-08-16T12:01:41Z","stale":false,"bins":25,"density_birds_km3":1.311875,"heading_deg":318.6299185232207,"speed_ms":4.518256312529775,"peak_altitude_m":0.0,"u_ms":-2.974730824202001,"v_ms":3.3275655073844694}},{"type":"Feature","geometry":{"type":"Point","coordinates":[-84.5658,33.3636]},"properties":{"site":"KFFC","name":"Atlanta GA","scan_time":"2026-08-16T11:57:46Z","stale":false,"bins":25,"density_birds_km3":3.8986666666666663,"heading_deg":169.20708598562578,"speed_ms":7.440518303113239,"peak_altitude_m":200.0,"u_ms":1.3313017447827573,"v_ms":-7.308462196373589}},{"type":"Feature","geometry":{"type":"Point","coordinates":[-85.5449,42.8939]},"properties":{"site":"KGRR","name":"Grand Rapids MI","scan_time":"2026-08-16T12:03:08Z","stale":false,"bins":25,"density_birds_km3":0.02214285714285714,"heading_deg":null,"speed_ms":null,"peak_altitude_m":400.0,"u_ms":null,"v_ms":null}},{"type":"Feature","geometry":{"type":"Point","coordinates":[-83.8217,39.4203]},"properties":{"site":"KILN","name":"Wilmington OH","scan_time":"2026-08-16T11:57:31Z","stale":false,"bins":25,"density_birds_km3":0.32599999999999996,"heading_deg":57.01559959342555,"speed_ms":9.040477178423236,"peak_altitude_m":200.0,"u_ms":7.275228215767634,"v_ms":0.9242946058091286}},{"type":"Feature","geometry":{"type":"Point","coordinates":[-81.7019,30.4846]},"properties":{"site":"KJAX","name":"Jacksonville FL","scan_time":"2026-08-16T12:00:24Z","stale":false,"bins":25,"density_birds_km3":3.871875,"heading_deg":143.8169998658887,"speed_ms":6.086861478850501,"peak_altitude_m":0.0,"u_ms":3.580261543429125,"v_ms":-4.901480464966096}},{"type":"Feature","geometry":{"type":"Point","coordinates":[-88.0847,41.6045]},"properties":{"site":"KLOT","name":"Chicago IL","scan_time":"2026-08-16T11:57:50Z","stale":false,"bins":25,"density_birds_km3":1.3833333333333333,"heading_deg":109.53209456387155,"speed_ms":9.56898157129001,"peak_altitude_m":600.0,"u_ms":8.797075654704171,"v_ms":-3.304209505334627}},{"type":"Feature","geometry":{"type":"Point","coordinates":[-78.4292,33.9892]},"properties":{"site":"KLTX","name":"Wilmington NC","scan_time":"2026-08-16T11:58:35Z","stale":false,"bins":25,"density_birds_km3":3.91125,"heading_deg":246.36355926391764,"speed_ms":4.571579621916053,"peak_altitude_m":200.0,"u_ms":-3.8681352130727333,"v_ms":-1.6204053188080745}},{"type":"Feature","geometry":{"type":"Point","coordinates":[-77.4778,38.9753]},"properties":{"site":"KLWX","name":"Sterling VA","scan_time":"2026-08-16T11:58:39Z","stale":false,"bins":25,"density_birds_km3":2.946875,"heading_deg":11.870541981766303,"speed_ms":7.433870387038705,"peak_altitude_m":400.0,"u_ms":1.4497629762976298,"v_ms":7.282076207620763}},{"type":"Feature","geometry":{"type":"Point","coordinates":[-76.8762,34.7759]},"properties":{"site":"KMHX","name":"Morehead City NC","scan_time":"2026-08-16T12:00:41Z","stale":false,"bins":25,"density_birds_km3":2.138125,"heading_deg":223.99198446740425,"speed_ms":7.119894767611809,"peak_altitude_m":200.0,"u_ms":-2.339663840982169,"v_ms":-3.998216895644548}},{"type":"Feature","geometry":{"type":"Point","coordinates":[-80.6542,28.1133]},"properties":{"site":"KMLB","name":"Melbourne FL","scan_time":"2026-08-16T11:59:53Z","stale":false,"bins":25,"density_birds_km3":0.239375,"heading_deg":76.21894762553438,"speed_ms":3.4250263157894736,"peak_altitude_m":0.0,"u_ms":3.186868421052632,"v_ms":0.8480526315789474}},{"type":"Feature","geometry":{"type":"Point","coordinates":[-86.5625,36.2472]},"properties":{"site":"KOHX","name":"Nashville TN","scan_time":"2026-08-16T12:02:29Z","stale":false,"bins":25,"density_birds_km3":2.639333333333333,"heading_deg":95.68234015729935,"speed_ms":5.597966658247032,"peak_altitude_m":200.0,"u_ms":5.556004041424603,"v_ms":-0.5554862338974489}},{"type":"Feature","geometry":{"type":"Point","coordinates":[-72.8639,40.8655]},"properties":{"site":"KOKX","name":"Upton NY","scan_time":"2026-08-16T11:58:23Z","stale":false,"bins":25,"density_birds_km3":0.55625,"heading_deg":260.49579379480065,"speed_ms":3.4859255079006766,"peak_altitude_m":0.0,"u_ms":-3.265654627539503,"v_ms":-0.5930474040632054}},{"type":"Feature","geometry":{"type":"Point","coordinates":[-80.2183,40.5317]},"properties":{"site":"KPBZ","name":"Pittsburgh PA","scan_time":"2026-08-16T11:58:48Z","stale":false,"bins":25,"density_birds_km3":0.3335714285714286,"heading_deg":71.27888596382684,"speed_ms":6.376715328467155,"peak_altitude_m":400.0,"u_ms":5.988807785888079,"v_ms":1.9302676399026766}},{"type":"Feature","geometry":{"type":"Point","coordinates":[-78.4899,35.6655]},"properties":{"site":"KRAX","name":"Raleigh NC","scan_time":"2026-08-16T11:59:54Z","stale":false,"bins":25,"density_birds_km3":1.81125,"heading_deg":305.9975544243909,"speed_ms":5.457931873479318,"peak_altitude_m":200.0,"u_ms":-3.9647792839763643,"v_ms":2.8920159888773025}},{"type":"Feature","geometry":{"type":"Point","coordinates":[-82.4017,27.7055]},"properties":{"site":"KTBW","name":"Tampa FL","scan_time":"2026-08-16T12:01:38Z","stale":false,"bins":25,"density_birds_km3":1.70125,"heading_deg":289.8852351162981,"speed_ms":2.7138147739801544,"peak_altitude_m":0.0,"u_ms":-1.9360602719588387,"v_ms":0.7634472620360161}}]}