{"type":"FeatureCollection","frame":"2026-09-19T03","site_count":20,"fresh_count":20,"failures":{},"features":[{"type":"Feature","geometry":{"type":"Point","coordinates":[-77.0073,36.984]},"properties":{"site":"KAKQ","name":"Wakefield VA","scan_time":"2026-09-19T02:59:13Z","stale":false,"bins":25,"density_birds_km3":32.793124999999996,"heading_deg":208.66810570324563,"speed_ms":7.908708951952582,"peak_altitude_m":0.0,"u_ms":-3.8016207665478667,"v_ms":-6.812599630257867}},{"type":"Feature","geometry":{"type":"Point","coordinates":[-71.1369,41.9558]},"properties":{"site":"KBOX","name":"Boston MA","scan_time":"2026-09-19T03:00:37Z","stale":false,"bins":25,"density_birds_km3":19.690625,"heading_deg":193.02275058855338,"speed_ms":13.658692905887953,"peak_altitude_m":400.0,"u_ms":-3.3529614346929058,"v_ms":-13.16197238533566}},{"type":"Feature","geometry":{"type":"Point","coordinates":[-78.7369,42.9489]},"properties":{"site":"KBUF","name":"Buffalo NY","scan_time":"2026-09-19T02:58:21Z","stale":false,"bins":25,"density_birds_km3":100.40866666666668,"heading_deg":202.76349345309984,"speed_ms":10.971848910784594,"peak_altitude_m":400.0,"u_ms":-4.196453891762331,"v_ms":-10.04369669284856}},{"type":"Feature","geometry":{"type":"Point","coordinates":[-81.8597,41.4131]},"properties":{"site":"KCLE","name":"Cleveland OH","scan_time":"2026-09-19T03:01:36Z","stale":false,"bins":25,"density_birds_km3":87.60266666666666,"heading_deg":223.98981834366631,"speed_ms":7.839645444583118,"peak_altitude_m":400.0,"u_ms":-5.351058491370126,"v_ms":-5.493216340446257}},{"type":"Feature","geometry":{"type":"Point","coordinates":[-81.0423,32.6555]},"properties":{"site":"KCLX","name":"Charleston SC","scan_time":"2026-09-19T03:02:33Z","stale":false,"bins":25,"density_birds_km3":10.593125,"heading_deg":152.94302492188322,"speed_ms":7.476635199716797,"peak_altitude_m":600.0,"u_ms":0.17126851141660265,"v_ms":-4.7597958581627235}},{"type":"Feature","geometry":{"type":"Point","coordinates":[-74.4108,39.947]},"properties":{"site":"KDIX","name":"Philadelphia PA","scan_time":"2026-09-19T03:00:42Z","stale":false,"bins":25,"density_birds_km3":54.668124999999996,"heading_deg":205.98369910784726,"speed_ms":10.904563404450037,"peak_altitude_m":400.0,"u_ms":-4.936792083738489,"v_ms":-9.5223586341017}},{"type":"Feature","geometry":{"type":"Point","coordinates":[-84.5658,33.3636]},"properties":{"site":"KFFC","name":"Atlanta GA","scan_time":"2026-09-19T03:00:14Z","stale":false,"bins":25,"density_birds_km3":132.23066666666668,"heading_deg":178.33654683502883,"speed_ms":10.719286196847934,"peak_altitude_m":1800.0,"u_ms":-0.957568491424077,"v_ms":-10.196548001976344}},{"type":"Feature","geometry":{"type":"Point","coordinates":[-85.5449,42.8939]},"properties":{"site":"KGRR","name":"Grand Rapids MI","scan_time":"2026-09-19T03:01:38Z","stale":false,"bins":25,"density_birds_km3":58.85909090909092,"heading_deg":257.99826799270113,"speed_ms":11.127982685529584,"peak_altitude_m":400.0,"u_ms":-10.57646547663521,"v_ms":-1.6517096821349095}},{"type":"Feature","geometry":{"type":"Point","coordinates":[-83.8217,39.4203]},"properties":{"site":"KILN","name":"Wilmington OH","scan_time":"2026-09-19T03:00:15Z","stale":false,"bins":25,"density_birds_km3":73.52266666666667,"heading_deg":225.1151966739076,"speed_ms":10.250792506810747,"peak_altitude_m":200.0,"u_ms":-6.074120251838219,"v_ms":-6.498667371279145}},{"type":"Feature","geometry":{"type":"Point","coordinates":[-81.7019,30.4846]},"properties":{"site":"KJAX","name":"Jacksonville FL","scan_time":"2026-09-19T03:01:58Z","stale":false,"bins":25,"density_birds_km3":20.4025,"heading_deg":191.29627323642305,"speed_ms":8.81982321220663,"peak_altitude_m":200.0,"u_ms":-1.6826168882897237,"v_ms":-8.647014216557388}},{"type":"Feature","geometry":{"type":"Point","coordinates":[-88.0847,41.6045]},"properties":{"site":"KLOT","name":"Chicago IL","scan_time":"2026-09-19T02:59:13Z","stale":false,"bins":25,"density_birds_km3":25.781333333333333,"heading_deg":287.58054047664166,"speed_ms":13.305732432361646,"peak_altitude_m":200.0,"u_ms":-12.134177732379978,"v_ms":3.637947670307221}},{"type":"Feature","geometry":{"type":"Point","coordinates":[-78.4292,33.9892]},"properties":{"site":"KLTX","name":"Wilmington NC","scan_time":"2026-09-19T02:59:22Z","stale":false,"bins":25,"density_birds_km3":12.21625,"heading_deg":208.49788053875713,"speed_ms":6.6986137169064,"peak_altitude_m":200.0,"u_ms":-3.058400041692724,"v_ms":-5.922011152803836}},{"type":"Feature","geometry":{"type":"Point","coordinates":[-77.4778,38.9753]},"properties":{"site":"KLWX","name":"Sterling VA","scan_time":"2026-09-19T03:00:54Z","stale":false,"bins":25,"density_birds_km3":135.73,"heading_deg":213.42757097506174,"speed_ms":10.682876492442075,"peak_altitude_m":400.0,"u_ms":-5.879691670684325,"v_ms":-8.769643912537932}},{"type":"Feature","geometry":{"type":"Point","coordinates":[-76.8762,34.7759]},"properties":{"site":"KMHX","name":"Morehead City NC","scan_time":"2026-09-19T03:00:35Z","stale":false,"bins":25,"density_birds_km3":18.4875,"heading_deg":155.67711063997683,"speed_ms":6.631505278116119,"peak_altitude_m":0.0,"u_ms":2.3530684125050754,"v_ms":-5.249688049803762}},{"type":"Feature","geometry":{"type":"Point","coordinates":[-80.6542,28.1133]},"properties":{"site":"KMLB","name":"Melbourne FL","scan_time":"2026-09-19T03:01:08Z","stale":false,"bins":25,"density_birds_km3":11.76875,"heading_deg":172.56883188291192,"speed_ms":6.5782702214668864,"peak_altitude_m":0.0,"u_ms":0.8261230017526157,"v_ms":-6.5099394550958625}},{"type":"Feature","geometry":{"type":"Point","coordinates":[-86.5625,36.2472]},"properties":{"site":"KOHX","name":"Nashville TN","scan_time":"2026-09-19T03:00:51Z","stale":false,"bins":25,"density_birds_km3":146.83599999999998,"heading_deg":182.31838784662185,"speed_ms":6.590028103916387,"peak_altitude_m":200.0,"u_ms":-0.256555613064916,"v_ms":-6.577747418889101}},{"type":"Feature","geometry":{"type":"Point","coordinates":[-72.8639,40.8655]},"properties":{"site":"KOKX","name":"Upton NY","scan_time":"2026-09-19T03:03:40Z","stale":false,"bins":25,"density_birds_km3":42.28375,"heading_deg":216.51837112847164,"speed_ms":13.203009180298693,"peak_altitude_m":200.0,"u_ms":-7.882446646002343,"v_ms":-10.57148857282691}},{"type":"Feature","geometry":{"type":"Point","coordinates":[-80.2183,40.5317]},"properties":{"site":"KPBZ","name":"Pittsburgh PA","scan_time":"2026-09-19T03:02:03Z","stale":false,"bins":25,"density_birds_km3":218.21857142857144,"heading_deg":224.13670891750397,"speed_ms":12.85671931156835,"peak_altitude_m":600.0,"u_ms":-8.735317538771742,"v_ms":-9.161241088554727}},{"type":"Feature","geometry":{"type":"Point","coordinates":[-78.4899,35.6655]},"properties":{"site":"KRAX","name":"Raleigh NC","scan_time":"2026-09-19T03:01:55Z","stale":false,"bins":25,"density_birds_km3":85.90125,"heading_deg":190.51612925133142,"speed_ms":8.710963623644632,"peak_altitude_m":200.0,"u_ms":-1.9738469161711552,"v_ms":-7.735610061793167}},{"type":"Feature","geometry":{"type":"Point","coordinates":[-82.4017,27.7055]},"properties":{"site":"KTBW","name":"Tampa FL","scan_time":"2026-09-19T03:00:13Z","stale":false,"bins":25,"density_birds_km3":9.653749999999999,"heading_deg":233.22174581758577,"speed_ms":4.978056454745565,"peak_altitude_m":0.0,"u_ms":-3.4776349864042473,"v_ms":-3.2377094393370456}}]}