{"type":"FeatureCollection","frame":"2026-10-01T08","site_count":20,"fresh_count":20,"failures":{},"features":[{"type":"Feature","geometry":{"type":"Point","coordinates":[-77.0073,36.984]},"properties":{"site":"KAKQ","name":"Wakefield VA","scan_time":"2026-10-01T08:01:58Z","stale":false,"bins":25,"density_birds_km3":2.406875,"heading_deg":65.58606058095361,"speed_ms":6.258480124707716,"peak_altitude_m":0.0,"u_ms":5.174528448947779,"v_ms":2.1471966744608983}},{"type":"Feature","geometry":{"type":"Point","coordinates":[-71.1369,41.9558]},"properties":{"site":"KBOX","name":"Boston MA","scan_time":"2026-10-01T08:00:06Z","stale":false,"bins":25,"density_birds_km3":2.24125,"heading_deg":82.71808159355398,"speed_ms":7.24515337423313,"peak_altitude_m":0.0,"u_ms":7.096614612381485,"v_ms":0.8012688232013385}},{"type":"Feature","geometry":{"type":"Point","coordinates":[-78.7369,42.9489]},"properties":{"site":"KBUF","name":"Buffalo NY","scan_time":"2026-10-01T07:58:13Z","stale":false,"bins":25,"density_birds_km3":0.5153333333333333,"heading_deg":13.462260322846246,"speed_ms":8.226626686656672,"peak_altitude_m":200.0,"u_ms":2.3836281859070465,"v_ms":7.102143928035982}},{"type":"Feature","geometry":{"type":"Point","coordinates":[-81.8597,41.4131]},"properties":{"site":"KCLE","name":"Cleveland OH","scan_time":"2026-10-01T08:00:53Z","stale":false,"bins":25,"density_birds_km3":0.948,"heading_deg":32.83948335627925,"speed_ms":11.796201157742402,"peak_altitude_m":200.0,"u_ms":6.7884225759768455,"v_ms":9.397098408104195}},{"type":"Feature","geometry":{"type":"Point","coordinates":[-81.0423,32.6555]},"properties":{"site":"KCLX","name":"Charleston SC","scan_time":"2026-10-01T08:03:10Z","stale":false,"bins":25,"density_birds_km3":8.831875,"heading_deg":236.5797463579744,"speed_ms":7.884303206171704,"peak_altitude_m":0.0,"u_ms":-6.370168447873169,"v_ms":-4.161739684337179}},{"type":"Feature","geometry":{"type":"Point","coordinates":[-74.4108,39.947]},"properties":{"site":"KDIX","name":"Philadelphia PA","scan_time":"2026-10-01T07:57:31Z","stale":false,"bins":25,"density_birds_km3":3.56875,"heading_deg":60.728984153415865,"speed_ms":4.930691889998249,"peak_altitude_m":0.0,"u_ms":4.3008617971623755,"v_ms":2.2239954457873536}},{"type":"Feature","geometry":{"type":"Point","coordinates":[-84.5658,33.3636]},"properties":{"site":"KFFC","name":"Atlanta GA","scan_time":"2026-10-01T07:59:53Z","stale":false,"bins":25,"density_birds_km3":2.746,"heading_deg":351.04836551400683,"speed_ms":10.50575867929109,"peak_altitude_m":400.0,"u_ms":-1.0362369507161933,"v_ms":10.304831269725662}},{"type":"Feature","geometry":{"type":"Point","coordinates":[-85.5449,42.8939]},"properties":{"site":"KGRR","name":"Grand Rapids MI","scan_time":"2026-10-01T08:00:28Z","stale":false,"bins":25,"density_birds_km3":null,"heading_deg":null,"speed_ms":null,"peak_altitude_m":null,"u_ms":null,"v_ms":null}},{"type":"Feature","geometry":{"type":"Point","coordinates":[-83.8217,39.4203]},"properties":{"site":"KILN","name":"Wilmington OH","scan_time":"2026-10-01T07:57:53Z","stale":false,"bins":25,"density_birds_km3":2.6073333333333335,"heading_deg":54.08458046118933,"speed_ms":16.29204144282425,"peak_altitude_m":400.0,"u_ms":13.243860322333076,"v_ms":9.286216423637757}},{"type":"Feature","geometry":{"type":"Point","coordinates":[-81.7019,30.4846]},"properties":{"site":"KJAX","name":"Jacksonville FL","scan_time":"2026-10-01T07:59:52Z","stale":false,"bins":25,"density_birds_km3":15.111875000000001,"heading_deg":206.98211135821174,"speed_ms":6.3997567534025555,"peak_altitude_m":0.0,"u_ms":-2.2971919083274726,"v_ms":-4.618325818061474}},{"type":"Feature","geometry":{"type":"Point","coordinates":[-88.0847,41.6045]},"properties":{"site":"KLOT","name":"Chicago IL","scan_time":"2026-10-01T07:59:53Z","stale":false,"bins":25,"density_birds_km3":0.6546666666666667,"heading_deg":21.78276745991955,"speed_ms":10.296965442764579,"peak_altitude_m":200.0,"u_ms":4.891123110151188,"v_ms":8.47292656587473}},{"type":"Feature","geometry":{"type":"Point","coordinates":[-78.4292,33.9892]},"properties":{"site":"KLTX","name":"Wilmington NC","scan_time":"2026-10-01T08:00:24Z","stale":false,"bins":25,"density_birds_km3":3.175,"heading_deg":246.2953233510578,"speed_ms":6.359649468294604,"peak_altitude_m":0.0,"u_ms":-5.6946179598267035,"v_ms":-2.5023651043718}},{"type":"Feature","geometry":{"type":"Point","coordinates":[-77.4778,38.9753]},"properties":{"site":"KLWX","name":"Sterling VA","scan_time":"2026-10-01T07:57:28Z","stale":false,"bins":25,"density_birds_km3":11.87375,"heading_deg":358.4524457588359,"speed_ms":5.529446725626448,"peak_altitude_m":0.0,"u_ms":1.6024510423246998,"v_ms":3.838748157506843}},{"type":"Feature","geometry":{"type":"Point","coordinates":[-76.8762,34.7759]},"properties":{"site":"KMHX","name":"Morehead City NC","scan_time":"2026-10-01T07:58:52Z","stale":false,"bins":25,"density_birds_km3":1.879375,"heading_deg":342.7577471572715,"speed_ms":2.6183754993342214,"peak_altitude_m":0.0,"u_ms":-0.5966311584553927,"v_ms":1.3631258322237019}},{"type":"Feature","geometry":{"type":"Point","coordinates":[-80.6542,28.1133]},"properties":{"site":"KMLB","name":"Melbourne FL","scan_time":"2026-10-01T08:01:46Z","stale":false,"bins":25,"density_birds_km3":4.7143749999999995,"heading_deg":null,"speed_ms":null,"peak_altitude_m":0.0,"u_ms":null,"v_ms":null}},{"type":"Feature","geometry":{"type":"Point","coordinates":[-86.5625,36.2472]},"properties":{"site":"KOHX","name":"Nashville TN","scan_time":"2026-10-01T08:00:18Z","stale":false,"bins":25,"density_birds_km3":3.836,"heading_deg":8.300624876227817,"speed_ms":12.28740264255911,"peak_altitude_m":200.0,"u_ms":2.421302155771906,"v_ms":11.240606745479834}},{"type":"Feature","geometry":{"type":"Point","coordinates":[-72.8639,40.8655]},"properties":{"site":"KOKX","name":"Upton NY","scan_time":"2026-10-01T07:56:39Z","stale":false,"bins":25,"density_birds_km3":1.8125,"heading_deg":84.5294896622461,"speed_ms":8.437441379310345,"peak_altitude_m":0.0,"u_ms":8.39138275862069,"v_ms":0.7950620689655173}},{"type":"Feature","geometry":{"type":"Point","coordinates":[-80.2183,40.5317]},"properties":{"site":"KPBZ","name":"Pittsburgh PA","scan_time":"2026-10-01T08:01:26Z","stale":false,"bins":25,"density_birds_km3":2.322857142857143,"heading_deg":52.74264446797026,"speed_ms":13.557367773677736,"peak_altitude_m":400.0,"u_ms":10.798299507995079,"v_ms":8.128453259532593}},{"type":"Feature","geometry":{"type":"Point","coordinates":[-78.4899,35.6655]},"properties":{"site":"KRAX","name":"Raleigh NC","scan_time":"2026-10-01T07:57:18Z","stale":false,"bins":25,"density_birds_km3":3.584375,"heading_deg":64.56141131001331,"speed_ms":6.907486920125567,"peak_altitude_m":0.0,"u_ms":5.753941402162539,"v_ms":3.1482193930938265}},{"type":"Feature","geometry":{"type":"Point","coordinates":[-82.4017,27.7055]},"properties":{"site":"KTBW","name":"Tampa FL","scan_time":"2026-10-01T07:58:50Z","stale":false,"bins":25,"density_birds_km3":3.3206249999999997,"heading_deg":262.0935678286199,"speed_ms":5.85923207227555,"peak_altitude_m":0.0,"u_ms":-5.477391304347827,"v_ms":-0.42656879352531524}}]}