{"type":"FeatureCollection","frame":"2026-09-18T00","site_count":20,"fresh_count":20,"failures":{},"features":[{"type":"Feature","geometry":{"type":"Point","coordinates":[-77.0073,36.984]},"properties":{"site":"KAKQ","name":"Wakefield VA","scan_time":"2026-09-18T00:00:34Z","stale":false,"bins":25,"density_birds_km3":3.694375,"heading_deg":64.80153580394231,"speed_ms":4.223711672031171,"peak_altitude_m":0.0,"u_ms":3.319059800101643,"v_ms":1.1657038793833643}},{"type":"Feature","geometry":{"type":"Point","coordinates":[-71.1369,41.9558]},"properties":{"site":"KBOX","name":"Boston MA","scan_time":"2026-09-17T23:58:49Z","stale":false,"bins":25,"density_birds_km3":1.7675,"heading_deg":8.385556707614674,"speed_ms":8.18202743902439,"peak_altitude_m":0.0,"u_ms":1.5251181402439025,"v_ms":7.668323170731707}},{"type":"Feature","geometry":{"type":"Point","coordinates":[-78.7369,42.9489]},"properties":{"site":"KBUF","name":"Buffalo NY","scan_time":"2026-09-17T23:58:06Z","stale":false,"bins":25,"density_birds_km3":14.120666666666667,"heading_deg":208.49380375118065,"speed_ms":5.7458588290840416,"peak_altitude_m":400.0,"u_ms":-2.394578375826251,"v_ms":-4.93285552407932}},{"type":"Feature","geometry":{"type":"Point","coordinates":[-81.8597,41.4131]},"properties":{"site":"KCLE","name":"Cleveland OH","scan_time":"2026-09-17T23:58:51Z","stale":false,"bins":25,"density_birds_km3":6.134666666666666,"heading_deg":139.69269127911625,"speed_ms":2.8619560965007604,"peak_altitude_m":200.0,"u_ms":1.9033503586176919,"v_ms":-2.1064996739839166}},{"type":"Feature","geometry":{"type":"Point","coordinates":[-81.0423,32.6555]},"properties":{"site":"KCLX","name":"Charleston SC","scan_time":"2026-09-18T00:00:21Z","stale":false,"bins":25,"density_birds_km3":2.2687500000000003,"heading_deg":268.82101928117726,"speed_ms":3.1598957694665843,"peak_altitude_m":0.0,"u_ms":-1.9795187001839358,"v_ms":-0.3609135499693439}},{"type":"Feature","geometry":{"type":"Point","coordinates":[-74.4108,39.947]},"properties":{"site":"KDIX","name":"Philadelphia PA","scan_time":"2026-09-18T00:01:01Z","stale":false,"bins":25,"density_birds_km3":3.083125,"heading_deg":33.899373952817186,"speed_ms":7.603760146103896,"peak_altitude_m":0.0,"u_ms":4.170188717532467,"v_ms":5.805556006493506}},{"type":"Feature","geometry":{"type":"Point","coordinates":[-84.5658,33.3636]},"properties":{"site":"KFFC","name":"Atlanta GA","scan_time":"2026-09-17T23:58:15Z","stale":false,"bins":25,"density_birds_km3":2.6173333333333333,"heading_deg":263.71655634612813,"speed_ms":2.215314970670747,"peak_altitude_m":200.0,"u_ms":-2.1696863045141543,"v_ms":-0.27258352461106855}},{"type":"Feature","geometry":{"type":"Point","coordinates":[-85.5449,42.8939]},"properties":{"site":"KGRR","name":"Grand Rapids MI","scan_time":"2026-09-18T00:01:27Z","stale":false,"bins":25,"density_birds_km3":0.6833333333333333,"heading_deg":238.85001128241998,"speed_ms":3.820920666013712,"peak_altitude_m":400.0,"u_ms":-3.252928501469148,"v_ms":-1.944289911851126}},{"type":"Feature","geometry":{"type":"Point","coordinates":[-83.8217,39.4203]},"properties":{"site":"KILN","name":"Wilmington OH","scan_time":"2026-09-18T00:01:08Z","stale":false,"bins":25,"density_birds_km3":2.3793333333333333,"heading_deg":87.92393113003959,"speed_ms":6.617441334464236,"peak_altitude_m":200.0,"u_ms":6.577367825841109,"v_ms":0.10435962680237487}},{"type":"Feature","geometry":{"type":"Point","coordinates":[-81.7019,30.4846]},"properties":{"site":"KJAX","name":"Jacksonville FL","scan_time":"2026-09-17T23:59:40Z","stale":false,"bins":25,"density_birds_km3":4.07625,"heading_deg":209.3361293475466,"speed_ms":8.367472851380702,"peak_altitude_m":0.0,"u_ms":-4.111607198262488,"v_ms":-7.282314613713932}},{"type":"Feature","geometry":{"type":"Point","coordinates":[-88.0847,41.6045]},"properties":{"site":"KLOT","name":"Chicago IL","scan_time":"2026-09-17T23:59:27Z","stale":false,"bins":25,"density_birds_km3":0.8633333333333334,"heading_deg":209.77284285411707,"speed_ms":8.184324324324324,"peak_altitude_m":200.0,"u_ms":-3.9546486486486487,"v_ms":-6.935791505791506}},{"type":"Feature","geometry":{"type":"Point","coordinates":[-78.4292,33.9892]},"properties":{"site":"KLTX","name":"Wilmington NC","scan_time":"2026-09-18T00:02:10Z","stale":false,"bins":25,"density_birds_km3":3.615,"heading_deg":139.58861784018382,"speed_ms":3.7199411764705883,"peak_altitude_m":200.0,"u_ms":0.7261332179930796,"v_ms":-2.307742214532872}},{"type":"Feature","geometry":{"type":"Point","coordinates":[-77.4778,38.9753]},"properties":{"site":"KLWX","name":"Sterling VA","scan_time":"2026-09-17T23:58:15Z","stale":false,"bins":25,"density_birds_km3":5.754375,"heading_deg":45.03037579948216,"speed_ms":6.309459724950885,"peak_altitude_m":0.0,"u_ms":4.326749617987338,"v_ms":3.700444226151495}},{"type":"Feature","geometry":{"type":"Point","coordinates":[-76.8762,34.7759]},"properties":{"site":"KMHX","name":"Morehead City NC","scan_time":"2026-09-18T00:02:01Z","stale":false,"bins":25,"density_birds_km3":3.220625,"heading_deg":47.593374376830475,"speed_ms":4.585241700640652,"peak_altitude_m":0.0,"u_ms":2.438219763152786,"v_ms":2.6026752086973404}},{"type":"Feature","geometry":{"type":"Point","coordinates":[-80.6542,28.1133]},"properties":{"site":"KMLB","name":"Melbourne FL","scan_time":"2026-09-17T23:59:03Z","stale":false,"bins":25,"density_birds_km3":10.63,"heading_deg":220.35877487522367,"speed_ms":8.635742265615809,"peak_altitude_m":0.0,"u_ms":-5.55180449358899,"v_ms":-6.452908481355135}},{"type":"Feature","geometry":{"type":"Point","coordinates":[-86.5625,36.2472]},"properties":{"site":"KOHX","name":"Nashville TN","scan_time":"2026-09-18T00:01:38Z","stale":false,"bins":25,"density_birds_km3":1.8719999999999999,"heading_deg":191.20558296915192,"speed_ms":5.460812255076595,"peak_altitude_m":200.0,"u_ms":-1.0466583541147132,"v_ms":-5.321560384752405}},{"type":"Feature","geometry":{"type":"Point","coordinates":[-72.8639,40.8655]},"properties":{"site":"KOKX","name":"Upton NY","scan_time":"2026-09-17T23:59:31Z","stale":false,"bins":25,"density_birds_km3":0.651875,"heading_deg":32.21354037893914,"speed_ms":10.473221153846154,"peak_altitude_m":0.0,"u_ms":5.570230769230769,"v_ms":8.473240384615385}},{"type":"Feature","geometry":{"type":"Point","coordinates":[-80.2183,40.5317]},"properties":{"site":"KPBZ","name":"Pittsburgh PA","scan_time":"2026-09-17T23:58:29Z","stale":false,"bins":25,"density_birds_km3":3.8478571428571433,"heading_deg":110.67643776676448,"speed_ms":6.781968796433877,"peak_altitude_m":400.0,"u_ms":6.315605497771173,"v_ms":-2.406749628528975}},{"type":"Feature","geometry":{"type":"Point","coordinates":[-78.4899,35.6655]},"properties":{"site":"KRAX","name":"Raleigh NC","scan_time":"2026-09-18T00:00:56Z","stale":false,"bins":25,"density_birds_km3":3.91875,"heading_deg":24.038091531877022,"speed_ms":4.589448566610455,"peak_altitude_m":0.0,"u_ms":1.7006559865092747,"v_ms":4.08464755480607}},{"type":"Feature","geometry":{"type":"Point","coordinates":[-82.4017,27.7055]},"properties":{"site":"KTBW","name":"Tampa FL","scan_time":"2026-09-18T00:00:20Z","stale":false,"bins":25,"density_birds_km3":9.070625,"heading_deg":234.59448142378454,"speed_ms":7.110000689512514,"peak_altitude_m":0.0,"u_ms":-5.803022822864235,"v_ms":-4.080556436599324}}]}