{"type":"FeatureCollection","frame":"2026-09-20T01","site_count":20,"fresh_count":20,"failures":{},"features":[{"type":"Feature","geometry":{"type":"Point","coordinates":[-77.0073,36.984]},"properties":{"site":"KAKQ","name":"Wakefield VA","scan_time":"2026-09-20T01:00:47Z","stale":false,"bins":25,"density_birds_km3":23.861875,"heading_deg":244.82862935823783,"speed_ms":7.467253886010363,"peak_altitude_m":0.0,"u_ms":-5.465933037005866,"v_ms":-2.8322124615344153}},{"type":"Feature","geometry":{"type":"Point","coordinates":[-71.1369,41.9558]},"properties":{"site":"KBOX","name":"Boston MA","scan_time":"2026-09-20T00:59:25Z","stale":false,"bins":25,"density_birds_km3":10.256874999999999,"heading_deg":284.69935717352894,"speed_ms":5.8210177341702725,"peak_altitude_m":200.0,"u_ms":-5.326270339447864,"v_ms":1.9036376378816504}},{"type":"Feature","geometry":{"type":"Point","coordinates":[-78.7369,42.9489]},"properties":{"site":"KBUF","name":"Buffalo NY","scan_time":"2026-09-20T01:00:40Z","stale":false,"bins":25,"density_birds_km3":4.589333333333333,"heading_deg":283.57641315318426,"speed_ms":7.7455360255665315,"peak_altitude_m":200.0,"u_ms":-6.836825973271353,"v_ms":1.105382045322487}},{"type":"Feature","geometry":{"type":"Point","coordinates":[-81.8597,41.4131]},"properties":{"site":"KCLE","name":"Cleveland OH","scan_time":"2026-09-20T00:58:56Z","stale":false,"bins":25,"density_birds_km3":11.906666666666666,"heading_deg":291.1504819756624,"speed_ms":7.638895433636262,"peak_altitude_m":400.0,"u_ms":-5.898060136878716,"v_ms":2.1263525187927748}},{"type":"Feature","geometry":{"type":"Point","coordinates":[-81.0423,32.6555]},"properties":{"site":"KCLX","name":"Charleston SC","scan_time":"2026-09-20T00:58:40Z","stale":false,"bins":25,"density_birds_km3":52.091875,"heading_deg":224.71134562851694,"speed_ms":7.2403941379688534,"peak_altitude_m":200.0,"u_ms":-5.164189103970169,"v_ms":-5.0280962107918405}},{"type":"Feature","geometry":{"type":"Point","coordinates":[-74.4108,39.947]},"properties":{"site":"KDIX","name":"Philadelphia PA","scan_time":"2026-09-20T00:58:34Z","stale":false,"bins":25,"density_birds_km3":6.574375,"heading_deg":301.3398833073575,"speed_ms":6.264410586971384,"peak_altitude_m":200.0,"u_ms":-5.128194159585898,"v_ms":2.6543002246313114}},{"type":"Feature","geometry":{"type":"Point","coordinates":[-84.5658,33.3636]},"properties":{"site":"KFFC","name":"Atlanta GA","scan_time":"2026-09-20T00:59:58Z","stale":false,"bins":25,"density_birds_km3":68.26727272727273,"heading_deg":200.9391767027777,"speed_ms":7.980276186970924,"peak_altitude_m":600.0,"u_ms":-1.418547810084652,"v_ms":-7.221616047110784}},{"type":"Feature","geometry":{"type":"Point","coordinates":[-85.5449,42.8939]},"properties":{"site":"KGRR","name":"Grand Rapids MI","scan_time":"2026-09-20T00:59:26Z","stale":false,"bins":25,"density_birds_km3":1.1833333333333333,"heading_deg":301.10119923409616,"speed_ms":5.167715795654727,"peak_altitude_m":200.0,"u_ms":-4.361967116852612,"v_ms":2.629588960657663}},{"type":"Feature","geometry":{"type":"Point","coordinates":[-83.8217,39.4203]},"properties":{"site":"KILN","name":"Wilmington OH","scan_time":"2026-09-20T00:58:54Z","stale":false,"bins":25,"density_birds_km3":25.840666666666664,"heading_deg":70.39909967960554,"speed_ms":5.238817988925115,"peak_altitude_m":200.0,"u_ms":2.556559022926047,"v_ms":-0.2943613828080527}},{"type":"Feature","geometry":{"type":"Point","coordinates":[-81.7019,30.4846]},"properties":{"site":"KJAX","name":"Jacksonville FL","scan_time":"2026-09-20T01:01:40Z","stale":false,"bins":25,"density_birds_km3":21.330625,"heading_deg":199.11770751100437,"speed_ms":10.673777725687831,"peak_altitude_m":1400.0,"u_ms":-2.029209176946292,"v_ms":-9.835395411526854}},{"type":"Feature","geometry":{"type":"Point","coordinates":[-88.0847,41.6045]},"properties":{"site":"KLOT","name":"Chicago IL","scan_time":"2026-09-20T01:01:54Z","stale":false,"bins":25,"density_birds_km3":28.846666666666668,"heading_deg":359.1,"speed_ms":2.83,"peak_altitude_m":200.0,"u_ms":-0.04,"v_ms":2.83}},{"type":"Feature","geometry":{"type":"Point","coordinates":[-78.4292,33.9892]},"properties":{"site":"KLTX","name":"Wilmington NC","scan_time":"2026-09-20T00:59:34Z","stale":false,"bins":25,"density_birds_km3":34.50625,"heading_deg":236.2117892929856,"speed_ms":12.590316685605707,"peak_altitude_m":0.0,"u_ms":-10.489371099644194,"v_ms":-6.695364281589389}},{"type":"Feature","geometry":{"type":"Point","coordinates":[-77.4778,38.9753]},"properties":{"site":"KLWX","name":"Sterling VA","scan_time":"2026-09-20T00:58:23Z","stale":false,"bins":25,"density_birds_km3":25.638125,"heading_deg":313.94497609658714,"speed_ms":7.780474174842799,"peak_altitude_m":200.0,"u_ms":-5.191680409092021,"v_ms":5.1761520393433}},{"type":"Feature","geometry":{"type":"Point","coordinates":[-76.8762,34.7759]},"properties":{"site":"KMHX","name":"Morehead City NC","scan_time":"2026-09-20T00:59:27Z","stale":false,"bins":25,"density_birds_km3":26.321875,"heading_deg":226.4780824872493,"speed_ms":12.016476063829789,"peak_altitude_m":0.0,"u_ms":-8.47046875,"v_ms":-8.108578077507598}},{"type":"Feature","geometry":{"type":"Point","coordinates":[-80.6542,28.1133]},"properties":{"site":"KMLB","name":"Melbourne FL","scan_time":"2026-09-20T01:02:06Z","stale":false,"bins":25,"density_birds_km3":23.74125,"heading_deg":180.87337093861436,"speed_ms":8.725260885589426,"peak_altitude_m":0.0,"u_ms":-0.13385431474753856,"v_ms":-8.710793713473386}},{"type":"Feature","geometry":{"type":"Point","coordinates":[-86.5625,36.2472]},"properties":{"site":"KOHX","name":"Nashville TN","scan_time":"2026-09-20T01:00:56Z","stale":false,"bins":25,"density_birds_km3":140.05200000000002,"heading_deg":169.7666400737443,"speed_ms":1.9406319557497689,"peak_altitude_m":400.0,"u_ms":0.7850229914603146,"v_ms":-1.6757401060558457}},{"type":"Feature","geometry":{"type":"Point","coordinates":[-72.8639,40.8655]},"properties":{"site":"KOKX","name":"Upton NY","scan_time":"2026-09-20T00:56:07Z","stale":false,"bins":25,"density_birds_km3":3.70875,"heading_deg":258.2449898016186,"speed_ms":7.934900662251656,"peak_altitude_m":200.0,"u_ms":-7.169200203769741,"v_ms":-0.9856885719137375}},{"type":"Feature","geometry":{"type":"Point","coordinates":[-80.2183,40.5317]},"properties":{"site":"KPBZ","name":"Pittsburgh PA","scan_time":"2026-09-20T00:59:27Z","stale":false,"bins":25,"density_birds_km3":11.280714285714286,"heading_deg":300.34915564994543,"speed_ms":8.430750332425758,"peak_altitude_m":400.0,"u_ms":-5.128237193693408,"v_ms":3.202528335338441}},{"type":"Feature","geometry":{"type":"Point","coordinates":[-78.4899,35.6655]},"properties":{"site":"KRAX","name":"Raleigh NC","scan_time":"2026-09-20T00:59:38Z","stale":false,"bins":25,"density_birds_km3":74.033125,"heading_deg":272.8496635556385,"speed_ms":8.191097917319533,"peak_altitude_m":200.0,"u_ms":-7.4784514140036755,"v_ms":0.6360091980113323}},{"type":"Feature","geometry":{"type":"Point","coordinates":[-82.4017,27.7055]},"properties":{"site":"KTBW","name":"Tampa FL","scan_time":"2026-09-20T00:59:11Z","stale":false,"bins":25,"density_birds_km3":20.670625,"heading_deg":216.44606720998712,"speed_ms":4.19236930426632,"peak_altitude_m":0.0,"u_ms":-2.6516046321773046,"v_ms":-3.0232636894143257}}]}