{"type":"FeatureCollection","frame":"2026-08-24T09","site_count":20,"fresh_count":20,"failures":{},"features":[{"type":"Feature","geometry":{"type":"Point","coordinates":[-77.0073,36.984]},"properties":{"site":"KAKQ","name":"Wakefield VA","scan_time":"2026-08-24T09:00:59Z","stale":false,"bins":25,"density_birds_km3":9.26875,"heading_deg":193.7893528455215,"speed_ms":9.026663069867817,"peak_altitude_m":200.0,"u_ms":-2.453726058807661,"v_ms":-8.447216077690856}},{"type":"Feature","geometry":{"type":"Point","coordinates":[-71.1369,41.9558]},"properties":{"site":"KBOX","name":"Boston MA","scan_time":"2026-08-24T08:59:24Z","stale":false,"bins":25,"density_birds_km3":1.311875,"heading_deg":68.13767817496378,"speed_ms":6.535438342967246,"peak_altitude_m":0.0,"u_ms":6.057442196531793,"v_ms":2.3112524084778423}},{"type":"Feature","geometry":{"type":"Point","coordinates":[-78.7369,42.9489]},"properties":{"site":"KBUF","name":"Buffalo NY","scan_time":"2026-08-24T08:57:59Z","stale":false,"bins":25,"density_birds_km3":0.5546666666666666,"heading_deg":66.0266700720374,"speed_ms":7.331754807692308,"peak_altitude_m":200.0,"u_ms":6.583990384615384,"v_ms":2.670637019230769}},{"type":"Feature","geometry":{"type":"Point","coordinates":[-81.8597,41.4131]},"properties":{"site":"KCLE","name":"Cleveland OH","scan_time":"2026-08-24T09:01:14Z","stale":false,"bins":25,"density_birds_km3":0.8826666666666667,"heading_deg":110.94185790239781,"speed_ms":7.849365558912385,"peak_altitude_m":200.0,"u_ms":7.199712990936556,"v_ms":-2.9012537764350452}},{"type":"Feature","geometry":{"type":"Point","coordinates":[-81.0423,32.6555]},"properties":{"site":"KCLX","name":"Charleston SC","scan_time":"2026-08-24T09:00:59Z","stale":false,"bins":25,"density_birds_km3":5.0737499999999995,"heading_deg":99.38564564072682,"speed_ms":3.8880241438778027,"peak_altitude_m":0.0,"u_ms":3.5560716925351072,"v_ms":-1.0333727519093374}},{"type":"Feature","geometry":{"type":"Point","coordinates":[-74.4108,39.947]},"properties":{"site":"KDIX","name":"Philadelphia PA","scan_time":"2026-08-24T08:58:00Z","stale":false,"bins":25,"density_birds_km3":1.039375,"heading_deg":163.55747764867223,"speed_ms":3.8111390079608087,"peak_altitude_m":200.0,"u_ms":1.156546233925291,"v_ms":-2.869124311083895}},{"type":"Feature","geometry":{"type":"Point","coordinates":[-84.5658,33.3636]},"properties":{"site":"KFFC","name":"Atlanta GA","scan_time":"2026-08-24T08:58:37Z","stale":false,"bins":25,"density_birds_km3":17.148666666666667,"heading_deg":218.34025144516926,"speed_ms":6.742821210589745,"peak_altitude_m":600.0,"u_ms":-3.8568778913812536,"v_ms":-4.260280293900401}},{"type":"Feature","geometry":{"type":"Point","coordinates":[-85.5449,42.8939]},"properties":{"site":"KGRR","name":"Grand Rapids MI","scan_time":"2026-08-24T08:56:18Z","stale":false,"bins":25,"density_birds_km3":0.19666666666666668,"heading_deg":133.47254492984268,"speed_ms":7.888197278911564,"peak_altitude_m":200.0,"u_ms":5.362040816326531,"v_ms":-5.471326530612245}},{"type":"Feature","geometry":{"type":"Point","coordinates":[-83.8217,39.4203]},"properties":{"site":"KILN","name":"Wilmington OH","scan_time":"2026-08-24T09:00:21Z","stale":false,"bins":25,"density_birds_km3":3.458666666666667,"heading_deg":184.68430571241853,"speed_ms":10.317607941403239,"peak_altitude_m":600.0,"u_ms":-0.864500771010023,"v_ms":-10.203914803392443}},{"type":"Feature","geometry":{"type":"Point","coordinates":[-81.7019,30.4846]},"properties":{"site":"KJAX","name":"Jacksonville FL","scan_time":"2026-08-24T08:56:35Z","stale":false,"bins":25,"density_birds_km3":13.07,"heading_deg":168.3969641093668,"speed_ms":4.788436633189861,"peak_altitude_m":0.0,"u_ms":0.8658794835007176,"v_ms":-4.190736489717839}},{"type":"Feature","geometry":{"type":"Point","coordinates":[-88.0847,41.6045]},"properties":{"site":"KLOT","name":"Chicago IL","scan_time":"2026-08-24T08:57:25Z","stale":false,"bins":25,"density_birds_km3":5.538666666666667,"heading_deg":153.12353192364998,"speed_ms":8.943898651901783,"peak_altitude_m":400.0,"u_ms":4.007360375541646,"v_ms":-7.976618921521426}},{"type":"Feature","geometry":{"type":"Point","coordinates":[-78.4292,33.9892]},"properties":{"site":"KLTX","name":"Wilmington NC","scan_time":"2026-08-24T09:00:24Z","stale":false,"bins":25,"density_birds_km3":2.95,"heading_deg":303.6263042858179,"speed_ms":4.133661016949153,"peak_altitude_m":0.0,"u_ms":-3.4376525423728808,"v_ms":1.9866504237288132}},{"type":"Feature","geometry":{"type":"Point","coordinates":[-77.4778,38.9753]},"properties":{"site":"KLWX","name":"Sterling VA","scan_time":"2026-08-24T08:57:56Z","stale":false,"bins":25,"density_birds_km3":2.019375,"heading_deg":39.19191840264495,"speed_ms":3.379674317617866,"peak_altitude_m":200.0,"u_ms":1.8573356079404464,"v_ms":1.8221277915632752}},{"type":"Feature","geometry":{"type":"Point","coordinates":[-76.8762,34.7759]},"properties":{"site":"KMHX","name":"Morehead City NC","scan_time":"2026-08-24T08:58:21Z","stale":false,"bins":25,"density_birds_km3":1.843125,"heading_deg":120.80088946996494,"speed_ms":3.5724550695150903,"peak_altitude_m":0.0,"u_ms":2.952336385215327,"v_ms":-1.533899626992201}},{"type":"Feature","geometry":{"type":"Point","coordinates":[-80.6542,28.1133]},"properties":{"site":"KMLB","name":"Melbourne FL","scan_time":"2026-08-24T09:01:23Z","stale":false,"bins":25,"density_birds_km3":3.7268749999999997,"heading_deg":129.75193593267878,"speed_ms":6.114114391143912,"peak_altitude_m":0.0,"u_ms":4.455573633009058,"v_ms":-3.8545152633344517}},{"type":"Feature","geometry":{"type":"Point","coordinates":[-86.5625,36.2472]},"properties":{"site":"KOHX","name":"Nashville TN","scan_time":"2026-08-24T08:57:52Z","stale":false,"bins":25,"density_birds_km3":16.497333333333334,"heading_deg":219.79179755032956,"speed_ms":6.782387498483807,"peak_altitude_m":400.0,"u_ms":-4.194058949581531,"v_ms":-4.837020984110298}},{"type":"Feature","geometry":{"type":"Point","coordinates":[-72.8639,40.8655]},"properties":{"site":"KOKX","name":"Upton NY","scan_time":"2026-08-24T08:58:33Z","stale":false,"bins":25,"density_birds_km3":0.8725,"heading_deg":81.12879989417821,"speed_ms":5.38580229226361,"peak_altitude_m":0.0,"u_ms":5.275931232091691,"v_ms":0.8975501432664758}},{"type":"Feature","geometry":{"type":"Point","coordinates":[-80.2183,40.5317]},"properties":{"site":"KPBZ","name":"Pittsburgh PA","scan_time":"2026-08-24T09:00:16Z","stale":false,"bins":25,"density_birds_km3":0.97,"heading_deg":126.89375671517712,"speed_ms":5.989756995581738,"peak_altitude_m":800.0,"u_ms":4.284918998527246,"v_ms":-3.529977908689249}},{"type":"Feature","geometry":{"type":"Point","coordinates":[-78.4899,35.6655]},"properties":{"site":"KRAX","name":"Raleigh NC","scan_time":"2026-08-24T09:01:00Z","stale":false,"bins":25,"density_birds_km3":8.56875,"heading_deg":220.37889965912726,"speed_ms":6.8919766593727205,"peak_altitude_m":200.0,"u_ms":-4.43868198395332,"v_ms":-5.197427425237053}},{"type":"Feature","geometry":{"type":"Point","coordinates":[-82.4017,27.7055]},"properties":{"site":"KTBW","name":"Tampa FL","scan_time":"2026-08-24T08:57:58Z","stale":false,"bins":25,"density_birds_km3":4.12125,"heading_deg":122.51114743211456,"speed_ms":2.5821647451456307,"peak_altitude_m":200.0,"u_ms":0.4619887742718447,"v_ms":-0.8993522451456313}}]}