{"type":"FeatureCollection","frame":"2026-10-10T01","site_count":20,"fresh_count":20,"failures":{},"features":[{"type":"Feature","geometry":{"type":"Point","coordinates":[-77.0073,36.984]},"properties":{"site":"KAKQ","name":"Wakefield VA","scan_time":"2026-10-10T01:02:21Z","stale":false,"bins":25,"density_birds_km3":19.261875,"heading_deg":204.0936637983792,"speed_ms":7.652176283507496,"peak_altitude_m":200.0,"u_ms":-3.132343415330694,"v_ms":-6.920115531901084}},{"type":"Feature","geometry":{"type":"Point","coordinates":[-71.1369,41.9558]},"properties":{"site":"KBOX","name":"Boston MA","scan_time":"2026-10-10T00:59:47Z","stale":false,"bins":25,"density_birds_km3":5.671875,"heading_deg":136.2107940800516,"speed_ms":7.877722914140858,"peak_altitude_m":0.0,"u_ms":5.502273779345311,"v_ms":-5.621230023145597}},{"type":"Feature","geometry":{"type":"Point","coordinates":[-78.7369,42.9489]},"properties":{"site":"KBUF","name":"Buffalo NY","scan_time":"2026-10-10T01:01:25Z","stale":false,"bins":25,"density_birds_km3":0.9326666666666666,"heading_deg":111.59645075602181,"speed_ms":8.900528949249464,"peak_altitude_m":400.0,"u_ms":7.937433881343817,"v_ms":-3.1417869907076477}},{"type":"Feature","geometry":{"type":"Point","coordinates":[-81.8597,41.4131]},"properties":{"site":"KCLE","name":"Cleveland OH","scan_time":"2026-10-10T00:58:16Z","stale":false,"bins":25,"density_birds_km3":3.2753333333333337,"heading_deg":282.97060455572966,"speed_ms":7.480024429967426,"peak_altitude_m":400.0,"u_ms":-7.121828175895766,"v_ms":1.4937398208469057}},{"type":"Feature","geometry":{"type":"Point","coordinates":[-81.0423,32.6555]},"properties":{"site":"KCLX","name":"Charleston SC","scan_time":"2026-10-10T01:01:06Z","stale":false,"bins":25,"density_birds_km3":32.745625000000004,"heading_deg":208.89312006985378,"speed_ms":13.335111807652611,"peak_altitude_m":0.0,"u_ms":-6.983765719964832,"v_ms":-10.456883528917091}},{"type":"Feature","geometry":{"type":"Point","coordinates":[-74.4108,39.947]},"properties":{"site":"KDIX","name":"Philadelphia PA","scan_time":"2026-10-10T01:03:21Z","stale":false,"bins":25,"density_birds_km3":10.7425,"heading_deg":170.28813102292702,"speed_ms":7.1258410426485135,"peak_altitude_m":200.0,"u_ms":1.111847908302787,"v_ms":-7.002187700005819}},{"type":"Feature","geometry":{"type":"Point","coordinates":[-84.5658,33.3636]},"properties":{"site":"KFFC","name":"Atlanta GA","scan_time":"2026-10-10T00:59:27Z","stale":false,"bins":25,"density_birds_km3":67.95166666666667,"heading_deg":null,"speed_ms":null,"peak_altitude_m":400.0,"u_ms":null,"v_ms":null}},{"type":"Feature","geometry":{"type":"Point","coordinates":[-85.5449,42.8939]},"properties":{"site":"KGRR","name":"Grand Rapids MI","scan_time":"2026-10-10T01:00:23Z","stale":false,"bins":25,"density_birds_km3":2.828,"heading_deg":278.65826643546563,"speed_ms":11.476046676096182,"peak_altitude_m":200.0,"u_ms":-11.196282413955682,"v_ms":1.6014592173503066}},{"type":"Feature","geometry":{"type":"Point","coordinates":[-83.8217,39.4203]},"properties":{"site":"KILN","name":"Wilmington OH","scan_time":"2026-10-10T00:59:00Z","stale":false,"bins":25,"density_birds_km3":2.2920000000000003,"heading_deg":313.64694884551517,"speed_ms":9.892059423244977,"peak_altitude_m":200.0,"u_ms":-6.899446548208564,"v_ms":6.7820128167783285}},{"type":"Feature","geometry":{"type":"Point","coordinates":[-81.7019,30.4846]},"properties":{"site":"KJAX","name":"Jacksonville FL","scan_time":"2026-10-10T00:59:58Z","stale":false,"bins":25,"density_birds_km3":23.248125,"heading_deg":242.68964923556643,"speed_ms":11.333819143679332,"peak_altitude_m":0.0,"u_ms":-10.081728337644975,"v_ms":-5.138424265325699}},{"type":"Feature","geometry":{"type":"Point","coordinates":[-88.0847,41.6045]},"properties":{"site":"KLOT","name":"Chicago IL","scan_time":"2026-10-10T00:59:37Z","stale":false,"bins":25,"density_birds_km3":1.6826666666666665,"heading_deg":296.2761008415757,"speed_ms":12.017988095238096,"peak_altitude_m":200.0,"u_ms":-10.490587301587302,"v_ms":5.080349206349206}},{"type":"Feature","geometry":{"type":"Point","coordinates":[-78.4292,33.9892]},"properties":{"site":"KLTX","name":"Wilmington NC","scan_time":"2026-10-10T00:57:57Z","stale":false,"bins":25,"density_birds_km3":25.925,"heading_deg":229.6169442354827,"speed_ms":12.647581243972999,"peak_altitude_m":0.0,"u_ms":-9.783643201542912,"v_ms":-7.737614995178399}},{"type":"Feature","geometry":{"type":"Point","coordinates":[-77.4778,38.9753]},"properties":{"site":"KLWX","name":"Sterling VA","scan_time":"2026-10-10T01:02:42Z","stale":false,"bins":25,"density_birds_km3":17.826875,"heading_deg":316.6595337637061,"speed_ms":4.094513342696629,"peak_altitude_m":200.0,"u_ms":-1.2898697331460673,"v_ms":0.9775323033707863}},{"type":"Feature","geometry":{"type":"Point","coordinates":[-76.8762,34.7759]},"properties":{"site":"KMHX","name":"Morehead City NC","scan_time":"2026-10-10T00:57:59Z","stale":false,"bins":25,"density_birds_km3":26.180625,"heading_deg":223.8184844762497,"speed_ms":11.188172268907563,"peak_altitude_m":0.0,"u_ms":-7.503541348357525,"v_ms":-8.08106211802903}},{"type":"Feature","geometry":{"type":"Point","coordinates":[-80.6542,28.1133]},"properties":{"site":"KMLB","name":"Melbourne FL","scan_time":"2026-10-10T01:01:00Z","stale":false,"bins":25,"density_birds_km3":7.28625,"heading_deg":332.85157117079984,"speed_ms":8.36089380682793,"peak_altitude_m":200.0,"u_ms":-3.4760645050609025,"v_ms":7.332840109795848}},{"type":"Feature","geometry":{"type":"Point","coordinates":[-86.5625,36.2472]},"properties":{"site":"KOHX","name":"Nashville TN","scan_time":"2026-10-10T01:01:44Z","stale":false,"bins":25,"density_birds_km3":9.942,"heading_deg":278.7060242934882,"speed_ms":9.10728089586267,"peak_altitude_m":200.0,"u_ms":-8.997327164219138,"v_ms":1.3373948903641117}},{"type":"Feature","geometry":{"type":"Point","coordinates":[-72.8639,40.8655]},"properties":{"site":"KOKX","name":"Upton NY","scan_time":"2026-10-10T01:00:43Z","stale":false,"bins":25,"density_birds_km3":12.112499999999999,"heading_deg":172.57743987895327,"speed_ms":8.166751135425269,"peak_altitude_m":0.0,"u_ms":1.180838666391412,"v_ms":-7.952682184145334}},{"type":"Feature","geometry":{"type":"Point","coordinates":[-80.2183,40.5317]},"properties":{"site":"KPBZ","name":"Pittsburgh PA","scan_time":"2026-10-10T00:58:04Z","stale":false,"bins":25,"density_birds_km3":4.8028571428571425,"heading_deg":212.05989717722935,"speed_ms":4.482627900059489,"peak_altitude_m":600.0,"u_ms":-2.1618158834027366,"v_ms":-3.784238548483046}},{"type":"Feature","geometry":{"type":"Point","coordinates":[-78.4899,35.6655]},"properties":{"site":"KRAX","name":"Raleigh NC","scan_time":"2026-10-10T01:00:00Z","stale":false,"bins":25,"density_birds_km3":117.94250000000001,"heading_deg":240.51811155303173,"speed_ms":10.582347171291095,"peak_altitude_m":200.0,"u_ms":-9.165782054814846,"v_ms":-5.155998685800284}},{"type":"Feature","geometry":{"type":"Point","coordinates":[-82.4017,27.7055]},"properties":{"site":"KTBW","name":"Tampa FL","scan_time":"2026-10-10T01:01:25Z","stale":false,"bins":25,"density_birds_km3":12.6675,"heading_deg":346.16095675583284,"speed_ms":9.866072133412276,"peak_altitude_m":0.0,"u_ms":-2.0129460232879417,"v_ms":9.58811821590685}}]}