{"type":"FeatureCollection","frame":"2026-08-30T02","site_count":20,"fresh_count":20,"failures":{},"features":[{"type":"Feature","geometry":{"type":"Point","coordinates":[-77.0073,36.984]},"properties":{"site":"KAKQ","name":"Wakefield VA","scan_time":"2026-08-30T01:57:02Z","stale":false,"bins":25,"density_birds_km3":24.37625,"heading_deg":235.92043095493625,"speed_ms":6.27918311881442,"peak_altitude_m":200.0,"u_ms":-4.652788574944875,"v_ms":-3.4459743090097947}},{"type":"Feature","geometry":{"type":"Point","coordinates":[-71.1369,41.9558]},"properties":{"site":"KBOX","name":"Boston MA","scan_time":"2026-08-30T02:01:21Z","stale":false,"bins":25,"density_birds_km3":9.1975,"heading_deg":126.78062066501509,"speed_ms":6.1568145983417155,"peak_altitude_m":0.0,"u_ms":2.659559603099089,"v_ms":-2.1684606497213537}},{"type":"Feature","geometry":{"type":"Point","coordinates":[-78.7369,42.9489]},"properties":{"site":"KBUF","name":"Buffalo NY","scan_time":"2026-08-30T01:59:09Z","stale":false,"bins":25,"density_birds_km3":1.492,"heading_deg":33.96524955455203,"speed_ms":6.816604110813226,"peak_altitude_m":200.0,"u_ms":3.8216175156389633,"v_ms":5.424481680071493}},{"type":"Feature","geometry":{"type":"Point","coordinates":[-81.8597,41.4131]},"properties":{"site":"KCLE","name":"Cleveland OH","scan_time":"2026-08-30T01:58:13Z","stale":false,"bins":25,"density_birds_km3":2.3873333333333333,"heading_deg":355.9423179847283,"speed_ms":4.973579242636747,"peak_altitude_m":200.0,"u_ms":-0.21382047685834507,"v_ms":4.456322580645162}},{"type":"Feature","geometry":{"type":"Point","coordinates":[-81.0423,32.6555]},"properties":{"site":"KCLX","name":"Charleston SC","scan_time":"2026-08-30T02:02:19Z","stale":false,"bins":25,"density_birds_km3":8.875625000000001,"heading_deg":246.56675443141813,"speed_ms":6.877968658892127,"peak_altitude_m":0.0,"u_ms":-6.187423469387755,"v_ms":-2.638185860058309}},{"type":"Feature","geometry":{"type":"Point","coordinates":[-74.4108,39.947]},"properties":{"site":"KDIX","name":"Philadelphia PA","scan_time":"2026-08-30T02:03:15Z","stale":false,"bins":25,"density_birds_km3":17.619374999999998,"heading_deg":197.30950351256158,"speed_ms":8.188292527144986,"peak_altitude_m":1600.0,"u_ms":-1.5439298133560426,"v_ms":-5.966337023632105}},{"type":"Feature","geometry":{"type":"Point","coordinates":[-84.5658,33.3636]},"properties":{"site":"KFFC","name":"Atlanta GA","scan_time":"2026-08-30T01:59:55Z","stale":false,"bins":25,"density_birds_km3":25.718666666666664,"heading_deg":278.59679185070706,"speed_ms":6.01119381255687,"peak_altitude_m":400.0,"u_ms":-5.188688418042377,"v_ms":1.1317584817366437}},{"type":"Feature","geometry":{"type":"Point","coordinates":[-85.5449,42.8939]},"properties":{"site":"KGRR","name":"Grand Rapids MI","scan_time":"2026-08-30T01:59:55Z","stale":false,"bins":25,"density_birds_km3":5.205333333333333,"heading_deg":9.250369386690505,"speed_ms":7.737849740932643,"peak_altitude_m":200.0,"u_ms":1.3016580310880828,"v_ms":7.593571243523316}},{"type":"Feature","geometry":{"type":"Point","coordinates":[-83.8217,39.4203]},"properties":{"site":"KILN","name":"Wilmington OH","scan_time":"2026-08-30T02:00:09Z","stale":false,"bins":25,"density_birds_km3":3.9766666666666666,"heading_deg":10.877318185165615,"speed_ms":4.654149203688181,"peak_altitude_m":600.0,"u_ms":0.6574719195305951,"v_ms":3.3467225481978207}},{"type":"Feature","geometry":{"type":"Point","coordinates":[-81.7019,30.4846]},"properties":{"site":"KJAX","name":"Jacksonville FL","scan_time":"2026-08-30T01:59:56Z","stale":false,"bins":25,"density_birds_km3":21.466875,"heading_deg":221.34783283883945,"speed_ms":5.231305349993934,"peak_altitude_m":200.0,"u_ms":-3.414492903069271,"v_ms":-3.9379242994055557}},{"type":"Feature","geometry":{"type":"Point","coordinates":[-88.0847,41.6045]},"properties":{"site":"KLOT","name":"Chicago IL","scan_time":"2026-08-30T02:00:15Z","stale":false,"bins":25,"density_birds_km3":2.424,"heading_deg":0.4200048598363056,"speed_ms":12.32644214645053,"peak_altitude_m":200.0,"u_ms":0.19556735606484071,"v_ms":12.1370961430967}},{"type":"Feature","geometry":{"type":"Point","coordinates":[-78.4292,33.9892]},"properties":{"site":"KLTX","name":"Wilmington NC","scan_time":"2026-08-30T01:59:24Z","stale":false,"bins":25,"density_birds_km3":15.1975,"heading_deg":215.3593862205119,"speed_ms":7.142667245513934,"peak_altitude_m":200.0,"u_ms":-4.076431820061193,"v_ms":-5.78473910526751}},{"type":"Feature","geometry":{"type":"Point","coordinates":[-77.4778,38.9753]},"properties":{"site":"KLWX","name":"Sterling VA","scan_time":"2026-08-30T01:59:47Z","stale":false,"bins":25,"density_birds_km3":21.47125,"heading_deg":264.4385774688218,"speed_ms":4.937088905435592,"peak_altitude_m":200.0,"u_ms":-4.104690096798213,"v_ms":-0.38306895011169023}},{"type":"Feature","geometry":{"type":"Point","coordinates":[-76.8762,34.7759]},"properties":{"site":"KMHX","name":"Morehead City NC","scan_time":"2026-08-30T02:01:40Z","stale":false,"bins":25,"density_birds_km3":16.810000000000002,"heading_deg":222.2485943995272,"speed_ms":6.623456060098926,"peak_altitude_m":0.0,"u_ms":-4.334014280932724,"v_ms":-4.913338168024099}},{"type":"Feature","geometry":{"type":"Point","coordinates":[-80.6542,28.1133]},"properties":{"site":"KMLB","name":"Melbourne FL","scan_time":"2026-08-30T01:58:34Z","stale":false,"bins":25,"density_birds_km3":10.3775,"heading_deg":189.20466227082926,"speed_ms":4.821610958537076,"peak_altitude_m":0.0,"u_ms":-0.8550157411748945,"v_ms":-4.6648723960077705}},{"type":"Feature","geometry":{"type":"Point","coordinates":[-86.5625,36.2472]},"properties":{"site":"KOHX","name":"Nashville TN","scan_time":"2026-08-30T01:59:00Z","stale":false,"bins":25,"density_birds_km3":30.856666666666666,"heading_deg":226.9342527883696,"speed_ms":4.680070001080264,"peak_altitude_m":200.0,"u_ms":-3.1432021173166254,"v_ms":-2.9732477044398835}},{"type":"Feature","geometry":{"type":"Point","coordinates":[-72.8639,40.8655]},"properties":{"site":"KOKX","name":"Upton NY","scan_time":"2026-08-30T01:58:49Z","stale":false,"bins":25,"density_birds_km3":17.24,"heading_deg":190.5335858211422,"speed_ms":7.837613446598418,"peak_altitude_m":200.0,"u_ms":-1.3848990779060482,"v_ms":-7.363061061497133}},{"type":"Feature","geometry":{"type":"Point","coordinates":[-80.2183,40.5317]},"properties":{"site":"KPBZ","name":"Pittsburgh PA","scan_time":"2026-08-30T02:01:50Z","stale":false,"bins":25,"density_birds_km3":7.236428571428571,"heading_deg":255.7502749585987,"speed_ms":4.057262856578817,"peak_altitude_m":600.0,"u_ms":-2.496424834665877,"v_ms":-0.8758108775046884}},{"type":"Feature","geometry":{"type":"Point","coordinates":[-78.4899,35.6655]},"properties":{"site":"KRAX","name":"Raleigh NC","scan_time":"2026-08-30T02:04:08Z","stale":false,"bins":25,"density_birds_km3":24.23875,"heading_deg":244.78361041926914,"speed_ms":4.737236140378261,"peak_altitude_m":200.0,"u_ms":-4.049917531673561,"v_ms":-2.063722521397539}},{"type":"Feature","geometry":{"type":"Point","coordinates":[-82.4017,27.7055]},"properties":{"site":"KTBW","name":"Tampa FL","scan_time":"2026-08-30T01:58:01Z","stale":false,"bins":25,"density_birds_km3":8.279375,"heading_deg":225.1945566413181,"speed_ms":4.298955720114856,"peak_altitude_m":0.0,"u_ms":-3.075403506120599,"v_ms":-2.976056369956173}}]}