{"type":"FeatureCollection","frame":"2026-08-28T06","site_count":20,"fresh_count":20,"failures":{},"features":[{"type":"Feature","geometry":{"type":"Point","coordinates":[-77.0073,36.984]},"properties":{"site":"KAKQ","name":"Wakefield VA","scan_time":"2026-08-28T06:00:50Z","stale":false,"bins":25,"density_birds_km3":3.615625,"heading_deg":80.10763637670998,"speed_ms":5.795681189488244,"peak_altitude_m":0.0,"u_ms":5.699351659751037,"v_ms":0.9234733748271093}},{"type":"Feature","geometry":{"type":"Point","coordinates":[-71.1369,41.9558]},"properties":{"site":"KBOX","name":"Boston MA","scan_time":"2026-08-28T05:57:41Z","stale":false,"bins":25,"density_birds_km3":0.536875,"heading_deg":18.645184435563277,"speed_ms":6.739053738317757,"peak_altitude_m":0.0,"u_ms":2.216471962616822,"v_ms":6.211471962616821}},{"type":"Feature","geometry":{"type":"Point","coordinates":[-78.7369,42.9489]},"properties":{"site":"KBUF","name":"Buffalo NY","scan_time":"2026-08-28T05:59:12Z","stale":false,"bins":25,"density_birds_km3":11.985999999999999,"heading_deg":169.11867381582238,"speed_ms":7.059088380888816,"peak_altitude_m":400.0,"u_ms":1.1907542132487903,"v_ms":-6.8773279937705105}},{"type":"Feature","geometry":{"type":"Point","coordinates":[-81.8597,41.4131]},"properties":{"site":"KCLE","name":"Cleveland OH","scan_time":"2026-08-28T06:01:56Z","stale":false,"bins":25,"density_birds_km3":20.637333333333334,"heading_deg":195.95430870742976,"speed_ms":7.293576529128567,"peak_altitude_m":800.0,"u_ms":-2.5212830786132026,"v_ms":-6.620460758021261}},{"type":"Feature","geometry":{"type":"Point","coordinates":[-81.0423,32.6555]},"properties":{"site":"KCLX","name":"Charleston SC","scan_time":"2026-08-28T05:58:23Z","stale":false,"bins":25,"density_birds_km3":1.07625,"heading_deg":69.02833474668975,"speed_ms":4.047484020918071,"peak_altitude_m":0.0,"u_ms":3.3987623474723994,"v_ms":1.3006391632771643}},{"type":"Feature","geometry":{"type":"Point","coordinates":[-74.4108,39.947]},"properties":{"site":"KDIX","name":"Philadelphia PA","scan_time":"2026-08-28T05:59:43Z","stale":false,"bins":25,"density_birds_km3":4.959375,"heading_deg":206.0136422846794,"speed_ms":4.913735669200052,"peak_altitude_m":200.0,"u_ms":-2.0276194770063123,"v_ms":-4.314401648847095}},{"type":"Feature","geometry":{"type":"Point","coordinates":[-84.5658,33.3636]},"properties":{"site":"KFFC","name":"Atlanta GA","scan_time":"2026-08-28T05:59:55Z","stale":false,"bins":25,"density_birds_km3":16.262666666666668,"heading_deg":187.31360205612393,"speed_ms":4.001910052476222,"peak_altitude_m":1400.0,"u_ms":-0.40487372909150543,"v_ms":-2.4809691702197445}},{"type":"Feature","geometry":{"type":"Point","coordinates":[-85.5449,42.8939]},"properties":{"site":"KGRR","name":"Grand Rapids MI","scan_time":"2026-08-28T06:01:25Z","stale":false,"bins":25,"density_birds_km3":37.14533333333334,"heading_deg":220.2005920856465,"speed_ms":10.837309963563262,"peak_altitude_m":400.0,"u_ms":-6.963582467287708,"v_ms":-8.178169368011057}},{"type":"Feature","geometry":{"type":"Point","coordinates":[-83.8217,39.4203]},"properties":{"site":"KILN","name":"Wilmington OH","scan_time":"2026-08-28T05:57:44Z","stale":false,"bins":25,"density_birds_km3":33.464666666666666,"heading_deg":198.8504561039361,"speed_ms":8.415736797019743,"peak_altitude_m":400.0,"u_ms":-2.7089828077375144,"v_ms":-7.823603402593781}},{"type":"Feature","geometry":{"type":"Point","coordinates":[-81.7019,30.4846]},"properties":{"site":"KJAX","name":"Jacksonville FL","scan_time":"2026-08-28T06:01:46Z","stale":false,"bins":25,"density_birds_km3":8.115,"heading_deg":177.3790912563247,"speed_ms":3.122417193036512,"peak_altitude_m":0.0,"u_ms":0.5403296872592822,"v_ms":-2.75563934678786}},{"type":"Feature","geometry":{"type":"Point","coordinates":[-88.0847,41.6045]},"properties":{"site":"KLOT","name":"Chicago IL","scan_time":"2026-08-28T05:58:35Z","stale":false,"bins":25,"density_birds_km3":22.685333333333336,"heading_deg":211.59476210354674,"speed_ms":7.255699270762601,"peak_altitude_m":400.0,"u_ms":-2.2021750169761747,"v_ms":-4.2319928552449}},{"type":"Feature","geometry":{"type":"Point","coordinates":[-78.4292,33.9892]},"properties":{"site":"KLTX","name":"Wilmington NC","scan_time":"2026-08-28T06:00:19Z","stale":false,"bins":25,"density_birds_km3":0.505625,"heading_deg":52.80209079691845,"speed_ms":5.33040520984081,"peak_altitude_m":200.0,"u_ms":4.208205499276411,"v_ms":3.1982344428364686}},{"type":"Feature","geometry":{"type":"Point","coordinates":[-77.4778,38.9753]},"properties":{"site":"KLWX","name":"Sterling VA","scan_time":"2026-08-28T05:59:21Z","stale":false,"bins":25,"density_birds_km3":20.97625,"heading_deg":205.96437029128964,"speed_ms":5.777284127981802,"peak_altitude_m":200.0,"u_ms":-2.6021645565831615,"v_ms":-4.733909490886235}},{"type":"Feature","geometry":{"type":"Point","coordinates":[-76.8762,34.7759]},"properties":{"site":"KMHX","name":"Morehead City NC","scan_time":"2026-08-28T06:01:10Z","stale":false,"bins":25,"density_birds_km3":0.578125,"heading_deg":65.68513962813064,"speed_ms":6.9409061135371175,"peak_altitude_m":200.0,"u_ms":6.320731441048035,"v_ms":2.866168122270742}},{"type":"Feature","geometry":{"type":"Point","coordinates":[-80.6542,28.1133]},"properties":{"site":"KMLB","name":"Melbourne FL","scan_time":"2026-08-28T06:01:06Z","stale":false,"bins":25,"density_birds_km3":4.815625,"heading_deg":70.73314158595097,"speed_ms":1.5316030633437177,"peak_altitude_m":200.0,"u_ms":0.4924610591900312,"v_ms":-0.05419392523364485}},{"type":"Feature","geometry":{"type":"Point","coordinates":[-86.5625,36.2472]},"properties":{"site":"KOHX","name":"Nashville TN","scan_time":"2026-08-28T05:57:18Z","stale":false,"bins":25,"density_birds_km3":46.61466666666667,"heading_deg":204.33991475809927,"speed_ms":6.8135951488801805,"peak_altitude_m":400.0,"u_ms":-2.865024884871714,"v_ms":-6.026464345985527}},{"type":"Feature","geometry":{"type":"Point","coordinates":[-72.8639,40.8655]},"properties":{"site":"KOKX","name":"Upton NY","scan_time":"2026-08-28T05:58:25Z","stale":false,"bins":25,"density_birds_km3":1.019375,"heading_deg":298.19756930080035,"speed_ms":4.333458646616541,"peak_altitude_m":0.0,"u_ms":-3.726575529733424,"v_ms":2.006992481203007}},{"type":"Feature","geometry":{"type":"Point","coordinates":[-80.2183,40.5317]},"properties":{"site":"KPBZ","name":"Pittsburgh PA","scan_time":"2026-08-28T06:00:34Z","stale":false,"bins":25,"density_birds_km3":32.4,"heading_deg":209.31164695462206,"speed_ms":8.020587301587302,"peak_altitude_m":800.0,"u_ms":-4.071136243386244,"v_ms":-6.822020502645502}},{"type":"Feature","geometry":{"type":"Point","coordinates":[-78.4899,35.6655]},"properties":{"site":"KRAX","name":"Raleigh NC","scan_time":"2026-08-28T05:57:58Z","stale":false,"bins":25,"density_birds_km3":1.3118750000000001,"heading_deg":40.91681992496351,"speed_ms":3.2441832061068703,"peak_altitude_m":0.0,"u_ms":2.8634503816793893,"v_ms":1.1857709923664121}},{"type":"Feature","geometry":{"type":"Point","coordinates":[-82.4017,27.7055]},"properties":{"site":"KTBW","name":"Tampa FL","scan_time":"2026-08-28T05:59:01Z","stale":false,"bins":25,"density_birds_km3":1.945,"heading_deg":316.5030130372229,"speed_ms":4.063739942066302,"peak_altitude_m":0.0,"u_ms":-2.847801738010943,"v_ms":2.49109108464757}}]}