{"type":"FeatureCollection","frame":"2026-10-04T12","site_count":20,"fresh_count":20,"failures":{},"features":[{"type":"Feature","geometry":{"type":"Point","coordinates":[-77.0073,36.984]},"properties":{"site":"KAKQ","name":"Wakefield VA","scan_time":"2026-10-04T11:58:08Z","stale":false,"bins":25,"density_birds_km3":0.053125000000000006,"heading_deg":239.0851762582135,"speed_ms":3.84,"peak_altitude_m":0.0,"u_ms":-3.1603225806451616,"v_ms":-2.047741935483871}},{"type":"Feature","geometry":{"type":"Point","coordinates":[-71.1369,41.9558]},"properties":{"site":"KBOX","name":"Boston MA","scan_time":"2026-10-04T11:57:00Z","stale":false,"bins":25,"density_birds_km3":2.466875,"heading_deg":234.75486925503202,"speed_ms":6.701309855586522,"peak_altitude_m":0.0,"u_ms":-5.467904737775525,"v_ms":-3.7556726627818593}},{"type":"Feature","geometry":{"type":"Point","coordinates":[-78.7369,42.9489]},"properties":{"site":"KBUF","name":"Buffalo NY","scan_time":"2026-10-04T12:02:20Z","stale":false,"bins":25,"density_birds_km3":0.7506666666666667,"heading_deg":20.457376846946936,"speed_ms":3.7206394316163407,"peak_altitude_m":200.0,"u_ms":1.1885168738898755,"v_ms":3.5016429840142096}},{"type":"Feature","geometry":{"type":"Point","coordinates":[-81.8597,41.4131]},"properties":{"site":"KCLE","name":"Cleveland OH","scan_time":"2026-10-04T11:59:33Z","stale":false,"bins":25,"density_birds_km3":3.9326666666666665,"heading_deg":46.76598119777132,"speed_ms":0.6661773181895237,"peak_altitude_m":200.0,"u_ms":0.5285166977453807,"v_ms":0.10626716392608916}},{"type":"Feature","geometry":{"type":"Point","coordinates":[-81.0423,32.6555]},"properties":{"site":"KCLX","name":"Charleston SC","scan_time":"2026-10-04T12:00:23Z","stale":false,"bins":25,"density_birds_km3":0.874375,"heading_deg":127.17121800194015,"speed_ms":5.539545454545454,"peak_altitude_m":200.0,"u_ms":4.367308802308803,"v_ms":-3.1846392496392504}},{"type":"Feature","geometry":{"type":"Point","coordinates":[-74.4108,39.947]},"properties":{"site":"KDIX","name":"Philadelphia PA","scan_time":"2026-10-04T11:57:44Z","stale":false,"bins":25,"density_birds_km3":2.95,"heading_deg":null,"speed_ms":null,"peak_altitude_m":0.0,"u_ms":null,"v_ms":null}},{"type":"Feature","geometry":{"type":"Point","coordinates":[-84.5658,33.3636]},"properties":{"site":"KFFC","name":"Atlanta GA","scan_time":"2026-10-04T11:58:48Z","stale":false,"bins":25,"density_birds_km3":1.06,"heading_deg":28.009862848626895,"speed_ms":2.9221284634760707,"peak_altitude_m":200.0,"u_ms":1.3648866498740555,"v_ms":2.466209068010075}},{"type":"Feature","geometry":{"type":"Point","coordinates":[-85.5449,42.8939]},"properties":{"site":"KGRR","name":"Grand Rapids MI","scan_time":"2026-10-04T11:58:28Z","stale":false,"bins":25,"density_birds_km3":2.970666666666667,"heading_deg":39.410212802972026,"speed_ms":5.558909335727109,"peak_altitude_m":200.0,"u_ms":3.5316494614003586,"v_ms":4.2786198384201075}},{"type":"Feature","geometry":{"type":"Point","coordinates":[-83.8217,39.4203]},"properties":{"site":"KILN","name":"Wilmington OH","scan_time":"2026-10-04T11:56:57Z","stale":false,"bins":25,"density_birds_km3":2.8673333333333333,"heading_deg":172.37836220958812,"speed_ms":2.0679357691412616,"peak_altitude_m":200.0,"u_ms":0.37400511985105894,"v_ms":-2.0144891784966257}},{"type":"Feature","geometry":{"type":"Point","coordinates":[-81.7019,30.4846]},"properties":{"site":"KJAX","name":"Jacksonville FL","scan_time":"2026-10-04T11:58:31Z","stale":false,"bins":25,"density_birds_km3":0.193125,"heading_deg":321.3335551740935,"speed_ms":4.286027397260275,"peak_altitude_m":0.0,"u_ms":-2.3142465753424655,"v_ms":3.1434931506849315}},{"type":"Feature","geometry":{"type":"Point","coordinates":[-88.0847,41.6045]},"properties":{"site":"KLOT","name":"Chicago IL","scan_time":"2026-10-04T12:02:50Z","stale":false,"bins":25,"density_birds_km3":3.9560000000000004,"heading_deg":84.14262988093508,"speed_ms":6.891586044159785,"peak_altitude_m":200.0,"u_ms":6.599907298162818,"v_ms":0.22786448676891966}},{"type":"Feature","geometry":{"type":"Point","coordinates":[-78.4292,33.9892]},"properties":{"site":"KLTX","name":"Wilmington NC","scan_time":"2026-10-04T12:00:53Z","stale":false,"bins":25,"density_birds_km3":0.005714285714285714,"heading_deg":null,"speed_ms":null,"peak_altitude_m":1000.0,"u_ms":null,"v_ms":null}},{"type":"Feature","geometry":{"type":"Point","coordinates":[-77.4778,38.9753]},"properties":{"site":"KLWX","name":"Sterling VA","scan_time":"2026-10-04T11:58:26Z","stale":false,"bins":25,"density_birds_km3":18.057333333333336,"heading_deg":67.3,"speed_ms":9.35,"peak_altitude_m":200.0,"u_ms":8.63,"v_ms":3.6000000000000005}},{"type":"Feature","geometry":{"type":"Point","coordinates":[-76.8762,34.7759]},"properties":{"site":"KMHX","name":"Morehead City NC","scan_time":"2026-10-04T11:59:12Z","stale":false,"bins":25,"density_birds_km3":0.12266666666666666,"heading_deg":null,"speed_ms":null,"peak_altitude_m":200.0,"u_ms":null,"v_ms":null}},{"type":"Feature","geometry":{"type":"Point","coordinates":[-80.6542,28.1133]},"properties":{"site":"KMLB","name":"Melbourne FL","scan_time":"2026-10-04T11:58:46Z","stale":false,"bins":25,"density_birds_km3":0.28250000000000003,"heading_deg":306.6527665027753,"speed_ms":4.4304434589800445,"peak_altitude_m":0.0,"u_ms":-3.533503325942351,"v_ms":2.6580044345898006}},{"type":"Feature","geometry":{"type":"Point","coordinates":[-86.5625,36.2472]},"properties":{"site":"KOHX","name":"Nashville TN","scan_time":"2026-10-04T12:01:00Z","stale":false,"bins":25,"density_birds_km3":24.054,"heading_deg":145.2190052329803,"speed_ms":5.29277209611707,"peak_altitude_m":200.0,"u_ms":2.7105645630664332,"v_ms":-4.456124275934703}},{"type":"Feature","geometry":{"type":"Point","coordinates":[-72.8639,40.8655]},"properties":{"site":"KOKX","name":"Upton NY","scan_time":"2026-10-04T12:00:33Z","stale":false,"bins":25,"density_birds_km3":1.15,"heading_deg":254.49517179340774,"speed_ms":8.48115450890293,"peak_altitude_m":0.0,"u_ms":-8.166461803561171,"v_ms":-2.2033716255025846}},{"type":"Feature","geometry":{"type":"Point","coordinates":[-80.2183,40.5317]},"properties":{"site":"KPBZ","name":"Pittsburgh PA","scan_time":"2026-10-04T12:02:02Z","stale":false,"bins":25,"density_birds_km3":1.4614285714285715,"heading_deg":257.3682097138282,"speed_ms":3.012008797653959,"peak_altitude_m":400.0,"u_ms":-2.706622678396872,"v_ms":-0.7013636363636363}},{"type":"Feature","geometry":{"type":"Point","coordinates":[-78.4899,35.6655]},"properties":{"site":"KRAX","name":"Raleigh NC","scan_time":"2026-10-04T11:59:35Z","stale":false,"bins":25,"density_birds_km3":0.24785714285714286,"heading_deg":null,"speed_ms":null,"peak_altitude_m":0.0,"u_ms":null,"v_ms":null}},{"type":"Feature","geometry":{"type":"Point","coordinates":[-82.4017,27.7055]},"properties":{"site":"KTBW","name":"Tampa FL","scan_time":"2026-10-04T12:01:28Z","stale":false,"bins":25,"density_birds_km3":1.00875,"heading_deg":306.87288668219793,"speed_ms":6.4194114002478315,"peak_altitude_m":0.0,"u_ms":-4.810359355638166,"v_ms":3.9546034696406442}}]}