{"type":"FeatureCollection","frame":"2026-10-02T08","site_count":20,"fresh_count":20,"failures":{},"features":[{"type":"Feature","geometry":{"type":"Point","coordinates":[-77.0073,36.984]},"properties":{"site":"KAKQ","name":"Wakefield VA","scan_time":"2026-10-02T08:02:29Z","stale":false,"bins":25,"density_birds_km3":0.9425,"heading_deg":64.78303036932564,"speed_ms":10.472559681697613,"peak_altitude_m":0.0,"u_ms":9.482141909814324,"v_ms":4.1887201591511944}},{"type":"Feature","geometry":{"type":"Point","coordinates":[-71.1369,41.9558]},"properties":{"site":"KBOX","name":"Boston MA","scan_time":"2026-10-02T08:00:35Z","stale":false,"bins":25,"density_birds_km3":1.18625,"heading_deg":57.883408821594905,"speed_ms":10.925036880927292,"peak_altitude_m":0.0,"u_ms":9.437249736564805,"v_ms":4.962391991570073}},{"type":"Feature","geometry":{"type":"Point","coordinates":[-78.7369,42.9489]},"properties":{"site":"KBUF","name":"Buffalo NY","scan_time":"2026-10-02T08:01:48Z","stale":false,"bins":25,"density_birds_km3":1.28,"heading_deg":56.10000000000001,"speed_ms":6.23,"peak_altitude_m":200.0,"u_ms":5.17,"v_ms":3.48}},{"type":"Feature","geometry":{"type":"Point","coordinates":[-81.8597,41.4131]},"properties":{"site":"KCLE","name":"Cleveland OH","scan_time":"2026-10-02T08:02:06Z","stale":false,"bins":25,"density_birds_km3":7.9673333333333325,"heading_deg":67.01232162163836,"speed_ms":12.989154461852863,"peak_altitude_m":200.0,"u_ms":11.926799216621253,"v_ms":5.1430253746594}},{"type":"Feature","geometry":{"type":"Point","coordinates":[-81.0423,32.6555]},"properties":{"site":"KCLX","name":"Charleston SC","scan_time":"2026-10-02T07:58:15Z","stale":false,"bins":25,"density_birds_km3":5.684374999999999,"heading_deg":261.0379769103826,"speed_ms":6.190625687266328,"peak_altitude_m":0.0,"u_ms":-5.60536617550033,"v_ms":-1.236962832636903}},{"type":"Feature","geometry":{"type":"Point","coordinates":[-74.4108,39.947]},"properties":{"site":"KDIX","name":"Philadelphia PA","scan_time":"2026-10-02T08:02:10Z","stale":false,"bins":25,"density_birds_km3":1.2687499999999998,"heading_deg":58.37404812482248,"speed_ms":11.016118226600986,"peak_altitude_m":0.0,"u_ms":9.475802955665026,"v_ms":5.2419359605911335}},{"type":"Feature","geometry":{"type":"Point","coordinates":[-84.5658,33.3636]},"properties":{"site":"KFFC","name":"Atlanta GA","scan_time":"2026-10-02T08:01:10Z","stale":false,"bins":25,"density_birds_km3":2.628,"heading_deg":4.137634756777062,"speed_ms":7.513932014205987,"peak_altitude_m":400.0,"u_ms":0.8681253170979197,"v_ms":7.3996245560629115}},{"type":"Feature","geometry":{"type":"Point","coordinates":[-85.5449,42.8939]},"properties":{"site":"KGRR","name":"Grand Rapids MI","scan_time":"2026-10-02T08:00:40Z","stale":false,"bins":25,"density_birds_km3":51.105333333333334,"heading_deg":204.58211332013946,"speed_ms":10.566709281847238,"peak_altitude_m":400.0,"u_ms":-4.330645489531016,"v_ms":-9.608279955645425}},{"type":"Feature","geometry":{"type":"Point","coordinates":[-83.8217,39.4203]},"properties":{"site":"KILN","name":"Wilmington OH","scan_time":"2026-10-02T07:59:27Z","stale":false,"bins":25,"density_birds_km3":1.9706666666666666,"heading_deg":59.60920771334274,"speed_ms":19.097594850948514,"peak_altitude_m":600.0,"u_ms":16.717008807588076,"v_ms":8.76496951219512}},{"type":"Feature","geometry":{"type":"Point","coordinates":[-81.7019,30.4846]},"properties":{"site":"KJAX","name":"Jacksonville FL","scan_time":"2026-10-02T08:01:23Z","stale":false,"bins":25,"density_birds_km3":4.066875,"heading_deg":258.8276445544401,"speed_ms":3.7415014599661904,"peak_altitude_m":0.0,"u_ms":-3.1703626863377905,"v_ms":-0.1536176425388042}},{"type":"Feature","geometry":{"type":"Point","coordinates":[-88.0847,41.6045]},"properties":{"site":"KLOT","name":"Chicago IL","scan_time":"2026-10-02T08:02:19Z","stale":false,"bins":25,"density_birds_km3":244.06133333333335,"heading_deg":151.51420159451104,"speed_ms":13.513656403308458,"peak_altitude_m":200.0,"u_ms":5.456193006129606,"v_ms":-11.441544748314632}},{"type":"Feature","geometry":{"type":"Point","coordinates":[-78.4292,33.9892]},"properties":{"site":"KLTX","name":"Wilmington NC","scan_time":"2026-10-02T08:01:58Z","stale":false,"bins":25,"density_birds_km3":1.170625,"heading_deg":9.125130781464057,"speed_ms":3.903059581320451,"peak_altitude_m":0.0,"u_ms":0.5997262479871176,"v_ms":3.6267954911433176}},{"type":"Feature","geometry":{"type":"Point","coordinates":[-77.4778,38.9753]},"properties":{"site":"KLWX","name":"Sterling VA","scan_time":"2026-10-02T08:01:05Z","stale":false,"bins":25,"density_birds_km3":4.761875,"heading_deg":57.30988831923541,"speed_ms":5.320413820283762,"peak_altitude_m":0.0,"u_ms":4.624831844456121,"v_ms":1.3538229111928533}},{"type":"Feature","geometry":{"type":"Point","coordinates":[-76.8762,34.7759]},"properties":{"site":"KMHX","name":"Morehead City NC","scan_time":"2026-10-02T07:57:49Z","stale":false,"bins":25,"density_birds_km3":0.6025,"heading_deg":48.547110725625934,"speed_ms":7.1625469728601265,"peak_altitude_m":0.0,"u_ms":5.319112734864301,"v_ms":4.750427974947807}},{"type":"Feature","geometry":{"type":"Point","coordinates":[-80.6542,28.1133]},"properties":{"site":"KMLB","name":"Melbourne FL","scan_time":"2026-10-02T08:00:02Z","stale":false,"bins":25,"density_birds_km3":3.636875,"heading_deg":304.7384908192478,"speed_ms":6.064944941500344,"peak_altitude_m":0.0,"u_ms":-4.992704748795595,"v_ms":3.4420406056434962}},{"type":"Feature","geometry":{"type":"Point","coordinates":[-86.5625,36.2472]},"properties":{"site":"KOHX","name":"Nashville TN","scan_time":"2026-10-02T08:00:35Z","stale":false,"bins":25,"density_birds_km3":3.555333333333333,"heading_deg":29.357728680337527,"speed_ms":14.46966597860762,"peak_altitude_m":200.0,"u_ms":7.263387127040721,"v_ms":12.088478138487522}},{"type":"Feature","geometry":{"type":"Point","coordinates":[-72.8639,40.8655]},"properties":{"site":"KOKX","name":"Upton NY","scan_time":"2026-10-02T08:01:06Z","stale":false,"bins":25,"density_birds_km3":0.6425000000000001,"heading_deg":61.39917792370805,"speed_ms":13.233764591439687,"peak_altitude_m":0.0,"u_ms":11.528210116731517,"v_ms":5.844640077821011}},{"type":"Feature","geometry":{"type":"Point","coordinates":[-80.2183,40.5317]},"properties":{"site":"KPBZ","name":"Pittsburgh PA","scan_time":"2026-10-02T08:00:59Z","stale":false,"bins":25,"density_birds_km3":1.0007142857142857,"heading_deg":61.28199143277499,"speed_ms":15.539650249821557,"peak_altitude_m":400.0,"u_ms":13.719650249821557,"v_ms":7.187822983583154}},{"type":"Feature","geometry":{"type":"Point","coordinates":[-78.4899,35.6655]},"properties":{"site":"KRAX","name":"Raleigh NC","scan_time":"2026-10-02T07:58:35Z","stale":false,"bins":25,"density_birds_km3":1.694375,"heading_deg":57.52523367906827,"speed_ms":9.209535055350553,"peak_altitude_m":0.0,"u_ms":7.451531365313653,"v_ms":4.808531365313654}},{"type":"Feature","geometry":{"type":"Point","coordinates":[-82.4017,27.7055]},"properties":{"site":"KTBW","name":"Tampa FL","scan_time":"2026-10-02T07:58:40Z","stale":false,"bins":25,"density_birds_km3":2.6212500000000003,"heading_deg":267.5954672570998,"speed_ms":8.538581306628517,"peak_altitude_m":0.0,"u_ms":-8.388853123509776,"v_ms":-0.02363376251788269}}]}