{"type":"FeatureCollection","frame":"2026-09-26T00","site_count":20,"fresh_count":20,"failures":{},"features":[{"type":"Feature","geometry":{"type":"Point","coordinates":[-77.0073,36.984]},"properties":{"site":"KAKQ","name":"Wakefield VA","scan_time":"2026-09-26T00:00:40Z","stale":false,"bins":25,"density_birds_km3":21.890625,"heading_deg":171.47161777494267,"speed_ms":16.169699643112065,"peak_altitude_m":200.0,"u_ms":2.2756137044967883,"v_ms":-15.903390720913634}},{"type":"Feature","geometry":{"type":"Point","coordinates":[-71.1369,41.9558]},"properties":{"site":"KBOX","name":"Boston MA","scan_time":"2026-09-26T00:02:45Z","stale":false,"bins":25,"density_birds_km3":0.015,"heading_deg":null,"speed_ms":null,"peak_altitude_m":800.0,"u_ms":null,"v_ms":null}},{"type":"Feature","geometry":{"type":"Point","coordinates":[-78.7369,42.9489]},"properties":{"site":"KBUF","name":"Buffalo NY","scan_time":"2026-09-26T00:01:19Z","stale":false,"bins":25,"density_birds_km3":21.612666666666666,"heading_deg":187.93823949286343,"speed_ms":10.652885036552638,"peak_altitude_m":600.0,"u_ms":-1.7139032666029181,"v_ms":-10.299498442271508}},{"type":"Feature","geometry":{"type":"Point","coordinates":[-81.8597,41.4131]},"properties":{"site":"KCLE","name":"Cleveland OH","scan_time":"2026-09-25T23:59:14Z","stale":false,"bins":25,"density_birds_km3":16.288666666666664,"heading_deg":208.6313448159444,"speed_ms":8.710406026767387,"peak_altitude_m":400.0,"u_ms":-4.180587897200099,"v_ms":-7.597425486493144}},{"type":"Feature","geometry":{"type":"Point","coordinates":[-81.0423,32.6555]},"properties":{"site":"KCLX","name":"Charleston SC","scan_time":"2026-09-25T23:59:49Z","stale":false,"bins":25,"density_birds_km3":38.328125,"heading_deg":174.4382290839854,"speed_ms":12.440315042804729,"peak_altitude_m":200.0,"u_ms":1.2608828373420302,"v_ms":-12.355558092132084}},{"type":"Feature","geometry":{"type":"Point","coordinates":[-74.4108,39.947]},"properties":{"site":"KDIX","name":"Philadelphia PA","scan_time":"2026-09-25T23:58:39Z","stale":false,"bins":25,"density_birds_km3":5.170714285714285,"heading_deg":192.3,"speed_ms":13.680000000000001,"peak_altitude_m":400.0,"u_ms":-2.92,"v_ms":-13.369999999999997}},{"type":"Feature","geometry":{"type":"Point","coordinates":[-84.5658,33.3636]},"properties":{"site":"KFFC","name":"Atlanta GA","scan_time":"2026-09-26T00:01:55Z","stale":false,"bins":25,"density_birds_km3":95.26866666666666,"heading_deg":170.46128675986895,"speed_ms":10.865107179860546,"peak_altitude_m":400.0,"u_ms":1.8111561563663856,"v_ms":-10.709488252919268}},{"type":"Feature","geometry":{"type":"Point","coordinates":[-85.5449,42.8939]},"properties":{"site":"KGRR","name":"Grand Rapids MI","scan_time":"2026-09-26T00:02:30Z","stale":false,"bins":25,"density_birds_km3":4.54,"heading_deg":237.03460872959113,"speed_ms":5.579646108663731,"peak_altitude_m":400.0,"u_ms":-4.665571218795889,"v_ms":-3.0488546255506606}},{"type":"Feature","geometry":{"type":"Point","coordinates":[-83.8217,39.4203]},"properties":{"site":"KILN","name":"Wilmington OH","scan_time":"2026-09-25T23:58:09Z","stale":false,"bins":25,"density_birds_km3":14.142,"heading_deg":213.81578487391084,"speed_ms":7.549468332779019,"peak_altitude_m":200.0,"u_ms":-4.175460160592959,"v_ms":-6.275750463248919}},{"type":"Feature","geometry":{"type":"Point","coordinates":[-81.7019,30.4846]},"properties":{"site":"KJAX","name":"Jacksonville FL","scan_time":"2026-09-25T23:58:34Z","stale":false,"bins":25,"density_birds_km3":106.52125,"heading_deg":168.11381184112022,"speed_ms":9.568365525658026,"peak_altitude_m":200.0,"u_ms":2.329864346315876,"v_ms":-9.124595151202225}},{"type":"Feature","geometry":{"type":"Point","coordinates":[-88.0847,41.6045]},"properties":{"site":"KLOT","name":"Chicago IL","scan_time":"2026-09-26T00:03:08Z","stale":false,"bins":25,"density_birds_km3":0.7233333333333333,"heading_deg":252.86300622418702,"speed_ms":5.411935483870968,"peak_altitude_m":200.0,"u_ms":-5.1577511520737325,"v_ms":-1.599483870967742}},{"type":"Feature","geometry":{"type":"Point","coordinates":[-78.4292,33.9892]},"properties":{"site":"KLTX","name":"Wilmington NC","scan_time":"2026-09-25T23:59:02Z","stale":false,"bins":25,"density_birds_km3":47.46375,"heading_deg":174.86224159327872,"speed_ms":12.774535147093683,"peak_altitude_m":0.0,"u_ms":0.9971455661197293,"v_ms":-12.696300929705814}},{"type":"Feature","geometry":{"type":"Point","coordinates":[-77.4778,38.9753]},"properties":{"site":"KLWX","name":"Sterling VA","scan_time":"2026-09-26T00:02:32Z","stale":false,"bins":25,"density_birds_km3":28.7625,"heading_deg":179.74162790552987,"speed_ms":17.49549998912358,"peak_altitude_m":400.0,"u_ms":-0.13557438385068848,"v_ms":-17.219909508168193}},{"type":"Feature","geometry":{"type":"Point","coordinates":[-76.8762,34.7759]},"properties":{"site":"KMHX","name":"Morehead City NC","scan_time":"2026-09-25T23:59:03Z","stale":false,"bins":25,"density_birds_km3":54.814375,"heading_deg":170.15396804847632,"speed_ms":15.856815274277961,"peak_altitude_m":200.0,"u_ms":2.5696881520586525,"v_ms":-15.633409917562686}},{"type":"Feature","geometry":{"type":"Point","coordinates":[-80.6542,28.1133]},"properties":{"site":"KMLB","name":"Melbourne FL","scan_time":"2026-09-26T00:00:10Z","stale":false,"bins":25,"density_birds_km3":19.849375,"heading_deg":171.78697128311597,"speed_ms":14.669937318886227,"peak_altitude_m":200.0,"u_ms":2.2914476502456846,"v_ms":-14.431471588761495}},{"type":"Feature","geometry":{"type":"Point","coordinates":[-86.5625,36.2472]},"properties":{"site":"KOHX","name":"Nashville TN","scan_time":"2026-09-25T23:57:56Z","stale":false,"bins":25,"density_birds_km3":6.225333333333333,"heading_deg":201.14720792356704,"speed_ms":6.87552366673806,"peak_altitude_m":400.0,"u_ms":-2.452837866780895,"v_ms":-6.380883486828015}},{"type":"Feature","geometry":{"type":"Point","coordinates":[-72.8639,40.8655]},"properties":{"site":"KOKX","name":"Upton NY","scan_time":"2026-09-26T00:00:39Z","stale":false,"bins":25,"density_birds_km3":null,"heading_deg":null,"speed_ms":null,"peak_altitude_m":null,"u_ms":null,"v_ms":null}},{"type":"Feature","geometry":{"type":"Point","coordinates":[-80.2183,40.5317]},"properties":{"site":"KPBZ","name":"Pittsburgh PA","scan_time":"2026-09-26T00:00:21Z","stale":false,"bins":25,"density_birds_km3":34.379285714285714,"heading_deg":179.40545510277008,"speed_ms":13.304702960006653,"peak_altitude_m":600.0,"u_ms":0.16525588259748905,"v_ms":-13.226019580942879}},{"type":"Feature","geometry":{"type":"Point","coordinates":[-78.4899,35.6655]},"properties":{"site":"KRAX","name":"Raleigh NC","scan_time":"2026-09-25T23:56:48Z","stale":false,"bins":25,"density_birds_km3":35.76375,"heading_deg":184.6216866682536,"speed_ms":12.423038744516871,"peak_altitude_m":200.0,"u_ms":-1.0447199454745635,"v_ms":-12.36080355114381}},{"type":"Feature","geometry":{"type":"Point","coordinates":[-82.4017,27.7055]},"properties":{"site":"KTBW","name":"Tampa FL","scan_time":"2026-09-25T23:59:05Z","stale":false,"bins":25,"density_birds_km3":13.834375,"heading_deg":173.51353360006468,"speed_ms":5.707673819742489,"peak_altitude_m":0.0,"u_ms":0.6324571944883668,"v_ms":-5.668285068895414}}]}