{"type":"FeatureCollection","frame":"2026-09-04T06","site_count":20,"fresh_count":20,"failures":{},"features":[{"type":"Feature","geometry":{"type":"Point","coordinates":[-77.0073,36.984]},"properties":{"site":"KAKQ","name":"Wakefield VA","scan_time":"2026-09-04T05:58:52Z","stale":false,"bins":25,"density_birds_km3":2.536875,"heading_deg":69.77637884269524,"speed_ms":12.339861454725384,"peak_altitude_m":0.0,"u_ms":11.410848589807026,"v_ms":3.620296882731321}},{"type":"Feature","geometry":{"type":"Point","coordinates":[-71.1369,41.9558]},"properties":{"site":"KBOX","name":"Boston MA","scan_time":"2026-09-04T06:02:20Z","stale":false,"bins":25,"density_birds_km3":4.675625,"heading_deg":121.16173888044727,"speed_ms":7.453298569327449,"peak_altitude_m":0.0,"u_ms":5.6117502339885,"v_ms":-4.015905869768686}},{"type":"Feature","geometry":{"type":"Point","coordinates":[-78.7369,42.9489]},"properties":{"site":"KBUF","name":"Buffalo NY","scan_time":"2026-09-04T06:00:05Z","stale":false,"bins":25,"density_birds_km3":71.966,"heading_deg":193.680971702854,"speed_ms":9.601820952486822,"peak_altitude_m":600.0,"u_ms":-2.3256192275982177,"v_ms":-9.24474344366321}},{"type":"Feature","geometry":{"type":"Point","coordinates":[-81.8597,41.4131]},"properties":{"site":"KCLE","name":"Cleveland OH","scan_time":"2026-09-04T06:02:28Z","stale":false,"bins":25,"density_birds_km3":21.136000000000003,"heading_deg":166.06552310783383,"speed_ms":7.632723770100302,"peak_altitude_m":200.0,"u_ms":2.327160006368412,"v_ms":-6.75503263811495}},{"type":"Feature","geometry":{"type":"Point","coordinates":[-81.0423,32.6555]},"properties":{"site":"KCLX","name":"Charleston SC","scan_time":"2026-09-04T06:00:45Z","stale":false,"bins":25,"density_birds_km3":4.0275,"heading_deg":231.75460024082412,"speed_ms":8.393149642968021,"peak_altitude_m":0.0,"u_ms":-6.442396771189071,"v_ms":-5.19194970506054}},{"type":"Feature","geometry":{"type":"Point","coordinates":[-74.4108,39.947]},"properties":{"site":"KDIX","name":"Philadelphia PA","scan_time":"2026-09-04T05:58:28Z","stale":false,"bins":25,"density_birds_km3":12.757333333333332,"heading_deg":163.57580318449078,"speed_ms":4.734748702150721,"peak_altitude_m":0.0,"u_ms":1.400521992127332,"v_ms":-4.469553882138172}},{"type":"Feature","geometry":{"type":"Point","coordinates":[-84.5658,33.3636]},"properties":{"site":"KFFC","name":"Atlanta GA","scan_time":"2026-09-04T05:57:35Z","stale":false,"bins":25,"density_birds_km3":12.497333333333334,"heading_deg":257.1801978360919,"speed_ms":8.03358743198549,"peak_altitude_m":200.0,"u_ms":-6.629333191080764,"v_ms":-2.284447882214873}},{"type":"Feature","geometry":{"type":"Point","coordinates":[-85.5449,42.8939]},"properties":{"site":"KGRR","name":"Grand Rapids MI","scan_time":"2026-09-04T05:58:19Z","stale":false,"bins":25,"density_birds_km3":20.102666666666668,"heading_deg":33.79710033503817,"speed_ms":4.674455652520158,"peak_altitude_m":200.0,"u_ms":2.006206656269702,"v_ms":0.47318678036964534}},{"type":"Feature","geometry":{"type":"Point","coordinates":[-83.8217,39.4203]},"properties":{"site":"KILN","name":"Wilmington OH","scan_time":"2026-09-04T06:00:40Z","stale":false,"bins":25,"density_birds_km3":32.38466666666667,"heading_deg":141.15613295865225,"speed_ms":8.961635753545918,"peak_altitude_m":2400.0,"u_ms":4.80790456388826,"v_ms":-7.055682936369064}},{"type":"Feature","geometry":{"type":"Point","coordinates":[-81.7019,30.4846]},"properties":{"site":"KJAX","name":"Jacksonville FL","scan_time":"2026-09-04T06:00:54Z","stale":false,"bins":25,"density_birds_km3":5.422499999999999,"heading_deg":213.09726235934326,"speed_ms":3.970262064188409,"peak_altitude_m":0.0,"u_ms":-1.872853844377742,"v_ms":-3.297357423227892}},{"type":"Feature","geometry":{"type":"Point","coordinates":[-88.0847,41.6045]},"properties":{"site":"KLOT","name":"Chicago IL","scan_time":"2026-09-04T06:01:37Z","stale":false,"bins":25,"density_birds_km3":25.561333333333334,"heading_deg":356.61795591048326,"speed_ms":3.585759601103331,"peak_altitude_m":200.0,"u_ms":2.1428532781667724,"v_ms":0.6111396668788458}},{"type":"Feature","geometry":{"type":"Point","coordinates":[-78.4292,33.9892]},"properties":{"site":"KLTX","name":"Wilmington NC","scan_time":"2026-09-04T05:57:19Z","stale":false,"bins":25,"density_birds_km3":1.775625,"heading_deg":14.528801620759939,"speed_ms":3.135190958690569,"peak_altitude_m":0.0,"u_ms":0.49067809820732655,"v_ms":2.182922837100546}},{"type":"Feature","geometry":{"type":"Point","coordinates":[-77.4778,38.9753]},"properties":{"site":"KLWX","name":"Sterling VA","scan_time":"2026-09-04T05:57:50Z","stale":false,"bins":25,"density_birds_km3":11.790625,"heading_deg":137.35201153026566,"speed_ms":11.227467664350616,"peak_altitude_m":200.0,"u_ms":8.239540887226083,"v_ms":-7.071080705505078}},{"type":"Feature","geometry":{"type":"Point","coordinates":[-76.8762,34.7759]},"properties":{"site":"KMHX","name":"Morehead City NC","scan_time":"2026-09-04T05:57:26Z","stale":false,"bins":25,"density_birds_km3":1.346875,"heading_deg":65.3312776144239,"speed_ms":7.1511972157772625,"peak_altitude_m":0.0,"u_ms":4.841888631090487,"v_ms":2.605582366589327}},{"type":"Feature","geometry":{"type":"Point","coordinates":[-80.6542,28.1133]},"properties":{"site":"KMLB","name":"Melbourne FL","scan_time":"2026-09-04T06:01:16Z","stale":false,"bins":25,"density_birds_km3":1.930625,"heading_deg":254.4362457677796,"speed_ms":3.837447223124391,"peak_altitude_m":0.0,"u_ms":-2.6467846703475155,"v_ms":-0.3432770379993506}},{"type":"Feature","geometry":{"type":"Point","coordinates":[-86.5625,36.2472]},"properties":{"site":"KOHX","name":"Nashville TN","scan_time":"2026-09-04T06:01:55Z","stale":false,"bins":25,"density_birds_km3":25.662,"heading_deg":171.67476607281438,"speed_ms":1.7472153378536357,"peak_altitude_m":400.0,"u_ms":-0.1943670277712831,"v_ms":-0.7685457096095394}},{"type":"Feature","geometry":{"type":"Point","coordinates":[-72.8639,40.8655]},"properties":{"site":"KOKX","name":"Upton NY","scan_time":"2026-09-04T06:00:28Z","stale":false,"bins":25,"density_birds_km3":8.2025,"heading_deg":124.86887026892971,"speed_ms":4.8673651435503436,"peak_altitude_m":0.0,"u_ms":3.897391831783259,"v_ms":-2.750145572179539}},{"type":"Feature","geometry":{"type":"Point","coordinates":[-80.2183,40.5317]},"properties":{"site":"KPBZ","name":"Pittsburgh PA","scan_time":"2026-09-04T05:59:28Z","stale":false,"bins":25,"density_birds_km3":9.122857142857143,"heading_deg":160.43743147874727,"speed_ms":9.96008843036109,"peak_altitude_m":1600.0,"u_ms":3.1320642962417096,"v_ms":-8.748344694178334}},{"type":"Feature","geometry":{"type":"Point","coordinates":[-78.4899,35.6655]},"properties":{"site":"KRAX","name":"Raleigh NC","scan_time":"2026-09-04T06:04:15Z","stale":false,"bins":25,"density_birds_km3":7.015625,"heading_deg":77.27574946017887,"speed_ms":7.102970124633431,"peak_altitude_m":200.0,"u_ms":6.055120051319648,"v_ms":1.4945775293255132}},{"type":"Feature","geometry":{"type":"Point","coordinates":[-82.4017,27.7055]},"properties":{"site":"KTBW","name":"Tampa FL","scan_time":"2026-09-04T06:01:21Z","stale":false,"bins":25,"density_birds_km3":2.8075,"heading_deg":313.9176483465579,"speed_ms":4.23293410507569,"peak_altitude_m":0.0,"u_ms":-2.8848063223508458,"v_ms":2.8565538735529827}}]}