{"type":"FeatureCollection","frame":"2026-08-31T00","site_count":20,"fresh_count":20,"failures":{},"features":[{"type":"Feature","geometry":{"type":"Point","coordinates":[-77.0073,36.984]},"properties":{"site":"KAKQ","name":"Wakefield VA","scan_time":"2026-08-30T23:59:22Z","stale":false,"bins":25,"density_birds_km3":6.609374999999999,"heading_deg":348.16917648685603,"speed_ms":5.441973509933775,"peak_altitude_m":0.0,"u_ms":-1.1098751182592244,"v_ms":5.326188268684957}},{"type":"Feature","geometry":{"type":"Point","coordinates":[-71.1369,41.9558]},"properties":{"site":"KBOX","name":"Boston MA","scan_time":"2026-08-31T00:01:31Z","stale":false,"bins":25,"density_birds_km3":1.448125,"heading_deg":34.78308365942487,"speed_ms":8.568779527559053,"peak_altitude_m":0.0,"u_ms":4.947204724409449,"v_ms":6.897814960629923}},{"type":"Feature","geometry":{"type":"Point","coordinates":[-78.7369,42.9489]},"properties":{"site":"KBUF","name":"Buffalo NY","scan_time":"2026-08-31T00:02:20Z","stale":false,"bins":25,"density_birds_km3":0.516,"heading_deg":19.21015258856541,"speed_ms":4.042034346103038,"peak_altitude_m":200.0,"u_ms":1.1156142668428004,"v_ms":3.442892998678996}},{"type":"Feature","geometry":{"type":"Point","coordinates":[-81.8597,41.4131]},"properties":{"site":"KCLE","name":"Cleveland OH","scan_time":"2026-08-30T23:58:32Z","stale":false,"bins":25,"density_birds_km3":1.4186666666666665,"heading_deg":158.86340025391175,"speed_ms":2.061749764816557,"peak_altitude_m":200.0,"u_ms":1.3393885230479776,"v_ms":-0.3317403574788335}},{"type":"Feature","geometry":{"type":"Point","coordinates":[-81.0423,32.6555]},"properties":{"site":"KCLX","name":"Charleston SC","scan_time":"2026-08-30T23:59:01Z","stale":false,"bins":25,"density_birds_km3":1.9625000000000001,"heading_deg":268.35586549698854,"speed_ms":2.643732484076433,"peak_altitude_m":0.0,"u_ms":-2.639547770700637,"v_ms":-0.08575159235668789}},{"type":"Feature","geometry":{"type":"Point","coordinates":[-74.4108,39.947]},"properties":{"site":"KDIX","name":"Philadelphia PA","scan_time":"2026-08-31T00:00:42Z","stale":false,"bins":25,"density_birds_km3":4.54125,"heading_deg":21.21347688047891,"speed_ms":6.634640055058499,"peak_altitude_m":0.0,"u_ms":2.51125120440468,"v_ms":5.747805918788714}},{"type":"Feature","geometry":{"type":"Point","coordinates":[-84.5658,33.3636]},"properties":{"site":"KFFC","name":"Atlanta GA","scan_time":"2026-08-30T23:59:07Z","stale":false,"bins":25,"density_birds_km3":0.7233333333333333,"heading_deg":267.8780635200858,"speed_ms":3.812613111726685,"peak_altitude_m":200.0,"u_ms":-3.7632225300092332,"v_ms":-0.1956140350877193}},{"type":"Feature","geometry":{"type":"Point","coordinates":[-85.5449,42.8939]},"properties":{"site":"KGRR","name":"Grand Rapids MI","scan_time":"2026-08-30T23:59:01Z","stale":false,"bins":25,"density_birds_km3":0.7266666666666667,"heading_deg":61.50392658720354,"speed_ms":6.78401297497683,"peak_altitude_m":200.0,"u_ms":5.962344763670065,"v_ms":3.1623354958294714}},{"type":"Feature","geometry":{"type":"Point","coordinates":[-83.8217,39.4203]},"properties":{"site":"KILN","name":"Wilmington OH","scan_time":"2026-08-30T23:57:49Z","stale":false,"bins":25,"density_birds_km3":0.8666666666666667,"heading_deg":66.52301943057157,"speed_ms":4.111339491916859,"peak_altitude_m":200.0,"u_ms":3.7647113163972286,"v_ms":1.6357813702848347}},{"type":"Feature","geometry":{"type":"Point","coordinates":[-81.7019,30.4846]},"properties":{"site":"KJAX","name":"Jacksonville FL","scan_time":"2026-08-31T00:01:25Z","stale":false,"bins":25,"density_birds_km3":6.229375,"heading_deg":235.30265665765654,"speed_ms":4.751137754590147,"peak_altitude_m":0.0,"u_ms":-3.852163138356577,"v_ms":-2.7379532457108455}},{"type":"Feature","geometry":{"type":"Point","coordinates":[-88.0847,41.6045]},"properties":{"site":"KLOT","name":"Chicago IL","scan_time":"2026-08-30T23:58:20Z","stale":false,"bins":25,"density_birds_km3":1.3433333333333335,"heading_deg":330.25346939153167,"speed_ms":3.654720837487537,"peak_altitude_m":200.0,"u_ms":-1.3030358923230307,"v_ms":3.036655034895314}},{"type":"Feature","geometry":{"type":"Point","coordinates":[-78.4292,33.9892]},"properties":{"site":"KLTX","name":"Wilmington NC","scan_time":"2026-08-31T00:01:26Z","stale":false,"bins":25,"density_birds_km3":3.0793749999999998,"heading_deg":240.5683970143299,"speed_ms":4.323954160644229,"peak_altitude_m":0.0,"u_ms":-3.3699545736113983,"v_ms":-2.1752322940326243}},{"type":"Feature","geometry":{"type":"Point","coordinates":[-77.4778,38.9753]},"properties":{"site":"KLWX","name":"Sterling VA","scan_time":"2026-08-31T00:00:57Z","stale":false,"bins":25,"density_birds_km3":5.2875000000000005,"heading_deg":352.3066122226369,"speed_ms":4.437046233889086,"peak_altitude_m":200.0,"u_ms":-0.5344271018091521,"v_ms":4.183600567577155}},{"type":"Feature","geometry":{"type":"Point","coordinates":[-76.8762,34.7759]},"properties":{"site":"KMHX","name":"Morehead City NC","scan_time":"2026-08-30T23:59:51Z","stale":false,"bins":25,"density_birds_km3":2.363125,"heading_deg":228.82294214093818,"speed_ms":3.1450833995234313,"peak_altitude_m":0.0,"u_ms":-1.5573126820227692,"v_ms":-1.969658459094519}},{"type":"Feature","geometry":{"type":"Point","coordinates":[-80.6542,28.1133]},"properties":{"site":"KMLB","name":"Melbourne FL","scan_time":"2026-08-30T23:59:10Z","stale":false,"bins":25,"density_birds_km3":3.03375,"heading_deg":209.05886484962258,"speed_ms":5.676137206427689,"peak_altitude_m":0.0,"u_ms":-2.6898413679439637,"v_ms":-4.910451174289247}},{"type":"Feature","geometry":{"type":"Point","coordinates":[-86.5625,36.2472]},"properties":{"site":"KOHX","name":"Nashville TN","scan_time":"2026-08-31T00:00:24Z","stale":false,"bins":25,"density_birds_km3":2.0186666666666664,"heading_deg":1.6897672836068074,"speed_ms":2.449834656084656,"peak_altitude_m":200.0,"u_ms":0.17647817460317453,"v_ms":2.134917328042328}},{"type":"Feature","geometry":{"type":"Point","coordinates":[-72.8639,40.8655]},"properties":{"site":"KOKX","name":"Upton NY","scan_time":"2026-08-31T00:00:40Z","stale":false,"bins":25,"density_birds_km3":2.393125,"heading_deg":34.22776229797206,"speed_ms":8.42075816993464,"peak_altitude_m":0.0,"u_ms":4.798366013071895,"v_ms":6.561445751633987}},{"type":"Feature","geometry":{"type":"Point","coordinates":[-80.2183,40.5317]},"properties":{"site":"KPBZ","name":"Pittsburgh PA","scan_time":"2026-08-30T23:58:50Z","stale":false,"bins":25,"density_birds_km3":0.6821428571428572,"heading_deg":280.5964685992376,"speed_ms":3.3881112277019936,"peak_altitude_m":400.0,"u_ms":-2.54501573976915,"v_ms":0.42804826862539364}},{"type":"Feature","geometry":{"type":"Point","coordinates":[-78.4899,35.6655]},"properties":{"site":"KRAX","name":"Raleigh NC","scan_time":"2026-08-31T00:00:06Z","stale":false,"bins":25,"density_birds_km3":9.02625,"heading_deg":69.37344534225673,"speed_ms":1.3805788160266188,"peak_altitude_m":0.0,"u_ms":1.2158117288229586,"v_ms":0.4630098433384167}},{"type":"Feature","geometry":{"type":"Point","coordinates":[-82.4017,27.7055]},"properties":{"site":"KTBW","name":"Tampa FL","scan_time":"2026-08-30T23:58:33Z","stale":false,"bins":25,"density_birds_km3":6.08125,"heading_deg":177.83797017594452,"speed_ms":1.6749943304813937,"peak_altitude_m":0.0,"u_ms":-0.10275332439954643,"v_ms":-1.5691310174208846}}]}