{"type":"FeatureCollection","frame":"2026-09-13T02","site_count":20,"fresh_count":20,"failures":{},"features":[{"type":"Feature","geometry":{"type":"Point","coordinates":[-77.0073,36.984]},"properties":{"site":"KAKQ","name":"Wakefield VA","scan_time":"2026-09-13T02:01:06Z","stale":false,"bins":25,"density_birds_km3":14.911875,"heading_deg":319.23408669054487,"speed_ms":3.408772672826831,"peak_altitude_m":0.0,"u_ms":-0.9146603353867215,"v_ms":1.4881250000000001}},{"type":"Feature","geometry":{"type":"Point","coordinates":[-71.1369,41.9558]},"properties":{"site":"KBOX","name":"Boston MA","scan_time":"2026-09-13T02:01:09Z","stale":false,"bins":25,"density_birds_km3":2.67375,"heading_deg":2.54697070761285,"speed_ms":7.847082066869301,"peak_altitude_m":0.0,"u_ms":0.41261631985036246,"v_ms":7.567678279167642}},{"type":"Feature","geometry":{"type":"Point","coordinates":[-78.7369,42.9489]},"properties":{"site":"KBUF","name":"Buffalo NY","scan_time":"2026-09-13T01:58:07Z","stale":false,"bins":25,"density_birds_km3":1.036,"heading_deg":42.39630121604279,"speed_ms":9.128442728442728,"peak_altitude_m":200.0,"u_ms":6.1597425997426,"v_ms":6.592290862290862}},{"type":"Feature","geometry":{"type":"Point","coordinates":[-81.8597,41.4131]},"properties":{"site":"KCLE","name":"Cleveland OH","scan_time":"2026-09-13T01:58:09Z","stale":false,"bins":25,"density_birds_km3":2.8366666666666664,"heading_deg":80.52729081990323,"speed_ms":8.486,"peak_altitude_m":600.0,"u_ms":7.529725029377203,"v_ms":0.6867238542890718}},{"type":"Feature","geometry":{"type":"Point","coordinates":[-81.0423,32.6555]},"properties":{"site":"KCLX","name":"Charleston SC","scan_time":"2026-09-13T01:57:11Z","stale":false,"bins":25,"density_birds_km3":5.161875,"heading_deg":343.3082990053503,"speed_ms":3.6494769342535416,"peak_altitude_m":0.0,"u_ms":-0.07405254873471352,"v_ms":2.7961096985107154}},{"type":"Feature","geometry":{"type":"Point","coordinates":[-74.4108,39.947]},"properties":{"site":"KDIX","name":"Philadelphia PA","scan_time":"2026-09-13T01:59:23Z","stale":false,"bins":25,"density_birds_km3":6.9262500000000005,"heading_deg":315.61700520395664,"speed_ms":6.350250902527076,"peak_altitude_m":200.0,"u_ms":-4.0282328519855595,"v_ms":3.747916967509025}},{"type":"Feature","geometry":{"type":"Point","coordinates":[-84.5658,33.3636]},"properties":{"site":"KFFC","name":"Atlanta GA","scan_time":"2026-09-13T01:59:17Z","stale":false,"bins":25,"density_birds_km3":34.084666666666664,"heading_deg":128.31451495589508,"speed_ms":7.339976137852799,"peak_altitude_m":1600.0,"u_ms":3.8140508928746066,"v_ms":-3.9580828133862735}},{"type":"Feature","geometry":{"type":"Point","coordinates":[-85.5449,42.8939]},"properties":{"site":"KGRR","name":"Grand Rapids MI","scan_time":"2026-09-13T02:00:19Z","stale":false,"bins":25,"density_birds_km3":12.189333333333334,"heading_deg":102.33994563804436,"speed_ms":8.06994968003063,"peak_altitude_m":400.0,"u_ms":7.430749876934858,"v_ms":-2.037371328556582}},{"type":"Feature","geometry":{"type":"Point","coordinates":[-83.8217,39.4203]},"properties":{"site":"KILN","name":"Wilmington OH","scan_time":"2026-09-13T01:59:41Z","stale":false,"bins":25,"density_birds_km3":16.392666666666667,"heading_deg":111.96381083710186,"speed_ms":8.095317418357801,"peak_altitude_m":800.0,"u_ms":6.804705762739437,"v_ms":-3.360772296555371}},{"type":"Feature","geometry":{"type":"Point","coordinates":[-81.7019,30.4846]},"properties":{"site":"KJAX","name":"Jacksonville FL","scan_time":"2026-09-13T01:58:32Z","stale":false,"bins":25,"density_birds_km3":5.3462499999999995,"heading_deg":355.3071022723326,"speed_ms":4.056990881458967,"peak_altitude_m":0.0,"u_ms":-0.23500584521861112,"v_ms":1.2577145195230301}},{"type":"Feature","geometry":{"type":"Point","coordinates":[-88.0847,41.6045]},"properties":{"site":"KLOT","name":"Chicago IL","scan_time":"2026-09-13T02:00:31Z","stale":false,"bins":25,"density_birds_km3":51.86933333333334,"heading_deg":144.074844106397,"speed_ms":10.858206545548255,"peak_altitude_m":400.0,"u_ms":6.09568779796418,"v_ms":-8.691771550057982}},{"type":"Feature","geometry":{"type":"Point","coordinates":[-78.4292,33.9892]},"properties":{"site":"KLTX","name":"Wilmington NC","scan_time":"2026-09-13T02:02:13Z","stale":false,"bins":25,"density_birds_km3":9.414375,"heading_deg":307.8375377402423,"speed_ms":5.844559760956175,"peak_altitude_m":0.0,"u_ms":-3.5671002656042505,"v_ms":2.9345086321381144}},{"type":"Feature","geometry":{"type":"Point","coordinates":[-77.4778,38.9753]},"properties":{"site":"KLWX","name":"Sterling VA","scan_time":"2026-09-13T01:58:46Z","stale":false,"bins":25,"density_birds_km3":13.91875,"heading_deg":295.4352743894913,"speed_ms":6.8618688819039075,"peak_altitude_m":200.0,"u_ms":-5.643893578805568,"v_ms":3.0220790300853166}},{"type":"Feature","geometry":{"type":"Point","coordinates":[-76.8762,34.7759]},"properties":{"site":"KMHX","name":"Morehead City NC","scan_time":"2026-09-13T02:00:10Z","stale":false,"bins":25,"density_birds_km3":2.798125,"heading_deg":30.41396578488319,"speed_ms":5.947419571045577,"peak_altitude_m":0.0,"u_ms":3.1026966041108133,"v_ms":4.91826854334227}},{"type":"Feature","geometry":{"type":"Point","coordinates":[-80.6542,28.1133]},"properties":{"site":"KMLB","name":"Melbourne FL","scan_time":"2026-09-13T02:02:56Z","stale":false,"bins":25,"density_birds_km3":18.48875,"heading_deg":159.48303914358743,"speed_ms":3.4955818056301293,"peak_altitude_m":0.0,"u_ms":1.2747633658050164,"v_ms":-3.234092199125566}},{"type":"Feature","geometry":{"type":"Point","coordinates":[-86.5625,36.2472]},"properties":{"site":"KOHX","name":"Nashville TN","scan_time":"2026-09-13T01:59:49Z","stale":false,"bins":25,"density_birds_km3":112.35533333333333,"heading_deg":146.78246837300898,"speed_ms":7.761845869948319,"peak_altitude_m":600.0,"u_ms":3.9945725762906967,"v_ms":-6.142213513080525}},{"type":"Feature","geometry":{"type":"Point","coordinates":[-72.8639,40.8655]},"properties":{"site":"KOKX","name":"Upton NY","scan_time":"2026-09-13T02:00:39Z","stale":false,"bins":25,"density_birds_km3":3.345625,"heading_deg":303.3510788273076,"speed_ms":6.841747663551402,"peak_altitude_m":0.0,"u_ms":-5.487508411214954,"v_ms":3.2776205607476636}},{"type":"Feature","geometry":{"type":"Point","coordinates":[-80.2183,40.5317]},"properties":{"site":"KPBZ","name":"Pittsburgh PA","scan_time":"2026-09-13T01:59:53Z","stale":false,"bins":25,"density_birds_km3":6.211428571428572,"heading_deg":70.93153845431674,"speed_ms":6.625543390572779,"peak_altitude_m":600.0,"u_ms":6.154265299066498,"v_ms":2.2276789212861585}},{"type":"Feature","geometry":{"type":"Point","coordinates":[-78.4899,35.6655]},"properties":{"site":"KRAX","name":"Raleigh NC","scan_time":"2026-09-13T01:58:18Z","stale":false,"bins":25,"density_birds_km3":9.21875,"heading_deg":8.821935802036691,"speed_ms":5.5989326642706985,"peak_altitude_m":0.0,"u_ms":1.566467756153794,"v_ms":4.791743405438394}},{"type":"Feature","geometry":{"type":"Point","coordinates":[-82.4017,27.7055]},"properties":{"site":"KTBW","name":"Tampa FL","scan_time":"2026-09-13T01:59:25Z","stale":false,"bins":25,"density_birds_km3":10.419375,"heading_deg":228.77001964442553,"speed_ms":6.212835632873424,"peak_altitude_m":0.0,"u_ms":-2.1306208758248344,"v_ms":-3.8210683863227355}}]}