{"type":"FeatureCollection","frame":"2026-09-14T06","site_count":20,"fresh_count":20,"failures":{},"features":[{"type":"Feature","geometry":{"type":"Point","coordinates":[-77.0073,36.984]},"properties":{"site":"KAKQ","name":"Wakefield VA","scan_time":"2026-09-14T06:00:37Z","stale":false,"bins":25,"density_birds_km3":26.818125000000002,"heading_deg":157.3007917979668,"speed_ms":7.147546435479736,"peak_altitude_m":200.0,"u_ms":1.3020326737980377,"v_ms":-6.3547370015614435}},{"type":"Feature","geometry":{"type":"Point","coordinates":[-71.1369,41.9558]},"properties":{"site":"KBOX","name":"Boston MA","scan_time":"2026-09-14T06:04:24Z","stale":false,"bins":25,"density_birds_km3":0.73625,"heading_deg":84.23319335003387,"speed_ms":9.815378723404256,"peak_altitude_m":0.0,"u_ms":9.607055319148936,"v_ms":0.5701446808510638}},{"type":"Feature","geometry":{"type":"Point","coordinates":[-78.7369,42.9489]},"properties":{"site":"KBUF","name":"Buffalo NY","scan_time":"2026-09-14T06:01:15Z","stale":false,"bins":25,"density_birds_km3":40.778666666666666,"heading_deg":178.02851156775995,"speed_ms":12.69100951477897,"peak_altitude_m":400.0,"u_ms":0.4313108161130003,"v_ms":-12.675043650274654}},{"type":"Feature","geometry":{"type":"Point","coordinates":[-81.8597,41.4131]},"properties":{"site":"KCLE","name":"Cleveland OH","scan_time":"2026-09-14T06:00:19Z","stale":false,"bins":25,"density_birds_km3":58.72,"heading_deg":192.39022743832717,"speed_ms":13.746038941871026,"peak_altitude_m":200.0,"u_ms":-2.9298319709355134,"v_ms":-13.405998297002727}},{"type":"Feature","geometry":{"type":"Point","coordinates":[-81.0423,32.6555]},"properties":{"site":"KCLX","name":"Charleston SC","scan_time":"2026-09-14T06:00:34Z","stale":false,"bins":25,"density_birds_km3":36.64,"heading_deg":174.52676528778153,"speed_ms":10.182007949234075,"peak_altitude_m":1600.0,"u_ms":-0.19438930776841457,"v_ms":-9.279185288799427}},{"type":"Feature","geometry":{"type":"Point","coordinates":[-74.4108,39.947]},"properties":{"site":"KDIX","name":"Philadelphia PA","scan_time":"2026-09-14T06:01:18Z","stale":false,"bins":25,"density_birds_km3":3.905625,"heading_deg":97.98144881659572,"speed_ms":9.304462055715659,"peak_altitude_m":0.0,"u_ms":8.368707973102785,"v_ms":-1.0773999359590136}},{"type":"Feature","geometry":{"type":"Point","coordinates":[-84.5658,33.3636]},"properties":{"site":"KFFC","name":"Atlanta GA","scan_time":"2026-09-14T05:57:10Z","stale":false,"bins":25,"density_birds_km3":193.07466666666667,"heading_deg":180.18267978444015,"speed_ms":9.677002990207589,"peak_altitude_m":1200.0,"u_ms":-0.2930828487769843,"v_ms":-9.466911212242588}},{"type":"Feature","geometry":{"type":"Point","coordinates":[-85.5449,42.8939]},"properties":{"site":"KGRR","name":"Grand Rapids MI","scan_time":"2026-09-14T06:01:05Z","stale":false,"bins":25,"density_birds_km3":47.834666666666664,"heading_deg":186.0628375736284,"speed_ms":10.546854861188539,"peak_altitude_m":600.0,"u_ms":-0.8494299810458246,"v_ms":-10.474705652804104}},{"type":"Feature","geometry":{"type":"Point","coordinates":[-83.8217,39.4203]},"properties":{"site":"KILN","name":"Wilmington OH","scan_time":"2026-09-14T06:02:35Z","stale":false,"bins":25,"density_birds_km3":77.11866666666667,"heading_deg":171.7720574050817,"speed_ms":14.948309629001994,"peak_altitude_m":400.0,"u_ms":1.6907251363899667,"v_ms":-14.240665911586445}},{"type":"Feature","geometry":{"type":"Point","coordinates":[-81.7019,30.4846]},"properties":{"site":"KJAX","name":"Jacksonville FL","scan_time":"2026-09-14T05:58:34Z","stale":false,"bins":25,"density_birds_km3":61.942499999999995,"heading_deg":163.51901998517602,"speed_ms":10.536387879888608,"peak_altitude_m":1000.0,"u_ms":2.049433042741252,"v_ms":-9.940593090366065}},{"type":"Feature","geometry":{"type":"Point","coordinates":[-88.0847,41.6045]},"properties":{"site":"KLOT","name":"Chicago IL","scan_time":"2026-09-14T05:58:45Z","stale":false,"bins":25,"density_birds_km3":57.272666666666666,"heading_deg":180.41422786679345,"speed_ms":10.888239945880377,"peak_altitude_m":400.0,"u_ms":-0.013337804422879638,"v_ms":-10.501924395819724}},{"type":"Feature","geometry":{"type":"Point","coordinates":[-78.4292,33.9892]},"properties":{"site":"KLTX","name":"Wilmington NC","scan_time":"2026-09-14T06:02:26Z","stale":false,"bins":25,"density_birds_km3":32.014375,"heading_deg":158.70841373494858,"speed_ms":8.204249067801575,"peak_altitude_m":0.0,"u_ms":1.6459082833883214,"v_ms":-7.205096733889073}},{"type":"Feature","geometry":{"type":"Point","coordinates":[-77.4778,38.9753]},"properties":{"site":"KLWX","name":"Sterling VA","scan_time":"2026-09-14T06:02:21Z","stale":false,"bins":25,"density_birds_km3":50.146875,"heading_deg":148.98711033036741,"speed_ms":7.307501215180407,"peak_altitude_m":200.0,"u_ms":3.9476416775721317,"v_ms":-5.91489424814607}},{"type":"Feature","geometry":{"type":"Point","coordinates":[-76.8762,34.7759]},"properties":{"site":"KMHX","name":"Morehead City NC","scan_time":"2026-09-14T05:58:12Z","stale":false,"bins":25,"density_birds_km3":23.90125,"heading_deg":119.09445686048137,"speed_ms":6.301099895397488,"peak_altitude_m":0.0,"u_ms":3.308221234309623,"v_ms":-3.777128922594142}},{"type":"Feature","geometry":{"type":"Point","coordinates":[-80.6542,28.1133]},"properties":{"site":"KMLB","name":"Melbourne FL","scan_time":"2026-09-14T05:59:22Z","stale":false,"bins":25,"density_birds_km3":6.990625,"heading_deg":136.76980589937702,"speed_ms":6.738921770227984,"peak_altitude_m":0.0,"u_ms":4.487808672329012,"v_ms":-4.831403665623603}},{"type":"Feature","geometry":{"type":"Point","coordinates":[-86.5625,36.2472]},"properties":{"site":"KOHX","name":"Nashville TN","scan_time":"2026-09-14T05:59:58Z","stale":false,"bins":25,"density_birds_km3":165.166,"heading_deg":195.8832969651017,"speed_ms":6.089566012375428,"peak_altitude_m":400.0,"u_ms":-0.9469356485798127,"v_ms":-5.258366895527328}},{"type":"Feature","geometry":{"type":"Point","coordinates":[-72.8639,40.8655]},"properties":{"site":"KOKX","name":"Upton NY","scan_time":"2026-09-14T06:02:54Z","stale":false,"bins":25,"density_birds_km3":1.351875,"heading_deg":82.98384293378686,"speed_ms":9.463526145303101,"peak_altitude_m":0.0,"u_ms":9.211989819527998,"v_ms":1.0107403979639056}},{"type":"Feature","geometry":{"type":"Point","coordinates":[-80.2183,40.5317]},"properties":{"site":"KPBZ","name":"Pittsburgh PA","scan_time":"2026-09-14T05:59:48Z","stale":false,"bins":25,"density_birds_km3":58.85642857142857,"heading_deg":180.9017492999709,"speed_ms":13.75141336666707,"peak_altitude_m":800.0,"u_ms":-0.8225594970812753,"v_ms":-13.297800580104129}},{"type":"Feature","geometry":{"type":"Point","coordinates":[-78.4899,35.6655]},"properties":{"site":"KRAX","name":"Raleigh NC","scan_time":"2026-09-14T06:01:54Z","stale":false,"bins":25,"density_birds_km3":54.93625,"heading_deg":170.16770626228106,"speed_ms":9.626180464650373,"peak_altitude_m":400.0,"u_ms":1.1841582907422796,"v_ms":-9.22691249957314}},{"type":"Feature","geometry":{"type":"Point","coordinates":[-82.4017,27.7055]},"properties":{"site":"KTBW","name":"Tampa FL","scan_time":"2026-09-14T05:59:48Z","stale":false,"bins":25,"density_birds_km3":21.298125,"heading_deg":185.7093936015531,"speed_ms":7.282375040356902,"peak_altitude_m":400.0,"u_ms":-0.4828337882656806,"v_ms":-6.595479439992957}}]}