{"type":"FeatureCollection","frame":"2026-09-10T02","site_count":20,"fresh_count":20,"failures":{},"features":[{"type":"Feature","geometry":{"type":"Point","coordinates":[-77.0073,36.984]},"properties":{"site":"KAKQ","name":"Wakefield VA","scan_time":"2026-09-10T02:01:36Z","stale":false,"bins":25,"density_birds_km3":2.5875,"heading_deg":12.95245030115641,"speed_ms":10.586611138736947,"peak_altitude_m":200.0,"u_ms":2.3989134758826456,"v_ms":10.082807061163601}},{"type":"Feature","geometry":{"type":"Point","coordinates":[-71.1369,41.9558]},"properties":{"site":"KBOX","name":"Boston MA","scan_time":"2026-09-10T02:01:37Z","stale":false,"bins":25,"density_birds_km3":0.45999999999999996,"heading_deg":25.335494285285165,"speed_ms":11.50005033557047,"peak_altitude_m":0.0,"u_ms":5.278322147651006,"v_ms":9.946560402684561}},{"type":"Feature","geometry":{"type":"Point","coordinates":[-78.7369,42.9489]},"properties":{"site":"KBUF","name":"Buffalo NY","scan_time":"2026-09-10T01:58:13Z","stale":false,"bins":25,"density_birds_km3":1.288,"heading_deg":77.89007860877442,"speed_ms":12.447179089026916,"peak_altitude_m":200.0,"u_ms":11.860807453416149,"v_ms":2.1110921325051764}},{"type":"Feature","geometry":{"type":"Point","coordinates":[-81.8597,41.4131]},"properties":{"site":"KCLE","name":"Cleveland OH","scan_time":"2026-09-10T02:00:58Z","stale":false,"bins":25,"density_birds_km3":5.338666666666667,"heading_deg":114.91353663675375,"speed_ms":12.493799950049949,"peak_altitude_m":400.0,"u_ms":10.959255744255744,"v_ms":-5.679626623376624}},{"type":"Feature","geometry":{"type":"Point","coordinates":[-81.0423,32.6555]},"properties":{"site":"KCLX","name":"Charleston SC","scan_time":"2026-09-10T02:01:50Z","stale":false,"bins":25,"density_birds_km3":4.08875,"heading_deg":257.99130165186017,"speed_ms":7.467955032119915,"peak_altitude_m":0.0,"u_ms":-7.2623355766289395,"v_ms":-1.494349954114408}},{"type":"Feature","geometry":{"type":"Point","coordinates":[-74.4108,39.947]},"properties":{"site":"KDIX","name":"Philadelphia PA","scan_time":"2026-09-10T02:01:35Z","stale":false,"bins":25,"density_birds_km3":1.4,"heading_deg":32.228154966405484,"speed_ms":13.439208502939845,"peak_altitude_m":200.0,"u_ms":7.4811352329262775,"v_ms":10.75148801447309}},{"type":"Feature","geometry":{"type":"Point","coordinates":[-84.5658,33.3636]},"properties":{"site":"KFFC","name":"Atlanta GA","scan_time":"2026-09-10T02:02:55Z","stale":false,"bins":25,"density_birds_km3":25.092666666666666,"heading_deg":256.41562696995584,"speed_ms":5.333288108539506,"peak_altitude_m":1600.0,"u_ms":-4.3985442936951324,"v_ms":-0.9176871508379889}},{"type":"Feature","geometry":{"type":"Point","coordinates":[-85.5449,42.8939]},"properties":{"site":"KGRR","name":"Grand Rapids MI","scan_time":"2026-09-10T01:56:22Z","stale":false,"bins":25,"density_birds_km3":22.409333333333333,"heading_deg":122.77929717823889,"speed_ms":16.444556841510217,"peak_altitude_m":400.0,"u_ms":12.066749576031656,"v_ms":-9.81943976674303}},{"type":"Feature","geometry":{"type":"Point","coordinates":[-83.8217,39.4203]},"properties":{"site":"KILN","name":"Wilmington OH","scan_time":"2026-09-10T01:58:55Z","stale":false,"bins":25,"density_birds_km3":10.238,"heading_deg":85.57935278592612,"speed_ms":12.850395208604954,"peak_altitude_m":400.0,"u_ms":12.807605117340287,"v_ms":0.9540400912646675}},{"type":"Feature","geometry":{"type":"Point","coordinates":[-81.7019,30.4846]},"properties":{"site":"KJAX","name":"Jacksonville FL","scan_time":"2026-09-10T01:57:47Z","stale":false,"bins":25,"density_birds_km3":15.649375000000001,"heading_deg":201.04016171271564,"speed_ms":5.671077205735512,"peak_altitude_m":0.0,"u_ms":-1.9875827774893158,"v_ms":-5.272226305068498}},{"type":"Feature","geometry":{"type":"Point","coordinates":[-88.0847,41.6045]},"properties":{"site":"KLOT","name":"Chicago IL","scan_time":"2026-09-10T01:57:39Z","stale":false,"bins":25,"density_birds_km3":35.91733333333333,"heading_deg":136.8038233919603,"speed_ms":14.240099116489716,"peak_altitude_m":800.0,"u_ms":9.111066523127182,"v_ms":-10.535855854183682}},{"type":"Feature","geometry":{"type":"Point","coordinates":[-78.4292,33.9892]},"properties":{"site":"KLTX","name":"Wilmington NC","scan_time":"2026-09-10T02:01:39Z","stale":false,"bins":25,"density_birds_km3":1.41125,"heading_deg":313.5043669613939,"speed_ms":6.261538461538461,"peak_altitude_m":0.0,"u_ms":-2.6264400715563507,"v_ms":2.206413237924866}},{"type":"Feature","geometry":{"type":"Point","coordinates":[-77.4778,38.9753]},"properties":{"site":"KLWX","name":"Sterling VA","scan_time":"2026-09-10T02:00:16Z","stale":false,"bins":25,"density_birds_km3":4.503125,"heading_deg":28.32253799330213,"speed_ms":13.40695379093764,"peak_altitude_m":400.0,"u_ms":5.869986541049798,"v_ms":10.60663526244953}},{"type":"Feature","geometry":{"type":"Point","coordinates":[-76.8762,34.7759]},"properties":{"site":"KMHX","name":"Morehead City NC","scan_time":"2026-09-10T01:58:22Z","stale":false,"bins":25,"density_birds_km3":0.811875,"heading_deg":356.74350238486636,"speed_ms":6.804614134849716,"peak_altitude_m":0.0,"u_ms":-0.28793663688058485,"v_ms":5.372437043054426}},{"type":"Feature","geometry":{"type":"Point","coordinates":[-80.6542,28.1133]},"properties":{"site":"KMLB","name":"Melbourne FL","scan_time":"2026-09-10T01:58:54Z","stale":false,"bins":25,"density_birds_km3":5.32875,"heading_deg":234.01253770635793,"speed_ms":3.7156400328522823,"peak_altitude_m":0.0,"u_ms":-2.537659274903203,"v_ms":-1.518631937111346}},{"type":"Feature","geometry":{"type":"Point","coordinates":[-86.5625,36.2472]},"properties":{"site":"KOHX","name":"Nashville TN","scan_time":"2026-09-10T02:00:40Z","stale":false,"bins":25,"density_birds_km3":14.379333333333333,"heading_deg":55.642366707407405,"speed_ms":7.7379433446149575,"peak_altitude_m":400.0,"u_ms":5.614582039037508,"v_ms":4.292206870972229}},{"type":"Feature","geometry":{"type":"Point","coordinates":[-72.8639,40.8655]},"properties":{"site":"KOKX","name":"Upton NY","scan_time":"2026-09-10T02:01:41Z","stale":false,"bins":25,"density_birds_km3":0.32375,"heading_deg":35.39627765146286,"speed_ms":15.524261838440111,"peak_altitude_m":0.0,"u_ms":8.896462395543177,"v_ms":12.38690807799443}},{"type":"Feature","geometry":{"type":"Point","coordinates":[-80.2183,40.5317]},"properties":{"site":"KPBZ","name":"Pittsburgh PA","scan_time":"2026-09-10T02:00:19Z","stale":false,"bins":25,"density_birds_km3":17.732857142857146,"heading_deg":null,"speed_ms":null,"peak_altitude_m":400.0,"u_ms":null,"v_ms":null}},{"type":"Feature","geometry":{"type":"Point","coordinates":[-78.4899,35.6655]},"properties":{"site":"KRAX","name":"Raleigh NC","scan_time":"2026-09-10T02:00:56Z","stale":false,"bins":25,"density_birds_km3":8.27375,"heading_deg":22.125184208892666,"speed_ms":7.975710027514521,"peak_altitude_m":200.0,"u_ms":1.7449923570773465,"v_ms":4.426494191378783}},{"type":"Feature","geometry":{"type":"Point","coordinates":[-82.4017,27.7055]},"properties":{"site":"KTBW","name":"Tampa FL","scan_time":"2026-09-10T01:57:17Z","stale":false,"bins":25,"density_birds_km3":6.540625,"heading_deg":265.73139764786987,"speed_ms":5.522358788110485,"peak_altitude_m":0.0,"u_ms":-5.457675618847367,"v_ms":-0.43149287967122246}}]}