{"type":"FeatureCollection","frame":"2026-09-26T04","site_count":20,"fresh_count":20,"failures":{},"features":[{"type":"Feature","geometry":{"type":"Point","coordinates":[-77.0073,36.984]},"properties":{"site":"KAKQ","name":"Wakefield VA","scan_time":"2026-09-26T03:57:54Z","stale":false,"bins":25,"density_birds_km3":25.086875,"heading_deg":180.10052983163476,"speed_ms":20.226818147843634,"peak_altitude_m":400.0,"u_ms":-0.34261080798265947,"v_ms":-19.9493250616638}},{"type":"Feature","geometry":{"type":"Point","coordinates":[-71.1369,41.9558]},"properties":{"site":"KBOX","name":"Boston MA","scan_time":"2026-09-26T04:00:52Z","stale":false,"bins":25,"density_birds_km3":6.741818181818181,"heading_deg":null,"speed_ms":null,"peak_altitude_m":200.0,"u_ms":null,"v_ms":null}},{"type":"Feature","geometry":{"type":"Point","coordinates":[-78.7369,42.9489]},"properties":{"site":"KBUF","name":"Buffalo NY","scan_time":"2026-09-26T04:00:53Z","stale":false,"bins":25,"density_birds_km3":56.827333333333335,"heading_deg":191.65519646506232,"speed_ms":14.74638741919968,"peak_altitude_m":400.0,"u_ms":-3.0950463978601843,"v_ms":-14.05060029797867}},{"type":"Feature","geometry":{"type":"Point","coordinates":[-81.8597,41.4131]},"properties":{"site":"KCLE","name":"Cleveland OH","scan_time":"2026-09-26T04:01:00Z","stale":false,"bins":25,"density_birds_km3":32.87133333333333,"heading_deg":194.27784307244812,"speed_ms":11.729554397209153,"peak_altitude_m":400.0,"u_ms":-3.138774744442642,"v_ms":-11.081506977121531}},{"type":"Feature","geometry":{"type":"Point","coordinates":[-81.0423,32.6555]},"properties":{"site":"KCLX","name":"Charleston SC","scan_time":"2026-09-26T04:03:12Z","stale":false,"bins":25,"density_birds_km3":73.510625,"heading_deg":194.81516981490452,"speed_ms":13.746239404167763,"peak_altitude_m":0.0,"u_ms":-3.538788440446534,"v_ms":-13.218007260855147}},{"type":"Feature","geometry":{"type":"Point","coordinates":[-74.4108,39.947]},"properties":{"site":"KDIX","name":"Philadelphia PA","scan_time":"2026-09-26T03:59:17Z","stale":false,"bins":25,"density_birds_km3":5.4557142857142855,"heading_deg":null,"speed_ms":null,"peak_altitude_m":600.0,"u_ms":null,"v_ms":null}},{"type":"Feature","geometry":{"type":"Point","coordinates":[-84.5658,33.3636]},"properties":{"site":"KFFC","name":"Atlanta GA","scan_time":"2026-09-26T04:00:57Z","stale":false,"bins":25,"density_birds_km3":284.88866666666667,"heading_deg":186.3082074075288,"speed_ms":12.638844999099062,"peak_altitude_m":600.0,"u_ms":-1.4026935434427017,"v_ms":-12.473611750087167}},{"type":"Feature","geometry":{"type":"Point","coordinates":[-85.5449,42.8939]},"properties":{"site":"KGRR","name":"Grand Rapids MI","scan_time":"2026-09-26T04:03:26Z","stale":false,"bins":25,"density_birds_km3":90.78866666666666,"heading_deg":196.48097523081526,"speed_ms":10.185045783981849,"peak_altitude_m":200.0,"u_ms":-2.846369737779312,"v_ms":-9.616952483055888}},{"type":"Feature","geometry":{"type":"Point","coordinates":[-83.8217,39.4203]},"properties":{"site":"KILN","name":"Wilmington OH","scan_time":"2026-09-26T04:01:59Z","stale":false,"bins":25,"density_birds_km3":101.21266666666666,"heading_deg":196.68473855401461,"speed_ms":11.879806200018447,"peak_altitude_m":200.0,"u_ms":-3.392336930029116,"v_ms":-10.943025045123383}},{"type":"Feature","geometry":{"type":"Point","coordinates":[-81.7019,30.4846]},"properties":{"site":"KJAX","name":"Jacksonville FL","scan_time":"2026-09-26T04:01:57Z","stale":false,"bins":25,"density_birds_km3":231.025,"heading_deg":186.4241220380062,"speed_ms":13.808280191537712,"peak_altitude_m":400.0,"u_ms":-1.4904357212422898,"v_ms":-13.688989584460556}},{"type":"Feature","geometry":{"type":"Point","coordinates":[-88.0847,41.6045]},"properties":{"site":"KLOT","name":"Chicago IL","scan_time":"2026-09-26T04:01:34Z","stale":false,"bins":25,"density_birds_km3":32.868,"heading_deg":201.10987510737516,"speed_ms":8.119960245020486,"peak_altitude_m":200.0,"u_ms":-2.4747269887631336,"v_ms":-7.050500588211431}},{"type":"Feature","geometry":{"type":"Point","coordinates":[-78.4292,33.9892]},"properties":{"site":"KLTX","name":"Wilmington NC","scan_time":"2026-09-26T03:58:00Z","stale":false,"bins":25,"density_birds_km3":121.0975,"heading_deg":199.64836684657,"speed_ms":13.269657226325595,"peak_altitude_m":0.0,"u_ms":-4.56827859587185,"v_ms":-12.394344673097867}},{"type":"Feature","geometry":{"type":"Point","coordinates":[-77.4778,38.9753]},"properties":{"site":"KLWX","name":"Sterling VA","scan_time":"2026-09-26T03:57:06Z","stale":false,"bins":25,"density_birds_km3":40.83875,"heading_deg":189.80409976947257,"speed_ms":21.538087708007723,"peak_altitude_m":600.0,"u_ms":-4.654814133799148,"v_ms":-20.226176641843647}},{"type":"Feature","geometry":{"type":"Point","coordinates":[-76.8762,34.7759]},"properties":{"site":"KMHX","name":"Morehead City NC","scan_time":"2026-09-26T03:59:26Z","stale":false,"bins":25,"density_birds_km3":66.96625,"heading_deg":165.83083858258354,"speed_ms":13.048940604408937,"peak_altitude_m":0.0,"u_ms":2.2310940212420434,"v_ms":-12.537127750919305}},{"type":"Feature","geometry":{"type":"Point","coordinates":[-80.6542,28.1133]},"properties":{"site":"KMLB","name":"Melbourne FL","scan_time":"2026-09-26T03:59:14Z","stale":false,"bins":25,"density_birds_km3":30.410625,"heading_deg":163.15291308730548,"speed_ms":15.483655869779678,"peak_altitude_m":200.0,"u_ms":4.41087080730023,"v_ms":-14.799403567905294}},{"type":"Feature","geometry":{"type":"Point","coordinates":[-86.5625,36.2472]},"properties":{"site":"KOHX","name":"Nashville TN","scan_time":"2026-09-26T04:01:55Z","stale":false,"bins":25,"density_birds_km3":179.0593333333333,"heading_deg":205.56882911454284,"speed_ms":12.185075784935348,"peak_altitude_m":200.0,"u_ms":-5.379874194401112,"v_ms":-10.44749691908455}},{"type":"Feature","geometry":{"type":"Point","coordinates":[-72.8639,40.8655]},"properties":{"site":"KOKX","name":"Upton NY","scan_time":"2026-09-26T03:57:31Z","stale":false,"bins":25,"density_birds_km3":3.775,"heading_deg":null,"speed_ms":null,"peak_altitude_m":200.0,"u_ms":null,"v_ms":null}},{"type":"Feature","geometry":{"type":"Point","coordinates":[-80.2183,40.5317]},"properties":{"site":"KPBZ","name":"Pittsburgh PA","scan_time":"2026-09-26T04:00:37Z","stale":false,"bins":25,"density_birds_km3":55.73071428571428,"heading_deg":212.38562374707007,"speed_ms":16.35522397241839,"peak_altitude_m":600.0,"u_ms":-8.89718672699076,"v_ms":-13.15997205952091}},{"type":"Feature","geometry":{"type":"Point","coordinates":[-78.4899,35.6655]},"properties":{"site":"KRAX","name":"Raleigh NC","scan_time":"2026-09-26T04:01:06Z","stale":false,"bins":25,"density_birds_km3":56.09625,"heading_deg":185.54080089094325,"speed_ms":19.666373086436263,"peak_altitude_m":400.0,"u_ms":-2.1653055017046596,"v_ms":-19.419808030839853}},{"type":"Feature","geometry":{"type":"Point","coordinates":[-82.4017,27.7055]},"properties":{"site":"KTBW","name":"Tampa FL","scan_time":"2026-09-26T04:01:46Z","stale":false,"bins":25,"density_birds_km3":21.529374999999998,"heading_deg":191.01564169986455,"speed_ms":13.910402066943421,"peak_altitude_m":200.0,"u_ms":-2.889135483496386,"v_ms":-13.442782825790346}}]}