{"type":"FeatureCollection","frame":"2026-10-01T11","site_count":20,"fresh_count":20,"failures":{},"features":[{"type":"Feature","geometry":{"type":"Point","coordinates":[-77.0073,36.984]},"properties":{"site":"KAKQ","name":"Wakefield VA","scan_time":"2026-10-01T10:58:13Z","stale":false,"bins":25,"density_birds_km3":0.421875,"heading_deg":80.77990575084583,"speed_ms":4.968219584569733,"peak_altitude_m":600.0,"u_ms":4.671483679525222,"v_ms":0.8842136498516322}},{"type":"Feature","geometry":{"type":"Point","coordinates":[-71.1369,41.9558]},"properties":{"site":"KBOX","name":"Boston MA","scan_time":"2026-10-01T11:01:00Z","stale":false,"bins":25,"density_birds_km3":3.243125,"heading_deg":91.16597244826295,"speed_ms":2.5452071690113702,"peak_altitude_m":0.0,"u_ms":2.5211119676238196,"v_ms":-0.10874542301021393}},{"type":"Feature","geometry":{"type":"Point","coordinates":[-78.7369,42.9489]},"properties":{"site":"KBUF","name":"Buffalo NY","scan_time":"2026-10-01T10:59:55Z","stale":false,"bins":25,"density_birds_km3":0.634,"heading_deg":null,"speed_ms":null,"peak_altitude_m":400.0,"u_ms":null,"v_ms":null}},{"type":"Feature","geometry":{"type":"Point","coordinates":[-81.8597,41.4131]},"properties":{"site":"KCLE","name":"Cleveland OH","scan_time":"2026-10-01T10:58:27Z","stale":false,"bins":25,"density_birds_km3":0.5640000000000001,"heading_deg":41.696094176437654,"speed_ms":11.889117997616209,"peak_altitude_m":200.0,"u_ms":8.209725864123957,"v_ms":7.981120381406436}},{"type":"Feature","geometry":{"type":"Point","coordinates":[-81.0423,32.6555]},"properties":{"site":"KCLX","name":"Charleston SC","scan_time":"2026-10-01T11:02:42Z","stale":false,"bins":25,"density_birds_km3":0.675625,"heading_deg":254.8685534520341,"speed_ms":4.752368177613321,"peak_altitude_m":200.0,"u_ms":-4.5779740980573544,"v_ms":-1.2288714153561517}},{"type":"Feature","geometry":{"type":"Point","coordinates":[-74.4108,39.947]},"properties":{"site":"KDIX","name":"Philadelphia PA","scan_time":"2026-10-01T11:01:24Z","stale":false,"bins":25,"density_birds_km3":0.359375,"heading_deg":69.12922293163392,"speed_ms":7.697012448132779,"peak_altitude_m":200.0,"u_ms":6.928423236514523,"v_ms":2.6578838174273858}},{"type":"Feature","geometry":{"type":"Point","coordinates":[-84.5658,33.3636]},"properties":{"site":"KFFC","name":"Atlanta GA","scan_time":"2026-10-01T10:57:50Z","stale":false,"bins":25,"density_birds_km3":0.9986666666666667,"heading_deg":334.6093176343694,"speed_ms":5.824695652173912,"peak_altitude_m":200.0,"u_ms":-1.4843411371237458,"v_ms":5.05838795986622}},{"type":"Feature","geometry":{"type":"Point","coordinates":[-85.5449,42.8939]},"properties":{"site":"KGRR","name":"Grand Rapids MI","scan_time":"2026-10-01T11:02:08Z","stale":false,"bins":25,"density_birds_km3":0.23866666666666667,"heading_deg":38.71777193701783,"speed_ms":6.941450777202072,"peak_altitude_m":200.0,"u_ms":4.368652849740933,"v_ms":5.361347150259068}},{"type":"Feature","geometry":{"type":"Point","coordinates":[-83.8217,39.4203]},"properties":{"site":"KILN","name":"Wilmington OH","scan_time":"2026-10-01T10:58:54Z","stale":false,"bins":25,"density_birds_km3":0.21666666666666667,"heading_deg":53.084421903108804,"speed_ms":13.853292307692309,"peak_altitude_m":200.0,"u_ms":11.178369230769231,"v_ms":7.4009846153846155}},{"type":"Feature","geometry":{"type":"Point","coordinates":[-81.7019,30.4846]},"properties":{"site":"KJAX","name":"Jacksonville FL","scan_time":"2026-10-01T11:01:35Z","stale":false,"bins":25,"density_birds_km3":0.806875,"heading_deg":272.79994168460075,"speed_ms":4.109286821705426,"peak_altitude_m":0.0,"u_ms":-3.9960465116279074,"v_ms":0.3264108527131782}},{"type":"Feature","geometry":{"type":"Point","coordinates":[-88.0847,41.6045]},"properties":{"site":"KLOT","name":"Chicago IL","scan_time":"2026-10-01T10:59:21Z","stale":false,"bins":25,"density_birds_km3":0.34769230769230763,"heading_deg":356.9,"speed_ms":4.71,"peak_altitude_m":200.0,"u_ms":-0.25,"v_ms":4.71}},{"type":"Feature","geometry":{"type":"Point","coordinates":[-78.4292,33.9892]},"properties":{"site":"KLTX","name":"Wilmington NC","scan_time":"2026-10-01T11:01:49Z","stale":false,"bins":25,"density_birds_km3":1.019375,"heading_deg":258.385378097619,"speed_ms":4.294322501532802,"peak_altitude_m":200.0,"u_ms":-4.184488044144697,"v_ms":-0.8530594727161251}},{"type":"Feature","geometry":{"type":"Point","coordinates":[-77.4778,38.9753]},"properties":{"site":"KLWX","name":"Sterling VA","scan_time":"2026-10-01T10:57:27Z","stale":false,"bins":25,"density_birds_km3":2.6750000000000003,"heading_deg":49.095500496392475,"speed_ms":5.002553738317756,"peak_altitude_m":0.0,"u_ms":3.7646191588785043,"v_ms":2.7345630841121493}},{"type":"Feature","geometry":{"type":"Point","coordinates":[-76.8762,34.7759]},"properties":{"site":"KMHX","name":"Morehead City NC","scan_time":"2026-10-01T10:59:39Z","stale":false,"bins":25,"density_birds_km3":1.541875,"heading_deg":251.38601763711222,"speed_ms":2.183599513579246,"peak_altitude_m":200.0,"u_ms":-2.0229874341305227,"v_ms":-0.5683502229428455}},{"type":"Feature","geometry":{"type":"Point","coordinates":[-80.6542,28.1133]},"properties":{"site":"KMLB","name":"Melbourne FL","scan_time":"2026-10-01T11:02:50Z","stale":false,"bins":25,"density_birds_km3":3.356,"heading_deg":null,"speed_ms":null,"peak_altitude_m":400.0,"u_ms":null,"v_ms":null}},{"type":"Feature","geometry":{"type":"Point","coordinates":[-86.5625,36.2472]},"properties":{"site":"KOHX","name":"Nashville TN","scan_time":"2026-10-01T11:02:37Z","stale":false,"bins":25,"density_birds_km3":0.8566666666666667,"heading_deg":10.134358050704694,"speed_ms":12.053395638629285,"peak_altitude_m":200.0,"u_ms":2.6962227414330213,"v_ms":11.368200934579438}},{"type":"Feature","geometry":{"type":"Point","coordinates":[-72.8639,40.8655]},"properties":{"site":"KOKX","name":"Upton NY","scan_time":"2026-10-01T10:58:18Z","stale":false,"bins":25,"density_birds_km3":3.1225,"heading_deg":72.41832087827966,"speed_ms":5.989659727782226,"peak_altitude_m":0.0,"u_ms":5.711881505204163,"v_ms":1.7918594875900722}},{"type":"Feature","geometry":{"type":"Point","coordinates":[-80.2183,40.5317]},"properties":{"site":"KPBZ","name":"Pittsburgh PA","scan_time":"2026-10-01T10:59:52Z","stale":false,"bins":25,"density_birds_km3":0.07214285714285715,"heading_deg":51.546809416326695,"speed_ms":12.23059405940594,"peak_altitude_m":400.0,"u_ms":9.607920792079208,"v_ms":7.285544554455447}},{"type":"Feature","geometry":{"type":"Point","coordinates":[-78.4899,35.6655]},"properties":{"site":"KRAX","name":"Raleigh NC","scan_time":"2026-10-01T11:01:12Z","stale":false,"bins":25,"density_birds_km3":1.44875,"heading_deg":81.95392041054993,"speed_ms":5.832099567099567,"peak_altitude_m":0.0,"u_ms":5.752974025974026,"v_ms":0.7996709956709956}},{"type":"Feature","geometry":{"type":"Point","coordinates":[-82.4017,27.7055]},"properties":{"site":"KTBW","name":"Tampa FL","scan_time":"2026-10-01T11:02:26Z","stale":false,"bins":25,"density_birds_km3":1.61625,"heading_deg":276.5175971176946,"speed_ms":9.211365042536736,"peak_altitude_m":0.0,"u_ms":-8.96571539056458,"v_ms":1.0935266821345706}}]}