{"type":"FeatureCollection","frame":"2026-10-04T02","site_count":20,"fresh_count":20,"failures":{},"features":[{"type":"Feature","geometry":{"type":"Point","coordinates":[-77.0073,36.984]},"properties":{"site":"KAKQ","name":"Wakefield VA","scan_time":"2026-10-04T02:02:15Z","stale":false,"bins":25,"density_birds_km3":17.324375,"heading_deg":180.57278942591597,"speed_ms":5.280838978445933,"peak_altitude_m":0.0,"u_ms":-0.18443470385799668,"v_ms":-4.924783191450824}},{"type":"Feature","geometry":{"type":"Point","coordinates":[-71.1369,41.9558]},"properties":{"site":"KBOX","name":"Boston MA","scan_time":"2026-10-04T01:59:00Z","stale":false,"bins":25,"density_birds_km3":27.3625,"heading_deg":224.69315010626454,"speed_ms":9.264222562368637,"peak_altitude_m":200.0,"u_ms":-5.462532897742849,"v_ms":-6.658779356666361}},{"type":"Feature","geometry":{"type":"Point","coordinates":[-78.7369,42.9489]},"properties":{"site":"KBUF","name":"Buffalo NY","scan_time":"2026-10-04T01:55:47Z","stale":false,"bins":25,"density_birds_km3":28.013333333333332,"heading_deg":249.6721196678871,"speed_ms":10.728033555449786,"peak_altitude_m":200.0,"u_ms":-10.012438362684437,"v_ms":-3.4203055687767727}},{"type":"Feature","geometry":{"type":"Point","coordinates":[-81.8597,41.4131]},"properties":{"site":"KCLE","name":"Cleveland OH","scan_time":"2026-10-04T01:57:11Z","stale":false,"bins":25,"density_birds_km3":17.968666666666664,"heading_deg":255.66884263662004,"speed_ms":9.547061817371276,"peak_altitude_m":400.0,"u_ms":-8.987608663347945,"v_ms":-2.4896192139089086}},{"type":"Feature","geometry":{"type":"Point","coordinates":[-81.0423,32.6555]},"properties":{"site":"KCLX","name":"Charleston SC","scan_time":"2026-10-04T02:01:54Z","stale":false,"bins":25,"density_birds_km3":2.953125,"heading_deg":350.14435799879345,"speed_ms":4.910606125053169,"peak_altitude_m":0.0,"u_ms":-0.34294980859208846,"v_ms":4.270746490854956}},{"type":"Feature","geometry":{"type":"Point","coordinates":[-74.4108,39.947]},"properties":{"site":"KDIX","name":"Philadelphia PA","scan_time":"2026-10-04T01:58:02Z","stale":false,"bins":25,"density_birds_km3":95.06375,"heading_deg":224.57353309674366,"speed_ms":12.037514233869375,"peak_altitude_m":0.0,"u_ms":-8.507554601517404,"v_ms":-8.256445674613088}},{"type":"Feature","geometry":{"type":"Point","coordinates":[-84.5658,33.3636]},"properties":{"site":"KFFC","name":"Atlanta GA","scan_time":"2026-10-04T01:57:43Z","stale":false,"bins":25,"density_birds_km3":58.785999999999994,"heading_deg":228.55488608162864,"speed_ms":4.443640549337144,"peak_altitude_m":600.0,"u_ms":-1.2944880300298258,"v_ms":-2.3973444924528517}},{"type":"Feature","geometry":{"type":"Point","coordinates":[-85.5449,42.8939]},"properties":{"site":"KGRR","name":"Grand Rapids MI","scan_time":"2026-10-04T01:57:20Z","stale":false,"bins":25,"density_birds_km3":3.8939999999999997,"heading_deg":314.86496155935055,"speed_ms":8.288106164383562,"peak_altitude_m":200.0,"u_ms":-5.86170205479452,"v_ms":5.7633578767123295}},{"type":"Feature","geometry":{"type":"Point","coordinates":[-83.8217,39.4203]},"properties":{"site":"KILN","name":"Wilmington OH","scan_time":"2026-10-04T01:59:41Z","stale":false,"bins":25,"density_birds_km3":45.205333333333336,"heading_deg":229.79025214520962,"speed_ms":9.255899156441718,"peak_altitude_m":200.0,"u_ms":-6.105710978055686,"v_ms":-5.240764806512505}},{"type":"Feature","geometry":{"type":"Point","coordinates":[-81.7019,30.4846]},"properties":{"site":"KJAX","name":"Jacksonville FL","scan_time":"2026-10-04T02:02:12Z","stale":false,"bins":25,"density_birds_km3":18.46,"heading_deg":null,"speed_ms":null,"peak_altitude_m":0.0,"u_ms":null,"v_ms":null}},{"type":"Feature","geometry":{"type":"Point","coordinates":[-88.0847,41.6045]},"properties":{"site":"KLOT","name":"Chicago IL","scan_time":"2026-10-04T02:02:51Z","stale":false,"bins":25,"density_birds_km3":4.442666666666667,"heading_deg":345.3733224378948,"speed_ms":7.717906034223957,"peak_altitude_m":200.0,"u_ms":-2.009948964274992,"v_ms":7.180840588411888}},{"type":"Feature","geometry":{"type":"Point","coordinates":[-78.4292,33.9892]},"properties":{"site":"KLTX","name":"Wilmington NC","scan_time":"2026-10-04T02:02:12Z","stale":false,"bins":25,"density_birds_km3":4.4193750000000005,"heading_deg":279.19490051893183,"speed_ms":5.118496463932107,"peak_altitude_m":0.0,"u_ms":-4.815868458274399,"v_ms":0.4749236209335218}},{"type":"Feature","geometry":{"type":"Point","coordinates":[-77.4778,38.9753]},"properties":{"site":"KLWX","name":"Sterling VA","scan_time":"2026-10-04T02:00:38Z","stale":false,"bins":25,"density_birds_km3":140.64000000000001,"heading_deg":234.30616543354336,"speed_ms":8.53515047283845,"peak_altitude_m":400.0,"u_ms":-6.994684389220705,"v_ms":-4.43303589839306}},{"type":"Feature","geometry":{"type":"Point","coordinates":[-76.8762,34.7759]},"properties":{"site":"KMHX","name":"Morehead City NC","scan_time":"2026-10-04T01:58:39Z","stale":false,"bins":25,"density_birds_km3":24.849285714285713,"heading_deg":248.01030677903162,"speed_ms":6.4977965795495605,"peak_altitude_m":200.0,"u_ms":-6.071198060941828,"v_ms":-2.1969556184511623}},{"type":"Feature","geometry":{"type":"Point","coordinates":[-80.6542,28.1133]},"properties":{"site":"KMLB","name":"Melbourne FL","scan_time":"2026-10-04T02:01:40Z","stale":false,"bins":25,"density_birds_km3":2.889375,"heading_deg":289.5313387427686,"speed_ms":5.961592728846569,"peak_altitude_m":0.0,"u_ms":-5.5885003246050635,"v_ms":2.038115126595975}},{"type":"Feature","geometry":{"type":"Point","coordinates":[-86.5625,36.2472]},"properties":{"site":"KOHX","name":"Nashville TN","scan_time":"2026-10-04T01:57:48Z","stale":false,"bins":25,"density_birds_km3":196.28133333333332,"heading_deg":195.64816614294224,"speed_ms":8.448730971191011,"peak_altitude_m":400.0,"u_ms":-2.1925687278803894,"v_ms":-7.5676613839998375}},{"type":"Feature","geometry":{"type":"Point","coordinates":[-72.8639,40.8655]},"properties":{"site":"KOKX","name":"Upton NY","scan_time":"2026-10-04T01:59:04Z","stale":false,"bins":25,"density_birds_km3":115.531875,"heading_deg":238.56047052572316,"speed_ms":12.584178099978361,"peak_altitude_m":0.0,"u_ms":-10.55913276347111,"v_ms":-6.543562973382385}},{"type":"Feature","geometry":{"type":"Point","coordinates":[-80.2183,40.5317]},"properties":{"site":"KPBZ","name":"Pittsburgh PA","scan_time":"2026-10-04T01:57:34Z","stale":false,"bins":25,"density_birds_km3":58.419285714285714,"heading_deg":225.8507502886653,"speed_ms":10.853976182033819,"peak_altitude_m":400.0,"u_ms":-7.426426204653551,"v_ms":-7.51281365009109}},{"type":"Feature","geometry":{"type":"Point","coordinates":[-78.4899,35.6655]},"properties":{"site":"KRAX","name":"Raleigh NC","scan_time":"2026-10-04T02:02:15Z","stale":false,"bins":25,"density_birds_km3":68.940625,"heading_deg":214.29400729002674,"speed_ms":7.822271078546945,"peak_altitude_m":0.0,"u_ms":-4.341939552766644,"v_ms":-6.3803845735323454}},{"type":"Feature","geometry":{"type":"Point","coordinates":[-82.4017,27.7055]},"properties":{"site":"KTBW","name":"Tampa FL","scan_time":"2026-10-04T02:00:12Z","stale":false,"bins":25,"density_birds_km3":14.585,"heading_deg":278.3486100893339,"speed_ms":6.153570449091532,"peak_altitude_m":0.0,"u_ms":-5.891290709633185,"v_ms":1.1354705176551252}}]}