{"type":"FeatureCollection","frame":"2026-10-08T03","site_count":20,"fresh_count":19,"failures":{"KILN":"RuntimeError('no scan within 20 min of 2026-10-08T03:00Z')"},"features":[{"type":"Feature","geometry":{"type":"Point","coordinates":[-77.0073,36.984]},"properties":{"site":"KAKQ","name":"Wakefield VA","scan_time":"2026-10-08T03:03:12Z","stale":false,"bins":25,"density_birds_km3":1.8118750000000001,"heading_deg":31.774134222207163,"speed_ms":10.836375560925095,"peak_altitude_m":0.0,"u_ms":4.801556782878841,"v_ms":7.803683120469453}},{"type":"Feature","geometry":{"type":"Point","coordinates":[-71.1369,41.9558]},"properties":{"site":"KBOX","name":"Boston MA","scan_time":"2026-10-08T02:59:15Z","stale":false,"bins":25,"density_birds_km3":0.9206249999999999,"heading_deg":31.461621358951454,"speed_ms":11.502790224032587,"peak_altitude_m":0.0,"u_ms":6.147393075356416,"v_ms":9.621242362525457}},{"type":"Feature","geometry":{"type":"Point","coordinates":[-78.7369,42.9489]},"properties":{"site":"KBUF","name":"Buffalo NY","scan_time":"2026-10-08T03:01:50Z","stale":false,"bins":25,"density_birds_km3":1.0713333333333332,"heading_deg":87.19293957360966,"speed_ms":6.294131922837585,"peak_altitude_m":200.0,"u_ms":6.20261356565028,"v_ms":0.47738643434972}},{"type":"Feature","geometry":{"type":"Point","coordinates":[-81.8597,41.4131]},"properties":{"site":"KCLE","name":"Cleveland OH","scan_time":"2026-10-08T02:58:52Z","stale":false,"bins":25,"density_birds_km3":5.470666666666667,"heading_deg":133.16589964589002,"speed_ms":14.883073360955398,"peak_altitude_m":200.0,"u_ms":10.762014379722155,"v_ms":-10.22727638313429}},{"type":"Feature","geometry":{"type":"Point","coordinates":[-81.0423,32.6555]},"properties":{"site":"KCLX","name":"Charleston SC","scan_time":"2026-10-08T03:01:12Z","stale":false,"bins":25,"density_birds_km3":41.314375,"heading_deg":220.995421059845,"speed_ms":5.002043628882199,"peak_altitude_m":0.0,"u_ms":-2.8530741418695067,"v_ms":-3.0516188372691104}},{"type":"Feature","geometry":{"type":"Point","coordinates":[-74.4108,39.947]},"properties":{"site":"KDIX","name":"Philadelphia PA","scan_time":"2026-10-08T03:03:08Z","stale":false,"bins":25,"density_birds_km3":1.220625,"heading_deg":30.034658561995975,"speed_ms":13.814393241167434,"peak_altitude_m":0.0,"u_ms":6.928561187916026,"v_ms":11.725248335893497}},{"type":"Feature","geometry":{"type":"Point","coordinates":[-84.5658,33.3636]},"properties":{"site":"KFFC","name":"Atlanta GA","scan_time":"2026-10-08T02:57:47Z","stale":false,"bins":25,"density_birds_km3":49.24666666666667,"heading_deg":194.45023338609676,"speed_ms":5.6551671855963175,"peak_altitude_m":400.0,"u_ms":-0.8010270745904968,"v_ms":-5.065006904020577}},{"type":"Feature","geometry":{"type":"Point","coordinates":[-85.5449,42.8939]},"properties":{"site":"KGRR","name":"Grand Rapids MI","scan_time":"2026-10-08T03:02:51Z","stale":false,"bins":25,"density_birds_km3":39.306000000000004,"heading_deg":136.10555570601005,"speed_ms":19.37210920008142,"peak_altitude_m":600.0,"u_ms":13.2394706221589,"v_ms":-14.097312572087661}},{"type":"Feature","geometry":{"type":"Point","coordinates":[-81.7019,30.4846]},"properties":{"site":"KJAX","name":"Jacksonville FL","scan_time":"2026-10-08T02:58:08Z","stale":false,"bins":25,"density_birds_km3":244.875,"heading_deg":200.3512855354166,"speed_ms":10.87076914634582,"peak_altitude_m":0.0,"u_ms":-3.8642180664526107,"v_ms":-9.929713040903732}},{"type":"Feature","geometry":{"type":"Point","coordinates":[-88.0847,41.6045]},"properties":{"site":"KLOT","name":"Chicago IL","scan_time":"2026-10-08T03:03:05Z","stale":false,"bins":25,"density_birds_km3":49.56266666666667,"heading_deg":150.28771879869024,"speed_ms":16.031854890778003,"peak_altitude_m":400.0,"u_ms":7.910206338103948,"v_ms":-13.938616431722801}},{"type":"Feature","geometry":{"type":"Point","coordinates":[-78.4292,33.9892]},"properties":{"site":"KLTX","name":"Wilmington NC","scan_time":"2026-10-08T03:01:35Z","stale":false,"bins":25,"density_birds_km3":23.3675,"heading_deg":194.10819234220145,"speed_ms":2.2143802824435648,"peak_altitude_m":0.0,"u_ms":0.11273216005135339,"v_ms":-1.0830410827003316}},{"type":"Feature","geometry":{"type":"Point","coordinates":[-77.4778,38.9753]},"properties":{"site":"KLWX","name":"Sterling VA","scan_time":"2026-10-08T03:02:48Z","stale":false,"bins":25,"density_birds_km3":5.81125,"heading_deg":11.131680396008077,"speed_ms":10.741006776379477,"peak_altitude_m":0.0,"u_ms":2.7833785091965146,"v_ms":9.034241153060126}},{"type":"Feature","geometry":{"type":"Point","coordinates":[-76.8762,34.7759]},"properties":{"site":"KMHX","name":"Morehead City NC","scan_time":"2026-10-08T02:59:15Z","stale":false,"bins":25,"density_birds_km3":7.284375,"heading_deg":138.1968970346317,"speed_ms":2.9337563277563277,"peak_altitude_m":0.0,"u_ms":1.0297940797940797,"v_ms":-0.7752938652938653}},{"type":"Feature","geometry":{"type":"Point","coordinates":[-80.6542,28.1133]},"properties":{"site":"KMLB","name":"Melbourne FL","scan_time":"2026-10-08T03:03:38Z","stale":false,"bins":25,"density_birds_km3":73.77625,"heading_deg":231.99775257096857,"speed_ms":5.784147946361771,"peak_altitude_m":0.0,"u_ms":-4.522414104015193,"v_ms":-3.584411341531261}},{"type":"Feature","geometry":{"type":"Point","coordinates":[-86.5625,36.2472]},"properties":{"site":"KOHX","name":"Nashville TN","scan_time":"2026-10-08T02:59:39Z","stale":false,"bins":25,"density_birds_km3":50.04600000000001,"heading_deg":121.51976680035337,"speed_ms":8.309658314350797,"peak_altitude_m":400.0,"u_ms":6.6128172747738745,"v_ms":-4.374177756464053}},{"type":"Feature","geometry":{"type":"Point","coordinates":[-72.8639,40.8655]},"properties":{"site":"KOKX","name":"Upton NY","scan_time":"2026-10-08T02:56:49Z","stale":false,"bins":25,"density_birds_km3":0.4425,"heading_deg":43.8871112779551,"speed_ms":12.065706214689266,"peak_altitude_m":0.0,"u_ms":8.336949152542372,"v_ms":8.451257062146892}},{"type":"Feature","geometry":{"type":"Point","coordinates":[-80.2183,40.5317]},"properties":{"site":"KPBZ","name":"Pittsburgh PA","scan_time":"2026-10-08T02:58:20Z","stale":false,"bins":25,"density_birds_km3":0.6042857142857142,"heading_deg":61.41418679825027,"speed_ms":18.672848699763595,"peak_altitude_m":400.0,"u_ms":16.359633569739955,"v_ms":8.022174940898346}},{"type":"Feature","geometry":{"type":"Point","coordinates":[-78.4899,35.6655]},"properties":{"site":"KRAX","name":"Raleigh NC","scan_time":"2026-10-08T02:56:02Z","stale":false,"bins":25,"density_birds_km3":3.23375,"heading_deg":65.95308570126767,"speed_ms":6.726051410900657,"peak_altitude_m":200.0,"u_ms":3.239205643602628,"v_ms":1.3965056049478157}},{"type":"Feature","geometry":{"type":"Point","coordinates":[-82.4017,27.7055]},"properties":{"site":"KTBW","name":"Tampa FL","scan_time":"2026-10-08T03:01:26Z","stale":false,"bins":25,"density_birds_km3":29.085624999999997,"heading_deg":173.6,"speed_ms":2.67,"peak_altitude_m":0.0,"u_ms":0.3,"v_ms":-2.65}}]}