{"type":"FeatureCollection","frame":"2026-08-20T11","site_count":20,"fresh_count":20,"failures":{},"features":[{"type":"Feature","geometry":{"type":"Point","coordinates":[-77.0073,36.984]},"properties":{"site":"KAKQ","name":"Wakefield VA","scan_time":"2026-08-20T11:00:19Z","stale":false,"bins":25,"density_birds_km3":0.325625,"heading_deg":10.373941693415665,"speed_ms":8.416556420233464,"peak_altitude_m":0.0,"u_ms":1.1325875486381325,"v_ms":7.874610894941634}},{"type":"Feature","geometry":{"type":"Point","coordinates":[-71.1369,41.9558]},"properties":{"site":"KBOX","name":"Boston MA","scan_time":"2026-08-20T10:59:36Z","stale":false,"bins":25,"density_birds_km3":5.88375,"heading_deg":173.71233760935172,"speed_ms":7.386803357059386,"peak_altitude_m":400.0,"u_ms":0.7175661319451823,"v_ms":-7.324317433336875}},{"type":"Feature","geometry":{"type":"Point","coordinates":[-78.7369,42.9489]},"properties":{"site":"KBUF","name":"Buffalo NY","scan_time":"2026-08-20T10:58:12Z","stale":false,"bins":25,"density_birds_km3":2.244666666666667,"heading_deg":230.8525295007282,"speed_ms":2.9902613602613597,"peak_altitude_m":200.0,"u_ms":-2.0307751707751707,"v_ms":-1.6797534897534894}},{"type":"Feature","geometry":{"type":"Point","coordinates":[-81.8597,41.4131]},"properties":{"site":"KCLE","name":"Cleveland OH","scan_time":"2026-08-20T11:02:49Z","stale":false,"bins":25,"density_birds_km3":2.182,"heading_deg":256.3148672899304,"speed_ms":4.617213565536206,"peak_altitude_m":200.0,"u_ms":-4.327577146348916,"v_ms":-0.9656186984417965}},{"type":"Feature","geometry":{"type":"Point","coordinates":[-81.0423,32.6555]},"properties":{"site":"KCLX","name":"Charleston SC","scan_time":"2026-08-20T10:59:02Z","stale":false,"bins":25,"density_birds_km3":9.59125,"heading_deg":309.7462746708696,"speed_ms":1.909190668578131,"peak_altitude_m":0.0,"u_ms":-1.1212218167600678,"v_ms":1.096545028020331}},{"type":"Feature","geometry":{"type":"Point","coordinates":[-74.4108,39.947]},"properties":{"site":"KDIX","name":"Philadelphia PA","scan_time":"2026-08-20T10:58:30Z","stale":false,"bins":25,"density_birds_km3":9.245625,"heading_deg":180.9404876207441,"speed_ms":4.588522804168359,"peak_altitude_m":200.0,"u_ms":-0.08907768304236026,"v_ms":-4.563692651238327}},{"type":"Feature","geometry":{"type":"Point","coordinates":[-84.5658,33.3636]},"properties":{"site":"KFFC","name":"Atlanta GA","scan_time":"2026-08-20T11:02:34Z","stale":false,"bins":25,"density_birds_km3":4.0953333333333335,"heading_deg":147.13739413623966,"speed_ms":5.004117551286226,"peak_altitude_m":200.0,"u_ms":2.6339189189189187,"v_ms":-4.050351676978183}},{"type":"Feature","geometry":{"type":"Point","coordinates":[-85.5449,42.8939]},"properties":{"site":"KGRR","name":"Grand Rapids MI","scan_time":"2026-08-20T11:03:27Z","stale":false,"bins":25,"density_birds_km3":6.067333333333333,"heading_deg":239.50238631123835,"speed_ms":8.160522305653709,"peak_altitude_m":200.0,"u_ms":-6.985885600706713,"v_ms":-4.120681316254417}},{"type":"Feature","geometry":{"type":"Point","coordinates":[-83.8217,39.4203]},"properties":{"site":"KILN","name":"Wilmington OH","scan_time":"2026-08-20T10:58:25Z","stale":false,"bins":25,"density_birds_km3":0.6485714285714286,"heading_deg":null,"speed_ms":null,"peak_altitude_m":400.0,"u_ms":null,"v_ms":null}},{"type":"Feature","geometry":{"type":"Point","coordinates":[-81.7019,30.4846]},"properties":{"site":"KJAX","name":"Jacksonville FL","scan_time":"2026-08-20T11:00:54Z","stale":false,"bins":25,"density_birds_km3":7.17625,"heading_deg":148.6319371537656,"speed_ms":6.437814840620101,"peak_altitude_m":0.0,"u_ms":3.404130813447135,"v_ms":-5.198578644835395}},{"type":"Feature","geometry":{"type":"Point","coordinates":[-88.0847,41.6045]},"properties":{"site":"KLOT","name":"Chicago IL","scan_time":"2026-08-20T10:59:41Z","stale":false,"bins":25,"density_birds_km3":2.6813333333333333,"heading_deg":204.12580802812556,"speed_ms":8.882442063294294,"peak_altitude_m":200.0,"u_ms":-3.6814303513580864,"v_ms":-8.03313730376277}},{"type":"Feature","geometry":{"type":"Point","coordinates":[-78.4292,33.9892]},"properties":{"site":"KLTX","name":"Wilmington NC","scan_time":"2026-08-20T10:59:22Z","stale":false,"bins":25,"density_birds_km3":3.68125,"heading_deg":298.5073116286417,"speed_ms":3.3791929951254738,"peak_altitude_m":0.0,"u_ms":-2.7759848348077267,"v_ms":1.3882866943491605}},{"type":"Feature","geometry":{"type":"Point","coordinates":[-77.4778,38.9753]},"properties":{"site":"KLWX","name":"Sterling VA","scan_time":"2026-08-20T11:01:15Z","stale":false,"bins":25,"density_birds_km3":4.57125,"heading_deg":264.32012009954724,"speed_ms":7.088464378504034,"peak_altitude_m":0.0,"u_ms":-6.98307397784767,"v_ms":-0.7455189388759743}},{"type":"Feature","geometry":{"type":"Point","coordinates":[-76.8762,34.7759]},"properties":{"site":"KMHX","name":"Morehead City NC","scan_time":"2026-08-20T10:56:37Z","stale":false,"bins":25,"density_birds_km3":2.424375,"heading_deg":180.22791717566224,"speed_ms":4.981322505800464,"peak_altitude_m":2000.0,"u_ms":0.839840164990977,"v_ms":-3.194813096158804}},{"type":"Feature","geometry":{"type":"Point","coordinates":[-80.6542,28.1133]},"properties":{"site":"KMLB","name":"Melbourne FL","scan_time":"2026-08-20T10:58:31Z","stale":false,"bins":25,"density_birds_km3":3.09625,"heading_deg":217.36340357805594,"speed_ms":3.2451937828017763,"peak_altitude_m":0.0,"u_ms":-1.8801069842551474,"v_ms":-2.5611081953976584}},{"type":"Feature","geometry":{"type":"Point","coordinates":[-86.5625,36.2472]},"properties":{"site":"KOHX","name":"Nashville TN","scan_time":"2026-08-20T11:01:29Z","stale":false,"bins":25,"density_birds_km3":null,"heading_deg":null,"speed_ms":null,"peak_altitude_m":null,"u_ms":null,"v_ms":null}},{"type":"Feature","geometry":{"type":"Point","coordinates":[-72.8639,40.8655]},"properties":{"site":"KOKX","name":"Upton NY","scan_time":"2026-08-20T10:59:52Z","stale":false,"bins":25,"density_birds_km3":4.26375,"heading_deg":165.7914214392548,"speed_ms":6.232532629417803,"peak_altitude_m":200.0,"u_ms":1.5151869775626927,"v_ms":-6.00621498753483}},{"type":"Feature","geometry":{"type":"Point","coordinates":[-80.2183,40.5317]},"properties":{"site":"KPBZ","name":"Pittsburgh PA","scan_time":"2026-08-20T10:59:03Z","stale":false,"bins":25,"density_birds_km3":0.9227272727272727,"heading_deg":353.2,"speed_ms":2.1,"peak_altitude_m":400.0,"u_ms":-0.25,"v_ms":2.08}},{"type":"Feature","geometry":{"type":"Point","coordinates":[-78.4899,35.6655]},"properties":{"site":"KRAX","name":"Raleigh NC","scan_time":"2026-08-20T11:02:41Z","stale":false,"bins":25,"density_birds_km3":1.619375,"heading_deg":42.32067570624835,"speed_ms":4.9843923407581086,"peak_altitude_m":400.0,"u_ms":3.123954669792888,"v_ms":2.485384915982806}},{"type":"Feature","geometry":{"type":"Point","coordinates":[-82.4017,27.7055]},"properties":{"site":"KTBW","name":"Tampa FL","scan_time":"2026-08-20T11:00:35Z","stale":false,"bins":25,"density_birds_km3":15.155625,"heading_deg":1.452433367223017,"speed_ms":1.1518965730545592,"peak_altitude_m":0.0,"u_ms":-0.05009319971957607,"v_ms":0.33046641098602014}}]}