{"type":"FeatureCollection","frame":"2026-09-16T07","site_count":20,"fresh_count":19,"failures":{"KDIX":"RuntimeError('no scan within 20 min of 2026-09-16T07:00Z')"},"features":[{"type":"Feature","geometry":{"type":"Point","coordinates":[-77.0073,36.984]},"properties":{"site":"KAKQ","name":"Wakefield VA","scan_time":"2026-09-16T07:02:03Z","stale":false,"bins":25,"density_birds_km3":2.4125,"heading_deg":283.9848159788608,"speed_ms":5.945849740932642,"peak_altitude_m":0.0,"u_ms":-3.980826424870467,"v_ms":0.9998316062176167}},{"type":"Feature","geometry":{"type":"Point","coordinates":[-71.1369,41.9558]},"properties":{"site":"KBOX","name":"Boston MA","scan_time":"2026-09-16T06:58:58Z","stale":false,"bins":25,"density_birds_km3":0.600625,"heading_deg":37.456380854725296,"speed_ms":5.310917622523462,"peak_altitude_m":0.0,"u_ms":3.2007194994786237,"v_ms":4.105005213764338}},{"type":"Feature","geometry":{"type":"Point","coordinates":[-78.7369,42.9489]},"properties":{"site":"KBUF","name":"Buffalo NY","scan_time":"2026-09-16T06:58:57Z","stale":false,"bins":25,"density_birds_km3":2.0673333333333335,"heading_deg":91.88052827570377,"speed_ms":5.683940664301838,"peak_altitude_m":200.0,"u_ms":5.440735246694615,"v_ms":0.44199935504675913}},{"type":"Feature","geometry":{"type":"Point","coordinates":[-81.8597,41.4131]},"properties":{"site":"KCLE","name":"Cleveland OH","scan_time":"2026-09-16T07:00:54Z","stale":false,"bins":25,"density_birds_km3":7.989333333333334,"heading_deg":92.65569363388114,"speed_ms":9.523117489986648,"peak_altitude_m":200.0,"u_ms":8.983397029372497,"v_ms":0.8622621829105473}},{"type":"Feature","geometry":{"type":"Point","coordinates":[-81.0423,32.6555]},"properties":{"site":"KCLX","name":"Charleston SC","scan_time":"2026-09-16T07:02:22Z","stale":false,"bins":25,"density_birds_km3":26.619374999999998,"heading_deg":223.14317355302836,"speed_ms":10.888338414994447,"peak_altitude_m":0.0,"u_ms":-7.279563213500674,"v_ms":-7.759950601526862}},{"type":"Feature","geometry":{"type":"Point","coordinates":[-84.5658,33.3636]},"properties":{"site":"KFFC","name":"Atlanta GA","scan_time":"2026-09-16T06:56:39Z","stale":false,"bins":25,"density_birds_km3":21.434666666666665,"heading_deg":268.54216767028413,"speed_ms":7.2119732743583365,"peak_altitude_m":200.0,"u_ms":-6.413064104161476,"v_ms":-0.1657936705706454}},{"type":"Feature","geometry":{"type":"Point","coordinates":[-85.5449,42.8939]},"properties":{"site":"KGRR","name":"Grand Rapids MI","scan_time":"2026-09-16T06:57:57Z","stale":false,"bins":25,"density_birds_km3":38.93266666666667,"heading_deg":156.98504372515873,"speed_ms":11.372928282759093,"peak_altitude_m":400.0,"u_ms":4.4029815398314955,"v_ms":-10.225118158777999}},{"type":"Feature","geometry":{"type":"Point","coordinates":[-83.8217,39.4203]},"properties":{"site":"KILN","name":"Wilmington OH","scan_time":"2026-09-16T06:59:41Z","stale":false,"bins":25,"density_birds_km3":5.504666666666667,"heading_deg":58.596802468154756,"speed_ms":11.732441775836973,"peak_altitude_m":200.0,"u_ms":9.219143619602136,"v_ms":5.59847646773411}},{"type":"Feature","geometry":{"type":"Point","coordinates":[-81.7019,30.4846]},"properties":{"site":"KJAX","name":"Jacksonville FL","scan_time":"2026-09-16T06:59:49Z","stale":false,"bins":25,"density_birds_km3":110.064375,"heading_deg":198.42700495149953,"speed_ms":12.376643241317488,"peak_altitude_m":0.0,"u_ms":-4.05211230376721,"v_ms":-11.504616785804583}},{"type":"Feature","geometry":{"type":"Point","coordinates":[-88.0847,41.6045]},"properties":{"site":"KLOT","name":"Chicago IL","scan_time":"2026-09-16T06:58:12Z","stale":false,"bins":25,"density_birds_km3":40.586666666666666,"heading_deg":196.39831705670062,"speed_ms":8.958455650459921,"peak_altitude_m":400.0,"u_ms":-2.5192894218134034,"v_ms":-7.809144053876479}},{"type":"Feature","geometry":{"type":"Point","coordinates":[-78.4292,33.9892]},"properties":{"site":"KLTX","name":"Wilmington NC","scan_time":"2026-09-16T06:57:56Z","stale":false,"bins":25,"density_birds_km3":23.052500000000002,"heading_deg":232.71171253362405,"speed_ms":12.608036951501155,"peak_altitude_m":0.0,"u_ms":-9.902508248102937,"v_ms":-7.532980589464422}},{"type":"Feature","geometry":{"type":"Point","coordinates":[-77.4778,38.9753]},"properties":{"site":"KLWX","name":"Sterling VA","scan_time":"2026-09-16T07:01:36Z","stale":false,"bins":25,"density_birds_km3":5.904375,"heading_deg":332.42789402161156,"speed_ms":6.039438596491229,"peak_altitude_m":0.0,"u_ms":-0.05861456671982987,"v_ms":4.366545454545455}},{"type":"Feature","geometry":{"type":"Point","coordinates":[-76.8762,34.7759]},"properties":{"site":"KMHX","name":"Morehead City NC","scan_time":"2026-09-16T06:58:29Z","stale":false,"bins":25,"density_birds_km3":4.383125,"heading_deg":206.83943019454776,"speed_ms":9.20071326676177,"peak_altitude_m":0.0,"u_ms":-4.041523537803139,"v_ms":-7.989831669044224}},{"type":"Feature","geometry":{"type":"Point","coordinates":[-80.6542,28.1133]},"properties":{"site":"KMLB","name":"Melbourne FL","scan_time":"2026-09-16T07:02:28Z","stale":false,"bins":25,"density_birds_km3":1.740625,"heading_deg":246.3604970814916,"speed_ms":5.347122005988024,"peak_altitude_m":0.0,"u_ms":-4.9068637724550905,"v_ms":-2.084932634730539}},{"type":"Feature","geometry":{"type":"Point","coordinates":[-86.5625,36.2472]},"properties":{"site":"KOHX","name":"Nashville TN","scan_time":"2026-09-16T06:57:20Z","stale":false,"bins":25,"density_birds_km3":15.462,"heading_deg":15.817971448594847,"speed_ms":9.94689345923339,"peak_altitude_m":200.0,"u_ms":2.995968180054327,"v_ms":9.191282283447592}},{"type":"Feature","geometry":{"type":"Point","coordinates":[-72.8639,40.8655]},"properties":{"site":"KOKX","name":"Upton NY","scan_time":"2026-09-16T07:00:06Z","stale":false,"bins":25,"density_birds_km3":0.6275,"heading_deg":32.6342612874335,"speed_ms":4.138582834331337,"peak_altitude_m":0.0,"u_ms":2.1405189620758485,"v_ms":3.3067964071856286}},{"type":"Feature","geometry":{"type":"Point","coordinates":[-80.2183,40.5317]},"properties":{"site":"KPBZ","name":"Pittsburgh PA","scan_time":"2026-09-16T07:00:13Z","stale":false,"bins":25,"density_birds_km3":4.670714285714285,"heading_deg":52.31301001530964,"speed_ms":9.669532038538003,"peak_altitude_m":400.0,"u_ms":7.7732634959473925,"v_ms":4.718070041290717}},{"type":"Feature","geometry":{"type":"Point","coordinates":[-78.4899,35.6655]},"properties":{"site":"KRAX","name":"Raleigh NC","scan_time":"2026-09-16T06:58:35Z","stale":false,"bins":25,"density_birds_km3":14.07,"heading_deg":235.3793334133975,"speed_ms":7.658826535146184,"peak_altitude_m":0.0,"u_ms":-5.6356069492579755,"v_ms":-4.204127343819426}},{"type":"Feature","geometry":{"type":"Point","coordinates":[-82.4017,27.7055]},"properties":{"site":"KTBW","name":"Tampa FL","scan_time":"2026-09-16T06:59:56Z","stale":false,"bins":25,"density_birds_km3":22.1925,"heading_deg":181.37420523586533,"speed_ms":9.016529796102287,"peak_altitude_m":0.0,"u_ms":-0.09529429987608408,"v_ms":-8.744385208966994}}]}