{"type":"FeatureCollection","frame":"2026-09-21T11","site_count":20,"fresh_count":20,"failures":{},"features":[{"type":"Feature","geometry":{"type":"Point","coordinates":[-77.0073,36.984]},"properties":{"site":"KAKQ","name":"Wakefield VA","scan_time":"2026-09-21T10:57:05Z","stale":false,"bins":25,"density_birds_km3":0.1925,"heading_deg":158.2955103514069,"speed_ms":4.5587012987012985,"peak_altitude_m":200.0,"u_ms":1.0866233766233768,"v_ms":-4.011883116883117}},{"type":"Feature","geometry":{"type":"Point","coordinates":[-71.1369,41.9558]},"properties":{"site":"KBOX","name":"Boston MA","scan_time":"2026-09-21T11:00:17Z","stale":false,"bins":25,"density_birds_km3":2.123125,"heading_deg":225.06685722407443,"speed_ms":7.89,"peak_altitude_m":0.0,"u_ms":-5.596666666666667,"v_ms":-5.553333333333334}},{"type":"Feature","geometry":{"type":"Point","coordinates":[-78.7369,42.9489]},"properties":{"site":"KBUF","name":"Buffalo NY","scan_time":"2026-09-21T10:57:00Z","stale":false,"bins":25,"density_birds_km3":0.952,"heading_deg":230.88549865774704,"speed_ms":9.582373949579832,"peak_altitude_m":200.0,"u_ms":-7.449180672268908,"v_ms":-5.993529411764706}},{"type":"Feature","geometry":{"type":"Point","coordinates":[-81.8597,41.4131]},"properties":{"site":"KCLE","name":"Cleveland OH","scan_time":"2026-09-21T11:00:59Z","stale":false,"bins":25,"density_birds_km3":0.84,"heading_deg":238.22402784188276,"speed_ms":11.620488021295474,"peak_altitude_m":200.0,"u_ms":-9.939538598047914,"v_ms":-5.999210292812777}},{"type":"Feature","geometry":{"type":"Point","coordinates":[-81.0423,32.6555]},"properties":{"site":"KCLX","name":"Charleston SC","scan_time":"2026-09-21T11:01:30Z","stale":false,"bins":25,"density_birds_km3":1.723125,"heading_deg":173.54621426710753,"speed_ms":5.081244105912224,"peak_altitude_m":0.0,"u_ms":0.5756583242655059,"v_ms":-5.026779107725789}},{"type":"Feature","geometry":{"type":"Point","coordinates":[-74.4108,39.947]},"properties":{"site":"KDIX","name":"Philadelphia PA","scan_time":"2026-09-21T10:57:58Z","stale":false,"bins":25,"density_birds_km3":0.343125,"heading_deg":194.83574365342471,"speed_ms":10.138925318761384,"peak_altitude_m":200.0,"u_ms":-2.703333333333333,"v_ms":-9.69488160291439}},{"type":"Feature","geometry":{"type":"Point","coordinates":[-84.5658,33.3636]},"properties":{"site":"KFFC","name":"Atlanta GA","scan_time":"2026-09-21T11:02:29Z","stale":false,"bins":25,"density_birds_km3":1.422,"heading_deg":184.20206073633196,"speed_ms":2.2217862165963433,"peak_altitude_m":400.0,"u_ms":-0.4840693858415378,"v_ms":-1.8478527894983592}},{"type":"Feature","geometry":{"type":"Point","coordinates":[-85.5449,42.8939]},"properties":{"site":"KGRR","name":"Grand Rapids MI","scan_time":"2026-09-21T11:00:09Z","stale":false,"bins":25,"density_birds_km3":0.16466666666666668,"heading_deg":249.55970030362704,"speed_ms":10.672145748987855,"peak_altitude_m":200.0,"u_ms":-10.0334008097166,"v_ms":-3.469919028340081}},{"type":"Feature","geometry":{"type":"Point","coordinates":[-83.8217,39.4203]},"properties":{"site":"KILN","name":"Wilmington OH","scan_time":"2026-09-21T10:57:21Z","stale":false,"bins":25,"density_birds_km3":0.7528571428571428,"heading_deg":null,"speed_ms":null,"peak_altitude_m":400.0,"u_ms":null,"v_ms":null}},{"type":"Feature","geometry":{"type":"Point","coordinates":[-81.7019,30.4846]},"properties":{"site":"KJAX","name":"Jacksonville FL","scan_time":"2026-09-21T10:59:49Z","stale":false,"bins":25,"density_birds_km3":5.868125,"heading_deg":174.45629224336514,"speed_ms":8.476262249680444,"peak_altitude_m":0.0,"u_ms":0.8546367703451214,"v_ms":-8.399989348103963}},{"type":"Feature","geometry":{"type":"Point","coordinates":[-88.0847,41.6045]},"properties":{"site":"KLOT","name":"Chicago IL","scan_time":"2026-09-21T11:01:36Z","stale":false,"bins":25,"density_birds_km3":0.9233333333333333,"heading_deg":243.71944445631954,"speed_ms":9.549128758673861,"peak_altitude_m":200.0,"u_ms":-8.546198920585967,"v_ms":-3.9242945258288358}},{"type":"Feature","geometry":{"type":"Point","coordinates":[-78.4292,33.9892]},"properties":{"site":"KLTX","name":"Wilmington NC","scan_time":"2026-09-21T10:59:38Z","stale":false,"bins":25,"density_birds_km3":5.7725,"heading_deg":173.53805888717318,"speed_ms":5.406632012129088,"peak_altitude_m":200.0,"u_ms":0.5773965778644142,"v_ms":-5.249834307992202}},{"type":"Feature","geometry":{"type":"Point","coordinates":[-77.4778,38.9753]},"properties":{"site":"KLWX","name":"Sterling VA","scan_time":"2026-09-21T11:00:23Z","stale":false,"bins":25,"density_birds_km3":22.510625,"heading_deg":214.41573939192196,"speed_ms":10.515909318080853,"peak_altitude_m":400.0,"u_ms":-5.97004525766326,"v_ms":-8.642785428698357}},{"type":"Feature","geometry":{"type":"Point","coordinates":[-76.8762,34.7759]},"properties":{"site":"KMHX","name":"Morehead City NC","scan_time":"2026-09-21T11:00:01Z","stale":false,"bins":25,"density_birds_km3":0.990625,"heading_deg":166.93457417327508,"speed_ms":5.806441640378549,"peak_altitude_m":0.0,"u_ms":1.3200820189274447,"v_ms":-5.572574132492114}},{"type":"Feature","geometry":{"type":"Point","coordinates":[-80.6542,28.1133]},"properties":{"site":"KMLB","name":"Melbourne FL","scan_time":"2026-09-21T11:01:26Z","stale":false,"bins":25,"density_birds_km3":3.47625,"heading_deg":159.34920587424708,"speed_ms":2.207615965480043,"peak_altitude_m":200.0,"u_ms":0.42032182668105,"v_ms":-1.5373282991729593}},{"type":"Feature","geometry":{"type":"Point","coordinates":[-86.5625,36.2472]},"properties":{"site":"KOHX","name":"Nashville TN","scan_time":"2026-09-21T11:00:44Z","stale":false,"bins":25,"density_birds_km3":11.186666666666666,"heading_deg":84.2342695230321,"speed_ms":9.383606127436371,"peak_altitude_m":200.0,"u_ms":8.405701257674197,"v_ms":-0.010380282529653572}},{"type":"Feature","geometry":{"type":"Point","coordinates":[-72.8639,40.8655]},"properties":{"site":"KOKX","name":"Upton NY","scan_time":"2026-09-21T11:01:39Z","stale":false,"bins":25,"density_birds_km3":1.5375,"heading_deg":225.29999999999998,"speed_ms":8.13,"peak_altitude_m":0.0,"u_ms":-5.779999999999999,"v_ms":-5.71}},{"type":"Feature","geometry":{"type":"Point","coordinates":[-80.2183,40.5317]},"properties":{"site":"KPBZ","name":"Pittsburgh PA","scan_time":"2026-09-21T11:02:14Z","stale":false,"bins":25,"density_birds_km3":0.16714285714285712,"heading_deg":null,"speed_ms":null,"peak_altitude_m":400.0,"u_ms":null,"v_ms":null}},{"type":"Feature","geometry":{"type":"Point","coordinates":[-78.4899,35.6655]},"properties":{"site":"KRAX","name":"Raleigh NC","scan_time":"2026-09-21T11:00:05Z","stale":false,"bins":25,"density_birds_km3":2.4975,"heading_deg":87.39210366669923,"speed_ms":5.088851351351351,"peak_altitude_m":0.0,"u_ms":5.0411586586586585,"v_ms":0.3149449449449449}},{"type":"Feature","geometry":{"type":"Point","coordinates":[-82.4017,27.7055]},"properties":{"site":"KTBW","name":"Tampa FL","scan_time":"2026-09-21T10:57:59Z","stale":false,"bins":25,"density_birds_km3":2.71625,"heading_deg":264.86625339512216,"speed_ms":3.022495963091119,"peak_altitude_m":0.0,"u_ms":-2.75763321799308,"v_ms":-0.3003760092272203}}]}