{"type":"FeatureCollection","frame":"2026-09-20T02","site_count":20,"fresh_count":20,"failures":{},"features":[{"type":"Feature","geometry":{"type":"Point","coordinates":[-77.0073,36.984]},"properties":{"site":"KAKQ","name":"Wakefield VA","scan_time":"2026-09-20T02:01:34Z","stale":false,"bins":25,"density_birds_km3":26.85375,"heading_deg":244.38005429444416,"speed_ms":7.138436903598193,"peak_altitude_m":0.0,"u_ms":-5.364323418516967,"v_ms":-2.942309500535307}},{"type":"Feature","geometry":{"type":"Point","coordinates":[-71.1369,41.9558]},"properties":{"site":"KBOX","name":"Boston MA","scan_time":"2026-09-20T02:01:47Z","stale":false,"bins":25,"density_birds_km3":6.338125,"heading_deg":288.88607505835813,"speed_ms":5.419686390532544,"peak_altitude_m":200.0,"u_ms":-4.728401380670611,"v_ms":2.0671400394477315}},{"type":"Feature","geometry":{"type":"Point","coordinates":[-78.7369,42.9489]},"properties":{"site":"KBUF","name":"Buffalo NY","scan_time":"2026-09-20T02:01:38Z","stale":false,"bins":25,"density_birds_km3":3.7359999999999998,"heading_deg":304.12874522076186,"speed_ms":7.394416488222698,"peak_altitude_m":200.0,"u_ms":-5.875899357601714,"v_ms":3.170856531049251}},{"type":"Feature","geometry":{"type":"Point","coordinates":[-81.8597,41.4131]},"properties":{"site":"KCLE","name":"Cleveland OH","scan_time":"2026-09-20T01:57:46Z","stale":false,"bins":25,"density_birds_km3":12.740666666666668,"heading_deg":288.9996232912427,"speed_ms":7.136787135973182,"peak_altitude_m":400.0,"u_ms":-5.233517703750262,"v_ms":1.5063508275717579}},{"type":"Feature","geometry":{"type":"Point","coordinates":[-81.0423,32.6555]},"properties":{"site":"KCLX","name":"Charleston SC","scan_time":"2026-09-20T01:59:15Z","stale":false,"bins":25,"density_birds_km3":37.658125,"heading_deg":214.34226998693208,"speed_ms":8.08674497092829,"peak_altitude_m":200.0,"u_ms":-4.652548118692776,"v_ms":-6.266374223083607}},{"type":"Feature","geometry":{"type":"Point","coordinates":[-74.4108,39.947]},"properties":{"site":"KDIX","name":"Philadelphia PA","scan_time":"2026-09-20T02:02:42Z","stale":false,"bins":25,"density_birds_km3":4.55875,"heading_deg":307.8054976706445,"speed_ms":6.32279306549257,"peak_altitude_m":200.0,"u_ms":-4.827962300495322,"v_ms":3.296574023115025}},{"type":"Feature","geometry":{"type":"Point","coordinates":[-84.5658,33.3636]},"properties":{"site":"KFFC","name":"Atlanta GA","scan_time":"2026-09-20T01:57:48Z","stale":false,"bins":25,"density_birds_km3":267.0261538461539,"heading_deg":218.31254289732797,"speed_ms":6.556741425597011,"peak_altitude_m":2400.0,"u_ms":-4.007251839404428,"v_ms":-5.093210103836807}},{"type":"Feature","geometry":{"type":"Point","coordinates":[-85.5449,42.8939]},"properties":{"site":"KGRR","name":"Grand Rapids MI","scan_time":"2026-09-20T01:57:19Z","stale":false,"bins":25,"density_birds_km3":1.8893333333333333,"heading_deg":304.36871315793655,"speed_ms":4.2190822449699965,"peak_altitude_m":200.0,"u_ms":-3.2874832333215673,"v_ms":2.313349805859513}},{"type":"Feature","geometry":{"type":"Point","coordinates":[-83.8217,39.4203]},"properties":{"site":"KILN","name":"Wilmington OH","scan_time":"2026-09-20T02:01:13Z","stale":false,"bins":25,"density_birds_km3":26.703333333333333,"heading_deg":112.74076997775516,"speed_ms":6.157601867572156,"peak_altitude_m":200.0,"u_ms":4.471857585139319,"v_ms":-2.037520223709178}},{"type":"Feature","geometry":{"type":"Point","coordinates":[-81.7019,30.4846]},"properties":{"site":"KJAX","name":"Jacksonville FL","scan_time":"2026-09-20T01:58:52Z","stale":false,"bins":25,"density_birds_km3":23.361250000000002,"heading_deg":193.3527933686275,"speed_ms":11.919710257370644,"peak_altitude_m":1400.0,"u_ms":-1.7376047407565947,"v_ms":-11.527766600674193}},{"type":"Feature","geometry":{"type":"Point","coordinates":[-88.0847,41.6045]},"properties":{"site":"KLOT","name":"Chicago IL","scan_time":"2026-09-20T01:58:27Z","stale":false,"bins":25,"density_birds_km3":34.27,"heading_deg":null,"speed_ms":null,"peak_altitude_m":200.0,"u_ms":null,"v_ms":null}},{"type":"Feature","geometry":{"type":"Point","coordinates":[-78.4292,33.9892]},"properties":{"site":"KLTX","name":"Wilmington NC","scan_time":"2026-09-20T01:59:22Z","stale":false,"bins":25,"density_birds_km3":36.580625,"heading_deg":224.4567398657409,"speed_ms":11.597666797655865,"peak_altitude_m":0.0,"u_ms":-8.028875600129851,"v_ms":-8.022612038476652}},{"type":"Feature","geometry":{"type":"Point","coordinates":[-77.4778,38.9753]},"properties":{"site":"KLWX","name":"Sterling VA","scan_time":"2026-09-20T02:01:52Z","stale":false,"bins":25,"density_birds_km3":24.2625,"heading_deg":305.92867447036485,"speed_ms":8.04678985619298,"peak_altitude_m":200.0,"u_ms":-5.640221638059893,"v_ms":4.709340497912478}},{"type":"Feature","geometry":{"type":"Point","coordinates":[-76.8762,34.7759]},"properties":{"site":"KMHX","name":"Morehead City NC","scan_time":"2026-09-20T02:01:27Z","stale":false,"bins":25,"density_birds_km3":25.873749999999998,"heading_deg":209.60760242335962,"speed_ms":13.005593187583042,"peak_altitude_m":0.0,"u_ms":-6.119765189032491,"v_ms":-11.14019905785723}},{"type":"Feature","geometry":{"type":"Point","coordinates":[-80.6542,28.1133]},"properties":{"site":"KMLB","name":"Melbourne FL","scan_time":"2026-09-20T01:59:32Z","stale":false,"bins":25,"density_birds_km3":17.513125,"heading_deg":177.74836431481546,"speed_ms":8.669901498929336,"peak_altitude_m":200.0,"u_ms":0.3765067808708066,"v_ms":-8.629187366167024}},{"type":"Feature","geometry":{"type":"Point","coordinates":[-86.5625,36.2472]},"properties":{"site":"KOHX","name":"Nashville TN","scan_time":"2026-09-20T02:00:35Z","stale":false,"bins":25,"density_birds_km3":106.86333333333333,"heading_deg":359.66392105676226,"speed_ms":4.060947128731401,"peak_altitude_m":200.0,"u_ms":-0.2881301974484544,"v_ms":2.0950382731838175}},{"type":"Feature","geometry":{"type":"Point","coordinates":[-72.8639,40.8655]},"properties":{"site":"KOKX","name":"Upton NY","scan_time":"2026-09-20T01:56:29Z","stale":false,"bins":25,"density_birds_km3":3.410625,"heading_deg":266.05699023321813,"speed_ms":8.043876765083441,"peak_altitude_m":200.0,"u_ms":-7.770652851641298,"v_ms":-0.21715019255455714}},{"type":"Feature","geometry":{"type":"Point","coordinates":[-80.2183,40.5317]},"properties":{"site":"KPBZ","name":"Pittsburgh PA","scan_time":"2026-09-20T01:59:18Z","stale":false,"bins":25,"density_birds_km3":17.003571428571426,"heading_deg":292.23665349588265,"speed_ms":7.330440793343978,"peak_altitude_m":400.0,"u_ms":-4.3954731490041175,"v_ms":1.9636061853937308}},{"type":"Feature","geometry":{"type":"Point","coordinates":[-78.4899,35.6655]},"properties":{"site":"KRAX","name":"Raleigh NC","scan_time":"2026-09-20T01:59:42Z","stale":false,"bins":25,"density_birds_km3":55.7725,"heading_deg":266.6236979122557,"speed_ms":8.039771948162883,"peak_altitude_m":200.0,"u_ms":-7.02160951321217,"v_ms":-0.2804201368985399}},{"type":"Feature","geometry":{"type":"Point","coordinates":[-82.4017,27.7055]},"properties":{"site":"KTBW","name":"Tampa FL","scan_time":"2026-09-20T02:01:46Z","stale":false,"bins":25,"density_birds_km3":14.753125,"heading_deg":227.52695162332222,"speed_ms":6.3636589705570845,"peak_altitude_m":0.0,"u_ms":-4.440898114806186,"v_ms":-4.2844126244439735}}]}