{"type":"FeatureCollection","frame":"2026-08-30T01","site_count":20,"fresh_count":20,"failures":{},"features":[{"type":"Feature","geometry":{"type":"Point","coordinates":[-77.0073,36.984]},"properties":{"site":"KAKQ","name":"Wakefield VA","scan_time":"2026-08-30T00:56:12Z","stale":false,"bins":25,"density_birds_km3":25.1,"heading_deg":242.79351799041223,"speed_ms":5.771343057548223,"peak_altitude_m":200.0,"u_ms":-4.801183909878315,"v_ms":-2.5662370476645946}},{"type":"Feature","geometry":{"type":"Point","coordinates":[-71.1369,41.9558]},"properties":{"site":"KBOX","name":"Boston MA","scan_time":"2026-08-30T01:00:30Z","stale":false,"bins":25,"density_birds_km3":10.18125,"heading_deg":138.4142095334342,"speed_ms":6.755443488943489,"peak_altitude_m":0.0,"u_ms":2.2051455773955775,"v_ms":-3.607189803439803}},{"type":"Feature","geometry":{"type":"Point","coordinates":[-78.7369,42.9489]},"properties":{"site":"KBUF","name":"Buffalo NY","scan_time":"2026-08-30T00:58:17Z","stale":false,"bins":25,"density_birds_km3":2.572,"heading_deg":46.854503079931995,"speed_ms":7.163216692586833,"peak_altitude_m":200.0,"u_ms":5.207185069984448,"v_ms":4.762218766200103}},{"type":"Feature","geometry":{"type":"Point","coordinates":[-81.8597,41.4131]},"properties":{"site":"KCLE","name":"Cleveland OH","scan_time":"2026-08-30T00:58:42Z","stale":false,"bins":25,"density_birds_km3":4.206666666666667,"heading_deg":327.0478545732949,"speed_ms":3.033741874108134,"peak_altitude_m":200.0,"u_ms":-1.3608530204534646,"v_ms":2.347385444743935}},{"type":"Feature","geometry":{"type":"Point","coordinates":[-81.0423,32.6555]},"properties":{"site":"KCLX","name":"Charleston SC","scan_time":"2026-08-30T01:01:41Z","stale":false,"bins":25,"density_birds_km3":11.92625,"heading_deg":261.78008682271656,"speed_ms":6.329383125427655,"peak_altitude_m":0.0,"u_ms":-6.102365387651982,"v_ms":-0.8586530870045793}},{"type":"Feature","geometry":{"type":"Point","coordinates":[-74.4108,39.947]},"properties":{"site":"KDIX","name":"Philadelphia PA","scan_time":"2026-08-30T00:59:07Z","stale":false,"bins":25,"density_birds_km3":21.17875,"heading_deg":206.72269335594794,"speed_ms":6.805185097645287,"peak_altitude_m":0.0,"u_ms":-0.8085989895707153,"v_ms":-3.2108278429402906}},{"type":"Feature","geometry":{"type":"Point","coordinates":[-84.5658,33.3636]},"properties":{"site":"KFFC","name":"Atlanta GA","scan_time":"2026-08-30T00:59:16Z","stale":false,"bins":25,"density_birds_km3":17.710666666666665,"heading_deg":281.8988593502174,"speed_ms":4.808430662441527,"peak_altitude_m":200.0,"u_ms":-4.411250188622303,"v_ms":0.9628764901161914}},{"type":"Feature","geometry":{"type":"Point","coordinates":[-85.5449,42.8939]},"properties":{"site":"KGRR","name":"Grand Rapids MI","scan_time":"2026-08-30T00:57:02Z","stale":false,"bins":25,"density_birds_km3":2.8013333333333335,"heading_deg":6.958036443780381,"speed_ms":6.120626638074816,"peak_altitude_m":200.0,"u_ms":0.7624922563736002,"v_ms":6.06177746009054}},{"type":"Feature","geometry":{"type":"Point","coordinates":[-83.8217,39.4203]},"properties":{"site":"KILN","name":"Wilmington OH","scan_time":"2026-08-30T00:56:32Z","stale":false,"bins":25,"density_birds_km3":2.8853333333333335,"heading_deg":336.5425404053196,"speed_ms":4.392936691312385,"peak_altitude_m":200.0,"u_ms":-1.7677888170055454,"v_ms":3.328209334565619}},{"type":"Feature","geometry":{"type":"Point","coordinates":[-81.7019,30.4846]},"properties":{"site":"KJAX","name":"Jacksonville FL","scan_time":"2026-08-30T00:58:16Z","stale":false,"bins":25,"density_birds_km3":48.324375,"heading_deg":240.37845128711876,"speed_ms":5.770274779872477,"peak_altitude_m":200.0,"u_ms":-5.01200433354495,"v_ms":-2.8137010406028318}},{"type":"Feature","geometry":{"type":"Point","coordinates":[-88.0847,41.6045]},"properties":{"site":"KLOT","name":"Chicago IL","scan_time":"2026-08-30T00:57:49Z","stale":false,"bins":25,"density_birds_km3":1.108,"heading_deg":355.47303747809394,"speed_ms":10.404663056558363,"peak_altitude_m":200.0,"u_ms":-0.6963056558363417,"v_ms":10.30699759326113}},{"type":"Feature","geometry":{"type":"Point","coordinates":[-78.4292,33.9892]},"properties":{"site":"KLTX","name":"Wilmington NC","scan_time":"2026-08-30T00:58:36Z","stale":false,"bins":25,"density_birds_km3":9.673124999999999,"heading_deg":241.2178015569574,"speed_ms":6.0499702707942875,"peak_altitude_m":200.0,"u_ms":-5.265611064434822,"v_ms":-2.8763109933432434}},{"type":"Feature","geometry":{"type":"Point","coordinates":[-77.4778,38.9753]},"properties":{"site":"KLWX","name":"Sterling VA","scan_time":"2026-08-30T01:00:20Z","stale":false,"bins":25,"density_birds_km3":43.665,"heading_deg":261.35611505465636,"speed_ms":4.061515813063889,"peak_altitude_m":200.0,"u_ms":-3.412249183748382,"v_ms":-0.5308268773787215}},{"type":"Feature","geometry":{"type":"Point","coordinates":[-76.8762,34.7759]},"properties":{"site":"KMHX","name":"Morehead City NC","scan_time":"2026-08-30T01:01:23Z","stale":false,"bins":25,"density_birds_km3":20.339375,"heading_deg":221.754125351701,"speed_ms":6.469846305176443,"peak_altitude_m":0.0,"u_ms":-4.112855649821714,"v_ms":-4.904754395671954}},{"type":"Feature","geometry":{"type":"Point","coordinates":[-80.6542,28.1133]},"properties":{"site":"KMLB","name":"Melbourne FL","scan_time":"2026-08-30T01:01:43Z","stale":false,"bins":25,"density_birds_km3":15.206875,"heading_deg":212.1066772769292,"speed_ms":4.252335017282637,"peak_altitude_m":0.0,"u_ms":-2.2578633342196226,"v_ms":-3.5960138261100765}},{"type":"Feature","geometry":{"type":"Point","coordinates":[-86.5625,36.2472]},"properties":{"site":"KOHX","name":"Nashville TN","scan_time":"2026-08-30T00:58:12Z","stale":false,"bins":25,"density_birds_km3":13.923333333333334,"heading_deg":211.81842939245212,"speed_ms":4.201867368925066,"peak_altitude_m":200.0,"u_ms":-2.0876016279626524,"v_ms":-3.4845353124251854}},{"type":"Feature","geometry":{"type":"Point","coordinates":[-72.8639,40.8655]},"properties":{"site":"KOKX","name":"Upton NY","scan_time":"2026-08-30T00:58:31Z","stale":false,"bins":25,"density_birds_km3":16.82,"heading_deg":183.72134157364422,"speed_ms":7.479722520883302,"peak_altitude_m":1400.0,"u_ms":-0.7386903481928707,"v_ms":-6.5811194276734755}},{"type":"Feature","geometry":{"type":"Point","coordinates":[-80.2183,40.5317]},"properties":{"site":"KPBZ","name":"Pittsburgh PA","scan_time":"2026-08-30T01:00:12Z","stale":false,"bins":25,"density_birds_km3":4.463571428571429,"heading_deg":261.3740396461531,"speed_ms":3.0556649063850214,"peak_altitude_m":400.0,"u_ms":-1.3122691630660908,"v_ms":-0.2532837253960635}},{"type":"Feature","geometry":{"type":"Point","coordinates":[-78.4899,35.6655]},"properties":{"site":"KRAX","name":"Raleigh NC","scan_time":"2026-08-30T00:58:25Z","stale":false,"bins":25,"density_birds_km3":23.375,"heading_deg":273.23416190532373,"speed_ms":5.568585421272415,"peak_altitude_m":200.0,"u_ms":-5.439803488086466,"v_ms":0.2810728322279538}},{"type":"Feature","geometry":{"type":"Point","coordinates":[-82.4017,27.7055]},"properties":{"site":"KTBW","name":"Tampa FL","scan_time":"2026-08-30T00:57:50Z","stale":false,"bins":25,"density_birds_km3":9.702499999999999,"heading_deg":275.7757207446016,"speed_ms":2.885597139912394,"peak_altitude_m":0.0,"u_ms":-2.6228336768874003,"v_ms":-0.21097655243493954}}]}