{"type":"FeatureCollection","frame":"2026-09-03T06","site_count":20,"fresh_count":20,"failures":{},"features":[{"type":"Feature","geometry":{"type":"Point","coordinates":[-77.0073,36.984]},"properties":{"site":"KAKQ","name":"Wakefield VA","scan_time":"2026-09-03T05:58:45Z","stale":false,"bins":25,"density_birds_km3":10.1525,"heading_deg":267.6078798592172,"speed_ms":3.244285890174834,"peak_altitude_m":0.0,"u_ms":-0.5110329967988181,"v_ms":-0.9224538291061315}},{"type":"Feature","geometry":{"type":"Point","coordinates":[-71.1369,41.9558]},"properties":{"site":"KBOX","name":"Boston MA","scan_time":"2026-09-03T06:02:07Z","stale":false,"bins":25,"density_birds_km3":0.43625,"heading_deg":322.9991929103307,"speed_ms":5.032463126843658,"peak_altitude_m":0.0,"u_ms":-2.6127286135693217,"v_ms":3.901607669616519}},{"type":"Feature","geometry":{"type":"Point","coordinates":[-78.7369,42.9489]},"properties":{"site":"KBUF","name":"Buffalo NY","scan_time":"2026-09-03T05:58:36Z","stale":false,"bins":25,"density_birds_km3":10.667333333333335,"heading_deg":122.79213896146547,"speed_ms":11.933266045872132,"peak_altitude_m":800.0,"u_ms":9.05732516717705,"v_ms":-6.209763764764701}},{"type":"Feature","geometry":{"type":"Point","coordinates":[-81.8597,41.4131]},"properties":{"site":"KCLE","name":"Cleveland OH","scan_time":"2026-09-03T05:59:47Z","stale":false,"bins":25,"density_birds_km3":10.132666666666667,"heading_deg":154.35947989263218,"speed_ms":10.274414106191195,"peak_altitude_m":400.0,"u_ms":4.92607013619317,"v_ms":-8.373273241660636}},{"type":"Feature","geometry":{"type":"Point","coordinates":[-81.0423,32.6555]},"properties":{"site":"KCLX","name":"Charleston SC","scan_time":"2026-09-03T06:00:56Z","stale":false,"bins":25,"density_birds_km3":4.769375,"heading_deg":272.67292090180126,"speed_ms":5.5462498347653675,"peak_altitude_m":0.0,"u_ms":-4.139892927957701,"v_ms":-2.2555413086582954}},{"type":"Feature","geometry":{"type":"Point","coordinates":[-74.4108,39.947]},"properties":{"site":"KDIX","name":"Philadelphia PA","scan_time":"2026-09-03T05:58:50Z","stale":false,"bins":25,"density_birds_km3":2.208666666666667,"heading_deg":190.2145338214738,"speed_ms":1.4767598908594817,"peak_altitude_m":200.0,"u_ms":-0.23881309686221008,"v_ms":-1.3341950886766711}},{"type":"Feature","geometry":{"type":"Point","coordinates":[-84.5658,33.3636]},"properties":{"site":"KFFC","name":"Atlanta GA","scan_time":"2026-09-03T06:02:00Z","stale":false,"bins":25,"density_birds_km3":20.076666666666668,"heading_deg":272.9200278771532,"speed_ms":6.364883944877968,"peak_altitude_m":1600.0,"u_ms":-3.836573468371243,"v_ms":-1.6728743151253525}},{"type":"Feature","geometry":{"type":"Point","coordinates":[-85.5449,42.8939]},"properties":{"site":"KGRR","name":"Grand Rapids MI","scan_time":"2026-09-03T05:59:30Z","stale":false,"bins":25,"density_birds_km3":93.87933333333334,"heading_deg":170.57120048731775,"speed_ms":8.09071339804998,"peak_altitude_m":400.0,"u_ms":2.1005429665030997,"v_ms":-7.111934185017647}},{"type":"Feature","geometry":{"type":"Point","coordinates":[-83.8217,39.4203]},"properties":{"site":"KILN","name":"Wilmington OH","scan_time":"2026-09-03T06:00:51Z","stale":false,"bins":25,"density_birds_km3":7.592666666666667,"heading_deg":124.99849807786606,"speed_ms":9.915515848625867,"peak_altitude_m":1600.0,"u_ms":7.32014926683642,"v_ms":-4.8818509087716215}},{"type":"Feature","geometry":{"type":"Point","coordinates":[-81.7019,30.4846]},"properties":{"site":"KJAX","name":"Jacksonville FL","scan_time":"2026-09-03T05:59:20Z","stale":false,"bins":25,"density_birds_km3":13.550625000000002,"heading_deg":201.2941205249437,"speed_ms":9.43555693925557,"peak_altitude_m":0.0,"u_ms":-3.405896406992297,"v_ms":-8.768839536921728}},{"type":"Feature","geometry":{"type":"Point","coordinates":[-88.0847,41.6045]},"properties":{"site":"KLOT","name":"Chicago IL","scan_time":"2026-09-03T05:59:28Z","stale":false,"bins":25,"density_birds_km3":27.644000000000002,"heading_deg":110.4960368641154,"speed_ms":10.016381613852312,"peak_altitude_m":200.0,"u_ms":8.724426035788357,"v_ms":-3.7361549221048564}},{"type":"Feature","geometry":{"type":"Point","coordinates":[-78.4292,33.9892]},"properties":{"site":"KLTX","name":"Wilmington NC","scan_time":"2026-09-03T06:01:07Z","stale":false,"bins":25,"density_birds_km3":6.5375,"heading_deg":226.2256850602847,"speed_ms":7.347019585030057,"peak_altitude_m":0.0,"u_ms":-2.6737618770603064,"v_ms":-4.113668799689742}},{"type":"Feature","geometry":{"type":"Point","coordinates":[-77.4778,38.9753]},"properties":{"site":"KLWX","name":"Sterling VA","scan_time":"2026-09-03T06:00:40Z","stale":false,"bins":25,"density_birds_km3":7.703125,"heading_deg":318.4731198626523,"speed_ms":6.004055170135448,"peak_altitude_m":200.0,"u_ms":-2.478613313511728,"v_ms":3.2039585398083914}},{"type":"Feature","geometry":{"type":"Point","coordinates":[-76.8762,34.7759]},"properties":{"site":"KMHX","name":"Morehead City NC","scan_time":"2026-09-03T06:00:59Z","stale":false,"bins":25,"density_birds_km3":3.74875,"heading_deg":156.16117562309242,"speed_ms":6.574293577981651,"peak_altitude_m":0.0,"u_ms":0.37231025854879063,"v_ms":-3.279149291075896}},{"type":"Feature","geometry":{"type":"Point","coordinates":[-80.6542,28.1133]},"properties":{"site":"KMLB","name":"Melbourne FL","scan_time":"2026-09-03T06:00:46Z","stale":false,"bins":25,"density_birds_km3":2.009375,"heading_deg":269.3467348340984,"speed_ms":2.424898911353033,"peak_altitude_m":0.0,"u_ms":-2.339315707620529,"v_ms":0.1149362363919129}},{"type":"Feature","geometry":{"type":"Point","coordinates":[-86.5625,36.2472]},"properties":{"site":"KOHX","name":"Nashville TN","scan_time":"2026-09-03T05:59:56Z","stale":false,"bins":25,"density_birds_km3":19.028666666666666,"heading_deg":251.94723525742717,"speed_ms":2.871286830396244,"peak_altitude_m":200.0,"u_ms":-1.9430928774130258,"v_ms":-0.4464166345513786}},{"type":"Feature","geometry":{"type":"Point","coordinates":[-72.8639,40.8655]},"properties":{"site":"KOKX","name":"Upton NY","scan_time":"2026-09-03T05:57:18Z","stale":false,"bins":25,"density_birds_km3":1.7581250000000002,"heading_deg":351.422883782218,"speed_ms":5.15062015503876,"peak_altitude_m":200.0,"u_ms":-0.5389147286821705,"v_ms":5.038992248062015}},{"type":"Feature","geometry":{"type":"Point","coordinates":[-80.2183,40.5317]},"properties":{"site":"KPBZ","name":"Pittsburgh PA","scan_time":"2026-09-03T06:01:18Z","stale":false,"bins":25,"density_birds_km3":4.996428571428572,"heading_deg":101.2131748130993,"speed_ms":12.606305339020446,"peak_altitude_m":400.0,"u_ms":11.827637887924697,"v_ms":-2.827974702162083}},{"type":"Feature","geometry":{"type":"Point","coordinates":[-78.4899,35.6655]},"properties":{"site":"KRAX","name":"Raleigh NC","scan_time":"2026-09-03T06:03:18Z","stale":false,"bins":25,"density_birds_km3":13.780000000000001,"heading_deg":117.37366188007452,"speed_ms":6.489353760190529,"peak_altitude_m":0.0,"u_ms":0.6713804158651643,"v_ms":-1.7858440963634696}},{"type":"Feature","geometry":{"type":"Point","coordinates":[-82.4017,27.7055]},"properties":{"site":"KTBW","name":"Tampa FL","scan_time":"2026-09-03T06:00:02Z","stale":false,"bins":25,"density_birds_km3":8.459375,"heading_deg":226.040127831894,"speed_ms":4.6019017362393795,"peak_altitude_m":0.0,"u_ms":-2.435863317325453,"v_ms":-2.5218588843738456}}]}