{"type":"FeatureCollection","frame":"2026-08-30T09","site_count":20,"fresh_count":20,"failures":{},"features":[{"type":"Feature","geometry":{"type":"Point","coordinates":[-77.0073,36.984]},"properties":{"site":"KAKQ","name":"Wakefield VA","scan_time":"2026-08-30T09:02:10Z","stale":false,"bins":25,"density_birds_km3":9.709999999999999,"heading_deg":227.98667768450753,"speed_ms":8.064707764644421,"peak_altitude_m":0.0,"u_ms":-5.728227649709397,"v_ms":-5.538306014497485}},{"type":"Feature","geometry":{"type":"Point","coordinates":[-71.1369,41.9558]},"properties":{"site":"KBOX","name":"Boston MA","scan_time":"2026-08-30T08:58:43Z","stale":false,"bins":25,"density_birds_km3":0.908125,"heading_deg":62.02963109526651,"speed_ms":8.073778705636743,"peak_altitude_m":0.0,"u_ms":6.959088378566459,"v_ms":3.712045929018789}},{"type":"Feature","geometry":{"type":"Point","coordinates":[-78.7369,42.9489]},"properties":{"site":"KBUF","name":"Buffalo NY","scan_time":"2026-08-30T09:02:36Z","stale":false,"bins":25,"density_birds_km3":0.4613333333333333,"heading_deg":51.4324994992981,"speed_ms":7.409579100145138,"peak_altitude_m":200.0,"u_ms":5.582568940493468,"v_ms":4.282699564586357}},{"type":"Feature","geometry":{"type":"Point","coordinates":[-81.8597,41.4131]},"properties":{"site":"KCLE","name":"Cleveland OH","scan_time":"2026-08-30T09:00:50Z","stale":false,"bins":25,"density_birds_km3":0.5660000000000001,"heading_deg":36.07574193552526,"speed_ms":8.20183950617284,"peak_altitude_m":200.0,"u_ms":4.817135802469136,"v_ms":6.44}},{"type":"Feature","geometry":{"type":"Point","coordinates":[-81.0423,32.6555]},"properties":{"site":"KCLX","name":"Charleston SC","scan_time":"2026-08-30T09:01:57Z","stale":false,"bins":25,"density_birds_km3":9.945,"heading_deg":219.08085993051156,"speed_ms":11.393564200867324,"peak_altitude_m":0.0,"u_ms":-7.146118408648105,"v_ms":-8.860894978316887}},{"type":"Feature","geometry":{"type":"Point","coordinates":[-74.4108,39.947]},"properties":{"site":"KDIX","name":"Philadelphia PA","scan_time":"2026-08-30T09:02:24Z","stale":false,"bins":25,"density_birds_km3":3.118125,"heading_deg":111.12610985363683,"speed_ms":2.84472306143001,"peak_altitude_m":0.0,"u_ms":1.3949486404833835,"v_ms":-0.6016535750251761}},{"type":"Feature","geometry":{"type":"Point","coordinates":[-84.5658,33.3636]},"properties":{"site":"KFFC","name":"Atlanta GA","scan_time":"2026-08-30T08:56:37Z","stale":false,"bins":25,"density_birds_km3":12.175333333333333,"heading_deg":246.9059991598833,"speed_ms":6.184226578327768,"peak_altitude_m":200.0,"u_ms":-5.642582270163719,"v_ms":-2.3961649236160545}},{"type":"Feature","geometry":{"type":"Point","coordinates":[-85.5449,42.8939]},"properties":{"site":"KGRR","name":"Grand Rapids MI","scan_time":"2026-08-30T09:00:00Z","stale":false,"bins":25,"density_birds_km3":0.4871428571428571,"heading_deg":null,"speed_ms":null,"peak_altitude_m":200.0,"u_ms":null,"v_ms":null}},{"type":"Feature","geometry":{"type":"Point","coordinates":[-83.8217,39.4203]},"properties":{"site":"KILN","name":"Wilmington OH","scan_time":"2026-08-30T08:57:06Z","stale":false,"bins":25,"density_birds_km3":0.7346666666666667,"heading_deg":16.658256842443592,"speed_ms":7.885410447761194,"peak_altitude_m":200.0,"u_ms":2.2315111940298507,"v_ms":6.760699626865671}},{"type":"Feature","geometry":{"type":"Point","coordinates":[-81.7019,30.4846]},"properties":{"site":"KJAX","name":"Jacksonville FL","scan_time":"2026-08-30T09:00:40Z","stale":false,"bins":25,"density_birds_km3":19.973125,"heading_deg":195.9829777201005,"speed_ms":10.076781209902043,"peak_altitude_m":0.0,"u_ms":-2.767854661534128,"v_ms":-9.656318655525302}},{"type":"Feature","geometry":{"type":"Point","coordinates":[-88.0847,41.6045]},"properties":{"site":"KLOT","name":"Chicago IL","scan_time":"2026-08-30T08:57:50Z","stale":false,"bins":25,"density_birds_km3":0.8953333333333333,"heading_deg":40.77303613813031,"speed_ms":15.984430379746835,"peak_altitude_m":600.0,"u_ms":10.312494415487715,"v_ms":11.694229337304542}},{"type":"Feature","geometry":{"type":"Point","coordinates":[-78.4292,33.9892]},"properties":{"site":"KLTX","name":"Wilmington NC","scan_time":"2026-08-30T09:02:36Z","stale":false,"bins":25,"density_birds_km3":15.981875,"heading_deg":236.59620381967187,"speed_ms":8.946785812052715,"peak_altitude_m":0.0,"u_ms":-7.4203863751906445,"v_ms":-4.947005983340503}},{"type":"Feature","geometry":{"type":"Point","coordinates":[-77.4778,38.9753]},"properties":{"site":"KLWX","name":"Sterling VA","scan_time":"2026-08-30T08:58:54Z","stale":false,"bins":25,"density_birds_km3":2.935,"heading_deg":353.93450893956253,"speed_ms":4.649378761822871,"peak_altitude_m":200.0,"u_ms":-0.06550300945829757,"v_ms":4.412457007738607}},{"type":"Feature","geometry":{"type":"Point","coordinates":[-76.8762,34.7759]},"properties":{"site":"KMHX","name":"Morehead City NC","scan_time":"2026-08-30T09:00:20Z","stale":false,"bins":25,"density_birds_km3":3.966875,"heading_deg":220.93819383192653,"speed_ms":5.148912700913962,"peak_altitude_m":0.0,"u_ms":-3.256563189410653,"v_ms":-3.9258414749448467}},{"type":"Feature","geometry":{"type":"Point","coordinates":[-80.6542,28.1133]},"properties":{"site":"KMLB","name":"Melbourne FL","scan_time":"2026-08-30T09:02:54Z","stale":false,"bins":25,"density_birds_km3":1.524375,"heading_deg":227.41370933354634,"speed_ms":3.028753587535875,"peak_altitude_m":0.0,"u_ms":-2.249360393603936,"v_ms":-1.8750881508815087}},{"type":"Feature","geometry":{"type":"Point","coordinates":[-86.5625,36.2472]},"properties":{"site":"KOHX","name":"Nashville TN","scan_time":"2026-08-30T09:03:13Z","stale":false,"bins":25,"density_birds_km3":7.616,"heading_deg":17.92299562055303,"speed_ms":5.643908931698774,"peak_altitude_m":200.0,"u_ms":2.116357267950963,"v_ms":5.006591943957968}},{"type":"Feature","geometry":{"type":"Point","coordinates":[-72.8639,40.8655]},"properties":{"site":"KOKX","name":"Upton NY","scan_time":"2026-08-30T09:02:20Z","stale":false,"bins":25,"density_birds_km3":0.5443749999999999,"heading_deg":72.63154145859104,"speed_ms":7.538317647058824,"peak_altitude_m":0.0,"u_ms":6.856776470588236,"v_ms":2.4260470588235292}},{"type":"Feature","geometry":{"type":"Point","coordinates":[-80.2183,40.5317]},"properties":{"site":"KPBZ","name":"Pittsburgh PA","scan_time":"2026-08-30T09:01:06Z","stale":false,"bins":25,"density_birds_km3":1.3171428571428572,"heading_deg":82.05930602861038,"speed_ms":5.47382863340564,"peak_altitude_m":400.0,"u_ms":5.389045553145336,"v_ms":0.5108568329718005}},{"type":"Feature","geometry":{"type":"Point","coordinates":[-78.4899,35.6655]},"properties":{"site":"KRAX","name":"Raleigh NC","scan_time":"2026-08-30T09:02:36Z","stale":false,"bins":25,"density_birds_km3":13.740625,"heading_deg":206.54794490243447,"speed_ms":6.169515204732415,"peak_altitude_m":200.0,"u_ms":-2.7396543118587666,"v_ms":-5.510584619650615}},{"type":"Feature","geometry":{"type":"Point","coordinates":[-82.4017,27.7055]},"properties":{"site":"KTBW","name":"Tampa FL","scan_time":"2026-08-30T09:01:37Z","stale":false,"bins":25,"density_birds_km3":5.1518749999999995,"heading_deg":244.04738915431932,"speed_ms":4.589941747572816,"peak_altitude_m":0.0,"u_ms":-3.7831541262135926,"v_ms":-1.682756067961165}}]}