{"type":"FeatureCollection","frame":"2026-09-18T10","site_count":20,"fresh_count":20,"failures":{},"features":[{"type":"Feature","geometry":{"type":"Point","coordinates":[-77.0073,36.984]},"properties":{"site":"KAKQ","name":"Wakefield VA","scan_time":"2026-09-18T10:00:54Z","stale":false,"bins":25,"density_birds_km3":3.34875,"heading_deg":155.93308531911427,"speed_ms":8.928477043673013,"peak_altitude_m":200.0,"u_ms":2.831922359089212,"v_ms":-8.166250466592013}},{"type":"Feature","geometry":{"type":"Point","coordinates":[-71.1369,41.9558]},"properties":{"site":"KBOX","name":"Boston MA","scan_time":"2026-09-18T10:01:02Z","stale":false,"bins":25,"density_birds_km3":0.60125,"heading_deg":189.1703228065777,"speed_ms":5.165925155925156,"peak_altitude_m":0.0,"u_ms":-0.7358627858627859,"v_ms":-5.0591060291060295}},{"type":"Feature","geometry":{"type":"Point","coordinates":[-78.7369,42.9489]},"properties":{"site":"KBUF","name":"Buffalo NY","scan_time":"2026-09-18T09:58:29Z","stale":false,"bins":25,"density_birds_km3":6.116,"heading_deg":185.484707228465,"speed_ms":8.614988009592327,"peak_altitude_m":200.0,"u_ms":-1.2750784826684107,"v_ms":-8.334781992587748}},{"type":"Feature","geometry":{"type":"Point","coordinates":[-81.8597,41.4131]},"properties":{"site":"KCLE","name":"Cleveland OH","scan_time":"2026-09-18T09:57:58Z","stale":false,"bins":25,"density_birds_km3":13.696,"heading_deg":214.5151666482049,"speed_ms":10.873067562305296,"peak_altitude_m":400.0,"u_ms":-6.1768088006230535,"v_ms":-8.826148753894081}},{"type":"Feature","geometry":{"type":"Point","coordinates":[-81.0423,32.6555]},"properties":{"site":"KCLX","name":"Charleston SC","scan_time":"2026-09-18T09:58:34Z","stale":false,"bins":25,"density_birds_km3":4.5875,"heading_deg":160.9551540858273,"speed_ms":6.439462995774839,"peak_altitude_m":0.0,"u_ms":1.2740357094180181,"v_ms":-5.80080550633774}},{"type":"Feature","geometry":{"type":"Point","coordinates":[-74.4108,39.947]},"properties":{"site":"KDIX","name":"Philadelphia PA","scan_time":"2026-09-18T09:59:35Z","stale":false,"bins":25,"density_birds_km3":0.66625,"heading_deg":171.7116006319917,"speed_ms":8.247579737335833,"peak_altitude_m":0.0,"u_ms":0.5828330206378988,"v_ms":-7.818958724202626}},{"type":"Feature","geometry":{"type":"Point","coordinates":[-84.5658,33.3636]},"properties":{"site":"KFFC","name":"Atlanta GA","scan_time":"2026-09-18T09:59:26Z","stale":false,"bins":25,"density_birds_km3":55.593333333333334,"heading_deg":165.3723167612099,"speed_ms":7.420811728024943,"peak_altitude_m":400.0,"u_ms":0.8675835232042209,"v_ms":-6.563191269936443}},{"type":"Feature","geometry":{"type":"Point","coordinates":[-85.5449,42.8939]},"properties":{"site":"KGRR","name":"Grand Rapids MI","scan_time":"2026-09-18T10:01:11Z","stale":false,"bins":25,"density_birds_km3":14.327333333333334,"heading_deg":205.85415810887912,"speed_ms":6.818506073439755,"peak_altitude_m":200.0,"u_ms":-3.290391399450831,"v_ms":-5.798165867733979}},{"type":"Feature","geometry":{"type":"Point","coordinates":[-83.8217,39.4203]},"properties":{"site":"KILN","name":"Wilmington OH","scan_time":"2026-09-18T10:02:23Z","stale":false,"bins":25,"density_birds_km3":14.252666666666666,"heading_deg":189.31079740637784,"speed_ms":7.094736325569222,"peak_altitude_m":200.0,"u_ms":-0.6643934833813137,"v_ms":-6.859290107301754}},{"type":"Feature","geometry":{"type":"Point","coordinates":[-81.7019,30.4846]},"properties":{"site":"KJAX","name":"Jacksonville FL","scan_time":"2026-09-18T10:02:19Z","stale":false,"bins":25,"density_birds_km3":7.625,"heading_deg":203.96872259844181,"speed_ms":11.888227868852457,"peak_altitude_m":0.0,"u_ms":-4.848715573770491,"v_ms":-10.847715573770492}},{"type":"Feature","geometry":{"type":"Point","coordinates":[-88.0847,41.6045]},"properties":{"site":"KLOT","name":"Chicago IL","scan_time":"2026-09-18T10:02:17Z","stale":false,"bins":25,"density_birds_km3":27.45066666666667,"heading_deg":198.32930029223712,"speed_ms":12.156816304717486,"peak_altitude_m":200.0,"u_ms":-3.4298770830296847,"v_ms":-10.433990186075889}},{"type":"Feature","geometry":{"type":"Point","coordinates":[-78.4292,33.9892]},"properties":{"site":"KLTX","name":"Wilmington NC","scan_time":"2026-09-18T10:00:01Z","stale":false,"bins":25,"density_birds_km3":1.946875,"heading_deg":105.54893221996717,"speed_ms":7.183092485549133,"peak_altitude_m":200.0,"u_ms":5.798644829800899,"v_ms":-1.7220648683365445}},{"type":"Feature","geometry":{"type":"Point","coordinates":[-77.4778,38.9753]},"properties":{"site":"KLWX","name":"Sterling VA","scan_time":"2026-09-18T09:57:47Z","stale":false,"bins":25,"density_birds_km3":13.5725,"heading_deg":197.0781886665047,"speed_ms":9.241896208508866,"peak_altitude_m":600.0,"u_ms":-3.0962210082866535,"v_ms":-8.517174667839452}},{"type":"Feature","geometry":{"type":"Point","coordinates":[-76.8762,34.7759]},"properties":{"site":"KMHX","name":"Morehead City NC","scan_time":"2026-09-18T09:58:50Z","stale":false,"bins":25,"density_birds_km3":1.165625,"heading_deg":83.25074312653186,"speed_ms":7.750900804289546,"peak_altitude_m":200.0,"u_ms":6.92008579088472,"v_ms":1.196750670241287}},{"type":"Feature","geometry":{"type":"Point","coordinates":[-80.6542,28.1133]},"properties":{"site":"KMLB","name":"Melbourne FL","scan_time":"2026-09-18T09:57:27Z","stale":false,"bins":25,"density_birds_km3":0.81875,"heading_deg":208.0441710804124,"speed_ms":2.9990138674884435,"peak_altitude_m":0.0,"u_ms":-1.4385516178736517,"v_ms":-2.564884437596302}},{"type":"Feature","geometry":{"type":"Point","coordinates":[-86.5625,36.2472]},"properties":{"site":"KOHX","name":"Nashville TN","scan_time":"2026-09-18T09:59:47Z","stale":false,"bins":25,"density_birds_km3":68.17466666666667,"heading_deg":153.99245840507677,"speed_ms":5.1776842815513096,"peak_altitude_m":400.0,"u_ms":2.3731252077995735,"v_ms":-4.5300486984412585}},{"type":"Feature","geometry":{"type":"Point","coordinates":[-72.8639,40.8655]},"properties":{"site":"KOKX","name":"Upton NY","scan_time":"2026-09-18T10:01:23Z","stale":false,"bins":25,"density_birds_km3":0.25,"heading_deg":181.85337533468766,"speed_ms":7.219371859296483,"peak_altitude_m":0.0,"u_ms":-0.23163316582914575,"v_ms":-7.059798994974874}},{"type":"Feature","geometry":{"type":"Point","coordinates":[-80.2183,40.5317]},"properties":{"site":"KPBZ","name":"Pittsburgh PA","scan_time":"2026-09-18T09:59:01Z","stale":false,"bins":25,"density_birds_km3":2.9321428571428574,"heading_deg":185.693355378064,"speed_ms":4.519590742996345,"peak_altitude_m":400.0,"u_ms":-0.2324238733252132,"v_ms":-4.379712545676004}},{"type":"Feature","geometry":{"type":"Point","coordinates":[-78.4899,35.6655]},"properties":{"site":"KRAX","name":"Raleigh NC","scan_time":"2026-09-18T10:00:44Z","stale":false,"bins":25,"density_birds_km3":5.26875,"heading_deg":105.75878808681635,"speed_ms":8.109118672598292,"peak_altitude_m":200.0,"u_ms":7.137966814957315,"v_ms":-2.079917037393291}},{"type":"Feature","geometry":{"type":"Point","coordinates":[-82.4017,27.7055]},"properties":{"site":"KTBW","name":"Tampa FL","scan_time":"2026-09-18T09:58:14Z","stale":false,"bins":25,"density_birds_km3":1.651875,"heading_deg":228.3820087699405,"speed_ms":6.841998485995457,"peak_altitude_m":0.0,"u_ms":-5.0457153671461015,"v_ms":-4.337959878879636}}]}