{"type":"FeatureCollection","frame":"2026-08-23T09","site_count":20,"fresh_count":20,"failures":{},"features":[{"type":"Feature","geometry":{"type":"Point","coordinates":[-77.0073,36.984]},"properties":{"site":"KAKQ","name":"Wakefield VA","scan_time":"2026-08-23T08:57:01Z","stale":false,"bins":25,"density_birds_km3":1.399375,"heading_deg":100.87677973523058,"speed_ms":5.065430995980349,"peak_altitude_m":0.0,"u_ms":4.943340777132649,"v_ms":-1.040915587315766}},{"type":"Feature","geometry":{"type":"Point","coordinates":[-71.1369,41.9558]},"properties":{"site":"KBOX","name":"Boston MA","scan_time":"2026-08-23T09:01:57Z","stale":false,"bins":25,"density_birds_km3":0.39125,"heading_deg":234.8004684321666,"speed_ms":4.031456,"peak_altitude_m":0.0,"u_ms":-3.2018240000000002,"v_ms":-2.28008}},{"type":"Feature","geometry":{"type":"Point","coordinates":[-78.7369,42.9489]},"properties":{"site":"KBUF","name":"Buffalo NY","scan_time":"2026-08-23T08:58:26Z","stale":false,"bins":25,"density_birds_km3":0.8573333333333333,"heading_deg":73.09118406844597,"speed_ms":9.082122861586313,"peak_altitude_m":200.0,"u_ms":8.664167962674961,"v_ms":2.6618351477449456}},{"type":"Feature","geometry":{"type":"Point","coordinates":[-81.8597,41.4131]},"properties":{"site":"KCLE","name":"Cleveland OH","scan_time":"2026-08-23T09:01:03Z","stale":false,"bins":25,"density_birds_km3":2.9386666666666668,"heading_deg":124.7799902515465,"speed_ms":8.05385069208078,"peak_altitude_m":600.0,"u_ms":6.455659178579532,"v_ms":-4.61766734740186}},{"type":"Feature","geometry":{"type":"Point","coordinates":[-81.0423,32.6555]},"properties":{"site":"KCLX","name":"Charleston SC","scan_time":"2026-08-23T09:01:34Z","stale":false,"bins":25,"density_birds_km3":0.8775,"heading_deg":49.54363173299036,"speed_ms":7.736431623931623,"peak_altitude_m":0.0,"u_ms":5.339928774928775,"v_ms":4.7038319088319085}},{"type":"Feature","geometry":{"type":"Point","coordinates":[-74.4108,39.947]},"properties":{"site":"KDIX","name":"Philadelphia PA","scan_time":"2026-08-23T08:58:31Z","stale":false,"bins":25,"density_birds_km3":0.04666666666666667,"heading_deg":null,"speed_ms":null,"peak_altitude_m":200.0,"u_ms":null,"v_ms":null}},{"type":"Feature","geometry":{"type":"Point","coordinates":[-84.5658,33.3636]},"properties":{"site":"KFFC","name":"Atlanta GA","scan_time":"2026-08-23T09:02:52Z","stale":false,"bins":25,"density_birds_km3":12.616666666666667,"heading_deg":176.42275621675796,"speed_ms":6.612892094694567,"peak_altitude_m":400.0,"u_ms":0.45802525893045865,"v_ms":-6.363158423166349}},{"type":"Feature","geometry":{"type":"Point","coordinates":[-85.5449,42.8939]},"properties":{"site":"KGRR","name":"Grand Rapids MI","scan_time":"2026-08-23T08:59:05Z","stale":false,"bins":25,"density_birds_km3":14.288666666666668,"heading_deg":194.96585048013057,"speed_ms":12.00559677118328,"peak_altitude_m":200.0,"u_ms":-2.824251119820829,"v_ms":-11.573667879805898}},{"type":"Feature","geometry":{"type":"Point","coordinates":[-83.8217,39.4203]},"properties":{"site":"KILN","name":"Wilmington OH","scan_time":"2026-08-23T08:59:14Z","stale":false,"bins":25,"density_birds_km3":9.766,"heading_deg":154.48437192613238,"speed_ms":9.72355543418897,"peak_altitude_m":400.0,"u_ms":4.120051201529219,"v_ms":-8.73621927908247}},{"type":"Feature","geometry":{"type":"Point","coordinates":[-81.7019,30.4846]},"properties":{"site":"KJAX","name":"Jacksonville FL","scan_time":"2026-08-23T09:00:02Z","stale":false,"bins":25,"density_birds_km3":5.740625,"heading_deg":147.39420140255777,"speed_ms":4.390881263616558,"peak_altitude_m":0.0,"u_ms":2.287997821350763,"v_ms":-3.55878431372549}},{"type":"Feature","geometry":{"type":"Point","coordinates":[-88.0847,41.6045]},"properties":{"site":"KLOT","name":"Chicago IL","scan_time":"2026-08-23T09:02:48Z","stale":false,"bins":25,"density_birds_km3":13.468666666666667,"heading_deg":180.42792469082235,"speed_ms":9.157928115253231,"peak_altitude_m":200.0,"u_ms":0.05081934749245015,"v_ms":-8.964294271993664}},{"type":"Feature","geometry":{"type":"Point","coordinates":[-78.4292,33.9892]},"properties":{"site":"KLTX","name":"Wilmington NC","scan_time":"2026-08-23T09:00:44Z","stale":false,"bins":25,"density_birds_km3":2.949375,"heading_deg":167.3670510889978,"speed_ms":4.877140131439474,"peak_altitude_m":0.0,"u_ms":1.4313970744117024,"v_ms":-4.209656561373754}},{"type":"Feature","geometry":{"type":"Point","coordinates":[-77.4778,38.9753]},"properties":{"site":"KLWX","name":"Sterling VA","scan_time":"2026-08-23T09:01:30Z","stale":false,"bins":25,"density_birds_km3":1.9493749999999999,"heading_deg":141.43944882966161,"speed_ms":4.666112359550562,"peak_altitude_m":0.0,"u_ms":3.320211878009631,"v_ms":-2.806417335473516}},{"type":"Feature","geometry":{"type":"Point","coordinates":[-76.8762,34.7759]},"properties":{"site":"KMHX","name":"Morehead City NC","scan_time":"2026-08-23T09:01:32Z","stale":false,"bins":25,"density_birds_km3":0.5175,"heading_deg":93.8703448407064,"speed_ms":7.044142512077294,"peak_altitude_m":0.0,"u_ms":6.997838164251209,"v_ms":-0.4134299516908213}},{"type":"Feature","geometry":{"type":"Point","coordinates":[-80.6542,28.1133]},"properties":{"site":"KMLB","name":"Melbourne FL","scan_time":"2026-08-23T09:02:17Z","stale":false,"bins":25,"density_birds_km3":3.61875,"heading_deg":75.19685895832093,"speed_ms":2.8358082901554407,"peak_altitude_m":0.0,"u_ms":2.7176200345423145,"v_ms":0.7241226252158894}},{"type":"Feature","geometry":{"type":"Point","coordinates":[-86.5625,36.2472]},"properties":{"site":"KOHX","name":"Nashville TN","scan_time":"2026-08-23T09:00:11Z","stale":false,"bins":25,"density_birds_km3":16.021333333333335,"heading_deg":198.5366755597069,"speed_ms":7.985727779627164,"peak_altitude_m":400.0,"u_ms":-2.6014476531291613,"v_ms":-7.232099700399467}},{"type":"Feature","geometry":{"type":"Point","coordinates":[-72.8639,40.8655]},"properties":{"site":"KOKX","name":"Upton NY","scan_time":"2026-08-23T09:01:46Z","stale":false,"bins":25,"density_birds_km3":1.74875,"heading_deg":282.0430207362689,"speed_ms":4.6807728764126875,"peak_altitude_m":0.0,"u_ms":-4.534283631060882,"v_ms":0.9909551585854904}},{"type":"Feature","geometry":{"type":"Point","coordinates":[-80.2183,40.5317]},"properties":{"site":"KPBZ","name":"Pittsburgh PA","scan_time":"2026-08-23T08:58:14Z","stale":false,"bins":25,"density_birds_km3":1.4421428571428572,"heading_deg":123.06698038835333,"speed_ms":8.745948489351164,"peak_altitude_m":600.0,"u_ms":7.181079742446756,"v_ms":-4.829440316988608}},{"type":"Feature","geometry":{"type":"Point","coordinates":[-78.4899,35.6655]},"properties":{"site":"KRAX","name":"Raleigh NC","scan_time":"2026-08-23T08:59:50Z","stale":false,"bins":25,"density_birds_km3":1.221875,"heading_deg":92.31055574107233,"speed_ms":6.936975435005118,"peak_altitude_m":0.0,"u_ms":6.878582395087001,"v_ms":-0.1695803480040942}},{"type":"Feature","geometry":{"type":"Point","coordinates":[-82.4017,27.7055]},"properties":{"site":"KTBW","name":"Tampa FL","scan_time":"2026-08-23T09:00:11Z","stale":false,"bins":25,"density_birds_km3":1.328125,"heading_deg":355.97477360903684,"speed_ms":3.701480433757661,"peak_altitude_m":0.0,"u_ms":-0.20389438943894397,"v_ms":3.1549222065063653}}]}