{"type":"FeatureCollection","frame":"2026-09-30T01","site_count":20,"fresh_count":20,"failures":{},"features":[{"type":"Feature","geometry":{"type":"Point","coordinates":[-77.0073,36.984]},"properties":{"site":"KAKQ","name":"Wakefield VA","scan_time":"2026-09-30T00:57:12Z","stale":false,"bins":25,"density_birds_km3":19.875,"heading_deg":230.6338920885144,"speed_ms":4.5838576684801415,"peak_altitude_m":200.0,"u_ms":-3.2072014843234062,"v_ms":-2.267152740652222}},{"type":"Feature","geometry":{"type":"Point","coordinates":[-71.1369,41.9558]},"properties":{"site":"KBOX","name":"Boston MA","scan_time":"2026-09-30T01:00:31Z","stale":false,"bins":25,"density_birds_km3":33.325625,"heading_deg":97.27273756693846,"speed_ms":5.738180641773409,"peak_altitude_m":200.0,"u_ms":4.829136550327262,"v_ms":-0.1618439264079817}},{"type":"Feature","geometry":{"type":"Point","coordinates":[-78.7369,42.9489]},"properties":{"site":"KBUF","name":"Buffalo NY","scan_time":"2026-09-30T00:57:32Z","stale":false,"bins":25,"density_birds_km3":8.66,"heading_deg":179.41137116129394,"speed_ms":4.397745188606621,"peak_altitude_m":400.0,"u_ms":0.7486697459584296,"v_ms":-3.3200354118552733}},{"type":"Feature","geometry":{"type":"Point","coordinates":[-81.8597,41.4131]},"properties":{"site":"KCLE","name":"Cleveland OH","scan_time":"2026-09-30T00:59:56Z","stale":false,"bins":25,"density_birds_km3":3.619333333333333,"heading_deg":339.6019141868344,"speed_ms":5.429858303419611,"peak_altitude_m":400.0,"u_ms":0.2756451917627054,"v_ms":1.0579860192707349}},{"type":"Feature","geometry":{"type":"Point","coordinates":[-81.0423,32.6555]},"properties":{"site":"KCLX","name":"Charleston SC","scan_time":"2026-09-30T00:58:22Z","stale":false,"bins":25,"density_birds_km3":17.68,"heading_deg":286.8394255590506,"speed_ms":6.249314501873718,"peak_altitude_m":0.0,"u_ms":-4.505767871031605,"v_ms":1.2799791416248318}},{"type":"Feature","geometry":{"type":"Point","coordinates":[-74.4108,39.947]},"properties":{"site":"KDIX","name":"Philadelphia PA","scan_time":"2026-09-30T01:00:58Z","stale":false,"bins":25,"density_birds_km3":19.131875,"heading_deg":139.56547980659113,"speed_ms":8.086872059592265,"peak_altitude_m":200.0,"u_ms":4.884680148980659,"v_ms":-6.0419922895974905}},{"type":"Feature","geometry":{"type":"Point","coordinates":[-84.5658,33.3636]},"properties":{"site":"KFFC","name":"Atlanta GA","scan_time":"2026-09-30T01:00:13Z","stale":false,"bins":25,"density_birds_km3":26.732000000000003,"heading_deg":262.08913034623345,"speed_ms":5.124971070876352,"peak_altitude_m":400.0,"u_ms":-4.468973016110529,"v_ms":-0.8493757793406155}},{"type":"Feature","geometry":{"type":"Point","coordinates":[-85.5449,42.8939]},"properties":{"site":"KGRR","name":"Grand Rapids MI","scan_time":"2026-09-30T00:56:40Z","stale":false,"bins":25,"density_birds_km3":3.1,"heading_deg":44.657045472025885,"speed_ms":6.71101935483871,"peak_altitude_m":200.0,"u_ms":4.569210752688172,"v_ms":4.4505075268817205}},{"type":"Feature","geometry":{"type":"Point","coordinates":[-83.8217,39.4203]},"properties":{"site":"KILN","name":"Wilmington OH","scan_time":"2026-09-30T01:01:02Z","stale":false,"bins":25,"density_birds_km3":12.257333333333333,"heading_deg":4.639177360160948,"speed_ms":8.485250734254322,"peak_altitude_m":400.0,"u_ms":0.5339758511911237,"v_ms":7.157962580224083}},{"type":"Feature","geometry":{"type":"Point","coordinates":[-81.7019,30.4846]},"properties":{"site":"KJAX","name":"Jacksonville FL","scan_time":"2026-09-30T00:59:56Z","stale":false,"bins":25,"density_birds_km3":41.4675,"heading_deg":238.78003582992383,"speed_ms":5.2204919737734565,"peak_altitude_m":0.0,"u_ms":-1.8523172808802473,"v_ms":-2.2775597256763884}},{"type":"Feature","geometry":{"type":"Point","coordinates":[-88.0847,41.6045]},"properties":{"site":"KLOT","name":"Chicago IL","scan_time":"2026-09-30T01:00:09Z","stale":false,"bins":25,"density_birds_km3":10.953333333333335,"heading_deg":75.94734607419612,"speed_ms":9.448970785149116,"peak_altitude_m":400.0,"u_ms":8.17157516737675,"v_ms":1.0820115642118076}},{"type":"Feature","geometry":{"type":"Point","coordinates":[-78.4292,33.9892]},"properties":{"site":"KLTX","name":"Wilmington NC","scan_time":"2026-09-30T01:01:53Z","stale":false,"bins":25,"density_birds_km3":26.4675,"heading_deg":298.9821649950211,"speed_ms":5.2303450230251505,"peak_altitude_m":200.0,"u_ms":-3.705485181249262,"v_ms":1.9421069783917817}},{"type":"Feature","geometry":{"type":"Point","coordinates":[-77.4778,38.9753]},"properties":{"site":"KLWX","name":"Sterling VA","scan_time":"2026-09-30T01:00:43Z","stale":false,"bins":25,"density_birds_km3":18.460625,"heading_deg":168.62031194339988,"speed_ms":4.97243174581668,"peak_altitude_m":200.0,"u_ms":-0.55919483774812,"v_ms":-2.931641148973647}},{"type":"Feature","geometry":{"type":"Point","coordinates":[-76.8762,34.7759]},"properties":{"site":"KMHX","name":"Morehead City NC","scan_time":"2026-09-30T00:59:10Z","stale":false,"bins":25,"density_birds_km3":6.4125000000000005,"heading_deg":319.10050520607024,"speed_ms":3.986391812865497,"peak_altitude_m":0.0,"u_ms":-2.222624756335282,"v_ms":2.4299405458089667}},{"type":"Feature","geometry":{"type":"Point","coordinates":[-80.6542,28.1133]},"properties":{"site":"KMLB","name":"Melbourne FL","scan_time":"2026-09-30T01:00:32Z","stale":false,"bins":25,"density_birds_km3":22.0975,"heading_deg":105.3798790455059,"speed_ms":4.405684326710817,"peak_altitude_m":0.0,"u_ms":2.3582300333955963,"v_ms":-1.706074885379521}},{"type":"Feature","geometry":{"type":"Point","coordinates":[-86.5625,36.2472]},"properties":{"site":"KOHX","name":"Nashville TN","scan_time":"2026-09-30T01:00:51Z","stale":false,"bins":25,"density_birds_km3":24.030666666666665,"heading_deg":167.888286448253,"speed_ms":2.984735615602286,"peak_altitude_m":400.0,"u_ms":0.6146787438273317,"v_ms":0.15268878655051873}},{"type":"Feature","geometry":{"type":"Point","coordinates":[-72.8639,40.8655]},"properties":{"site":"KOKX","name":"Upton NY","scan_time":"2026-09-30T00:56:04Z","stale":false,"bins":25,"density_birds_km3":10.330625,"heading_deg":179.5988556707426,"speed_ms":7.578446084957037,"peak_altitude_m":200.0,"u_ms":-0.04508653031586588,"v_ms":-7.386365726733633}},{"type":"Feature","geometry":{"type":"Point","coordinates":[-80.2183,40.5317]},"properties":{"site":"KPBZ","name":"Pittsburgh PA","scan_time":"2026-09-30T00:58:18Z","stale":false,"bins":25,"density_birds_km3":9.52357142857143,"heading_deg":59.598981156089806,"speed_ms":7.656533063123922,"peak_altitude_m":600.0,"u_ms":5.565588831344292,"v_ms":3.539502364332358}},{"type":"Feature","geometry":{"type":"Point","coordinates":[-78.4899,35.6655]},"properties":{"site":"KRAX","name":"Raleigh NC","scan_time":"2026-09-30T01:01:44Z","stale":false,"bins":25,"density_birds_km3":100.64375000000001,"heading_deg":232.42507471098153,"speed_ms":6.205167270085142,"peak_altitude_m":200.0,"u_ms":-4.772395871499811,"v_ms":-3.7475348854539927}},{"type":"Feature","geometry":{"type":"Point","coordinates":[-82.4017,27.7055]},"properties":{"site":"KTBW","name":"Tampa FL","scan_time":"2026-09-30T00:57:28Z","stale":false,"bins":25,"density_birds_km3":28.118125,"heading_deg":16.86744705061998,"speed_ms":6.99845673386828,"peak_altitude_m":0.0,"u_ms":0.9609909088888395,"v_ms":3.317015048122875}}]}