{"type":"FeatureCollection","frame":"2026-09-26T07","site_count":20,"fresh_count":20,"failures":{},"features":[{"type":"Feature","geometry":{"type":"Point","coordinates":[-77.0073,36.984]},"properties":{"site":"KAKQ","name":"Wakefield VA","scan_time":"2026-09-26T07:00:20Z","stale":false,"bins":25,"density_birds_km3":13.75,"heading_deg":178.67010479800433,"speed_ms":22.8809540941798,"peak_altitude_m":400.0,"u_ms":-0.08629747700154843,"v_ms":-22.63582976591675}},{"type":"Feature","geometry":{"type":"Point","coordinates":[-71.1369,41.9558]},"properties":{"site":"KBOX","name":"Boston MA","scan_time":"2026-09-26T06:59:15Z","stale":false,"bins":25,"density_birds_km3":12.278,"heading_deg":null,"speed_ms":null,"peak_altitude_m":200.0,"u_ms":null,"v_ms":null}},{"type":"Feature","geometry":{"type":"Point","coordinates":[-78.7369,42.9489]},"properties":{"site":"KBUF","name":"Buffalo NY","scan_time":"2026-09-26T06:58:39Z","stale":false,"bins":25,"density_birds_km3":33.379333333333335,"heading_deg":203.3593968754745,"speed_ms":15.872502596468802,"peak_altitude_m":400.0,"u_ms":-6.454952464648079,"v_ms":-14.352434489094833}},{"type":"Feature","geometry":{"type":"Point","coordinates":[-81.8597,41.4131]},"properties":{"site":"KCLE","name":"Cleveland OH","scan_time":"2026-09-26T06:59:57Z","stale":false,"bins":25,"density_birds_km3":30.832666666666668,"heading_deg":200.03716394769512,"speed_ms":12.271495015892922,"peak_altitude_m":200.0,"u_ms":-4.336119748307998,"v_ms":-11.231137371072718}},{"type":"Feature","geometry":{"type":"Point","coordinates":[-81.0423,32.6555]},"properties":{"site":"KCLX","name":"Charleston SC","scan_time":"2026-09-26T06:56:11Z","stale":false,"bins":25,"density_birds_km3":110.971875,"heading_deg":185.51198917687702,"speed_ms":11.208309143645632,"peak_altitude_m":0.0,"u_ms":-1.3293975387907973,"v_ms":-10.936208498775029}},{"type":"Feature","geometry":{"type":"Point","coordinates":[-74.4108,39.947]},"properties":{"site":"KDIX","name":"Philadelphia PA","scan_time":"2026-09-26T06:59:16Z","stale":false,"bins":25,"density_birds_km3":0.0,"heading_deg":null,"speed_ms":null,"peak_altitude_m":2800.0,"u_ms":null,"v_ms":null}},{"type":"Feature","geometry":{"type":"Point","coordinates":[-84.5658,33.3636]},"properties":{"site":"KFFC","name":"Atlanta GA","scan_time":"2026-09-26T07:02:27Z","stale":false,"bins":25,"density_birds_km3":218.94933333333336,"heading_deg":196.13911742757134,"speed_ms":11.495213656736414,"peak_altitude_m":400.0,"u_ms":-2.8677871288334593,"v_ms":-11.007691977443791}},{"type":"Feature","geometry":{"type":"Point","coordinates":[-85.5449,42.8939]},"properties":{"site":"KGRR","name":"Grand Rapids MI","scan_time":"2026-09-26T06:56:40Z","stale":false,"bins":25,"density_birds_km3":23.81,"heading_deg":214.22900200327962,"speed_ms":9.847802200879231,"peak_altitude_m":200.0,"u_ms":-5.441847506510234,"v_ms":-8.04781648139333}},{"type":"Feature","geometry":{"type":"Point","coordinates":[-83.8217,39.4203]},"properties":{"site":"KILN","name":"Wilmington OH","scan_time":"2026-09-26T06:58:37Z","stale":false,"bins":25,"density_birds_km3":77.12666666666668,"heading_deg":204.5398110332774,"speed_ms":12.039416198461405,"peak_altitude_m":200.0,"u_ms":-5.048678018843461,"v_ms":-10.107245397182124}},{"type":"Feature","geometry":{"type":"Point","coordinates":[-81.7019,30.4846]},"properties":{"site":"KJAX","name":"Jacksonville FL","scan_time":"2026-09-26T06:57:55Z","stale":false,"bins":25,"density_birds_km3":198.27124999999998,"heading_deg":185.7634959437466,"speed_ms":13.056151831140422,"peak_altitude_m":0.0,"u_ms":-1.3499910160953745,"v_ms":-12.9280986905565}},{"type":"Feature","geometry":{"type":"Point","coordinates":[-88.0847,41.6045]},"properties":{"site":"KLOT","name":"Chicago IL","scan_time":"2026-09-26T06:59:39Z","stale":false,"bins":25,"density_birds_km3":15.717333333333332,"heading_deg":215.06071419438086,"speed_ms":9.300432643366136,"peak_altitude_m":200.0,"u_ms":-5.1616915507295555,"v_ms":-7.271999066847641}},{"type":"Feature","geometry":{"type":"Point","coordinates":[-78.4292,33.9892]},"properties":{"site":"KLTX","name":"Wilmington NC","scan_time":"2026-09-26T06:58:29Z","stale":false,"bins":25,"density_birds_km3":102.624375,"heading_deg":193.2366262082903,"speed_ms":11.519380629601885,"peak_altitude_m":0.0,"u_ms":-2.971175159410228,"v_ms":-10.924639857733604}},{"type":"Feature","geometry":{"type":"Point","coordinates":[-77.4778,38.9753]},"properties":{"site":"KLWX","name":"Sterling VA","scan_time":"2026-09-26T06:59:38Z","stale":false,"bins":25,"density_birds_km3":16.5775,"heading_deg":191.52349753195176,"speed_ms":18.423108505504448,"peak_altitude_m":600.0,"u_ms":-3.955294827326195,"v_ms":-17.258584301010405}},{"type":"Feature","geometry":{"type":"Point","coordinates":[-76.8762,34.7759]},"properties":{"site":"KMHX","name":"Morehead City NC","scan_time":"2026-09-26T07:01:55Z","stale":false,"bins":25,"density_birds_km3":35.474375,"heading_deg":162.5678757249515,"speed_ms":9.907993269789811,"peak_altitude_m":0.0,"u_ms":2.042346059655737,"v_ms":-9.570800225514896}},{"type":"Feature","geometry":{"type":"Point","coordinates":[-80.6542,28.1133]},"properties":{"site":"KMLB","name":"Melbourne FL","scan_time":"2026-09-26T06:58:32Z","stale":false,"bins":25,"density_birds_km3":63.545625,"heading_deg":166.7191011583532,"speed_ms":17.192118654903464,"peak_altitude_m":200.0,"u_ms":3.9142987813873886,"v_ms":-16.704716886489038}},{"type":"Feature","geometry":{"type":"Point","coordinates":[-86.5625,36.2472]},"properties":{"site":"KOHX","name":"Nashville TN","scan_time":"2026-09-26T06:57:50Z","stale":false,"bins":25,"density_birds_km3":104.248,"heading_deg":203.13754890692198,"speed_ms":9.761272926099302,"peak_altitude_m":200.0,"u_ms":-3.6313255570050904,"v_ms":-8.226423400608805}},{"type":"Feature","geometry":{"type":"Point","coordinates":[-72.8639,40.8655]},"properties":{"site":"KOKX","name":"Upton NY","scan_time":"2026-09-26T06:59:38Z","stale":false,"bins":25,"density_birds_km3":0.9828571428571429,"heading_deg":null,"speed_ms":null,"peak_altitude_m":0.0,"u_ms":null,"v_ms":null}},{"type":"Feature","geometry":{"type":"Point","coordinates":[-80.2183,40.5317]},"properties":{"site":"KPBZ","name":"Pittsburgh PA","scan_time":"2026-09-26T06:58:50Z","stale":false,"bins":25,"density_birds_km3":69.44571428571429,"heading_deg":203.8327942227428,"speed_ms":18.01928474450753,"peak_altitude_m":400.0,"u_ms":-7.590773471570805,"v_ms":-15.555613531638278}},{"type":"Feature","geometry":{"type":"Point","coordinates":[-78.4899,35.6655]},"properties":{"site":"KRAX","name":"Raleigh NC","scan_time":"2026-09-26T06:57:29Z","stale":false,"bins":25,"density_birds_km3":31.316875,"heading_deg":182.9494895281339,"speed_ms":20.517889117289002,"peak_altitude_m":400.0,"u_ms":-1.5895687229329234,"v_ms":-20.218403416688286}},{"type":"Feature","geometry":{"type":"Point","coordinates":[-82.4017,27.7055]},"properties":{"site":"KTBW","name":"Tampa FL","scan_time":"2026-09-26T07:01:43Z","stale":false,"bins":25,"density_birds_km3":45.34875,"heading_deg":188.2301884013188,"speed_ms":15.617229902008075,"peak_altitude_m":200.0,"u_ms":-2.2919620436346597,"v_ms":-15.286714996485523}}]}