{"type":"FeatureCollection","frame":"2026-08-14T03","site_count":20,"fresh_count":19,"failures":{"KJAX":"RuntimeError('no scan within 20 min of 2026-08-14T03:00Z')"},"features":[{"type":"Feature","geometry":{"type":"Point","coordinates":[-77.0073,36.984]},"properties":{"site":"KAKQ","name":"Wakefield VA","scan_time":"2026-08-14T02:58:38Z","stale":false,"bins":25,"density_birds_km3":3.754375,"heading_deg":354.26092749176155,"speed_ms":5.3979845741113355,"peak_altitude_m":0.0,"u_ms":-0.5051609657947685,"v_ms":4.068110328638498}},{"type":"Feature","geometry":{"type":"Point","coordinates":[-71.1369,41.9558]},"properties":{"site":"KBOX","name":"Boston MA","scan_time":"2026-08-14T02:59:08Z","stale":false,"bins":25,"density_birds_km3":3.21,"heading_deg":175.73306337229926,"speed_ms":6.362602259446825,"peak_altitude_m":400.0,"u_ms":0.3947526295286325,"v_ms":-6.089398130112972}},{"type":"Feature","geometry":{"type":"Point","coordinates":[-78.7369,42.9489]},"properties":{"site":"KBUF","name":"Buffalo NY","scan_time":"2026-08-14T02:58:24Z","stale":false,"bins":25,"density_birds_km3":2.6919999999999997,"heading_deg":137.02855413286596,"speed_ms":6.017298167409609,"peak_altitude_m":200.0,"u_ms":3.4098216939078756,"v_ms":-4.154301634472511}},{"type":"Feature","geometry":{"type":"Point","coordinates":[-81.8597,41.4131]},"properties":{"site":"KCLE","name":"Cleveland OH","scan_time":"2026-08-14T03:01:00Z","stale":false,"bins":25,"density_birds_km3":10.289333333333333,"heading_deg":272.75980116850087,"speed_ms":6.149151817533856,"peak_altitude_m":800.0,"u_ms":-6.0995917838398235,"v_ms":0.32884403550832636}},{"type":"Feature","geometry":{"type":"Point","coordinates":[-81.0423,32.6555]},"properties":{"site":"KCLX","name":"Charleston SC","scan_time":"2026-08-14T02:58:24Z","stale":false,"bins":25,"density_birds_km3":3.656875,"heading_deg":98.48315151467351,"speed_ms":4.9258829568788505,"peak_altitude_m":200.0,"u_ms":3.8782734428473655,"v_ms":-0.7575941136208076}},{"type":"Feature","geometry":{"type":"Point","coordinates":[-74.4108,39.947]},"properties":{"site":"KDIX","name":"Philadelphia PA","scan_time":"2026-08-14T03:03:23Z","stale":false,"bins":25,"density_birds_km3":7.051875,"heading_deg":171.26227459853848,"speed_ms":5.308563357546408,"peak_altitude_m":400.0,"u_ms":0.7944193345888261,"v_ms":-5.218079096045198}},{"type":"Feature","geometry":{"type":"Point","coordinates":[-84.5658,33.3636]},"properties":{"site":"KFFC","name":"Atlanta GA","scan_time":"2026-08-14T02:58:56Z","stale":false,"bins":25,"density_birds_km3":7.6899999999999995,"heading_deg":134.3276751878284,"speed_ms":4.24207075962539,"peak_altitude_m":400.0,"u_ms":2.188575268817204,"v_ms":-1.6133376690946932}},{"type":"Feature","geometry":{"type":"Point","coordinates":[-85.5449,42.8939]},"properties":{"site":"KGRR","name":"Grand Rapids MI","scan_time":"2026-08-14T02:58:10Z","stale":false,"bins":25,"density_birds_km3":5.825333333333333,"heading_deg":194.93462653971153,"speed_ms":4.040857371794872,"peak_altitude_m":400.0,"u_ms":-1.3641964285714285,"v_ms":-3.3959626831501835}},{"type":"Feature","geometry":{"type":"Point","coordinates":[-83.8217,39.4203]},"properties":{"site":"KILN","name":"Wilmington OH","scan_time":"2026-08-14T02:59:59Z","stale":false,"bins":25,"density_birds_km3":18.834,"heading_deg":257.642620032908,"speed_ms":3.8672453580431,"peak_altitude_m":200.0,"u_ms":-3.7016767848901195,"v_ms":-0.7331288387119679}},{"type":"Feature","geometry":{"type":"Point","coordinates":[-88.0847,41.6045]},"properties":{"site":"KLOT","name":"Chicago IL","scan_time":"2026-08-14T02:59:29Z","stale":false,"bins":25,"density_birds_km3":5.569090909090909,"heading_deg":null,"speed_ms":null,"peak_altitude_m":200.0,"u_ms":null,"v_ms":null}},{"type":"Feature","geometry":{"type":"Point","coordinates":[-78.4292,33.9892]},"properties":{"site":"KLTX","name":"Wilmington NC","scan_time":"2026-08-14T02:58:40Z","stale":false,"bins":25,"density_birds_km3":3.381875,"heading_deg":63.09374880075668,"speed_ms":6.039633462699439,"peak_altitude_m":0.0,"u_ms":4.966293661060802,"v_ms":2.6552220784821046}},{"type":"Feature","geometry":{"type":"Point","coordinates":[-77.4778,38.9753]},"properties":{"site":"KLWX","name":"Sterling VA","scan_time":"2026-08-14T03:02:54Z","stale":false,"bins":25,"density_birds_km3":26.978333333333335,"heading_deg":229.05444668837802,"speed_ms":3.753008072248168,"peak_altitude_m":200.0,"u_ms":-2.735482015278508,"v_ms":-2.2714325920885785}},{"type":"Feature","geometry":{"type":"Point","coordinates":[-76.8762,34.7759]},"properties":{"site":"KMHX","name":"Morehead City NC","scan_time":"2026-08-14T03:02:42Z","stale":false,"bins":25,"density_birds_km3":2.8674999999999997,"heading_deg":62.64324170569421,"speed_ms":7.5513157894736835,"peak_altitude_m":0.0,"u_ms":6.306262715612561,"v_ms":3.5211875276426365}},{"type":"Feature","geometry":{"type":"Point","coordinates":[-80.6542,28.1133]},"properties":{"site":"KMLB","name":"Melbourne FL","scan_time":"2026-08-14T03:00:36Z","stale":false,"bins":25,"density_birds_km3":5.132499999999999,"heading_deg":261.5313919771179,"speed_ms":4.082230478742843,"peak_altitude_m":0.0,"u_ms":-0.8456693872578875,"v_ms":-1.32188329881837}},{"type":"Feature","geometry":{"type":"Point","coordinates":[-86.5625,36.2472]},"properties":{"site":"KOHX","name":"Nashville TN","scan_time":"2026-08-14T02:57:07Z","stale":false,"bins":25,"density_birds_km3":14.623333333333333,"heading_deg":71.01554944071859,"speed_ms":3.668733530886711,"peak_altitude_m":200.0,"u_ms":2.6100123090950538,"v_ms":1.6170854798267609}},{"type":"Feature","geometry":{"type":"Point","coordinates":[-72.8639,40.8655]},"properties":{"site":"KOKX","name":"Upton NY","scan_time":"2026-08-14T03:01:28Z","stale":false,"bins":25,"density_birds_km3":2.9113333333333333,"heading_deg":142.44564909757082,"speed_ms":6.498737494044784,"peak_altitude_m":0.0,"u_ms":3.83240114340162,"v_ms":-4.942363030014293}},{"type":"Feature","geometry":{"type":"Point","coordinates":[-80.2183,40.5317]},"properties":{"site":"KPBZ","name":"Pittsburgh PA","scan_time":"2026-08-14T02:59:50Z","stale":false,"bins":25,"density_birds_km3":13.801428571428572,"heading_deg":227.54999598477744,"speed_ms":4.358268295207536,"peak_altitude_m":800.0,"u_ms":-2.8751702722285475,"v_ms":-2.9298421488458755}},{"type":"Feature","geometry":{"type":"Point","coordinates":[-78.4899,35.6655]},"properties":{"site":"KRAX","name":"Raleigh NC","scan_time":"2026-08-14T02:56:26Z","stale":false,"bins":25,"density_birds_km3":3.5343750000000003,"heading_deg":85.22127974482024,"speed_ms":5.354884974838246,"peak_altitude_m":0.0,"u_ms":4.50882099209202,"v_ms":-0.07761143062544933}},{"type":"Feature","geometry":{"type":"Point","coordinates":[-82.4017,27.7055]},"properties":{"site":"KTBW","name":"Tampa FL","scan_time":"2026-08-14T02:58:53Z","stale":false,"bins":25,"density_birds_km3":3.895625,"heading_deg":190.73683785068087,"speed_ms":6.344302903898605,"peak_altitude_m":0.0,"u_ms":-1.160433178244826,"v_ms":-6.119549173752608}}]}