{"type":"FeatureCollection","frame":"2026-10-03T01","site_count":20,"fresh_count":19,"failures":{"KILN":"RuntimeError('no scan within 20 min of 2026-10-03T01:00Z')"},"features":[{"type":"Feature","geometry":{"type":"Point","coordinates":[-77.0073,36.984]},"properties":{"site":"KAKQ","name":"Wakefield VA","scan_time":"2026-10-03T00:59:05Z","stale":false,"bins":25,"density_birds_km3":3.515,"heading_deg":72.54022789988011,"speed_ms":10.276872332859176,"peak_altitude_m":0.0,"u_ms":7.868710881934566,"v_ms":2.258364153627311}},{"type":"Feature","geometry":{"type":"Point","coordinates":[-71.1369,41.9558]},"properties":{"site":"KBOX","name":"Boston MA","scan_time":"2026-10-03T01:01:27Z","stale":false,"bins":25,"density_birds_km3":27.7225,"heading_deg":185.56467126104266,"speed_ms":10.75854099025974,"peak_altitude_m":200.0,"u_ms":-0.9221530032467532,"v_ms":-10.6338216991342}},{"type":"Feature","geometry":{"type":"Point","coordinates":[-78.7369,42.9489]},"properties":{"site":"KBUF","name":"Buffalo NY","scan_time":"2026-10-03T00:59:52Z","stale":false,"bins":25,"density_birds_km3":57.184,"heading_deg":173.74422410805272,"speed_ms":14.583229574706213,"peak_altitude_m":400.0,"u_ms":1.5272427019212835,"v_ms":-14.468259419884351}},{"type":"Feature","geometry":{"type":"Point","coordinates":[-81.8597,41.4131]},"properties":{"site":"KCLE","name":"Cleveland OH","scan_time":"2026-10-03T00:57:48Z","stale":false,"bins":25,"density_birds_km3":11.892,"heading_deg":199.1320274301229,"speed_ms":11.507285113540789,"peak_altitude_m":400.0,"u_ms":-3.67184412671713,"v_ms":-10.874679001962434}},{"type":"Feature","geometry":{"type":"Point","coordinates":[-81.0423,32.6555]},"properties":{"site":"KCLX","name":"Charleston SC","scan_time":"2026-10-03T00:58:08Z","stale":false,"bins":25,"density_birds_km3":6.398125,"heading_deg":17.29891236492801,"speed_ms":5.864999999999999,"peak_altitude_m":0.0,"u_ms":1.7029146341463415,"v_ms":5.592190040650407}},{"type":"Feature","geometry":{"type":"Point","coordinates":[-74.4108,39.947]},"properties":{"site":"KDIX","name":"Philadelphia PA","scan_time":"2026-10-03T00:58:13Z","stale":false,"bins":25,"density_birds_km3":34.06214285714286,"heading_deg":131.4942815873846,"speed_ms":8.544183835797151,"peak_altitude_m":600.0,"u_ms":6.270239009816475,"v_ms":-5.698203158344003}},{"type":"Feature","geometry":{"type":"Point","coordinates":[-84.5658,33.3636]},"properties":{"site":"KFFC","name":"Atlanta GA","scan_time":"2026-10-03T00:59:48Z","stale":false,"bins":25,"density_birds_km3":20.520666666666667,"heading_deg":320.1339443811603,"speed_ms":2.682862666103512,"peak_altitude_m":400.0,"u_ms":-1.4197436563890964,"v_ms":1.8224679164365314}},{"type":"Feature","geometry":{"type":"Point","coordinates":[-85.5449,42.8939]},"properties":{"site":"KGRR","name":"Grand Rapids MI","scan_time":"2026-10-03T01:03:47Z","stale":false,"bins":25,"density_birds_km3":183.304,"heading_deg":183.35560261575802,"speed_ms":12.885077667254642,"peak_altitude_m":400.0,"u_ms":-0.688965721663545,"v_ms":-12.689207252095796}},{"type":"Feature","geometry":{"type":"Point","coordinates":[-81.7019,30.4846]},"properties":{"site":"KJAX","name":"Jacksonville FL","scan_time":"2026-10-03T01:01:42Z","stale":false,"bins":25,"density_birds_km3":17.457692307692305,"heading_deg":null,"speed_ms":null,"peak_altitude_m":200.0,"u_ms":null,"v_ms":null}},{"type":"Feature","geometry":{"type":"Point","coordinates":[-88.0847,41.6045]},"properties":{"site":"KLOT","name":"Chicago IL","scan_time":"2026-10-03T01:00:01Z","stale":false,"bins":25,"density_birds_km3":144.08666666666667,"heading_deg":169.61042685139878,"speed_ms":10.097744320547816,"peak_altitude_m":800.0,"u_ms":2.248669550733355,"v_ms":-9.555309998611946}},{"type":"Feature","geometry":{"type":"Point","coordinates":[-78.4292,33.9892]},"properties":{"site":"KLTX","name":"Wilmington NC","scan_time":"2026-10-03T01:00:45Z","stale":false,"bins":25,"density_birds_km3":8.27125,"heading_deg":43.40065690019148,"speed_ms":7.934619918392019,"peak_altitude_m":200.0,"u_ms":4.844542088559771,"v_ms":5.316344264772555}},{"type":"Feature","geometry":{"type":"Point","coordinates":[-77.4778,38.9753]},"properties":{"site":"KLWX","name":"Sterling VA","scan_time":"2026-10-03T00:57:54Z","stale":false,"bins":25,"density_birds_km3":67.534375,"heading_deg":167.47782765520606,"speed_ms":10.102510619788438,"peak_altitude_m":400.0,"u_ms":2.085088613920946,"v_ms":-9.811086226203807}},{"type":"Feature","geometry":{"type":"Point","coordinates":[-76.8762,34.7759]},"properties":{"site":"KMHX","name":"Morehead City NC","scan_time":"2026-10-03T01:00:57Z","stale":false,"bins":25,"density_birds_km3":5.364375,"heading_deg":85.66728199913607,"speed_ms":8.681285248193895,"peak_altitude_m":0.0,"u_ms":6.734232113726405,"v_ms":1.0338021440223726}},{"type":"Feature","geometry":{"type":"Point","coordinates":[-80.6542,28.1133]},"properties":{"site":"KMLB","name":"Melbourne FL","scan_time":"2026-10-03T01:01:01Z","stale":false,"bins":25,"density_birds_km3":3.755625,"heading_deg":279.74841000987976,"speed_ms":6.0799517310253,"peak_altitude_m":0.0,"u_ms":-5.935008322237017,"v_ms":1.0893625166444743}},{"type":"Feature","geometry":{"type":"Point","coordinates":[-86.5625,36.2472]},"properties":{"site":"KOHX","name":"Nashville TN","scan_time":"2026-10-03T00:56:58Z","stale":false,"bins":25,"density_birds_km3":53.26733333333333,"heading_deg":196.70212152044155,"speed_ms":6.35257420863082,"peak_altitude_m":200.0,"u_ms":-1.819531433626082,"v_ms":-5.921322297339988}},{"type":"Feature","geometry":{"type":"Point","coordinates":[-72.8639,40.8655]},"properties":{"site":"KOKX","name":"Upton NY","scan_time":"2026-10-03T00:59:56Z","stale":false,"bins":25,"density_birds_km3":13.880625,"heading_deg":189.98783647357197,"speed_ms":12.09453271449171,"peak_altitude_m":400.0,"u_ms":-2.0817150324441243,"v_ms":-11.655031993511177}},{"type":"Feature","geometry":{"type":"Point","coordinates":[-80.2183,40.5317]},"properties":{"site":"KPBZ","name":"Pittsburgh PA","scan_time":"2026-10-03T00:59:55Z","stale":false,"bins":25,"density_birds_km3":99.42642857142857,"heading_deg":201.75985051486532,"speed_ms":15.136993757049359,"peak_altitude_m":600.0,"u_ms":-5.7039461338965625,"v_ms":-14.001254337377958}},{"type":"Feature","geometry":{"type":"Point","coordinates":[-78.4899,35.6655]},"properties":{"site":"KRAX","name":"Raleigh NC","scan_time":"2026-10-03T01:01:59Z","stale":false,"bins":25,"density_birds_km3":7.5175,"heading_deg":46.233808398041006,"speed_ms":8.441241270369138,"peak_altitude_m":0.0,"u_ms":5.609990023279016,"v_ms":5.477488360492185}},{"type":"Feature","geometry":{"type":"Point","coordinates":[-82.4017,27.7055]},"properties":{"site":"KTBW","name":"Tampa FL","scan_time":"2026-10-03T01:02:14Z","stale":false,"bins":25,"density_birds_km3":17.52875,"heading_deg":233.94231202558717,"speed_ms":5.90697715917202,"peak_altitude_m":0.0,"u_ms":-4.469768379728766,"v_ms":-3.0193554603854396}}]}