{"type":"FeatureCollection","frame":"2026-09-24T07","site_count":20,"fresh_count":20,"failures":{},"features":[{"type":"Feature","geometry":{"type":"Point","coordinates":[-77.0073,36.984]},"properties":{"site":"KAKQ","name":"Wakefield VA","scan_time":"2026-09-24T06:58:12Z","stale":false,"bins":25,"density_birds_km3":68.096875,"heading_deg":180.6770362149932,"speed_ms":13.149929355484687,"peak_altitude_m":0.0,"u_ms":-0.3522395794704443,"v_ms":-13.008031780760959}},{"type":"Feature","geometry":{"type":"Point","coordinates":[-71.1369,41.9558]},"properties":{"site":"KBOX","name":"Boston MA","scan_time":"2026-09-24T07:00:37Z","stale":false,"bins":25,"density_birds_km3":0.226875,"heading_deg":225.67282823881857,"speed_ms":9.474389534883722,"peak_altitude_m":0.0,"u_ms":-6.804156976744187,"v_ms":-6.540813953488373}},{"type":"Feature","geometry":{"type":"Point","coordinates":[-78.7369,42.9489]},"properties":{"site":"KBUF","name":"Buffalo NY","scan_time":"2026-09-24T06:59:49Z","stale":false,"bins":25,"density_birds_km3":6.092,"heading_deg":264.2033940837029,"speed_ms":8.723234843510616,"peak_altitude_m":200.0,"u_ms":-8.191517837601227,"v_ms":-1.0136681987305753}},{"type":"Feature","geometry":{"type":"Point","coordinates":[-81.8597,41.4131]},"properties":{"site":"KCLE","name":"Cleveland OH","scan_time":"2026-09-24T07:00:26Z","stale":false,"bins":25,"density_birds_km3":31.27466666666667,"heading_deg":250.76795757118927,"speed_ms":10.550987806957709,"peak_altitude_m":200.0,"u_ms":-9.68192701227831,"v_ms":-3.1321917633015013}},{"type":"Feature","geometry":{"type":"Point","coordinates":[-81.0423,32.6555]},"properties":{"site":"KCLX","name":"Charleston SC","scan_time":"2026-09-24T06:58:31Z","stale":false,"bins":25,"density_birds_km3":3.9031249999999997,"heading_deg":219.7118642278143,"speed_ms":9.519574676918044,"peak_altitude_m":0.0,"u_ms":-6.114081465728775,"v_ms":-7.286973662686078}},{"type":"Feature","geometry":{"type":"Point","coordinates":[-74.4108,39.947]},"properties":{"site":"KDIX","name":"Philadelphia PA","scan_time":"2026-09-24T07:03:00Z","stale":false,"bins":25,"density_birds_km3":2.089375,"heading_deg":213.42952792450816,"speed_ms":14.418889645776567,"peak_altitude_m":200.0,"u_ms":-8.057908719346049,"v_ms":-11.909247275204361}},{"type":"Feature","geometry":{"type":"Point","coordinates":[-84.5658,33.3636]},"properties":{"site":"KFFC","name":"Atlanta GA","scan_time":"2026-09-24T07:00:12Z","stale":false,"bins":25,"density_birds_km3":7.720666666666667,"heading_deg":237.78808260717938,"speed_ms":7.657119419739227,"peak_altitude_m":400.0,"u_ms":-5.297916414817373,"v_ms":-4.149366203263966}},{"type":"Feature","geometry":{"type":"Point","coordinates":[-85.5449,42.8939]},"properties":{"site":"KGRR","name":"Grand Rapids MI","scan_time":"2026-09-24T07:00:50Z","stale":false,"bins":25,"density_birds_km3":8.006666666666666,"heading_deg":241.57748471617748,"speed_ms":10.50055037468776,"peak_altitude_m":200.0,"u_ms":-9.045761865112407,"v_ms":-4.336107410491257}},{"type":"Feature","geometry":{"type":"Point","coordinates":[-83.8217,39.4203]},"properties":{"site":"KILN","name":"Wilmington OH","scan_time":"2026-09-24T06:59:34Z","stale":false,"bins":25,"density_birds_km3":33.193999999999996,"heading_deg":212.3918290417168,"speed_ms":8.784497870972924,"peak_altitude_m":200.0,"u_ms":-4.545095002811923,"v_ms":-7.174025467984253}},{"type":"Feature","geometry":{"type":"Point","coordinates":[-81.7019,30.4846]},"properties":{"site":"KJAX","name":"Jacksonville FL","scan_time":"2026-09-24T07:00:19Z","stale":false,"bins":25,"density_birds_km3":45.74,"heading_deg":187.21971917756025,"speed_ms":14.831909946383629,"peak_altitude_m":200.0,"u_ms":-2.10550320056899,"v_ms":-14.54354524565051}},{"type":"Feature","geometry":{"type":"Point","coordinates":[-88.0847,41.6045]},"properties":{"site":"KLOT","name":"Chicago IL","scan_time":"2026-09-24T06:59:42Z","stale":false,"bins":25,"density_birds_km3":29.429285714285715,"heading_deg":184.27956596165842,"speed_ms":12.273104923483107,"peak_altitude_m":200.0,"u_ms":0.041117684447269015,"v_ms":0.16299980442966802}},{"type":"Feature","geometry":{"type":"Point","coordinates":[-78.4292,33.9892]},"properties":{"site":"KLTX","name":"Wilmington NC","scan_time":"2026-09-24T06:58:10Z","stale":false,"bins":25,"density_birds_km3":3.0831250000000003,"heading_deg":218.99725858818223,"speed_ms":11.540857490370971,"peak_altitude_m":0.0,"u_ms":-7.082160956821406,"v_ms":-9.074832758970201}},{"type":"Feature","geometry":{"type":"Point","coordinates":[-77.4778,38.9753]},"properties":{"site":"KLWX","name":"Sterling VA","scan_time":"2026-09-24T07:02:12Z","stale":false,"bins":25,"density_birds_km3":31.964375,"heading_deg":211.22114874649134,"speed_ms":15.270060031286665,"peak_altitude_m":200.0,"u_ms":-7.942719788815018,"v_ms":-12.70856315995307}},{"type":"Feature","geometry":{"type":"Point","coordinates":[-76.8762,34.7759]},"properties":{"site":"KMHX","name":"Morehead City NC","scan_time":"2026-09-24T07:00:48Z","stale":false,"bins":25,"density_birds_km3":1.5418749999999999,"heading_deg":197.84355658094054,"speed_ms":14.871791649777057,"peak_altitude_m":0.0,"u_ms":-4.546822051074179,"v_ms":-14.142115930279692}},{"type":"Feature","geometry":{"type":"Point","coordinates":[-80.6542,28.1133]},"properties":{"site":"KMLB","name":"Melbourne FL","scan_time":"2026-09-24T07:02:14Z","stale":false,"bins":25,"density_birds_km3":16.9225,"heading_deg":163.26449568889112,"speed_ms":12.897595287339342,"peak_altitude_m":0.0,"u_ms":3.73596949327818,"v_ms":-12.334427167971636}},{"type":"Feature","geometry":{"type":"Point","coordinates":[-86.5625,36.2472]},"properties":{"site":"KOHX","name":"Nashville TN","scan_time":"2026-09-24T07:01:19Z","stale":false,"bins":25,"density_birds_km3":20.354666666666667,"heading_deg":190.04425916359148,"speed_ms":5.906106380191275,"peak_altitude_m":1200.0,"u_ms":-0.6703334206733919,"v_ms":-5.38332176077558}},{"type":"Feature","geometry":{"type":"Point","coordinates":[-72.8639,40.8655]},"properties":{"site":"KOKX","name":"Upton NY","scan_time":"2026-09-24T07:00:40Z","stale":false,"bins":25,"density_birds_km3":0.0875,"heading_deg":227.34619614369097,"speed_ms":10.753255813953487,"peak_altitude_m":0.0,"u_ms":-7.904108527131782,"v_ms":-7.205116279069768}},{"type":"Feature","geometry":{"type":"Point","coordinates":[-80.2183,40.5317]},"properties":{"site":"KPBZ","name":"Pittsburgh PA","scan_time":"2026-09-24T06:59:57Z","stale":false,"bins":25,"density_birds_km3":17.005714285714284,"heading_deg":240.71491725008752,"speed_ms":11.62727009078682,"peak_altitude_m":400.0,"u_ms":-9.907928295225286,"v_ms":-5.527267568930734}},{"type":"Feature","geometry":{"type":"Point","coordinates":[-78.4899,35.6655]},"properties":{"site":"KRAX","name":"Raleigh NC","scan_time":"2026-09-24T07:02:53Z","stale":false,"bins":25,"density_birds_km3":17.96875,"heading_deg":207.27689339435707,"speed_ms":13.629871338524286,"peak_altitude_m":200.0,"u_ms":-6.259708565072302,"v_ms":-12.10399147200593}},{"type":"Feature","geometry":{"type":"Point","coordinates":[-82.4017,27.7055]},"properties":{"site":"KTBW","name":"Tampa FL","scan_time":"2026-09-24T07:02:24Z","stale":false,"bins":25,"density_birds_km3":11.618125000000001,"heading_deg":182.44044113312333,"speed_ms":11.616443679026963,"peak_altitude_m":200.0,"u_ms":-0.5880194822668317,"v_ms":-11.513219955868898}}]}