{"type":"FeatureCollection","frame":"2026-09-03T04","site_count":20,"fresh_count":20,"failures":{},"features":[{"type":"Feature","geometry":{"type":"Point","coordinates":[-77.0073,36.984]},"properties":{"site":"KAKQ","name":"Wakefield VA","scan_time":"2026-09-03T03:59:56Z","stale":false,"bins":25,"density_birds_km3":17.516875,"heading_deg":246.00237595792083,"speed_ms":3.7690616191529602,"peak_altitude_m":0.0,"u_ms":-1.997082456202947,"v_ms":-1.3899686017054984}},{"type":"Feature","geometry":{"type":"Point","coordinates":[-71.1369,41.9558]},"properties":{"site":"KBOX","name":"Boston MA","scan_time":"2026-09-03T03:57:36Z","stale":false,"bins":25,"density_birds_km3":0.985625,"heading_deg":304.7884730078796,"speed_ms":5.179822447685479,"peak_altitude_m":0.0,"u_ms":-3.979740012682308,"v_ms":2.961185795814838}},{"type":"Feature","geometry":{"type":"Point","coordinates":[-78.7369,42.9489]},"properties":{"site":"KBUF","name":"Buffalo NY","scan_time":"2026-09-03T03:56:43Z","stale":false,"bins":25,"density_birds_km3":1.68,"heading_deg":68.78028901160403,"speed_ms":10.237361111111111,"peak_altitude_m":200.0,"u_ms":8.921408730158731,"v_ms":2.7980158730158733}},{"type":"Feature","geometry":{"type":"Point","coordinates":[-81.8597,41.4131]},"properties":{"site":"KCLE","name":"Cleveland OH","scan_time":"2026-09-03T04:02:25Z","stale":false,"bins":25,"density_birds_km3":4.18,"heading_deg":92.93795109006413,"speed_ms":14.352499999999997,"peak_altitude_m":200.0,"u_ms":13.349052233902759,"v_ms":-1.1749441524310118}},{"type":"Feature","geometry":{"type":"Point","coordinates":[-81.0423,32.6555]},"properties":{"site":"KCLX","name":"Charleston SC","scan_time":"2026-09-03T03:59:43Z","stale":false,"bins":25,"density_birds_km3":4.64625,"heading_deg":251.8371692823644,"speed_ms":9.211490417758169,"peak_altitude_m":0.0,"u_ms":-6.520459120363987,"v_ms":-4.402694057631325}},{"type":"Feature","geometry":{"type":"Point","coordinates":[-74.4108,39.947]},"properties":{"site":"KDIX","name":"Philadelphia PA","scan_time":"2026-09-03T04:02:10Z","stale":false,"bins":25,"density_birds_km3":5.3325000000000005,"heading_deg":227.2088042520759,"speed_ms":3.2562651975683883,"peak_altitude_m":0.0,"u_ms":-1.415730749746707,"v_ms":-1.6276570415400202}},{"type":"Feature","geometry":{"type":"Point","coordinates":[-84.5658,33.3636]},"properties":{"site":"KFFC","name":"Atlanta GA","scan_time":"2026-09-03T04:00:47Z","stale":false,"bins":25,"density_birds_km3":27.932000000000002,"heading_deg":253.25388561021128,"speed_ms":6.5483340493579645,"peak_altitude_m":1600.0,"u_ms":-4.381632536159244,"v_ms":-2.678757219915032}},{"type":"Feature","geometry":{"type":"Point","coordinates":[-85.5449,42.8939]},"properties":{"site":"KGRR","name":"Grand Rapids MI","scan_time":"2026-09-03T04:00:24Z","stale":false,"bins":25,"density_birds_km3":102.69533333333334,"heading_deg":161.46776397449383,"speed_ms":8.051751718675954,"peak_altitude_m":400.0,"u_ms":2.93606940919094,"v_ms":-7.060491226475723}},{"type":"Feature","geometry":{"type":"Point","coordinates":[-83.8217,39.4203]},"properties":{"site":"KILN","name":"Wilmington OH","scan_time":"2026-09-03T03:58:23Z","stale":false,"bins":25,"density_birds_km3":9.25,"heading_deg":134.7928858916276,"speed_ms":10.670918198198198,"peak_altitude_m":1600.0,"u_ms":6.663321081081081,"v_ms":-6.676781981981982}},{"type":"Feature","geometry":{"type":"Point","coordinates":[-81.7019,30.4846]},"properties":{"site":"KJAX","name":"Jacksonville FL","scan_time":"2026-09-03T04:00:28Z","stale":false,"bins":25,"density_birds_km3":12.78125,"heading_deg":199.920171689382,"speed_ms":9.705286147524946,"peak_altitude_m":0.0,"u_ms":-3.271008608882802,"v_ms":-9.094080903932694}},{"type":"Feature","geometry":{"type":"Point","coordinates":[-88.0847,41.6045]},"properties":{"site":"KLOT","name":"Chicago IL","scan_time":"2026-09-03T03:57:12Z","stale":false,"bins":25,"density_birds_km3":23.350666666666665,"heading_deg":99.9420931342048,"speed_ms":8.991172272026494,"peak_altitude_m":200.0,"u_ms":8.452250899331926,"v_ms":-1.59569234283104}},{"type":"Feature","geometry":{"type":"Point","coordinates":[-78.4292,33.9892]},"properties":{"site":"KLTX","name":"Wilmington NC","scan_time":"2026-09-03T04:00:15Z","stale":false,"bins":25,"density_birds_km3":4.54125,"heading_deg":302.2542693505578,"speed_ms":6.962950726288807,"peak_altitude_m":200.0,"u_ms":-1.2670606664767872,"v_ms":-1.839248077470806}},{"type":"Feature","geometry":{"type":"Point","coordinates":[-77.4778,38.9753]},"properties":{"site":"KLWX","name":"Sterling VA","scan_time":"2026-09-03T03:57:56Z","stale":false,"bins":25,"density_birds_km3":14.333125,"heading_deg":260.7097419121358,"speed_ms":4.684419233790034,"peak_altitude_m":200.0,"u_ms":-2.710091631032376,"v_ms":-0.7067863687930883}},{"type":"Feature","geometry":{"type":"Point","coordinates":[-76.8762,34.7759]},"properties":{"site":"KMHX","name":"Morehead City NC","scan_time":"2026-09-03T04:00:19Z","stale":false,"bins":25,"density_birds_km3":4.583125,"heading_deg":180.3102478432556,"speed_ms":8.184963861993728,"peak_altitude_m":1600.0,"u_ms":-0.8141538251738717,"v_ms":-5.048823128324015}},{"type":"Feature","geometry":{"type":"Point","coordinates":[-80.6542,28.1133]},"properties":{"site":"KMLB","name":"Melbourne FL","scan_time":"2026-09-03T04:02:34Z","stale":false,"bins":25,"density_birds_km3":4.201875,"heading_deg":246.10946854946252,"speed_ms":2.8611453220288556,"peak_altitude_m":200.0,"u_ms":-2.55302840993604,"v_ms":-1.1286732113639744}},{"type":"Feature","geometry":{"type":"Point","coordinates":[-86.5625,36.2472]},"properties":{"site":"KOHX","name":"Nashville TN","scan_time":"2026-09-03T04:00:12Z","stale":false,"bins":25,"density_birds_km3":20.464666666666666,"heading_deg":266.61465863806825,"speed_ms":3.1961787796853116,"peak_altitude_m":200.0,"u_ms":-2.7492295664071413,"v_ms":-0.18529432843600352}},{"type":"Feature","geometry":{"type":"Point","coordinates":[-72.8639,40.8655]},"properties":{"site":"KOKX","name":"Upton NY","scan_time":"2026-09-03T03:58:37Z","stale":false,"bins":25,"density_birds_km3":3.098125,"heading_deg":276.9683128982869,"speed_ms":8.623191102123355,"peak_altitude_m":0.0,"u_ms":-8.090594539939332,"v_ms":1.0344105156723962}},{"type":"Feature","geometry":{"type":"Point","coordinates":[-80.2183,40.5317]},"properties":{"site":"KPBZ","name":"Pittsburgh PA","scan_time":"2026-09-03T04:02:00Z","stale":false,"bins":25,"density_birds_km3":6.437142857142858,"heading_deg":80.81777550880535,"speed_ms":12.714872197309417,"peak_altitude_m":400.0,"u_ms":12.092765695067264,"v_ms":1.5714394618834082}},{"type":"Feature","geometry":{"type":"Point","coordinates":[-78.4899,35.6655]},"properties":{"site":"KRAX","name":"Raleigh NC","scan_time":"2026-09-03T03:59:39Z","stale":false,"bins":25,"density_birds_km3":24.916875,"heading_deg":249.53621159345278,"speed_ms":5.001475907392078,"peak_altitude_m":0.0,"u_ms":-3.0659673414101887,"v_ms":-1.5722111019138636}},{"type":"Feature","geometry":{"type":"Point","coordinates":[-82.4017,27.7055]},"properties":{"site":"KTBW","name":"Tampa FL","scan_time":"2026-09-03T03:58:23Z","stale":false,"bins":25,"density_birds_km3":27.8,"heading_deg":226.23216608318197,"speed_ms":6.643388177384805,"peak_altitude_m":0.0,"u_ms":-4.720594549017821,"v_ms":-4.337354268264892}}]}