{"type":"FeatureCollection","frame":"2026-09-24T06","site_count":20,"fresh_count":20,"failures":{},"features":[{"type":"Feature","geometry":{"type":"Point","coordinates":[-77.0073,36.984]},"properties":{"site":"KAKQ","name":"Wakefield VA","scan_time":"2026-09-24T06:02:18Z","stale":false,"bins":25,"density_birds_km3":68.716875,"heading_deg":182.83665428098683,"speed_ms":12.970170503769515,"peak_altitude_m":0.0,"u_ms":-0.8141858214595122,"v_ms":-12.829615306630293}},{"type":"Feature","geometry":{"type":"Point","coordinates":[-71.1369,41.9558]},"properties":{"site":"KBOX","name":"Boston MA","scan_time":"2026-09-24T06:00:50Z","stale":false,"bins":25,"density_birds_km3":0.2725,"heading_deg":227.1924359278467,"speed_ms":9.214894613583137,"peak_altitude_m":0.0,"u_ms":-6.781779859484777,"v_ms":-6.185222482435597}},{"type":"Feature","geometry":{"type":"Point","coordinates":[-78.7369,42.9489]},"properties":{"site":"KBUF","name":"Buffalo NY","scan_time":"2026-09-24T05:57:53Z","stale":false,"bins":25,"density_birds_km3":8.308,"heading_deg":256.0294489231019,"speed_ms":8.803342962606322,"peak_altitude_m":200.0,"u_ms":-8.325648371047986,"v_ms":-2.0549534585138822}},{"type":"Feature","geometry":{"type":"Point","coordinates":[-81.8597,41.4131]},"properties":{"site":"KCLE","name":"Cleveland OH","scan_time":"2026-09-24T06:02:00Z","stale":false,"bins":25,"density_birds_km3":51.43333333333333,"heading_deg":247.19742828253115,"speed_ms":10.437619831497084,"peak_altitude_m":200.0,"u_ms":-9.368514970836033,"v_ms":-3.697240959170447}},{"type":"Feature","geometry":{"type":"Point","coordinates":[-81.0423,32.6555]},"properties":{"site":"KCLX","name":"Charleston SC","scan_time":"2026-09-24T05:58:36Z","stale":false,"bins":25,"density_birds_km3":6.236875,"heading_deg":211.48498703002747,"speed_ms":10.294736420124275,"peak_altitude_m":0.0,"u_ms":-5.474048907596713,"v_ms":-8.642752054519944}},{"type":"Feature","geometry":{"type":"Point","coordinates":[-74.4108,39.947]},"properties":{"site":"KDIX","name":"Philadelphia PA","scan_time":"2026-09-24T06:00:09Z","stale":false,"bins":25,"density_birds_km3":5.826875,"heading_deg":216.86672407349343,"speed_ms":16.97130004399472,"peak_altitude_m":200.0,"u_ms":-10.311528816542015,"v_ms":-13.372851957765068}},{"type":"Feature","geometry":{"type":"Point","coordinates":[-84.5658,33.3636]},"properties":{"site":"KFFC","name":"Atlanta GA","scan_time":"2026-09-24T05:59:18Z","stale":false,"bins":25,"density_birds_km3":10.135333333333334,"heading_deg":231.06625576936133,"speed_ms":8.533692692231797,"peak_altitude_m":400.0,"u_ms":-5.4164493849898045,"v_ms":-5.064896402025916}},{"type":"Feature","geometry":{"type":"Point","coordinates":[-85.5449,42.8939]},"properties":{"site":"KGRR","name":"Grand Rapids MI","scan_time":"2026-09-24T06:00:24Z","stale":false,"bins":25,"density_birds_km3":9.792,"heading_deg":248.00146581734134,"speed_ms":11.786985294117647,"peak_altitude_m":200.0,"u_ms":-10.767663398692811,"v_ms":-3.7407550381263617}},{"type":"Feature","geometry":{"type":"Point","coordinates":[-83.8217,39.4203]},"properties":{"site":"KILN","name":"Wilmington OH","scan_time":"2026-09-24T05:58:21Z","stale":false,"bins":25,"density_birds_km3":69.55933333333334,"heading_deg":214.09848469846585,"speed_ms":10.024757564430644,"peak_altitude_m":200.0,"u_ms":-5.312545022379406,"v_ms":-8.105545396168186}},{"type":"Feature","geometry":{"type":"Point","coordinates":[-81.7019,30.4846]},"properties":{"site":"KJAX","name":"Jacksonville FL","scan_time":"2026-09-24T06:01:56Z","stale":false,"bins":25,"density_birds_km3":45.0,"heading_deg":186.97125236830615,"speed_ms":15.137101687364261,"peak_altitude_m":200.0,"u_ms":-2.026608843347998,"v_ms":-14.873571309238738}},{"type":"Feature","geometry":{"type":"Point","coordinates":[-88.0847,41.6045]},"properties":{"site":"KLOT","name":"Chicago IL","scan_time":"2026-09-24T05:56:49Z","stale":false,"bins":25,"density_birds_km3":45.777857142857144,"heading_deg":185.53157432587773,"speed_ms":10.229376645488799,"peak_altitude_m":200.0,"u_ms":-1.2862981822768047,"v_ms":-9.493940344626445}},{"type":"Feature","geometry":{"type":"Point","coordinates":[-78.4292,33.9892]},"properties":{"site":"KLTX","name":"Wilmington NC","scan_time":"2026-09-24T05:58:58Z","stale":false,"bins":25,"density_birds_km3":3.1425,"heading_deg":211.0579381646081,"speed_ms":11.530348050914876,"peak_altitude_m":0.0,"u_ms":-5.998713206046141,"v_ms":-9.834399363564042}},{"type":"Feature","geometry":{"type":"Point","coordinates":[-77.4778,38.9753]},"properties":{"site":"KLWX","name":"Sterling VA","scan_time":"2026-09-24T05:59:02Z","stale":false,"bins":25,"density_birds_km3":53.83625,"heading_deg":212.6300341273598,"speed_ms":13.934989376153819,"peak_altitude_m":200.0,"u_ms":-7.636750960790461,"v_ms":-11.213507030315697}},{"type":"Feature","geometry":{"type":"Point","coordinates":[-76.8762,34.7759]},"properties":{"site":"KMHX","name":"Morehead City NC","scan_time":"2026-09-24T06:00:56Z","stale":false,"bins":25,"density_birds_km3":1.89,"heading_deg":195.89056906826266,"speed_ms":15.845823412698412,"peak_altitude_m":200.0,"u_ms":-4.272119708994709,"v_ms":-15.226054894179896}},{"type":"Feature","geometry":{"type":"Point","coordinates":[-80.6542,28.1133]},"properties":{"site":"KMLB","name":"Melbourne FL","scan_time":"2026-09-24T06:01:48Z","stale":false,"bins":25,"density_birds_km3":14.712499999999999,"heading_deg":164.49950996858414,"speed_ms":10.795545454545454,"peak_altitude_m":0.0,"u_ms":2.9007378929481735,"v_ms":-10.395576040781648}},{"type":"Feature","geometry":{"type":"Point","coordinates":[-86.5625,36.2472]},"properties":{"site":"KOHX","name":"Nashville TN","scan_time":"2026-09-24T06:00:19Z","stale":false,"bins":25,"density_birds_km3":19.012,"heading_deg":194.98645635677832,"speed_ms":6.6655624517848375,"peak_altitude_m":200.0,"u_ms":-1.5583165018584753,"v_ms":-5.705122378848446}},{"type":"Feature","geometry":{"type":"Point","coordinates":[-72.8639,40.8655]},"properties":{"site":"KOKX","name":"Upton NY","scan_time":"2026-09-24T06:00:37Z","stale":false,"bins":25,"density_birds_km3":0.13,"heading_deg":231.51980398079027,"speed_ms":11.22427027027027,"peak_altitude_m":0.0,"u_ms":-8.787081081081082,"v_ms":-6.896864864864865}},{"type":"Feature","geometry":{"type":"Point","coordinates":[-80.2183,40.5317]},"properties":{"site":"KPBZ","name":"Pittsburgh PA","scan_time":"2026-09-24T06:01:39Z","stale":false,"bins":25,"density_birds_km3":31.300714285714285,"heading_deg":237.73546600063247,"speed_ms":11.403669787622745,"peak_altitude_m":400.0,"u_ms":-9.419293674354876,"v_ms":-5.899632564512445}},{"type":"Feature","geometry":{"type":"Point","coordinates":[-78.4899,35.6655]},"properties":{"site":"KRAX","name":"Raleigh NC","scan_time":"2026-09-24T06:02:27Z","stale":false,"bins":25,"density_birds_km3":13.567499999999999,"heading_deg":206.46346066060988,"speed_ms":13.099209893666204,"peak_altitude_m":200.0,"u_ms":-5.916522422561258,"v_ms":-11.662445677300047}},{"type":"Feature","geometry":{"type":"Point","coordinates":[-82.4017,27.7055]},"properties":{"site":"KTBW","name":"Tampa FL","scan_time":"2026-09-24T06:00:57Z","stale":false,"bins":25,"density_birds_km3":17.994375,"heading_deg":181.7212249054872,"speed_ms":11.561400090305998,"peak_altitude_m":200.0,"u_ms":-0.402654996353027,"v_ms":-11.45450939529714}}]}