{"type":"FeatureCollection","frame":"2026-09-17T05","site_count":20,"fresh_count":20,"failures":{},"features":[{"type":"Feature","geometry":{"type":"Point","coordinates":[-77.0073,36.984]},"properties":{"site":"KAKQ","name":"Wakefield VA","scan_time":"2026-09-17T04:59:07Z","stale":false,"bins":25,"density_birds_km3":2.6875,"heading_deg":46.34489424549723,"speed_ms":6.872542491268917,"peak_altitude_m":200.0,"u_ms":2.3251967403958087,"v_ms":2.9463958090803257}},{"type":"Feature","geometry":{"type":"Point","coordinates":[-71.1369,41.9558]},"properties":{"site":"KBOX","name":"Boston MA","scan_time":"2026-09-17T04:55:57Z","stale":false,"bins":25,"density_birds_km3":3.060625,"heading_deg":124.02915988419512,"speed_ms":6.852644476209925,"peak_altitude_m":200.0,"u_ms":5.303101899121912,"v_ms":-3.8266489687563814}},{"type":"Feature","geometry":{"type":"Point","coordinates":[-78.7369,42.9489]},"properties":{"site":"KBUF","name":"Buffalo NY","scan_time":"2026-09-17T04:56:57Z","stale":false,"bins":25,"density_birds_km3":104.22933333333334,"heading_deg":219.06890815944203,"speed_ms":8.46469599089188,"peak_altitude_m":400.0,"u_ms":-5.067638028961777,"v_ms":-6.290333623292227}},{"type":"Feature","geometry":{"type":"Point","coordinates":[-81.8597,41.4131]},"properties":{"site":"KCLE","name":"Cleveland OH","scan_time":"2026-09-17T04:58:05Z","stale":false,"bins":25,"density_birds_km3":49.916000000000004,"heading_deg":237.0528791241344,"speed_ms":7.546220450356599,"peak_altitude_m":400.0,"u_ms":-5.058894008601117,"v_ms":-3.6912292651654783}},{"type":"Feature","geometry":{"type":"Point","coordinates":[-81.0423,32.6555]},"properties":{"site":"KCLX","name":"Charleston SC","scan_time":"2026-09-17T05:00:05Z","stale":false,"bins":25,"density_birds_km3":18.790625,"heading_deg":219.2974960023698,"speed_ms":10.349800765009148,"peak_altitude_m":0.0,"u_ms":-6.358089140196242,"v_ms":-7.9366159986695495}},{"type":"Feature","geometry":{"type":"Point","coordinates":[-74.4108,39.947]},"properties":{"site":"KDIX","name":"Philadelphia PA","scan_time":"2026-09-17T04:58:11Z","stale":false,"bins":25,"density_birds_km3":2.2275,"heading_deg":72.9771007911931,"speed_ms":6.471083660864682,"peak_altitude_m":200.0,"u_ms":5.39191184727681,"v_ms":1.6531836047164514}},{"type":"Feature","geometry":{"type":"Point","coordinates":[-84.5658,33.3636]},"properties":{"site":"KFFC","name":"Atlanta GA","scan_time":"2026-09-17T04:58:59Z","stale":false,"bins":25,"density_birds_km3":64.674,"heading_deg":226.29453068371217,"speed_ms":11.861893547256193,"peak_altitude_m":1400.0,"u_ms":-7.42267565115176,"v_ms":-8.389184797178858}},{"type":"Feature","geometry":{"type":"Point","coordinates":[-85.5449,42.8939]},"properties":{"site":"KGRR","name":"Grand Rapids MI","scan_time":"2026-09-17T05:00:03Z","stale":false,"bins":25,"density_birds_km3":55.69466666666666,"heading_deg":266.07287363710765,"speed_ms":7.451043512858538,"peak_altitude_m":400.0,"u_ms":-6.779993248212585,"v_ms":-0.1816710673852498}},{"type":"Feature","geometry":{"type":"Point","coordinates":[-83.8217,39.4203]},"properties":{"site":"KILN","name":"Wilmington OH","scan_time":"2026-09-17T05:01:07Z","stale":false,"bins":25,"density_birds_km3":35.251333333333335,"heading_deg":111.50260021002383,"speed_ms":7.650722838645609,"peak_altitude_m":200.0,"u_ms":6.629070335924221,"v_ms":-1.7341288696216797}},{"type":"Feature","geometry":{"type":"Point","coordinates":[-81.7019,30.4846]},"properties":{"site":"KJAX","name":"Jacksonville FL","scan_time":"2026-09-17T05:01:30Z","stale":false,"bins":25,"density_birds_km3":118.23,"heading_deg":202.72448847463136,"speed_ms":9.407932086989698,"peak_altitude_m":0.0,"u_ms":-3.8499019670185257,"v_ms":-8.231933634321082}},{"type":"Feature","geometry":{"type":"Point","coordinates":[-88.0847,41.6045]},"properties":{"site":"KLOT","name":"Chicago IL","scan_time":"2026-09-17T05:00:33Z","stale":false,"bins":25,"density_birds_km3":26.490666666666666,"heading_deg":175.11186121308148,"speed_ms":6.791194443020454,"peak_altitude_m":200.0,"u_ms":1.347851540472651,"v_ms":-4.910899677039012}},{"type":"Feature","geometry":{"type":"Point","coordinates":[-78.4292,33.9892]},"properties":{"site":"KLTX","name":"Wilmington NC","scan_time":"2026-09-17T04:59:07Z","stale":false,"bins":25,"density_birds_km3":6.0125,"heading_deg":231.4347726605542,"speed_ms":6.232810810810811,"peak_altitude_m":0.0,"u_ms":-4.473550935550935,"v_ms":-3.843201663201663}},{"type":"Feature","geometry":{"type":"Point","coordinates":[-77.4778,38.9753]},"properties":{"site":"KLWX","name":"Sterling VA","scan_time":"2026-09-17T04:58:08Z","stale":false,"bins":25,"density_birds_km3":8.219375,"heading_deg":61.73852785114256,"speed_ms":6.2951038209185635,"peak_altitude_m":200.0,"u_ms":3.8217908143573904,"v_ms":1.8593106908529522}},{"type":"Feature","geometry":{"type":"Point","coordinates":[-76.8762,34.7759]},"properties":{"site":"KMHX","name":"Morehead City NC","scan_time":"2026-09-17T04:58:09Z","stale":false,"bins":25,"density_birds_km3":2.545,"heading_deg":217.47371823145136,"speed_ms":3.3448354616895872,"peak_altitude_m":0.0,"u_ms":-1.5332293713163065,"v_ms":-2.3088163064833007}},{"type":"Feature","geometry":{"type":"Point","coordinates":[-80.6542,28.1133]},"properties":{"site":"KMLB","name":"Melbourne FL","scan_time":"2026-09-17T05:00:34Z","stale":false,"bins":25,"density_birds_km3":4.570625,"heading_deg":230.9989920307855,"speed_ms":3.515536839222131,"peak_altitude_m":0.0,"u_ms":-2.74403314160504,"v_ms":-2.132534921939195}},{"type":"Feature","geometry":{"type":"Point","coordinates":[-86.5625,36.2472]},"properties":{"site":"KOHX","name":"Nashville TN","scan_time":"2026-09-17T05:00:50Z","stale":false,"bins":25,"density_birds_km3":19.826,"heading_deg":342.58939837855985,"speed_ms":7.2244742593900275,"peak_altitude_m":200.0,"u_ms":-2.0118746427250414,"v_ms":5.450847035878812}},{"type":"Feature","geometry":{"type":"Point","coordinates":[-72.8639,40.8655]},"properties":{"site":"KOKX","name":"Upton NY","scan_time":"2026-09-17T05:01:39Z","stale":false,"bins":25,"density_birds_km3":0.55625,"heading_deg":73.21245831982267,"speed_ms":6.725174746335965,"peak_altitude_m":0.0,"u_ms":5.494475760992108,"v_ms":1.8031341600901918}},{"type":"Feature","geometry":{"type":"Point","coordinates":[-80.2183,40.5317]},"properties":{"site":"KPBZ","name":"Pittsburgh PA","scan_time":"2026-09-17T04:57:45Z","stale":false,"bins":25,"density_birds_km3":84.18249999999999,"heading_deg":60.98786345063301,"speed_ms":2.26366331151496,"peak_altitude_m":400.0,"u_ms":1.983907532282624,"v_ms":1.0904884415353282}},{"type":"Feature","geometry":{"type":"Point","coordinates":[-78.4899,35.6655]},"properties":{"site":"KRAX","name":"Raleigh NC","scan_time":"2026-09-17T05:02:11Z","stale":false,"bins":25,"density_birds_km3":7.7700000000000005,"heading_deg":42.80588522889538,"speed_ms":5.770507258196053,"peak_altitude_m":200.0,"u_ms":0.6627067362583591,"v_ms":0.24487685532539546}},{"type":"Feature","geometry":{"type":"Point","coordinates":[-82.4017,27.7055]},"properties":{"site":"KTBW","name":"Tampa FL","scan_time":"2026-09-17T04:59:50Z","stale":false,"bins":25,"density_birds_km3":29.025,"heading_deg":195.2651612802132,"speed_ms":10.217891688199828,"peak_altitude_m":0.0,"u_ms":-2.6978238587424634,"v_ms":-9.701004091300604}}]}