{"type":"FeatureCollection","frame":"2026-08-20T09","site_count":20,"fresh_count":20,"failures":{},"features":[{"type":"Feature","geometry":{"type":"Point","coordinates":[-77.0073,36.984]},"properties":{"site":"KAKQ","name":"Wakefield VA","scan_time":"2026-08-20T09:02:17Z","stale":false,"bins":25,"density_birds_km3":1.03,"heading_deg":8.042859725056001,"speed_ms":8.267688106796117,"peak_altitude_m":0.0,"u_ms":1.1714016990291263,"v_ms":8.019417475728154}},{"type":"Feature","geometry":{"type":"Point","coordinates":[-71.1369,41.9558]},"properties":{"site":"KBOX","name":"Boston MA","scan_time":"2026-08-20T08:58:41Z","stale":false,"bins":25,"density_birds_km3":1.235625,"heading_deg":123.37357188940484,"speed_ms":5.221615853658537,"peak_altitude_m":0.0,"u_ms":4.231529471544715,"v_ms":-2.832367886178862}},{"type":"Feature","geometry":{"type":"Point","coordinates":[-78.7369,42.9489]},"properties":{"site":"KBUF","name":"Buffalo NY","scan_time":"2026-08-20T08:59:52Z","stale":false,"bins":25,"density_birds_km3":2.13,"heading_deg":215.54671533548415,"speed_ms":6.72970579029734,"peak_altitude_m":200.0,"u_ms":-3.7816087636932707,"v_ms":-5.142863849765258}},{"type":"Feature","geometry":{"type":"Point","coordinates":[-81.8597,41.4131]},"properties":{"site":"KCLE","name":"Cleveland OH","scan_time":"2026-08-20T09:02:15Z","stale":false,"bins":25,"density_birds_km3":2.2506666666666666,"heading_deg":245.31291531909233,"speed_ms":6.324386848341232,"peak_altitude_m":400.0,"u_ms":-5.590601303317536,"v_ms":-2.675885663507109}},{"type":"Feature","geometry":{"type":"Point","coordinates":[-81.0423,32.6555]},"properties":{"site":"KCLX","name":"Charleston SC","scan_time":"2026-08-20T09:02:13Z","stale":false,"bins":25,"density_birds_km3":10.64875,"heading_deg":217.53617595431078,"speed_ms":3.612222678718159,"peak_altitude_m":0.0,"u_ms":-2.0776417419884963,"v_ms":-2.799243455804672}},{"type":"Feature","geometry":{"type":"Point","coordinates":[-74.4108,39.947]},"properties":{"site":"KDIX","name":"Philadelphia PA","scan_time":"2026-08-20T09:01:02Z","stale":false,"bins":25,"density_birds_km3":1.1925,"heading_deg":152.52195369782223,"speed_ms":5.706960167714885,"peak_altitude_m":200.0,"u_ms":2.5023270440251575,"v_ms":-4.890953878406709}},{"type":"Feature","geometry":{"type":"Point","coordinates":[-84.5658,33.3636]},"properties":{"site":"KFFC","name":"Atlanta GA","scan_time":"2026-08-20T09:02:33Z","stale":false,"bins":25,"density_birds_km3":6.989333333333334,"heading_deg":122.92626574468383,"speed_ms":3.7600190766882866,"peak_altitude_m":400.0,"u_ms":2.9582764212132777,"v_ms":-1.8314231209462037}},{"type":"Feature","geometry":{"type":"Point","coordinates":[-85.5449,42.8939]},"properties":{"site":"KGRR","name":"Grand Rapids MI","scan_time":"2026-08-20T08:58:30Z","stale":false,"bins":25,"density_birds_km3":5.803333333333333,"heading_deg":251.7652980437735,"speed_ms":7.1997909007352945,"peak_altitude_m":200.0,"u_ms":-6.648107766544118,"v_ms":-2.212401194852941}},{"type":"Feature","geometry":{"type":"Point","coordinates":[-83.8217,39.4203]},"properties":{"site":"KILN","name":"Wilmington OH","scan_time":"2026-08-20T08:58:09Z","stale":false,"bins":25,"density_birds_km3":5.169333333333333,"heading_deg":137.62943933041464,"speed_ms":4.530259254482136,"peak_altitude_m":400.0,"u_ms":2.1662569328002066,"v_ms":-0.3716354959370567}},{"type":"Feature","geometry":{"type":"Point","coordinates":[-81.7019,30.4846]},"properties":{"site":"KJAX","name":"Jacksonville FL","scan_time":"2026-08-20T09:01:56Z","stale":false,"bins":25,"density_birds_km3":25.853125,"heading_deg":176.12045687356135,"speed_ms":7.5625848563968665,"peak_altitude_m":200.0,"u_ms":0.2898563968668406,"v_ms":-7.295462721206847}},{"type":"Feature","geometry":{"type":"Point","coordinates":[-88.0847,41.6045]},"properties":{"site":"KLOT","name":"Chicago IL","scan_time":"2026-08-20T08:58:07Z","stale":false,"bins":25,"density_birds_km3":2.7346666666666666,"heading_deg":221.36663444412926,"speed_ms":9.802682272616435,"peak_altitude_m":400.0,"u_ms":-6.532613996586198,"v_ms":-7.201836137527433}},{"type":"Feature","geometry":{"type":"Point","coordinates":[-78.4292,33.9892]},"properties":{"site":"KLTX","name":"Wilmington NC","scan_time":"2026-08-20T09:01:10Z","stale":false,"bins":25,"density_birds_km3":3.173125,"heading_deg":300.7751041928551,"speed_ms":4.057048857368007,"peak_altitude_m":0.0,"u_ms":-3.504568557919622,"v_ms":1.8693892828999215}},{"type":"Feature","geometry":{"type":"Point","coordinates":[-77.4778,38.9753]},"properties":{"site":"KLWX","name":"Sterling VA","scan_time":"2026-08-20T08:59:53Z","stale":false,"bins":25,"density_birds_km3":4.73,"heading_deg":294.06930427373766,"speed_ms":4.427229810369978,"peak_altitude_m":200.0,"u_ms":-3.889038589046546,"v_ms":1.7287375679618089}},{"type":"Feature","geometry":{"type":"Point","coordinates":[-76.8762,34.7759]},"properties":{"site":"KMHX","name":"Morehead City NC","scan_time":"2026-08-20T08:57:39Z","stale":false,"bins":25,"density_birds_km3":0.586875,"heading_deg":330.5927062808696,"speed_ms":4.13416400425985,"peak_altitude_m":0.0,"u_ms":-1.8800638977635782,"v_ms":3.40531416400426}},{"type":"Feature","geometry":{"type":"Point","coordinates":[-80.6542,28.1133]},"properties":{"site":"KMLB","name":"Melbourne FL","scan_time":"2026-08-20T08:57:55Z","stale":false,"bins":25,"density_birds_km3":1.9568750000000001,"heading_deg":166.43767828673734,"speed_ms":3.3580357713190674,"peak_altitude_m":0.0,"u_ms":0.1976045991695944,"v_ms":-3.143877355477483}},{"type":"Feature","geometry":{"type":"Point","coordinates":[-86.5625,36.2472]},"properties":{"site":"KOHX","name":"Nashville TN","scan_time":"2026-08-20T08:57:31Z","stale":false,"bins":25,"density_birds_km3":55.70399999999999,"heading_deg":null,"speed_ms":null,"peak_altitude_m":600.0,"u_ms":null,"v_ms":null}},{"type":"Feature","geometry":{"type":"Point","coordinates":[-72.8639,40.8655]},"properties":{"site":"KOKX","name":"Upton NY","scan_time":"2026-08-20T09:01:00Z","stale":false,"bins":25,"density_birds_km3":1.13625,"heading_deg":127.12904831812962,"speed_ms":5.082560359348681,"peak_altitude_m":0.0,"u_ms":3.9839135317237506,"v_ms":-3.0371757439640654}},{"type":"Feature","geometry":{"type":"Point","coordinates":[-80.2183,40.5317]},"properties":{"site":"KPBZ","name":"Pittsburgh PA","scan_time":"2026-08-20T09:01:27Z","stale":false,"bins":25,"density_birds_km3":4.592307692307693,"heading_deg":147.89982105363373,"speed_ms":3.7413973799126636,"peak_altitude_m":600.0,"u_ms":1.7424781659388648,"v_ms":-3.190671397379913}},{"type":"Feature","geometry":{"type":"Point","coordinates":[-78.4899,35.6655]},"properties":{"site":"KRAX","name":"Raleigh NC","scan_time":"2026-08-20T08:58:53Z","stale":false,"bins":25,"density_birds_km3":2.15125,"heading_deg":6.368897525721378,"speed_ms":5.215580110497237,"peak_altitude_m":0.0,"u_ms":0.5091072986333237,"v_ms":5.098572259377726}},{"type":"Feature","geometry":{"type":"Point","coordinates":[-82.4017,27.7055]},"properties":{"site":"KTBW","name":"Tampa FL","scan_time":"2026-08-20T09:02:13Z","stale":false,"bins":25,"density_birds_km3":5.555,"heading_deg":219.84058825933184,"speed_ms":4.206353404614519,"peak_altitude_m":0.0,"u_ms":-2.340925154755205,"v_ms":-2.959389983117614}}]}