{"type":"FeatureCollection","generated_at":"2026-09-11T03:45:34Z","site_count":20,"fresh_count":20,"failures":{},"features":[{"type":"Feature","geometry":{"type":"Point","coordinates":[-77.0073,36.984]},"properties":{"site":"KAKQ","name":"Wakefield VA","scan_time":"2026-09-11T03:37:56Z","stale":false,"bins":25,"density_birds_km3":24.04375,"heading_deg":61.73835186123189,"speed_ms":5.063545640326975,"peak_altitude_m":0.0,"u_ms":3.4555260951582483,"v_ms":-0.4582320268287571}},{"type":"Feature","geometry":{"type":"Point","coordinates":[-71.1369,41.9558]},"properties":{"site":"KBOX","name":"Boston MA","scan_time":"2026-09-11T03:37:23Z","stale":false,"bins":25,"density_birds_km3":4.465,"heading_deg":140.39771721046762,"speed_ms":9.334878219484882,"peak_altitude_m":0.0,"u_ms":6.128828387458007,"v_ms":-6.904246920492722}},{"type":"Feature","geometry":{"type":"Point","coordinates":[-78.7369,42.9489]},"properties":{"site":"KBUF","name":"Buffalo NY","scan_time":"2026-09-11T03:33:29Z","stale":false,"bins":25,"density_birds_km3":72.55666666666666,"heading_deg":189.70516538229566,"speed_ms":9.974745991638718,"peak_altitude_m":400.0,"u_ms":-1.5360666146000828,"v_ms":-9.76921505030551}},{"type":"Feature","geometry":{"type":"Point","coordinates":[-81.8597,41.4131]},"properties":{"site":"KCLE","name":"Cleveland OH","scan_time":"2026-09-11T03:35:28Z","stale":false,"bins":25,"density_birds_km3":55.058,"heading_deg":165.62971743258785,"speed_ms":9.886665940160073,"peak_altitude_m":600.0,"u_ms":2.5619022364294626,"v_ms":-9.416544008136874}},{"type":"Feature","geometry":{"type":"Point","coordinates":[-81.0423,32.6555]},"properties":{"site":"KCLX","name":"Charleston SC","scan_time":"2026-09-11T03:36:21Z","stale":false,"bins":25,"density_birds_km3":1.996875,"heading_deg":16.63036518689342,"speed_ms":5.8923802067021605,"peak_altitude_m":0.0,"u_ms":1.5627591606639524,"v_ms":3.8037237707485123}},{"type":"Feature","geometry":{"type":"Point","coordinates":[-74.4108,39.947]},"properties":{"site":"KDIX","name":"Philadelphia PA","scan_time":"2026-09-11T03:38:00Z","stale":false,"bins":25,"density_birds_km3":9.34625,"heading_deg":155.35213793000756,"speed_ms":7.701264221657073,"peak_altitude_m":200.0,"u_ms":3.2098741801632977,"v_ms":-6.90200040155267}},{"type":"Feature","geometry":{"type":"Point","coordinates":[-84.5658,33.3636]},"properties":{"site":"KFFC","name":"Atlanta GA","scan_time":"2026-09-11T03:38:11Z","stale":false,"bins":25,"density_birds_km3":27.80933333333333,"heading_deg":296.5217882880283,"speed_ms":3.9688974924485785,"peak_altitude_m":400.0,"u_ms":-1.2112449057870258,"v_ms":0.8586920458359304}},{"type":"Feature","geometry":{"type":"Point","coordinates":[-85.5449,42.8939]},"properties":{"site":"KGRR","name":"Grand Rapids MI","scan_time":"2026-09-11T03:32:40Z","stale":false,"bins":25,"density_birds_km3":172.3046666666667,"heading_deg":188.3759663421901,"speed_ms":10.234472384946953,"peak_altitude_m":400.0,"u_ms":-1.2261990125596836,"v_ms":-9.739616322171749}},{"type":"Feature","geometry":{"type":"Point","coordinates":[-83.8217,39.4203]},"properties":{"site":"KILN","name":"Wilmington OH","scan_time":"2026-09-11T03:37:21Z","stale":false,"bins":25,"density_birds_km3":196.25444444444443,"heading_deg":195.19999999999996,"speed_ms":5.19,"peak_altitude_m":400.0,"u_ms":-1.36,"v_ms":-5.01}},{"type":"Feature","geometry":{"type":"Point","coordinates":[-81.7019,30.4846]},"properties":{"site":"KJAX","name":"Jacksonville FL","scan_time":"2026-09-11T03:39:50Z","stale":false,"bins":25,"density_birds_km3":7.265,"heading_deg":177.31465701623424,"speed_ms":3.580716253443526,"peak_altitude_m":200.0,"u_ms":1.2749268250688703,"v_ms":-3.095929752066116}},{"type":"Feature","geometry":{"type":"Point","coordinates":[-88.0847,41.6045]},"properties":{"site":"KLOT","name":"Chicago IL","scan_time":"2026-09-11T03:34:59Z","stale":false,"bins":25,"density_birds_km3":81.02466666666668,"heading_deg":191.22595250866854,"speed_ms":8.985436369171527,"peak_altitude_m":400.0,"u_ms":0.3551409858726149,"v_ms":-5.915045706245834}},{"type":"Feature","geometry":{"type":"Point","coordinates":[-78.4292,33.9892]},"properties":{"site":"KLTX","name":"Wilmington NC","scan_time":"2026-09-11T03:38:39Z","stale":false,"bins":25,"density_birds_km3":2.475,"heading_deg":71.17922234426634,"speed_ms":8.664921677614956,"peak_altitude_m":0.0,"u_ms":5.802753916119252,"v_ms":2.1468393127842345}},{"type":"Feature","geometry":{"type":"Point","coordinates":[-77.4778,38.9753]},"properties":{"site":"KLWX","name":"Sterling VA","scan_time":"2026-09-11T03:37:37Z","stale":false,"bins":25,"density_birds_km3":30.587500000000002,"heading_deg":173.62674391559244,"speed_ms":7.812447754466481,"peak_altitude_m":600.0,"u_ms":0.7675383133912475,"v_ms":-7.47829843468284}},{"type":"Feature","geometry":{"type":"Point","coordinates":[-76.8762,34.7759]},"properties":{"site":"KMHX","name":"Morehead City NC","scan_time":"2026-09-11T03:39:45Z","stale":false,"bins":25,"density_birds_km3":0.82,"heading_deg":54.222317347963354,"speed_ms":9.356886503067486,"peak_altitude_m":0.0,"u_ms":7.011326687116565,"v_ms":5.327338957055215}},{"type":"Feature","geometry":{"type":"Point","coordinates":[-80.6542,28.1133]},"properties":{"site":"KMLB","name":"Melbourne FL","scan_time":"2026-09-11T03:40:12Z","stale":false,"bins":25,"density_birds_km3":6.853750000000001,"heading_deg":188.9315600954969,"speed_ms":3.980341116380883,"peak_altitude_m":0.0,"u_ms":0.050678584458226934,"v_ms":-1.6467885808099239}},{"type":"Feature","geometry":{"type":"Point","coordinates":[-86.5625,36.2472]},"properties":{"site":"KOHX","name":"Nashville TN","scan_time":"2026-09-11T03:35:42Z","stale":false,"bins":25,"density_birds_km3":28.09,"heading_deg":317.30343737614055,"speed_ms":4.346686127922155,"peak_altitude_m":200.0,"u_ms":0.8366403227720421,"v_ms":1.3644711047822475}},{"type":"Feature","geometry":{"type":"Point","coordinates":[-72.8639,40.8655]},"properties":{"site":"KOKX","name":"Upton NY","scan_time":"2026-09-11T03:35:52Z","stale":false,"bins":25,"density_birds_km3":20.241875,"heading_deg":192.53944843270466,"speed_ms":6.924058965325423,"peak_altitude_m":0.0,"u_ms":-1.6162735644971877,"v_ms":-6.64303881574881}},{"type":"Feature","geometry":{"type":"Point","coordinates":[-80.2183,40.5317]},"properties":{"site":"KPBZ","name":"Pittsburgh PA","scan_time":"2026-09-11T03:39:30Z","stale":false,"bins":25,"density_birds_km3":66.81428571428572,"heading_deg":185.68916386242273,"speed_ms":7.110656892938107,"peak_altitude_m":600.0,"u_ms":-0.3149884511741307,"v_ms":-6.765945720518415}},{"type":"Feature","geometry":{"type":"Point","coordinates":[-78.4899,35.6655]},"properties":{"site":"KRAX","name":"Raleigh NC","scan_time":"2026-09-11T03:34:38Z","stale":false,"bins":25,"density_birds_km3":10.399375,"heading_deg":98.07182544842901,"speed_ms":9.127951198990324,"peak_altitude_m":0.0,"u_ms":4.16717170503035,"v_ms":-1.422949696496184}},{"type":"Feature","geometry":{"type":"Point","coordinates":[-82.4017,27.7055]},"properties":{"site":"KTBW","name":"Tampa FL","scan_time":"2026-09-11T03:40:54Z","stale":false,"bins":25,"density_birds_km3":6.7625,"heading_deg":293.2209675724621,"speed_ms":3.8524736452746438,"peak_altitude_m":0.0,"u_ms":-2.799533937488441,"v_ms":1.0192352506010727}}]}