{"type":"FeatureCollection","frame":"2026-08-26T00","site_count":20,"fresh_count":20,"failures":{},"features":[{"type":"Feature","geometry":{"type":"Point","coordinates":[-77.0073,36.984]},"properties":{"site":"KAKQ","name":"Wakefield VA","scan_time":"2026-08-25T23:58:46Z","stale":false,"bins":25,"density_birds_km3":11.5375,"heading_deg":198.63862924397992,"speed_ms":2.756598591549296,"peak_altitude_m":200.0,"u_ms":-0.8824924160346697,"v_ms":-2.584638136511376}},{"type":"Feature","geometry":{"type":"Point","coordinates":[-71.1369,41.9558]},"properties":{"site":"KBOX","name":"Boston MA","scan_time":"2026-08-25T23:57:03Z","stale":false,"bins":25,"density_birds_km3":1.18625,"heading_deg":99.64462546251626,"speed_ms":7.3348208640674395,"peak_altitude_m":0.0,"u_ms":7.2193361433087455,"v_ms":-1.2324341412012645}},{"type":"Feature","geometry":{"type":"Point","coordinates":[-78.7369,42.9489]},"properties":{"site":"KBUF","name":"Buffalo NY","scan_time":"2026-08-25T23:59:11Z","stale":false,"bins":25,"density_birds_km3":0.5886666666666667,"heading_deg":71.86063472550713,"speed_ms":5.058595696489241,"peak_altitude_m":200.0,"u_ms":4.569071347678369,"v_ms":1.6005322763306908}},{"type":"Feature","geometry":{"type":"Point","coordinates":[-81.8597,41.4131]},"properties":{"site":"KCLE","name":"Cleveland OH","scan_time":"2026-08-25T23:56:49Z","stale":false,"bins":25,"density_birds_km3":3.0006666666666666,"heading_deg":290.8368403778597,"speed_ms":2.108637474994443,"peak_altitude_m":200.0,"u_ms":-1.0661858190709046,"v_ms":-0.07114025338964225}},{"type":"Feature","geometry":{"type":"Point","coordinates":[-81.0423,32.6555]},"properties":{"site":"KCLX","name":"Charleston SC","scan_time":"2026-08-25T23:59:39Z","stale":false,"bins":25,"density_birds_km3":6.418125,"heading_deg":298.5439892221568,"speed_ms":5.964359723439478,"peak_altitude_m":0.0,"u_ms":-5.215363716038563,"v_ms":2.8732340052585448}},{"type":"Feature","geometry":{"type":"Point","coordinates":[-74.4108,39.947]},"properties":{"site":"KDIX","name":"Philadelphia PA","scan_time":"2026-08-26T00:00:15Z","stale":false,"bins":25,"density_birds_km3":1.58125,"heading_deg":96.47028644724286,"speed_ms":5.052292490118576,"peak_altitude_m":0.0,"u_ms":4.998501976284585,"v_ms":-0.6034980237154149}},{"type":"Feature","geometry":{"type":"Point","coordinates":[-84.5658,33.3636]},"properties":{"site":"KFFC","name":"Atlanta GA","scan_time":"2026-08-25T23:57:57Z","stale":false,"bins":25,"density_birds_km3":0.5293333333333333,"heading_deg":180.17986909608265,"speed_ms":5.016986128625473,"peak_altitude_m":200.0,"u_ms":-0.00998738965952085,"v_ms":-4.828965952080707}},{"type":"Feature","geometry":{"type":"Point","coordinates":[-85.5449,42.8939]},"properties":{"site":"KGRR","name":"Grand Rapids MI","scan_time":"2026-08-25T23:55:57Z","stale":false,"bins":25,"density_birds_km3":0.8326666666666667,"heading_deg":101.02890074973965,"speed_ms":3.820064102564103,"peak_altitude_m":200.0,"u_ms":3.74349358974359,"v_ms":-0.7192708333333334}},{"type":"Feature","geometry":{"type":"Point","coordinates":[-83.8217,39.4203]},"properties":{"site":"KILN","name":"Wilmington OH","scan_time":"2026-08-26T00:01:45Z","stale":false,"bins":25,"density_birds_km3":0.962,"heading_deg":297.80313860082856,"speed_ms":2.2010416666666663,"peak_altitude_m":200.0,"u_ms":-1.8882291666666666,"v_ms":1.0029722222222222}},{"type":"Feature","geometry":{"type":"Point","coordinates":[-81.7019,30.4846]},"properties":{"site":"KJAX","name":"Jacksonville FL","scan_time":"2026-08-26T00:00:03Z","stale":false,"bins":25,"density_birds_km3":14.424375,"heading_deg":145.24340680083364,"speed_ms":3.5936418790084934,"peak_altitude_m":0.0,"u_ms":2.0215219275437684,"v_ms":-2.9510716762003812}},{"type":"Feature","geometry":{"type":"Point","coordinates":[-88.0847,41.6045]},"properties":{"site":"KLOT","name":"Chicago IL","scan_time":"2026-08-26T00:01:32Z","stale":false,"bins":25,"density_birds_km3":0.748,"heading_deg":44.561760430552376,"speed_ms":4.1789249304911955,"peak_altitude_m":200.0,"u_ms":2.8782205746061167,"v_ms":2.779332715477294}},{"type":"Feature","geometry":{"type":"Point","coordinates":[-78.4292,33.9892]},"properties":{"site":"KLTX","name":"Wilmington NC","scan_time":"2026-08-26T00:00:18Z","stale":false,"bins":25,"density_birds_km3":3.7875,"heading_deg":302.44000443773524,"speed_ms":5.406396366639141,"peak_altitude_m":0.0,"u_ms":-4.534515276630884,"v_ms":2.8863121387283237}},{"type":"Feature","geometry":{"type":"Point","coordinates":[-77.4778,38.9753]},"properties":{"site":"KLWX","name":"Sterling VA","scan_time":"2026-08-25T23:58:16Z","stale":false,"bins":25,"density_birds_km3":2.83375,"heading_deg":183.42740596342645,"speed_ms":1.9660860163382992,"peak_altitude_m":400.0,"u_ms":-0.22895482940893802,"v_ms":-1.8203724171071602}},{"type":"Feature","geometry":{"type":"Point","coordinates":[-76.8762,34.7759]},"properties":{"site":"KMHX","name":"Morehead City NC","scan_time":"2026-08-26T00:01:56Z","stale":false,"bins":25,"density_birds_km3":3.1843749999999997,"heading_deg":353.0439808078727,"speed_ms":5.718876227897839,"peak_altitude_m":0.0,"u_ms":-0.593811394891945,"v_ms":5.335302554027506}},{"type":"Feature","geometry":{"type":"Point","coordinates":[-80.6542,28.1133]},"properties":{"site":"KMLB","name":"Melbourne FL","scan_time":"2026-08-25T23:57:38Z","stale":false,"bins":25,"density_birds_km3":1.450625,"heading_deg":304.21170593470123,"speed_ms":4.974103773584905,"peak_altitude_m":0.0,"u_ms":-4.030566037735849,"v_ms":2.6935377358490564}},{"type":"Feature","geometry":{"type":"Point","coordinates":[-86.5625,36.2472]},"properties":{"site":"KOHX","name":"Nashville TN","scan_time":"2026-08-25T23:57:39Z","stale":false,"bins":25,"density_birds_km3":3.0780000000000003,"heading_deg":209.83043853584704,"speed_ms":3.8594389081455804,"peak_altitude_m":200.0,"u_ms":-1.8808253899480067,"v_ms":-3.320426776429809}},{"type":"Feature","geometry":{"type":"Point","coordinates":[-72.8639,40.8655]},"properties":{"site":"KOKX","name":"Upton NY","scan_time":"2026-08-25T23:59:45Z","stale":false,"bins":25,"density_birds_km3":1.8162500000000001,"heading_deg":85.68490351305809,"speed_ms":5.5674879559532,"peak_altitude_m":0.0,"u_ms":5.53758086717137,"v_ms":0.4091293874741913}},{"type":"Feature","geometry":{"type":"Point","coordinates":[-80.2183,40.5317]},"properties":{"site":"KPBZ","name":"Pittsburgh PA","scan_time":"2026-08-26T00:02:23Z","stale":false,"bins":25,"density_birds_km3":0.48357142857142854,"heading_deg":149.37175338924308,"speed_ms":4.055081481481482,"peak_altitude_m":400.0,"u_ms":1.994340740740741,"v_ms":-3.4396444444444447}},{"type":"Feature","geometry":{"type":"Point","coordinates":[-78.4899,35.6655]},"properties":{"site":"KRAX","name":"Raleigh NC","scan_time":"2026-08-25T23:57:07Z","stale":false,"bins":25,"density_birds_km3":1.406875,"heading_deg":219.14771632106874,"speed_ms":3.134439461883408,"peak_altitude_m":0.0,"u_ms":-1.8357488789237666,"v_ms":-2.5034977578475335}},{"type":"Feature","geometry":{"type":"Point","coordinates":[-82.4017,27.7055]},"properties":{"site":"KTBW","name":"Tampa FL","scan_time":"2026-08-26T00:00:17Z","stale":false,"bins":25,"density_birds_km3":0.83875,"heading_deg":100.29311245685365,"speed_ms":5.289821162444113,"peak_altitude_m":0.0,"u_ms":5.16032786885246,"v_ms":-0.9755216095380029}}]}