{"type":"FeatureCollection","frame":"2026-08-17T06","site_count":20,"fresh_count":19,"failures":{"KGRR":"RuntimeError('no scan within 20 min of 2026-08-17T06:00Z')"},"features":[{"type":"Feature","geometry":{"type":"Point","coordinates":[-77.0073,36.984]},"properties":{"site":"KAKQ","name":"Wakefield VA","scan_time":"2026-08-17T05:58:37Z","stale":false,"bins":25,"density_birds_km3":0.706875,"heading_deg":28.838939483297704,"speed_ms":10.262362831858407,"peak_altitude_m":0.0,"u_ms":5.120557522123894,"v_ms":6.832637168141592}},{"type":"Feature","geometry":{"type":"Point","coordinates":[-71.1369,41.9558]},"properties":{"site":"KBOX","name":"Boston MA","scan_time":"2026-08-17T06:02:56Z","stale":false,"bins":25,"density_birds_km3":1.2825,"heading_deg":null,"speed_ms":null,"peak_altitude_m":0.0,"u_ms":null,"v_ms":null}},{"type":"Feature","geometry":{"type":"Point","coordinates":[-78.7369,42.9489]},"properties":{"site":"KBUF","name":"Buffalo NY","scan_time":"2026-08-17T06:03:16Z","stale":false,"bins":25,"density_birds_km3":0.6639999999999999,"heading_deg":94.01968707722216,"speed_ms":6.32878514056225,"peak_altitude_m":200.0,"u_ms":6.165461847389559,"v_ms":-0.3238654618473896}},{"type":"Feature","geometry":{"type":"Point","coordinates":[-81.8597,41.4131]},"properties":{"site":"KCLE","name":"Cleveland OH","scan_time":"2026-08-17T06:00:51Z","stale":false,"bins":25,"density_birds_km3":1.9993333333333334,"heading_deg":118.37087870683462,"speed_ms":7.745632762672037,"peak_altitude_m":200.0,"u_ms":6.537475662974152,"v_ms":-3.8083249412554547}},{"type":"Feature","geometry":{"type":"Point","coordinates":[-81.0423,32.6555]},"properties":{"site":"KCLX","name":"Charleston SC","scan_time":"2026-08-17T05:59:40Z","stale":false,"bins":25,"density_birds_km3":4.97,"heading_deg":140.6458423310408,"speed_ms":6.758469567404426,"peak_altitude_m":0.0,"u_ms":3.530785965794769,"v_ms":-5.049032947686117}},{"type":"Feature","geometry":{"type":"Point","coordinates":[-74.4108,39.947]},"properties":{"site":"KDIX","name":"Philadelphia PA","scan_time":"2026-08-17T05:59:50Z","stale":false,"bins":25,"density_birds_km3":0.4041666666666666,"heading_deg":null,"speed_ms":null,"peak_altitude_m":800.0,"u_ms":null,"v_ms":null}},{"type":"Feature","geometry":{"type":"Point","coordinates":[-84.5658,33.3636]},"properties":{"site":"KFFC","name":"Atlanta GA","scan_time":"2026-08-17T05:57:37Z","stale":false,"bins":25,"density_birds_km3":14.668666666666667,"heading_deg":174.20368941118016,"speed_ms":6.441763850384039,"peak_altitude_m":2000.0,"u_ms":0.3514802526928147,"v_ms":-5.782137435804208}},{"type":"Feature","geometry":{"type":"Point","coordinates":[-83.8217,39.4203]},"properties":{"site":"KILN","name":"Wilmington OH","scan_time":"2026-08-17T05:59:20Z","stale":false,"bins":25,"density_birds_km3":10.006,"heading_deg":134.99479461539192,"speed_ms":6.7323933901918975,"peak_altitude_m":600.0,"u_ms":4.5819709488272915,"v_ms":-4.472041577825159}},{"type":"Feature","geometry":{"type":"Point","coordinates":[-81.7019,30.4846]},"properties":{"site":"KJAX","name":"Jacksonville FL","scan_time":"2026-08-17T05:58:27Z","stale":false,"bins":25,"density_birds_km3":16.745,"heading_deg":126.42721836459825,"speed_ms":7.194278828327771,"peak_altitude_m":0.0,"u_ms":5.171407582499074,"v_ms":-4.377463385242862}},{"type":"Feature","geometry":{"type":"Point","coordinates":[-88.0847,41.6045]},"properties":{"site":"KLOT","name":"Chicago IL","scan_time":"2026-08-17T06:00:08Z","stale":false,"bins":25,"density_birds_km3":17.218,"heading_deg":177.59132313378663,"speed_ms":8.97345788964182,"peak_altitude_m":400.0,"u_ms":0.207037366892546,"v_ms":-8.728006582768636}},{"type":"Feature","geometry":{"type":"Point","coordinates":[-78.4292,33.9892]},"properties":{"site":"KLTX","name":"Wilmington NC","scan_time":"2026-08-17T06:01:45Z","stale":false,"bins":25,"density_birds_km3":4.675,"heading_deg":104.78999640514452,"speed_ms":3.1733315508021396,"peak_altitude_m":0.0,"u_ms":2.9080093582887705,"v_ms":-0.5973636363636364}},{"type":"Feature","geometry":{"type":"Point","coordinates":[-77.4778,38.9753]},"properties":{"site":"KLWX","name":"Sterling VA","scan_time":"2026-08-17T06:00:22Z","stale":false,"bins":25,"density_birds_km3":1.215625,"heading_deg":47.67666878175483,"speed_ms":7.489567678847144,"peak_altitude_m":0.0,"u_ms":5.529464745239321,"v_ms":4.125898095728256}},{"type":"Feature","geometry":{"type":"Point","coordinates":[-76.8762,34.7759]},"properties":{"site":"KMHX","name":"Morehead City NC","scan_time":"2026-08-17T05:57:17Z","stale":false,"bins":25,"density_birds_km3":0.719375,"heading_deg":64.51940231009604,"speed_ms":7.541792863359443,"peak_altitude_m":0.0,"u_ms":6.563481288076589,"v_ms":3.1857615317667536}},{"type":"Feature","geometry":{"type":"Point","coordinates":[-80.6542,28.1133]},"properties":{"site":"KMLB","name":"Melbourne FL","scan_time":"2026-08-17T06:00:55Z","stale":false,"bins":25,"density_birds_km3":3.67125,"heading_deg":45.084764504082344,"speed_ms":4.998722534491569,"peak_altitude_m":0.0,"u_ms":3.4433418497700563,"v_ms":3.2705791176971553}},{"type":"Feature","geometry":{"type":"Point","coordinates":[-86.5625,36.2472]},"properties":{"site":"KOHX","name":"Nashville TN","scan_time":"2026-08-17T06:02:00Z","stale":false,"bins":25,"density_birds_km3":9.573333333333332,"heading_deg":89.28632982688444,"speed_ms":6.352655292479109,"peak_altitude_m":200.0,"u_ms":3.778695682451253,"v_ms":0.3382249303621169}},{"type":"Feature","geometry":{"type":"Point","coordinates":[-72.8639,40.8655]},"properties":{"site":"KOKX","name":"Upton NY","scan_time":"2026-08-17T05:58:22Z","stale":false,"bins":25,"density_birds_km3":0.105,"heading_deg":null,"speed_ms":null,"peak_altitude_m":0.0,"u_ms":null,"v_ms":null}},{"type":"Feature","geometry":{"type":"Point","coordinates":[-80.2183,40.5317]},"properties":{"site":"KPBZ","name":"Pittsburgh PA","scan_time":"2026-08-17T05:59:27Z","stale":false,"bins":25,"density_birds_km3":0.7221428571428571,"heading_deg":109.60199600819429,"speed_ms":6.973086053412463,"peak_altitude_m":400.0,"u_ms":6.1501384767556875,"v_ms":-2.4577645895153313}},{"type":"Feature","geometry":{"type":"Point","coordinates":[-78.4899,35.6655]},"properties":{"site":"KRAX","name":"Raleigh NC","scan_time":"2026-08-17T06:01:04Z","stale":false,"bins":25,"density_birds_km3":1.1975,"heading_deg":62.07296214596437,"speed_ms":8.54695720250522,"peak_altitude_m":0.0,"u_ms":7.563930062630479,"v_ms":3.1444311064718162}},{"type":"Feature","geometry":{"type":"Point","coordinates":[-82.4017,27.7055]},"properties":{"site":"KTBW","name":"Tampa FL","scan_time":"2026-08-17T05:57:17Z","stale":false,"bins":25,"density_birds_km3":3.595,"heading_deg":180.46075083580234,"speed_ms":5.677346086956521,"peak_altitude_m":0.0,"u_ms":0.00402608695652172,"v_ms":-5.624699130434783}}]}