{"type":"FeatureCollection","frame":"2026-08-18T12","site_count":20,"fresh_count":20,"failures":{},"features":[{"type":"Feature","geometry":{"type":"Point","coordinates":[-77.0073,36.984]},"properties":{"site":"KAKQ","name":"Wakefield VA","scan_time":"2026-08-18T12:04:10Z","stale":false,"bins":25,"density_birds_km3":3.73125,"heading_deg":193.0206116545351,"speed_ms":7.416753224995811,"peak_altitude_m":0.0,"u_ms":-1.6856475121460879,"v_ms":-7.201360361869659}},{"type":"Feature","geometry":{"type":"Point","coordinates":[-71.1369,41.9558]},"properties":{"site":"KBOX","name":"Boston MA","scan_time":"2026-08-18T11:56:46Z","stale":false,"bins":25,"density_birds_km3":2.11,"heading_deg":208.08454859782196,"speed_ms":2.6548237037037037,"peak_altitude_m":0.0,"u_ms":-1.247988148148148,"v_ms":-2.3366429629629626}},{"type":"Feature","geometry":{"type":"Point","coordinates":[-78.7369,42.9489]},"properties":{"site":"KBUF","name":"Buffalo NY","scan_time":"2026-08-18T11:59:33Z","stale":false,"bins":25,"density_birds_km3":0.8866666666666667,"heading_deg":120.82400041824317,"speed_ms":3.7204812030075183,"peak_altitude_m":200.0,"u_ms":3.1576015037593987,"v_ms":-1.8794586466165415}},{"type":"Feature","geometry":{"type":"Point","coordinates":[-81.8597,41.4131]},"properties":{"site":"KCLE","name":"Cleveland OH","scan_time":"2026-08-18T12:02:32Z","stale":false,"bins":25,"density_birds_km3":2.524666666666667,"heading_deg":127.78627613650538,"speed_ms":1.8507429931253307,"peak_altitude_m":200.0,"u_ms":1.1467715494447381,"v_ms":-1.1295452141723956}},{"type":"Feature","geometry":{"type":"Point","coordinates":[-81.0423,32.6555]},"properties":{"site":"KCLX","name":"Charleston SC","scan_time":"2026-08-18T12:02:57Z","stale":false,"bins":25,"density_birds_km3":1.871875,"heading_deg":148.27595878257407,"speed_ms":7.772439839572193,"peak_altitude_m":0.0,"u_ms":4.013897058823529,"v_ms":-6.622603609625669}},{"type":"Feature","geometry":{"type":"Point","coordinates":[-74.4108,39.947]},"properties":{"site":"KDIX","name":"Philadelphia PA","scan_time":"2026-08-18T11:58:07Z","stale":false,"bins":25,"density_birds_km3":0.4775,"heading_deg":236.85106397864723,"speed_ms":3.720275952693824,"peak_altitude_m":0.0,"u_ms":-3.0815768725361363,"v_ms":-1.9975164257555846}},{"type":"Feature","geometry":{"type":"Point","coordinates":[-84.5658,33.3636]},"properties":{"site":"KFFC","name":"Atlanta GA","scan_time":"2026-08-18T11:58:18Z","stale":false,"bins":25,"density_birds_km3":1.3146666666666667,"heading_deg":127.11944857389693,"speed_ms":7.336369168356999,"peak_altitude_m":200.0,"u_ms":5.828189655172414,"v_ms":-4.450816430020284}},{"type":"Feature","geometry":{"type":"Point","coordinates":[-85.5449,42.8939]},"properties":{"site":"KGRR","name":"Grand Rapids MI","scan_time":"2026-08-18T12:00:51Z","stale":false,"bins":25,"density_birds_km3":0.45266666666666666,"heading_deg":67.69917857592223,"speed_ms":5.342577319587628,"peak_altitude_m":200.0,"u_ms":4.925787923416789,"v_ms":1.986097201767305}},{"type":"Feature","geometry":{"type":"Point","coordinates":[-83.8217,39.4203]},"properties":{"site":"KILN","name":"Wilmington OH","scan_time":"2026-08-18T11:57:21Z","stale":false,"bins":25,"density_birds_km3":17.85,"heading_deg":184.28400826420298,"speed_ms":7.80715156045599,"peak_altitude_m":200.0,"u_ms":-0.6170491496916465,"v_ms":-7.757278265744721}},{"type":"Feature","geometry":{"type":"Point","coordinates":[-81.7019,30.4846]},"properties":{"site":"KJAX","name":"Jacksonville FL","scan_time":"2026-08-18T11:58:17Z","stale":false,"bins":25,"density_birds_km3":2.174375,"heading_deg":115.93557689790349,"speed_ms":8.221725625539259,"peak_altitude_m":0.0,"u_ms":7.258530342249067,"v_ms":-3.7430859936727066}},{"type":"Feature","geometry":{"type":"Point","coordinates":[-88.0847,41.6045]},"properties":{"site":"KLOT","name":"Chicago IL","scan_time":"2026-08-18T11:57:37Z","stale":false,"bins":25,"density_birds_km3":0.5713333333333334,"heading_deg":86.4908685556735,"speed_ms":5.325298944900352,"peak_altitude_m":200.0,"u_ms":5.2950293083235636,"v_ms":0.2838686987104337}},{"type":"Feature","geometry":{"type":"Point","coordinates":[-78.4292,33.9892]},"properties":{"site":"KLTX","name":"Wilmington NC","scan_time":"2026-08-18T11:59:53Z","stale":false,"bins":25,"density_birds_km3":2.11625,"heading_deg":135.45948791835167,"speed_ms":6.799985211475894,"peak_altitude_m":0.0,"u_ms":4.702363206152025,"v_ms":-4.786696243714877}},{"type":"Feature","geometry":{"type":"Point","coordinates":[-77.4778,38.9753]},"properties":{"site":"KLWX","name":"Sterling VA","scan_time":"2026-08-18T11:56:07Z","stale":false,"bins":25,"density_birds_km3":6.78625,"heading_deg":187.22060929704284,"speed_ms":8.515015656658685,"peak_altitude_m":400.0,"u_ms":-1.1405894271504882,"v_ms":-8.409308344078099}},{"type":"Feature","geometry":{"type":"Point","coordinates":[-76.8762,34.7759]},"properties":{"site":"KMHX","name":"Morehead City NC","scan_time":"2026-08-18T12:01:48Z","stale":false,"bins":25,"density_birds_km3":1.11625,"heading_deg":87.92473650805248,"speed_ms":6.09077267637178,"peak_altitude_m":0.0,"u_ms":6.013029115341546,"v_ms":0.3274356103023517}},{"type":"Feature","geometry":{"type":"Point","coordinates":[-80.6542,28.1133]},"properties":{"site":"KMLB","name":"Melbourne FL","scan_time":"2026-08-18T12:00:27Z","stale":false,"bins":25,"density_birds_km3":1.17625,"heading_deg":132.6994104933104,"speed_ms":7.723322700691121,"peak_altitude_m":0.0,"u_ms":5.586464646464646,"v_ms":-5.262344497607655}},{"type":"Feature","geometry":{"type":"Point","coordinates":[-86.5625,36.2472]},"properties":{"site":"KOHX","name":"Nashville TN","scan_time":"2026-08-18T11:56:12Z","stale":false,"bins":25,"density_birds_km3":9.895999999999999,"heading_deg":182.79704940188586,"speed_ms":8.398408111021288,"peak_altitude_m":400.0,"u_ms":-0.4106137159795204,"v_ms":-8.2431500943142}},{"type":"Feature","geometry":{"type":"Point","coordinates":[-72.8639,40.8655]},"properties":{"site":"KOKX","name":"Upton NY","scan_time":"2026-08-18T11:59:52Z","stale":false,"bins":25,"density_birds_km3":0.32875,"heading_deg":140.306722723741,"speed_ms":2.251196911196911,"peak_altitude_m":0.0,"u_ms":0.9956370656370657,"v_ms":-1.722027027027027}},{"type":"Feature","geometry":{"type":"Point","coordinates":[-80.2183,40.5317]},"properties":{"site":"KPBZ","name":"Pittsburgh PA","scan_time":"2026-08-18T11:57:45Z","stale":false,"bins":25,"density_birds_km3":1.502857142857143,"heading_deg":168.68771537526112,"speed_ms":7.540232889733841,"peak_altitude_m":400.0,"u_ms":1.4523193916349812,"v_ms":-7.32656844106464}},{"type":"Feature","geometry":{"type":"Point","coordinates":[-78.4899,35.6655]},"properties":{"site":"KRAX","name":"Raleigh NC","scan_time":"2026-08-18T12:00:16Z","stale":false,"bins":25,"density_birds_km3":1.491875,"heading_deg":151.2048683282181,"speed_ms":6.01604943443653,"peak_altitude_m":0.0,"u_ms":2.8263343108504397,"v_ms":-5.228554671135317}},{"type":"Feature","geometry":{"type":"Point","coordinates":[-82.4017,27.7055]},"properties":{"site":"KTBW","name":"Tampa FL","scan_time":"2026-08-18T12:00:37Z","stale":false,"bins":25,"density_birds_km3":1.216875,"heading_deg":87.86685285015383,"speed_ms":3.579512069851053,"peak_altitude_m":0.0,"u_ms":3.480390344119158,"v_ms":-0.01986132511556243}}]}