{"type":"FeatureCollection","frame":"2026-10-10T05","site_count":20,"fresh_count":20,"failures":{},"features":[{"type":"Feature","geometry":{"type":"Point","coordinates":[-77.0073,36.984]},"properties":{"site":"KAKQ","name":"Wakefield VA","scan_time":"2026-10-10T05:00:29Z","stale":false,"bins":25,"density_birds_km3":4.28,"heading_deg":226.36445835763644,"speed_ms":9.082079439252336,"peak_altitude_m":200.0,"u_ms":-6.470844042056075,"v_ms":-6.266473422897196}},{"type":"Feature","geometry":{"type":"Point","coordinates":[-71.1369,41.9558]},"properties":{"site":"KBOX","name":"Boston MA","scan_time":"2026-10-10T05:00:16Z","stale":false,"bins":25,"density_birds_km3":3.308125,"heading_deg":119.42689794949801,"speed_ms":9.390151171579744,"peak_altitude_m":0.0,"u_ms":8.19137566137566,"v_ms":-4.563080120937264}},{"type":"Feature","geometry":{"type":"Point","coordinates":[-78.7369,42.9489]},"properties":{"site":"KBUF","name":"Buffalo NY","scan_time":"2026-10-10T04:58:06Z","stale":false,"bins":25,"density_birds_km3":50.86066666666667,"heading_deg":203.8648317702715,"speed_ms":10.855580474761112,"peak_altitude_m":400.0,"u_ms":-4.488813490451037,"v_ms":-9.674548767220248}},{"type":"Feature","geometry":{"type":"Point","coordinates":[-81.8597,41.4131]},"properties":{"site":"KCLE","name":"Cleveland OH","scan_time":"2026-10-10T05:01:04Z","stale":false,"bins":25,"density_birds_km3":3.56,"heading_deg":303.7228566412295,"speed_ms":10.543916463757258,"peak_altitude_m":200.0,"u_ms":-8.555630267840419,"v_ms":5.621861771867391}},{"type":"Feature","geometry":{"type":"Point","coordinates":[-81.0423,32.6555]},"properties":{"site":"KCLX","name":"Charleston SC","scan_time":"2026-10-10T04:58:54Z","stale":false,"bins":25,"density_birds_km3":50.113749999999996,"heading_deg":222.97493864387306,"speed_ms":11.730036014405762,"peak_altitude_m":0.0,"u_ms":-8.134438346767277,"v_ms":-8.317348653747214}},{"type":"Feature","geometry":{"type":"Point","coordinates":[-74.4108,39.947]},"properties":{"site":"KDIX","name":"Philadelphia PA","scan_time":"2026-10-10T05:01:40Z","stale":false,"bins":25,"density_birds_km3":12.43625,"heading_deg":208.19358762250613,"speed_ms":8.664979897477133,"peak_altitude_m":200.0,"u_ms":-4.14686752437431,"v_ms":-7.545081415217609}},{"type":"Feature","geometry":{"type":"Point","coordinates":[-84.5658,33.3636]},"properties":{"site":"KFFC","name":"Atlanta GA","scan_time":"2026-10-10T05:01:45Z","stale":false,"bins":25,"density_birds_km3":14.94,"heading_deg":null,"speed_ms":null,"peak_altitude_m":600.0,"u_ms":null,"v_ms":null}},{"type":"Feature","geometry":{"type":"Point","coordinates":[-85.5449,42.8939]},"properties":{"site":"KGRR","name":"Grand Rapids MI","scan_time":"2026-10-10T04:58:26Z","stale":false,"bins":25,"density_birds_km3":14.175333333333333,"heading_deg":268.56843292454175,"speed_ms":12.804538613488852,"peak_altitude_m":200.0,"u_ms":-12.558012416517732,"v_ms":-0.3134427617345499}},{"type":"Feature","geometry":{"type":"Point","coordinates":[-83.8217,39.4203]},"properties":{"site":"KILN","name":"Wilmington OH","scan_time":"2026-10-10T04:57:32Z","stale":false,"bins":25,"density_birds_km3":3.786,"heading_deg":306.93060942040415,"speed_ms":11.113174043378594,"peak_altitude_m":200.0,"u_ms":-8.584198554046905,"v_ms":6.577330276847117}},{"type":"Feature","geometry":{"type":"Point","coordinates":[-81.7019,30.4846]},"properties":{"site":"KJAX","name":"Jacksonville FL","scan_time":"2026-10-10T04:59:02Z","stale":false,"bins":25,"density_birds_km3":16.200625,"heading_deg":327.29296831165215,"speed_ms":5.170416052060737,"peak_altitude_m":200.0,"u_ms":-2.0405297180043385,"v_ms":4.2529965292841645}},{"type":"Feature","geometry":{"type":"Point","coordinates":[-88.0847,41.6045]},"properties":{"site":"KLOT","name":"Chicago IL","scan_time":"2026-10-10T04:56:49Z","stale":false,"bins":25,"density_birds_km3":0.8420000000000001,"heading_deg":356.3948035646971,"speed_ms":15.649072164948452,"peak_altitude_m":200.0,"u_ms":-0.8299048374306105,"v_ms":15.410919904837428}},{"type":"Feature","geometry":{"type":"Point","coordinates":[-78.4292,33.9892]},"properties":{"site":"KLTX","name":"Wilmington NC","scan_time":"2026-10-10T04:59:36Z","stale":false,"bins":25,"density_birds_km3":34.77777777777778,"heading_deg":239.30628933284703,"speed_ms":14.01129195927556,"peak_altitude_m":0.0,"u_ms":-12.093281811767076,"v_ms":-6.996816975236047}},{"type":"Feature","geometry":{"type":"Point","coordinates":[-77.4778,38.9753]},"properties":{"site":"KLWX","name":"Sterling VA","scan_time":"2026-10-10T05:02:43Z","stale":false,"bins":25,"density_birds_km3":24.066875,"heading_deg":236.4356880566515,"speed_ms":5.914859475339937,"peak_altitude_m":200.0,"u_ms":-4.352102540103476,"v_ms":-3.41674518368302}},{"type":"Feature","geometry":{"type":"Point","coordinates":[-76.8762,34.7759]},"properties":{"site":"KMHX","name":"Morehead City NC","scan_time":"2026-10-10T04:59:16Z","stale":false,"bins":25,"density_birds_km3":7.483125,"heading_deg":218.9313309826061,"speed_ms":9.663448577680525,"peak_altitude_m":0.0,"u_ms":-6.0728875273522975,"v_ms":-7.338320350109409}},{"type":"Feature","geometry":{"type":"Point","coordinates":[-80.6542,28.1133]},"properties":{"site":"KMLB","name":"Melbourne FL","scan_time":"2026-10-10T05:00:42Z","stale":false,"bins":25,"density_birds_km3":5.943125,"heading_deg":0.9643230895654346,"speed_ms":6.874076567101388,"peak_altitude_m":0.0,"u_ms":-0.1262252839713925,"v_ms":6.855111485065208}},{"type":"Feature","geometry":{"type":"Point","coordinates":[-86.5625,36.2472]},"properties":{"site":"KOHX","name":"Nashville TN","scan_time":"2026-10-10T04:57:07Z","stale":false,"bins":25,"density_birds_km3":15.622666666666667,"heading_deg":278.70001794685004,"speed_ms":11.106389434155501,"peak_altitude_m":200.0,"u_ms":-10.263966032260816,"v_ms":2.0733626354868995}},{"type":"Feature","geometry":{"type":"Point","coordinates":[-72.8639,40.8655]},"properties":{"site":"KOKX","name":"Upton NY","scan_time":"2026-10-10T04:58:47Z","stale":false,"bins":25,"density_birds_km3":7.48125,"heading_deg":188.39776816975632,"speed_ms":4.961822055137844,"peak_altitude_m":0.0,"u_ms":-0.27098496240601505,"v_ms":-4.67678529657477}},{"type":"Feature","geometry":{"type":"Point","coordinates":[-80.2183,40.5317]},"properties":{"site":"KPBZ","name":"Pittsburgh PA","scan_time":"2026-10-10T05:02:41Z","stale":false,"bins":25,"density_birds_km3":17.982142857142858,"heading_deg":256.82711075398,"speed_ms":6.91063912611718,"peak_altitude_m":400.0,"u_ms":-6.185836345580934,"v_ms":-1.4828409136047667}},{"type":"Feature","geometry":{"type":"Point","coordinates":[-78.4899,35.6655]},"properties":{"site":"KRAX","name":"Raleigh NC","scan_time":"2026-10-10T05:02:26Z","stale":false,"bins":25,"density_birds_km3":11.464375,"heading_deg":240.59674726298257,"speed_ms":11.117059978189749,"peak_altitude_m":200.0,"u_ms":-9.525910032715375,"v_ms":-5.192418211559433}},{"type":"Feature","geometry":{"type":"Point","coordinates":[-82.4017,27.7055]},"properties":{"site":"KTBW","name":"Tampa FL","scan_time":"2026-10-10T05:02:34Z","stale":false,"bins":25,"density_birds_km3":18.20375,"heading_deg":283.1918606604014,"speed_ms":3.0933746480807525,"peak_altitude_m":0.0,"u_ms":-2.119269381308796,"v_ms":1.2294235391059536}}]}