{"type":"FeatureCollection","frame":"2026-08-25T11","site_count":20,"fresh_count":20,"failures":{},"features":[{"type":"Feature","geometry":{"type":"Point","coordinates":[-77.0073,36.984]},"properties":{"site":"KAKQ","name":"Wakefield VA","scan_time":"2026-08-25T11:00:10Z","stale":false,"bins":25,"density_birds_km3":4.28125,"heading_deg":211.04629291013146,"speed_ms":13.674311052477279,"peak_altitude_m":200.0,"u_ms":-6.841723834652594,"v_ms":-11.677063910876575}},{"type":"Feature","geometry":{"type":"Point","coordinates":[-71.1369,41.9558]},"properties":{"site":"KBOX","name":"Boston MA","scan_time":"2026-08-25T10:57:25Z","stale":false,"bins":25,"density_birds_km3":9.895625,"heading_deg":148.73351327865038,"speed_ms":9.216295079896419,"peak_altitude_m":200.0,"u_ms":4.7756224341565074,"v_ms":-7.874015031895406}},{"type":"Feature","geometry":{"type":"Point","coordinates":[-78.7369,42.9489]},"properties":{"site":"KBUF","name":"Buffalo NY","scan_time":"2026-08-25T10:57:16Z","stale":false,"bins":25,"density_birds_km3":1.8893333333333333,"heading_deg":124.95898756888849,"speed_ms":6.149827099506,"peak_altitude_m":200.0,"u_ms":5.033465067043049,"v_ms":-3.468256880733945}},{"type":"Feature","geometry":{"type":"Point","coordinates":[-81.8597,41.4131]},"properties":{"site":"KCLE","name":"Cleveland OH","scan_time":"2026-08-25T11:00:03Z","stale":false,"bins":25,"density_birds_km3":7.872,"heading_deg":142.33675847480362,"speed_ms":5.375315887533875,"peak_altitude_m":200.0,"u_ms":2.9178624661246615,"v_ms":-4.2463795731707314}},{"type":"Feature","geometry":{"type":"Point","coordinates":[-81.0423,32.6555]},"properties":{"site":"KCLX","name":"Charleston SC","scan_time":"2026-08-25T11:01:32Z","stale":false,"bins":25,"density_birds_km3":6.039375000000001,"heading_deg":231.48536761612684,"speed_ms":5.462408653348515,"peak_altitude_m":200.0,"u_ms":-4.236140151123072,"v_ms":-3.4111644757271504}},{"type":"Feature","geometry":{"type":"Point","coordinates":[-74.4108,39.947]},"properties":{"site":"KDIX","name":"Philadelphia PA","scan_time":"2026-08-25T10:58:56Z","stale":false,"bins":25,"density_birds_km3":5.693125,"heading_deg":152.5717228241677,"speed_ms":12.34119248929395,"peak_altitude_m":400.0,"u_ms":5.681920500713737,"v_ms":-10.948567036345668}},{"type":"Feature","geometry":{"type":"Point","coordinates":[-84.5658,33.3636]},"properties":{"site":"KFFC","name":"Atlanta GA","scan_time":"2026-08-25T10:56:40Z","stale":false,"bins":25,"density_birds_km3":1.6793333333333333,"heading_deg":241.2013687735407,"speed_ms":5.957289421157684,"peak_altitude_m":200.0,"u_ms":-5.185377245508982,"v_ms":-2.7220638722554886}},{"type":"Feature","geometry":{"type":"Point","coordinates":[-85.5449,42.8939]},"properties":{"site":"KGRR","name":"Grand Rapids MI","scan_time":"2026-08-25T10:57:36Z","stale":false,"bins":25,"density_birds_km3":4.766000000000001,"heading_deg":232.7733186878616,"speed_ms":6.769564852385617,"peak_altitude_m":200.0,"u_ms":-5.164509584441024,"v_ms":-4.250587659157688}},{"type":"Feature","geometry":{"type":"Point","coordinates":[-83.8217,39.4203]},"properties":{"site":"KILN","name":"Wilmington OH","scan_time":"2026-08-25T10:58:17Z","stale":false,"bins":25,"density_birds_km3":8.559333333333335,"heading_deg":187.32920631344498,"speed_ms":7.9819288784681515,"peak_altitude_m":200.0,"u_ms":-1.7426182102383747,"v_ms":-7.453307542008598}},{"type":"Feature","geometry":{"type":"Point","coordinates":[-81.7019,30.4846]},"properties":{"site":"KJAX","name":"Jacksonville FL","scan_time":"2026-08-25T10:58:29Z","stale":false,"bins":25,"density_birds_km3":8.49125,"heading_deg":127.6922911958895,"speed_ms":6.674506109230089,"peak_altitude_m":600.0,"u_ms":4.633491829824819,"v_ms":-3.768850287060208}},{"type":"Feature","geometry":{"type":"Point","coordinates":[-88.0847,41.6045]},"properties":{"site":"KLOT","name":"Chicago IL","scan_time":"2026-08-25T11:01:55Z","stale":false,"bins":25,"density_birds_km3":2.1446666666666667,"heading_deg":315.69541785833525,"speed_ms":4.728824992228784,"peak_altitude_m":200.0,"u_ms":-3.23014609884986,"v_ms":3.3229406279142055}},{"type":"Feature","geometry":{"type":"Point","coordinates":[-78.4292,33.9892]},"properties":{"site":"KLTX","name":"Wilmington NC","scan_time":"2026-08-25T10:59:22Z","stale":false,"bins":25,"density_birds_km3":13.331875,"heading_deg":202.41706155051716,"speed_ms":9.530552242310401,"peak_altitude_m":0.0,"u_ms":-3.503888236675276,"v_ms":-8.735744071378258}},{"type":"Feature","geometry":{"type":"Point","coordinates":[-77.4778,38.9753]},"properties":{"site":"KLWX","name":"Sterling VA","scan_time":"2026-08-25T11:01:29Z","stale":false,"bins":25,"density_birds_km3":1.3025,"heading_deg":152.60484367405942,"speed_ms":6.908618199325951,"peak_altitude_m":0.0,"u_ms":3.059046701974001,"v_ms":-6.158353394318729}},{"type":"Feature","geometry":{"type":"Point","coordinates":[-76.8762,34.7759]},"properties":{"site":"KMHX","name":"Morehead City NC","scan_time":"2026-08-25T11:00:54Z","stale":false,"bins":25,"density_birds_km3":6.390625,"heading_deg":178.43996820564612,"speed_ms":8.632815068493152,"peak_altitude_m":0.0,"u_ms":0.1694696673189824,"v_ms":-8.597230919765167}},{"type":"Feature","geometry":{"type":"Point","coordinates":[-80.6542,28.1133]},"properties":{"site":"KMLB","name":"Melbourne FL","scan_time":"2026-08-25T11:01:05Z","stale":false,"bins":25,"density_birds_km3":3.9825,"heading_deg":161.17385017723367,"speed_ms":2.596785040854808,"peak_altitude_m":0.0,"u_ms":0.5752168447517285,"v_ms":-2.0804651162790697}},{"type":"Feature","geometry":{"type":"Point","coordinates":[-86.5625,36.2472]},"properties":{"site":"KOHX","name":"Nashville TN","scan_time":"2026-08-25T10:59:24Z","stale":false,"bins":25,"density_birds_km3":4.058,"heading_deg":242.79062784165245,"speed_ms":4.343651028806584,"peak_altitude_m":400.0,"u_ms":-3.2669827160493825,"v_ms":-1.493269135802469}},{"type":"Feature","geometry":{"type":"Point","coordinates":[-72.8639,40.8655]},"properties":{"site":"KOKX","name":"Upton NY","scan_time":"2026-08-25T11:01:52Z","stale":false,"bins":25,"density_birds_km3":1.815,"heading_deg":140.31123568517904,"speed_ms":6.281340916925199,"peak_altitude_m":400.0,"u_ms":3.790175801447777,"v_ms":-4.9033505687693895}},{"type":"Feature","geometry":{"type":"Point","coordinates":[-80.2183,40.5317]},"properties":{"site":"KPBZ","name":"Pittsburgh PA","scan_time":"2026-08-25T11:01:54Z","stale":false,"bins":25,"density_birds_km3":0.725,"heading_deg":118.18839263779967,"speed_ms":5.940347222222222,"peak_altitude_m":400.0,"u_ms":5.165753968253969,"v_ms":-2.86296626984127}},{"type":"Feature","geometry":{"type":"Point","coordinates":[-78.4899,35.6655]},"properties":{"site":"KRAX","name":"Raleigh NC","scan_time":"2026-08-25T10:56:40Z","stale":false,"bins":25,"density_birds_km3":5.141875,"heading_deg":217.5661156581491,"speed_ms":12.622946396013129,"peak_altitude_m":400.0,"u_ms":-7.8225501397836394,"v_ms":-9.730393825209676}},{"type":"Feature","geometry":{"type":"Point","coordinates":[-82.4017,27.7055]},"properties":{"site":"KTBW","name":"Tampa FL","scan_time":"2026-08-25T10:57:07Z","stale":false,"bins":25,"density_birds_km3":4.6987499999999995,"heading_deg":323.6652879013342,"speed_ms":2.982118914604948,"peak_altitude_m":0.0,"u_ms":-1.5936060122372973,"v_ms":1.9375059856344774}}]}