{"type":"FeatureCollection","frame":"2026-10-04T01","site_count":20,"fresh_count":20,"failures":{},"features":[{"type":"Feature","geometry":{"type":"Point","coordinates":[-77.0073,36.984]},"properties":{"site":"KAKQ","name":"Wakefield VA","scan_time":"2026-10-04T01:01:25Z","stale":false,"bins":25,"density_birds_km3":24.237499999999997,"heading_deg":192.17897577262957,"speed_ms":5.001536162738879,"peak_altitude_m":0.0,"u_ms":-1.1376087241460666,"v_ms":-4.697638608540645}},{"type":"Feature","geometry":{"type":"Point","coordinates":[-71.1369,41.9558]},"properties":{"site":"KBOX","name":"Boston MA","scan_time":"2026-10-04T00:58:23Z","stale":false,"bins":25,"density_birds_km3":46.489375,"heading_deg":221.70422363802106,"speed_ms":10.283973969397907,"peak_altitude_m":200.0,"u_ms":-5.620064942049641,"v_ms":-7.416689031113024}},{"type":"Feature","geometry":{"type":"Point","coordinates":[-78.7369,42.9489]},"properties":{"site":"KBUF","name":"Buffalo NY","scan_time":"2026-10-04T00:58:13Z","stale":false,"bins":25,"density_birds_km3":21.858,"heading_deg":238.27627075645768,"speed_ms":11.065938329215847,"peak_altitude_m":200.0,"u_ms":-9.420783542257603,"v_ms":-5.7142007502973735}},{"type":"Feature","geometry":{"type":"Point","coordinates":[-81.8597,41.4131]},"properties":{"site":"KCLE","name":"Cleveland OH","scan_time":"2026-10-04T00:59:11Z","stale":false,"bins":25,"density_birds_km3":13.821333333333333,"heading_deg":251.50618816392398,"speed_ms":9.853378018680733,"peak_altitude_m":400.0,"u_ms":-9.094363354788753,"v_ms":-3.0919619609930797}},{"type":"Feature","geometry":{"type":"Point","coordinates":[-81.0423,32.6555]},"properties":{"site":"KCLX","name":"Charleston SC","scan_time":"2026-10-04T01:01:13Z","stale":false,"bins":25,"density_birds_km3":2.725,"heading_deg":337.8497033118915,"speed_ms":5.301613901452035,"peak_altitude_m":0.0,"u_ms":-1.3630730778386098,"v_ms":4.224722685074982}},{"type":"Feature","geometry":{"type":"Point","coordinates":[-74.4108,39.947]},"properties":{"site":"KDIX","name":"Philadelphia PA","scan_time":"2026-10-04T00:58:42Z","stale":false,"bins":25,"density_birds_km3":84.0925,"heading_deg":220.8217009494625,"speed_ms":10.721139890596666,"peak_altitude_m":0.0,"u_ms":-7.0641427594613075,"v_ms":-7.771256354609508}},{"type":"Feature","geometry":{"type":"Point","coordinates":[-84.5658,33.3636]},"properties":{"site":"KFFC","name":"Atlanta GA","scan_time":"2026-10-04T01:00:03Z","stale":false,"bins":25,"density_birds_km3":54.82266666666667,"heading_deg":235.7736936421283,"speed_ms":4.198370382080404,"peak_altitude_m":400.0,"u_ms":-2.1531271736751223,"v_ms":-1.5202768927694141}},{"type":"Feature","geometry":{"type":"Point","coordinates":[-85.5449,42.8939]},"properties":{"site":"KGRR","name":"Grand Rapids MI","scan_time":"2026-10-04T00:58:41Z","stale":false,"bins":25,"density_birds_km3":2.3106666666666666,"heading_deg":315.5857464084215,"speed_ms":7.366334488734836,"peak_altitude_m":400.0,"u_ms":-5.147619872905835,"v_ms":5.200612362796072}},{"type":"Feature","geometry":{"type":"Point","coordinates":[-83.8217,39.4203]},"properties":{"site":"KILN","name":"Wilmington OH","scan_time":"2026-10-04T01:03:29Z","stale":false,"bins":25,"density_birds_km3":38.84866666666667,"heading_deg":216.7925537842481,"speed_ms":8.903126662433717,"peak_altitude_m":200.0,"u_ms":-4.574420400528546,"v_ms":-6.327761913750793}},{"type":"Feature","geometry":{"type":"Point","coordinates":[-81.7019,30.4846]},"properties":{"site":"KJAX","name":"Jacksonville FL","scan_time":"2026-10-04T01:02:25Z","stale":false,"bins":25,"density_birds_km3":20.954375000000002,"heading_deg":null,"speed_ms":null,"peak_altitude_m":0.0,"u_ms":null,"v_ms":null}},{"type":"Feature","geometry":{"type":"Point","coordinates":[-88.0847,41.6045]},"properties":{"site":"KLOT","name":"Chicago IL","scan_time":"2026-10-04T01:00:38Z","stale":false,"bins":25,"density_birds_km3":5.658666666666666,"heading_deg":343.84416446603313,"speed_ms":7.490362907976906,"peak_altitude_m":200.0,"u_ms":-2.1462295275126664,"v_ms":7.037024861552963}},{"type":"Feature","geometry":{"type":"Point","coordinates":[-78.4292,33.9892]},"properties":{"site":"KLTX","name":"Wilmington NC","scan_time":"2026-10-04T01:00:38Z","stale":false,"bins":25,"density_birds_km3":4.350625,"heading_deg":308.34390624308526,"speed_ms":3.773470095348166,"peak_altitude_m":200.0,"u_ms":-2.726099393238948,"v_ms":1.790739670615429}},{"type":"Feature","geometry":{"type":"Point","coordinates":[-77.4778,38.9753]},"properties":{"site":"KLWX","name":"Sterling VA","scan_time":"2026-10-04T00:58:47Z","stale":false,"bins":25,"density_birds_km3":157.236875,"heading_deg":224.63926463619146,"speed_ms":8.459885316086355,"peak_altitude_m":400.0,"u_ms":-6.117195908745791,"v_ms":-5.486071767881349}},{"type":"Feature","geometry":{"type":"Point","coordinates":[-76.8762,34.7759]},"properties":{"site":"KMHX","name":"Morehead City NC","scan_time":"2026-10-04T00:58:11Z","stale":false,"bins":25,"density_birds_km3":19.096875,"heading_deg":222.8695997782417,"speed_ms":5.608160791027568,"peak_altitude_m":0.0,"u_ms":-4.182038712833235,"v_ms":-3.4949250550295243}},{"type":"Feature","geometry":{"type":"Point","coordinates":[-80.6542,28.1133]},"properties":{"site":"KMLB","name":"Melbourne FL","scan_time":"2026-10-04T00:58:03Z","stale":false,"bins":25,"density_birds_km3":4.158125,"heading_deg":285.22495876185656,"speed_ms":6.8474624173181,"peak_altitude_m":200.0,"u_ms":-6.571464221286831,"v_ms":1.8561410102224896}},{"type":"Feature","geometry":{"type":"Point","coordinates":[-86.5625,36.2472]},"properties":{"site":"KOHX","name":"Nashville TN","scan_time":"2026-10-04T00:59:45Z","stale":false,"bins":25,"density_birds_km3":132.23333333333332,"heading_deg":192.58777220638933,"speed_ms":8.061594555079406,"peak_altitude_m":400.0,"u_ms":-1.884315502898916,"v_ms":-7.4122887320393245}},{"type":"Feature","geometry":{"type":"Point","coordinates":[-72.8639,40.8655]},"properties":{"site":"KOKX","name":"Upton NY","scan_time":"2026-10-04T00:57:01Z","stale":false,"bins":25,"density_birds_km3":86.023125,"heading_deg":236.36874979761382,"speed_ms":12.194559248869965,"peak_altitude_m":0.0,"u_ms":-9.752814775518509,"v_ms":-6.730157696612067}},{"type":"Feature","geometry":{"type":"Point","coordinates":[-80.2183,40.5317]},"properties":{"site":"KPBZ","name":"Pittsburgh PA","scan_time":"2026-10-04T00:56:54Z","stale":false,"bins":25,"density_birds_km3":57.67142857142857,"heading_deg":218.45206983292337,"speed_ms":10.331793163240029,"peak_altitude_m":600.0,"u_ms":-6.266331434233342,"v_ms":-7.80834208570721}},{"type":"Feature","geometry":{"type":"Point","coordinates":[-78.4899,35.6655]},"properties":{"site":"KRAX","name":"Raleigh NC","scan_time":"2026-10-04T01:00:20Z","stale":false,"bins":25,"density_birds_km3":46.68875,"heading_deg":220.13262800439526,"speed_ms":8.929356254572056,"peak_altitude_m":200.0,"u_ms":-5.74518147543751,"v_ms":-6.768143886106578}},{"type":"Feature","geometry":{"type":"Point","coordinates":[-82.4017,27.7055]},"properties":{"site":"KTBW","name":"Tampa FL","scan_time":"2026-10-04T01:01:17Z","stale":false,"bins":25,"density_birds_km3":24.205000000000002,"heading_deg":263.0688915400195,"speed_ms":5.05733397025408,"peak_altitude_m":0.0,"u_ms":-4.822571008056187,"v_ms":-0.3271101012187565}}]}