{"type":"FeatureCollection","frame":"2026-09-29T11","site_count":20,"fresh_count":20,"failures":{},"features":[{"type":"Feature","geometry":{"type":"Point","coordinates":[-77.0073,36.984]},"properties":{"site":"KAKQ","name":"Wakefield VA","scan_time":"2026-09-29T10:59:05Z","stale":false,"bins":25,"density_birds_km3":0.16125,"heading_deg":291.3560520406812,"speed_ms":5.535658914728682,"peak_altitude_m":0.0,"u_ms":-5.093178294573643,"v_ms":2.04}},{"type":"Feature","geometry":{"type":"Point","coordinates":[-71.1369,41.9558]},"properties":{"site":"KBOX","name":"Boston MA","scan_time":"2026-09-29T10:58:43Z","stale":false,"bins":25,"density_birds_km3":5.385,"heading_deg":74.66458124437148,"speed_ms":6.64980965645311,"peak_altitude_m":0.0,"u_ms":6.188875348189415,"v_ms":1.4819289693593314}},{"type":"Feature","geometry":{"type":"Point","coordinates":[-78.7369,42.9489]},"properties":{"site":"KBUF","name":"Buffalo NY","scan_time":"2026-09-29T11:01:37Z","stale":false,"bins":25,"density_birds_km3":0.274,"heading_deg":107.3576231814518,"speed_ms":4.422989417989418,"peak_altitude_m":200.0,"u_ms":4.003650793650794,"v_ms":-1.4210846560846564}},{"type":"Feature","geometry":{"type":"Point","coordinates":[-81.8597,41.4131]},"properties":{"site":"KCLE","name":"Cleveland OH","scan_time":"2026-09-29T11:01:07Z","stale":false,"bins":25,"density_birds_km3":1.1493333333333333,"heading_deg":138.08256233203778,"speed_ms":7.642123687281213,"peak_altitude_m":200.0,"u_ms":5.0151750291715285,"v_ms":-5.730379229871645}},{"type":"Feature","geometry":{"type":"Point","coordinates":[-81.0423,32.6555]},"properties":{"site":"KCLX","name":"Charleston SC","scan_time":"2026-09-29T10:55:49Z","stale":false,"bins":25,"density_birds_km3":0.34249999999999997,"heading_deg":214.86242375576725,"speed_ms":3.645063985374771,"peak_altitude_m":200.0,"u_ms":-1.8064533820840951,"v_ms":-2.919780621572212}},{"type":"Feature","geometry":{"type":"Point","coordinates":[-74.4108,39.947]},"properties":{"site":"KDIX","name":"Philadelphia PA","scan_time":"2026-09-29T11:00:04Z","stale":false,"bins":25,"density_birds_km3":0.803125,"heading_deg":119.42778928082316,"speed_ms":5.606280155642024,"peak_altitude_m":200.0,"u_ms":4.881182879377432,"v_ms":-2.710140077821012}},{"type":"Feature","geometry":{"type":"Point","coordinates":[-84.5658,33.3636]},"properties":{"site":"KFFC","name":"Atlanta GA","scan_time":"2026-09-29T10:59:26Z","stale":false,"bins":25,"density_birds_km3":2.3393333333333333,"heading_deg":276.1607386225612,"speed_ms":5.128253063550869,"peak_altitude_m":400.0,"u_ms":-4.32138216015959,"v_ms":0.567113137646053}},{"type":"Feature","geometry":{"type":"Point","coordinates":[-85.5449,42.8939]},"properties":{"site":"KGRR","name":"Grand Rapids MI","scan_time":"2026-09-29T11:03:20Z","stale":false,"bins":25,"density_birds_km3":2.006,"heading_deg":125.46046122096315,"speed_ms":7.835736614566012,"peak_altitude_m":600.0,"u_ms":6.082746923844363,"v_ms":-4.7576953774526105}},{"type":"Feature","geometry":{"type":"Point","coordinates":[-83.8217,39.4203]},"properties":{"site":"KILN","name":"Wilmington OH","scan_time":"2026-09-29T11:02:09Z","stale":false,"bins":25,"density_birds_km3":1.1886666666666668,"heading_deg":102.30447926055402,"speed_ms":5.4742102304665545,"peak_altitude_m":600.0,"u_ms":4.543220910623947,"v_ms":-1.528071950534008}},{"type":"Feature","geometry":{"type":"Point","coordinates":[-81.7019,30.4846]},"properties":{"site":"KJAX","name":"Jacksonville FL","scan_time":"2026-09-29T10:58:53Z","stale":false,"bins":25,"density_birds_km3":3.8468750000000003,"heading_deg":147.41102778590835,"speed_ms":4.487410235580828,"peak_altitude_m":200.0,"u_ms":2.4208399675060925,"v_ms":-3.4369634443541837}},{"type":"Feature","geometry":{"type":"Point","coordinates":[-88.0847,41.6045]},"properties":{"site":"KLOT","name":"Chicago IL","scan_time":"2026-09-29T11:00:53Z","stale":false,"bins":25,"density_birds_km3":14.144,"heading_deg":132.43866029282023,"speed_ms":8.83751013481663,"peak_altitude_m":400.0,"u_ms":6.5293315734892055,"v_ms":-5.9405911190723115}},{"type":"Feature","geometry":{"type":"Point","coordinates":[-78.4292,33.9892]},"properties":{"site":"KLTX","name":"Wilmington NC","scan_time":"2026-09-29T11:02:52Z","stale":false,"bins":25,"density_birds_km3":1.35375,"heading_deg":324.0619825289439,"speed_ms":2.6001847575057737,"peak_altitude_m":0.0,"u_ms":-0.7209284064665128,"v_ms":0.7495473441108544}},{"type":"Feature","geometry":{"type":"Point","coordinates":[-77.4778,38.9753]},"properties":{"site":"KLWX","name":"Sterling VA","scan_time":"2026-09-29T11:02:04Z","stale":false,"bins":25,"density_birds_km3":2.62125,"heading_deg":89.893764790848,"speed_ms":2.986728704366499,"peak_altitude_m":0.0,"u_ms":2.712684323550465,"v_ms":-0.26985922214268665}},{"type":"Feature","geometry":{"type":"Point","coordinates":[-76.8762,34.7759]},"properties":{"site":"KMHX","name":"Morehead City NC","scan_time":"2026-09-29T11:03:06Z","stale":false,"bins":25,"density_birds_km3":0.848125,"heading_deg":350.1983929281734,"speed_ms":2.2623212969786293,"peak_altitude_m":200.0,"u_ms":-1.037737656595431,"v_ms":0.45588061901252763}},{"type":"Feature","geometry":{"type":"Point","coordinates":[-80.6542,28.1133]},"properties":{"site":"KMLB","name":"Melbourne FL","scan_time":"2026-09-29T11:00:36Z","stale":false,"bins":25,"density_birds_km3":4.46125,"heading_deg":172.36240145728868,"speed_ms":5.978335668254413,"peak_altitude_m":0.0,"u_ms":0.7602143457551135,"v_ms":-5.887249929952368}},{"type":"Feature","geometry":{"type":"Point","coordinates":[-86.5625,36.2472]},"properties":{"site":"KOHX","name":"Nashville TN","scan_time":"2026-09-29T11:02:12Z","stale":false,"bins":25,"density_birds_km3":16.445333333333334,"heading_deg":190.71210284813765,"speed_ms":5.8370447543376045,"peak_altitude_m":400.0,"u_ms":-0.3615518080103779,"v_ms":-5.355476730987514}},{"type":"Feature","geometry":{"type":"Point","coordinates":[-72.8639,40.8655]},"properties":{"site":"KOKX","name":"Upton NY","scan_time":"2026-09-29T11:00:59Z","stale":false,"bins":25,"density_birds_km3":2.850625,"heading_deg":65.09124467729397,"speed_ms":3.5208309581232187,"peak_altitude_m":0.0,"u_ms":2.859381714536286,"v_ms":0.6525476869107651}},{"type":"Feature","geometry":{"type":"Point","coordinates":[-80.2183,40.5317]},"properties":{"site":"KPBZ","name":"Pittsburgh PA","scan_time":"2026-09-29T10:58:38Z","stale":false,"bins":25,"density_birds_km3":0.2314285714285714,"heading_deg":139.82456256198182,"speed_ms":5.370524691358025,"peak_altitude_m":600.0,"u_ms":3.4789506172839504,"v_ms":-4.017561728395062}},{"type":"Feature","geometry":{"type":"Point","coordinates":[-78.4899,35.6655]},"properties":{"site":"KRAX","name":"Raleigh NC","scan_time":"2026-09-29T11:01:09Z","stale":false,"bins":25,"density_birds_km3":1.510625,"heading_deg":184.09853041897534,"speed_ms":3.6230281690140846,"peak_altitude_m":200.0,"u_ms":-0.2153272576636288,"v_ms":-3.5885625517812763}},{"type":"Feature","geometry":{"type":"Point","coordinates":[-82.4017,27.7055]},"properties":{"site":"KTBW","name":"Tampa FL","scan_time":"2026-09-29T11:01:46Z","stale":false,"bins":25,"density_birds_km3":5.3375,"heading_deg":207.14653828419904,"speed_ms":4.056007025761124,"peak_altitude_m":0.0,"u_ms":-0.32012412177985944,"v_ms":-3.013954332552693}}]}