{"type":"FeatureCollection","frame":"2026-09-29T02","site_count":20,"fresh_count":20,"failures":{},"features":[{"type":"Feature","geometry":{"type":"Point","coordinates":[-77.0073,36.984]},"properties":{"site":"KAKQ","name":"Wakefield VA","scan_time":"2026-09-29T02:03:03Z","stale":false,"bins":25,"density_birds_km3":34.55,"heading_deg":280.41185255976603,"speed_ms":6.384229683768725,"peak_altitude_m":200.0,"u_ms":-5.81371083291121,"v_ms":1.0931983139156234}},{"type":"Feature","geometry":{"type":"Point","coordinates":[-71.1369,41.9558]},"properties":{"site":"KBOX","name":"Boston MA","scan_time":"2026-09-29T01:59:07Z","stale":false,"bins":25,"density_birds_km3":4.853125,"heading_deg":93.27830516996232,"speed_ms":2.1706172248803823,"peak_altitude_m":0.0,"u_ms":2.1600526315789477,"v_ms":-0.128688995215311}},{"type":"Feature","geometry":{"type":"Point","coordinates":[-78.7369,42.9489]},"properties":{"site":"KBUF","name":"Buffalo NY","scan_time":"2026-09-29T02:00:10Z","stale":false,"bins":25,"density_birds_km3":2.991333333333333,"heading_deg":142.02419991542834,"speed_ms":5.784292400267439,"peak_altitude_m":400.0,"u_ms":2.2207577445954985,"v_ms":-3.2586984622242037}},{"type":"Feature","geometry":{"type":"Point","coordinates":[-81.8597,41.4131]},"properties":{"site":"KCLE","name":"Cleveland OH","scan_time":"2026-09-29T02:00:28Z","stale":false,"bins":25,"density_birds_km3":6.052666666666667,"heading_deg":153.7417744159532,"speed_ms":8.940619147295362,"peak_altitude_m":400.0,"u_ms":2.392728875179024,"v_ms":-7.562783959457972}},{"type":"Feature","geometry":{"type":"Point","coordinates":[-81.0423,32.6555]},"properties":{"site":"KCLX","name":"Charleston SC","scan_time":"2026-09-29T01:58:30Z","stale":false,"bins":25,"density_birds_km3":33.737500000000004,"heading_deg":234.31779929731886,"speed_ms":5.163875115805077,"peak_altitude_m":200.0,"u_ms":-2.5608184176394295,"v_ms":-1.9684163424124512}},{"type":"Feature","geometry":{"type":"Point","coordinates":[-74.4108,39.947]},"properties":{"site":"KDIX","name":"Philadelphia PA","scan_time":"2026-09-29T02:01:14Z","stale":false,"bins":25,"density_birds_km3":18.65375,"heading_deg":127.52227468380836,"speed_ms":4.427817845117845,"peak_altitude_m":200.0,"u_ms":3.22262861952862,"v_ms":-2.6355232323232323}},{"type":"Feature","geometry":{"type":"Point","coordinates":[-84.5658,33.3636]},"properties":{"site":"KFFC","name":"Atlanta GA","scan_time":"2026-09-29T02:00:45Z","stale":false,"bins":25,"density_birds_km3":49.99533333333333,"heading_deg":169.89315329437233,"speed_ms":7.763197498433187,"peak_altitude_m":400.0,"u_ms":1.1765682130332165,"v_ms":-7.511369194458149}},{"type":"Feature","geometry":{"type":"Point","coordinates":[-85.5449,42.8939]},"properties":{"site":"KGRR","name":"Grand Rapids MI","scan_time":"2026-09-29T01:57:57Z","stale":false,"bins":25,"density_birds_km3":48.30533333333334,"heading_deg":168.750827811434,"speed_ms":10.762391316348781,"peak_altitude_m":400.0,"u_ms":2.1977460045819646,"v_ms":-10.390872781473405}},{"type":"Feature","geometry":{"type":"Point","coordinates":[-83.8217,39.4203]},"properties":{"site":"KILN","name":"Wilmington OH","scan_time":"2026-09-29T02:00:35Z","stale":false,"bins":25,"density_birds_km3":43.894,"heading_deg":181.2117972015416,"speed_ms":6.482963199222369,"peak_altitude_m":200.0,"u_ms":0.03721267902978382,"v_ms":-6.251081848696102}},{"type":"Feature","geometry":{"type":"Point","coordinates":[-81.7019,30.4846]},"properties":{"site":"KJAX","name":"Jacksonville FL","scan_time":"2026-09-29T01:58:16Z","stale":false,"bins":25,"density_birds_km3":65.281875,"heading_deg":193.17188889711895,"speed_ms":7.053261050636183,"peak_altitude_m":200.0,"u_ms":-0.20606887440043656,"v_ms":-5.512881829757494}},{"type":"Feature","geometry":{"type":"Point","coordinates":[-88.0847,41.6045]},"properties":{"site":"KLOT","name":"Chicago IL","scan_time":"2026-09-29T01:57:30Z","stale":false,"bins":25,"density_birds_km3":40.282666666666664,"heading_deg":167.6806908166669,"speed_ms":9.040008440354827,"peak_altitude_m":600.0,"u_ms":2.056971733086191,"v_ms":-8.646498411227327}},{"type":"Feature","geometry":{"type":"Point","coordinates":[-78.4292,33.9892]},"properties":{"site":"KLTX","name":"Wilmington NC","scan_time":"2026-09-29T01:58:04Z","stale":false,"bins":25,"density_birds_km3":38.23375,"heading_deg":275.34795041401185,"speed_ms":2.43463331698545,"peak_altitude_m":200.0,"u_ms":-1.048487166911885,"v_ms":-1.4257389243093017}},{"type":"Feature","geometry":{"type":"Point","coordinates":[-77.4778,38.9753]},"properties":{"site":"KLWX","name":"Sterling VA","scan_time":"2026-09-29T01:58:37Z","stale":false,"bins":25,"density_birds_km3":20.96375,"heading_deg":160.73558481401068,"speed_ms":6.016723824292488,"peak_altitude_m":200.0,"u_ms":0.742663048340441,"v_ms":-5.04914412668118}},{"type":"Feature","geometry":{"type":"Point","coordinates":[-76.8762,34.7759]},"properties":{"site":"KMHX","name":"Morehead City NC","scan_time":"2026-09-29T02:00:39Z","stale":false,"bins":25,"density_birds_km3":12.23875,"heading_deg":292.713245440594,"speed_ms":4.863452855245684,"peak_altitude_m":0.0,"u_ms":-3.0141975686995606,"v_ms":1.0196051690673202}},{"type":"Feature","geometry":{"type":"Point","coordinates":[-80.6542,28.1133]},"properties":{"site":"KMLB","name":"Melbourne FL","scan_time":"2026-09-29T02:01:59Z","stale":false,"bins":25,"density_birds_km3":17.276875,"heading_deg":118.6951102801619,"speed_ms":9.154238925883034,"peak_altitude_m":1800.0,"u_ms":1.8364128546612624,"v_ms":-3.1612916184134336}},{"type":"Feature","geometry":{"type":"Point","coordinates":[-86.5625,36.2472]},"properties":{"site":"KOHX","name":"Nashville TN","scan_time":"2026-09-29T01:58:54Z","stale":false,"bins":25,"density_birds_km3":53.02466666666667,"heading_deg":175.1511468311336,"speed_ms":8.60631504834228,"peak_altitude_m":400.0,"u_ms":1.1566577819128205,"v_ms":-7.824985604184215}},{"type":"Feature","geometry":{"type":"Point","coordinates":[-72.8639,40.8655]},"properties":{"site":"KOKX","name":"Upton NY","scan_time":"2026-09-29T02:00:23Z","stale":false,"bins":25,"density_birds_km3":12.454375,"heading_deg":155.79262419485576,"speed_ms":8.209958341698453,"peak_altitude_m":0.0,"u_ms":2.731319012246537,"v_ms":-6.8311769724954825}},{"type":"Feature","geometry":{"type":"Point","coordinates":[-80.2183,40.5317]},"properties":{"site":"KPBZ","name":"Pittsburgh PA","scan_time":"2026-09-29T02:02:37Z","stale":false,"bins":25,"density_birds_km3":10.788571428571428,"heading_deg":136.78949933602988,"speed_ms":6.46869608427748,"peak_altitude_m":600.0,"u_ms":3.8051977738024245,"v_ms":-4.587930166302259}},{"type":"Feature","geometry":{"type":"Point","coordinates":[-78.4899,35.6655]},"properties":{"site":"KRAX","name":"Raleigh NC","scan_time":"2026-09-29T01:57:53Z","stale":false,"bins":25,"density_birds_km3":32.156875,"heading_deg":268.22141377814535,"speed_ms":3.6383518298964064,"peak_altitude_m":200.0,"u_ms":-3.3911134866183357,"v_ms":-0.21456259353559698}},{"type":"Feature","geometry":{"type":"Point","coordinates":[-82.4017,27.7055]},"properties":{"site":"KTBW","name":"Tampa FL","scan_time":"2026-09-29T02:02:37Z","stale":false,"bins":25,"density_birds_km3":19.31625,"heading_deg":152.7829581417557,"speed_ms":6.061858215233288,"peak_altitude_m":0.0,"u_ms":1.471527211544684,"v_ms":-4.1356008542030676}}]}