{"type":"FeatureCollection","frame":"2026-09-01T08","site_count":20,"fresh_count":20,"failures":{},"features":[{"type":"Feature","geometry":{"type":"Point","coordinates":[-77.0073,36.984]},"properties":{"site":"KAKQ","name":"Wakefield VA","scan_time":"2026-09-01T07:58:15Z","stale":false,"bins":25,"density_birds_km3":5.8793750000000005,"heading_deg":121.63064626853897,"speed_ms":7.523731662918942,"peak_altitude_m":200.0,"u_ms":2.6206210515044437,"v_ms":-1.9619766570296606}},{"type":"Feature","geometry":{"type":"Point","coordinates":[-71.1369,41.9558]},"properties":{"site":"KBOX","name":"Boston MA","scan_time":"2026-09-01T08:02:12Z","stale":false,"bins":25,"density_birds_km3":3.094375,"heading_deg":88.05860249225485,"speed_ms":2.9970349794238684,"peak_altitude_m":200.0,"u_ms":2.1296913580246914,"v_ms":-0.28957407407407404}},{"type":"Feature","geometry":{"type":"Point","coordinates":[-78.7369,42.9489]},"properties":{"site":"KBUF","name":"Buffalo NY","scan_time":"2026-09-01T08:01:45Z","stale":false,"bins":25,"density_birds_km3":1.2693333333333332,"heading_deg":61.40888922470645,"speed_ms":11.430052521008404,"peak_altitude_m":200.0,"u_ms":9.82672268907563,"v_ms":4.603970588235295}},{"type":"Feature","geometry":{"type":"Point","coordinates":[-81.8597,41.4131]},"properties":{"site":"KCLE","name":"Cleveland OH","scan_time":"2026-09-01T07:58:44Z","stale":false,"bins":25,"density_birds_km3":1.8566666666666667,"heading_deg":86.54415951696292,"speed_ms":15.19498562185478,"peak_altitude_m":200.0,"u_ms":14.528306973400431,"v_ms":-0.04468368080517624}},{"type":"Feature","geometry":{"type":"Point","coordinates":[-81.0423,32.6555]},"properties":{"site":"KCLX","name":"Charleston SC","scan_time":"2026-09-01T07:57:19Z","stale":false,"bins":25,"density_birds_km3":8.110000000000001,"heading_deg":216.97629904441692,"speed_ms":5.719725911513408,"peak_altitude_m":0.0,"u_ms":-3.4294814313509856,"v_ms":-4.482656289654006}},{"type":"Feature","geometry":{"type":"Point","coordinates":[-74.4108,39.947]},"properties":{"site":"KDIX","name":"Philadelphia PA","scan_time":"2026-09-01T08:00:28Z","stale":false,"bins":25,"density_birds_km3":1.39,"heading_deg":48.214584335851,"speed_ms":7.845293586269195,"peak_altitude_m":0.0,"u_ms":5.639986449864498,"v_ms":4.850411020776875}},{"type":"Feature","geometry":{"type":"Point","coordinates":[-84.5658,33.3636]},"properties":{"site":"KFFC","name":"Atlanta GA","scan_time":"2026-09-01T08:02:54Z","stale":false,"bins":25,"density_birds_km3":13.336666666666668,"heading_deg":255.08803031282724,"speed_ms":5.935684078980254,"peak_altitude_m":1400.0,"u_ms":-4.41206448387903,"v_ms":-2.365664083979005}},{"type":"Feature","geometry":{"type":"Point","coordinates":[-85.5449,42.8939]},"properties":{"site":"KGRR","name":"Grand Rapids MI","scan_time":"2026-09-01T08:00:01Z","stale":false,"bins":25,"density_birds_km3":12.479333333333333,"heading_deg":126.04729726072513,"speed_ms":13.383204668344131,"peak_altitude_m":600.0,"u_ms":10.423852989988758,"v_ms":-7.988922854542535}},{"type":"Feature","geometry":{"type":"Point","coordinates":[-83.8217,39.4203]},"properties":{"site":"KILN","name":"Wilmington OH","scan_time":"2026-09-01T08:01:22Z","stale":false,"bins":25,"density_birds_km3":3.005333333333333,"heading_deg":92.46778257021192,"speed_ms":11.849070541259984,"peak_altitude_m":400.0,"u_ms":11.449137089618457,"v_ms":-0.4592701863354037}},{"type":"Feature","geometry":{"type":"Point","coordinates":[-81.7019,30.4846]},"properties":{"site":"KJAX","name":"Jacksonville FL","scan_time":"2026-09-01T08:03:04Z","stale":false,"bins":25,"density_birds_km3":22.157500000000002,"heading_deg":190.31111217654544,"speed_ms":10.678365400891497,"peak_altitude_m":0.0,"u_ms":-1.8948321390283813,"v_ms":-10.495348417310838}},{"type":"Feature","geometry":{"type":"Point","coordinates":[-88.0847,41.6045]},"properties":{"site":"KLOT","name":"Chicago IL","scan_time":"2026-09-01T08:03:25Z","stale":false,"bins":25,"density_birds_km3":33.367333333333335,"heading_deg":109.56585695034566,"speed_ms":14.126449406558036,"peak_altitude_m":200.0,"u_ms":13.219331723999195,"v_ms":-4.804263528465097}},{"type":"Feature","geometry":{"type":"Point","coordinates":[-78.4292,33.9892]},"properties":{"site":"KLTX","name":"Wilmington NC","scan_time":"2026-09-01T08:01:17Z","stale":false,"bins":25,"density_birds_km3":5.085,"heading_deg":162.17108438062738,"speed_ms":3.8129911911145156,"peak_altitude_m":0.0,"u_ms":-0.2006536448359504,"v_ms":-2.9904378909740843}},{"type":"Feature","geometry":{"type":"Point","coordinates":[-77.4778,38.9753]},"properties":{"site":"KLWX","name":"Sterling VA","scan_time":"2026-09-01T08:02:04Z","stale":false,"bins":25,"density_birds_km3":2.993125,"heading_deg":65.72917988092458,"speed_ms":6.713542234332425,"peak_altitude_m":0.0,"u_ms":4.9838444389398076,"v_ms":2.463371315333168}},{"type":"Feature","geometry":{"type":"Point","coordinates":[-76.8762,34.7759]},"properties":{"site":"KMHX","name":"Morehead City NC","scan_time":"2026-09-01T07:59:09Z","stale":false,"bins":25,"density_birds_km3":2.20375,"heading_deg":116.75807622232527,"speed_ms":4.364618439716312,"peak_altitude_m":0.0,"u_ms":2.24250780141844,"v_ms":-1.3053617021276596}},{"type":"Feature","geometry":{"type":"Point","coordinates":[-80.6542,28.1133]},"properties":{"site":"KMLB","name":"Melbourne FL","scan_time":"2026-09-01T07:58:18Z","stale":false,"bins":25,"density_birds_km3":2.749375,"heading_deg":161.57551656531206,"speed_ms":3.2835881683731514,"peak_altitude_m":0.0,"u_ms":1.0455267349260524,"v_ms":-3.0579340159271897}},{"type":"Feature","geometry":{"type":"Point","coordinates":[-86.5625,36.2472]},"properties":{"site":"KOHX","name":"Nashville TN","scan_time":"2026-09-01T08:00:23Z","stale":false,"bins":25,"density_birds_km3":9.887333333333334,"heading_deg":86.14288759139744,"speed_ms":3.611277054817612,"peak_altitude_m":400.0,"u_ms":3.1939687141797584,"v_ms":0.37344818286022524}},{"type":"Feature","geometry":{"type":"Point","coordinates":[-72.8639,40.8655]},"properties":{"site":"KOKX","name":"Upton NY","scan_time":"2026-09-01T07:58:23Z","stale":false,"bins":25,"density_birds_km3":4.17,"heading_deg":null,"speed_ms":null,"peak_altitude_m":0.0,"u_ms":null,"v_ms":null}},{"type":"Feature","geometry":{"type":"Point","coordinates":[-80.2183,40.5317]},"properties":{"site":"KPBZ","name":"Pittsburgh PA","scan_time":"2026-09-01T08:00:34Z","stale":false,"bins":25,"density_birds_km3":1.433076923076923,"heading_deg":88.66161458789202,"speed_ms":10.730976008724099,"peak_altitude_m":400.0,"u_ms":9.703996728462377,"v_ms":0.188565976008724}},{"type":"Feature","geometry":{"type":"Point","coordinates":[-78.4899,35.6655]},"properties":{"site":"KRAX","name":"Raleigh NC","scan_time":"2026-09-01T08:03:13Z","stale":false,"bins":25,"density_birds_km3":12.064375,"heading_deg":110.26221430189794,"speed_ms":6.042836868123106,"peak_altitude_m":200.0,"u_ms":3.183636315313879,"v_ms":-1.3601397969489182}},{"type":"Feature","geometry":{"type":"Point","coordinates":[-82.4017,27.7055]},"properties":{"site":"KTBW","name":"Tampa FL","scan_time":"2026-09-01T08:00:15Z","stale":false,"bins":25,"density_birds_km3":11.887500000000001,"heading_deg":197.0428548135419,"speed_ms":7.487451361867705,"peak_altitude_m":0.0,"u_ms":-2.010701440740351,"v_ms":-7.077760016826165}}]}