{"type":"FeatureCollection","frame":"2026-09-23T08","site_count":20,"fresh_count":19,"failures":{"KMHX":"RuntimeError('no scan within 20 min of 2026-09-23T08:00Z')"},"features":[{"type":"Feature","geometry":{"type":"Point","coordinates":[-77.0073,36.984]},"properties":{"site":"KAKQ","name":"Wakefield VA","scan_time":"2026-09-23T07:59:22Z","stale":false,"bins":25,"density_birds_km3":0.0023076923076923075,"heading_deg":null,"speed_ms":null,"peak_altitude_m":600.0,"u_ms":null,"v_ms":null}},{"type":"Feature","geometry":{"type":"Point","coordinates":[-71.1369,41.9558]},"properties":{"site":"KBOX","name":"Boston MA","scan_time":"2026-09-23T07:58:40Z","stale":false,"bins":25,"density_birds_km3":0.241875,"heading_deg":223.46025535871436,"speed_ms":9.840442708333335,"peak_altitude_m":0.0,"u_ms":-6.795859375,"v_ms":-6.972421875}},{"type":"Feature","geometry":{"type":"Point","coordinates":[-78.7369,42.9489]},"properties":{"site":"KBUF","name":"Buffalo NY","scan_time":"2026-09-23T08:01:49Z","stale":false,"bins":25,"density_birds_km3":5.2026666666666666,"heading_deg":263.50828268588793,"speed_ms":12.98046258329062,"peak_altitude_m":200.0,"u_ms":-12.821227575602256,"v_ms":-1.5668336750384417}},{"type":"Feature","geometry":{"type":"Point","coordinates":[-81.8597,41.4131]},"properties":{"site":"KCLE","name":"Cleveland OH","scan_time":"2026-09-23T07:57:55Z","stale":false,"bins":25,"density_birds_km3":21.266000000000002,"heading_deg":251.3575416250112,"speed_ms":12.486993414863594,"peak_altitude_m":200.0,"u_ms":-11.409356851677641,"v_ms":-3.2811937911571025}},{"type":"Feature","geometry":{"type":"Point","coordinates":[-81.0423,32.6555]},"properties":{"site":"KCLX","name":"Charleston SC","scan_time":"2026-09-23T08:01:40Z","stale":false,"bins":25,"density_birds_km3":4.378125,"heading_deg":216.30741924243011,"speed_ms":9.926326763781777,"peak_altitude_m":200.0,"u_ms":-5.919515852613539,"v_ms":-7.878928877463582}},{"type":"Feature","geometry":{"type":"Point","coordinates":[-74.4108,39.947]},"properties":{"site":"KDIX","name":"Philadelphia PA","scan_time":"2026-09-23T07:59:47Z","stale":false,"bins":25,"density_birds_km3":1.50875,"heading_deg":null,"speed_ms":null,"peak_altitude_m":600.0,"u_ms":null,"v_ms":null}},{"type":"Feature","geometry":{"type":"Point","coordinates":[-84.5658,33.3636]},"properties":{"site":"KFFC","name":"Atlanta GA","scan_time":"2026-09-23T07:59:52Z","stale":false,"bins":25,"density_birds_km3":51.654,"heading_deg":194.95083980585864,"speed_ms":9.679633845717014,"peak_altitude_m":200.0,"u_ms":-1.4548466075554007,"v_ms":-8.994908171035478}},{"type":"Feature","geometry":{"type":"Point","coordinates":[-85.5449,42.8939]},"properties":{"site":"KGRR","name":"Grand Rapids MI","scan_time":"2026-09-23T07:57:08Z","stale":false,"bins":25,"density_birds_km3":5.008666666666667,"heading_deg":252.03585554140147,"speed_ms":17.227875682150938,"peak_altitude_m":400.0,"u_ms":-16.348605084520166,"v_ms":-5.0038826034872885}},{"type":"Feature","geometry":{"type":"Point","coordinates":[-83.8217,39.4203]},"properties":{"site":"KILN","name":"Wilmington OH","scan_time":"2026-09-23T07:55:42Z","stale":false,"bins":25,"density_birds_km3":4.901538461538462,"heading_deg":218.5567302662953,"speed_ms":5.866457783641161,"peak_altitude_m":200.0,"u_ms":-2.670255606860158,"v_ms":-3.6202391160949867}},{"type":"Feature","geometry":{"type":"Point","coordinates":[-81.7019,30.4846]},"properties":{"site":"KJAX","name":"Jacksonville FL","scan_time":"2026-09-23T07:58:10Z","stale":false,"bins":25,"density_birds_km3":73.67375,"heading_deg":186.19592018773983,"speed_ms":11.042324012962554,"peak_altitude_m":0.0,"u_ms":-1.1871455233376882,"v_ms":-10.970917049831181}},{"type":"Feature","geometry":{"type":"Point","coordinates":[-88.0847,41.6045]},"properties":{"site":"KLOT","name":"Chicago IL","scan_time":"2026-09-23T07:57:54Z","stale":false,"bins":25,"density_birds_km3":8.228666666666667,"heading_deg":219.90256364399193,"speed_ms":8.238049633848657,"peak_altitude_m":200.0,"u_ms":-4.887903986981285,"v_ms":-4.781144833197722}},{"type":"Feature","geometry":{"type":"Point","coordinates":[-78.4292,33.9892]},"properties":{"site":"KLTX","name":"Wilmington NC","scan_time":"2026-09-23T07:58:12Z","stale":false,"bins":25,"density_birds_km3":6.908125,"heading_deg":211.8746755058887,"speed_ms":7.885348353239233,"peak_altitude_m":0.0,"u_ms":-4.088597538906986,"v_ms":-6.716886536373507}},{"type":"Feature","geometry":{"type":"Point","coordinates":[-77.4778,38.9753]},"properties":{"site":"KLWX","name":"Sterling VA","scan_time":"2026-09-23T07:59:39Z","stale":false,"bins":25,"density_birds_km3":33.06166666666667,"heading_deg":197.83632872767026,"speed_ms":10.46764963253167,"peak_altitude_m":200.0,"u_ms":-3.3864016700506157,"v_ms":-9.630146129428924}},{"type":"Feature","geometry":{"type":"Point","coordinates":[-80.6542,28.1133]},"properties":{"site":"KMLB","name":"Melbourne FL","scan_time":"2026-09-23T07:58:07Z","stale":false,"bins":25,"density_birds_km3":4.509375,"heading_deg":39.19672653236725,"speed_ms":1.5279448065455554,"peak_altitude_m":0.0,"u_ms":0.41971709887671615,"v_ms":0.9960241298016919}},{"type":"Feature","geometry":{"type":"Point","coordinates":[-86.5625,36.2472]},"properties":{"site":"KOHX","name":"Nashville TN","scan_time":"2026-09-23T07:58:44Z","stale":false,"bins":25,"density_birds_km3":25.470000000000002,"heading_deg":212.14137278359428,"speed_ms":5.541233346420626,"peak_altitude_m":200.0,"u_ms":-2.7102559874361996,"v_ms":-3.938433189373119}},{"type":"Feature","geometry":{"type":"Point","coordinates":[-72.8639,40.8655]},"properties":{"site":"KOKX","name":"Upton NY","scan_time":"2026-09-23T08:00:38Z","stale":false,"bins":25,"density_birds_km3":0.121875,"heading_deg":232.02143190106312,"speed_ms":12.428194444444445,"peak_altitude_m":0.0,"u_ms":-9.833819444444446,"v_ms":-7.3471527777777785}},{"type":"Feature","geometry":{"type":"Point","coordinates":[-80.2183,40.5317]},"properties":{"site":"KPBZ","name":"Pittsburgh PA","scan_time":"2026-09-23T07:59:51Z","stale":false,"bins":25,"density_birds_km3":8.515714285714285,"heading_deg":246.4102047865013,"speed_ms":12.859448079181345,"peak_altitude_m":400.0,"u_ms":-11.523892803220935,"v_ms":-4.80225801040094}},{"type":"Feature","geometry":{"type":"Point","coordinates":[-78.4899,35.6655]},"properties":{"site":"KRAX","name":"Raleigh NC","scan_time":"2026-09-23T07:58:30Z","stale":false,"bins":25,"density_birds_km3":1.6568749999999999,"heading_deg":198.5598647274508,"speed_ms":8.342230188679245,"peak_altitude_m":200.0,"u_ms":-2.747539622641509,"v_ms":-7.748135849056604}},{"type":"Feature","geometry":{"type":"Point","coordinates":[-82.4017,27.7055]},"properties":{"site":"KTBW","name":"Tampa FL","scan_time":"2026-09-23T08:02:03Z","stale":false,"bins":25,"density_birds_km3":7.06875,"heading_deg":260.05850911087975,"speed_ms":4.219800123817104,"peak_altitude_m":0.0,"u_ms":-4.014748385955603,"v_ms":-0.8755142831874061}}]}