{"type":"FeatureCollection","frame":"2026-10-06T02","site_count":20,"fresh_count":19,"failures":{"KILN":"RuntimeError('no scan within 20 min of 2026-10-06T02:00Z')"},"features":[{"type":"Feature","geometry":{"type":"Point","coordinates":[-77.0073,36.984]},"properties":{"site":"KAKQ","name":"Wakefield VA","scan_time":"2026-10-06T02:00:58Z","stale":false,"bins":25,"density_birds_km3":237.363125,"heading_deg":184.29096087006266,"speed_ms":10.411888983387795,"peak_altitude_m":0.0,"u_ms":-0.9700580071146266,"v_ms":-10.264352613743183}},{"type":"Feature","geometry":{"type":"Point","coordinates":[-71.1369,41.9558]},"properties":{"site":"KBOX","name":"Boston MA","scan_time":"2026-10-06T02:01:10Z","stale":false,"bins":25,"density_birds_km3":9.00625,"heading_deg":141.01099828656533,"speed_ms":11.296807250410334,"peak_altitude_m":0.0,"u_ms":7.226386212802399,"v_ms":-8.62884749875116}},{"type":"Feature","geometry":{"type":"Point","coordinates":[-78.7369,42.9489]},"properties":{"site":"KBUF","name":"Buffalo NY","scan_time":"2026-10-06T01:58:40Z","stale":false,"bins":25,"density_birds_km3":34.656,"heading_deg":167.43734689262087,"speed_ms":13.800976454293629,"peak_altitude_m":200.0,"u_ms":3.0676814019698364,"v_ms":-13.444024315173898}},{"type":"Feature","geometry":{"type":"Point","coordinates":[-81.8597,41.4131]},"properties":{"site":"KCLE","name":"Cleveland OH","scan_time":"2026-10-06T01:57:26Z","stale":false,"bins":25,"density_birds_km3":18.136000000000003,"heading_deg":210.54801671695736,"speed_ms":9.418505497738389,"peak_altitude_m":400.0,"u_ms":-4.295601073805759,"v_ms":-7.9364479829367856}},{"type":"Feature","geometry":{"type":"Point","coordinates":[-81.0423,32.6555]},"properties":{"site":"KCLX","name":"Charleston SC","scan_time":"2026-10-06T01:57:19Z","stale":false,"bins":25,"density_birds_km3":120.0125,"heading_deg":204.6509441334305,"speed_ms":12.605377512759087,"peak_altitude_m":0.0,"u_ms":-5.394128788667847,"v_ms":-11.321884334965107}},{"type":"Feature","geometry":{"type":"Point","coordinates":[-74.4108,39.947]},"properties":{"site":"KDIX","name":"Philadelphia PA","scan_time":"2026-10-06T01:59:05Z","stale":false,"bins":25,"density_birds_km3":47.970625,"heading_deg":176.09181590776618,"speed_ms":12.447818110749186,"peak_altitude_m":0.0,"u_ms":0.8400144625407165,"v_ms":-12.272848599348537}},{"type":"Feature","geometry":{"type":"Point","coordinates":[-84.5658,33.3636]},"properties":{"site":"KFFC","name":"Atlanta GA","scan_time":"2026-10-06T01:58:22Z","stale":false,"bins":25,"density_birds_km3":182.63400000000001,"heading_deg":200.67622981240785,"speed_ms":9.03109026796763,"peak_altitude_m":1200.0,"u_ms":-2.9422399261181744,"v_ms":-8.444582133301209}},{"type":"Feature","geometry":{"type":"Point","coordinates":[-85.5449,42.8939]},"properties":{"site":"KGRR","name":"Grand Rapids MI","scan_time":"2026-10-06T02:03:52Z","stale":false,"bins":25,"density_birds_km3":55.276666666666664,"heading_deg":198.18978979253143,"speed_ms":10.45104896843152,"peak_altitude_m":400.0,"u_ms":-3.1716053939845885,"v_ms":-9.912583022619936}},{"type":"Feature","geometry":{"type":"Point","coordinates":[-81.7019,30.4846]},"properties":{"site":"KJAX","name":"Jacksonville FL","scan_time":"2026-10-06T01:57:53Z","stale":false,"bins":25,"density_birds_km3":71.790625,"heading_deg":187.68157086815907,"speed_ms":10.631815268877125,"peak_altitude_m":200.0,"u_ms":-1.5160816035107272,"v_ms":-10.455306143772638}},{"type":"Feature","geometry":{"type":"Point","coordinates":[-88.0847,41.6045]},"properties":{"site":"KLOT","name":"Chicago IL","scan_time":"2026-10-06T02:00:39Z","stale":false,"bins":25,"density_birds_km3":7.260666666666666,"heading_deg":278.6036186902452,"speed_ms":9.205875493526765,"peak_altitude_m":400.0,"u_ms":-8.426213387200441,"v_ms":1.1610650996235423}},{"type":"Feature","geometry":{"type":"Point","coordinates":[-78.4292,33.9892]},"properties":{"site":"KLTX","name":"Wilmington NC","scan_time":"2026-10-06T01:59:19Z","stale":false,"bins":25,"density_birds_km3":150.185625,"heading_deg":213.86331509333988,"speed_ms":13.188140047043152,"peak_altitude_m":200.0,"u_ms":-7.377332903145231,"v_ms":-10.88990857808955}},{"type":"Feature","geometry":{"type":"Point","coordinates":[-77.4778,38.9753]},"properties":{"site":"KLWX","name":"Sterling VA","scan_time":"2026-10-06T01:59:47Z","stale":false,"bins":25,"density_birds_km3":179.920625,"heading_deg":185.23929979744042,"speed_ms":13.353820469443122,"peak_altitude_m":200.0,"u_ms":-0.5349762221535191,"v_ms":-12.96245292194822}},{"type":"Feature","geometry":{"type":"Point","coordinates":[-76.8762,34.7759]},"properties":{"site":"KMHX","name":"Morehead City NC","scan_time":"2026-10-06T02:00:46Z","stale":false,"bins":25,"density_birds_km3":101.185625,"heading_deg":197.3502788191292,"speed_ms":12.721286899371806,"peak_altitude_m":200.0,"u_ms":-3.8425584799836927,"v_ms":-11.991725460643758}},{"type":"Feature","geometry":{"type":"Point","coordinates":[-80.6542,28.1133]},"properties":{"site":"KMLB","name":"Melbourne FL","scan_time":"2026-10-06T01:58:34Z","stale":false,"bins":25,"density_birds_km3":11.328125,"heading_deg":223.42717937462348,"speed_ms":4.685510068965518,"peak_altitude_m":200.0,"u_ms":-1.974177103448276,"v_ms":-3.1196551724137933}},{"type":"Feature","geometry":{"type":"Point","coordinates":[-86.5625,36.2472]},"properties":{"site":"KOHX","name":"Nashville TN","scan_time":"2026-10-06T01:57:03Z","stale":false,"bins":25,"density_birds_km3":120.55333333333333,"heading_deg":204.2906665997353,"speed_ms":12.449440966653764,"peak_altitude_m":200.0,"u_ms":-4.960153514350496,"v_ms":-11.24375413371675}},{"type":"Feature","geometry":{"type":"Point","coordinates":[-72.8639,40.8655]},"properties":{"site":"KOKX","name":"Upton NY","scan_time":"2026-10-06T02:03:10Z","stale":false,"bins":25,"density_birds_km3":15.993125000000001,"heading_deg":168.49175579255638,"speed_ms":11.118125,"peak_altitude_m":0.0,"u_ms":2.550036419172932,"v_ms":-10.617718515037593}},{"type":"Feature","geometry":{"type":"Point","coordinates":[-80.2183,40.5317]},"properties":{"site":"KPBZ","name":"Pittsburgh PA","scan_time":"2026-10-06T02:01:31Z","stale":false,"bins":25,"density_birds_km3":49.574285714285715,"heading_deg":192.28833425717326,"speed_ms":13.24145250994179,"peak_altitude_m":600.0,"u_ms":-2.80395121318656,"v_ms":-12.834813555414675}},{"type":"Feature","geometry":{"type":"Point","coordinates":[-78.4899,35.6655]},"properties":{"site":"KRAX","name":"Raleigh NC","scan_time":"2026-10-06T01:57:54Z","stale":false,"bins":25,"density_birds_km3":114.975,"heading_deg":207.77951699969452,"speed_ms":10.997930202217873,"peak_altitude_m":200.0,"u_ms":-4.171465155468581,"v_ms":-9.88866046966732}},{"type":"Feature","geometry":{"type":"Point","coordinates":[-82.4017,27.7055]},"properties":{"site":"KTBW","name":"Tampa FL","scan_time":"2026-10-06T02:01:02Z","stale":false,"bins":25,"density_birds_km3":17.84375,"heading_deg":185.002633104005,"speed_ms":5.998963922942207,"peak_altitude_m":0.0,"u_ms":-0.37519474605954467,"v_ms":-5.913478458844134}}]}