{"type":"FeatureCollection","frame":"2026-09-02T08","site_count":20,"fresh_count":20,"failures":{},"features":[{"type":"Feature","geometry":{"type":"Point","coordinates":[-77.0073,36.984]},"properties":{"site":"KAKQ","name":"Wakefield VA","scan_time":"2026-09-02T07:58:28Z","stale":false,"bins":25,"density_birds_km3":8.761875,"heading_deg":141.82519088206587,"speed_ms":6.724634424709324,"peak_altitude_m":200.0,"u_ms":3.5843869034881233,"v_ms":-4.527178828732435}},{"type":"Feature","geometry":{"type":"Point","coordinates":[-71.1369,41.9558]},"properties":{"site":"KBOX","name":"Boston MA","scan_time":"2026-09-02T08:01:54Z","stale":false,"bins":25,"density_birds_km3":4.1068750000000005,"heading_deg":207.25716352913278,"speed_ms":10.200933881779402,"peak_altitude_m":0.0,"u_ms":-4.375127970749543,"v_ms":-8.974786715417428}},{"type":"Feature","geometry":{"type":"Point","coordinates":[-78.7369,42.9489]},"properties":{"site":"KBUF","name":"Buffalo NY","scan_time":"2026-09-02T07:59:08Z","stale":false,"bins":25,"density_birds_km3":3.648,"heading_deg":84.46851982247645,"speed_ms":4.678059210526316,"peak_altitude_m":200.0,"u_ms":3.505487938596491,"v_ms":0.4487116228070175}},{"type":"Feature","geometry":{"type":"Point","coordinates":[-81.8597,41.4131]},"properties":{"site":"KCLE","name":"Cleveland OH","scan_time":"2026-09-02T08:01:26Z","stale":false,"bins":25,"density_birds_km3":9.862666666666666,"heading_deg":120.14049874494665,"speed_ms":10.14985703638458,"peak_altitude_m":200.0,"u_ms":8.25805745646724,"v_ms":-5.475417033674368}},{"type":"Feature","geometry":{"type":"Point","coordinates":[-81.0423,32.6555]},"properties":{"site":"KCLX","name":"Charleston SC","scan_time":"2026-09-02T07:58:04Z","stale":false,"bins":25,"density_birds_km3":7.0981250000000005,"heading_deg":182.17504779254742,"speed_ms":6.398208153561679,"peak_altitude_m":0.0,"u_ms":-2.3694399929558863,"v_ms":-5.2702984943206825}},{"type":"Feature","geometry":{"type":"Point","coordinates":[-74.4108,39.947]},"properties":{"site":"KDIX","name":"Philadelphia PA","scan_time":"2026-09-02T08:00:04Z","stale":false,"bins":25,"density_birds_km3":2.223125,"heading_deg":236.4445329875518,"speed_ms":8.058794225870365,"peak_altitude_m":200.0,"u_ms":-6.370724596660063,"v_ms":-4.3808151712425705}},{"type":"Feature","geometry":{"type":"Point","coordinates":[-84.5658,33.3636]},"properties":{"site":"KFFC","name":"Atlanta GA","scan_time":"2026-09-02T08:03:31Z","stale":false,"bins":25,"density_birds_km3":22.012,"heading_deg":141.80018337208753,"speed_ms":5.436814738500697,"peak_altitude_m":200.0,"u_ms":0.4433567662565906,"v_ms":-2.1729725471183565}},{"type":"Feature","geometry":{"type":"Point","coordinates":[-85.5449,42.8939]},"properties":{"site":"KGRR","name":"Grand Rapids MI","scan_time":"2026-09-02T08:00:16Z","stale":false,"bins":25,"density_birds_km3":11.919999999999998,"heading_deg":114.01196083700911,"speed_ms":15.630822706935124,"peak_altitude_m":400.0,"u_ms":14.103964765100672,"v_ms":-6.579921140939598}},{"type":"Feature","geometry":{"type":"Point","coordinates":[-83.8217,39.4203]},"properties":{"site":"KILN","name":"Wilmington OH","scan_time":"2026-09-02T07:59:56Z","stale":false,"bins":25,"density_birds_km3":22.364666666666665,"heading_deg":135.51236191563905,"speed_ms":11.54782187369551,"peak_altitude_m":1200.0,"u_ms":7.679671715665812,"v_ms":-7.89355596636651}},{"type":"Feature","geometry":{"type":"Point","coordinates":[-81.7019,30.4846]},"properties":{"site":"KJAX","name":"Jacksonville FL","scan_time":"2026-09-02T07:58:47Z","stale":false,"bins":25,"density_birds_km3":24.5225,"heading_deg":193.512986289695,"speed_ms":11.342643812922134,"peak_altitude_m":0.0,"u_ms":-2.6487918949917164,"v_ms":-10.97209965591946}},{"type":"Feature","geometry":{"type":"Point","coordinates":[-88.0847,41.6045]},"properties":{"site":"KLOT","name":"Chicago IL","scan_time":"2026-09-02T08:01:33Z","stale":false,"bins":25,"density_birds_km3":9.157333333333334,"heading_deg":80.11177001349634,"speed_ms":12.599928498467825,"peak_altitude_m":200.0,"u_ms":12.139094557128265,"v_ms":2.299798628337954}},{"type":"Feature","geometry":{"type":"Point","coordinates":[-78.4292,33.9892]},"properties":{"site":"KLTX","name":"Wilmington NC","scan_time":"2026-09-02T07:58:53Z","stale":false,"bins":25,"density_birds_km3":5.714375,"heading_deg":127.7471834010252,"speed_ms":4.997449142857143,"peak_altitude_m":200.0,"u_ms":1.233634285714286,"v_ms":-2.745897142857143}},{"type":"Feature","geometry":{"type":"Point","coordinates":[-77.4778,38.9753]},"properties":{"site":"KLWX","name":"Sterling VA","scan_time":"2026-09-02T07:59:32Z","stale":false,"bins":25,"density_birds_km3":31.40875,"heading_deg":205.03704257993226,"speed_ms":9.759790724660878,"peak_altitude_m":400.0,"u_ms":-3.561903285182666,"v_ms":-8.54822175983354}},{"type":"Feature","geometry":{"type":"Point","coordinates":[-76.8762,34.7759]},"properties":{"site":"KMHX","name":"Morehead City NC","scan_time":"2026-09-02T07:57:48Z","stale":false,"bins":25,"density_birds_km3":2.376875,"heading_deg":97.6555751835799,"speed_ms":6.9722403365763865,"peak_altitude_m":0.0,"u_ms":3.700554825138049,"v_ms":-1.091798580068367}},{"type":"Feature","geometry":{"type":"Point","coordinates":[-80.6542,28.1133]},"properties":{"site":"KMLB","name":"Melbourne FL","scan_time":"2026-09-02T07:58:50Z","stale":false,"bins":25,"density_birds_km3":3.243125,"heading_deg":157.61194865868939,"speed_ms":4.653667373289651,"peak_altitude_m":0.0,"u_ms":1.8275544420890342,"v_ms":-4.17482559259973}},{"type":"Feature","geometry":{"type":"Point","coordinates":[-86.5625,36.2472]},"properties":{"site":"KOHX","name":"Nashville TN","scan_time":"2026-09-02T08:00:14Z","stale":false,"bins":25,"density_birds_km3":14.948666666666668,"heading_deg":149.78176731398125,"speed_ms":3.1156691789680235,"peak_altitude_m":400.0,"u_ms":1.0030713999018863,"v_ms":-2.2193319359586137}},{"type":"Feature","geometry":{"type":"Point","coordinates":[-72.8639,40.8655]},"properties":{"site":"KOKX","name":"Upton NY","scan_time":"2026-09-02T08:01:50Z","stale":false,"bins":25,"density_birds_km3":4.25076923076923,"heading_deg":258.13381471564276,"speed_ms":8.741609935602577,"peak_altitude_m":200.0,"u_ms":-8.400097516099358,"v_ms":-1.750625574977001}},{"type":"Feature","geometry":{"type":"Point","coordinates":[-80.2183,40.5317]},"properties":{"site":"KPBZ","name":"Pittsburgh PA","scan_time":"2026-09-02T07:58:29Z","stale":false,"bins":25,"density_birds_km3":14.069230769230769,"heading_deg":149.94560625834353,"speed_ms":9.499486418123832,"peak_altitude_m":600.0,"u_ms":4.520288683602771,"v_ms":-7.771545144616738}},{"type":"Feature","geometry":{"type":"Point","coordinates":[-78.4899,35.6655]},"properties":{"site":"KRAX","name":"Raleigh NC","scan_time":"2026-09-02T08:01:15Z","stale":false,"bins":25,"density_birds_km3":12.305625000000001,"heading_deg":149.20398947465924,"speed_ms":7.451244349636852,"peak_altitude_m":200.0,"u_ms":2.476225303468942,"v_ms":-4.245881964548732}},{"type":"Feature","geometry":{"type":"Point","coordinates":[-82.4017,27.7055]},"properties":{"site":"KTBW","name":"Tampa FL","scan_time":"2026-09-02T07:57:23Z","stale":false,"bins":25,"density_birds_km3":8.541875,"heading_deg":188.41551622962075,"speed_ms":6.202754079168802,"peak_altitude_m":200.0,"u_ms":-0.9121321431184607,"v_ms":-6.026643740396576}}]}