{"type":"FeatureCollection","frame":"2026-09-14T03","site_count":20,"fresh_count":20,"failures":{},"features":[{"type":"Feature","geometry":{"type":"Point","coordinates":[-77.0073,36.984]},"properties":{"site":"KAKQ","name":"Wakefield VA","scan_time":"2026-09-14T02:58:10Z","stale":false,"bins":25,"density_birds_km3":24.493125,"heading_deg":158.6141718558025,"speed_ms":7.572139631018908,"peak_altitude_m":0.0,"u_ms":2.347363801066626,"v_ms":-7.086543928143102}},{"type":"Feature","geometry":{"type":"Point","coordinates":[-71.1369,41.9558]},"properties":{"site":"KBOX","name":"Boston MA","scan_time":"2026-09-14T03:00:28Z","stale":false,"bins":25,"density_birds_km3":0.66375,"heading_deg":90.34104797096948,"speed_ms":7.804981132075472,"peak_altitude_m":0.0,"u_ms":7.6815566037735845,"v_ms":-0.2597735849056603}},{"type":"Feature","geometry":{"type":"Point","coordinates":[-78.7369,42.9489]},"properties":{"site":"KBUF","name":"Buffalo NY","scan_time":"2026-09-14T03:00:41Z","stale":false,"bins":25,"density_birds_km3":67.86800000000001,"heading_deg":166.36095959485246,"speed_ms":11.14621074250226,"peak_altitude_m":400.0,"u_ms":2.545130006682127,"v_ms":-10.812614873629181}},{"type":"Feature","geometry":{"type":"Point","coordinates":[-81.8597,41.4131]},"properties":{"site":"KCLE","name":"Cleveland OH","scan_time":"2026-09-14T02:58:26Z","stale":false,"bins":25,"density_birds_km3":57.91733333333333,"heading_deg":172.66630320268743,"speed_ms":15.543788431654676,"peak_altitude_m":400.0,"u_ms":1.867576748201439,"v_ms":-15.354264633093527}},{"type":"Feature","geometry":{"type":"Point","coordinates":[-81.0423,32.6555]},"properties":{"site":"KCLX","name":"Charleston SC","scan_time":"2026-09-14T03:00:50Z","stale":false,"bins":25,"density_birds_km3":35.018750000000004,"heading_deg":160.61317973627075,"speed_ms":9.433746207388898,"peak_altitude_m":1800.0,"u_ms":1.1060920935213276,"v_ms":-8.375774585043725}},{"type":"Feature","geometry":{"type":"Point","coordinates":[-74.4108,39.947]},"properties":{"site":"KDIX","name":"Philadelphia PA","scan_time":"2026-09-14T03:01:27Z","stale":false,"bins":25,"density_birds_km3":7.236875,"heading_deg":145.7940059445289,"speed_ms":8.134183435529838,"peak_altitude_m":0.0,"u_ms":4.354179117367648,"v_ms":-6.716816650833405}},{"type":"Feature","geometry":{"type":"Point","coordinates":[-84.5658,33.3636]},"properties":{"site":"KFFC","name":"Atlanta GA","scan_time":"2026-09-14T03:00:33Z","stale":false,"bins":25,"density_birds_km3":249.226,"heading_deg":183.40087827000184,"speed_ms":11.640066606212836,"peak_altitude_m":1400.0,"u_ms":-1.0991278331046253,"v_ms":-11.453033605375577}},{"type":"Feature","geometry":{"type":"Point","coordinates":[-85.5449,42.8939]},"properties":{"site":"KGRR","name":"Grand Rapids MI","scan_time":"2026-09-14T03:02:52Z","stale":false,"bins":25,"density_birds_km3":93.85,"heading_deg":186.30424433790856,"speed_ms":13.281937062688687,"peak_altitude_m":400.0,"u_ms":-0.9255234949387319,"v_ms":-13.057227348605931}},{"type":"Feature","geometry":{"type":"Point","coordinates":[-83.8217,39.4203]},"properties":{"site":"KILN","name":"Wilmington OH","scan_time":"2026-09-14T02:59:49Z","stale":false,"bins":25,"density_birds_km3":83.062,"heading_deg":168.55693279179823,"speed_ms":14.008295570377147,"peak_altitude_m":400.0,"u_ms":2.6961749857536135,"v_ms":-13.362524459640591}},{"type":"Feature","geometry":{"type":"Point","coordinates":[-81.7019,30.4846]},"properties":{"site":"KJAX","name":"Jacksonville FL","scan_time":"2026-09-14T02:59:40Z","stale":false,"bins":25,"density_birds_km3":31.148125,"heading_deg":159.22815262270296,"speed_ms":10.939430342917912,"peak_altitude_m":1800.0,"u_ms":1.8414140096715292,"v_ms":-9.912728896201617}},{"type":"Feature","geometry":{"type":"Point","coordinates":[-88.0847,41.6045]},"properties":{"site":"KLOT","name":"Chicago IL","scan_time":"2026-09-14T03:01:58Z","stale":false,"bins":25,"density_birds_km3":77.93333333333334,"heading_deg":173.0202380253811,"speed_ms":12.97514856737079,"peak_altitude_m":400.0,"u_ms":1.5240369429258318,"v_ms":-12.756572213238881}},{"type":"Feature","geometry":{"type":"Point","coordinates":[-78.4292,33.9892]},"properties":{"site":"KLTX","name":"Wilmington NC","scan_time":"2026-09-14T02:58:42Z","stale":false,"bins":25,"density_birds_km3":25.175625,"heading_deg":163.17973972048125,"speed_ms":9.767936984804848,"peak_altitude_m":1800.0,"u_ms":1.1719731353659748,"v_ms":-7.057879630549211}},{"type":"Feature","geometry":{"type":"Point","coordinates":[-77.4778,38.9753]},"properties":{"site":"KLWX","name":"Sterling VA","scan_time":"2026-09-14T03:00:56Z","stale":false,"bins":25,"density_birds_km3":75.66,"heading_deg":162.56979638395413,"speed_ms":8.044255446135482,"peak_altitude_m":400.0,"u_ms":1.7519565469677378,"v_ms":-7.387013743824398}},{"type":"Feature","geometry":{"type":"Point","coordinates":[-76.8762,34.7759]},"properties":{"site":"KMHX","name":"Morehead City NC","scan_time":"2026-09-14T02:59:10Z","stale":false,"bins":25,"density_birds_km3":23.568125000000002,"heading_deg":140.64307465455119,"speed_ms":8.595746903922139,"peak_altitude_m":0.0,"u_ms":4.222555358137314,"v_ms":-5.900043225755124}},{"type":"Feature","geometry":{"type":"Point","coordinates":[-80.6542,28.1133]},"properties":{"site":"KMLB","name":"Melbourne FL","scan_time":"2026-09-14T03:00:50Z","stale":false,"bins":25,"density_birds_km3":9.135,"heading_deg":138.89525451155436,"speed_ms":4.32083726980215,"peak_altitude_m":0.0,"u_ms":1.9907030875607585,"v_ms":-3.5207222564523857}},{"type":"Feature","geometry":{"type":"Point","coordinates":[-86.5625,36.2472]},"properties":{"site":"KOHX","name":"Nashville TN","scan_time":"2026-09-14T03:01:29Z","stale":false,"bins":25,"density_birds_km3":179.772,"heading_deg":174.82025214942158,"speed_ms":6.656002306625429,"peak_altitude_m":600.0,"u_ms":0.5200351556415904,"v_ms":-6.61605971267309}},{"type":"Feature","geometry":{"type":"Point","coordinates":[-72.8639,40.8655]},"properties":{"site":"KOKX","name":"Upton NY","scan_time":"2026-09-14T02:58:34Z","stale":false,"bins":25,"density_birds_km3":2.074375,"heading_deg":100.68548271042239,"speed_ms":7.467439024390243,"peak_altitude_m":0.0,"u_ms":5.986059050064185,"v_ms":-1.8991720154043648}},{"type":"Feature","geometry":{"type":"Point","coordinates":[-80.2183,40.5317]},"properties":{"site":"KPBZ","name":"Pittsburgh PA","scan_time":"2026-09-14T02:59:44Z","stale":false,"bins":25,"density_birds_km3":67.04285714285714,"heading_deg":151.46273089859582,"speed_ms":10.174362561261452,"peak_altitude_m":400.0,"u_ms":4.271953654378862,"v_ms":-7.761209673982528}},{"type":"Feature","geometry":{"type":"Point","coordinates":[-78.4899,35.6655]},"properties":{"site":"KRAX","name":"Raleigh NC","scan_time":"2026-09-14T03:04:05Z","stale":false,"bins":25,"density_birds_km3":33.774375,"heading_deg":151.79703876370138,"speed_ms":8.709739182089884,"peak_altitude_m":1600.0,"u_ms":2.61387996807069,"v_ms":-6.6039984035345}},{"type":"Feature","geometry":{"type":"Point","coordinates":[-82.4017,27.7055]},"properties":{"site":"KTBW","name":"Tampa FL","scan_time":"2026-09-14T03:01:34Z","stale":false,"bins":25,"density_birds_km3":16.335,"heading_deg":160.44320046697953,"speed_ms":5.578575910621365,"peak_altitude_m":0.0,"u_ms":-0.13379820936639117,"v_ms":-4.129787649219467}}]}