{"type":"FeatureCollection","frame":"2026-08-15T01","site_count":20,"fresh_count":20,"failures":{},"features":[{"type":"Feature","geometry":{"type":"Point","coordinates":[-77.0073,36.984]},"properties":{"site":"KAKQ","name":"Wakefield VA","scan_time":"2026-08-15T00:58:58Z","stale":false,"bins":25,"density_birds_km3":8.619375,"heading_deg":70.7,"speed_ms":2.08,"peak_altitude_m":200.0,"u_ms":1.96,"v_ms":0.69}},{"type":"Feature","geometry":{"type":"Point","coordinates":[-71.1369,41.9558]},"properties":{"site":"KBOX","name":"Boston MA","scan_time":"2026-08-15T00:58:38Z","stale":false,"bins":25,"density_birds_km3":2.52,"heading_deg":154.22012946841738,"speed_ms":5.503044783587691,"peak_altitude_m":0.0,"u_ms":1.4248011008256192,"v_ms":-3.813289967475607}},{"type":"Feature","geometry":{"type":"Point","coordinates":[-78.7369,42.9489]},"properties":{"site":"KBUF","name":"Buffalo NY","scan_time":"2026-08-15T00:58:14Z","stale":false,"bins":25,"density_birds_km3":7.078,"heading_deg":229.2448418733587,"speed_ms":6.343027220495432,"peak_altitude_m":200.0,"u_ms":-4.769425449750401,"v_ms":-4.087601017236508}},{"type":"Feature","geometry":{"type":"Point","coordinates":[-81.8597,41.4131]},"properties":{"site":"KCLE","name":"Cleveland OH","scan_time":"2026-08-15T01:02:07Z","stale":false,"bins":25,"density_birds_km3":10.487333333333334,"heading_deg":246.11801518481053,"speed_ms":7.431322865679233,"peak_altitude_m":200.0,"u_ms":-6.784707901595576,"v_ms":-3.0185252050092175}},{"type":"Feature","geometry":{"type":"Point","coordinates":[-81.0423,32.6555]},"properties":{"site":"KCLX","name":"Charleston SC","scan_time":"2026-08-15T01:00:06Z","stale":false,"bins":25,"density_birds_km3":2.18125,"heading_deg":356.09866145215545,"speed_ms":7.311080572289157,"peak_altitude_m":0.0,"u_ms":-0.5029367469879518,"v_ms":7.185670180722892}},{"type":"Feature","geometry":{"type":"Point","coordinates":[-74.4108,39.947]},"properties":{"site":"KDIX","name":"Philadelphia PA","scan_time":"2026-08-15T01:01:33Z","stale":false,"bins":25,"density_birds_km3":7.665384615384616,"heading_deg":22.877152125679235,"speed_ms":4.663898991998337,"peak_altitude_m":200.0,"u_ms":-0.38089577054972457,"v_ms":-1.0259908552426475}},{"type":"Feature","geometry":{"type":"Point","coordinates":[-84.5658,33.3636]},"properties":{"site":"KFFC","name":"Atlanta GA","scan_time":"2026-08-15T01:02:06Z","stale":false,"bins":25,"density_birds_km3":5.172666666666667,"heading_deg":130.32793871763081,"speed_ms":4.520404691326202,"peak_altitude_m":200.0,"u_ms":2.859224126820467,"v_ms":-2.96195257120763}},{"type":"Feature","geometry":{"type":"Point","coordinates":[-85.5449,42.8939]},"properties":{"site":"KGRR","name":"Grand Rapids MI","scan_time":"2026-08-15T01:01:09Z","stale":false,"bins":25,"density_birds_km3":2.994666666666667,"heading_deg":256.02358803963523,"speed_ms":4.9218944790739085,"peak_altitude_m":200.0,"u_ms":-4.773501780943899,"v_ms":-1.1477649154051648}},{"type":"Feature","geometry":{"type":"Point","coordinates":[-83.8217,39.4203]},"properties":{"site":"KILN","name":"Wilmington OH","scan_time":"2026-08-15T01:00:06Z","stale":false,"bins":25,"density_birds_km3":23.284,"heading_deg":135.3004978721056,"speed_ms":2.630672908971165,"peak_altitude_m":200.0,"u_ms":1.78961028548521,"v_ms":-1.8389516937261978}},{"type":"Feature","geometry":{"type":"Point","coordinates":[-81.7019,30.4846]},"properties":{"site":"KJAX","name":"Jacksonville FL","scan_time":"2026-08-15T00:58:56Z","stale":false,"bins":25,"density_birds_km3":13.751875,"heading_deg":52.51224633834912,"speed_ms":4.500150299206755,"peak_altitude_m":0.0,"u_ms":3.2248304495059608,"v_ms":2.542912742960523}},{"type":"Feature","geometry":{"type":"Point","coordinates":[-88.0847,41.6045]},"properties":{"site":"KLOT","name":"Chicago IL","scan_time":"2026-08-15T00:58:56Z","stale":false,"bins":25,"density_birds_km3":1.7453333333333334,"heading_deg":257.4883764640964,"speed_ms":5.2253772500957485,"peak_altitude_m":200.0,"u_ms":-5.073358866334738,"v_ms":-1.1437418613558024}},{"type":"Feature","geometry":{"type":"Point","coordinates":[-78.4292,33.9892]},"properties":{"site":"KLTX","name":"Wilmington NC","scan_time":"2026-08-15T01:01:29Z","stale":false,"bins":25,"density_birds_km3":3.3356250000000003,"heading_deg":28.703054144145167,"speed_ms":7.815810506566604,"peak_altitude_m":0.0,"u_ms":3.689574108818011,"v_ms":6.687863039399624}},{"type":"Feature","geometry":{"type":"Point","coordinates":[-77.4778,38.9753]},"properties":{"site":"KLWX","name":"Sterling VA","scan_time":"2026-08-15T01:01:21Z","stale":false,"bins":25,"density_birds_km3":22.42214285714286,"heading_deg":216.94569395573902,"speed_ms":4.193945702864757,"peak_altitude_m":0.0,"u_ms":-2.7523927381745503,"v_ms":-3.0279520319786806}},{"type":"Feature","geometry":{"type":"Point","coordinates":[-76.8762,34.7759]},"properties":{"site":"KMHX","name":"Morehead City NC","scan_time":"2026-08-15T00:58:09Z","stale":false,"bins":25,"density_birds_km3":2.88375,"heading_deg":43.35310935480199,"speed_ms":9.372415143603133,"peak_altitude_m":0.0,"u_ms":6.132691470844212,"v_ms":6.716392515230636}},{"type":"Feature","geometry":{"type":"Point","coordinates":[-80.6542,28.1133]},"properties":{"site":"KMLB","name":"Melbourne FL","scan_time":"2026-08-15T01:01:02Z","stale":false,"bins":25,"density_birds_km3":16.459374999999998,"heading_deg":182.13217100510275,"speed_ms":3.100652512438756,"peak_altitude_m":0.0,"u_ms":-0.10019712104523532,"v_ms":-2.8601488852596}},{"type":"Feature","geometry":{"type":"Point","coordinates":[-86.5625,36.2472]},"properties":{"site":"KOHX","name":"Nashville TN","scan_time":"2026-08-15T00:56:08Z","stale":false,"bins":25,"density_birds_km3":10.173333333333334,"heading_deg":65.33034104848495,"speed_ms":5.814696900190051,"peak_altitude_m":200.0,"u_ms":5.276790091093781,"v_ms":2.433880332918277}},{"type":"Feature","geometry":{"type":"Point","coordinates":[-72.8639,40.8655]},"properties":{"site":"KOKX","name":"Upton NY","scan_time":"2026-08-15T01:01:30Z","stale":false,"bins":25,"density_birds_km3":8.70125,"heading_deg":230.01379871054402,"speed_ms":4.310320005858231,"peak_altitude_m":0.0,"u_ms":-2.3970035149384885,"v_ms":-2.4970408611599297}},{"type":"Feature","geometry":{"type":"Point","coordinates":[-80.2183,40.5317]},"properties":{"site":"KPBZ","name":"Pittsburgh PA","scan_time":"2026-08-15T00:59:34Z","stale":false,"bins":25,"density_birds_km3":7.244999999999999,"heading_deg":216.7941189426324,"speed_ms":6.560340047865975,"peak_altitude_m":800.0,"u_ms":-4.464679896290387,"v_ms":-4.605946350219385}},{"type":"Feature","geometry":{"type":"Point","coordinates":[-78.4899,35.6655]},"properties":{"site":"KRAX","name":"Raleigh NC","scan_time":"2026-08-15T01:00:31Z","stale":false,"bins":25,"density_birds_km3":9.306875,"heading_deg":143.69079705435743,"speed_ms":4.137206617150574,"peak_altitude_m":0.0,"u_ms":2.438890614449696,"v_ms":-3.3051323430114787}},{"type":"Feature","geometry":{"type":"Point","coordinates":[-82.4017,27.7055]},"properties":{"site":"KTBW","name":"Tampa FL","scan_time":"2026-08-15T01:02:12Z","stale":false,"bins":25,"density_birds_km3":14.9225,"heading_deg":214.53358366802686,"speed_ms":3.975128162171218,"peak_altitude_m":0.0,"u_ms":-2.175350980063662,"v_ms":-3.253900150779025}}]}