{"type":"FeatureCollection","frame":"2026-09-28T08","site_count":20,"fresh_count":20,"failures":{},"features":[{"type":"Feature","geometry":{"type":"Point","coordinates":[-77.0073,36.984]},"properties":{"site":"KAKQ","name":"Wakefield VA","scan_time":"2026-09-28T07:58:29Z","stale":false,"bins":25,"density_birds_km3":4.01125,"heading_deg":157.87231965718277,"speed_ms":7.806997816593887,"peak_altitude_m":200.0,"u_ms":2.272659076731129,"v_ms":-7.067014971927636}},{"type":"Feature","geometry":{"type":"Point","coordinates":[-71.1369,41.9558]},"properties":{"site":"KBOX","name":"Boston MA","scan_time":"2026-09-28T08:00:46Z","stale":false,"bins":25,"density_birds_km3":0.01,"heading_deg":309.52206328092024,"speed_ms":4.958333333333333,"peak_altitude_m":1200.0,"u_ms":-3.8116666666666665,"v_ms":2.93}},{"type":"Feature","geometry":{"type":"Point","coordinates":[-78.7369,42.9489]},"properties":{"site":"KBUF","name":"Buffalo NY","scan_time":"2026-09-28T08:02:31Z","stale":false,"bins":25,"density_birds_km3":0.306,"heading_deg":191.5988983517145,"speed_ms":4.559976580796253,"peak_altitude_m":200.0,"u_ms":-0.9459250585480093,"v_ms":-4.28103044496487}},{"type":"Feature","geometry":{"type":"Point","coordinates":[-81.8597,41.4131]},"properties":{"site":"KCLE","name":"Cleveland OH","scan_time":"2026-09-28T08:02:48Z","stale":false,"bins":25,"density_birds_km3":14.952666666666666,"heading_deg":166.31193915933537,"speed_ms":10.819419792177676,"peak_altitude_m":200.0,"u_ms":2.61216340364804,"v_ms":-10.358698657628327}},{"type":"Feature","geometry":{"type":"Point","coordinates":[-81.0423,32.6555]},"properties":{"site":"KCLX","name":"Charleston SC","scan_time":"2026-09-28T07:55:53Z","stale":false,"bins":25,"density_birds_km3":38.211875,"heading_deg":205.08928867291795,"speed_ms":7.380394347306957,"peak_altitude_m":0.0,"u_ms":-3.35119547261159,"v_ms":-6.121363123374606}},{"type":"Feature","geometry":{"type":"Point","coordinates":[-74.4108,39.947]},"properties":{"site":"KDIX","name":"Philadelphia PA","scan_time":"2026-09-28T08:01:03Z","stale":false,"bins":25,"density_birds_km3":0.10285714285714286,"heading_deg":null,"speed_ms":null,"peak_altitude_m":200.0,"u_ms":null,"v_ms":null}},{"type":"Feature","geometry":{"type":"Point","coordinates":[-84.5658,33.3636]},"properties":{"site":"KFFC","name":"Atlanta GA","scan_time":"2026-09-28T08:03:22Z","stale":false,"bins":25,"density_birds_km3":54.126666666666665,"heading_deg":197.12708065671976,"speed_ms":13.038677915999507,"peak_altitude_m":400.0,"u_ms":-3.663725458800345,"v_ms":-11.815474812168986}},{"type":"Feature","geometry":{"type":"Point","coordinates":[-85.5449,42.8939]},"properties":{"site":"KGRR","name":"Grand Rapids MI","scan_time":"2026-09-28T07:55:50Z","stale":false,"bins":25,"density_birds_km3":33.891333333333336,"heading_deg":189.65380352433044,"speed_ms":9.221110236840037,"peak_altitude_m":200.0,"u_ms":-0.7661629553859469,"v_ms":-8.822353843732788}},{"type":"Feature","geometry":{"type":"Point","coordinates":[-83.8217,39.4203]},"properties":{"site":"KILN","name":"Wilmington OH","scan_time":"2026-09-28T07:57:24Z","stale":false,"bins":25,"density_birds_km3":62.14066666666667,"heading_deg":166.11214721691073,"speed_ms":12.490725458641776,"peak_altitude_m":200.0,"u_ms":2.893737581804527,"v_ms":-12.006628151485891}},{"type":"Feature","geometry":{"type":"Point","coordinates":[-81.7019,30.4846]},"properties":{"site":"KJAX","name":"Jacksonville FL","scan_time":"2026-09-28T07:57:48Z","stale":false,"bins":25,"density_birds_km3":61.0675,"heading_deg":122.13412565450702,"speed_ms":5.72921377983379,"peak_altitude_m":0.0,"u_ms":2.9678129733491625,"v_ms":-3.557611556883776}},{"type":"Feature","geometry":{"type":"Point","coordinates":[-88.0847,41.6045]},"properties":{"site":"KLOT","name":"Chicago IL","scan_time":"2026-09-28T07:59:05Z","stale":false,"bins":25,"density_birds_km3":85.60733333333333,"heading_deg":175.60293361085633,"speed_ms":11.5511642304787,"peak_altitude_m":200.0,"u_ms":0.8906874800445446,"v_ms":-11.484949731720803}},{"type":"Feature","geometry":{"type":"Point","coordinates":[-78.4292,33.9892]},"properties":{"site":"KLTX","name":"Wilmington NC","scan_time":"2026-09-28T07:57:54Z","stale":false,"bins":25,"density_birds_km3":21.385625,"heading_deg":217.2797164936216,"speed_ms":6.556997691206125,"peak_altitude_m":0.0,"u_ms":-3.2384671362188384,"v_ms":-4.847326767396323}},{"type":"Feature","geometry":{"type":"Point","coordinates":[-77.4778,38.9753]},"properties":{"site":"KLWX","name":"Sterling VA","scan_time":"2026-09-28T07:55:01Z","stale":false,"bins":25,"density_birds_km3":4.737,"heading_deg":171.53591427832623,"speed_ms":11.21742724697399,"peak_altitude_m":200.0,"u_ms":0.2991836209116664,"v_ms":-7.870939994849344}},{"type":"Feature","geometry":{"type":"Point","coordinates":[-76.8762,34.7759]},"properties":{"site":"KMHX","name":"Morehead City NC","scan_time":"2026-09-28T07:58:46Z","stale":false,"bins":25,"density_birds_km3":11.43,"heading_deg":229.02800727050973,"speed_ms":7.668730514685775,"peak_altitude_m":0.0,"u_ms":-4.7935027074331344,"v_ms":-3.966546518623858}},{"type":"Feature","geometry":{"type":"Point","coordinates":[-80.6542,28.1133]},"properties":{"site":"KMLB","name":"Melbourne FL","scan_time":"2026-09-28T07:58:49Z","stale":false,"bins":25,"density_birds_km3":10.948125,"heading_deg":87.37702246578439,"speed_ms":3.7639944038373687,"peak_altitude_m":0.0,"u_ms":1.6430481955230698,"v_ms":-1.7756327089995427}},{"type":"Feature","geometry":{"type":"Point","coordinates":[-86.5625,36.2472]},"properties":{"site":"KOHX","name":"Nashville TN","scan_time":"2026-09-28T07:58:07Z","stale":false,"bins":25,"density_birds_km3":103.67,"heading_deg":179.7932647226244,"speed_ms":9.860828140574258,"peak_altitude_m":200.0,"u_ms":-0.024563454551300552,"v_ms":-9.657474036204624}},{"type":"Feature","geometry":{"type":"Point","coordinates":[-72.8639,40.8655]},"properties":{"site":"KOKX","name":"Upton NY","scan_time":"2026-09-28T07:59:25Z","stale":false,"bins":25,"density_birds_km3":null,"heading_deg":null,"speed_ms":null,"peak_altitude_m":null,"u_ms":null,"v_ms":null}},{"type":"Feature","geometry":{"type":"Point","coordinates":[-80.2183,40.5317]},"properties":{"site":"KPBZ","name":"Pittsburgh PA","scan_time":"2026-09-28T08:02:29Z","stale":false,"bins":25,"density_birds_km3":7.8185714285714285,"heading_deg":164.065255700289,"speed_ms":10.08405427631579,"peak_altitude_m":400.0,"u_ms":2.019290021929825,"v_ms":-9.309308296783627}},{"type":"Feature","geometry":{"type":"Point","coordinates":[-78.4899,35.6655]},"properties":{"site":"KRAX","name":"Raleigh NC","scan_time":"2026-09-28T07:56:08Z","stale":false,"bins":25,"density_birds_km3":11.8275,"heading_deg":214.83200380957123,"speed_ms":5.614844352835474,"peak_altitude_m":200.0,"u_ms":-2.9457021299085673,"v_ms":-4.142835473812166}},{"type":"Feature","geometry":{"type":"Point","coordinates":[-82.4017,27.7055]},"properties":{"site":"KTBW","name":"Tampa FL","scan_time":"2026-09-28T08:01:05Z","stale":false,"bins":25,"density_birds_km3":18.31875,"heading_deg":179.40897776211636,"speed_ms":9.768578300921188,"peak_altitude_m":600.0,"u_ms":0.21943773456158305,"v_ms":-9.737296485841009}}]}