{"type":"FeatureCollection","frame":"2026-10-04T03","site_count":20,"fresh_count":20,"failures":{},"features":[{"type":"Feature","geometry":{"type":"Point","coordinates":[-77.0073,36.984]},"properties":{"site":"KAKQ","name":"Wakefield VA","scan_time":"2026-10-04T03:01:24Z","stale":false,"bins":25,"density_birds_km3":9.76375,"heading_deg":174.81033946761912,"speed_ms":5.528793931246399,"peak_altitude_m":0.0,"u_ms":0.4378727354202676,"v_ms":-5.2601401958901475}},{"type":"Feature","geometry":{"type":"Point","coordinates":[-71.1369,41.9558]},"properties":{"site":"KBOX","name":"Boston MA","scan_time":"2026-10-04T02:59:35Z","stale":false,"bins":25,"density_birds_km3":14.625625,"heading_deg":230.7745560305868,"speed_ms":8.765672994698136,"peak_altitude_m":0.0,"u_ms":-5.898698050282197,"v_ms":-5.750055156490508}},{"type":"Feature","geometry":{"type":"Point","coordinates":[-78.7369,42.9489]},"properties":{"site":"KBUF","name":"Buffalo NY","scan_time":"2026-10-04T03:00:58Z","stale":false,"bins":25,"density_birds_km3":25.252,"heading_deg":256.4096228553529,"speed_ms":10.220833993347062,"peak_altitude_m":200.0,"u_ms":-9.727560325254766,"v_ms":-2.1686271714451664}},{"type":"Feature","geometry":{"type":"Point","coordinates":[-81.8597,41.4131]},"properties":{"site":"KCLE","name":"Cleveland OH","scan_time":"2026-10-04T03:01:06Z","stale":false,"bins":25,"density_birds_km3":20.944000000000003,"heading_deg":251.18773293020865,"speed_ms":8.583911548380934,"peak_altitude_m":400.0,"u_ms":-7.756643423440636,"v_ms":-2.971002961123317}},{"type":"Feature","geometry":{"type":"Point","coordinates":[-81.0423,32.6555]},"properties":{"site":"KCLX","name":"Charleston SC","scan_time":"2026-10-04T03:00:18Z","stale":false,"bins":25,"density_birds_km3":3.24,"heading_deg":345.02115473228156,"speed_ms":3.8983084962260497,"peak_altitude_m":0.0,"u_ms":-0.3197503386878266,"v_ms":3.0885988000774147}},{"type":"Feature","geometry":{"type":"Point","coordinates":[-74.4108,39.947]},"properties":{"site":"KDIX","name":"Philadelphia PA","scan_time":"2026-10-04T03:01:57Z","stale":false,"bins":25,"density_birds_km3":104.72625000000001,"heading_deg":228.30806921275078,"speed_ms":12.8828352846064,"peak_altitude_m":0.0,"u_ms":-9.646318651375871,"v_ms":-8.373275324130908}},{"type":"Feature","geometry":{"type":"Point","coordinates":[-84.5658,33.3636]},"properties":{"site":"KFFC","name":"Atlanta GA","scan_time":"2026-10-04T03:01:04Z","stale":false,"bins":25,"density_birds_km3":70.14666666666668,"heading_deg":209.83399936889268,"speed_ms":4.597566432237217,"peak_altitude_m":200.0,"u_ms":0.08453297852119371,"v_ms":-3.437913419501996}},{"type":"Feature","geometry":{"type":"Point","coordinates":[-85.5449,42.8939]},"properties":{"site":"KGRR","name":"Grand Rapids MI","scan_time":"2026-10-04T02:59:40Z","stale":false,"bins":25,"density_birds_km3":4.1273333333333335,"heading_deg":325.30009521777635,"speed_ms":9.357109387623202,"peak_altitude_m":200.0,"u_ms":-5.215443528841493,"v_ms":7.588216190014542}},{"type":"Feature","geometry":{"type":"Point","coordinates":[-83.8217,39.4203]},"properties":{"site":"KILN","name":"Wilmington OH","scan_time":"2026-10-04T03:02:49Z","stale":false,"bins":25,"density_birds_km3":37.28333333333333,"heading_deg":242.13122055124433,"speed_ms":9.724366562360304,"peak_altitude_m":400.0,"u_ms":-7.431280107286545,"v_ms":-3.933351452838624}},{"type":"Feature","geometry":{"type":"Point","coordinates":[-81.7019,30.4846]},"properties":{"site":"KJAX","name":"Jacksonville FL","scan_time":"2026-10-04T02:57:53Z","stale":false,"bins":25,"density_birds_km3":30.91,"heading_deg":null,"speed_ms":null,"peak_altitude_m":0.0,"u_ms":null,"v_ms":null}},{"type":"Feature","geometry":{"type":"Point","coordinates":[-88.0847,41.6045]},"properties":{"site":"KLOT","name":"Chicago IL","scan_time":"2026-10-04T02:58:13Z","stale":false,"bins":25,"density_birds_km3":3.542,"heading_deg":351.35901676721954,"speed_ms":8.416318960647711,"peak_altitude_m":200.0,"u_ms":-1.2910657126718132,"v_ms":7.891001694596121}},{"type":"Feature","geometry":{"type":"Point","coordinates":[-78.4292,33.9892]},"properties":{"site":"KLTX","name":"Wilmington NC","scan_time":"2026-10-04T02:58:44Z","stale":false,"bins":25,"density_birds_km3":7.12375,"heading_deg":275.58359807141767,"speed_ms":6.9855038691523035,"peak_altitude_m":0.0,"u_ms":-6.8719715089693985,"v_ms":0.5439227928244812}},{"type":"Feature","geometry":{"type":"Point","coordinates":[-77.4778,38.9753]},"properties":{"site":"KLWX","name":"Sterling VA","scan_time":"2026-10-04T02:59:36Z","stale":false,"bins":25,"density_birds_km3":134.51375000000002,"heading_deg":237.12899140910162,"speed_ms":8.2708961444462,"peak_altitude_m":400.0,"u_ms":-6.985602819414372,"v_ms":-3.786851948220906}},{"type":"Feature","geometry":{"type":"Point","coordinates":[-76.8762,34.7759]},"properties":{"site":"KMHX","name":"Morehead City NC","scan_time":"2026-10-04T02:59:09Z","stale":false,"bins":25,"density_birds_km3":19.902142857142856,"heading_deg":260.4166364075826,"speed_ms":6.569460442224344,"peak_altitude_m":0.0,"u_ms":-6.329779989715712,"v_ms":-1.1143190332770148}},{"type":"Feature","geometry":{"type":"Point","coordinates":[-80.6542,28.1133]},"properties":{"site":"KMLB","name":"Melbourne FL","scan_time":"2026-10-04T02:59:59Z","stale":false,"bins":25,"density_birds_km3":1.999375,"heading_deg":293.27400240593414,"speed_ms":5.875918048170159,"peak_altitude_m":0.0,"u_ms":-5.366240225211136,"v_ms":2.3597935564591803}},{"type":"Feature","geometry":{"type":"Point","coordinates":[-86.5625,36.2472]},"properties":{"site":"KOHX","name":"Nashville TN","scan_time":"2026-10-04T02:57:29Z","stale":false,"bins":25,"density_birds_km3":248.12133333333335,"heading_deg":200.07514101929343,"speed_ms":8.027589835080686,"peak_altitude_m":400.0,"u_ms":-2.467937541310434,"v_ms":-6.899564057369781}},{"type":"Feature","geometry":{"type":"Point","coordinates":[-72.8639,40.8655]},"properties":{"site":"KOKX","name":"Upton NY","scan_time":"2026-10-04T03:01:45Z","stale":false,"bins":25,"density_birds_km3":101.229375,"heading_deg":243.79458395037295,"speed_ms":13.589795513900981,"peak_altitude_m":0.0,"u_ms":-12.092259966536394,"v_ms":-5.916048269091853}},{"type":"Feature","geometry":{"type":"Point","coordinates":[-80.2183,40.5317]},"properties":{"site":"KPBZ","name":"Pittsburgh PA","scan_time":"2026-10-04T03:00:52Z","stale":false,"bins":25,"density_birds_km3":50.34285714285714,"heading_deg":252.14480433237668,"speed_ms":7.7721757945516465,"peak_altitude_m":400.0,"u_ms":-7.145048098751419,"v_ms":-2.271618757094211}},{"type":"Feature","geometry":{"type":"Point","coordinates":[-78.4899,35.6655]},"properties":{"site":"KRAX","name":"Raleigh NC","scan_time":"2026-10-04T03:01:24Z","stale":false,"bins":25,"density_birds_km3":44.274375,"heading_deg":217.15649720399966,"speed_ms":7.6256078397882066,"peak_altitude_m":0.0,"u_ms":-4.567430718647253,"v_ms":-6.052267674395434}},{"type":"Feature","geometry":{"type":"Point","coordinates":[-82.4017,27.7055]},"properties":{"site":"KTBW","name":"Tampa FL","scan_time":"2026-10-04T03:00:48Z","stale":false,"bins":25,"density_birds_km3":9.721250000000001,"heading_deg":286.3770435875752,"speed_ms":6.686534653465346,"peak_altitude_m":0.0,"u_ms":-6.134899061334704,"v_ms":2.121871544297287}}]}