{"type":"FeatureCollection","frame":"2026-09-20T05","site_count":20,"fresh_count":20,"failures":{},"features":[{"type":"Feature","geometry":{"type":"Point","coordinates":[-77.0073,36.984]},"properties":{"site":"KAKQ","name":"Wakefield VA","scan_time":"2026-09-20T05:03:54Z","stale":false,"bins":25,"density_birds_km3":11.215625,"heading_deg":238.3198622857605,"speed_ms":6.393178722929226,"peak_altitude_m":0.0,"u_ms":-4.96075463273052,"v_ms":-3.0602238222817593}},{"type":"Feature","geometry":{"type":"Point","coordinates":[-71.1369,41.9558]},"properties":{"site":"KBOX","name":"Boston MA","scan_time":"2026-09-20T05:02:43Z","stale":false,"bins":25,"density_birds_km3":1.993125,"heading_deg":334.66265838672473,"speed_ms":4.164722483537159,"peak_altitude_m":200.0,"u_ms":-1.6645876450297898,"v_ms":3.756161806208843}},{"type":"Feature","geometry":{"type":"Point","coordinates":[-78.7369,42.9489]},"properties":{"site":"KBUF","name":"Buffalo NY","scan_time":"2026-09-20T05:00:59Z","stale":false,"bins":25,"density_birds_km3":3.1673333333333336,"heading_deg":311.1923215697363,"speed_ms":2.7404378025678806,"peak_altitude_m":200.0,"u_ms":-1.5327404756893284,"v_ms":1.3023237213218268}},{"type":"Feature","geometry":{"type":"Point","coordinates":[-81.8597,41.4131]},"properties":{"site":"KCLE","name":"Cleveland OH","scan_time":"2026-09-20T05:00:40Z","stale":false,"bins":25,"density_birds_km3":17.048666666666666,"heading_deg":285.3575000889826,"speed_ms":5.927545952287838,"peak_altitude_m":400.0,"u_ms":-2.9917004301916315,"v_ms":0.08550215095815406}},{"type":"Feature","geometry":{"type":"Point","coordinates":[-81.0423,32.6555]},"properties":{"site":"KCLX","name":"Charleston SC","scan_time":"2026-09-20T05:01:47Z","stale":false,"bins":25,"density_birds_km3":33.50125,"heading_deg":202.4315439018038,"speed_ms":8.715322658715559,"peak_altitude_m":0.0,"u_ms":-2.966869639296017,"v_ms":-7.8355342794633005}},{"type":"Feature","geometry":{"type":"Point","coordinates":[-74.4108,39.947]},"properties":{"site":"KDIX","name":"Philadelphia PA","scan_time":"2026-09-20T05:02:00Z","stale":false,"bins":25,"density_birds_km3":1.10875,"heading_deg":303.9373056346942,"speed_ms":7.6652348613469155,"peak_altitude_m":200.0,"u_ms":-6.04921335597057,"v_ms":4.190220713073005}},{"type":"Feature","geometry":{"type":"Point","coordinates":[-84.5658,33.3636]},"properties":{"site":"KFFC","name":"Atlanta GA","scan_time":"2026-09-20T05:02:30Z","stale":false,"bins":25,"density_birds_km3":82.35333333333332,"heading_deg":217.62487787360755,"speed_ms":7.445871753977017,"peak_altitude_m":400.0,"u_ms":-3.9235717498875387,"v_ms":-5.15493657219973}},{"type":"Feature","geometry":{"type":"Point","coordinates":[-85.5449,42.8939]},"properties":{"site":"KGRR","name":"Grand Rapids MI","scan_time":"2026-09-20T04:59:17Z","stale":false,"bins":25,"density_birds_km3":0.9433333333333334,"heading_deg":292.3347568751785,"speed_ms":3.3854075124025513,"peak_altitude_m":400.0,"u_ms":-2.4441389085754786,"v_ms":0.9620340184266476}},{"type":"Feature","geometry":{"type":"Point","coordinates":[-83.8217,39.4203]},"properties":{"site":"KILN","name":"Wilmington OH","scan_time":"2026-09-20T05:00:02Z","stale":false,"bins":25,"density_birds_km3":20.57,"heading_deg":null,"speed_ms":null,"peak_altitude_m":1200.0,"u_ms":null,"v_ms":null}},{"type":"Feature","geometry":{"type":"Point","coordinates":[-81.7019,30.4846]},"properties":{"site":"KJAX","name":"Jacksonville FL","scan_time":"2026-09-20T04:58:03Z","stale":false,"bins":25,"density_birds_km3":27.035625,"heading_deg":188.6549415251764,"speed_ms":10.371930181481911,"peak_altitude_m":1400.0,"u_ms":-1.6318971217200324,"v_ms":-10.232640619581552}},{"type":"Feature","geometry":{"type":"Point","coordinates":[-88.0847,41.6045]},"properties":{"site":"KLOT","name":"Chicago IL","scan_time":"2026-09-20T05:01:18Z","stale":false,"bins":25,"density_birds_km3":19.854,"heading_deg":323.19471533649147,"speed_ms":3.0040870786516853,"peak_altitude_m":400.0,"u_ms":-2.425414325842697,"v_ms":1.5601825842696628}},{"type":"Feature","geometry":{"type":"Point","coordinates":[-78.4292,33.9892]},"properties":{"site":"KLTX","name":"Wilmington NC","scan_time":"2026-09-20T04:58:11Z","stale":false,"bins":25,"density_birds_km3":32.345,"heading_deg":223.95238605366333,"speed_ms":12.530921950182611,"peak_altitude_m":0.0,"u_ms":-8.56417882471159,"v_ms":-8.915894606659066}},{"type":"Feature","geometry":{"type":"Point","coordinates":[-77.4778,38.9753]},"properties":{"site":"KLWX","name":"Sterling VA","scan_time":"2026-09-20T04:58:08Z","stale":false,"bins":25,"density_birds_km3":12.53125,"heading_deg":346.20395169860336,"speed_ms":8.22049865297616,"peak_altitude_m":200.0,"u_ms":-0.8038077568240735,"v_ms":7.683833172368221}},{"type":"Feature","geometry":{"type":"Point","coordinates":[-76.8762,34.7759]},"properties":{"site":"KMHX","name":"Morehead City NC","scan_time":"2026-09-20T04:59:42Z","stale":false,"bins":25,"density_birds_km3":12.516874999999999,"heading_deg":213.11850741794072,"speed_ms":10.575159324742783,"peak_altitude_m":0.0,"u_ms":-5.50616821496354,"v_ms":-8.715967435820597}},{"type":"Feature","geometry":{"type":"Point","coordinates":[-80.6542,28.1133]},"properties":{"site":"KMLB","name":"Melbourne FL","scan_time":"2026-09-20T05:01:11Z","stale":false,"bins":25,"density_birds_km3":3.1125,"heading_deg":196.14073407900602,"speed_ms":4.762377510040161,"peak_altitude_m":0.0,"u_ms":-1.167401606425703,"v_ms":-4.519538152610442}},{"type":"Feature","geometry":{"type":"Point","coordinates":[-86.5625,36.2472]},"properties":{"site":"KOHX","name":"Nashville TN","scan_time":"2026-09-20T05:01:26Z","stale":false,"bins":25,"density_birds_km3":46.0,"heading_deg":39.88770367206641,"speed_ms":6.313193913043478,"peak_altitude_m":200.0,"u_ms":2.2726365217391304,"v_ms":4.169820289855072}},{"type":"Feature","geometry":{"type":"Point","coordinates":[-72.8639,40.8655]},"properties":{"site":"KOKX","name":"Upton NY","scan_time":"2026-09-20T04:55:55Z","stale":false,"bins":25,"density_birds_km3":1.00375,"heading_deg":289.68463166368673,"speed_ms":6.748872180451128,"peak_altitude_m":0.0,"u_ms":-6.31451754385965,"v_ms":2.300244360902256}},{"type":"Feature","geometry":{"type":"Point","coordinates":[-80.2183,40.5317]},"properties":{"site":"KPBZ","name":"Pittsburgh PA","scan_time":"2026-09-20T05:00:01Z","stale":false,"bins":25,"density_birds_km3":15.36357142857143,"heading_deg":14.071173756586441,"speed_ms":8.323290250592775,"peak_altitude_m":400.0,"u_ms":3.8745748291412903,"v_ms":3.4493928123111255}},{"type":"Feature","geometry":{"type":"Point","coordinates":[-78.4899,35.6655]},"properties":{"site":"KRAX","name":"Raleigh NC","scan_time":"2026-09-20T05:01:50Z","stale":false,"bins":25,"density_birds_km3":34.445625,"heading_deg":232.790899834887,"speed_ms":6.6222865748552975,"peak_altitude_m":0.0,"u_ms":-4.531297878903344,"v_ms":-3.7332188412897143}},{"type":"Feature","geometry":{"type":"Point","coordinates":[-82.4017,27.7055]},"properties":{"site":"KTBW","name":"Tampa FL","scan_time":"2026-09-20T05:01:06Z","stale":false,"bins":25,"density_birds_km3":15.745625,"heading_deg":207.5178974176278,"speed_ms":7.091979596697365,"peak_altitude_m":0.0,"u_ms":-3.0904660209590347,"v_ms":-5.950088917116545}}]}