{"type":"FeatureCollection","frame":"2026-09-18T12","site_count":20,"fresh_count":20,"failures":{},"features":[{"type":"Feature","geometry":{"type":"Point","coordinates":[-77.0073,36.984]},"properties":{"site":"KAKQ","name":"Wakefield VA","scan_time":"2026-09-18T12:01:07Z","stale":false,"bins":25,"density_birds_km3":0.31124999999999997,"heading_deg":185.08775770167517,"speed_ms":8.297068273092371,"peak_altitude_m":0.0,"u_ms":-1.2187349397590361,"v_ms":-8.070923694779117}},{"type":"Feature","geometry":{"type":"Point","coordinates":[-71.1369,41.9558]},"properties":{"site":"KBOX","name":"Boston MA","scan_time":"2026-09-18T12:02:26Z","stale":false,"bins":25,"density_birds_km3":4.391875,"heading_deg":181.89973174545028,"speed_ms":6.295539915543936,"peak_altitude_m":600.0,"u_ms":0.20800522823245526,"v_ms":-6.19815202091293}},{"type":"Feature","geometry":{"type":"Point","coordinates":[-78.7369,42.9489]},"properties":{"site":"KBUF","name":"Buffalo NY","scan_time":"2026-09-18T11:58:27Z","stale":false,"bins":25,"density_birds_km3":1.7286666666666666,"heading_deg":188.9844752124189,"speed_ms":6.423117283950618,"peak_altitude_m":200.0,"u_ms":-1.3960686728395062,"v_ms":-6.092083333333334}},{"type":"Feature","geometry":{"type":"Point","coordinates":[-81.8597,41.4131]},"properties":{"site":"KCLE","name":"Cleveland OH","scan_time":"2026-09-18T11:57:40Z","stale":false,"bins":25,"density_birds_km3":6.930666666666666,"heading_deg":218.08929161607992,"speed_ms":9.24649923017706,"peak_altitude_m":200.0,"u_ms":-5.656219207082371,"v_ms":-7.284733448806774}},{"type":"Feature","geometry":{"type":"Point","coordinates":[-81.0423,32.6555]},"properties":{"site":"KCLX","name":"Charleston SC","scan_time":"2026-09-18T11:59:40Z","stale":false,"bins":25,"density_birds_km3":2.06,"heading_deg":153.41408687828078,"speed_ms":5.200761529126214,"peak_altitude_m":0.0,"u_ms":1.9215807038834951,"v_ms":-4.200791868932039}},{"type":"Feature","geometry":{"type":"Point","coordinates":[-74.4108,39.947]},"properties":{"site":"KDIX","name":"Philadelphia PA","scan_time":"2026-09-18T11:59:53Z","stale":false,"bins":25,"density_birds_km3":5.79125,"heading_deg":195.57273864969628,"speed_ms":12.584585581696526,"peak_altitude_m":600.0,"u_ms":-3.44902870710123,"v_ms":-12.076028491258366}},{"type":"Feature","geometry":{"type":"Point","coordinates":[-84.5658,33.3636]},"properties":{"site":"KFFC","name":"Atlanta GA","scan_time":"2026-09-18T11:59:34Z","stale":false,"bins":25,"density_birds_km3":7.140666666666666,"heading_deg":182.5100501037161,"speed_ms":5.448190645131174,"peak_altitude_m":200.0,"u_ms":-0.37712258425917283,"v_ms":-5.093326486789282}},{"type":"Feature","geometry":{"type":"Point","coordinates":[-85.5449,42.8939]},"properties":{"site":"KGRR","name":"Grand Rapids MI","scan_time":"2026-09-18T12:02:30Z","stale":false,"bins":25,"density_birds_km3":3.932,"heading_deg":258.33005163141536,"speed_ms":6.222389350517212,"peak_altitude_m":200.0,"u_ms":-5.777829404782092,"v_ms":-1.7456893335594372}},{"type":"Feature","geometry":{"type":"Point","coordinates":[-83.8217,39.4203]},"properties":{"site":"KILN","name":"Wilmington OH","scan_time":"2026-09-18T12:01:20Z","stale":false,"bins":25,"density_birds_km3":0.9086666666666667,"heading_deg":210.55775341804227,"speed_ms":5.141460014673514,"peak_altitude_m":200.0,"u_ms":-2.430887747615554,"v_ms":-4.22487894350697}},{"type":"Feature","geometry":{"type":"Point","coordinates":[-81.7019,30.4846]},"properties":{"site":"KJAX","name":"Jacksonville FL","scan_time":"2026-09-18T11:58:01Z","stale":false,"bins":25,"density_birds_km3":5.101249999999999,"heading_deg":187.5478727773029,"speed_ms":9.442394261686866,"peak_altitude_m":0.0,"u_ms":-1.2396710363591392,"v_ms":-9.322651496413553}},{"type":"Feature","geometry":{"type":"Point","coordinates":[-88.0847,41.6045]},"properties":{"site":"KLOT","name":"Chicago IL","scan_time":"2026-09-18T12:02:57Z","stale":false,"bins":25,"density_birds_km3":6.118666666666667,"heading_deg":235.79134321537487,"speed_ms":13.158980349344978,"peak_altitude_m":400.0,"u_ms":-10.50815502183406,"v_ms":-7.09732096069869}},{"type":"Feature","geometry":{"type":"Point","coordinates":[-78.4292,33.9892]},"properties":{"site":"KLTX","name":"Wilmington NC","scan_time":"2026-09-18T12:01:10Z","stale":false,"bins":25,"density_birds_km3":1.2706250000000001,"heading_deg":108.38646861008837,"speed_ms":6.302651851851852,"peak_altitude_m":0.0,"u_ms":5.618632098765433,"v_ms":-1.8566320987654321}},{"type":"Feature","geometry":{"type":"Point","coordinates":[-77.4778,38.9753]},"properties":{"site":"KLWX","name":"Sterling VA","scan_time":"2026-09-18T12:00:34Z","stale":false,"bins":25,"density_birds_km3":2.835,"heading_deg":184.42187281216627,"speed_ms":8.310903880070546,"peak_altitude_m":0.0,"u_ms":-0.2900462962962963,"v_ms":-8.196468253968254}},{"type":"Feature","geometry":{"type":"Point","coordinates":[-76.8762,34.7759]},"properties":{"site":"KMHX","name":"Morehead City NC","scan_time":"2026-09-18T12:00:35Z","stale":false,"bins":25,"density_birds_km3":0.6024999999999999,"heading_deg":87.81212016274219,"speed_ms":7.863908523908523,"peak_altitude_m":0.0,"u_ms":7.411767151767152,"v_ms":0.4732536382536382}},{"type":"Feature","geometry":{"type":"Point","coordinates":[-80.6542,28.1133]},"properties":{"site":"KMLB","name":"Melbourne FL","scan_time":"2026-09-18T12:01:52Z","stale":false,"bins":25,"density_birds_km3":0.8049999999999999,"heading_deg":222.98388010208143,"speed_ms":3.4951785714285717,"peak_altitude_m":0.0,"u_ms":-2.3665760869565218,"v_ms":-2.5404347826086955}},{"type":"Feature","geometry":{"type":"Point","coordinates":[-86.5625,36.2472]},"properties":{"site":"KOHX","name":"Nashville TN","scan_time":"2026-09-18T11:59:13Z","stale":false,"bins":25,"density_birds_km3":10.259333333333334,"heading_deg":177.3853782783531,"speed_ms":6.040903892390668,"peak_altitude_m":400.0,"u_ms":0.3937526804860614,"v_ms":-5.925848983039833}},{"type":"Feature","geometry":{"type":"Point","coordinates":[-72.8639,40.8655]},"properties":{"site":"KOKX","name":"Upton NY","scan_time":"2026-09-18T11:58:02Z","stale":false,"bins":25,"density_birds_km3":9.306875,"heading_deg":182.8702111659538,"speed_ms":8.955391537944928,"peak_altitude_m":0.0,"u_ms":-0.9400543989254533,"v_ms":-8.726267293485561}},{"type":"Feature","geometry":{"type":"Point","coordinates":[-80.2183,40.5317]},"properties":{"site":"KPBZ","name":"Pittsburgh PA","scan_time":"2026-09-18T11:58:23Z","stale":false,"bins":25,"density_birds_km3":2.1157142857142857,"heading_deg":176.57453985642093,"speed_ms":5.366066846725186,"peak_altitude_m":600.0,"u_ms":0.369898717083052,"v_ms":-5.323170155300471}},{"type":"Feature","geometry":{"type":"Point","coordinates":[-78.4899,35.6655]},"properties":{"site":"KRAX","name":"Raleigh NC","scan_time":"2026-09-18T11:58:33Z","stale":false,"bins":25,"density_birds_km3":0.545625,"heading_deg":120.57206193715564,"speed_ms":6.071855670103092,"peak_altitude_m":0.0,"u_ms":4.840916380297823,"v_ms":-3.0978350515463915}},{"type":"Feature","geometry":{"type":"Point","coordinates":[-82.4017,27.7055]},"properties":{"site":"KTBW","name":"Tampa FL","scan_time":"2026-09-18T11:58:11Z","stale":false,"bins":25,"density_birds_km3":2.35625,"heading_deg":211.15671288014136,"speed_ms":5.814357467272242,"peak_altitude_m":0.0,"u_ms":-2.9608362276249,"v_ms":-4.946660432807907}}]}