{"type":"FeatureCollection","frame":"2026-09-06T00","site_count":20,"fresh_count":20,"failures":{},"features":[{"type":"Feature","geometry":{"type":"Point","coordinates":[-77.0073,36.984]},"properties":{"site":"KAKQ","name":"Wakefield VA","scan_time":"2026-09-05T23:59:01Z","stale":false,"bins":25,"density_birds_km3":27.17,"heading_deg":200.96197222743993,"speed_ms":6.584286906141367,"peak_altitude_m":0.0,"u_ms":-2.090032444959444,"v_ms":-6.101949942062572}},{"type":"Feature","geometry":{"type":"Point","coordinates":[-71.1369,41.9558]},"properties":{"site":"KBOX","name":"Boston MA","scan_time":"2026-09-05T23:57:50Z","stale":false,"bins":25,"density_birds_km3":10.879375,"heading_deg":229.12184248755693,"speed_ms":9.598887411859902,"peak_altitude_m":400.0,"u_ms":-7.1436989943359155,"v_ms":-6.357842445960005}},{"type":"Feature","geometry":{"type":"Point","coordinates":[-78.7369,42.9489]},"properties":{"site":"KBUF","name":"Buffalo NY","scan_time":"2026-09-06T00:02:25Z","stale":false,"bins":25,"density_birds_km3":3.7273333333333336,"heading_deg":215.5417245880474,"speed_ms":5.638674655696655,"peak_altitude_m":200.0,"u_ms":-3.275109998211411,"v_ms":-4.582418172062242}},{"type":"Feature","geometry":{"type":"Point","coordinates":[-81.8597,41.4131]},"properties":{"site":"KCLE","name":"Cleveland OH","scan_time":"2026-09-06T00:02:05Z","stale":false,"bins":25,"density_birds_km3":3.9193333333333333,"heading_deg":228.43738719608587,"speed_ms":9.014008883953359,"peak_altitude_m":200.0,"u_ms":-6.672287617990005,"v_ms":-6.041204886174347}},{"type":"Feature","geometry":{"type":"Point","coordinates":[-81.0423,32.6555]},"properties":{"site":"KCLX","name":"Charleston SC","scan_time":"2026-09-05T23:57:53Z","stale":false,"bins":25,"density_birds_km3":2.88375,"heading_deg":105.33952978078351,"speed_ms":3.193833768494343,"peak_altitude_m":0.0,"u_ms":0.8474216710182767,"v_ms":-0.9886074847693649}},{"type":"Feature","geometry":{"type":"Point","coordinates":[-74.4108,39.947]},"properties":{"site":"KDIX","name":"Philadelphia PA","scan_time":"2026-09-05T23:56:54Z","stale":false,"bins":25,"density_birds_km3":30.523125,"heading_deg":191.20853270448953,"speed_ms":6.007775138234692,"peak_altitude_m":200.0,"u_ms":-1.0110602088879785,"v_ms":-5.887551505222199}},{"type":"Feature","geometry":{"type":"Point","coordinates":[-84.5658,33.3636]},"properties":{"site":"KFFC","name":"Atlanta GA","scan_time":"2026-09-05T23:59:29Z","stale":false,"bins":25,"density_birds_km3":2.712,"heading_deg":176.4701829859634,"speed_ms":7.128846153846154,"peak_altitude_m":400.0,"u_ms":0.32038461538461543,"v_ms":-6.991538461538462}},{"type":"Feature","geometry":{"type":"Point","coordinates":[-85.5449,42.8939]},"properties":{"site":"KGRR","name":"Grand Rapids MI","scan_time":"2026-09-06T00:00:16Z","stale":false,"bins":25,"density_birds_km3":1.6938461538461538,"heading_deg":234.72662284166572,"speed_ms":7.7560359944623904,"peak_altitude_m":200.0,"u_ms":-6.321735117674204,"v_ms":-4.4876880479926164}},{"type":"Feature","geometry":{"type":"Point","coordinates":[-83.8217,39.4203]},"properties":{"site":"KILN","name":"Wilmington OH","scan_time":"2026-09-06T00:00:28Z","stale":false,"bins":25,"density_birds_km3":0.36333333333333334,"heading_deg":192.61173035507602,"speed_ms":7.576260869565218,"peak_altitude_m":600.0,"u_ms":-1.6121739130434787,"v_ms":-7.22808695652174}},{"type":"Feature","geometry":{"type":"Point","coordinates":[-81.7019,30.4846]},"properties":{"site":"KJAX","name":"Jacksonville FL","scan_time":"2026-09-05T23:58:16Z","stale":false,"bins":25,"density_birds_km3":7.136875,"heading_deg":0.22829773165328585,"speed_ms":4.56253023663453,"peak_altitude_m":0.0,"u_ms":-0.06513935144609995,"v_ms":4.467964943032427}},{"type":"Feature","geometry":{"type":"Point","coordinates":[-88.0847,41.6045]},"properties":{"site":"KLOT","name":"Chicago IL","scan_time":"2026-09-05T23:58:47Z","stale":false,"bins":25,"density_birds_km3":2.2726666666666664,"heading_deg":204.8131564696489,"speed_ms":10.159051565377533,"peak_altitude_m":200.0,"u_ms":-4.216120319214242,"v_ms":-9.198100061387356}},{"type":"Feature","geometry":{"type":"Point","coordinates":[-78.4292,33.9892]},"properties":{"site":"KLTX","name":"Wilmington NC","scan_time":"2026-09-06T00:02:12Z","stale":false,"bins":25,"density_birds_km3":13.729375,"heading_deg":174.12575868143952,"speed_ms":3.630862045235583,"peak_altitude_m":200.0,"u_ms":0.3135358076799559,"v_ms":-3.601513511033629}},{"type":"Feature","geometry":{"type":"Point","coordinates":[-77.4778,38.9753]},"properties":{"site":"KLWX","name":"Sterling VA","scan_time":"2026-09-06T00:00:37Z","stale":false,"bins":25,"density_birds_km3":17.071875,"heading_deg":245.20938852374354,"speed_ms":5.175272234630735,"peak_altitude_m":200.0,"u_ms":-4.6445996118779975,"v_ms":-2.188507927208817}},{"type":"Feature","geometry":{"type":"Point","coordinates":[-76.8762,34.7759]},"properties":{"site":"KMHX","name":"Morehead City NC","scan_time":"2026-09-06T00:00:09Z","stale":false,"bins":25,"density_birds_km3":13.29375,"heading_deg":3.9510276936965685,"speed_ms":3.785563824081523,"peak_altitude_m":0.0,"u_ms":0.23558393671225528,"v_ms":3.77360686511129}},{"type":"Feature","geometry":{"type":"Point","coordinates":[-80.6542,28.1133]},"properties":{"site":"KMLB","name":"Melbourne FL","scan_time":"2026-09-06T00:01:19Z","stale":false,"bins":25,"density_birds_km3":9.036249999999999,"heading_deg":73.5,"speed_ms":4.04,"peak_altitude_m":0.0,"u_ms":3.87,"v_ms":1.15}},{"type":"Feature","geometry":{"type":"Point","coordinates":[-86.5625,36.2472]},"properties":{"site":"KOHX","name":"Nashville TN","scan_time":"2026-09-05T23:57:32Z","stale":false,"bins":25,"density_birds_km3":4.1579999999999995,"heading_deg":175.35642013136518,"speed_ms":4.619362697644402,"peak_altitude_m":200.0,"u_ms":0.4639432074862858,"v_ms":-3.6655985801871576}},{"type":"Feature","geometry":{"type":"Point","coordinates":[-72.8639,40.8655]},"properties":{"site":"KOKX","name":"Upton NY","scan_time":"2026-09-06T00:00:35Z","stale":false,"bins":25,"density_birds_km3":30.985,"heading_deg":248.6564572033704,"speed_ms":8.65490733263345,"peak_altitude_m":200.0,"u_ms":-7.544569167406929,"v_ms":-2.8215626261810547}},{"type":"Feature","geometry":{"type":"Point","coordinates":[-80.2183,40.5317]},"properties":{"site":"KPBZ","name":"Pittsburgh PA","scan_time":"2026-09-06T00:00:15Z","stale":false,"bins":25,"density_birds_km3":2.2607142857142857,"heading_deg":193.76772092057158,"speed_ms":7.916309951060359,"peak_altitude_m":400.0,"u_ms":-1.8857096247960847,"v_ms":-7.643595432300163}},{"type":"Feature","geometry":{"type":"Point","coordinates":[-78.4899,35.6655]},"properties":{"site":"KRAX","name":"Raleigh NC","scan_time":"2026-09-05T23:58:16Z","stale":false,"bins":25,"density_birds_km3":15.190624999999999,"heading_deg":181.20373309661204,"speed_ms":3.348458775442797,"peak_altitude_m":0.0,"u_ms":-0.049613558482308896,"v_ms":-2.643917674745056}},{"type":"Feature","geometry":{"type":"Point","coordinates":[-82.4017,27.7055]},"properties":{"site":"KTBW","name":"Tampa FL","scan_time":"2026-09-05T23:59:33Z","stale":false,"bins":25,"density_birds_km3":3.539375,"heading_deg":116.2894745590923,"speed_ms":7.025410559773971,"peak_altitude_m":0.0,"u_ms":6.297245276355288,"v_ms":-3.1016192830655127}}]}