{"type":"FeatureCollection","frame":"2026-08-24T02","site_count":20,"fresh_count":20,"failures":{},"features":[{"type":"Feature","geometry":{"type":"Point","coordinates":[-77.0073,36.984]},"properties":{"site":"KAKQ","name":"Wakefield VA","scan_time":"2026-08-24T02:00:20Z","stale":false,"bins":25,"density_birds_km3":7.43875,"heading_deg":111.79847276165546,"speed_ms":4.166623245650895,"peak_altitude_m":200.0,"u_ms":3.85493823010337,"v_ms":-1.5026002185057568}},{"type":"Feature","geometry":{"type":"Point","coordinates":[-71.1369,41.9558]},"properties":{"site":"KBOX","name":"Boston MA","scan_time":"2026-08-24T02:00:02Z","stale":false,"bins":25,"density_birds_km3":5.8343750000000005,"heading_deg":342.8520474081463,"speed_ms":6.34695027861123,"peak_altitude_m":0.0,"u_ms":-1.2906804543506214,"v_ms":5.561483069009858}},{"type":"Feature","geometry":{"type":"Point","coordinates":[-78.7369,42.9489]},"properties":{"site":"KBUF","name":"Buffalo NY","scan_time":"2026-08-24T01:57:17Z","stale":false,"bins":25,"density_birds_km3":3.3040000000000003,"heading_deg":105.1312331174493,"speed_ms":9.82973163458932,"peak_altitude_m":400.0,"u_ms":9.441097858498239,"v_ms":-2.6178747628083494}},{"type":"Feature","geometry":{"type":"Point","coordinates":[-81.8597,41.4131]},"properties":{"site":"KCLE","name":"Cleveland OH","scan_time":"2026-08-24T02:01:02Z","stale":false,"bins":25,"density_birds_km3":8.242666666666667,"heading_deg":160.63789060763216,"speed_ms":8.98070074530136,"peak_altitude_m":600.0,"u_ms":3.249693778353856,"v_ms":-8.243069507453013}},{"type":"Feature","geometry":{"type":"Point","coordinates":[-81.0423,32.6555]},"properties":{"site":"KCLX","name":"Charleston SC","scan_time":"2026-08-24T01:58:40Z","stale":false,"bins":25,"density_birds_km3":11.286875,"heading_deg":50.798715707299195,"speed_ms":5.034773810843775,"peak_altitude_m":0.0,"u_ms":0.5109058653952766,"v_ms":0.2987953209890234}},{"type":"Feature","geometry":{"type":"Point","coordinates":[-74.4108,39.947]},"properties":{"site":"KDIX","name":"Philadelphia PA","scan_time":"2026-08-24T01:58:47Z","stale":false,"bins":25,"density_birds_km3":4.716875,"heading_deg":104.73741961972317,"speed_ms":6.8600201180257505,"peak_altitude_m":200.0,"u_ms":6.562471834763948,"v_ms":-1.8400670600858369}},{"type":"Feature","geometry":{"type":"Point","coordinates":[-84.5658,33.3636]},"properties":{"site":"KFFC","name":"Atlanta GA","scan_time":"2026-08-24T02:00:48Z","stale":false,"bins":25,"density_birds_km3":42.26866666666667,"heading_deg":184.4156344520826,"speed_ms":5.423231077393814,"peak_altitude_m":400.0,"u_ms":-0.7510124126618615,"v_ms":-5.23002633944766}},{"type":"Feature","geometry":{"type":"Point","coordinates":[-85.5449,42.8939]},"properties":{"site":"KGRR","name":"Grand Rapids MI","scan_time":"2026-08-24T02:03:35Z","stale":false,"bins":25,"density_birds_km3":12.734666666666667,"heading_deg":173.49367045091304,"speed_ms":13.93222047409272,"peak_altitude_m":600.0,"u_ms":1.631735368156073,"v_ms":-13.822983532620096}},{"type":"Feature","geometry":{"type":"Point","coordinates":[-83.8217,39.4203]},"properties":{"site":"KILN","name":"Wilmington OH","scan_time":"2026-08-24T02:00:37Z","stale":false,"bins":25,"density_birds_km3":21.062666666666665,"heading_deg":151.40867014446053,"speed_ms":10.41136259977195,"peak_altitude_m":600.0,"u_ms":4.958562016977067,"v_ms":-9.0463505637907}},{"type":"Feature","geometry":{"type":"Point","coordinates":[-81.7019,30.4846]},"properties":{"site":"KJAX","name":"Jacksonville FL","scan_time":"2026-08-24T02:02:33Z","stale":false,"bins":25,"density_birds_km3":6.864375,"heading_deg":155.45112634387152,"speed_ms":9.575645368994552,"peak_altitude_m":0.0,"u_ms":0.626639920752848,"v_ms":-6.515128281327389}},{"type":"Feature","geometry":{"type":"Point","coordinates":[-88.0847,41.6045]},"properties":{"site":"KLOT","name":"Chicago IL","scan_time":"2026-08-24T01:58:40Z","stale":false,"bins":25,"density_birds_km3":15.344,"heading_deg":156.50523456183717,"speed_ms":8.881390869565218,"peak_altitude_m":600.0,"u_ms":3.471593043478261,"v_ms":-8.148092173913042}},{"type":"Feature","geometry":{"type":"Point","coordinates":[-78.4292,33.9892]},"properties":{"site":"KLTX","name":"Wilmington NC","scan_time":"2026-08-24T02:01:16Z","stale":false,"bins":25,"density_birds_km3":4.2825,"heading_deg":20.413095104661142,"speed_ms":5.28697480451781,"peak_altitude_m":200.0,"u_ms":0.45708079930495216,"v_ms":0.9204430929626409}},{"type":"Feature","geometry":{"type":"Point","coordinates":[-77.4778,38.9753]},"properties":{"site":"KLWX","name":"Sterling VA","scan_time":"2026-08-24T01:59:02Z","stale":false,"bins":25,"density_birds_km3":14.964375,"heading_deg":131.48028682545404,"speed_ms":6.823692982456141,"peak_altitude_m":400.0,"u_ms":4.899749791144528,"v_ms":-4.366651211361738}},{"type":"Feature","geometry":{"type":"Point","coordinates":[-76.8762,34.7759]},"properties":{"site":"KMHX","name":"Morehead City NC","scan_time":"2026-08-24T01:59:49Z","stale":false,"bins":25,"density_birds_km3":6.000625,"heading_deg":112.62379672081559,"speed_ms":6.616481925200541,"peak_altitude_m":800.0,"u_ms":5.314449421814773,"v_ms":-1.9120918845713095}},{"type":"Feature","geometry":{"type":"Point","coordinates":[-80.6542,28.1133]},"properties":{"site":"KMLB","name":"Melbourne FL","scan_time":"2026-08-24T02:01:05Z","stale":false,"bins":25,"density_birds_km3":5.433125,"heading_deg":289.81987204102825,"speed_ms":2.4555533824206166,"peak_altitude_m":0.0,"u_ms":-1.883950759318914,"v_ms":0.6824746893695353}},{"type":"Feature","geometry":{"type":"Point","coordinates":[-86.5625,36.2472]},"properties":{"site":"KOHX","name":"Nashville TN","scan_time":"2026-08-24T02:01:55Z","stale":false,"bins":25,"density_birds_km3":34.46666666666667,"heading_deg":174.7458177383184,"speed_ms":5.278701160541587,"peak_altitude_m":400.0,"u_ms":0.31044506769825914,"v_ms":-5.160631141199226}},{"type":"Feature","geometry":{"type":"Point","coordinates":[-72.8639,40.8655]},"properties":{"site":"KOKX","name":"Upton NY","scan_time":"2026-08-24T02:00:58Z","stale":false,"bins":25,"density_birds_km3":1.713125,"heading_deg":31.564253181981645,"speed_ms":7.7250693937180435,"peak_altitude_m":0.0,"u_ms":4.075953250547845,"v_ms":6.415226442658875}},{"type":"Feature","geometry":{"type":"Point","coordinates":[-80.2183,40.5317]},"properties":{"site":"KPBZ","name":"Pittsburgh PA","scan_time":"2026-08-24T01:59:08Z","stale":false,"bins":25,"density_birds_km3":4.177142857142857,"heading_deg":97.6956359843344,"speed_ms":8.409675102599179,"peak_altitude_m":400.0,"u_ms":8.299948700410397,"v_ms":-1.0962363201094392}},{"type":"Feature","geometry":{"type":"Point","coordinates":[-78.4899,35.6655]},"properties":{"site":"KRAX","name":"Raleigh NC","scan_time":"2026-08-24T01:59:57Z","stale":false,"bins":25,"density_birds_km3":13.89125,"heading_deg":173.79623787740618,"speed_ms":4.667849878498785,"peak_altitude_m":200.0,"u_ms":0.743770587705877,"v_ms":-3.8225843758437583}},{"type":"Feature","geometry":{"type":"Point","coordinates":[-82.4017,27.7055]},"properties":{"site":"KTBW","name":"Tampa FL","scan_time":"2026-08-24T02:00:46Z","stale":false,"bins":25,"density_birds_km3":6.741875,"heading_deg":36.22511703472993,"speed_ms":2.7031547232780198,"peak_altitude_m":0.0,"u_ms":0.9508575136738667,"v_ms":0.8047056642254565}}]}