{"type":"FeatureCollection","frame":"2026-09-12T05","site_count":20,"fresh_count":20,"failures":{},"features":[{"type":"Feature","geometry":{"type":"Point","coordinates":[-77.0073,36.984]},"properties":{"site":"KAKQ","name":"Wakefield VA","scan_time":"2026-09-12T05:02:13Z","stale":false,"bins":25,"density_birds_km3":37.089999999999996,"heading_deg":230.33070722901323,"speed_ms":9.014079940684821,"peak_altitude_m":0.0,"u_ms":-6.3886780466433,"v_ms":-5.528766850903208}},{"type":"Feature","geometry":{"type":"Point","coordinates":[-71.1369,41.9558]},"properties":{"site":"KBOX","name":"Boston MA","scan_time":"2026-09-12T04:59:29Z","stale":false,"bins":25,"density_birds_km3":7.86375,"heading_deg":204.92144422084843,"speed_ms":7.406626908396946,"peak_altitude_m":200.0,"u_ms":-3.106220578880407,"v_ms":-6.675050095419847}},{"type":"Feature","geometry":{"type":"Point","coordinates":[-78.7369,42.9489]},"properties":{"site":"KBUF","name":"Buffalo NY","scan_time":"2026-09-12T05:01:17Z","stale":false,"bins":25,"density_birds_km3":21.447333333333336,"heading_deg":279.3633850470197,"speed_ms":8.517125983028192,"peak_altitude_m":200.0,"u_ms":-8.13429175344254,"v_ms":1.2078085853719187}},{"type":"Feature","geometry":{"type":"Point","coordinates":[-81.8597,41.4131]},"properties":{"site":"KCLE","name":"Cleveland OH","scan_time":"2026-09-12T05:00:22Z","stale":false,"bins":25,"density_birds_km3":37.721333333333334,"heading_deg":284.08939827288964,"speed_ms":9.210162789875566,"peak_altitude_m":200.0,"u_ms":-8.351766650169685,"v_ms":2.13526619061086}},{"type":"Feature","geometry":{"type":"Point","coordinates":[-81.0423,32.6555]},"properties":{"site":"KCLX","name":"Charleston SC","scan_time":"2026-09-12T05:02:09Z","stale":false,"bins":25,"density_birds_km3":6.096875,"heading_deg":116.62131981650533,"speed_ms":4.165852132895816,"peak_altitude_m":0.0,"u_ms":3.4877686628383926,"v_ms":-0.7369554963084495}},{"type":"Feature","geometry":{"type":"Point","coordinates":[-74.4108,39.947]},"properties":{"site":"KDIX","name":"Philadelphia PA","scan_time":"2026-09-12T04:57:47Z","stale":false,"bins":25,"density_birds_km3":41.98125,"heading_deg":204.22006268551078,"speed_ms":8.532435462259937,"peak_altitude_m":800.0,"u_ms":-3.8982760160786065,"v_ms":-7.110829685871668}},{"type":"Feature","geometry":{"type":"Point","coordinates":[-84.5658,33.3636]},"properties":{"site":"KFFC","name":"Atlanta GA","scan_time":"2026-09-12T05:01:49Z","stale":false,"bins":25,"density_birds_km3":7.338666666666667,"heading_deg":358.8346077559926,"speed_ms":5.259002820489492,"peak_altitude_m":400.0,"u_ms":0.17712583022472933,"v_ms":4.620461286507142}},{"type":"Feature","geometry":{"type":"Point","coordinates":[-85.5449,42.8939]},"properties":{"site":"KGRR","name":"Grand Rapids MI","scan_time":"2026-09-12T05:01:17Z","stale":false,"bins":25,"density_birds_km3":12.087333333333333,"heading_deg":332.81168515243905,"speed_ms":10.68108500193061,"peak_altitude_m":200.0,"u_ms":-4.076332395609245,"v_ms":9.291570412046998}},{"type":"Feature","geometry":{"type":"Point","coordinates":[-83.8217,39.4203]},"properties":{"site":"KILN","name":"Wilmington OH","scan_time":"2026-09-12T05:00:19Z","stale":false,"bins":25,"density_birds_km3":44.21666666666667,"heading_deg":247.42638810320068,"speed_ms":6.433162156049755,"peak_altitude_m":200.0,"u_ms":-2.1291701470033924,"v_ms":-1.3787491895966828}},{"type":"Feature","geometry":{"type":"Point","coordinates":[-81.7019,30.4846]},"properties":{"site":"KJAX","name":"Jacksonville FL","scan_time":"2026-09-12T04:57:53Z","stale":false,"bins":25,"density_birds_km3":32.498125,"heading_deg":176.84465824971042,"speed_ms":8.102398407600438,"peak_altitude_m":0.0,"u_ms":0.3520260784276016,"v_ms":-8.056611150643306}},{"type":"Feature","geometry":{"type":"Point","coordinates":[-88.0847,41.6045]},"properties":{"site":"KLOT","name":"Chicago IL","scan_time":"2026-09-12T05:01:27Z","stale":false,"bins":25,"density_birds_km3":8.286666666666667,"heading_deg":336.1567836967302,"speed_ms":10.637386162510056,"peak_altitude_m":200.0,"u_ms":-3.7072703137570393,"v_ms":8.644368463395013}},{"type":"Feature","geometry":{"type":"Point","coordinates":[-78.4292,33.9892]},"properties":{"site":"KLTX","name":"Wilmington NC","scan_time":"2026-09-12T04:59:53Z","stale":false,"bins":25,"density_birds_km3":6.13875,"heading_deg":146.25707018126042,"speed_ms":4.228314457708397,"peak_altitude_m":0.0,"u_ms":2.155870829507193,"v_ms":-2.28515967758392}},{"type":"Feature","geometry":{"type":"Point","coordinates":[-77.4778,38.9753]},"properties":{"site":"KLWX","name":"Sterling VA","scan_time":"2026-09-12T04:59:30Z","stale":false,"bins":25,"density_birds_km3":58.8775,"heading_deg":238.52039147562243,"speed_ms":7.005935155184175,"peak_altitude_m":200.0,"u_ms":-5.494385018758527,"v_ms":-3.435363233287858}},{"type":"Feature","geometry":{"type":"Point","coordinates":[-76.8762,34.7759]},"properties":{"site":"KMHX","name":"Morehead City NC","scan_time":"2026-09-12T05:01:47Z","stale":false,"bins":25,"density_birds_km3":5.343125,"heading_deg":83.51970641171134,"speed_ms":6.051749356424058,"peak_altitude_m":0.0,"u_ms":5.521061315235198,"v_ms":0.9656646384273345}},{"type":"Feature","geometry":{"type":"Point","coordinates":[-80.6542,28.1133]},"properties":{"site":"KMLB","name":"Melbourne FL","scan_time":"2026-09-12T04:59:48Z","stale":false,"bins":25,"density_birds_km3":4.804375,"heading_deg":305.74994376727176,"speed_ms":3.4057541026308935,"peak_altitude_m":0.0,"u_ms":-1.1524798124511593,"v_ms":2.489524615785361}},{"type":"Feature","geometry":{"type":"Point","coordinates":[-86.5625,36.2472]},"properties":{"site":"KOHX","name":"Nashville TN","scan_time":"2026-09-12T04:58:05Z","stale":false,"bins":25,"density_birds_km3":49.274,"heading_deg":122.22812286312332,"speed_ms":2.5470066839854955,"peak_altitude_m":400.0,"u_ms":1.49915868376901,"v_ms":0.5319108892136168}},{"type":"Feature","geometry":{"type":"Point","coordinates":[-72.8639,40.8655]},"properties":{"site":"KOKX","name":"Upton NY","scan_time":"2026-09-12T04:58:53Z","stale":false,"bins":25,"density_birds_km3":35.931875,"heading_deg":228.06386216411417,"speed_ms":8.33920724900579,"peak_altitude_m":200.0,"u_ms":-6.219440277680876,"v_ms":-5.508770320240005}},{"type":"Feature","geometry":{"type":"Point","coordinates":[-80.2183,40.5317]},"properties":{"site":"KPBZ","name":"Pittsburgh PA","scan_time":"2026-09-12T05:02:06Z","stale":false,"bins":25,"density_birds_km3":94.46357142857143,"heading_deg":258.3831952834066,"speed_ms":7.434662870796756,"peak_altitude_m":400.0,"u_ms":-5.961663301801905,"v_ms":-1.5406390974600943}},{"type":"Feature","geometry":{"type":"Point","coordinates":[-78.4899,35.6655]},"properties":{"site":"KRAX","name":"Raleigh NC","scan_time":"2026-09-12T04:58:38Z","stale":false,"bins":25,"density_birds_km3":33.963125,"heading_deg":157.22658267853862,"speed_ms":3.4813248799160794,"peak_altitude_m":200.0,"u_ms":1.5331542043175002,"v_ms":-2.8318845353994515}},{"type":"Feature","geometry":{"type":"Point","coordinates":[-82.4017,27.7055]},"properties":{"site":"KTBW","name":"Tampa FL","scan_time":"2026-09-12T04:58:30Z","stale":false,"bins":25,"density_birds_km3":3.686875,"heading_deg":313.22390356542076,"speed_ms":4.048990670059372,"peak_altitude_m":0.0,"u_ms":-2.7778608990670057,"v_ms":2.6611043256997458}}]}