{"type":"FeatureCollection","frame":"2026-09-26T05","site_count":20,"fresh_count":20,"failures":{},"features":[{"type":"Feature","geometry":{"type":"Point","coordinates":[-77.0073,36.984]},"properties":{"site":"KAKQ","name":"Wakefield VA","scan_time":"2026-09-26T05:01:23Z","stale":false,"bins":25,"density_birds_km3":19.810624999999998,"heading_deg":179.20922417708846,"speed_ms":19.869700097862804,"peak_altitude_m":400.0,"u_ms":-0.05001578432301032,"v_ms":-19.597422104365943}},{"type":"Feature","geometry":{"type":"Point","coordinates":[-71.1369,41.9558]},"properties":{"site":"KBOX","name":"Boston MA","scan_time":"2026-09-26T04:56:44Z","stale":false,"bins":25,"density_birds_km3":14.867777777777778,"heading_deg":null,"speed_ms":null,"peak_altitude_m":200.0,"u_ms":null,"v_ms":null}},{"type":"Feature","geometry":{"type":"Point","coordinates":[-78.7369,42.9489]},"properties":{"site":"KBUF","name":"Buffalo NY","scan_time":"2026-09-26T04:57:11Z","stale":false,"bins":25,"density_birds_km3":56.74466666666667,"heading_deg":195.76908905221657,"speed_ms":14.374814666870309,"peak_altitude_m":200.0,"u_ms":-4.037912167957048,"v_ms":-13.57859170318503}},{"type":"Feature","geometry":{"type":"Point","coordinates":[-81.8597,41.4131]},"properties":{"site":"KCLE","name":"Cleveland OH","scan_time":"2026-09-26T04:57:47Z","stale":false,"bins":25,"density_birds_km3":42.58266666666667,"heading_deg":198.59259751485695,"speed_ms":12.546573097034786,"peak_altitude_m":200.0,"u_ms":-4.333840529793029,"v_ms":-11.499127187901179}},{"type":"Feature","geometry":{"type":"Point","coordinates":[-81.0423,32.6555]},"properties":{"site":"KCLX","name":"Charleston SC","scan_time":"2026-09-26T05:03:45Z","stale":false,"bins":25,"density_birds_km3":81.879375,"heading_deg":194.46634598814708,"speed_ms":12.179796636564195,"peak_altitude_m":0.0,"u_ms":-3.26089284487431,"v_ms":-11.64643419314946}},{"type":"Feature","geometry":{"type":"Point","coordinates":[-74.4108,39.947]},"properties":{"site":"KDIX","name":"Philadelphia PA","scan_time":"2026-09-26T04:59:26Z","stale":false,"bins":25,"density_birds_km3":18.75,"heading_deg":null,"speed_ms":null,"peak_altitude_m":800.0,"u_ms":null,"v_ms":null}},{"type":"Feature","geometry":{"type":"Point","coordinates":[-84.5658,33.3636]},"properties":{"site":"KFFC","name":"Atlanta GA","scan_time":"2026-09-26T04:59:10Z","stale":false,"bins":25,"density_birds_km3":259.7273333333333,"heading_deg":191.466705078457,"speed_ms":11.977767915583266,"peak_altitude_m":400.0,"u_ms":-2.1867224088852155,"v_ms":-11.647293725984431}},{"type":"Feature","geometry":{"type":"Point","coordinates":[-85.5449,42.8939]},"properties":{"site":"KGRR","name":"Grand Rapids MI","scan_time":"2026-09-26T05:04:03Z","stale":false,"bins":25,"density_birds_km3":66.82666666666667,"heading_deg":198.8682040746311,"speed_ms":10.417102083416964,"peak_altitude_m":200.0,"u_ms":-3.3226258480189474,"v_ms":-9.72646230580868}},{"type":"Feature","geometry":{"type":"Point","coordinates":[-83.8217,39.4203]},"properties":{"site":"KILN","name":"Wilmington OH","scan_time":"2026-09-26T04:59:21Z","stale":false,"bins":25,"density_birds_km3":99.468,"heading_deg":208.33072605738505,"speed_ms":11.900256375874925,"peak_altitude_m":200.0,"u_ms":-5.6187093378744395,"v_ms":-9.899580707447237}},{"type":"Feature","geometry":{"type":"Point","coordinates":[-81.7019,30.4846]},"properties":{"site":"KJAX","name":"Jacksonville FL","scan_time":"2026-09-26T04:57:53Z","stale":false,"bins":25,"density_birds_km3":213.03,"heading_deg":187.63299448677557,"speed_ms":14.2142179505234,"peak_altitude_m":400.0,"u_ms":-1.9594760127681545,"v_ms":-14.053987173168098}},{"type":"Feature","geometry":{"type":"Point","coordinates":[-88.0847,41.6045]},"properties":{"site":"KLOT","name":"Chicago IL","scan_time":"2026-09-26T04:59:19Z","stale":false,"bins":25,"density_birds_km3":27.322666666666667,"heading_deg":206.58650181668386,"speed_ms":9.059435389420262,"peak_altitude_m":200.0,"u_ms":-3.692512199882881,"v_ms":-7.642562951395667}},{"type":"Feature","geometry":{"type":"Point","coordinates":[-78.4292,33.9892]},"properties":{"site":"KLTX","name":"Wilmington NC","scan_time":"2026-09-26T05:00:47Z","stale":false,"bins":25,"density_birds_km3":125.839375,"heading_deg":203.19131132358913,"speed_ms":11.729657887025235,"peak_altitude_m":0.0,"u_ms":-4.702447289867238,"v_ms":-10.682968406204523}},{"type":"Feature","geometry":{"type":"Point","coordinates":[-77.4778,38.9753]},"properties":{"site":"KLWX","name":"Sterling VA","scan_time":"2026-09-26T04:59:04Z","stale":false,"bins":25,"density_birds_km3":36.576875,"heading_deg":191.48028575356255,"speed_ms":22.01561915827965,"peak_altitude_m":600.0,"u_ms":-5.066705056131777,"v_ms":-20.749947541992036}},{"type":"Feature","geometry":{"type":"Point","coordinates":[-76.8762,34.7759]},"properties":{"site":"KMHX","name":"Morehead City NC","scan_time":"2026-09-26T05:01:01Z","stale":false,"bins":25,"density_birds_km3":61.310625,"heading_deg":166.39952978774497,"speed_ms":12.103687917957917,"peak_altitude_m":0.0,"u_ms":1.5017107731202088,"v_ms":-11.708778951231446}},{"type":"Feature","geometry":{"type":"Point","coordinates":[-80.6542,28.1133]},"properties":{"site":"KMLB","name":"Melbourne FL","scan_time":"2026-09-26T04:59:00Z","stale":false,"bins":25,"density_birds_km3":39.920625,"heading_deg":163.3400874638102,"speed_ms":16.39965553955032,"peak_altitude_m":200.0,"u_ms":4.656122784493016,"v_ms":-15.700762979896036}},{"type":"Feature","geometry":{"type":"Point","coordinates":[-86.5625,36.2472]},"properties":{"site":"KOHX","name":"Nashville TN","scan_time":"2026-09-26T05:00:39Z","stale":false,"bins":25,"density_birds_km3":159.85333333333335,"heading_deg":205.67451843520604,"speed_ms":11.037714655100507,"peak_altitude_m":200.0,"u_ms":-4.727046000500459,"v_ms":-9.13581474685128}},{"type":"Feature","geometry":{"type":"Point","coordinates":[-72.8639,40.8655]},"properties":{"site":"KOKX","name":"Upton NY","scan_time":"2026-09-26T05:00:20Z","stale":false,"bins":25,"density_birds_km3":1.97,"heading_deg":null,"speed_ms":null,"peak_altitude_m":200.0,"u_ms":null,"v_ms":null}},{"type":"Feature","geometry":{"type":"Point","coordinates":[-80.2183,40.5317]},"properties":{"site":"KPBZ","name":"Pittsburgh PA","scan_time":"2026-09-26T04:56:56Z","stale":false,"bins":25,"density_birds_km3":51.86071428571428,"heading_deg":210.6252745356354,"speed_ms":16.253499070311964,"peak_altitude_m":600.0,"u_ms":-8.411947386543627,"v_ms":-13.199751945458301}},{"type":"Feature","geometry":{"type":"Point","coordinates":[-78.4899,35.6655]},"properties":{"site":"KRAX","name":"Raleigh NC","scan_time":"2026-09-26T05:02:26Z","stale":false,"bins":25,"density_birds_km3":45.128125,"heading_deg":184.11377075779984,"speed_ms":20.691616093068347,"peak_altitude_m":400.0,"u_ms":-2.1484296101378018,"v_ms":-20.21670258292362}},{"type":"Feature","geometry":{"type":"Point","coordinates":[-82.4017,27.7055]},"properties":{"site":"KTBW","name":"Tampa FL","scan_time":"2026-09-26T05:02:48Z","stale":false,"bins":25,"density_birds_km3":25.13,"heading_deg":189.87341557886168,"speed_ms":14.38848040191007,"peak_altitude_m":200.0,"u_ms":-2.70462171707123,"v_ms":-13.919369031038599}}]}