{"type":"FeatureCollection","frame":"2026-08-27T11","site_count":20,"fresh_count":20,"failures":{},"features":[{"type":"Feature","geometry":{"type":"Point","coordinates":[-77.0073,36.984]},"properties":{"site":"KAKQ","name":"Wakefield VA","scan_time":"2026-08-27T11:02:28Z","stale":false,"bins":25,"density_birds_km3":0.11937500000000001,"heading_deg":22.284419349215216,"speed_ms":4.207263157894737,"peak_altitude_m":0.0,"u_ms":1.516736842105263,"v_ms":3.7725263157894733}},{"type":"Feature","geometry":{"type":"Point","coordinates":[-71.1369,41.9558]},"properties":{"site":"KBOX","name":"Boston MA","scan_time":"2026-08-27T11:00:09Z","stale":false,"bins":25,"density_birds_km3":1.5450000000000002,"heading_deg":15.501596676491141,"speed_ms":5.874562753036438,"peak_altitude_m":0.0,"u_ms":1.6711862348178137,"v_ms":5.3461821862348184}},{"type":"Feature","geometry":{"type":"Point","coordinates":[-78.7369,42.9489]},"properties":{"site":"KBUF","name":"Buffalo NY","scan_time":"2026-08-27T11:00:14Z","stale":false,"bins":25,"density_birds_km3":1.43,"heading_deg":53.108621091298374,"speed_ms":9.171888992537314,"peak_altitude_m":200.0,"u_ms":7.276184701492538,"v_ms":5.12214552238806}},{"type":"Feature","geometry":{"type":"Point","coordinates":[-81.8597,41.4131]},"properties":{"site":"KCLE","name":"Cleveland OH","scan_time":"2026-08-27T10:59:26Z","stale":false,"bins":25,"density_birds_km3":5.179333333333333,"heading_deg":100.8455113888104,"speed_ms":7.058161697695612,"peak_altitude_m":200.0,"u_ms":6.877539382892851,"v_ms":-1.289280041661242}},{"type":"Feature","geometry":{"type":"Point","coordinates":[-81.0423,32.6555]},"properties":{"site":"KCLX","name":"Charleston SC","scan_time":"2026-08-27T10:58:26Z","stale":false,"bins":25,"density_birds_km3":0.383125,"heading_deg":74.22109770349537,"speed_ms":7.728841761827081,"peak_altitude_m":0.0,"u_ms":7.425252854812397,"v_ms":2.1213703099510606}},{"type":"Feature","geometry":{"type":"Point","coordinates":[-74.4108,39.947]},"properties":{"site":"KDIX","name":"Philadelphia PA","scan_time":"2026-08-27T11:00:26Z","stale":false,"bins":25,"density_birds_km3":0.251875,"heading_deg":348.39422891751053,"speed_ms":8.984205128205128,"peak_altitude_m":0.0,"u_ms":-1.765153846153846,"v_ms":8.71323076923077}},{"type":"Feature","geometry":{"type":"Point","coordinates":[-84.5658,33.3636]},"properties":{"site":"KFFC","name":"Atlanta GA","scan_time":"2026-08-27T11:02:06Z","stale":false,"bins":25,"density_birds_km3":8.883333333333333,"heading_deg":267.6601100273882,"speed_ms":4.130379737335835,"peak_altitude_m":200.0,"u_ms":-4.058499812382739,"v_ms":-0.25216585365853655}},{"type":"Feature","geometry":{"type":"Point","coordinates":[-85.5449,42.8939]},"properties":{"site":"KGRR","name":"Grand Rapids MI","scan_time":"2026-08-27T11:03:09Z","stale":false,"bins":25,"density_birds_km3":2.6906666666666665,"heading_deg":127.68632101132553,"speed_ms":5.375992063492063,"peak_altitude_m":200.0,"u_ms":4.02749751984127,"v_ms":-3.4717088293650793}},{"type":"Feature","geometry":{"type":"Point","coordinates":[-83.8217,39.4203]},"properties":{"site":"KILN","name":"Wilmington OH","scan_time":"2026-08-27T11:01:14Z","stale":false,"bins":25,"density_birds_km3":2.380666666666667,"heading_deg":134.5115268887362,"speed_ms":6.163473389355742,"peak_altitude_m":200.0,"u_ms":4.337840336134453,"v_ms":-4.352879551820728}},{"type":"Feature","geometry":{"type":"Point","coordinates":[-81.7019,30.4846]},"properties":{"site":"KJAX","name":"Jacksonville FL","scan_time":"2026-08-27T11:01:39Z","stale":false,"bins":25,"density_birds_km3":3.97,"heading_deg":22.60122267734388,"speed_ms":6.310933858267717,"peak_altitude_m":0.0,"u_ms":2.414155905511811,"v_ms":5.687930708661417}},{"type":"Feature","geometry":{"type":"Point","coordinates":[-88.0847,41.6045]},"properties":{"site":"KLOT","name":"Chicago IL","scan_time":"2026-08-27T11:00:42Z","stale":false,"bins":25,"density_birds_km3":5.711428571428572,"heading_deg":173.77768884888292,"speed_ms":8.179938611876723,"peak_altitude_m":200.0,"u_ms":0.8868704585316963,"v_ms":-8.130082686043599}},{"type":"Feature","geometry":{"type":"Point","coordinates":[-78.4292,33.9892]},"properties":{"site":"KLTX","name":"Wilmington NC","scan_time":"2026-08-27T11:00:15Z","stale":false,"bins":25,"density_birds_km3":0.80625,"heading_deg":127.86507589488153,"speed_ms":4.664268867924528,"peak_altitude_m":0.0,"u_ms":3.4597248427672955,"v_ms":-2.4037971698113205}},{"type":"Feature","geometry":{"type":"Point","coordinates":[-77.4778,38.9753]},"properties":{"site":"KLWX","name":"Sterling VA","scan_time":"2026-08-27T10:58:20Z","stale":false,"bins":25,"density_birds_km3":1.1325,"heading_deg":355.51662460470243,"speed_ms":4.780587257617728,"peak_altitude_m":0.0,"u_ms":-0.12409972299168974,"v_ms":4.5306481994459835}},{"type":"Feature","geometry":{"type":"Point","coordinates":[-76.8762,34.7759]},"properties":{"site":"KMHX","name":"Morehead City NC","scan_time":"2026-08-27T11:02:46Z","stale":false,"bins":25,"density_birds_km3":0.32,"heading_deg":83.88365560863514,"speed_ms":3.677004048582995,"peak_altitude_m":0.0,"u_ms":3.591497975708501,"v_ms":0.32643724696356274}},{"type":"Feature","geometry":{"type":"Point","coordinates":[-80.6542,28.1133]},"properties":{"site":"KMLB","name":"Melbourne FL","scan_time":"2026-08-27T10:59:58Z","stale":false,"bins":25,"density_birds_km3":2.085625,"heading_deg":353.18541671383684,"speed_ms":5.404033563080612,"peak_altitude_m":0.0,"u_ms":-0.6103476176206174,"v_ms":5.33238237938268}},{"type":"Feature","geometry":{"type":"Point","coordinates":[-86.5625,36.2472]},"properties":{"site":"KOHX","name":"Nashville TN","scan_time":"2026-08-27T10:59:27Z","stale":false,"bins":25,"density_birds_km3":4.634,"heading_deg":120.82944285782963,"speed_ms":3.433187319884726,"peak_altitude_m":400.0,"u_ms":2.2538674351585017,"v_ms":-1.2651959654178675}},{"type":"Feature","geometry":{"type":"Point","coordinates":[-72.8639,40.8655]},"properties":{"site":"KOKX","name":"Upton NY","scan_time":"2026-08-27T10:58:56Z","stale":false,"bins":25,"density_birds_km3":1.1456250000000001,"heading_deg":356.02929917502814,"speed_ms":5.827907995618839,"peak_altitude_m":0.0,"u_ms":-0.3814786418400877,"v_ms":5.772393209200438}},{"type":"Feature","geometry":{"type":"Point","coordinates":[-80.2183,40.5317]},"properties":{"site":"KPBZ","name":"Pittsburgh PA","scan_time":"2026-08-27T10:57:26Z","stale":false,"bins":25,"density_birds_km3":1.0385714285714287,"heading_deg":60.98441392756965,"speed_ms":6.072572214580468,"peak_altitude_m":400.0,"u_ms":5.297943603851444,"v_ms":2.8801925722145802}},{"type":"Feature","geometry":{"type":"Point","coordinates":[-78.4899,35.6655]},"properties":{"site":"KRAX","name":"Raleigh NC","scan_time":"2026-08-27T10:59:06Z","stale":false,"bins":25,"density_birds_km3":1.0631249999999999,"heading_deg":254.0607905880857,"speed_ms":0.6131099353321575,"peak_altitude_m":0.0,"u_ms":0.09899470899470894,"v_ms":0.05583774250440918}},{"type":"Feature","geometry":{"type":"Point","coordinates":[-82.4017,27.7055]},"properties":{"site":"KTBW","name":"Tampa FL","scan_time":"2026-08-27T11:01:38Z","stale":false,"bins":25,"density_birds_km3":1.28875,"heading_deg":343.53098849733357,"speed_ms":7.5570659553831225,"peak_altitude_m":0.0,"u_ms":-2.1151939864209504,"v_ms":7.200887487875847}}]}