{"type":"FeatureCollection","frame":"2026-08-25T08","site_count":20,"fresh_count":20,"failures":{},"features":[{"type":"Feature","geometry":{"type":"Point","coordinates":[-77.0073,36.984]},"properties":{"site":"KAKQ","name":"Wakefield VA","scan_time":"2026-08-25T08:00:02Z","stale":false,"bins":25,"density_birds_km3":14.06125,"heading_deg":208.69833304391912,"speed_ms":9.501346581310571,"peak_altitude_m":200.0,"u_ms":-4.550231172757179,"v_ms":-8.251445718858362}},{"type":"Feature","geometry":{"type":"Point","coordinates":[-71.1369,41.9558]},"properties":{"site":"KBOX","name":"Boston MA","scan_time":"2026-08-25T07:59:01Z","stale":false,"bins":25,"density_birds_km3":1.105625,"heading_deg":101.03072719794794,"speed_ms":6.637731900452489,"peak_altitude_m":0.0,"u_ms":6.499903846153846,"v_ms":-1.2793608597285069}},{"type":"Feature","geometry":{"type":"Point","coordinates":[-78.7369,42.9489]},"properties":{"site":"KBUF","name":"Buffalo NY","scan_time":"2026-08-25T07:56:49Z","stale":false,"bins":25,"density_birds_km3":2.203333333333333,"heading_deg":134.00167974018103,"speed_ms":8.796916792738275,"peak_altitude_m":400.0,"u_ms":6.17471104387292,"v_ms":-6.066765506807867}},{"type":"Feature","geometry":{"type":"Point","coordinates":[-81.8597,41.4131]},"properties":{"site":"KCLE","name":"Cleveland OH","scan_time":"2026-08-25T08:02:27Z","stale":false,"bins":25,"density_birds_km3":0.8013333333333333,"heading_deg":125.37850152278457,"speed_ms":6.788675607711651,"peak_altitude_m":200.0,"u_ms":5.247879295892708,"v_ms":-3.700980720871752}},{"type":"Feature","geometry":{"type":"Point","coordinates":[-81.0423,32.6555]},"properties":{"site":"KCLX","name":"Charleston SC","scan_time":"2026-08-25T08:00:47Z","stale":false,"bins":25,"density_birds_km3":12.1675,"heading_deg":218.38359003263258,"speed_ms":4.188077061392242,"peak_altitude_m":200.0,"u_ms":-2.4388754174158747,"v_ms":-3.122724377087079}},{"type":"Feature","geometry":{"type":"Point","coordinates":[-74.4108,39.947]},"properties":{"site":"KDIX","name":"Philadelphia PA","scan_time":"2026-08-25T07:58:32Z","stale":false,"bins":25,"density_birds_km3":1.621875,"heading_deg":172.56075355933092,"speed_ms":9.086119460500964,"peak_altitude_m":0.0,"u_ms":1.3090789980732176,"v_ms":-8.650820809248556}},{"type":"Feature","geometry":{"type":"Point","coordinates":[-84.5658,33.3636]},"properties":{"site":"KFFC","name":"Atlanta GA","scan_time":"2026-08-25T08:00:05Z","stale":false,"bins":25,"density_birds_km3":17.384666666666664,"heading_deg":226.47735066449795,"speed_ms":7.476694405031254,"peak_altitude_m":400.0,"u_ms":-5.280191739847376,"v_ms":-4.892796717413813}},{"type":"Feature","geometry":{"type":"Point","coordinates":[-85.5449,42.8939]},"properties":{"site":"KGRR","name":"Grand Rapids MI","scan_time":"2026-08-25T08:03:15Z","stale":false,"bins":25,"density_birds_km3":27.223333333333336,"heading_deg":214.10623589733456,"speed_ms":11.83524342459715,"peak_altitude_m":400.0,"u_ms":-6.636758093745409,"v_ms":-9.798398148601656}},{"type":"Feature","geometry":{"type":"Point","coordinates":[-83.8217,39.4203]},"properties":{"site":"KILN","name":"Wilmington OH","scan_time":"2026-08-25T08:01:53Z","stale":false,"bins":25,"density_birds_km3":2.614,"heading_deg":161.59523862121262,"speed_ms":5.261769211130967,"peak_altitude_m":400.0,"u_ms":1.6474980852693386,"v_ms":-4.974424304314526}},{"type":"Feature","geometry":{"type":"Point","coordinates":[-81.7019,30.4846]},"properties":{"site":"KJAX","name":"Jacksonville FL","scan_time":"2026-08-25T08:00:19Z","stale":false,"bins":25,"density_birds_km3":35.616875,"heading_deg":162.06140391167887,"speed_ms":7.735627193598203,"peak_altitude_m":400.0,"u_ms":2.0273424119050962,"v_ms":-7.310295346062052}},{"type":"Feature","geometry":{"type":"Point","coordinates":[-88.0847,41.6045]},"properties":{"site":"KLOT","name":"Chicago IL","scan_time":"2026-08-25T07:57:51Z","stale":false,"bins":25,"density_birds_km3":0.9480000000000001,"heading_deg":283.25212501222563,"speed_ms":5.662088607594936,"peak_altitude_m":200.0,"u_ms":-3.747524613220815,"v_ms":0.9092475386779183}},{"type":"Feature","geometry":{"type":"Point","coordinates":[-78.4292,33.9892]},"properties":{"site":"KLTX","name":"Wilmington NC","scan_time":"2026-08-25T08:00:24Z","stale":false,"bins":25,"density_birds_km3":8.731875,"heading_deg":220.27945136286374,"speed_ms":6.372284671010239,"peak_altitude_m":400.0,"u_ms":-4.302881792797308,"v_ms":-4.614282952674161}},{"type":"Feature","geometry":{"type":"Point","coordinates":[-77.4778,38.9753]},"properties":{"site":"KLWX","name":"Sterling VA","scan_time":"2026-08-25T08:01:32Z","stale":false,"bins":25,"density_birds_km3":2.84875,"heading_deg":179.48577317988077,"speed_ms":6.552265934065934,"peak_altitude_m":800.0,"u_ms":0.04598461538461538,"v_ms":-6.47592967032967}},{"type":"Feature","geometry":{"type":"Point","coordinates":[-76.8762,34.7759]},"properties":{"site":"KMHX","name":"Morehead City NC","scan_time":"2026-08-25T08:01:15Z","stale":false,"bins":25,"density_birds_km3":3.5368749999999998,"heading_deg":147.23691088660146,"speed_ms":5.898545679448667,"peak_altitude_m":0.0,"u_ms":2.9928361901396006,"v_ms":-4.831168050892384}},{"type":"Feature","geometry":{"type":"Point","coordinates":[-80.6542,28.1133]},"properties":{"site":"KMLB","name":"Melbourne FL","scan_time":"2026-08-25T08:00:47Z","stale":false,"bins":25,"density_birds_km3":2.251875,"heading_deg":156.9628381344149,"speed_ms":4.6849542048293085,"peak_altitude_m":200.0,"u_ms":1.4225728559533721,"v_ms":-4.339955592561754}},{"type":"Feature","geometry":{"type":"Point","coordinates":[-86.5625,36.2472]},"properties":{"site":"KOHX","name":"Nashville TN","scan_time":"2026-08-25T07:57:52Z","stale":false,"bins":25,"density_birds_km3":17.93933333333333,"heading_deg":249.0442271890205,"speed_ms":7.904005351369432,"peak_altitude_m":400.0,"u_ms":-6.97242186629009,"v_ms":-2.372635177821547}},{"type":"Feature","geometry":{"type":"Point","coordinates":[-72.8639,40.8655]},"properties":{"site":"KOKX","name":"Upton NY","scan_time":"2026-08-25T08:02:42Z","stale":false,"bins":25,"density_birds_km3":1.4912500000000002,"heading_deg":124.62028286361357,"speed_ms":3.4599912663755457,"peak_altitude_m":0.0,"u_ms":2.7985633187772927,"v_ms":-1.9618122270742355}},{"type":"Feature","geometry":{"type":"Point","coordinates":[-80.2183,40.5317]},"properties":{"site":"KPBZ","name":"Pittsburgh PA","scan_time":"2026-08-25T07:57:38Z","stale":false,"bins":25,"density_birds_km3":0.6050000000000001,"heading_deg":112.95134942401661,"speed_ms":7.502834740651388,"peak_altitude_m":400.0,"u_ms":6.600168878166467,"v_ms":-2.7830398069963813}},{"type":"Feature","geometry":{"type":"Point","coordinates":[-78.4899,35.6655]},"properties":{"site":"KRAX","name":"Raleigh NC","scan_time":"2026-08-25T08:00:08Z","stale":false,"bins":25,"density_birds_km3":17.140625,"heading_deg":197.25446954801268,"speed_ms":8.631729997811975,"peak_altitude_m":400.0,"u_ms":-2.5834457734665595,"v_ms":-8.178581430967837}},{"type":"Feature","geometry":{"type":"Point","coordinates":[-82.4017,27.7055]},"properties":{"site":"KTBW","name":"Tampa FL","scan_time":"2026-08-25T08:01:44Z","stale":false,"bins":25,"density_birds_km3":3.949375,"heading_deg":206.63851468593373,"speed_ms":3.5687197341351484,"peak_altitude_m":0.0,"u_ms":-0.9242300996993195,"v_ms":-3.0701883209368575}}]}