{"type":"FeatureCollection","frame":"2026-10-04T09","site_count":20,"fresh_count":20,"failures":{},"features":[{"type":"Feature","geometry":{"type":"Point","coordinates":[-77.0073,36.984]},"properties":{"site":"KAKQ","name":"Wakefield VA","scan_time":"2026-10-04T09:01:50Z","stale":false,"bins":25,"density_birds_km3":1.3856249999999999,"heading_deg":192.44513367826784,"speed_ms":6.377789806044205,"peak_altitude_m":0.0,"u_ms":-0.7533152909336941,"v_ms":-5.214745151105097}},{"type":"Feature","geometry":{"type":"Point","coordinates":[-71.1369,41.9558]},"properties":{"site":"KBOX","name":"Boston MA","scan_time":"2026-10-04T09:00:01Z","stale":false,"bins":25,"density_birds_km3":3.6225,"heading_deg":230.43057215236666,"speed_ms":13.661047273982057,"peak_altitude_m":200.0,"u_ms":-10.4798033126294,"v_ms":-8.672116977225674}},{"type":"Feature","geometry":{"type":"Point","coordinates":[-78.7369,42.9489]},"properties":{"site":"KBUF","name":"Buffalo NY","scan_time":"2026-10-04T09:03:35Z","stale":false,"bins":25,"density_birds_km3":0.9353333333333332,"heading_deg":351.70878443312637,"speed_ms":8.096661911554921,"peak_altitude_m":200.0,"u_ms":-1.2201640513552066,"v_ms":7.860228245363767}},{"type":"Feature","geometry":{"type":"Point","coordinates":[-81.8597,41.4131]},"properties":{"site":"KCLE","name":"Cleveland OH","scan_time":"2026-10-04T08:56:45Z","stale":false,"bins":25,"density_birds_km3":8.575333333333333,"heading_deg":227.24922989532888,"speed_ms":7.227224381900171,"peak_altitude_m":200.0,"u_ms":-5.374726325610324,"v_ms":-4.745443165915099}},{"type":"Feature","geometry":{"type":"Point","coordinates":[-81.0423,32.6555]},"properties":{"site":"KCLX","name":"Charleston SC","scan_time":"2026-10-04T08:58:14Z","stale":false,"bins":25,"density_birds_km3":2.223125,"heading_deg":96.88258270807245,"speed_ms":4.4925527723050935,"peak_altitude_m":0.0,"u_ms":4.230576977202364,"v_ms":-0.27146073740500987}},{"type":"Feature","geometry":{"type":"Point","coordinates":[-74.4108,39.947]},"properties":{"site":"KDIX","name":"Philadelphia PA","scan_time":"2026-10-04T08:58:03Z","stale":false,"bins":25,"density_birds_km3":19.740625,"heading_deg":219.92437484403104,"speed_ms":12.535332341112763,"peak_altitude_m":0.0,"u_ms":-8.067101238164602,"v_ms":-9.489190918015135}},{"type":"Feature","geometry":{"type":"Point","coordinates":[-84.5658,33.3636]},"properties":{"site":"KFFC","name":"Atlanta GA","scan_time":"2026-10-04T09:00:09Z","stale":false,"bins":25,"density_birds_km3":70.28533333333333,"heading_deg":156.1484291484276,"speed_ms":6.722441286944645,"peak_altitude_m":400.0,"u_ms":1.517599404332815,"v_ms":-6.0375198239556855}},{"type":"Feature","geometry":{"type":"Point","coordinates":[-85.5449,42.8939]},"properties":{"site":"KGRR","name":"Grand Rapids MI","scan_time":"2026-10-04T09:00:43Z","stale":false,"bins":25,"density_birds_km3":0.3813333333333333,"heading_deg":13.999999999999998,"speed_ms":8.11,"peak_altitude_m":200.0,"u_ms":1.9600000000000002,"v_ms":7.87}},{"type":"Feature","geometry":{"type":"Point","coordinates":[-83.8217,39.4203]},"properties":{"site":"KILN","name":"Wilmington OH","scan_time":"2026-10-04T09:01:55Z","stale":false,"bins":25,"density_birds_km3":14.211333333333332,"heading_deg":230.1237862241064,"speed_ms":6.209452029087497,"peak_altitude_m":200.0,"u_ms":-3.5044489795918365,"v_ms":-3.0187149894440535}},{"type":"Feature","geometry":{"type":"Point","coordinates":[-81.7019,30.4846]},"properties":{"site":"KJAX","name":"Jacksonville FL","scan_time":"2026-10-04T08:58:56Z","stale":false,"bins":25,"density_birds_km3":2.8093749999999997,"heading_deg":255.88179508907535,"speed_ms":5.071721603563474,"peak_altitude_m":0.0,"u_ms":-3.9946169265033404,"v_ms":-0.7765545657015588}},{"type":"Feature","geometry":{"type":"Point","coordinates":[-88.0847,41.6045]},"properties":{"site":"KLOT","name":"Chicago IL","scan_time":"2026-10-04T08:58:51Z","stale":false,"bins":25,"density_birds_km3":1.0153333333333334,"heading_deg":59.148706045038836,"speed_ms":10.25214707813526,"peak_altitude_m":200.0,"u_ms":8.27811556139199,"v_ms":4.645259356533159}},{"type":"Feature","geometry":{"type":"Point","coordinates":[-78.4292,33.9892]},"properties":{"site":"KLTX","name":"Wilmington NC","scan_time":"2026-10-04T09:00:29Z","stale":false,"bins":25,"density_birds_km3":1.11625,"heading_deg":null,"speed_ms":null,"peak_altitude_m":200.0,"u_ms":null,"v_ms":null}},{"type":"Feature","geometry":{"type":"Point","coordinates":[-77.4778,38.9753]},"properties":{"site":"KLWX","name":"Sterling VA","scan_time":"2026-10-04T09:00:26Z","stale":false,"bins":25,"density_birds_km3":30.605625,"heading_deg":223.29610686772418,"speed_ms":6.426694376427498,"peak_altitude_m":0.0,"u_ms":-4.33634334039795,"v_ms":-4.390565649498961}},{"type":"Feature","geometry":{"type":"Point","coordinates":[-76.8762,34.7759]},"properties":{"site":"KMHX","name":"Morehead City NC","scan_time":"2026-10-04T08:57:45Z","stale":false,"bins":25,"density_birds_km3":0.34875,"heading_deg":266.74764012379046,"speed_ms":5.097104316546764,"peak_altitude_m":200.0,"u_ms":-4.246780575539569,"v_ms":-0.24375899280575541}},{"type":"Feature","geometry":{"type":"Point","coordinates":[-80.6542,28.1133]},"properties":{"site":"KMLB","name":"Melbourne FL","scan_time":"2026-10-04T09:01:29Z","stale":false,"bins":25,"density_birds_km3":0.896875,"heading_deg":312.6201536934168,"speed_ms":4.255184668989547,"peak_altitude_m":0.0,"u_ms":-3.103742160278746,"v_ms":2.9033310104529617}},{"type":"Feature","geometry":{"type":"Point","coordinates":[-86.5625,36.2472]},"properties":{"site":"KOHX","name":"Nashville TN","scan_time":"2026-10-04T09:02:30Z","stale":false,"bins":25,"density_birds_km3":145.39400000000003,"heading_deg":151.39136864651257,"speed_ms":3.996603940556923,"peak_altitude_m":200.0,"u_ms":2.066791247690184,"v_ms":-2.8800362234113277}},{"type":"Feature","geometry":{"type":"Point","coordinates":[-72.8639,40.8655]},"properties":{"site":"KOKX","name":"Upton NY","scan_time":"2026-10-04T08:59:17Z","stale":false,"bins":25,"density_birds_km3":2.029375,"heading_deg":244.01368375657142,"speed_ms":12.470600924499228,"peak_altitude_m":0.0,"u_ms":-11.206459167950692,"v_ms":-5.359922958397535}},{"type":"Feature","geometry":{"type":"Point","coordinates":[-80.2183,40.5317]},"properties":{"site":"KPBZ","name":"Pittsburgh PA","scan_time":"2026-10-04T09:01:23Z","stale":false,"bins":25,"density_birds_km3":10.545714285714286,"heading_deg":267.787387022753,"speed_ms":8.86413047896484,"peak_altitude_m":400.0,"u_ms":-8.243819524422465,"v_ms":-0.6537375516563919}},{"type":"Feature","geometry":{"type":"Point","coordinates":[-78.4899,35.6655]},"properties":{"site":"KRAX","name":"Raleigh NC","scan_time":"2026-10-04T09:00:33Z","stale":false,"bins":25,"density_birds_km3":3.0,"heading_deg":205.24964088732665,"speed_ms":4.731938540332907,"peak_altitude_m":0.0,"u_ms":-1.9260076824583865,"v_ms":-4.121582586427657}},{"type":"Feature","geometry":{"type":"Point","coordinates":[-82.4017,27.7055]},"properties":{"site":"KTBW","name":"Tampa FL","scan_time":"2026-10-04T09:00:55Z","stale":false,"bins":25,"density_birds_km3":4.65125,"heading_deg":300.65614491281406,"speed_ms":6.912413978494623,"peak_altitude_m":0.0,"u_ms":-5.643821236559139,"v_ms":3.7341935483870965}}]}