{"type":"FeatureCollection","frame":"2026-09-04T09","site_count":20,"fresh_count":20,"failures":{},"features":[{"type":"Feature","geometry":{"type":"Point","coordinates":[-77.0073,36.984]},"properties":{"site":"KAKQ","name":"Wakefield VA","scan_time":"2026-09-04T09:00:03Z","stale":false,"bins":25,"density_birds_km3":9.493125000000001,"heading_deg":149.76934628518384,"speed_ms":5.392555138587135,"peak_altitude_m":0.0,"u_ms":3.260473368885377,"v_ms":-2.8685318322470206}},{"type":"Feature","geometry":{"type":"Point","coordinates":[-71.1369,41.9558]},"properties":{"site":"KBOX","name":"Boston MA","scan_time":"2026-09-04T09:02:11Z","stale":false,"bins":25,"density_birds_km3":3.491875,"heading_deg":162.15306156642978,"speed_ms":5.4932005872637175,"peak_altitude_m":200.0,"u_ms":1.5324169572398605,"v_ms":-5.177304092494036}},{"type":"Feature","geometry":{"type":"Point","coordinates":[-78.7369,42.9489]},"properties":{"site":"KBUF","name":"Buffalo NY","scan_time":"2026-09-04T09:03:06Z","stale":false,"bins":25,"density_birds_km3":17.65666666666667,"heading_deg":173.17200916374637,"speed_ms":9.050519539361902,"peak_altitude_m":400.0,"u_ms":0.9242239003209363,"v_ms":-8.695355484236359}},{"type":"Feature","geometry":{"type":"Point","coordinates":[-81.8597,41.4131]},"properties":{"site":"KCLE","name":"Cleveland OH","scan_time":"2026-09-04T09:00:48Z","stale":false,"bins":25,"density_birds_km3":19.668666666666663,"heading_deg":201.4734552161339,"speed_ms":8.680848209714304,"peak_altitude_m":400.0,"u_ms":-2.654189848789978,"v_ms":-7.193702768201521}},{"type":"Feature","geometry":{"type":"Point","coordinates":[-81.0423,32.6555]},"properties":{"site":"KCLX","name":"Charleston SC","scan_time":"2026-09-04T08:58:06Z","stale":false,"bins":25,"density_birds_km3":1.82125,"heading_deg":262.6868064709989,"speed_ms":4.456997254632808,"peak_altitude_m":0.0,"u_ms":-3.978424845573095,"v_ms":-0.6821482498284146}},{"type":"Feature","geometry":{"type":"Point","coordinates":[-74.4108,39.947]},"properties":{"site":"KDIX","name":"Philadelphia PA","scan_time":"2026-09-04T08:59:09Z","stale":false,"bins":25,"density_birds_km3":4.235625,"heading_deg":122.48891077241804,"speed_ms":7.96078903018232,"peak_altitude_m":0.0,"u_ms":6.470012256779531,"v_ms":-4.336004289872837}},{"type":"Feature","geometry":{"type":"Point","coordinates":[-84.5658,33.3636]},"properties":{"site":"KFFC","name":"Atlanta GA","scan_time":"2026-09-04T09:01:35Z","stale":false,"bins":25,"density_birds_km3":6.634,"heading_deg":294.4225291979185,"speed_ms":6.775899909556829,"peak_altitude_m":400.0,"u_ms":-3.9470234147321874,"v_ms":-0.3794352326399358}},{"type":"Feature","geometry":{"type":"Point","coordinates":[-85.5449,42.8939]},"properties":{"site":"KGRR","name":"Grand Rapids MI","scan_time":"2026-09-04T08:58:50Z","stale":false,"bins":25,"density_birds_km3":2.37,"heading_deg":226.35416846476363,"speed_ms":3.354838255977496,"peak_altitude_m":200.0,"u_ms":-0.6810773558368494,"v_ms":-0.12950210970464132}},{"type":"Feature","geometry":{"type":"Point","coordinates":[-83.8217,39.4203]},"properties":{"site":"KILN","name":"Wilmington OH","scan_time":"2026-09-04T09:00:15Z","stale":false,"bins":25,"density_birds_km3":15.984666666666667,"heading_deg":139.57682144594614,"speed_ms":8.503868707511366,"peak_altitude_m":400.0,"u_ms":5.281221587354548,"v_ms":-6.457552654627351}},{"type":"Feature","geometry":{"type":"Point","coordinates":[-81.7019,30.4846]},"properties":{"site":"KJAX","name":"Jacksonville FL","scan_time":"2026-09-04T09:01:29Z","stale":false,"bins":25,"density_birds_km3":5.0675,"heading_deg":205.73372477922393,"speed_ms":4.995041352919392,"peak_altitude_m":0.0,"u_ms":-1.9202320701148003,"v_ms":-4.349392667571904}},{"type":"Feature","geometry":{"type":"Point","coordinates":[-88.0847,41.6045]},"properties":{"site":"KLOT","name":"Chicago IL","scan_time":"2026-09-04T08:59:03Z","stale":false,"bins":25,"density_birds_km3":8.322000000000001,"heading_deg":76.37875504434862,"speed_ms":8.864256724110163,"peak_altitude_m":200.0,"u_ms":8.559827669512,"v_ms":2.200430020937349}},{"type":"Feature","geometry":{"type":"Point","coordinates":[-78.4292,33.9892]},"properties":{"site":"KLTX","name":"Wilmington NC","scan_time":"2026-09-04T09:01:30Z","stale":false,"bins":25,"density_birds_km3":1.44125,"heading_deg":43.57515484400688,"speed_ms":1.6150325379609545,"peak_altitude_m":0.0,"u_ms":1.0048156182212582,"v_ms":0.9391930585683297}},{"type":"Feature","geometry":{"type":"Point","coordinates":[-77.4778,38.9753]},"properties":{"site":"KLWX","name":"Sterling VA","scan_time":"2026-09-04T09:00:55Z","stale":false,"bins":25,"density_birds_km3":4.41125,"heading_deg":123.69903636869552,"speed_ms":6.755532308568175,"peak_altitude_m":200.0,"u_ms":4.2010347281525755,"v_ms":-2.980841161400512}},{"type":"Feature","geometry":{"type":"Point","coordinates":[-76.8762,34.7759]},"properties":{"site":"KMHX","name":"Morehead City NC","scan_time":"2026-09-04T08:58:07Z","stale":false,"bins":25,"density_birds_km3":0.835,"heading_deg":73.66454320910941,"speed_ms":6.940928143712576,"peak_altitude_m":0.0,"u_ms":6.165007485029941,"v_ms":2.029049401197605}},{"type":"Feature","geometry":{"type":"Point","coordinates":[-80.6542,28.1133]},"properties":{"site":"KMLB","name":"Melbourne FL","scan_time":"2026-09-04T09:01:39Z","stale":false,"bins":25,"density_birds_km3":2.40875,"heading_deg":45.935256354138275,"speed_ms":3.2068578100674623,"peak_altitude_m":0.0,"u_ms":2.001761805915932,"v_ms":2.3133186299948107}},{"type":"Feature","geometry":{"type":"Point","coordinates":[-86.5625,36.2472]},"properties":{"site":"KOHX","name":"Nashville TN","scan_time":"2026-09-04T09:01:20Z","stale":false,"bins":25,"density_birds_km3":20.913999999999998,"heading_deg":120.35401115241615,"speed_ms":2.323040387619139,"peak_altitude_m":200.0,"u_ms":1.9385445156354597,"v_ms":-0.9997829205317013}},{"type":"Feature","geometry":{"type":"Point","coordinates":[-72.8639,40.8655]},"properties":{"site":"KOKX","name":"Upton NY","scan_time":"2026-09-04T08:59:54Z","stale":false,"bins":25,"density_birds_km3":4.07625,"heading_deg":188.75370103986825,"speed_ms":5.067985648385442,"peak_altitude_m":0.0,"u_ms":0.3653784384076541,"v_ms":-4.773712626003759}},{"type":"Feature","geometry":{"type":"Point","coordinates":[-80.2183,40.5317]},"properties":{"site":"KPBZ","name":"Pittsburgh PA","scan_time":"2026-09-04T08:58:46Z","stale":false,"bins":25,"density_birds_km3":33.44285714285714,"heading_deg":166.71222710525072,"speed_ms":7.443305638615977,"peak_altitude_m":400.0,"u_ms":1.6844451089278087,"v_ms":-6.956509184109356}},{"type":"Feature","geometry":{"type":"Point","coordinates":[-78.4899,35.6655]},"properties":{"site":"KRAX","name":"Raleigh NC","scan_time":"2026-09-04T08:58:58Z","stale":false,"bins":25,"density_birds_km3":4.243125,"heading_deg":81.42001859220072,"speed_ms":7.373960176991151,"peak_altitude_m":200.0,"u_ms":6.726769911504425,"v_ms":1.0116165191740412}},{"type":"Feature","geometry":{"type":"Point","coordinates":[-82.4017,27.7055]},"properties":{"site":"KTBW","name":"Tampa FL","scan_time":"2026-09-04T08:59:39Z","stale":false,"bins":25,"density_birds_km3":3.88375,"heading_deg":322.43533909922456,"speed_ms":3.7093481409946887,"peak_altitude_m":0.0,"u_ms":-2.134661194270079,"v_ms":2.827196201512957}}]}