{"type":"FeatureCollection","frame":"2026-10-07T11","site_count":20,"fresh_count":19,"failures":{"KILN":"RuntimeError('no scan within 20 min of 2026-10-07T11:00Z')"},"features":[{"type":"Feature","geometry":{"type":"Point","coordinates":[-77.0073,36.984]},"properties":{"site":"KAKQ","name":"Wakefield VA","scan_time":"2026-10-07T11:00:04Z","stale":false,"bins":25,"density_birds_km3":0.230625,"heading_deg":240.8278022658463,"speed_ms":5.167588075880759,"peak_altitude_m":400.0,"u_ms":-3.8913821138211384,"v_ms":-2.428021680216802}},{"type":"Feature","geometry":{"type":"Point","coordinates":[-71.1369,41.9558]},"properties":{"site":"KBOX","name":"Boston MA","scan_time":"2026-10-07T10:58:34Z","stale":false,"bins":25,"density_birds_km3":3.6887499999999998,"heading_deg":181.99877504749628,"speed_ms":1.6498424262961706,"peak_altitude_m":0.0,"u_ms":-0.11745509996611317,"v_ms":-1.6047136563876652}},{"type":"Feature","geometry":{"type":"Point","coordinates":[-78.7369,42.9489]},"properties":{"site":"KBUF","name":"Buffalo NY","scan_time":"2026-10-07T11:01:21Z","stale":false,"bins":25,"density_birds_km3":0.21933333333333332,"heading_deg":30.62055687818167,"speed_ms":7.496504559270516,"peak_altitude_m":200.0,"u_ms":3.581975683890578,"v_ms":6.503404255319149}},{"type":"Feature","geometry":{"type":"Point","coordinates":[-81.8597,41.4131]},"properties":{"site":"KCLE","name":"Cleveland OH","scan_time":"2026-10-07T10:57:17Z","stale":false,"bins":25,"density_birds_km3":0.5466666666666666,"heading_deg":33.04171053117265,"speed_ms":10.004529914529915,"peak_altitude_m":200.0,"u_ms":5.436031746031746,"v_ms":8.21017094017094}},{"type":"Feature","geometry":{"type":"Point","coordinates":[-81.0423,32.6555]},"properties":{"site":"KCLX","name":"Charleston SC","scan_time":"2026-10-07T11:02:03Z","stale":false,"bins":25,"density_birds_km3":1.630625,"heading_deg":243.9207476544503,"speed_ms":12.367369631901841,"peak_altitude_m":200.0,"u_ms":-11.128976226993865,"v_ms":-5.1090759202454}},{"type":"Feature","geometry":{"type":"Point","coordinates":[-74.4108,39.947]},"properties":{"site":"KDIX","name":"Philadelphia PA","scan_time":"2026-10-07T10:59:43Z","stale":false,"bins":25,"density_birds_km3":1.8599999999999999,"heading_deg":330.13684342534987,"speed_ms":2.3569354838709677,"peak_altitude_m":200.0,"u_ms":-0.23297043010752683,"v_ms":1.6172782258064518}},{"type":"Feature","geometry":{"type":"Point","coordinates":[-84.5658,33.3636]},"properties":{"site":"KFFC","name":"Atlanta GA","scan_time":"2026-10-07T10:57:14Z","stale":false,"bins":25,"density_birds_km3":6.4639999999999995,"heading_deg":230.62225795973768,"speed_ms":10.227354033422737,"peak_altitude_m":200.0,"u_ms":-7.884868991128533,"v_ms":-6.077264287187951}},{"type":"Feature","geometry":{"type":"Point","coordinates":[-85.5449,42.8939]},"properties":{"site":"KGRR","name":"Grand Rapids MI","scan_time":"2026-10-07T10:57:03Z","stale":false,"bins":25,"density_birds_km3":2.429333333333333,"heading_deg":99.57383523973274,"speed_ms":14.241023600439078,"peak_altitude_m":400.0,"u_ms":12.770079582875962,"v_ms":-3.0950631174533485}},{"type":"Feature","geometry":{"type":"Point","coordinates":[-81.7019,30.4846]},"properties":{"site":"KJAX","name":"Jacksonville FL","scan_time":"2026-10-07T10:59:03Z","stale":false,"bins":25,"density_birds_km3":53.694374999999994,"heading_deg":216.82862847256192,"speed_ms":7.522659230444767,"peak_altitude_m":0.0,"u_ms":-4.527916998640859,"v_ms":-5.953342081829686}},{"type":"Feature","geometry":{"type":"Point","coordinates":[-88.0847,41.6045]},"properties":{"site":"KLOT","name":"Chicago IL","scan_time":"2026-10-07T10:58:20Z","stale":false,"bins":25,"density_birds_km3":2.112,"heading_deg":114.12474909918129,"speed_ms":16.36399557801642,"peak_altitude_m":400.0,"u_ms":14.32916614024005,"v_ms":-6.768562855337966}},{"type":"Feature","geometry":{"type":"Point","coordinates":[-78.4292,33.9892]},"properties":{"site":"KLTX","name":"Wilmington NC","scan_time":"2026-10-07T11:00:16Z","stale":false,"bins":25,"density_birds_km3":0.196875,"heading_deg":220.7771789433767,"speed_ms":7.155263157894738,"peak_altitude_m":200.0,"u_ms":-4.677368421052631,"v_ms":-5.015789473684211}},{"type":"Feature","geometry":{"type":"Point","coordinates":[-77.4778,38.9753]},"properties":{"site":"KLWX","name":"Sterling VA","scan_time":"2026-10-07T11:01:51Z","stale":false,"bins":25,"density_birds_km3":4.06875,"heading_deg":3.398536150693805,"speed_ms":4.280199692780338,"peak_altitude_m":0.0,"u_ms":0.2495084485407066,"v_ms":4.268009216589861}},{"type":"Feature","geometry":{"type":"Point","coordinates":[-76.8762,34.7759]},"properties":{"site":"KMHX","name":"Morehead City NC","scan_time":"2026-10-07T10:58:25Z","stale":false,"bins":25,"density_birds_km3":0.73375,"heading_deg":214.49267705893155,"speed_ms":9.635511073253832,"peak_altitude_m":0.0,"u_ms":-5.283628620102215,"v_ms":-7.992129471890971}},{"type":"Feature","geometry":{"type":"Point","coordinates":[-80.6542,28.1133]},"properties":{"site":"KMLB","name":"Melbourne FL","scan_time":"2026-10-07T11:00:29Z","stale":false,"bins":25,"density_birds_km3":3.6900000000000004,"heading_deg":206.1485069018141,"speed_ms":3.347189354127818,"peak_altitude_m":0.0,"u_ms":-1.4680640786573997,"v_ms":-2.813580267842007}},{"type":"Feature","geometry":{"type":"Point","coordinates":[-86.5625,36.2472]},"properties":{"site":"KOHX","name":"Nashville TN","scan_time":"2026-10-07T11:00:53Z","stale":false,"bins":25,"density_birds_km3":3.9179999999999997,"heading_deg":55.07305739064241,"speed_ms":10.357932266848195,"peak_altitude_m":400.0,"u_ms":8.329593260721579,"v_ms":5.833675970047652}},{"type":"Feature","geometry":{"type":"Point","coordinates":[-72.8639,40.8655]},"properties":{"site":"KOKX","name":"Upton NY","scan_time":"2026-10-07T10:58:00Z","stale":false,"bins":25,"density_birds_km3":4.0925,"heading_deg":275.5034245479142,"speed_ms":5.024257788637752,"peak_altitude_m":0.0,"u_ms":-4.6737690897984105,"v_ms":0.32633170433720216}},{"type":"Feature","geometry":{"type":"Point","coordinates":[-80.2183,40.5317]},"properties":{"site":"KPBZ","name":"Pittsburgh PA","scan_time":"2026-10-07T11:02:36Z","stale":false,"bins":25,"density_birds_km3":0.032857142857142856,"heading_deg":53.55428212923707,"speed_ms":2.6811111111111114,"peak_altitude_m":400.0,"u_ms":1.6062222222222222,"v_ms":1.5415555555555556}},{"type":"Feature","geometry":{"type":"Point","coordinates":[-78.4899,35.6655]},"properties":{"site":"KRAX","name":"Raleigh NC","scan_time":"2026-10-07T11:01:15Z","stale":false,"bins":25,"density_birds_km3":0.23500000000000001,"heading_deg":249.06903911904033,"speed_ms":5.017925531914893,"peak_altitude_m":200.0,"u_ms":-4.332260638297872,"v_ms":-1.7045212765957445}},{"type":"Feature","geometry":{"type":"Point","coordinates":[-82.4017,27.7055]},"properties":{"site":"KTBW","name":"Tampa FL","scan_time":"2026-10-07T10:59:58Z","stale":false,"bins":25,"density_birds_km3":2.9125,"heading_deg":316.37707501700703,"speed_ms":4.5654324962438295,"peak_altitude_m":0.0,"u_ms":-2.8879566430564494,"v_ms":3.1574973170208196}}]}