{"type":"FeatureCollection","frame":"2026-09-12T07","site_count":20,"fresh_count":20,"failures":{},"features":[{"type":"Feature","geometry":{"type":"Point","coordinates":[-77.0073,36.984]},"properties":{"site":"KAKQ","name":"Wakefield VA","scan_time":"2026-09-12T06:59:29Z","stale":false,"bins":25,"density_birds_km3":37.75625,"heading_deg":202.57344293401283,"speed_ms":8.693168767913058,"peak_altitude_m":0.0,"u_ms":-2.7255313861599375,"v_ms":-7.604871191663492}},{"type":"Feature","geometry":{"type":"Point","coordinates":[-71.1369,41.9558]},"properties":{"site":"KBOX","name":"Boston MA","scan_time":"2026-09-12T07:01:23Z","stale":false,"bins":25,"density_birds_km3":4.098125,"heading_deg":213.5003190565088,"speed_ms":6.231032799389778,"peak_altitude_m":0.0,"u_ms":-3.454054919908467,"v_ms":-5.133426392067124}},{"type":"Feature","geometry":{"type":"Point","coordinates":[-78.7369,42.9489]},"properties":{"site":"KBUF","name":"Buffalo NY","scan_time":"2026-09-12T07:03:36Z","stale":false,"bins":25,"density_birds_km3":10.193333333333333,"heading_deg":287.7078981138435,"speed_ms":6.556888816219751,"peak_altitude_m":200.0,"u_ms":-4.94275997383911,"v_ms":1.0960549378678874}},{"type":"Feature","geometry":{"type":"Point","coordinates":[-81.8597,41.4131]},"properties":{"site":"KCLE","name":"Cleveland OH","scan_time":"2026-09-12T06:57:45Z","stale":false,"bins":25,"density_birds_km3":17.968,"heading_deg":300.7359452531642,"speed_ms":9.663806908834552,"peak_altitude_m":200.0,"u_ms":-7.894443990946534,"v_ms":4.598235315943749}},{"type":"Feature","geometry":{"type":"Point","coordinates":[-81.0423,32.6555]},"properties":{"site":"KCLX","name":"Charleston SC","scan_time":"2026-09-12T07:02:05Z","stale":false,"bins":25,"density_birds_km3":5.28875,"heading_deg":121.37791100331775,"speed_ms":4.149306228578182,"peak_altitude_m":0.0,"u_ms":3.486971989126581,"v_ms":-1.50607493204113}},{"type":"Feature","geometry":{"type":"Point","coordinates":[-74.4108,39.947]},"properties":{"site":"KDIX","name":"Philadelphia PA","scan_time":"2026-09-12T07:01:44Z","stale":false,"bins":25,"density_birds_km3":56.161249999999995,"heading_deg":215.9689605481236,"speed_ms":8.110759907849488,"peak_altitude_m":200.0,"u_ms":-4.84170689904622,"v_ms":-6.330742323572947}},{"type":"Feature","geometry":{"type":"Point","coordinates":[-84.5658,33.3636]},"properties":{"site":"KFFC","name":"Atlanta GA","scan_time":"2026-09-12T07:00:20Z","stale":false,"bins":25,"density_birds_km3":5.876666666666667,"heading_deg":1.117984733377951,"speed_ms":3.694167233945995,"peak_altitude_m":400.0,"u_ms":0.6486169729975039,"v_ms":2.774334014068527}},{"type":"Feature","geometry":{"type":"Point","coordinates":[-85.5449,42.8939]},"properties":{"site":"KGRR","name":"Grand Rapids MI","scan_time":"2026-09-12T07:03:44Z","stale":false,"bins":25,"density_birds_km3":8.219333333333333,"heading_deg":331.92858983189967,"speed_ms":9.37150706054212,"peak_altitude_m":200.0,"u_ms":-3.3662384353189414,"v_ms":7.9347549099172205}},{"type":"Feature","geometry":{"type":"Point","coordinates":[-83.8217,39.4203]},"properties":{"site":"KILN","name":"Wilmington OH","scan_time":"2026-09-12T07:01:23Z","stale":false,"bins":25,"density_birds_km3":20.50133333333333,"heading_deg":269.3437722306033,"speed_ms":5.781890801418672,"peak_altitude_m":200.0,"u_ms":-1.887302899163766,"v_ms":-0.2107028275794748}},{"type":"Feature","geometry":{"type":"Point","coordinates":[-81.7019,30.4846]},"properties":{"site":"KJAX","name":"Jacksonville FL","scan_time":"2026-09-12T07:01:59Z","stale":false,"bins":25,"density_birds_km3":21.705625,"heading_deg":172.97998234198647,"speed_ms":5.5884188551025105,"peak_altitude_m":0.0,"u_ms":0.5426626929278967,"v_ms":-5.473065825846579}},{"type":"Feature","geometry":{"type":"Point","coordinates":[-88.0847,41.6045]},"properties":{"site":"KLOT","name":"Chicago IL","scan_time":"2026-09-12T07:01:36Z","stale":false,"bins":25,"density_birds_km3":4.6273333333333335,"heading_deg":357.0626686506572,"speed_ms":8.945930930930931,"peak_altitude_m":200.0,"u_ms":-0.21772972972972968,"v_ms":8.127430930930933}},{"type":"Feature","geometry":{"type":"Point","coordinates":[-78.4292,33.9892]},"properties":{"site":"KLTX","name":"Wilmington NC","scan_time":"2026-09-12T07:01:26Z","stale":false,"bins":25,"density_birds_km3":23.371875,"heading_deg":172.57549208465443,"speed_ms":5.8098376701521675,"peak_altitude_m":0.0,"u_ms":0.6161353729307625,"v_ms":-5.082347230765117}},{"type":"Feature","geometry":{"type":"Point","coordinates":[-77.4778,38.9753]},"properties":{"site":"KLWX","name":"Sterling VA","scan_time":"2026-09-12T06:58:19Z","stale":false,"bins":25,"density_birds_km3":59.686875,"heading_deg":254.0338549395671,"speed_ms":6.588584349689579,"peak_altitude_m":400.0,"u_ms":-6.127436471169099,"v_ms":-1.728620381750759}},{"type":"Feature","geometry":{"type":"Point","coordinates":[-76.8762,34.7759]},"properties":{"site":"KMHX","name":"Morehead City NC","scan_time":"2026-09-12T07:00:29Z","stale":false,"bins":25,"density_birds_km3":12.236875,"heading_deg":87.30300800912786,"speed_ms":2.8734807702129834,"peak_altitude_m":0.0,"u_ms":2.869910618519843,"v_ms":0.06860922416875223}},{"type":"Feature","geometry":{"type":"Point","coordinates":[-80.6542,28.1133]},"properties":{"site":"KMLB","name":"Melbourne FL","scan_time":"2026-09-12T07:00:53Z","stale":false,"bins":25,"density_birds_km3":4.833125,"heading_deg":122.24279158859538,"speed_ms":2.7446320962110438,"peak_altitude_m":0.0,"u_ms":0.4138600801758696,"v_ms":-0.17305444200181047}},{"type":"Feature","geometry":{"type":"Point","coordinates":[-86.5625,36.2472]},"properties":{"site":"KOHX","name":"Nashville TN","scan_time":"2026-09-12T07:00:06Z","stale":false,"bins":25,"density_birds_km3":39.75333333333333,"heading_deg":71.5440121542305,"speed_ms":3.6000332064333267,"peak_altitude_m":400.0,"u_ms":2.9373659583745617,"v_ms":0.2564470793432505}},{"type":"Feature","geometry":{"type":"Point","coordinates":[-72.8639,40.8655]},"properties":{"site":"KOKX","name":"Upton NY","scan_time":"2026-09-12T06:57:38Z","stale":false,"bins":25,"density_birds_km3":15.099375,"heading_deg":239.474188815898,"speed_ms":9.359604674291399,"peak_altitude_m":0.0,"u_ms":-8.055128874523454,"v_ms":-4.699675120172385}},{"type":"Feature","geometry":{"type":"Point","coordinates":[-80.2183,40.5317]},"properties":{"site":"KPBZ","name":"Pittsburgh PA","scan_time":"2026-09-12T06:57:46Z","stale":false,"bins":25,"density_birds_km3":50.93142857142857,"heading_deg":251.86668842471641,"speed_ms":6.949221307451717,"peak_altitude_m":400.0,"u_ms":-5.809690177982861,"v_ms":-2.183739042623319}},{"type":"Feature","geometry":{"type":"Point","coordinates":[-78.4899,35.6655]},"properties":{"site":"KRAX","name":"Raleigh NC","scan_time":"2026-09-12T06:59:04Z","stale":false,"bins":25,"density_birds_km3":33.613125000000004,"heading_deg":178.94974421166378,"speed_ms":5.991053727845864,"peak_altitude_m":400.0,"u_ms":0.21736307675140873,"v_ms":-5.852653660895278}},{"type":"Feature","geometry":{"type":"Point","coordinates":[-82.4017,27.7055]},"properties":{"site":"KTBW","name":"Tampa FL","scan_time":"2026-09-12T06:58:06Z","stale":false,"bins":25,"density_birds_km3":3.904375,"heading_deg":256.6746942066572,"speed_ms":3.965179314761447,"peak_altitude_m":0.0,"u_ms":-3.2211287223823244,"v_ms":-1.244337175792507}}]}