{"type":"FeatureCollection","frame":"2026-09-27T01","site_count":20,"fresh_count":20,"failures":{},"features":[{"type":"Feature","geometry":{"type":"Point","coordinates":[-77.0073,36.984]},"properties":{"site":"KAKQ","name":"Wakefield VA","scan_time":"2026-09-27T01:01:31Z","stale":false,"bins":25,"density_birds_km3":2.67625,"heading_deg":174.13854468735573,"speed_ms":15.696996208017334,"peak_altitude_m":200.0,"u_ms":1.6084398699891658,"v_ms":-15.610755687973997}},{"type":"Feature","geometry":{"type":"Point","coordinates":[-71.1369,41.9558]},"properties":{"site":"KBOX","name":"Boston MA","scan_time":"2026-09-27T01:00:28Z","stale":false,"bins":25,"density_birds_km3":null,"heading_deg":null,"speed_ms":null,"peak_altitude_m":null,"u_ms":null,"v_ms":null}},{"type":"Feature","geometry":{"type":"Point","coordinates":[-78.7369,42.9489]},"properties":{"site":"KBUF","name":"Buffalo NY","scan_time":"2026-09-27T01:02:08Z","stale":false,"bins":25,"density_birds_km3":8.989333333333333,"heading_deg":199.58244608520235,"speed_ms":14.496185108276476,"peak_altitude_m":200.0,"u_ms":-5.287789231681994,"v_ms":-13.225912192227826}},{"type":"Feature","geometry":{"type":"Point","coordinates":[-81.8597,41.4131]},"properties":{"site":"KCLE","name":"Cleveland OH","scan_time":"2026-09-27T00:57:23Z","stale":false,"bins":25,"density_birds_km3":14.459333333333335,"heading_deg":193.48984743881465,"speed_ms":8.252648184879376,"peak_altitude_m":600.0,"u_ms":-2.15061119055307,"v_ms":-7.704093362239956}},{"type":"Feature","geometry":{"type":"Point","coordinates":[-81.0423,32.6555]},"properties":{"site":"KCLX","name":"Charleston SC","scan_time":"2026-09-27T00:59:55Z","stale":false,"bins":25,"density_birds_km3":24.775624999999998,"heading_deg":161.6823527633117,"speed_ms":10.203415415667969,"peak_altitude_m":200.0,"u_ms":2.9103474202094106,"v_ms":-9.679330894411503}},{"type":"Feature","geometry":{"type":"Point","coordinates":[-74.4108,39.947]},"properties":{"site":"KDIX","name":"Philadelphia PA","scan_time":"2026-09-27T00:59:39Z","stale":false,"bins":25,"density_birds_km3":null,"heading_deg":null,"speed_ms":null,"peak_altitude_m":null,"u_ms":null,"v_ms":null}},{"type":"Feature","geometry":{"type":"Point","coordinates":[-84.5658,33.3636]},"properties":{"site":"KFFC","name":"Atlanta GA","scan_time":"2026-09-27T01:00:49Z","stale":false,"bins":25,"density_birds_km3":187.576,"heading_deg":163.8165761369191,"speed_ms":12.009386737464636,"peak_altitude_m":600.0,"u_ms":3.284766636812101,"v_ms":-11.503220667889282}},{"type":"Feature","geometry":{"type":"Point","coordinates":[-85.5449,42.8939]},"properties":{"site":"KGRR","name":"Grand Rapids MI","scan_time":"2026-09-27T00:56:26Z","stale":false,"bins":25,"density_birds_km3":50.26133333333333,"heading_deg":186.1784575216804,"speed_ms":8.115177211831808,"peak_altitude_m":400.0,"u_ms":-0.8859184241941903,"v_ms":-7.975458946809923}},{"type":"Feature","geometry":{"type":"Point","coordinates":[-83.8217,39.4203]},"properties":{"site":"KILN","name":"Wilmington OH","scan_time":"2026-09-27T00:58:53Z","stale":false,"bins":25,"density_birds_km3":65.56933333333333,"heading_deg":171.61944968274346,"speed_ms":12.310191922376704,"peak_altitude_m":200.0,"u_ms":1.7218507745039207,"v_ms":-12.115038801476794}},{"type":"Feature","geometry":{"type":"Point","coordinates":[-81.7019,30.4846]},"properties":{"site":"KJAX","name":"Jacksonville FL","scan_time":"2026-09-27T00:58:28Z","stale":false,"bins":25,"density_birds_km3":137.50125,"heading_deg":169.05976934681107,"speed_ms":11.188454849589542,"peak_altitude_m":800.0,"u_ms":2.524351175919781,"v_ms":-10.639446176783425}},{"type":"Feature","geometry":{"type":"Point","coordinates":[-88.0847,41.6045]},"properties":{"site":"KLOT","name":"Chicago IL","scan_time":"2026-09-27T01:00:01Z","stale":false,"bins":25,"density_birds_km3":23.447333333333333,"heading_deg":160.17582091858822,"speed_ms":6.138505502004607,"peak_altitude_m":1000.0,"u_ms":1.7910168045722086,"v_ms":-4.690218658477637}},{"type":"Feature","geometry":{"type":"Point","coordinates":[-78.4292,33.9892]},"properties":{"site":"KLTX","name":"Wilmington NC","scan_time":"2026-09-27T01:01:21Z","stale":false,"bins":25,"density_birds_km3":35.3275,"heading_deg":150.9730951584056,"speed_ms":10.013002317640606,"peak_altitude_m":0.0,"u_ms":3.8793747677936414,"v_ms":-8.325137023866391}},{"type":"Feature","geometry":{"type":"Point","coordinates":[-77.4778,38.9753]},"properties":{"site":"KLWX","name":"Sterling VA","scan_time":"2026-09-27T01:00:49Z","stale":false,"bins":25,"density_birds_km3":5.265,"heading_deg":161.3249681828717,"speed_ms":16.115255771842463,"peak_altitude_m":800.0,"u_ms":3.764660479855138,"v_ms":-15.270117700316884}},{"type":"Feature","geometry":{"type":"Point","coordinates":[-76.8762,34.7759]},"properties":{"site":"KMHX","name":"Morehead City NC","scan_time":"2026-09-27T00:59:38Z","stale":false,"bins":25,"density_birds_km3":28.414375,"heading_deg":212.0206874976825,"speed_ms":8.199636051577697,"peak_altitude_m":0.0,"u_ms":-2.499309070105179,"v_ms":-6.439328653786911}},{"type":"Feature","geometry":{"type":"Point","coordinates":[-80.6542,28.1133]},"properties":{"site":"KMLB","name":"Melbourne FL","scan_time":"2026-09-27T00:56:59Z","stale":false,"bins":25,"density_birds_km3":99.77812499999999,"heading_deg":163.59640734615363,"speed_ms":13.316627974717642,"peak_altitude_m":0.0,"u_ms":3.8013739296027866,"v_ms":-12.622771976421507}},{"type":"Feature","geometry":{"type":"Point","coordinates":[-86.5625,36.2472]},"properties":{"site":"KOHX","name":"Nashville TN","scan_time":"2026-09-27T00:58:09Z","stale":false,"bins":25,"density_birds_km3":51.52733333333333,"heading_deg":185.3729154070026,"speed_ms":9.440571606008461,"peak_altitude_m":200.0,"u_ms":-0.9265798087746311,"v_ms":-9.32982986376163}},{"type":"Feature","geometry":{"type":"Point","coordinates":[-72.8639,40.8655]},"properties":{"site":"KOKX","name":"Upton NY","scan_time":"2026-09-27T01:03:20Z","stale":false,"bins":25,"density_birds_km3":null,"heading_deg":null,"speed_ms":null,"peak_altitude_m":null,"u_ms":null,"v_ms":null}},{"type":"Feature","geometry":{"type":"Point","coordinates":[-80.2183,40.5317]},"properties":{"site":"KPBZ","name":"Pittsburgh PA","scan_time":"2026-09-27T00:58:49Z","stale":false,"bins":25,"density_birds_km3":36.29714285714286,"heading_deg":193.03354877286046,"speed_ms":18.161664633186394,"peak_altitude_m":800.0,"u_ms":-4.658420772984886,"v_ms":-17.125948126574304}},{"type":"Feature","geometry":{"type":"Point","coordinates":[-78.4899,35.6655]},"properties":{"site":"KRAX","name":"Raleigh NC","scan_time":"2026-09-27T01:03:24Z","stale":false,"bins":25,"density_birds_km3":86.57375,"heading_deg":176.58988775090424,"speed_ms":8.216693069735873,"peak_altitude_m":400.0,"u_ms":0.5716867156699929,"v_ms":-8.183025835054226}},{"type":"Feature","geometry":{"type":"Point","coordinates":[-82.4017,27.7055]},"properties":{"site":"KTBW","name":"Tampa FL","scan_time":"2026-09-27T01:00:16Z","stale":false,"bins":25,"density_birds_km3":53.285624999999996,"heading_deg":174.81271026597838,"speed_ms":11.650791850426948,"peak_altitude_m":200.0,"u_ms":1.129284859716618,"v_ms":-11.372903138782021}}]}