{"type":"FeatureCollection","frame":"2026-08-26T06","site_count":20,"fresh_count":20,"failures":{},"features":[{"type":"Feature","geometry":{"type":"Point","coordinates":[-77.0073,36.984]},"properties":{"site":"KAKQ","name":"Wakefield VA","scan_time":"2026-08-26T05:59:18Z","stale":false,"bins":25,"density_birds_km3":4.2524999999999995,"heading_deg":244.83123728838683,"speed_ms":4.572150521828605,"peak_altitude_m":200.0,"u_ms":-2.6001469939732473,"v_ms":-1.2041834484786123}},{"type":"Feature","geometry":{"type":"Point","coordinates":[-71.1369,41.9558]},"properties":{"site":"KBOX","name":"Boston MA","scan_time":"2026-08-26T05:59:44Z","stale":false,"bins":25,"density_birds_km3":9.9125,"heading_deg":192.06157956386986,"speed_ms":10.436618537200506,"peak_altitude_m":400.0,"u_ms":-2.207927490542245,"v_ms":-10.09580580075662}},{"type":"Feature","geometry":{"type":"Point","coordinates":[-78.7369,42.9489]},"properties":{"site":"KBUF","name":"Buffalo NY","scan_time":"2026-08-26T06:02:19Z","stale":false,"bins":25,"density_birds_km3":9.436666666666667,"heading_deg":148.44414566804244,"speed_ms":5.252892970681738,"peak_altitude_m":400.0,"u_ms":1.8386485340868948,"v_ms":-4.503395266690215}},{"type":"Feature","geometry":{"type":"Point","coordinates":[-81.8597,41.4131]},"properties":{"site":"KCLE","name":"Cleveland OH","scan_time":"2026-08-26T05:59:00Z","stale":false,"bins":25,"density_birds_km3":8.522,"heading_deg":263.4485885615963,"speed_ms":4.994253637928337,"peak_altitude_m":400.0,"u_ms":-4.805746362071663,"v_ms":-0.5335166640588327}},{"type":"Feature","geometry":{"type":"Point","coordinates":[-81.0423,32.6555]},"properties":{"site":"KCLX","name":"Charleston SC","scan_time":"2026-08-26T06:01:52Z","stale":false,"bins":25,"density_birds_km3":8.490625,"heading_deg":219.87845553060217,"speed_ms":6.514670544062431,"peak_altitude_m":0.0,"u_ms":-3.779034086726055,"v_ms":-4.906146653905617}},{"type":"Feature","geometry":{"type":"Point","coordinates":[-74.4108,39.947]},"properties":{"site":"KDIX","name":"Philadelphia PA","scan_time":"2026-08-26T05:57:23Z","stale":false,"bins":25,"density_birds_km3":19.48375,"heading_deg":194.0893742964341,"speed_ms":10.437220348781192,"peak_altitude_m":400.0,"u_ms":-2.58444808427273,"v_ms":-10.030741882647654}},{"type":"Feature","geometry":{"type":"Point","coordinates":[-84.5658,33.3636]},"properties":{"site":"KFFC","name":"Atlanta GA","scan_time":"2026-08-26T06:00:07Z","stale":false,"bins":25,"density_birds_km3":23.994666666666667,"heading_deg":324.03892575164696,"speed_ms":3.521432542881766,"peak_altitude_m":200.0,"u_ms":-1.3002368574685164,"v_ms":0.8299299435656502}},{"type":"Feature","geometry":{"type":"Point","coordinates":[-85.5449,42.8939]},"properties":{"site":"KGRR","name":"Grand Rapids MI","scan_time":"2026-08-26T05:56:49Z","stale":false,"bins":25,"density_birds_km3":1.0706666666666667,"heading_deg":26.052537822638808,"speed_ms":7.890006226650063,"peak_altitude_m":200.0,"u_ms":3.42920298879203,"v_ms":7.0631569115815696}},{"type":"Feature","geometry":{"type":"Point","coordinates":[-83.8217,39.4203]},"properties":{"site":"KILN","name":"Wilmington OH","scan_time":"2026-08-26T06:00:04Z","stale":false,"bins":25,"density_birds_km3":2.478,"heading_deg":272.5387272247987,"speed_ms":5.364293785310735,"peak_altitude_m":200.0,"u_ms":-4.933852569276298,"v_ms":0.6525854183481301}},{"type":"Feature","geometry":{"type":"Point","coordinates":[-81.7019,30.4846]},"properties":{"site":"KJAX","name":"Jacksonville FL","scan_time":"2026-08-26T06:01:45Z","stale":false,"bins":25,"density_birds_km3":39.711875,"heading_deg":192.06987722948077,"speed_ms":6.045006531627241,"peak_altitude_m":200.0,"u_ms":-1.1180211530289437,"v_ms":-5.847934589294426}},{"type":"Feature","geometry":{"type":"Point","coordinates":[-88.0847,41.6045]},"properties":{"site":"KLOT","name":"Chicago IL","scan_time":"2026-08-26T06:02:03Z","stale":false,"bins":25,"density_birds_km3":0.506,"heading_deg":16.76001939566484,"speed_ms":9.59397877984085,"peak_altitude_m":200.0,"u_ms":2.4145888594164457,"v_ms":8.404376657824933}},{"type":"Feature","geometry":{"type":"Point","coordinates":[-78.4292,33.9892]},"properties":{"site":"KLTX","name":"Wilmington NC","scan_time":"2026-08-26T06:00:57Z","stale":false,"bins":25,"density_birds_km3":14.68125,"heading_deg":241.2834594928625,"speed_ms":8.122716165013411,"peak_altitude_m":0.0,"u_ms":-7.007053940142194,"v_ms":-3.827810890203925}},{"type":"Feature","geometry":{"type":"Point","coordinates":[-77.4778,38.9753]},"properties":{"site":"KLWX","name":"Sterling VA","scan_time":"2026-08-26T05:58:35Z","stale":false,"bins":25,"density_birds_km3":10.0175,"heading_deg":208.90987066267354,"speed_ms":5.675883023676973,"peak_altitude_m":800.0,"u_ms":-2.9175202897578645,"v_ms":-4.740562076598028}},{"type":"Feature","geometry":{"type":"Point","coordinates":[-76.8762,34.7759]},"properties":{"site":"KMHX","name":"Morehead City NC","scan_time":"2026-08-26T05:57:47Z","stale":false,"bins":25,"density_birds_km3":5.5625,"heading_deg":220.51811847053426,"speed_ms":3.3364303370786517,"peak_altitude_m":0.0,"u_ms":-2.1433955056179776,"v_ms":-2.503144943820225}},{"type":"Feature","geometry":{"type":"Point","coordinates":[-80.6542,28.1133]},"properties":{"site":"KMLB","name":"Melbourne FL","scan_time":"2026-08-26T06:01:20Z","stale":false,"bins":25,"density_birds_km3":18.01375,"heading_deg":null,"speed_ms":null,"peak_altitude_m":0.0,"u_ms":null,"v_ms":null}},{"type":"Feature","geometry":{"type":"Point","coordinates":[-86.5625,36.2472]},"properties":{"site":"KOHX","name":"Nashville TN","scan_time":"2026-08-26T05:58:07Z","stale":false,"bins":25,"density_birds_km3":17.360666666666663,"heading_deg":257.366638758126,"speed_ms":5.719271149341424,"peak_altitude_m":200.0,"u_ms":-3.9217606850735383,"v_ms":-0.7285657232825161}},{"type":"Feature","geometry":{"type":"Point","coordinates":[-72.8639,40.8655]},"properties":{"site":"KOKX","name":"Upton NY","scan_time":"2026-08-26T06:02:48Z","stale":false,"bins":25,"density_birds_km3":11.621875,"heading_deg":197.41370783249457,"speed_ms":8.421259974121199,"peak_altitude_m":200.0,"u_ms":-2.577806771619582,"v_ms":-7.998766443821437}},{"type":"Feature","geometry":{"type":"Point","coordinates":[-80.2183,40.5317]},"properties":{"site":"KPBZ","name":"Pittsburgh PA","scan_time":"2026-08-26T06:02:28Z","stale":false,"bins":25,"density_birds_km3":32.91285714285714,"heading_deg":244.50966855319638,"speed_ms":7.252245141678428,"peak_altitude_m":600.0,"u_ms":-6.569671262620779,"v_ms":-2.785737704918033}},{"type":"Feature","geometry":{"type":"Point","coordinates":[-78.4899,35.6655]},"properties":{"site":"KRAX","name":"Raleigh NC","scan_time":"2026-08-26T05:57:09Z","stale":false,"bins":25,"density_birds_km3":27.4625,"heading_deg":260.84367674867224,"speed_ms":4.908127860118844,"peak_altitude_m":0.0,"u_ms":-4.656097716458348,"v_ms":-0.6977594881952508}},{"type":"Feature","geometry":{"type":"Point","coordinates":[-82.4017,27.7055]},"properties":{"site":"KTBW","name":"Tampa FL","scan_time":"2026-08-26T05:58:45Z","stale":false,"bins":25,"density_birds_km3":6.68625,"heading_deg":216.62881874501184,"speed_ms":5.560694652206433,"peak_altitude_m":200.0,"u_ms":-2.271976439790576,"v_ms":-4.468653702318624}}]}