{"type":"FeatureCollection","frame":"2026-08-27T00","site_count":20,"fresh_count":19,"failures":{"KDIX":"RuntimeError('no scan within 20 min of 2026-08-27T00:00Z')"},"features":[{"type":"Feature","geometry":{"type":"Point","coordinates":[-77.0073,36.984]},"properties":{"site":"KAKQ","name":"Wakefield VA","scan_time":"2026-08-26T23:59:31Z","stale":false,"bins":25,"density_birds_km3":9.711875,"heading_deg":313.6307380136979,"speed_ms":7.3344774102201065,"peak_altitude_m":0.0,"u_ms":-5.271367614879649,"v_ms":5.0687437250611405}},{"type":"Feature","geometry":{"type":"Point","coordinates":[-71.1369,41.9558]},"properties":{"site":"KBOX","name":"Boston MA","scan_time":"2026-08-27T00:01:18Z","stale":false,"bins":25,"density_birds_km3":1.5462500000000001,"heading_deg":18.510233146346106,"speed_ms":5.803835893290218,"peak_altitude_m":0.0,"u_ms":1.789009700889248,"v_ms":5.384797898140662}},{"type":"Feature","geometry":{"type":"Point","coordinates":[-78.7369,42.9489]},"properties":{"site":"KBUF","name":"Buffalo NY","scan_time":"2026-08-26T23:59:26Z","stale":false,"bins":25,"density_birds_km3":1.0826666666666667,"heading_deg":52.33691577473701,"speed_ms":3.9354741379310347,"peak_altitude_m":200.0,"u_ms":2.8950862068965524,"v_ms":2.3309975369458127}},{"type":"Feature","geometry":{"type":"Point","coordinates":[-81.8597,41.4131]},"properties":{"site":"KCLE","name":"Cleveland OH","scan_time":"2026-08-27T00:01:15Z","stale":false,"bins":25,"density_birds_km3":1.34,"heading_deg":13.762568282347916,"speed_ms":8.297380478087648,"peak_altitude_m":200.0,"u_ms":1.9604880478087647,"v_ms":8.047156374501991}},{"type":"Feature","geometry":{"type":"Point","coordinates":[-81.0423,32.6555]},"properties":{"site":"KCLX","name":"Charleston SC","scan_time":"2026-08-27T00:02:11Z","stale":false,"bins":25,"density_birds_km3":4.5325,"heading_deg":295.71244139541716,"speed_ms":4.700398510755654,"peak_altitude_m":0.0,"u_ms":-4.206196911196912,"v_ms":1.9911486486486487}},{"type":"Feature","geometry":{"type":"Point","coordinates":[-84.5658,33.3636]},"properties":{"site":"KFFC","name":"Atlanta GA","scan_time":"2026-08-27T00:00:00Z","stale":false,"bins":25,"density_birds_km3":0.2653333333333333,"heading_deg":285.7212788141149,"speed_ms":4.587416879795396,"peak_altitude_m":200.0,"u_ms":-2.9539897698209714,"v_ms":0.739335038363171}},{"type":"Feature","geometry":{"type":"Point","coordinates":[-85.5449,42.8939]},"properties":{"site":"KGRR","name":"Grand Rapids MI","scan_time":"2026-08-27T00:01:44Z","stale":false,"bins":25,"density_birds_km3":0.5113333333333333,"heading_deg":104.99989712592223,"speed_ms":5.07997375328084,"peak_altitude_m":200.0,"u_ms":4.842414698162728,"v_ms":-1.4032414698162727}},{"type":"Feature","geometry":{"type":"Point","coordinates":[-83.8217,39.4203]},"properties":{"site":"KILN","name":"Wilmington OH","scan_time":"2026-08-27T00:00:15Z","stale":false,"bins":25,"density_birds_km3":0.3653333333333333,"heading_deg":7.689657717462083,"speed_ms":7.391556776556776,"peak_altitude_m":200.0,"u_ms":0.9882967032967034,"v_ms":6.9143406593406604}},{"type":"Feature","geometry":{"type":"Point","coordinates":[-81.7019,30.4846]},"properties":{"site":"KJAX","name":"Jacksonville FL","scan_time":"2026-08-26T23:57:48Z","stale":false,"bins":25,"density_birds_km3":3.2737499999999997,"heading_deg":270.64110255346185,"speed_ms":6.186257399274393,"peak_altitude_m":0.0,"u_ms":-6.170570937559671,"v_ms":0.0863433263318694}},{"type":"Feature","geometry":{"type":"Point","coordinates":[-88.0847,41.6045]},"properties":{"site":"KLOT","name":"Chicago IL","scan_time":"2026-08-26T23:58:47Z","stale":false,"bins":25,"density_birds_km3":2.5733333333333333,"heading_deg":131.8770210121183,"speed_ms":9.695303108808291,"peak_altitude_m":400.0,"u_ms":7.126670984455958,"v_ms":-6.518720207253886}},{"type":"Feature","geometry":{"type":"Point","coordinates":[-78.4292,33.9892]},"properties":{"site":"KLTX","name":"Wilmington NC","scan_time":"2026-08-26T23:59:04Z","stale":false,"bins":25,"density_birds_km3":1.094375,"heading_deg":339.9143046967255,"speed_ms":3.75569960022844,"peak_altitude_m":0.0,"u_ms":-1.2466876070816677,"v_ms":3.5081382067390057}},{"type":"Feature","geometry":{"type":"Point","coordinates":[-77.4778,38.9753]},"properties":{"site":"KLWX","name":"Sterling VA","scan_time":"2026-08-26T23:57:52Z","stale":false,"bins":25,"density_birds_km3":1.040625,"heading_deg":338.48358555015227,"speed_ms":7.848323317307693,"peak_altitude_m":200.0,"u_ms":-2.856274038461539,"v_ms":7.215156250000001}},{"type":"Feature","geometry":{"type":"Point","coordinates":[-76.8762,34.7759]},"properties":{"site":"KMHX","name":"Morehead City NC","scan_time":"2026-08-27T00:00:13Z","stale":false,"bins":25,"density_birds_km3":2.370625,"heading_deg":347.0083521447462,"speed_ms":5.5578354864223565,"peak_altitude_m":0.0,"u_ms":-1.2418745056683365,"v_ms":5.39947007645663}},{"type":"Feature","geometry":{"type":"Point","coordinates":[-80.6542,28.1133]},"properties":{"site":"KMLB","name":"Melbourne FL","scan_time":"2026-08-27T00:02:04Z","stale":false,"bins":25,"density_birds_km3":8.2225,"heading_deg":1.4808284364913227,"speed_ms":3.6162152909851657,"peak_altitude_m":0.0,"u_ms":0.04330239634842144,"v_ms":3.5872012171928493}},{"type":"Feature","geometry":{"type":"Point","coordinates":[-86.5625,36.2472]},"properties":{"site":"KOHX","name":"Nashville TN","scan_time":"2026-08-27T00:01:46Z","stale":false,"bins":25,"density_birds_km3":3.5686666666666667,"heading_deg":277.0358976893628,"speed_ms":4.155969730941704,"peak_altitude_m":400.0,"u_ms":-3.8798075485799703,"v_ms":0.5894618834080716}},{"type":"Feature","geometry":{"type":"Point","coordinates":[-72.8639,40.8655]},"properties":{"site":"KOKX","name":"Upton NY","scan_time":"2026-08-27T00:00:06Z","stale":false,"bins":25,"density_birds_km3":4.1625,"heading_deg":41.1318588965537,"speed_ms":5.309819819819819,"peak_altitude_m":0.0,"u_ms":3.4444699699699703,"v_ms":4.024873873873874}},{"type":"Feature","geometry":{"type":"Point","coordinates":[-80.2183,40.5317]},"properties":{"site":"KPBZ","name":"Pittsburgh PA","scan_time":"2026-08-27T00:01:09Z","stale":false,"bins":25,"density_birds_km3":0.14214285714285715,"heading_deg":41.21976628844452,"speed_ms":6.036884422110553,"peak_altitude_m":400.0,"u_ms":3.97,"v_ms":4.551407035175879}},{"type":"Feature","geometry":{"type":"Point","coordinates":[-78.4899,35.6655]},"properties":{"site":"KRAX","name":"Raleigh NC","scan_time":"2026-08-27T00:01:04Z","stale":false,"bins":25,"density_birds_km3":2.8043750000000003,"heading_deg":343.12989998566746,"speed_ms":5.161476031215162,"peak_altitude_m":0.0,"u_ms":-1.4624682274247491,"v_ms":4.94659977703456}},{"type":"Feature","geometry":{"type":"Point","coordinates":[-82.4017,27.7055]},"properties":{"site":"KTBW","name":"Tampa FL","scan_time":"2026-08-26T23:58:03Z","stale":false,"bins":25,"density_birds_km3":0.99875,"heading_deg":212.87012848544396,"speed_ms":3.8336107634543177,"peak_altitude_m":0.0,"u_ms":-2.046138923654568,"v_ms":-3.0076032540675843}}]}