{"type":"FeatureCollection","frame":"2026-09-19T10","site_count":20,"fresh_count":20,"failures":{},"features":[{"type":"Feature","geometry":{"type":"Point","coordinates":[-77.0073,36.984]},"properties":{"site":"KAKQ","name":"Wakefield VA","scan_time":"2026-09-19T10:00:01Z","stale":false,"bins":25,"density_birds_km3":24.340625,"heading_deg":209.79011902254874,"speed_ms":10.192868991372228,"peak_altitude_m":0.0,"u_ms":-4.896152937551356,"v_ms":-8.81246096959737}},{"type":"Feature","geometry":{"type":"Point","coordinates":[-71.1369,41.9558]},"properties":{"site":"KBOX","name":"Boston MA","scan_time":"2026-09-19T09:58:07Z","stale":false,"bins":25,"density_birds_km3":0.495,"heading_deg":210.9384209024229,"speed_ms":8.540354879594425,"peak_altitude_m":0.0,"u_ms":-4.432902408111533,"v_ms":-7.1466666666666665}},{"type":"Feature","geometry":{"type":"Point","coordinates":[-78.7369,42.9489]},"properties":{"site":"KBUF","name":"Buffalo NY","scan_time":"2026-09-19T10:03:22Z","stale":false,"bins":25,"density_birds_km3":5.648,"heading_deg":259.76593569533827,"speed_ms":10.400937204910294,"peak_altitude_m":200.0,"u_ms":-10.223189329556185,"v_ms":-1.7243602455146363}},{"type":"Feature","geometry":{"type":"Point","coordinates":[-81.8597,41.4131]},"properties":{"site":"KCLE","name":"Cleveland OH","scan_time":"2026-09-19T10:01:28Z","stale":false,"bins":25,"density_birds_km3":28.956,"heading_deg":244.01395186260513,"speed_ms":9.218531416989128,"peak_altitude_m":200.0,"u_ms":-8.100988114980654,"v_ms":-3.8068675142804502}},{"type":"Feature","geometry":{"type":"Point","coordinates":[-81.0423,32.6555]},"properties":{"site":"KCLX","name":"Charleston SC","scan_time":"2026-09-19T09:57:24Z","stale":false,"bins":25,"density_birds_km3":23.389375,"heading_deg":181.3537317001136,"speed_ms":7.509871736632552,"peak_altitude_m":0.0,"u_ms":-0.4549525692755791,"v_ms":-7.432893140581994}},{"type":"Feature","geometry":{"type":"Point","coordinates":[-74.4108,39.947]},"properties":{"site":"KDIX","name":"Philadelphia PA","scan_time":"2026-09-19T09:58:50Z","stale":false,"bins":25,"density_birds_km3":3.48375,"heading_deg":252.83071288988583,"speed_ms":8.554842880229844,"peak_altitude_m":200.0,"u_ms":-7.592433111869276,"v_ms":-2.8344747710540488}},{"type":"Feature","geometry":{"type":"Point","coordinates":[-84.5658,33.3636]},"properties":{"site":"KFFC","name":"Atlanta GA","scan_time":"2026-09-19T10:01:40Z","stale":false,"bins":25,"density_birds_km3":105.21666666666667,"heading_deg":170.22173107758852,"speed_ms":6.638975637573261,"peak_altitude_m":400.0,"u_ms":0.9113727229526373,"v_ms":-6.376059623000159}},{"type":"Feature","geometry":{"type":"Point","coordinates":[-85.5449,42.8939]},"properties":{"site":"KGRR","name":"Grand Rapids MI","scan_time":"2026-09-19T10:00:38Z","stale":false,"bins":25,"density_birds_km3":null,"heading_deg":null,"speed_ms":null,"peak_altitude_m":null,"u_ms":null,"v_ms":null}},{"type":"Feature","geometry":{"type":"Point","coordinates":[-83.8217,39.4203]},"properties":{"site":"KILN","name":"Wilmington OH","scan_time":"2026-09-19T09:59:54Z","stale":false,"bins":25,"density_birds_km3":39.63866666666667,"heading_deg":250.22427495223678,"speed_ms":9.886017542080713,"peak_altitude_m":200.0,"u_ms":-8.725968025417428,"v_ms":-3.5628946123166365}},{"type":"Feature","geometry":{"type":"Point","coordinates":[-81.7019,30.4846]},"properties":{"site":"KJAX","name":"Jacksonville FL","scan_time":"2026-09-19T10:01:56Z","stale":false,"bins":25,"density_birds_km3":14.212499999999999,"heading_deg":201.55625957709475,"speed_ms":9.513098108227013,"peak_altitude_m":0.0,"u_ms":-3.538471623405192,"v_ms":-8.8216110866696}},{"type":"Feature","geometry":{"type":"Point","coordinates":[-88.0847,41.6045]},"properties":{"site":"KLOT","name":"Chicago IL","scan_time":"2026-09-19T10:01:08Z","stale":false,"bins":25,"density_birds_km3":2.3126666666666664,"heading_deg":359.0,"speed_ms":14.46,"peak_altitude_m":200.0,"u_ms":-0.24,"v_ms":14.46}},{"type":"Feature","geometry":{"type":"Point","coordinates":[-78.4292,33.9892]},"properties":{"site":"KLTX","name":"Wilmington NC","scan_time":"2026-09-19T10:00:13Z","stale":false,"bins":25,"density_birds_km3":37.2625,"heading_deg":186.95821883618157,"speed_ms":7.372869531669352,"peak_altitude_m":0.0,"u_ms":-0.7939229401502952,"v_ms":-7.297998859366614}},{"type":"Feature","geometry":{"type":"Point","coordinates":[-77.4778,38.9753]},"properties":{"site":"KLWX","name":"Sterling VA","scan_time":"2026-09-19T10:02:55Z","stale":false,"bins":25,"density_birds_km3":69.038,"heading_deg":237.41592503358277,"speed_ms":12.923204352966257,"peak_altitude_m":400.0,"u_ms":-10.722328333042618,"v_ms":-6.593758454948931}},{"type":"Feature","geometry":{"type":"Point","coordinates":[-76.8762,34.7759]},"properties":{"site":"KMHX","name":"Morehead City NC","scan_time":"2026-09-19T09:59:04Z","stale":false,"bins":25,"density_birds_km3":1.9200000000000002,"heading_deg":239.572133235059,"speed_ms":4.332073567708333,"peak_altitude_m":0.0,"u_ms":-3.7422591145833333,"v_ms":-2.107724609375}},{"type":"Feature","geometry":{"type":"Point","coordinates":[-80.6542,28.1133]},"properties":{"site":"KMLB","name":"Melbourne FL","scan_time":"2026-09-19T09:57:50Z","stale":false,"bins":25,"density_birds_km3":2.531875,"heading_deg":184.4132125161363,"speed_ms":5.243326747345024,"peak_altitude_m":0.0,"u_ms":-0.3820276611509015,"v_ms":-5.217572240059274}},{"type":"Feature","geometry":{"type":"Point","coordinates":[-86.5625,36.2472]},"properties":{"site":"KOHX","name":"Nashville TN","scan_time":"2026-09-19T10:00:47Z","stale":false,"bins":25,"density_birds_km3":76.87933333333334,"heading_deg":19.81205775161945,"speed_ms":4.640144035241374,"peak_altitude_m":200.0,"u_ms":1.4202413305699841,"v_ms":1.7930618545079304}},{"type":"Feature","geometry":{"type":"Point","coordinates":[-72.8639,40.8655]},"properties":{"site":"KOKX","name":"Upton NY","scan_time":"2026-09-19T10:04:03Z","stale":false,"bins":25,"density_birds_km3":0.7075,"heading_deg":235.44008984514446,"speed_ms":10.063188277087033,"peak_altitude_m":0.0,"u_ms":-8.23190053285968,"v_ms":-5.5626554174067495}},{"type":"Feature","geometry":{"type":"Point","coordinates":[-80.2183,40.5317]},"properties":{"site":"KPBZ","name":"Pittsburgh PA","scan_time":"2026-09-19T10:02:00Z","stale":false,"bins":25,"density_birds_km3":27.83857142857143,"heading_deg":235.8298381706586,"speed_ms":7.382607379278493,"peak_altitude_m":400.0,"u_ms":-5.367263816903576,"v_ms":-4.161966439164571}},{"type":"Feature","geometry":{"type":"Point","coordinates":[-78.4899,35.6655]},"properties":{"site":"KRAX","name":"Raleigh NC","scan_time":"2026-09-19T09:58:30Z","stale":false,"bins":25,"density_birds_km3":23.795,"heading_deg":216.0656931546974,"speed_ms":11.042471913068646,"peak_altitude_m":200.0,"u_ms":-6.444301839134897,"v_ms":-8.72971136895835}},{"type":"Feature","geometry":{"type":"Point","coordinates":[-82.4017,27.7055]},"properties":{"site":"KTBW","name":"Tampa FL","scan_time":"2026-09-19T09:59:14Z","stale":false,"bins":25,"density_birds_km3":9.18125,"heading_deg":204.8274642177153,"speed_ms":6.660389486585864,"peak_altitude_m":0.0,"u_ms":-2.701875255345227,"v_ms":-6.020002723682419}}]}