{"type":"FeatureCollection","frame":"2026-10-02T05","site_count":20,"fresh_count":20,"failures":{},"features":[{"type":"Feature","geometry":{"type":"Point","coordinates":[-77.0073,36.984]},"properties":{"site":"KAKQ","name":"Wakefield VA","scan_time":"2026-10-02T04:59:13Z","stale":false,"bins":25,"density_birds_km3":4.15375,"heading_deg":84.7797880484952,"speed_ms":11.343280168522421,"peak_altitude_m":0.0,"u_ms":9.999941318086067,"v_ms":0.7780123382485704}},{"type":"Feature","geometry":{"type":"Point","coordinates":[-71.1369,41.9558]},"properties":{"site":"KBOX","name":"Boston MA","scan_time":"2026-10-02T04:59:24Z","stale":false,"bins":25,"density_birds_km3":1.9749999999999999,"heading_deg":63.478408557137634,"speed_ms":11.74360759493671,"peak_altitude_m":0.0,"u_ms":10.69525,"v_ms":4.571392405063291}},{"type":"Feature","geometry":{"type":"Point","coordinates":[-78.7369,42.9489]},"properties":{"site":"KBUF","name":"Buffalo NY","scan_time":"2026-10-02T05:01:39Z","stale":false,"bins":25,"density_birds_km3":3.3673333333333333,"heading_deg":76.9697950108704,"speed_ms":10.991162884927068,"peak_altitude_m":600.0,"u_ms":10.66149513776337,"v_ms":2.368670988654781}},{"type":"Feature","geometry":{"type":"Point","coordinates":[-81.8597,41.4131]},"properties":{"site":"KCLE","name":"Cleveland OH","scan_time":"2026-10-02T04:59:49Z","stale":false,"bins":25,"density_birds_km3":10.262666666666666,"heading_deg":71.36314473246217,"speed_ms":11.567576978043395,"peak_altitude_m":200.0,"u_ms":10.750680135117578,"v_ms":4.029630375470963}},{"type":"Feature","geometry":{"type":"Point","coordinates":[-81.0423,32.6555]},"properties":{"site":"KCLX","name":"Charleston SC","scan_time":"2026-10-02T05:02:09Z","stale":false,"bins":25,"density_birds_km3":13.2325,"heading_deg":265.41440042217056,"speed_ms":5.8305702003023425,"peak_altitude_m":0.0,"u_ms":-5.68198223733938,"v_ms":-0.37262140967498114}},{"type":"Feature","geometry":{"type":"Point","coordinates":[-74.4108,39.947]},"properties":{"site":"KDIX","name":"Philadelphia PA","scan_time":"2026-10-02T05:00:32Z","stale":false,"bins":25,"density_birds_km3":2.961875,"heading_deg":45.97305668238185,"speed_ms":11.062329953527671,"peak_altitude_m":0.0,"u_ms":8.02901774397972,"v_ms":7.073897338403042}},{"type":"Feature","geometry":{"type":"Point","coordinates":[-84.5658,33.3636]},"properties":{"site":"KFFC","name":"Atlanta GA","scan_time":"2026-10-02T04:57:23Z","stale":false,"bins":25,"density_birds_km3":3.901333333333333,"heading_deg":337.72991099215704,"speed_ms":8.17670654588959,"peak_altitude_m":400.0,"u_ms":-2.7568501110921213,"v_ms":7.5744624850452915}},{"type":"Feature","geometry":{"type":"Point","coordinates":[-85.5449,42.8939]},"properties":{"site":"KGRR","name":"Grand Rapids MI","scan_time":"2026-10-02T05:00:54Z","stale":false,"bins":25,"density_birds_km3":210.5633333333333,"heading_deg":193.70268000973473,"speed_ms":10.623668546131642,"peak_altitude_m":200.0,"u_ms":-2.5203294796823354,"v_ms":-10.31970985447856}},{"type":"Feature","geometry":{"type":"Point","coordinates":[-83.8217,39.4203]},"properties":{"site":"KILN","name":"Wilmington OH","scan_time":"2026-10-02T05:00:26Z","stale":false,"bins":25,"density_birds_km3":3.062,"heading_deg":43.890717145134495,"speed_ms":15.973743187268369,"peak_altitude_m":200.0,"u_ms":11.345897100501416,"v_ms":11.035498146936996}},{"type":"Feature","geometry":{"type":"Point","coordinates":[-81.7019,30.4846]},"properties":{"site":"KJAX","name":"Jacksonville FL","scan_time":"2026-10-02T04:59:28Z","stale":false,"bins":25,"density_birds_km3":11.295625,"heading_deg":220.18469070869432,"speed_ms":4.23106215752477,"peak_altitude_m":0.0,"u_ms":-2.433374107488792,"v_ms":-2.673025958930647}},{"type":"Feature","geometry":{"type":"Point","coordinates":[-88.0847,41.6045]},"properties":{"site":"KLOT","name":"Chicago IL","scan_time":"2026-10-02T04:57:05Z","stale":false,"bins":25,"density_birds_km3":325.495,"heading_deg":181.04449798264798,"speed_ms":14.641579044061361,"peak_altitude_m":400.0,"u_ms":-0.3229792706451514,"v_ms":-14.6024529226247}},{"type":"Feature","geometry":{"type":"Point","coordinates":[-78.4292,33.9892]},"properties":{"site":"KLTX","name":"Wilmington NC","scan_time":"2026-10-02T04:59:04Z","stale":false,"bins":25,"density_birds_km3":5.728750000000001,"heading_deg":298.6005927727272,"speed_ms":3.879254155730534,"peak_altitude_m":0.0,"u_ms":-2.7388856080489945,"v_ms":1.6570822397200353}},{"type":"Feature","geometry":{"type":"Point","coordinates":[-77.4778,38.9753]},"properties":{"site":"KLWX","name":"Sterling VA","scan_time":"2026-10-02T04:57:42Z","stale":false,"bins":25,"density_birds_km3":10.6275,"heading_deg":32.69529773379182,"speed_ms":8.026566102093627,"peak_altitude_m":0.0,"u_ms":5.0556433780287,"v_ms":4.688306868972007}},{"type":"Feature","geometry":{"type":"Point","coordinates":[-76.8762,34.7759]},"properties":{"site":"KMHX","name":"Morehead City NC","scan_time":"2026-10-02T05:00:12Z","stale":false,"bins":25,"density_birds_km3":1.443125,"heading_deg":30.28084500556319,"speed_ms":5.451399480069325,"peak_altitude_m":0.0,"u_ms":2.259575389948007,"v_ms":4.264766031195841}},{"type":"Feature","geometry":{"type":"Point","coordinates":[-80.6542,28.1133]},"properties":{"site":"KMLB","name":"Melbourne FL","scan_time":"2026-10-02T05:00:11Z","stale":false,"bins":25,"density_birds_km3":1.045625,"heading_deg":249.55565005398987,"speed_ms":6.1098892733564005,"peak_altitude_m":200.0,"u_ms":-5.700802768166089,"v_ms":-2.067100346020761}},{"type":"Feature","geometry":{"type":"Point","coordinates":[-86.5625,36.2472]},"properties":{"site":"KOHX","name":"Nashville TN","scan_time":"2026-10-02T05:01:11Z","stale":false,"bins":25,"density_birds_km3":4.761333333333334,"heading_deg":21.601270001945228,"speed_ms":13.99619887955182,"peak_altitude_m":200.0,"u_ms":5.355288515406162,"v_ms":12.40564425770308}},{"type":"Feature","geometry":{"type":"Point","coordinates":[-72.8639,40.8655]},"properties":{"site":"KOKX","name":"Upton NY","scan_time":"2026-10-02T05:03:00Z","stale":false,"bins":25,"density_birds_km3":0.804375,"heading_deg":64.87185979719433,"speed_ms":13.311655011655013,"peak_altitude_m":0.0,"u_ms":12.053014763014763,"v_ms":5.453372183372184}},{"type":"Feature","geometry":{"type":"Point","coordinates":[-80.2183,40.5317]},"properties":{"site":"KPBZ","name":"Pittsburgh PA","scan_time":"2026-10-02T04:57:03Z","stale":false,"bins":25,"density_birds_km3":2.592142857142857,"heading_deg":55.30353078195921,"speed_ms":16.40828602920915,"peak_altitude_m":400.0,"u_ms":13.57746486635437,"v_ms":9.121895839074126}},{"type":"Feature","geometry":{"type":"Point","coordinates":[-78.4899,35.6655]},"properties":{"site":"KRAX","name":"Raleigh NC","scan_time":"2026-10-02T05:02:17Z","stale":false,"bins":25,"density_birds_km3":3.60125,"heading_deg":44.92074960414944,"speed_ms":8.588140302135788,"peak_altitude_m":0.0,"u_ms":5.633698558777566,"v_ms":5.860451467268623}},{"type":"Feature","geometry":{"type":"Point","coordinates":[-82.4017,27.7055]},"properties":{"site":"KTBW","name":"Tampa FL","scan_time":"2026-10-02T05:01:40Z","stale":false,"bins":25,"density_birds_km3":3.8762499999999998,"heading_deg":265.8978373565306,"speed_ms":7.058766526926798,"peak_altitude_m":0.0,"u_ms":-6.819903257013868,"v_ms":-0.16707029990325703}}]}