{"type":"FeatureCollection","frame":"2026-09-09T02","site_count":20,"fresh_count":20,"failures":{},"features":[{"type":"Feature","geometry":{"type":"Point","coordinates":[-77.0073,36.984]},"properties":{"site":"KAKQ","name":"Wakefield VA","scan_time":"2026-09-09T02:01:36Z","stale":false,"bins":25,"density_birds_km3":4.3425,"heading_deg":0.8083971800141245,"speed_ms":7.136384571099597,"peak_altitude_m":200.0,"u_ms":-0.19218480138169264,"v_ms":4.407081174438688}},{"type":"Feature","geometry":{"type":"Point","coordinates":[-71.1369,41.9558]},"properties":{"site":"KBOX","name":"Boston MA","scan_time":"2026-09-09T02:02:17Z","stale":false,"bins":25,"density_birds_km3":3.8131250000000003,"heading_deg":312.3629132413688,"speed_ms":4.323510673234812,"peak_altitude_m":200.0,"u_ms":-1.173489326765189,"v_ms":1.5646436781609196}},{"type":"Feature","geometry":{"type":"Point","coordinates":[-78.7369,42.9489]},"properties":{"site":"KBUF","name":"Buffalo NY","scan_time":"2026-09-09T02:00:38Z","stale":false,"bins":25,"density_birds_km3":4.414,"heading_deg":294.9622008677036,"speed_ms":2.511218849116448,"peak_altitude_m":200.0,"u_ms":-0.653803050898656,"v_ms":1.2496495997583448}},{"type":"Feature","geometry":{"type":"Point","coordinates":[-81.8597,41.4131]},"properties":{"site":"KCLE","name":"Cleveland OH","scan_time":"2026-09-09T02:01:50Z","stale":false,"bins":25,"density_birds_km3":3.8320000000000003,"heading_deg":11.484427721102778,"speed_ms":8.515983606557377,"peak_altitude_m":200.0,"u_ms":1.7263655388908266,"v_ms":7.580397628182769}},{"type":"Feature","geometry":{"type":"Point","coordinates":[-81.0423,32.6555]},"properties":{"site":"KCLX","name":"Charleston SC","scan_time":"2026-09-09T01:58:26Z","stale":false,"bins":25,"density_birds_km3":5.1225000000000005,"heading_deg":241.26477037624068,"speed_ms":11.365972408741301,"peak_altitude_m":0.0,"u_ms":-9.781759247955073,"v_ms":-5.386868514222928}},{"type":"Feature","geometry":{"type":"Point","coordinates":[-74.4108,39.947]},"properties":{"site":"KDIX","name":"Philadelphia PA","scan_time":"2026-09-09T02:03:24Z","stale":false,"bins":25,"density_birds_km3":8.860625,"heading_deg":36.01420025815916,"speed_ms":3.6731171031269856,"peak_altitude_m":0.0,"u_ms":0.12658149220018355,"v_ms":-0.03968447801228213}},{"type":"Feature","geometry":{"type":"Point","coordinates":[-84.5658,33.3636]},"properties":{"site":"KFFC","name":"Atlanta GA","scan_time":"2026-09-09T02:00:18Z","stale":false,"bins":25,"density_birds_km3":37.891333333333336,"heading_deg":264.69733404398994,"speed_ms":8.354489856959374,"peak_altitude_m":400.0,"u_ms":-8.186321234407165,"v_ms":-0.402782518429896}},{"type":"Feature","geometry":{"type":"Point","coordinates":[-85.5449,42.8939]},"properties":{"site":"KGRR","name":"Grand Rapids MI","scan_time":"2026-09-09T02:01:17Z","stale":false,"bins":25,"density_birds_km3":10.85923076923077,"heading_deg":41.66147604281386,"speed_ms":7.191174589329845,"peak_altitude_m":400.0,"u_ms":4.67764791394098,"v_ms":5.446130978339875}},{"type":"Feature","geometry":{"type":"Point","coordinates":[-83.8217,39.4203]},"properties":{"site":"KILN","name":"Wilmington OH","scan_time":"2026-09-09T01:59:03Z","stale":false,"bins":25,"density_birds_km3":6.426,"heading_deg":54.70723797533509,"speed_ms":9.930488639900405,"peak_altitude_m":200.0,"u_ms":7.207213403880071,"v_ms":4.403347857661583}},{"type":"Feature","geometry":{"type":"Point","coordinates":[-81.7019,30.4846]},"properties":{"site":"KJAX","name":"Jacksonville FL","scan_time":"2026-09-09T01:58:47Z","stale":false,"bins":25,"density_birds_km3":40.54,"heading_deg":192.47404703478114,"speed_ms":11.473429434800037,"peak_altitude_m":0.0,"u_ms":-2.527232586105886,"v_ms":-11.120417347599519}},{"type":"Feature","geometry":{"type":"Point","coordinates":[-88.0847,41.6045]},"properties":{"site":"KLOT","name":"Chicago IL","scan_time":"2026-09-09T02:02:16Z","stale":false,"bins":25,"density_birds_km3":2.5300000000000002,"heading_deg":31.25202538440939,"speed_ms":12.312473469387756,"peak_altitude_m":400.0,"u_ms":6.084527891156463,"v_ms":9.78007074829932}},{"type":"Feature","geometry":{"type":"Point","coordinates":[-78.4292,33.9892]},"properties":{"site":"KLTX","name":"Wilmington NC","scan_time":"2026-09-09T01:58:01Z","stale":false,"bins":25,"density_birds_km3":6.885000000000001,"heading_deg":234.90264743348266,"speed_ms":9.444960965867828,"peak_altitude_m":0.0,"u_ms":-6.714940994916485,"v_ms":-5.215376724763979}},{"type":"Feature","geometry":{"type":"Point","coordinates":[-77.4778,38.9753]},"properties":{"site":"KLWX","name":"Sterling VA","scan_time":"2026-09-09T02:01:48Z","stale":false,"bins":25,"density_birds_km3":5.6743749999999995,"heading_deg":25.34828047721304,"speed_ms":7.896138064204683,"peak_altitude_m":200.0,"u_ms":2.4956408399710353,"v_ms":6.111313058170408}},{"type":"Feature","geometry":{"type":"Point","coordinates":[-76.8762,34.7759]},"properties":{"site":"KMHX","name":"Morehead City NC","scan_time":"2026-09-09T02:01:52Z","stale":false,"bins":25,"density_birds_km3":5.109375,"heading_deg":248.36226418731724,"speed_ms":5.341457058967458,"peak_altitude_m":0.0,"u_ms":-4.753267678003425,"v_ms":-1.7041264986542695}},{"type":"Feature","geometry":{"type":"Point","coordinates":[-80.6542,28.1133]},"properties":{"site":"KMLB","name":"Melbourne FL","scan_time":"2026-09-09T02:00:12Z","stale":false,"bins":25,"density_birds_km3":19.04,"heading_deg":185.5681117781065,"speed_ms":8.381646818869664,"peak_altitude_m":0.0,"u_ms":-0.777639318376209,"v_ms":-8.310322060661886}},{"type":"Feature","geometry":{"type":"Point","coordinates":[-86.5625,36.2472]},"properties":{"site":"KOHX","name":"Nashville TN","scan_time":"2026-09-09T02:01:54Z","stale":false,"bins":25,"density_birds_km3":11.572666666666667,"heading_deg":15.614925423804744,"speed_ms":8.49972023534841,"peak_altitude_m":400.0,"u_ms":2.0300847946469776,"v_ms":8.201990655283803}},{"type":"Feature","geometry":{"type":"Point","coordinates":[-72.8639,40.8655]},"properties":{"site":"KOKX","name":"Upton NY","scan_time":"2026-09-09T01:57:30Z","stale":false,"bins":25,"density_birds_km3":2.83,"heading_deg":166.56582956892828,"speed_ms":5.700354673209904,"peak_altitude_m":0.0,"u_ms":-1.1009101048405086,"v_ms":-1.84203658264555}},{"type":"Feature","geometry":{"type":"Point","coordinates":[-80.2183,40.5317]},"properties":{"site":"KPBZ","name":"Pittsburgh PA","scan_time":"2026-09-09T01:59:58Z","stale":false,"bins":25,"density_birds_km3":7.738571428571428,"heading_deg":24.187637222238802,"speed_ms":6.721536044362291,"peak_altitude_m":400.0,"u_ms":1.8887218114602584,"v_ms":5.135000924214417}},{"type":"Feature","geometry":{"type":"Point","coordinates":[-78.4899,35.6655]},"properties":{"site":"KRAX","name":"Raleigh NC","scan_time":"2026-09-09T01:57:27Z","stale":false,"bins":25,"density_birds_km3":15.268749999999999,"heading_deg":277.7993054715494,"speed_ms":6.1659418390333816,"peak_altitude_m":200.0,"u_ms":-3.417418799918083,"v_ms":-0.09539422486176524}},{"type":"Feature","geometry":{"type":"Point","coordinates":[-82.4017,27.7055]},"properties":{"site":"KTBW","name":"Tampa FL","scan_time":"2026-09-09T01:58:46Z","stale":false,"bins":25,"density_birds_km3":17.975625,"heading_deg":201.5758183603485,"speed_ms":6.5836187893327764,"peak_altitude_m":200.0,"u_ms":-2.4551705434442477,"v_ms":-6.039025764055491}}]}