{"type":"FeatureCollection","frame":"2026-09-19T02","site_count":20,"fresh_count":20,"failures":{},"features":[{"type":"Feature","geometry":{"type":"Point","coordinates":[-77.0073,36.984]},"properties":{"site":"KAKQ","name":"Wakefield VA","scan_time":"2026-09-19T01:57:53Z","stale":false,"bins":25,"density_birds_km3":36.439375,"heading_deg":206.69631594660015,"speed_ms":8.972354202401371,"peak_altitude_m":200.0,"u_ms":-4.037912006861063,"v_ms":-7.92605025728988}},{"type":"Feature","geometry":{"type":"Point","coordinates":[-71.1369,41.9558]},"properties":{"site":"KBOX","name":"Boston MA","scan_time":"2026-09-19T01:59:30Z","stale":false,"bins":25,"density_birds_km3":16.363125,"heading_deg":188.0277299771545,"speed_ms":12.301861097285503,"peak_altitude_m":200.0,"u_ms":-1.9443332439986216,"v_ms":-12.065088249933}},{"type":"Feature","geometry":{"type":"Point","coordinates":[-78.7369,42.9489]},"properties":{"site":"KBUF","name":"Buffalo NY","scan_time":"2026-09-19T01:57:22Z","stale":false,"bins":25,"density_birds_km3":45.342666666666666,"heading_deg":204.98044564391952,"speed_ms":10.073929191048903,"peak_altitude_m":400.0,"u_ms":-4.0638136266062865,"v_ms":-9.018952568588821}},{"type":"Feature","geometry":{"type":"Point","coordinates":[-81.8597,41.4131]},"properties":{"site":"KCLE","name":"Cleveland OH","scan_time":"2026-09-19T01:58:52Z","stale":false,"bins":25,"density_birds_km3":44.269999999999996,"heading_deg":244.39470894395032,"speed_ms":9.07200316241247,"peak_altitude_m":600.0,"u_ms":-8.152527219335894,"v_ms":-3.773974851291319}},{"type":"Feature","geometry":{"type":"Point","coordinates":[-81.0423,32.6555]},"properties":{"site":"KCLX","name":"Charleston SC","scan_time":"2026-09-19T01:59:57Z","stale":false,"bins":25,"density_birds_km3":13.7125,"heading_deg":158.1455112422847,"speed_ms":6.959759536411754,"peak_altitude_m":600.0,"u_ms":-0.16432743201314104,"v_ms":-5.5173339112976825}},{"type":"Feature","geometry":{"type":"Point","coordinates":[-74.4108,39.947]},"properties":{"site":"KDIX","name":"Philadelphia PA","scan_time":"2026-09-19T01:57:54Z","stale":false,"bins":25,"density_birds_km3":37.783125,"heading_deg":197.70395189548418,"speed_ms":10.249013069621824,"peak_altitude_m":200.0,"u_ms":-3.272678361410658,"v_ms":-9.665936821878779}},{"type":"Feature","geometry":{"type":"Point","coordinates":[-84.5658,33.3636]},"properties":{"site":"KFFC","name":"Atlanta GA","scan_time":"2026-09-19T02:00:12Z","stale":false,"bins":25,"density_birds_km3":101.67533333333334,"heading_deg":180.39066667943973,"speed_ms":9.67982342488837,"peak_altitude_m":2000.0,"u_ms":-0.9350446847154014,"v_ms":-9.490888383285359}},{"type":"Feature","geometry":{"type":"Point","coordinates":[-85.5449,42.8939]},"properties":{"site":"KGRR","name":"Grand Rapids MI","scan_time":"2026-09-19T01:58:47Z","stale":false,"bins":25,"density_birds_km3":47.70466666666666,"heading_deg":244.3544478633958,"speed_ms":10.155106984140506,"peak_altitude_m":400.0,"u_ms":-8.707330436881486,"v_ms":-3.390975422754185}},{"type":"Feature","geometry":{"type":"Point","coordinates":[-83.8217,39.4203]},"properties":{"site":"KILN","name":"Wilmington OH","scan_time":"2026-09-19T02:01:43Z","stale":false,"bins":25,"density_birds_km3":41.90266666666666,"heading_deg":232.22969205438739,"speed_ms":10.482232793457856,"peak_altitude_m":400.0,"u_ms":-4.278280141279792,"v_ms":-5.345091322747956}},{"type":"Feature","geometry":{"type":"Point","coordinates":[-81.7019,30.4846]},"properties":{"site":"KJAX","name":"Jacksonville FL","scan_time":"2026-09-19T01:58:06Z","stale":false,"bins":25,"density_birds_km3":14.668125,"heading_deg":195.96357977299755,"speed_ms":8.359287054409007,"peak_altitude_m":200.0,"u_ms":-2.2161005457956677,"v_ms":-8.035212775029848}},{"type":"Feature","geometry":{"type":"Point","coordinates":[-88.0847,41.6045]},"properties":{"site":"KLOT","name":"Chicago IL","scan_time":"2026-09-19T01:58:55Z","stale":false,"bins":25,"density_birds_km3":20.258666666666667,"heading_deg":284.08791319754255,"speed_ms":11.94798303896364,"peak_altitude_m":400.0,"u_ms":-10.114940736536342,"v_ms":2.520431037361023}},{"type":"Feature","geometry":{"type":"Point","coordinates":[-78.4292,33.9892]},"properties":{"site":"KLTX","name":"Wilmington NC","scan_time":"2026-09-19T02:00:20Z","stale":false,"bins":25,"density_birds_km3":12.608125,"heading_deg":194.01188099357532,"speed_ms":6.373670762928827,"peak_altitude_m":0.0,"u_ms":-1.4335832053251407,"v_ms":-5.913877112135176}},{"type":"Feature","geometry":{"type":"Point","coordinates":[-77.4778,38.9753]},"properties":{"site":"KLWX","name":"Sterling VA","scan_time":"2026-09-19T02:00:32Z","stale":false,"bins":25,"density_birds_km3":127.9923076923077,"heading_deg":209.41717463397842,"speed_ms":10.583116140128542,"peak_altitude_m":400.0,"u_ms":-5.142984399987931,"v_ms":-9.151370869919436}},{"type":"Feature","geometry":{"type":"Point","coordinates":[-76.8762,34.7759]},"properties":{"site":"KMHX","name":"Morehead City NC","scan_time":"2026-09-19T02:02:17Z","stale":false,"bins":25,"density_birds_km3":10.626875,"heading_deg":145.34789154410782,"speed_ms":6.979896488854909,"peak_altitude_m":200.0,"u_ms":3.041355054990296,"v_ms":-4.6759501264482735}},{"type":"Feature","geometry":{"type":"Point","coordinates":[-80.6542,28.1133]},"properties":{"site":"KMLB","name":"Melbourne FL","scan_time":"2026-09-19T02:01:31Z","stale":false,"bins":25,"density_birds_km3":11.538125,"heading_deg":175.24301459986754,"speed_ms":6.3395822270387425,"peak_altitude_m":0.0,"u_ms":0.5175415876456244,"v_ms":-6.317723110268219}},{"type":"Feature","geometry":{"type":"Point","coordinates":[-86.5625,36.2472]},"properties":{"site":"KOHX","name":"Nashville TN","scan_time":"2026-09-19T02:00:56Z","stale":false,"bins":25,"density_birds_km3":159.90533333333332,"heading_deg":171.6918379401927,"speed_ms":6.460478366366767,"peak_altitude_m":400.0,"u_ms":0.9251700589515464,"v_ms":-6.386322657572397}},{"type":"Feature","geometry":{"type":"Point","coordinates":[-72.8639,40.8655]},"properties":{"site":"KOKX","name":"Upton NY","scan_time":"2026-09-19T02:03:22Z","stale":false,"bins":25,"density_birds_km3":56.105714285714285,"heading_deg":213.60659393985426,"speed_ms":13.641725444213945,"peak_altitude_m":200.0,"u_ms":-7.638984911543765,"v_ms":-11.257220554317152}},{"type":"Feature","geometry":{"type":"Point","coordinates":[-80.2183,40.5317]},"properties":{"site":"KPBZ","name":"Pittsburgh PA","scan_time":"2026-09-19T01:59:27Z","stale":false,"bins":25,"density_birds_km3":153.11214285714286,"heading_deg":210.1239708508379,"speed_ms":13.082099115027733,"peak_altitude_m":600.0,"u_ms":-6.365867921271523,"v_ms":-11.170344145514258}},{"type":"Feature","geometry":{"type":"Point","coordinates":[-78.4899,35.6655]},"properties":{"site":"KRAX","name":"Raleigh NC","scan_time":"2026-09-19T01:58:49Z","stale":false,"bins":25,"density_birds_km3":77.311875,"heading_deg":196.30221990492007,"speed_ms":8.120203259670767,"peak_altitude_m":400.0,"u_ms":-2.784629631142519,"v_ms":-7.137512111433356}},{"type":"Feature","geometry":{"type":"Point","coordinates":[-82.4017,27.7055]},"properties":{"site":"KTBW","name":"Tampa FL","scan_time":"2026-09-19T02:01:36Z","stale":false,"bins":25,"density_birds_km3":8.54125,"heading_deg":261.280194198774,"speed_ms":4.621260793209426,"peak_altitude_m":0.0,"u_ms":-3.9559124835357826,"v_ms":-1.2935182204009952}}]}