{"type":"FeatureCollection","frame":"2026-10-02T10","site_count":20,"fresh_count":20,"failures":{},"features":[{"type":"Feature","geometry":{"type":"Point","coordinates":[-77.0073,36.984]},"properties":{"site":"KAKQ","name":"Wakefield VA","scan_time":"2026-10-02T10:02:16Z","stale":false,"bins":25,"density_birds_km3":0.57875,"heading_deg":61.48708278095483,"speed_ms":9.793509719222463,"peak_altitude_m":0.0,"u_ms":8.593120950323975,"v_ms":4.556349892008639}},{"type":"Feature","geometry":{"type":"Point","coordinates":[-71.1369,41.9558]},"properties":{"site":"KBOX","name":"Boston MA","scan_time":"2026-10-02T10:01:46Z","stale":false,"bins":25,"density_birds_km3":0.57125,"heading_deg":56.35637457435674,"speed_ms":10.244343544857768,"peak_altitude_m":0.0,"u_ms":8.545273522975931,"v_ms":5.3902407002188175}},{"type":"Feature","geometry":{"type":"Point","coordinates":[-78.7369,42.9489]},"properties":{"site":"KBUF","name":"Buffalo NY","scan_time":"2026-10-02T10:00:25Z","stale":false,"bins":25,"density_birds_km3":3.603333333333333,"heading_deg":null,"speed_ms":null,"peak_altitude_m":200.0,"u_ms":null,"v_ms":null}},{"type":"Feature","geometry":{"type":"Point","coordinates":[-81.8597,41.4131]},"properties":{"site":"KCLE","name":"Cleveland OH","scan_time":"2026-10-02T10:02:27Z","stale":false,"bins":25,"density_birds_km3":0.0,"heading_deg":null,"speed_ms":null,"peak_altitude_m":2800.0,"u_ms":null,"v_ms":null}},{"type":"Feature","geometry":{"type":"Point","coordinates":[-81.0423,32.6555]},"properties":{"site":"KCLX","name":"Charleston SC","scan_time":"2026-10-02T09:59:20Z","stale":false,"bins":25,"density_birds_km3":0.94875,"heading_deg":324.03154150456663,"speed_ms":5.4751119894598155,"peak_altitude_m":0.0,"u_ms":-2.3269104084321475,"v_ms":4.1174901185770745}},{"type":"Feature","geometry":{"type":"Point","coordinates":[-74.4108,39.947]},"properties":{"site":"KDIX","name":"Philadelphia PA","scan_time":"2026-10-02T10:02:10Z","stale":false,"bins":25,"density_birds_km3":0.53125,"heading_deg":65.83676734800883,"speed_ms":12.286200000000001,"peak_altitude_m":0.0,"u_ms":11.211494117647058,"v_ms":4.828117647058824}},{"type":"Feature","geometry":{"type":"Point","coordinates":[-84.5658,33.3636]},"properties":{"site":"KFFC","name":"Atlanta GA","scan_time":"2026-10-02T10:01:47Z","stale":false,"bins":25,"density_birds_km3":2.4373333333333336,"heading_deg":338.0730897867603,"speed_ms":4.882458971553611,"peak_altitude_m":200.0,"u_ms":-0.28525164113785556,"v_ms":4.291881838074398}},{"type":"Feature","geometry":{"type":"Point","coordinates":[-85.5449,42.8939]},"properties":{"site":"KGRR","name":"Grand Rapids MI","scan_time":"2026-10-02T10:02:35Z","stale":false,"bins":25,"density_birds_km3":71.61333333333333,"heading_deg":186.98991166766845,"speed_ms":9.704305436603985,"peak_altitude_m":200.0,"u_ms":-1.8907127164401412,"v_ms":-9.231448799106312}},{"type":"Feature","geometry":{"type":"Point","coordinates":[-83.8217,39.4203]},"properties":{"site":"KILN","name":"Wilmington OH","scan_time":"2026-10-02T09:59:33Z","stale":false,"bins":25,"density_birds_km3":7.554,"heading_deg":73.64234076631827,"speed_ms":14.647746006530756,"peak_altitude_m":200.0,"u_ms":13.845093107404466,"v_ms":4.494849527843968}},{"type":"Feature","geometry":{"type":"Point","coordinates":[-81.7019,30.4846]},"properties":{"site":"KJAX","name":"Jacksonville FL","scan_time":"2026-10-02T09:57:27Z","stale":false,"bins":25,"density_birds_km3":2.490625,"heading_deg":281.42083116030346,"speed_ms":3.566019076305221,"peak_altitude_m":0.0,"u_ms":-3.3151656626506028,"v_ms":0.8611772088353414}},{"type":"Feature","geometry":{"type":"Point","coordinates":[-88.0847,41.6045]},"properties":{"site":"KLOT","name":"Chicago IL","scan_time":"2026-10-02T10:02:36Z","stale":false,"bins":25,"density_birds_km3":66.01,"heading_deg":180.01814750514293,"speed_ms":16.078173339261536,"peak_altitude_m":400.0,"u_ms":-0.7789507083527011,"v_ms":-15.480575170267375}},{"type":"Feature","geometry":{"type":"Point","coordinates":[-78.4292,33.9892]},"properties":{"site":"KLTX","name":"Wilmington NC","scan_time":"2026-10-02T09:56:29Z","stale":false,"bins":25,"density_birds_km3":0.170625,"heading_deg":51.62443468553236,"speed_ms":4.950738007380075,"peak_altitude_m":0.0,"u_ms":3.834612546125461,"v_ms":2.947158671586716}},{"type":"Feature","geometry":{"type":"Point","coordinates":[-77.4778,38.9753]},"properties":{"site":"KLWX","name":"Sterling VA","scan_time":"2026-10-02T10:02:08Z","stale":false,"bins":25,"density_birds_km3":2.934375,"heading_deg":67.02814287140406,"speed_ms":4.48189647766323,"peak_altitude_m":200.0,"u_ms":3.160841924398625,"v_ms":0.5303844501718213}},{"type":"Feature","geometry":{"type":"Point","coordinates":[-76.8762,34.7759]},"properties":{"site":"KMHX","name":"Morehead City NC","scan_time":"2026-10-02T09:58:23Z","stale":false,"bins":25,"density_birds_km3":0.16375,"heading_deg":73.66606634420049,"speed_ms":6.842671755725191,"peak_altitude_m":0.0,"u_ms":6.541755725190839,"v_ms":1.9195801526717557}},{"type":"Feature","geometry":{"type":"Point","coordinates":[-80.6542,28.1133]},"properties":{"site":"KMLB","name":"Melbourne FL","scan_time":"2026-10-02T09:58:49Z","stale":false,"bins":25,"density_birds_km3":0.83,"heading_deg":302.6479422976298,"speed_ms":5.38667921686747,"peak_altitude_m":0.0,"u_ms":-4.527996987951807,"v_ms":2.9153765060240966}},{"type":"Feature","geometry":{"type":"Point","coordinates":[-86.5625,36.2472]},"properties":{"site":"KOHX","name":"Nashville TN","scan_time":"2026-10-02T10:02:10Z","stale":false,"bins":25,"density_birds_km3":4.084666666666667,"heading_deg":36.122036558563536,"speed_ms":14.199760078341765,"peak_altitude_m":200.0,"u_ms":8.545668353190795,"v_ms":11.009041945487187}},{"type":"Feature","geometry":{"type":"Point","coordinates":[-72.8639,40.8655]},"properties":{"site":"KOKX","name":"Upton NY","scan_time":"2026-10-02T09:59:30Z","stale":false,"bins":25,"density_birds_km3":0.24375,"heading_deg":66.2163024073569,"speed_ms":12.095589743589745,"peak_altitude_m":0.0,"u_ms":10.974538461538462,"v_ms":4.433846153846154}},{"type":"Feature","geometry":{"type":"Point","coordinates":[-80.2183,40.5317]},"properties":{"site":"KPBZ","name":"Pittsburgh PA","scan_time":"2026-10-02T10:01:23Z","stale":false,"bins":25,"density_birds_km3":0.5778571428571428,"heading_deg":56.61167706250213,"speed_ms":14.891050679851668,"peak_altitude_m":400.0,"u_ms":12.701631644004944,"v_ms":7.221903584672435}},{"type":"Feature","geometry":{"type":"Point","coordinates":[-78.4899,35.6655]},"properties":{"site":"KRAX","name":"Raleigh NC","scan_time":"2026-10-02T10:01:09Z","stale":false,"bins":25,"density_birds_km3":0.64375,"heading_deg":62.360082512410955,"speed_ms":7.997308066083576,"peak_altitude_m":0.0,"u_ms":6.902993197278913,"v_ms":3.706744412050535}},{"type":"Feature","geometry":{"type":"Point","coordinates":[-82.4017,27.7055]},"properties":{"site":"KTBW","name":"Tampa FL","scan_time":"2026-10-02T09:58:10Z","stale":false,"bins":25,"density_birds_km3":3.0143750000000002,"heading_deg":286.463413582453,"speed_ms":10.509560348403152,"peak_altitude_m":0.0,"u_ms":-9.971914143508918,"v_ms":3.1637909581086685}}]}