{"type":"FeatureCollection","frame":"2026-09-28T03","site_count":20,"fresh_count":20,"failures":{},"features":[{"type":"Feature","geometry":{"type":"Point","coordinates":[-77.0073,36.984]},"properties":{"site":"KAKQ","name":"Wakefield VA","scan_time":"2026-09-28T02:56:52Z","stale":false,"bins":25,"density_birds_km3":6.685,"heading_deg":146.58297453786474,"speed_ms":9.928941561477325,"peak_altitude_m":200.0,"u_ms":4.691881252921926,"v_ms":-8.565861617578308}},{"type":"Feature","geometry":{"type":"Point","coordinates":[-71.1369,41.9558]},"properties":{"site":"KBOX","name":"Boston MA","scan_time":"2026-09-28T02:57:47Z","stale":false,"bins":25,"density_birds_km3":0.40230769230769226,"heading_deg":285.2977327381549,"speed_ms":9.563333333333334,"peak_altitude_m":0.0,"u_ms":-9.273333333333333,"v_ms":2.2733333333333334}},{"type":"Feature","geometry":{"type":"Point","coordinates":[-78.7369,42.9489]},"properties":{"site":"KBUF","name":"Buffalo NY","scan_time":"2026-09-28T02:57:25Z","stale":false,"bins":25,"density_birds_km3":2.3586666666666667,"heading_deg":214.60000000000002,"speed_ms":6.36,"peak_altitude_m":200.0,"u_ms":-3.61,"v_ms":-5.23}},{"type":"Feature","geometry":{"type":"Point","coordinates":[-81.8597,41.4131]},"properties":{"site":"KCLE","name":"Cleveland OH","scan_time":"2026-09-28T02:56:32Z","stale":false,"bins":25,"density_birds_km3":21.319333333333336,"heading_deg":187.80256842039333,"speed_ms":12.527097601401007,"peak_altitude_m":400.0,"u_ms":-1.7531935453607281,"v_ms":-12.329341088907654}},{"type":"Feature","geometry":{"type":"Point","coordinates":[-81.0423,32.6555]},"properties":{"site":"KCLX","name":"Charleston SC","scan_time":"2026-09-28T03:00:35Z","stale":false,"bins":25,"density_birds_km3":66.908125,"heading_deg":197.32341693815712,"speed_ms":5.0430640897499375,"peak_altitude_m":0.0,"u_ms":0.01947866944410726,"v_ms":-2.645128954816773}},{"type":"Feature","geometry":{"type":"Point","coordinates":[-74.4108,39.947]},"properties":{"site":"KDIX","name":"Philadelphia PA","scan_time":"2026-09-28T02:57:47Z","stale":false,"bins":25,"density_birds_km3":0.0,"heading_deg":null,"speed_ms":null,"peak_altitude_m":2000.0,"u_ms":null,"v_ms":null}},{"type":"Feature","geometry":{"type":"Point","coordinates":[-84.5658,33.3636]},"properties":{"site":"KFFC","name":"Atlanta GA","scan_time":"2026-09-28T02:59:18Z","stale":false,"bins":25,"density_birds_km3":116.15799999999999,"heading_deg":174.98434486919763,"speed_ms":15.200766714302933,"peak_altitude_m":600.0,"u_ms":1.497495021149354,"v_ms":-15.05005446604338}},{"type":"Feature","geometry":{"type":"Point","coordinates":[-85.5449,42.8939]},"properties":{"site":"KGRR","name":"Grand Rapids MI","scan_time":"2026-09-28T02:58:12Z","stale":false,"bins":25,"density_birds_km3":125.316,"heading_deg":182.72941349769005,"speed_ms":13.306915158479363,"peak_altitude_m":400.0,"u_ms":-0.5917363039569301,"v_ms":-13.271458978369349}},{"type":"Feature","geometry":{"type":"Point","coordinates":[-83.8217,39.4203]},"properties":{"site":"KILN","name":"Wilmington OH","scan_time":"2026-09-28T03:01:17Z","stale":false,"bins":25,"density_birds_km3":61.494,"heading_deg":181.90377658719694,"speed_ms":11.064924382866621,"peak_altitude_m":200.0,"u_ms":-0.6804405849893215,"v_ms":-10.871269066900835}},{"type":"Feature","geometry":{"type":"Point","coordinates":[-81.7019,30.4846]},"properties":{"site":"KJAX","name":"Jacksonville FL","scan_time":"2026-09-28T02:57:58Z","stale":false,"bins":25,"density_birds_km3":74.03,"heading_deg":126.82808036306726,"speed_ms":8.259635654256625,"peak_altitude_m":0.0,"u_ms":4.0170970826950585,"v_ms":-4.543716072682956}},{"type":"Feature","geometry":{"type":"Point","coordinates":[-88.0847,41.6045]},"properties":{"site":"KLOT","name":"Chicago IL","scan_time":"2026-09-28T03:00:32Z","stale":false,"bins":25,"density_birds_km3":75.75800000000001,"heading_deg":162.57136415929827,"speed_ms":13.240911410896098,"peak_altitude_m":600.0,"u_ms":4.021599919040453,"v_ms":-12.58785817999419}},{"type":"Feature","geometry":{"type":"Point","coordinates":[-78.4292,33.9892]},"properties":{"site":"KLTX","name":"Wilmington NC","scan_time":"2026-09-28T02:58:13Z","stale":false,"bins":25,"density_birds_km3":23.984375,"heading_deg":119.17911117912718,"speed_ms":6.703617930675006,"peak_altitude_m":0.0,"u_ms":4.846275996872556,"v_ms":-2.939473807662236}},{"type":"Feature","geometry":{"type":"Point","coordinates":[-77.4778,38.9753]},"properties":{"site":"KLWX","name":"Sterling VA","scan_time":"2026-09-28T03:01:06Z","stale":false,"bins":25,"density_birds_km3":4.11875,"heading_deg":158.36806658845066,"speed_ms":11.87518985419198,"peak_altitude_m":0.0,"u_ms":1.6414717496962334,"v_ms":-10.284585358444714}},{"type":"Feature","geometry":{"type":"Point","coordinates":[-76.8762,34.7759]},"properties":{"site":"KMHX","name":"Morehead City NC","scan_time":"2026-09-28T03:01:49Z","stale":false,"bins":25,"density_birds_km3":20.49875,"heading_deg":108.36850586748751,"speed_ms":8.993590767729739,"peak_altitude_m":0.0,"u_ms":7.956140313433744,"v_ms":-1.873552960546375}},{"type":"Feature","geometry":{"type":"Point","coordinates":[-80.6542,28.1133]},"properties":{"site":"KMLB","name":"Melbourne FL","scan_time":"2026-09-28T03:03:06Z","stale":false,"bins":25,"density_birds_km3":19.14375,"heading_deg":170.4330444787562,"speed_ms":8.865163123346724,"peak_altitude_m":1000.0,"u_ms":2.471508115345678,"v_ms":-7.780643022762158}},{"type":"Feature","geometry":{"type":"Point","coordinates":[-86.5625,36.2472]},"properties":{"site":"KOHX","name":"Nashville TN","scan_time":"2026-09-28T03:01:31Z","stale":false,"bins":25,"density_birds_km3":89.264,"heading_deg":184.42469084188545,"speed_ms":12.221478311525361,"peak_altitude_m":200.0,"u_ms":-1.0437083258648503,"v_ms":-12.041817156599151}},{"type":"Feature","geometry":{"type":"Point","coordinates":[-72.8639,40.8655]},"properties":{"site":"KOKX","name":"Upton NY","scan_time":"2026-09-28T02:59:42Z","stale":false,"bins":25,"density_birds_km3":0.006,"heading_deg":null,"speed_ms":null,"peak_altitude_m":2400.0,"u_ms":null,"v_ms":null}},{"type":"Feature","geometry":{"type":"Point","coordinates":[-80.2183,40.5317]},"properties":{"site":"KPBZ","name":"Pittsburgh PA","scan_time":"2026-09-28T02:58:44Z","stale":false,"bins":25,"density_birds_km3":14.482857142857144,"heading_deg":175.89371376581167,"speed_ms":11.619707042809232,"peak_altitude_m":400.0,"u_ms":0.015627835865062247,"v_ms":-11.097581870191359}},{"type":"Feature","geometry":{"type":"Point","coordinates":[-78.4899,35.6655]},"properties":{"site":"KRAX","name":"Raleigh NC","scan_time":"2026-09-28T02:57:24Z","stale":false,"bins":25,"density_birds_km3":37.832499999999996,"heading_deg":171.39276851256977,"speed_ms":9.595950902002247,"peak_altitude_m":200.0,"u_ms":1.3719839093372102,"v_ms":-9.263072424502743}},{"type":"Feature","geometry":{"type":"Point","coordinates":[-82.4017,27.7055]},"properties":{"site":"KTBW","name":"Tampa FL","scan_time":"2026-09-28T03:01:58Z","stale":false,"bins":25,"density_birds_km3":17.27625,"heading_deg":171.1320670010349,"speed_ms":9.645507922726285,"peak_altitude_m":1800.0,"u_ms":0.800016641342884,"v_ms":-9.347144200853773}}]}