{"type":"FeatureCollection","frame":"2026-08-31T06","site_count":20,"fresh_count":20,"failures":{},"features":[{"type":"Feature","geometry":{"type":"Point","coordinates":[-77.0073,36.984]},"properties":{"site":"KAKQ","name":"Wakefield VA","scan_time":"2026-08-31T05:55:51Z","stale":false,"bins":25,"density_birds_km3":3.8735714285714287,"heading_deg":71.14919907631695,"speed_ms":6.163823939454293,"peak_altitude_m":200.0,"u_ms":4.435473013343955,"v_ms":1.873369846644095}},{"type":"Feature","geometry":{"type":"Point","coordinates":[-71.1369,41.9558]},"properties":{"site":"KBOX","name":"Boston MA","scan_time":"2026-08-31T06:00:16Z","stale":false,"bins":25,"density_birds_km3":2.865,"heading_deg":182.78870484962482,"speed_ms":10.927749890877346,"peak_altitude_m":0.0,"u_ms":-1.366503710170231,"v_ms":-10.29730030554343}},{"type":"Feature","geometry":{"type":"Point","coordinates":[-78.7369,42.9489]},"properties":{"site":"KBUF","name":"Buffalo NY","scan_time":"2026-08-31T05:57:31Z","stale":false,"bins":25,"density_birds_km3":1.258,"heading_deg":48.5,"speed_ms":2.77,"peak_altitude_m":200.0,"u_ms":2.08,"v_ms":1.84}},{"type":"Feature","geometry":{"type":"Point","coordinates":[-81.8597,41.4131]},"properties":{"site":"KCLE","name":"Cleveland OH","scan_time":"2026-08-31T05:59:31Z","stale":false,"bins":25,"density_birds_km3":0.9346666666666666,"heading_deg":41.91913827965513,"speed_ms":9.927907979870596,"peak_altitude_m":200.0,"u_ms":5.7047016534867,"v_ms":5.778094895758447}},{"type":"Feature","geometry":{"type":"Point","coordinates":[-81.0423,32.6555]},"properties":{"site":"KCLX","name":"Charleston SC","scan_time":"2026-08-31T06:01:18Z","stale":false,"bins":25,"density_birds_km3":11.520625,"heading_deg":221.012402322465,"speed_ms":8.66598921744813,"peak_altitude_m":0.0,"u_ms":-5.689552905298699,"v_ms":-6.514282524641944}},{"type":"Feature","geometry":{"type":"Point","coordinates":[-74.4108,39.947]},"properties":{"site":"KDIX","name":"Philadelphia PA","scan_time":"2026-08-31T06:01:07Z","stale":false,"bins":25,"density_birds_km3":6.796875,"heading_deg":186.30841772833898,"speed_ms":6.425228993536473,"peak_altitude_m":200.0,"u_ms":-0.514971375807941,"v_ms":-6.3173407202216065}},{"type":"Feature","geometry":{"type":"Point","coordinates":[-84.5658,33.3636]},"properties":{"site":"KFFC","name":"Atlanta GA","scan_time":"2026-08-31T05:56:37Z","stale":false,"bins":25,"density_birds_km3":17.432000000000002,"heading_deg":238.76833091793236,"speed_ms":5.283494722349701,"peak_altitude_m":200.0,"u_ms":-4.17569642037632,"v_ms":-3.004208352455255}},{"type":"Feature","geometry":{"type":"Point","coordinates":[-85.5449,42.8939]},"properties":{"site":"KGRR","name":"Grand Rapids MI","scan_time":"2026-08-31T05:58:50Z","stale":false,"bins":25,"density_birds_km3":1.5213333333333334,"heading_deg":20.698482516344892,"speed_ms":7.950951882845188,"peak_altitude_m":200.0,"u_ms":3.6827301255230123,"v_ms":4.962264644351464}},{"type":"Feature","geometry":{"type":"Point","coordinates":[-83.8217,39.4203]},"properties":{"site":"KILN","name":"Wilmington OH","scan_time":"2026-08-31T06:00:12Z","stale":false,"bins":25,"density_birds_km3":2.1599999999999997,"heading_deg":77.90696109685167,"speed_ms":7.708186592523943,"peak_altitude_m":400.0,"u_ms":7.224195242508496,"v_ms":0.9223972814334261}},{"type":"Feature","geometry":{"type":"Point","coordinates":[-81.7019,30.4846]},"properties":{"site":"KJAX","name":"Jacksonville FL","scan_time":"2026-08-31T06:01:42Z","stale":false,"bins":25,"density_birds_km3":48.2025,"heading_deg":193.41757237380446,"speed_ms":11.692767231990041,"peak_altitude_m":0.0,"u_ms":-2.689648099164981,"v_ms":-11.349721487474717}},{"type":"Feature","geometry":{"type":"Point","coordinates":[-88.0847,41.6045]},"properties":{"site":"KLOT","name":"Chicago IL","scan_time":"2026-08-31T06:00:20Z","stale":false,"bins":25,"density_birds_km3":1.3226666666666667,"heading_deg":40.86095591994645,"speed_ms":13.621272727272725,"peak_altitude_m":400.0,"u_ms":8.901252525252525,"v_ms":10.245540404040403}},{"type":"Feature","geometry":{"type":"Point","coordinates":[-78.4292,33.9892]},"properties":{"site":"KLTX","name":"Wilmington NC","scan_time":"2026-08-31T05:57:55Z","stale":false,"bins":25,"density_birds_km3":10.485625,"heading_deg":228.71354060219872,"speed_ms":7.29939310838202,"peak_altitude_m":0.0,"u_ms":-5.450638488136401,"v_ms":-4.805695719565994}},{"type":"Feature","geometry":{"type":"Point","coordinates":[-77.4778,38.9753]},"properties":{"site":"KLWX","name":"Sterling VA","scan_time":"2026-08-31T06:01:53Z","stale":false,"bins":25,"density_birds_km3":7.165625,"heading_deg":130.48816377856858,"speed_ms":3.866017008591969,"peak_altitude_m":200.0,"u_ms":2.01592407504822,"v_ms":-2.0214843065053483}},{"type":"Feature","geometry":{"type":"Point","coordinates":[-76.8762,34.7759]},"properties":{"site":"KMHX","name":"Morehead City NC","scan_time":"2026-08-31T06:01:45Z","stale":false,"bins":25,"density_birds_km3":2.008125,"heading_deg":262.6234353601408,"speed_ms":1.7861593526299406,"peak_altitude_m":0.0,"u_ms":-0.777755991285403,"v_ms":-0.6941518829754123}},{"type":"Feature","geometry":{"type":"Point","coordinates":[-80.6542,28.1133]},"properties":{"site":"KMLB","name":"Melbourne FL","scan_time":"2026-08-31T06:00:48Z","stale":false,"bins":25,"density_birds_km3":5.510625,"heading_deg":183.4904330427779,"speed_ms":4.226686704384724,"peak_altitude_m":0.0,"u_ms":-0.25628477133427624,"v_ms":-4.215354785478548}},{"type":"Feature","geometry":{"type":"Point","coordinates":[-86.5625,36.2472]},"properties":{"site":"KOHX","name":"Nashville TN","scan_time":"2026-08-31T05:56:43Z","stale":false,"bins":25,"density_birds_km3":7.5280000000000005,"heading_deg":27.228509783250548,"speed_ms":4.544041987775711,"peak_altitude_m":400.0,"u_ms":2.074103995039419,"v_ms":3.9365098768712903}},{"type":"Feature","geometry":{"type":"Point","coordinates":[-72.8639,40.8655]},"properties":{"site":"KOKX","name":"Upton NY","scan_time":"2026-08-31T05:59:39Z","stale":false,"bins":25,"density_birds_km3":1.315,"heading_deg":165.28154749069512,"speed_ms":6.3823384030418255,"peak_altitude_m":0.0,"u_ms":1.2675903041825098,"v_ms":-6.059995247148289}},{"type":"Feature","geometry":{"type":"Point","coordinates":[-80.2183,40.5317]},"properties":{"site":"KPBZ","name":"Pittsburgh PA","scan_time":"2026-08-31T06:00:12Z","stale":false,"bins":25,"density_birds_km3":4.192142857142857,"heading_deg":342.1107514913446,"speed_ms":5.199846573474258,"peak_altitude_m":600.0,"u_ms":0.32195192635526776,"v_ms":0.41048414592567334}},{"type":"Feature","geometry":{"type":"Point","coordinates":[-78.4899,35.6655]},"properties":{"site":"KRAX","name":"Raleigh NC","scan_time":"2026-08-31T05:58:26Z","stale":false,"bins":25,"density_birds_km3":9.4575,"heading_deg":175.12233156279964,"speed_ms":3.5010869419717556,"peak_altitude_m":0.0,"u_ms":-0.8383608861521987,"v_ms":-0.9828826718425808}},{"type":"Feature","geometry":{"type":"Point","coordinates":[-82.4017,27.7055]},"properties":{"site":"KTBW","name":"Tampa FL","scan_time":"2026-08-31T05:59:26Z","stale":false,"bins":25,"density_birds_km3":7.815,"heading_deg":213.3027599781784,"speed_ms":6.624941995359629,"peak_altitude_m":0.0,"u_ms":-3.5917089367149373,"v_ms":-5.527899831986559}}]}