{"type":"FeatureCollection","frame":"2026-09-13T00","site_count":20,"fresh_count":20,"failures":{},"features":[{"type":"Feature","geometry":{"type":"Point","coordinates":[-77.0073,36.984]},"properties":{"site":"KAKQ","name":"Wakefield VA","scan_time":"2026-09-13T00:01:49Z","stale":false,"bins":25,"density_birds_km3":7.127857142857143,"heading_deg":null,"speed_ms":null,"peak_altitude_m":200.0,"u_ms":null,"v_ms":null}},{"type":"Feature","geometry":{"type":"Point","coordinates":[-71.1369,41.9558]},"properties":{"site":"KBOX","name":"Boston MA","scan_time":"2026-09-13T00:03:32Z","stale":false,"bins":25,"density_birds_km3":3.314375,"heading_deg":11.790488747708071,"speed_ms":8.388311639313338,"peak_altitude_m":0.0,"u_ms":1.69832861724203,"v_ms":7.988643652141106}},{"type":"Feature","geometry":{"type":"Point","coordinates":[-78.7369,42.9489]},"properties":{"site":"KBUF","name":"Buffalo NY","scan_time":"2026-09-13T00:00:59Z","stale":false,"bins":25,"density_birds_km3":2.1540000000000004,"heading_deg":24.373434859327514,"speed_ms":9.167811822965025,"peak_altitude_m":200.0,"u_ms":3.85671928195605,"v_ms":8.220213556174558}},{"type":"Feature","geometry":{"type":"Point","coordinates":[-81.8597,41.4131]},"properties":{"site":"KCLE","name":"Cleveland OH","scan_time":"2026-09-12T23:58:58Z","stale":false,"bins":25,"density_birds_km3":0.48800000000000004,"heading_deg":22.130713514860794,"speed_ms":6.124773662551441,"peak_altitude_m":200.0,"u_ms":2.3037860082304524,"v_ms":5.464938271604938}},{"type":"Feature","geometry":{"type":"Point","coordinates":[-81.0423,32.6555]},"properties":{"site":"KCLX","name":"Charleston SC","scan_time":"2026-09-12T23:59:45Z","stale":false,"bins":25,"density_birds_km3":1.71625,"heading_deg":351.8948138608282,"speed_ms":7.323847597597597,"peak_altitude_m":0.0,"u_ms":-0.9670533033033033,"v_ms":7.223149399399399}},{"type":"Feature","geometry":{"type":"Point","coordinates":[-74.4108,39.947]},"properties":{"site":"KDIX","name":"Philadelphia PA","scan_time":"2026-09-13T00:01:58Z","stale":false,"bins":25,"density_birds_km3":13.598125,"heading_deg":321.7165555901576,"speed_ms":5.067230505649194,"peak_altitude_m":200.0,"u_ms":-2.893605760325986,"v_ms":3.373646971661419}},{"type":"Feature","geometry":{"type":"Point","coordinates":[-84.5658,33.3636]},"properties":{"site":"KFFC","name":"Atlanta GA","scan_time":"2026-09-12T23:57:57Z","stale":false,"bins":25,"density_birds_km3":4.543333333333333,"heading_deg":51.71324313083391,"speed_ms":2.339732942039619,"peak_altitude_m":200.0,"u_ms":1.7749992663242848,"v_ms":1.4350154071900223}},{"type":"Feature","geometry":{"type":"Point","coordinates":[-85.5449,42.8939]},"properties":{"site":"KGRR","name":"Grand Rapids MI","scan_time":"2026-09-12T23:59:28Z","stale":false,"bins":25,"density_birds_km3":0.20866666666666667,"heading_deg":61.62648780399899,"speed_ms":6.404185303514376,"peak_altitude_m":200.0,"u_ms":5.630255591054313,"v_ms":2.953801916932907}},{"type":"Feature","geometry":{"type":"Point","coordinates":[-83.8217,39.4203]},"properties":{"site":"KILN","name":"Wilmington OH","scan_time":"2026-09-13T00:00:54Z","stale":false,"bins":25,"density_birds_km3":0.2046666666666667,"heading_deg":351.88831292647035,"speed_ms":3.2257328990228014,"peak_altitude_m":200.0,"u_ms":-0.367328990228013,"v_ms":2.6509120521172633}},{"type":"Feature","geometry":{"type":"Point","coordinates":[-81.7019,30.4846]},"properties":{"site":"KJAX","name":"Jacksonville FL","scan_time":"2026-09-12T23:58:45Z","stale":false,"bins":25,"density_birds_km3":15.243125,"heading_deg":null,"speed_ms":null,"peak_altitude_m":0.0,"u_ms":null,"v_ms":null}},{"type":"Feature","geometry":{"type":"Point","coordinates":[-88.0847,41.6045]},"properties":{"site":"KLOT","name":"Chicago IL","scan_time":"2026-09-13T00:00:20Z","stale":false,"bins":25,"density_birds_km3":3.4313333333333333,"heading_deg":110.49882591933465,"speed_ms":6.426576224868241,"peak_altitude_m":400.0,"u_ms":5.975166894397814,"v_ms":-2.2702439976576225}},{"type":"Feature","geometry":{"type":"Point","coordinates":[-78.4292,33.9892]},"properties":{"site":"KLTX","name":"Wilmington NC","scan_time":"2026-09-13T00:01:55Z","stale":false,"bins":25,"density_birds_km3":3.250625,"heading_deg":8.370093659856039,"speed_ms":6.008810852414855,"peak_altitude_m":0.0,"u_ms":0.8695862997883395,"v_ms":5.945734077352319}},{"type":"Feature","geometry":{"type":"Point","coordinates":[-77.4778,38.9753]},"properties":{"site":"KLWX","name":"Sterling VA","scan_time":"2026-09-13T00:00:29Z","stale":false,"bins":25,"density_birds_km3":7.966875,"heading_deg":294.56604453986665,"speed_ms":6.5223995588467,"peak_altitude_m":0.0,"u_ms":-5.855575862612258,"v_ms":2.762938396092643}},{"type":"Feature","geometry":{"type":"Point","coordinates":[-76.8762,34.7759]},"properties":{"site":"KMHX","name":"Morehead City NC","scan_time":"2026-09-13T00:00:45Z","stale":false,"bins":25,"density_birds_km3":3.6875,"heading_deg":11.556145353563593,"speed_ms":6.467675170068027,"peak_altitude_m":200.0,"u_ms":1.2985629251700679,"v_ms":6.31268537414966}},{"type":"Feature","geometry":{"type":"Point","coordinates":[-80.6542,28.1133]},"properties":{"site":"KMLB","name":"Melbourne FL","scan_time":"2026-09-12T23:59:58Z","stale":false,"bins":25,"density_birds_km3":8.650625,"heading_deg":111.80000000000001,"speed_ms":5.18,"peak_altitude_m":0.0,"u_ms":4.81,"v_ms":-1.9200000000000002}},{"type":"Feature","geometry":{"type":"Point","coordinates":[-86.5625,36.2472]},"properties":{"site":"KOHX","name":"Nashville TN","scan_time":"2026-09-13T00:00:37Z","stale":false,"bins":25,"density_birds_km3":10.598,"heading_deg":138.26999897497046,"speed_ms":7.626238913002454,"peak_altitude_m":200.0,"u_ms":5.07263760457948,"v_ms":-5.690652324337925}},{"type":"Feature","geometry":{"type":"Point","coordinates":[-72.8639,40.8655]},"properties":{"site":"KOKX","name":"Upton NY","scan_time":"2026-09-13T00:02:42Z","stale":false,"bins":25,"density_birds_km3":5.546875,"heading_deg":325.9397318076197,"speed_ms":5.579853471596032,"peak_altitude_m":0.0,"u_ms":-3.058633904418395,"v_ms":4.548436654643823}},{"type":"Feature","geometry":{"type":"Point","coordinates":[-80.2183,40.5317]},"properties":{"site":"KPBZ","name":"Pittsburgh PA","scan_time":"2026-09-12T23:58:42Z","stale":false,"bins":25,"density_birds_km3":4.45625,"heading_deg":null,"speed_ms":null,"peak_altitude_m":400.0,"u_ms":null,"v_ms":null}},{"type":"Feature","geometry":{"type":"Point","coordinates":[-78.4899,35.6655]},"properties":{"site":"KRAX","name":"Raleigh NC","scan_time":"2026-09-13T00:00:14Z","stale":false,"bins":25,"density_birds_km3":6.838125,"heading_deg":30.684663246920344,"speed_ms":5.175044845122515,"peak_altitude_m":0.0,"u_ms":2.5002894128525197,"v_ms":4.489913083680074}},{"type":"Feature","geometry":{"type":"Point","coordinates":[-82.4017,27.7055]},"properties":{"site":"KTBW","name":"Tampa FL","scan_time":"2026-09-12T23:57:24Z","stale":false,"bins":25,"density_birds_km3":12.543125,"heading_deg":253.8121703601622,"speed_ms":3.1429936718321794,"peak_altitude_m":0.0,"u_ms":-3.0101948278439385,"v_ms":-0.866223030544621}}]}