{"type":"FeatureCollection","frame":"2026-09-24T01","site_count":20,"fresh_count":20,"failures":{},"features":[{"type":"Feature","geometry":{"type":"Point","coordinates":[-77.0073,36.984]},"properties":{"site":"KAKQ","name":"Wakefield VA","scan_time":"2026-09-24T01:05:25Z","stale":false,"bins":25,"density_birds_km3":10.73,"heading_deg":202.78923922264886,"speed_ms":11.011348612558008,"peak_altitude_m":200.0,"u_ms":-4.283545790321053,"v_ms":-9.584495690879818}},{"type":"Feature","geometry":{"type":"Point","coordinates":[-71.1369,41.9558]},"properties":{"site":"KBOX","name":"Boston MA","scan_time":"2026-09-24T00:56:19Z","stale":false,"bins":25,"density_birds_km3":2.48625,"heading_deg":222.76504972058086,"speed_ms":13.341417445482865,"peak_altitude_m":200.0,"u_ms":-9.23364745586708,"v_ms":-9.565166147455866}},{"type":"Feature","geometry":{"type":"Point","coordinates":[-78.7369,42.9489]},"properties":{"site":"KBUF","name":"Buffalo NY","scan_time":"2026-09-24T00:58:11Z","stale":false,"bins":25,"density_birds_km3":10.864666666666666,"heading_deg":240.86848910559624,"speed_ms":14.31606185187458,"peak_altitude_m":200.0,"u_ms":-12.259199852733632,"v_ms":-6.580279192489416}},{"type":"Feature","geometry":{"type":"Point","coordinates":[-81.8597,41.4131]},"properties":{"site":"KCLE","name":"Cleveland OH","scan_time":"2026-09-24T00:58:47Z","stale":false,"bins":25,"density_birds_km3":59.083333333333336,"heading_deg":260.4527178826994,"speed_ms":12.354497489421721,"peak_altitude_m":400.0,"u_ms":-12.038300028208745,"v_ms":-1.4002780253878702}},{"type":"Feature","geometry":{"type":"Point","coordinates":[-81.0423,32.6555]},"properties":{"site":"KCLX","name":"Charleston SC","scan_time":"2026-09-24T01:00:41Z","stale":false,"bins":25,"density_birds_km3":16.7775,"heading_deg":197.71563447676272,"speed_ms":12.054130729794934,"peak_altitude_m":200.0,"u_ms":-3.9267004674306394,"v_ms":-11.034435690591074}},{"type":"Feature","geometry":{"type":"Point","coordinates":[-74.4108,39.947]},"properties":{"site":"KDIX","name":"Philadelphia PA","scan_time":"2026-09-24T00:58:42Z","stale":false,"bins":25,"density_birds_km3":16.96875,"heading_deg":213.1248508261417,"speed_ms":17.21249358768836,"peak_altitude_m":200.0,"u_ms":-9.634179624879769,"v_ms":-14.107210243667842}},{"type":"Feature","geometry":{"type":"Point","coordinates":[-84.5658,33.3636]},"properties":{"site":"KFFC","name":"Atlanta GA","scan_time":"2026-09-24T01:02:29Z","stale":false,"bins":25,"density_birds_km3":43.63866666666667,"heading_deg":223.29187734304722,"speed_ms":8.378936722784076,"peak_altitude_m":600.0,"u_ms":-4.617140762015338,"v_ms":-5.312130526444437}},{"type":"Feature","geometry":{"type":"Point","coordinates":[-85.5449,42.8939]},"properties":{"site":"KGRR","name":"Grand Rapids MI","scan_time":"2026-09-24T00:58:03Z","stale":false,"bins":25,"density_birds_km3":6.997333333333334,"heading_deg":232.87389715321692,"speed_ms":10.893347308242019,"peak_altitude_m":400.0,"u_ms":-8.700108623153882,"v_ms":-6.125321581705575}},{"type":"Feature","geometry":{"type":"Point","coordinates":[-83.8217,39.4203]},"properties":{"site":"KILN","name":"Wilmington OH","scan_time":"2026-09-24T00:58:23Z","stale":false,"bins":25,"density_birds_km3":13.281333333333333,"heading_deg":234.70719739603882,"speed_ms":8.887241604337131,"peak_altitude_m":200.0,"u_ms":-7.13887304854174,"v_ms":-4.67955474122785}},{"type":"Feature","geometry":{"type":"Point","coordinates":[-81.7019,30.4846]},"properties":{"site":"KJAX","name":"Jacksonville FL","scan_time":"2026-09-24T01:01:06Z","stale":false,"bins":25,"density_birds_km3":59.486875,"heading_deg":184.26214810466604,"speed_ms":13.670116314565112,"peak_altitude_m":200.0,"u_ms":-1.2006733613330387,"v_ms":-13.517776339196429}},{"type":"Feature","geometry":{"type":"Point","coordinates":[-88.0847,41.6045]},"properties":{"site":"KLOT","name":"Chicago IL","scan_time":"2026-09-24T00:58:46Z","stale":false,"bins":25,"density_birds_km3":16.93,"heading_deg":196.0241576819212,"speed_ms":8.819931197885817,"peak_altitude_m":400.0,"u_ms":-2.419644142707431,"v_ms":-8.009529320636078}},{"type":"Feature","geometry":{"type":"Point","coordinates":[-78.4292,33.9892]},"properties":{"site":"KLTX","name":"Wilmington NC","scan_time":"2026-09-24T01:01:23Z","stale":false,"bins":25,"density_birds_km3":14.535625,"heading_deg":211.57621279531602,"speed_ms":18.46236068111455,"peak_altitude_m":400.0,"u_ms":-10.296111971104231,"v_ms":-14.755506535947712}},{"type":"Feature","geometry":{"type":"Point","coordinates":[-77.4778,38.9753]},"properties":{"site":"KLWX","name":"Sterling VA","scan_time":"2026-09-24T00:58:09Z","stale":false,"bins":25,"density_birds_km3":76.07124999999999,"heading_deg":216.03662030524742,"speed_ms":13.541653716813432,"peak_altitude_m":200.0,"u_ms":-8.18182629930194,"v_ms":-10.186289188722528}},{"type":"Feature","geometry":{"type":"Point","coordinates":[-76.8762,34.7759]},"properties":{"site":"KMHX","name":"Morehead City NC","scan_time":"2026-09-24T01:00:57Z","stale":false,"bins":25,"density_birds_km3":3.721875,"heading_deg":197.0376031841983,"speed_ms":17.06362888329135,"peak_altitude_m":200.0,"u_ms":-5.091402183039462,"v_ms":-16.19040470193115}},{"type":"Feature","geometry":{"type":"Point","coordinates":[-80.6542,28.1133]},"properties":{"site":"KMLB","name":"Melbourne FL","scan_time":"2026-09-24T00:59:31Z","stale":false,"bins":25,"density_birds_km3":25.54625,"heading_deg":159.8637047039108,"speed_ms":10.878539169153985,"peak_altitude_m":200.0,"u_ms":3.7118831041738027,"v_ms":-10.175989137348926}},{"type":"Feature","geometry":{"type":"Point","coordinates":[-86.5625,36.2472]},"properties":{"site":"KOHX","name":"Nashville TN","scan_time":"2026-09-24T01:00:53Z","stale":false,"bins":25,"density_birds_km3":25.774,"heading_deg":189.4260938315703,"speed_ms":7.547457127337626,"peak_altitude_m":400.0,"u_ms":-1.1448211375805075,"v_ms":-7.236158661183104}},{"type":"Feature","geometry":{"type":"Point","coordinates":[-72.8639,40.8655]},"properties":{"site":"KOKX","name":"Upton NY","scan_time":"2026-09-24T00:57:19Z","stale":false,"bins":25,"density_birds_km3":12.783125,"heading_deg":229.81222464496557,"speed_ms":20.508016039904152,"peak_altitude_m":200.0,"u_ms":-15.666747029194584,"v_ms":-13.18962540955548}},{"type":"Feature","geometry":{"type":"Point","coordinates":[-80.2183,40.5317]},"properties":{"site":"KPBZ","name":"Pittsburgh PA","scan_time":"2026-09-24T01:01:22Z","stale":false,"bins":25,"density_birds_km3":88.71214285714287,"heading_deg":243.4151324743413,"speed_ms":11.11940515803637,"peak_altitude_m":400.0,"u_ms":-9.935247468114763,"v_ms":-4.603532312253761}},{"type":"Feature","geometry":{"type":"Point","coordinates":[-78.4899,35.6655]},"properties":{"site":"KRAX","name":"Raleigh NC","scan_time":"2026-09-24T01:00:36Z","stale":false,"bins":25,"density_birds_km3":5.9775,"heading_deg":218.608027249557,"speed_ms":8.750110747811412,"peak_altitude_m":200.0,"u_ms":-5.497000316422318,"v_ms":-6.806265161902751}},{"type":"Feature","geometry":{"type":"Point","coordinates":[-82.4017,27.7055]},"properties":{"site":"KTBW","name":"Tampa FL","scan_time":"2026-09-24T01:00:27Z","stale":false,"bins":25,"density_birds_km3":20.476875,"heading_deg":207.82721404466503,"speed_ms":8.812770808534017,"peak_altitude_m":0.0,"u_ms":-3.2740445014192843,"v_ms":-7.797760888807496}}]}