{"type":"FeatureCollection","frame":"2026-09-01T01","site_count":20,"fresh_count":20,"failures":{},"features":[{"type":"Feature","geometry":{"type":"Point","coordinates":[-77.0073,36.984]},"properties":{"site":"KAKQ","name":"Wakefield VA","scan_time":"2026-09-01T01:01:44Z","stale":false,"bins":25,"density_birds_km3":15.35875,"heading_deg":271.9839511660171,"speed_ms":3.157125585182169,"peak_altitude_m":200.0,"u_ms":-2.525279462650112,"v_ms":-0.236092407897415}},{"type":"Feature","geometry":{"type":"Point","coordinates":[-71.1369,41.9558]},"properties":{"site":"KBOX","name":"Boston MA","scan_time":"2026-09-01T01:00:42Z","stale":false,"bins":25,"density_birds_km3":5.940625,"heading_deg":5.152258337319025,"speed_ms":5.99284179481778,"peak_altitude_m":0.0,"u_ms":0.14187065515062144,"v_ms":2.9051316621023804}},{"type":"Feature","geometry":{"type":"Point","coordinates":[-78.7369,42.9489]},"properties":{"site":"KBUF","name":"Buffalo NY","scan_time":"2026-09-01T01:01:43Z","stale":false,"bins":25,"density_birds_km3":3.4953333333333334,"heading_deg":60.18717949263535,"speed_ms":6.329629556259905,"peak_altitude_m":200.0,"u_ms":5.21936410459588,"v_ms":2.4533339936608556}},{"type":"Feature","geometry":{"type":"Point","coordinates":[-81.8597,41.4131]},"properties":{"site":"KCLE","name":"Cleveland OH","scan_time":"2026-09-01T00:59:40Z","stale":false,"bins":25,"density_birds_km3":7.171333333333333,"heading_deg":56.702569222714935,"speed_ms":4.152224099099098,"peak_altitude_m":200.0,"u_ms":3.389543918918919,"v_ms":2.3728932057057053}},{"type":"Feature","geometry":{"type":"Point","coordinates":[-81.0423,32.6555]},"properties":{"site":"KCLX","name":"Charleston SC","scan_time":"2026-09-01T01:01:40Z","stale":false,"bins":25,"density_birds_km3":9.415625,"heading_deg":277.5743482730856,"speed_ms":6.947868422867388,"peak_altitude_m":0.0,"u_ms":-5.090904765188608,"v_ms":-0.2161168195296876}},{"type":"Feature","geometry":{"type":"Point","coordinates":[-74.4108,39.947]},"properties":{"site":"KDIX","name":"Philadelphia PA","scan_time":"2026-09-01T00:58:42Z","stale":false,"bins":25,"density_birds_km3":11.103333333333333,"heading_deg":348.4335783668258,"speed_ms":3.494311693035097,"peak_altitude_m":200.0,"u_ms":-0.20998666424198353,"v_ms":-0.3104928168757956}},{"type":"Feature","geometry":{"type":"Point","coordinates":[-84.5658,33.3636]},"properties":{"site":"KFFC","name":"Atlanta GA","scan_time":"2026-09-01T00:58:13Z","stale":false,"bins":25,"density_birds_km3":29.955333333333332,"heading_deg":223.531631770966,"speed_ms":5.6542525434671305,"peak_altitude_m":400.0,"u_ms":-3.814528818540039,"v_ms":-4.034839154923306}},{"type":"Feature","geometry":{"type":"Point","coordinates":[-85.5449,42.8939]},"properties":{"site":"KGRR","name":"Grand Rapids MI","scan_time":"2026-09-01T01:02:14Z","stale":false,"bins":25,"density_birds_km3":6.384666666666666,"heading_deg":60.28347180575287,"speed_ms":6.375140616832201,"peak_altitude_m":200.0,"u_ms":5.618016727652901,"v_ms":2.887952953476216}},{"type":"Feature","geometry":{"type":"Point","coordinates":[-83.8217,39.4203]},"properties":{"site":"KILN","name":"Wilmington OH","scan_time":"2026-09-01T01:01:21Z","stale":false,"bins":25,"density_birds_km3":6.276,"heading_deg":68.78653647618488,"speed_ms":3.9371396564600447,"peak_altitude_m":200.0,"u_ms":3.7177595220313666,"v_ms":0.557541875600128}},{"type":"Feature","geometry":{"type":"Point","coordinates":[-81.7019,30.4846]},"properties":{"site":"KJAX","name":"Jacksonville FL","scan_time":"2026-09-01T01:00:37Z","stale":false,"bins":25,"density_birds_km3":43.277499999999996,"heading_deg":200.368288404102,"speed_ms":9.080713136489587,"peak_altitude_m":0.0,"u_ms":-3.054117033638233,"v_ms":-8.502483687393857}},{"type":"Feature","geometry":{"type":"Point","coordinates":[-88.0847,41.6045]},"properties":{"site":"KLOT","name":"Chicago IL","scan_time":"2026-09-01T00:58:55Z","stale":false,"bins":25,"density_birds_km3":2.728,"heading_deg":19.533619805057604,"speed_ms":8.665083088954058,"peak_altitude_m":200.0,"u_ms":3.0338660801564026,"v_ms":7.921358748778103}},{"type":"Feature","geometry":{"type":"Point","coordinates":[-78.4292,33.9892]},"properties":{"site":"KLTX","name":"Wilmington NC","scan_time":"2026-09-01T01:01:09Z","stale":false,"bins":25,"density_birds_km3":10.68875,"heading_deg":262.6973001190124,"speed_ms":6.794339856182954,"peak_altitude_m":200.0,"u_ms":-4.522917010491571,"v_ms":-1.8712884592714842}},{"type":"Feature","geometry":{"type":"Point","coordinates":[-77.4778,38.9753]},"properties":{"site":"KLWX","name":"Sterling VA","scan_time":"2026-09-01T00:59:26Z","stale":false,"bins":25,"density_birds_km3":18.664375,"heading_deg":36.53870419757125,"speed_ms":4.453082686466419,"peak_altitude_m":200.0,"u_ms":1.3452537968275395,"v_ms":-2.391798177522781}},{"type":"Feature","geometry":{"type":"Point","coordinates":[-76.8762,34.7759]},"properties":{"site":"KMHX","name":"Morehead City NC","scan_time":"2026-09-01T01:01:50Z","stale":false,"bins":25,"density_birds_km3":10.7075,"heading_deg":254.56975491765218,"speed_ms":6.198462932647334,"peak_altitude_m":200.0,"u_ms":-3.2923462347988774,"v_ms":-2.1703537184284376}},{"type":"Feature","geometry":{"type":"Point","coordinates":[-80.6542,28.1133]},"properties":{"site":"KMLB","name":"Melbourne FL","scan_time":"2026-09-01T00:59:06Z","stale":false,"bins":25,"density_birds_km3":14.514375,"heading_deg":187.0368976973778,"speed_ms":8.536818260120587,"peak_altitude_m":0.0,"u_ms":-1.0583884582256675,"v_ms":-8.407242463393626}},{"type":"Feature","geometry":{"type":"Point","coordinates":[-86.5625,36.2472]},"properties":{"site":"KOHX","name":"Nashville TN","scan_time":"2026-09-01T00:58:41Z","stale":false,"bins":25,"density_birds_km3":11.328666666666667,"heading_deg":309.80314955306784,"speed_ms":1.174372977108221,"peak_altitude_m":200.0,"u_ms":-0.7083375507561936,"v_ms":0.7910163008297533}},{"type":"Feature","geometry":{"type":"Point","coordinates":[-72.8639,40.8655]},"properties":{"site":"KOKX","name":"Upton NY","scan_time":"2026-09-01T01:00:41Z","stale":false,"bins":25,"density_birds_km3":14.300769230769232,"heading_deg":271.9905910590642,"speed_ms":5.984729715031542,"peak_altitude_m":0.0,"u_ms":-5.238381009353926,"v_ms":0.3447949749836851}},{"type":"Feature","geometry":{"type":"Point","coordinates":[-80.2183,40.5317]},"properties":{"site":"KPBZ","name":"Pittsburgh PA","scan_time":"2026-09-01T00:58:22Z","stale":false,"bins":25,"density_birds_km3":5.559230769230769,"heading_deg":69.06010925786026,"speed_ms":5.5320143480095645,"peak_altitude_m":400.0,"u_ms":5.016119004079336,"v_ms":1.4414559009706005}},{"type":"Feature","geometry":{"type":"Point","coordinates":[-78.4899,35.6655]},"properties":{"site":"KRAX","name":"Raleigh NC","scan_time":"2026-09-01T00:58:07Z","stale":false,"bins":25,"density_birds_km3":13.459999999999999,"heading_deg":2.6506950567389023,"speed_ms":4.932093417459272,"peak_altitude_m":0.0,"u_ms":-0.09205009887936719,"v_ms":3.3379428383086918}},{"type":"Feature","geometry":{"type":"Point","coordinates":[-82.4017,27.7055]},"properties":{"site":"KTBW","name":"Tampa FL","scan_time":"2026-09-01T01:00:35Z","stale":false,"bins":25,"density_birds_km3":39.475625,"heading_deg":222.6728163582211,"speed_ms":5.300445450214387,"peak_altitude_m":0.0,"u_ms":-3.4465896458631096,"v_ms":-4.000208194378276}}]}