{"type":"FeatureCollection","frame":"2026-09-23T10","site_count":20,"fresh_count":20,"failures":{},"features":[{"type":"Feature","geometry":{"type":"Point","coordinates":[-77.0073,36.984]},"properties":{"site":"KAKQ","name":"Wakefield VA","scan_time":"2026-09-23T10:01:24Z","stale":false,"bins":25,"density_birds_km3":0.24625000000000002,"heading_deg":null,"speed_ms":null,"peak_altitude_m":0.0,"u_ms":null,"v_ms":null}},{"type":"Feature","geometry":{"type":"Point","coordinates":[-71.1369,41.9558]},"properties":{"site":"KBOX","name":"Boston MA","scan_time":"2026-09-23T09:59:26Z","stale":false,"bins":25,"density_birds_km3":0.194375,"heading_deg":223.99646456925348,"speed_ms":9.39858064516129,"peak_altitude_m":0.0,"u_ms":-6.567516129032258,"v_ms":-6.5923225806451615}},{"type":"Feature","geometry":{"type":"Point","coordinates":[-78.7369,42.9489]},"properties":{"site":"KBUF","name":"Buffalo NY","scan_time":"2026-09-23T09:59:13Z","stale":false,"bins":25,"density_birds_km3":1.2646666666666666,"heading_deg":278.3464463158541,"speed_ms":10.682282551396943,"peak_altitude_m":200.0,"u_ms":-10.48691618344755,"v_ms":1.4817343173431734}},{"type":"Feature","geometry":{"type":"Point","coordinates":[-81.8597,41.4131]},"properties":{"site":"KCLE","name":"Cleveland OH","scan_time":"2026-09-23T10:01:44Z","stale":false,"bins":25,"density_birds_km3":1.3172727272727274,"heading_deg":273.7244913662703,"speed_ms":9.692096627164995,"peak_altitude_m":200.0,"u_ms":-9.525961713764813,"v_ms":0.9389334548769371}},{"type":"Feature","geometry":{"type":"Point","coordinates":[-81.0423,32.6555]},"properties":{"site":"KCLX","name":"Charleston SC","scan_time":"2026-09-23T09:58:36Z","stale":false,"bins":25,"density_birds_km3":0.84375,"heading_deg":217.77662367813667,"speed_ms":6.573330751355538,"peak_altitude_m":0.0,"u_ms":-4.054213787761425,"v_ms":-5.13559256390395}},{"type":"Feature","geometry":{"type":"Point","coordinates":[-74.4108,39.947]},"properties":{"site":"KDIX","name":"Philadelphia PA","scan_time":"2026-09-23T10:02:37Z","stale":false,"bins":25,"density_birds_km3":0.030625,"heading_deg":null,"speed_ms":null,"peak_altitude_m":0.0,"u_ms":null,"v_ms":null}},{"type":"Feature","geometry":{"type":"Point","coordinates":[-84.5658,33.3636]},"properties":{"site":"KFFC","name":"Atlanta GA","scan_time":"2026-09-23T10:01:04Z","stale":false,"bins":25,"density_birds_km3":60.74933333333333,"heading_deg":201.18854836536366,"speed_ms":11.625290593038057,"peak_altitude_m":1400.0,"u_ms":-3.8582153987972436,"v_ms":-10.7960396821913}},{"type":"Feature","geometry":{"type":"Point","coordinates":[-85.5449,42.8939]},"properties":{"site":"KGRR","name":"Grand Rapids MI","scan_time":"2026-09-23T10:02:00Z","stale":false,"bins":25,"density_birds_km3":1.068,"heading_deg":252.56745154554665,"speed_ms":12.964700374531834,"peak_altitude_m":200.0,"u_ms":-12.3263670411985,"v_ms":-3.6023533083645445}},{"type":"Feature","geometry":{"type":"Point","coordinates":[-83.8217,39.4203]},"properties":{"site":"KILN","name":"Wilmington OH","scan_time":"2026-09-23T10:00:51Z","stale":false,"bins":25,"density_birds_km3":5.687777777777778,"heading_deg":224.37231851138418,"speed_ms":5.14252168769716,"peak_altitude_m":200.0,"u_ms":-3.544722003154574,"v_ms":-3.5016206624605677}},{"type":"Feature","geometry":{"type":"Point","coordinates":[-81.7019,30.4846]},"properties":{"site":"KJAX","name":"Jacksonville FL","scan_time":"2026-09-23T10:00:44Z","stale":false,"bins":25,"density_birds_km3":84.36812499999999,"heading_deg":193.70439423242843,"speed_ms":12.390188533880538,"peak_altitude_m":0.0,"u_ms":-2.9418951914600453,"v_ms":-12.022300854143671}},{"type":"Feature","geometry":{"type":"Point","coordinates":[-88.0847,41.6045]},"properties":{"site":"KLOT","name":"Chicago IL","scan_time":"2026-09-23T09:58:15Z","stale":false,"bins":25,"density_birds_km3":1.0293333333333332,"heading_deg":250.79737627786025,"speed_ms":8.34866492146597,"peak_altitude_m":200.0,"u_ms":-7.792434554973823,"v_ms":-2.40776832460733}},{"type":"Feature","geometry":{"type":"Point","coordinates":[-78.4292,33.9892]},"properties":{"site":"KLTX","name":"Wilmington NC","scan_time":"2026-09-23T10:01:43Z","stale":false,"bins":25,"density_birds_km3":0.9925,"heading_deg":240.4662759995296,"speed_ms":12.116666666666669,"peak_altitude_m":0.0,"u_ms":-10.533333333333333,"v_ms":-5.966666666666667}},{"type":"Feature","geometry":{"type":"Point","coordinates":[-77.4778,38.9753]},"properties":{"site":"KLWX","name":"Sterling VA","scan_time":"2026-09-23T10:01:26Z","stale":false,"bins":25,"density_birds_km3":8.47,"heading_deg":null,"speed_ms":null,"peak_altitude_m":400.0,"u_ms":null,"v_ms":null}},{"type":"Feature","geometry":{"type":"Point","coordinates":[-76.8762,34.7759]},"properties":{"site":"KMHX","name":"Morehead City NC","scan_time":"2026-09-23T10:00:15Z","stale":false,"bins":25,"density_birds_km3":0.195,"heading_deg":219.52144184987836,"speed_ms":11.949032258064516,"peak_altitude_m":200.0,"u_ms":-7.573548387096774,"v_ms":-9.215806451612904}},{"type":"Feature","geometry":{"type":"Point","coordinates":[-80.6542,28.1133]},"properties":{"site":"KMLB","name":"Melbourne FL","scan_time":"2026-09-23T09:59:32Z","stale":false,"bins":25,"density_birds_km3":6.04125,"heading_deg":97.7557740810721,"speed_ms":1.7835764535485208,"peak_altitude_m":0.0,"u_ms":1.3449441340782122,"v_ms":-0.1107221187668115}},{"type":"Feature","geometry":{"type":"Point","coordinates":[-86.5625,36.2472]},"properties":{"site":"KOHX","name":"Nashville TN","scan_time":"2026-09-23T10:01:35Z","stale":false,"bins":25,"density_birds_km3":13.643333333333334,"heading_deg":188.0106107831341,"speed_ms":5.400977421561919,"peak_altitude_m":800.0,"u_ms":-0.2143167823282181,"v_ms":-4.668383833447366}},{"type":"Feature","geometry":{"type":"Point","coordinates":[-72.8639,40.8655]},"properties":{"site":"KOKX","name":"Upton NY","scan_time":"2026-09-23T10:02:22Z","stale":false,"bins":25,"density_birds_km3":0.07,"heading_deg":233.42059417138813,"speed_ms":13.216074766355138,"peak_altitude_m":0.0,"u_ms":-10.614018691588784,"v_ms":-7.639158878504672}},{"type":"Feature","geometry":{"type":"Point","coordinates":[-80.2183,40.5317]},"properties":{"site":"KPBZ","name":"Pittsburgh PA","scan_time":"2026-09-23T09:59:18Z","stale":false,"bins":25,"density_birds_km3":2.05,"heading_deg":257.211830105409,"speed_ms":11.05537630662021,"peak_altitude_m":400.0,"u_ms":-10.54690592334495,"v_ms":-2.131595818815331}},{"type":"Feature","geometry":{"type":"Point","coordinates":[-78.4899,35.6655]},"properties":{"site":"KRAX","name":"Raleigh NC","scan_time":"2026-09-23T10:00:04Z","stale":false,"bins":25,"density_birds_km3":0.53375,"heading_deg":183.6,"speed_ms":7.87,"peak_altitude_m":400.0,"u_ms":-0.5,"v_ms":-7.849999999999999}},{"type":"Feature","geometry":{"type":"Point","coordinates":[-82.4017,27.7055]},"properties":{"site":"KTBW","name":"Tampa FL","scan_time":"2026-09-23T09:57:25Z","stale":false,"bins":25,"density_birds_km3":4.9375,"heading_deg":292.15306443492517,"speed_ms":3.3854037974683546,"peak_altitude_m":0.0,"u_ms":-3.0655898734177214,"v_ms":0.9433101265822785}}]}