{"type":"FeatureCollection","frame":"2026-09-20T11","site_count":20,"fresh_count":20,"failures":{},"features":[{"type":"Feature","geometry":{"type":"Point","coordinates":[-77.0073,36.984]},"properties":{"site":"KAKQ","name":"Wakefield VA","scan_time":"2026-09-20T10:59:58Z","stale":false,"bins":25,"density_birds_km3":0.12687500000000002,"heading_deg":319.3515092563447,"speed_ms":4.909289340101524,"peak_altitude_m":0.0,"u_ms":-3.1293908629441627,"v_ms":3.575837563451777}},{"type":"Feature","geometry":{"type":"Point","coordinates":[-71.1369,41.9558]},"properties":{"site":"KBOX","name":"Boston MA","scan_time":"2026-09-20T10:57:39Z","stale":false,"bins":25,"density_birds_km3":1.995625,"heading_deg":340.7351998196084,"speed_ms":3.23068943904732,"peak_altitude_m":0.0,"u_ms":-0.6013350047007207,"v_ms":2.7702632403635223}},{"type":"Feature","geometry":{"type":"Point","coordinates":[-78.7369,42.9489]},"properties":{"site":"KBUF","name":"Buffalo NY","scan_time":"2026-09-20T10:56:44Z","stale":false,"bins":25,"density_birds_km3":0.31933333333333336,"heading_deg":187.2082750335007,"speed_ms":3.559235668789809,"peak_altitude_m":200.0,"u_ms":-0.49696390658174106,"v_ms":-3.353779193205945}},{"type":"Feature","geometry":{"type":"Point","coordinates":[-81.8597,41.4131]},"properties":{"site":"KCLE","name":"Cleveland OH","scan_time":"2026-09-20T10:58:33Z","stale":false,"bins":25,"density_birds_km3":0.22,"heading_deg":194.44722331722946,"speed_ms":2.483633540372671,"peak_altitude_m":200.0,"u_ms":-0.4419254658385094,"v_ms":-2.345031055900621}},{"type":"Feature","geometry":{"type":"Point","coordinates":[-81.0423,32.6555]},"properties":{"site":"KCLX","name":"Charleston SC","scan_time":"2026-09-20T11:01:47Z","stale":false,"bins":25,"density_birds_km3":0.13874999999999998,"heading_deg":248.676415560029,"speed_ms":4.752477477477478,"peak_altitude_m":200.0,"u_ms":-4.2502252252252255,"v_ms":-1.5755405405405405}},{"type":"Feature","geometry":{"type":"Point","coordinates":[-74.4108,39.947]},"properties":{"site":"KDIX","name":"Philadelphia PA","scan_time":"2026-09-20T10:59:38Z","stale":false,"bins":25,"density_birds_km3":0.016875,"heading_deg":null,"speed_ms":null,"peak_altitude_m":0.0,"u_ms":null,"v_ms":null}},{"type":"Feature","geometry":{"type":"Point","coordinates":[-84.5658,33.3636]},"properties":{"site":"KFFC","name":"Atlanta GA","scan_time":"2026-09-20T10:58:41Z","stale":false,"bins":25,"density_birds_km3":2.17,"heading_deg":212.65401429358826,"speed_ms":5.0787584511370625,"peak_altitude_m":200.0,"u_ms":-2.010267363245237,"v_ms":-4.039459127228027}},{"type":"Feature","geometry":{"type":"Point","coordinates":[-85.5449,42.8939]},"properties":{"site":"KGRR","name":"Grand Rapids MI","scan_time":"2026-09-20T11:01:52Z","stale":false,"bins":25,"density_birds_km3":0.38499999999999995,"heading_deg":null,"speed_ms":null,"peak_altitude_m":200.0,"u_ms":null,"v_ms":null}},{"type":"Feature","geometry":{"type":"Point","coordinates":[-83.8217,39.4203]},"properties":{"site":"KILN","name":"Wilmington OH","scan_time":"2026-09-20T11:01:42Z","stale":false,"bins":25,"density_birds_km3":1.0446666666666666,"heading_deg":51.89870890289272,"speed_ms":10.24197984161267,"peak_altitude_m":600.0,"u_ms":7.952829373650109,"v_ms":5.277768178545716}},{"type":"Feature","geometry":{"type":"Point","coordinates":[-81.7019,30.4846]},"properties":{"site":"KJAX","name":"Jacksonville FL","scan_time":"2026-09-20T11:00:23Z","stale":false,"bins":25,"density_birds_km3":13.555,"heading_deg":205.0105340615188,"speed_ms":7.420697685142488,"peak_altitude_m":200.0,"u_ms":-3.200050262842387,"v_ms":-6.467121645301115}},{"type":"Feature","geometry":{"type":"Point","coordinates":[-88.0847,41.6045]},"properties":{"site":"KLOT","name":"Chicago IL","scan_time":"2026-09-20T10:59:14Z","stale":false,"bins":25,"density_birds_km3":3.1710000000000003,"heading_deg":130.7,"speed_ms":3.23,"peak_altitude_m":200.0,"u_ms":2.45,"v_ms":-2.11}},{"type":"Feature","geometry":{"type":"Point","coordinates":[-78.4292,33.9892]},"properties":{"site":"KLTX","name":"Wilmington NC","scan_time":"2026-09-20T10:59:20Z","stale":false,"bins":25,"density_birds_km3":3.471875,"heading_deg":232.9750058709285,"speed_ms":8.438693929021799,"peak_altitude_m":0.0,"u_ms":-6.523923617366241,"v_ms":-5.089978382273464}},{"type":"Feature","geometry":{"type":"Point","coordinates":[-77.4778,38.9753]},"properties":{"site":"KLWX","name":"Sterling VA","scan_time":"2026-09-20T10:57:02Z","stale":false,"bins":25,"density_birds_km3":2.518125,"heading_deg":358.9971128260105,"speed_ms":10.143386374937842,"peak_altitude_m":0.0,"u_ms":-0.06520387866732966,"v_ms":10.018525609149677}},{"type":"Feature","geometry":{"type":"Point","coordinates":[-76.8762,34.7759]},"properties":{"site":"KMHX","name":"Morehead City NC","scan_time":"2026-09-20T10:57:56Z","stale":false,"bins":25,"density_birds_km3":0.933125,"heading_deg":219.1524406332551,"speed_ms":5.560957803081045,"peak_altitude_m":0.0,"u_ms":-2.8701808439383796,"v_ms":-3.9059879437374416}},{"type":"Feature","geometry":{"type":"Point","coordinates":[-80.6542,28.1133]},"properties":{"site":"KMLB","name":"Melbourne FL","scan_time":"2026-09-20T11:02:43Z","stale":false,"bins":25,"density_birds_km3":1.9168749999999999,"heading_deg":181.5013055826467,"speed_ms":3.489328333876753,"peak_altitude_m":200.0,"u_ms":0.02222041082491037,"v_ms":-3.3802575806977506}},{"type":"Feature","geometry":{"type":"Point","coordinates":[-86.5625,36.2472]},"properties":{"site":"KOHX","name":"Nashville TN","scan_time":"2026-09-20T10:57:32Z","stale":false,"bins":25,"density_birds_km3":10.306666666666667,"heading_deg":31.649143081999735,"speed_ms":8.979786545924966,"peak_altitude_m":200.0,"u_ms":4.593486416558862,"v_ms":6.482234799482536}},{"type":"Feature","geometry":{"type":"Point","coordinates":[-72.8639,40.8655]},"properties":{"site":"KOKX","name":"Upton NY","scan_time":"2026-09-20T10:59:53Z","stale":false,"bins":25,"density_birds_km3":2.055,"heading_deg":290.7528297385355,"speed_ms":8.293467153284672,"peak_altitude_m":200.0,"u_ms":-7.679166666666665,"v_ms":2.666684914841849}},{"type":"Feature","geometry":{"type":"Point","coordinates":[-80.2183,40.5317]},"properties":{"site":"KPBZ","name":"Pittsburgh PA","scan_time":"2026-09-20T11:00:46Z","stale":false,"bins":25,"density_birds_km3":0.11,"heading_deg":81.7459704802565,"speed_ms":5.940529801324503,"peak_altitude_m":400.0,"u_ms":5.755298013245033,"v_ms":0.610662251655629}},{"type":"Feature","geometry":{"type":"Point","coordinates":[-78.4899,35.6655]},"properties":{"site":"KRAX","name":"Raleigh NC","scan_time":"2026-09-20T11:01:51Z","stale":false,"bins":25,"density_birds_km3":1.9425000000000001,"heading_deg":254.95044402726936,"speed_ms":4.180804634695848,"peak_altitude_m":0.0,"u_ms":-3.8371805600257485,"v_ms":-1.1104216285806243}},{"type":"Feature","geometry":{"type":"Point","coordinates":[-82.4017,27.7055]},"properties":{"site":"KTBW","name":"Tampa FL","scan_time":"2026-09-20T11:02:02Z","stale":false,"bins":25,"density_birds_km3":1.731875,"heading_deg":255.96244947352034,"speed_ms":3.666514987360057,"peak_altitude_m":0.0,"u_ms":-3.178479595521849,"v_ms":-0.9569664138678223}}]}