{"type":"FeatureCollection","frame":"2026-10-05T07","site_count":20,"fresh_count":20,"failures":{},"features":[{"type":"Feature","geometry":{"type":"Point","coordinates":[-77.0073,36.984]},"properties":{"site":"KAKQ","name":"Wakefield VA","scan_time":"2026-10-05T07:01:14Z","stale":false,"bins":25,"density_birds_km3":37.309374999999996,"heading_deg":177.55223028091208,"speed_ms":8.832692900459008,"peak_altitude_m":0.0,"u_ms":0.42488843099809026,"v_ms":-8.739187690555166}},{"type":"Feature","geometry":{"type":"Point","coordinates":[-71.1369,41.9558]},"properties":{"site":"KBOX","name":"Boston MA","scan_time":"2026-10-05T06:58:22Z","stale":false,"bins":25,"density_birds_km3":0.36937499999999995,"heading_deg":176.24443692579237,"speed_ms":4.582876480541455,"peak_altitude_m":0.0,"u_ms":0.4037901861252115,"v_ms":-4.4415228426395945}},{"type":"Feature","geometry":{"type":"Point","coordinates":[-78.7369,42.9489]},"properties":{"site":"KBUF","name":"Buffalo NY","scan_time":"2026-10-05T07:01:31Z","stale":false,"bins":25,"density_birds_km3":6.95,"heading_deg":154.36473298713577,"speed_ms":11.40468330134357,"peak_altitude_m":200.0,"u_ms":4.819746641074856,"v_ms":-10.26016122840691}},{"type":"Feature","geometry":{"type":"Point","coordinates":[-81.8597,41.4131]},"properties":{"site":"KCLE","name":"Cleveland OH","scan_time":"2026-10-05T06:57:55Z","stale":false,"bins":25,"density_birds_km3":7.161333333333333,"heading_deg":168.10708889483467,"speed_ms":11.46349366144668,"peak_altitude_m":200.0,"u_ms":2.3638338926174494,"v_ms":-11.212110365398956}},{"type":"Feature","geometry":{"type":"Point","coordinates":[-81.0423,32.6555]},"properties":{"site":"KCLX","name":"Charleston SC","scan_time":"2026-10-05T07:01:39Z","stale":false,"bins":25,"density_birds_km3":52.63,"heading_deg":194.77275231712014,"speed_ms":2.8039517014270032,"peak_altitude_m":0.0,"u_ms":-0.7579699102473041,"v_ms":-2.599830825853942}},{"type":"Feature","geometry":{"type":"Point","coordinates":[-74.4108,39.947]},"properties":{"site":"KDIX","name":"Philadelphia PA","scan_time":"2026-10-05T07:00:44Z","stale":false,"bins":25,"density_birds_km3":5.084375,"heading_deg":168.23062754604697,"speed_ms":9.030461027784607,"peak_altitude_m":400.0,"u_ms":1.817564543889845,"v_ms":-8.821057290386035}},{"type":"Feature","geometry":{"type":"Point","coordinates":[-84.5658,33.3636]},"properties":{"site":"KFFC","name":"Atlanta GA","scan_time":"2026-10-05T07:00:02Z","stale":false,"bins":25,"density_birds_km3":32.68333333333333,"heading_deg":195.9423694266044,"speed_ms":6.004348393676696,"peak_altitude_m":400.0,"u_ms":-1.8936399796022436,"v_ms":-5.495836002039775}},{"type":"Feature","geometry":{"type":"Point","coordinates":[-85.5449,42.8939]},"properties":{"site":"KGRR","name":"Grand Rapids MI","scan_time":"2026-10-05T06:58:08Z","stale":false,"bins":25,"density_birds_km3":18.457333333333334,"heading_deg":164.96139961976257,"speed_ms":16.233246162181686,"peak_altitude_m":400.0,"u_ms":4.19656275961712,"v_ms":-15.674168322196135}},{"type":"Feature","geometry":{"type":"Point","coordinates":[-83.8217,39.4203]},"properties":{"site":"KILN","name":"Wilmington OH","scan_time":"2026-10-05T07:00:22Z","stale":false,"bins":25,"density_birds_km3":24.987333333333332,"heading_deg":168.34518964170658,"speed_ms":14.150283640632923,"peak_altitude_m":400.0,"u_ms":2.532636817247912,"v_ms":-13.62585852656296}},{"type":"Feature","geometry":{"type":"Point","coordinates":[-81.7019,30.4846]},"properties":{"site":"KJAX","name":"Jacksonville FL","scan_time":"2026-10-05T06:58:14Z","stale":false,"bins":25,"density_birds_km3":12.64,"heading_deg":222.80523391810618,"speed_ms":5.678182363827339,"peak_altitude_m":200.0,"u_ms":-3.831701095383384,"v_ms":-4.190055519431801}},{"type":"Feature","geometry":{"type":"Point","coordinates":[-88.0847,41.6045]},"properties":{"site":"KLOT","name":"Chicago IL","scan_time":"2026-10-05T06:56:39Z","stale":false,"bins":25,"density_birds_km3":33.874,"heading_deg":173.46907613290057,"speed_ms":14.318956422469787,"peak_altitude_m":400.0,"u_ms":1.6575199779553593,"v_ms":-14.199181199070976}},{"type":"Feature","geometry":{"type":"Point","coordinates":[-78.4292,33.9892]},"properties":{"site":"KLTX","name":"Wilmington NC","scan_time":"2026-10-05T07:02:53Z","stale":false,"bins":25,"density_birds_km3":42.9675,"heading_deg":208.905350829155,"speed_ms":5.3654031194916385,"peak_altitude_m":0.0,"u_ms":-1.4726887470190044,"v_ms":-4.082769030232111}},{"type":"Feature","geometry":{"type":"Point","coordinates":[-77.4778,38.9753]},"properties":{"site":"KLWX","name":"Sterling VA","scan_time":"2026-10-05T07:04:10Z","stale":false,"bins":25,"density_birds_km3":29.332,"heading_deg":217.02685368707682,"speed_ms":10.639264347288526,"peak_altitude_m":200.0,"u_ms":-3.498791771130268,"v_ms":-5.475191125459354}},{"type":"Feature","geometry":{"type":"Point","coordinates":[-76.8762,34.7759]},"properties":{"site":"KMHX","name":"Morehead City NC","scan_time":"2026-10-05T06:58:00Z","stale":false,"bins":25,"density_birds_km3":7.909999999999999,"heading_deg":333.59443868008935,"speed_ms":4.925135778942354,"peak_altitude_m":0.0,"u_ms":1.719651421311736,"v_ms":-1.7406106082261394}},{"type":"Feature","geometry":{"type":"Point","coordinates":[-80.6542,28.1133]},"properties":{"site":"KMLB","name":"Melbourne FL","scan_time":"2026-10-05T07:01:14Z","stale":false,"bins":25,"density_birds_km3":2.399375,"heading_deg":303.77581384333695,"speed_ms":2.808661109663975,"peak_altitude_m":0.0,"u_ms":-2.219445168012503,"v_ms":1.5031023704089608}},{"type":"Feature","geometry":{"type":"Point","coordinates":[-86.5625,36.2472]},"properties":{"site":"KOHX","name":"Nashville TN","scan_time":"2026-10-05T06:59:20Z","stale":false,"bins":25,"density_birds_km3":98.81266666666667,"heading_deg":190.34855780262924,"speed_ms":10.30443721790054,"peak_altitude_m":200.0,"u_ms":-1.930555191979436,"v_ms":-10.020605253037735}},{"type":"Feature","geometry":{"type":"Point","coordinates":[-72.8639,40.8655]},"properties":{"site":"KOKX","name":"Upton NY","scan_time":"2026-10-05T07:01:59Z","stale":false,"bins":25,"density_birds_km3":2.1243749999999997,"heading_deg":164.38843867089832,"speed_ms":4.781965527668581,"peak_altitude_m":0.0,"u_ms":1.2477109162382822,"v_ms":-4.567411551254914}},{"type":"Feature","geometry":{"type":"Point","coordinates":[-80.2183,40.5317]},"properties":{"site":"KPBZ","name":"Pittsburgh PA","scan_time":"2026-10-05T06:58:13Z","stale":false,"bins":25,"density_birds_km3":6.167857142857143,"heading_deg":138.96327739596794,"speed_ms":13.416106543138389,"peak_altitude_m":600.0,"u_ms":8.560943833236829,"v_ms":-10.07811696583671}},{"type":"Feature","geometry":{"type":"Point","coordinates":[-78.4899,35.6655]},"properties":{"site":"KRAX","name":"Raleigh NC","scan_time":"2026-10-05T06:59:09Z","stale":false,"bins":25,"density_birds_km3":22.51125,"heading_deg":164.23903500211682,"speed_ms":7.321508663778741,"peak_altitude_m":400.0,"u_ms":1.9268560479840053,"v_ms":-7.019102243696546}},{"type":"Feature","geometry":{"type":"Point","coordinates":[-82.4017,27.7055]},"properties":{"site":"KTBW","name":"Tampa FL","scan_time":"2026-10-05T07:01:15Z","stale":false,"bins":25,"density_birds_km3":7.486875,"heading_deg":276.8390932622581,"speed_ms":5.4817724160961765,"peak_altitude_m":0.0,"u_ms":-4.438667557188179,"v_ms":0.9427325096009352}}]}