{"type":"FeatureCollection","frame":"2026-09-08T03","site_count":20,"fresh_count":19,"failures":{"KOKX":"RuntimeError('no scan within 20 min of 2026-09-08T03:00Z')"},"features":[{"type":"Feature","geometry":{"type":"Point","coordinates":[-77.0073,36.984]},"properties":{"site":"KAKQ","name":"Wakefield VA","scan_time":"2026-09-08T02:57:55Z","stale":false,"bins":25,"density_birds_km3":10.065625,"heading_deg":235.55744997036868,"speed_ms":7.386042598112271,"peak_altitude_m":0.0,"u_ms":-3.789676477893691,"v_ms":-3.575756333830104}},{"type":"Feature","geometry":{"type":"Point","coordinates":[-71.1369,41.9558]},"properties":{"site":"KBOX","name":"Boston MA","scan_time":"2026-09-08T02:56:15Z","stale":false,"bins":25,"density_birds_km3":2.30125,"heading_deg":169.13806258359745,"speed_ms":10.312677357977712,"peak_altitude_m":0.0,"u_ms":1.4798831204131557,"v_ms":-9.783783636857843}},{"type":"Feature","geometry":{"type":"Point","coordinates":[-78.7369,42.9489]},"properties":{"site":"KBUF","name":"Buffalo NY","scan_time":"2026-09-08T02:58:43Z","stale":false,"bins":25,"density_birds_km3":6.738,"heading_deg":190.88628886388315,"speed_ms":8.199334124863954,"peak_altitude_m":1400.0,"u_ms":-1.5877144553279905,"v_ms":-7.7135054912436924}},{"type":"Feature","geometry":{"type":"Point","coordinates":[-81.8597,41.4131]},"properties":{"site":"KCLE","name":"Cleveland OH","scan_time":"2026-09-08T03:02:59Z","stale":false,"bins":25,"density_birds_km3":10.402666666666667,"heading_deg":263.46611274549,"speed_ms":9.201787591334444,"peak_altitude_m":400.0,"u_ms":-9.024387258043841,"v_ms":-1.1092609921804897}},{"type":"Feature","geometry":{"type":"Point","coordinates":[-81.0423,32.6555]},"properties":{"site":"KCLX","name":"Charleston SC","scan_time":"2026-09-08T03:00:18Z","stale":false,"bins":25,"density_birds_km3":14.60625,"heading_deg":229.17189042141436,"speed_ms":13.079189571024918,"peak_altitude_m":0.0,"u_ms":-9.874592430858806,"v_ms":-8.239541484716158}},{"type":"Feature","geometry":{"type":"Point","coordinates":[-74.4108,39.947]},"properties":{"site":"KDIX","name":"Philadelphia PA","scan_time":"2026-09-08T03:00:16Z","stale":false,"bins":25,"density_birds_km3":15.45875,"heading_deg":185.373335370857,"speed_ms":7.700351742540632,"peak_altitude_m":1400.0,"u_ms":-1.5669928034284792,"v_ms":-6.485154847578232}},{"type":"Feature","geometry":{"type":"Point","coordinates":[-84.5658,33.3636]},"properties":{"site":"KFFC","name":"Atlanta GA","scan_time":"2026-09-08T03:00:51Z","stale":false,"bins":25,"density_birds_km3":31.455333333333336,"heading_deg":258.861108699198,"speed_ms":9.690389759023375,"peak_altitude_m":600.0,"u_ms":-8.946569103278724,"v_ms":-1.1678583388084691}},{"type":"Feature","geometry":{"type":"Point","coordinates":[-85.5449,42.8939]},"properties":{"site":"KGRR","name":"Grand Rapids MI","scan_time":"2026-09-08T02:57:29Z","stale":false,"bins":25,"density_birds_km3":13.527999999999999,"heading_deg":329.9043219997025,"speed_ms":4.562181155135029,"peak_altitude_m":200.0,"u_ms":-2.1573891188645775,"v_ms":3.91561403508772}},{"type":"Feature","geometry":{"type":"Point","coordinates":[-83.8217,39.4203]},"properties":{"site":"KILN","name":"Wilmington OH","scan_time":"2026-09-08T02:57:45Z","stale":false,"bins":25,"density_birds_km3":7.017333333333334,"heading_deg":270.03767656863545,"speed_ms":9.731978909367282,"peak_altitude_m":200.0,"u_ms":-8.2358882766483,"v_ms":-0.19755177655329648}},{"type":"Feature","geometry":{"type":"Point","coordinates":[-81.7019,30.4846]},"properties":{"site":"KJAX","name":"Jacksonville FL","scan_time":"2026-09-08T02:59:18Z","stale":false,"bins":25,"density_birds_km3":94.439375,"heading_deg":191.719592139657,"speed_ms":10.905703129653283,"peak_altitude_m":0.0,"u_ms":-2.2117656830109262,"v_ms":-10.597211372375135}},{"type":"Feature","geometry":{"type":"Point","coordinates":[-88.0847,41.6045]},"properties":{"site":"KLOT","name":"Chicago IL","scan_time":"2026-09-08T02:57:02Z","stale":false,"bins":25,"density_birds_km3":6.5793333333333335,"heading_deg":290.5439585389838,"speed_ms":9.12391022393353,"peak_altitude_m":400.0,"u_ms":-6.795420002026548,"v_ms":2.762903029688925}},{"type":"Feature","geometry":{"type":"Point","coordinates":[-78.4292,33.9892]},"properties":{"site":"KLTX","name":"Wilmington NC","scan_time":"2026-09-08T03:01:57Z","stale":false,"bins":25,"density_birds_km3":22.831875,"heading_deg":223.4573498459892,"speed_ms":14.507310956578875,"peak_altitude_m":0.0,"u_ms":-9.97306932048404,"v_ms":-10.390469254777418}},{"type":"Feature","geometry":{"type":"Point","coordinates":[-77.4778,38.9753]},"properties":{"site":"KLWX","name":"Sterling VA","scan_time":"2026-09-08T03:01:40Z","stale":false,"bins":25,"density_birds_km3":24.537499999999998,"heading_deg":241.18668032049018,"speed_ms":6.3611846805470496,"peak_altitude_m":200.0,"u_ms":-5.106626862625025,"v_ms":-2.4485461318636457}},{"type":"Feature","geometry":{"type":"Point","coordinates":[-76.8762,34.7759]},"properties":{"site":"KMHX","name":"Morehead City NC","scan_time":"2026-09-08T02:58:09Z","stale":false,"bins":25,"density_birds_km3":6.161875,"heading_deg":228.68382013918404,"speed_ms":10.707658991784156,"peak_altitude_m":0.0,"u_ms":-7.97158636778578,"v_ms":-6.785293640328633}},{"type":"Feature","geometry":{"type":"Point","coordinates":[-80.6542,28.1133]},"properties":{"site":"KMLB","name":"Melbourne FL","scan_time":"2026-09-08T02:57:57Z","stale":false,"bins":25,"density_birds_km3":14.945,"heading_deg":175.781682711403,"speed_ms":6.914359735697558,"peak_altitude_m":0.0,"u_ms":0.5886270491803279,"v_ms":-6.826308966209434}},{"type":"Feature","geometry":{"type":"Point","coordinates":[-86.5625,36.2472]},"properties":{"site":"KOHX","name":"Nashville TN","scan_time":"2026-09-08T03:00:41Z","stale":false,"bins":25,"density_birds_km3":69.83733333333333,"heading_deg":256.7329297062113,"speed_ms":5.720562163503761,"peak_altitude_m":200.0,"u_ms":-5.354989022108519,"v_ms":-1.2633788995379742}},{"type":"Feature","geometry":{"type":"Point","coordinates":[-80.2183,40.5317]},"properties":{"site":"KPBZ","name":"Pittsburgh PA","scan_time":"2026-09-08T02:58:01Z","stale":false,"bins":25,"density_birds_km3":20.847857142857144,"heading_deg":245.78570574360708,"speed_ms":7.026834207009969,"peak_altitude_m":600.0,"u_ms":-5.628651454414636,"v_ms":-2.983346010210025}},{"type":"Feature","geometry":{"type":"Point","coordinates":[-78.4899,35.6655]},"properties":{"site":"KRAX","name":"Raleigh NC","scan_time":"2026-09-08T02:58:32Z","stale":false,"bins":25,"density_birds_km3":22.1025,"heading_deg":250.76998370309005,"speed_ms":8.529900455303865,"peak_altitude_m":0.0,"u_ms":-7.297802663951811,"v_ms":-2.6453129153587285}},{"type":"Feature","geometry":{"type":"Point","coordinates":[-82.4017,27.7055]},"properties":{"site":"KTBW","name":"Tampa FL","scan_time":"2026-09-08T03:01:54Z","stale":false,"bins":25,"density_birds_km3":10.874375,"heading_deg":212.97523299269895,"speed_ms":5.252355882521984,"peak_altitude_m":0.0,"u_ms":-2.628430944307144,"v_ms":-3.8629168343008216}}]}