{"type":"FeatureCollection","frame":"2026-09-07T07","site_count":20,"fresh_count":20,"failures":{},"features":[{"type":"Feature","geometry":{"type":"Point","coordinates":[-77.0073,36.984]},"properties":{"site":"KAKQ","name":"Wakefield VA","scan_time":"2026-09-07T07:02:52Z","stale":false,"bins":25,"density_birds_km3":15.0425,"heading_deg":207.47206861528818,"speed_ms":9.213799293579887,"peak_altitude_m":0.0,"u_ms":-3.9684836900062335,"v_ms":-8.15507251194681}},{"type":"Feature","geometry":{"type":"Point","coordinates":[-71.1369,41.9558]},"properties":{"site":"KBOX","name":"Boston MA","scan_time":"2026-09-07T06:58:15Z","stale":false,"bins":25,"density_birds_km3":0.943125,"heading_deg":168.37778417437002,"speed_ms":9.772133863485752,"peak_altitude_m":0.0,"u_ms":1.8946852220013253,"v_ms":-9.033147779986745}},{"type":"Feature","geometry":{"type":"Point","coordinates":[-78.7369,42.9489]},"properties":{"site":"KBUF","name":"Buffalo NY","scan_time":"2026-09-07T07:03:56Z","stale":false,"bins":25,"density_birds_km3":8.725999999999999,"heading_deg":242.89825458569425,"speed_ms":7.883423485369395,"peak_altitude_m":200.0,"u_ms":-6.970796088318436,"v_ms":-3.530634120253648}},{"type":"Feature","geometry":{"type":"Point","coordinates":[-81.8597,41.4131]},"properties":{"site":"KCLE","name":"Cleveland OH","scan_time":"2026-09-07T06:57:32Z","stale":false,"bins":25,"density_birds_km3":11.075333333333333,"heading_deg":253.40447488726335,"speed_ms":10.637741857805068,"peak_altitude_m":200.0,"u_ms":-10.092300282945036,"v_ms":-2.5075708867617843}},{"type":"Feature","geometry":{"type":"Point","coordinates":[-81.0423,32.6555]},"properties":{"site":"KCLX","name":"Charleston SC","scan_time":"2026-09-07T07:02:02Z","stale":false,"bins":25,"density_birds_km3":36.284375000000004,"heading_deg":222.00361123802617,"speed_ms":11.893535440530531,"peak_altitude_m":0.0,"u_ms":-7.687426922745671,"v_ms":-8.670085608474723}},{"type":"Feature","geometry":{"type":"Point","coordinates":[-74.4108,39.947]},"properties":{"site":"KDIX","name":"Philadelphia PA","scan_time":"2026-09-07T06:59:42Z","stale":false,"bins":25,"density_birds_km3":18.76625,"heading_deg":225.14661263930685,"speed_ms":7.908780349708576,"peak_altitude_m":0.0,"u_ms":-5.592797002497918,"v_ms":-5.539820815986678}},{"type":"Feature","geometry":{"type":"Point","coordinates":[-84.5658,33.3636]},"properties":{"site":"KFFC","name":"Atlanta GA","scan_time":"2026-09-07T06:56:56Z","stale":false,"bins":25,"density_birds_km3":52.61866666666666,"heading_deg":217.5558377848786,"speed_ms":7.045525795661869,"peak_altitude_m":200.0,"u_ms":-2.9178499391850807,"v_ms":-3.9292139671599435}},{"type":"Feature","geometry":{"type":"Point","coordinates":[-85.5449,42.8939]},"properties":{"site":"KGRR","name":"Grand Rapids MI","scan_time":"2026-09-07T06:57:59Z","stale":false,"bins":25,"density_birds_km3":12.373333333333333,"heading_deg":254.3594733605785,"speed_ms":6.040873524815433,"peak_altitude_m":200.0,"u_ms":-5.418577895133912,"v_ms":-1.537567494745918}},{"type":"Feature","geometry":{"type":"Point","coordinates":[-83.8217,39.4203]},"properties":{"site":"KILN","name":"Wilmington OH","scan_time":"2026-09-07T06:59:48Z","stale":false,"bins":25,"density_birds_km3":15.409333333333333,"heading_deg":223.37960613665248,"speed_ms":12.567881344930544,"peak_altitude_m":200.0,"u_ms":-8.034810679821714,"v_ms":-8.337741572547491}},{"type":"Feature","geometry":{"type":"Point","coordinates":[-81.7019,30.4846]},"properties":{"site":"KJAX","name":"Jacksonville FL","scan_time":"2026-09-07T06:58:12Z","stale":false,"bins":25,"density_birds_km3":37.904375,"heading_deg":171.71846879692575,"speed_ms":6.99315635695801,"peak_altitude_m":200.0,"u_ms":1.2122556139911513,"v_ms":-6.57838283663077}},{"type":"Feature","geometry":{"type":"Point","coordinates":[-88.0847,41.6045]},"properties":{"site":"KLOT","name":"Chicago IL","scan_time":"2026-09-07T06:57:06Z","stale":false,"bins":25,"density_birds_km3":17.151999999999997,"heading_deg":239.92627435081857,"speed_ms":9.496061878109455,"peak_altitude_m":200.0,"u_ms":-7.656421408582091,"v_ms":-4.395118159203981}},{"type":"Feature","geometry":{"type":"Point","coordinates":[-78.4292,33.9892]},"properties":{"site":"KLTX","name":"Wilmington NC","scan_time":"2026-09-07T07:01:08Z","stale":false,"bins":25,"density_birds_km3":21.2425,"heading_deg":230.18715810845947,"speed_ms":13.213877839237378,"peak_altitude_m":0.0,"u_ms":-9.98047399082029,"v_ms":-8.427769212663295}},{"type":"Feature","geometry":{"type":"Point","coordinates":[-77.4778,38.9753]},"properties":{"site":"KLWX","name":"Sterling VA","scan_time":"2026-09-07T07:02:12Z","stale":false,"bins":25,"density_birds_km3":41.00375,"heading_deg":224.30473286390395,"speed_ms":8.46245025842748,"peak_altitude_m":200.0,"u_ms":-5.525893366265684,"v_ms":-6.074146731921512}},{"type":"Feature","geometry":{"type":"Point","coordinates":[-76.8762,34.7759]},"properties":{"site":"KMHX","name":"Morehead City NC","scan_time":"2026-09-07T06:58:09Z","stale":false,"bins":25,"density_birds_km3":6.955625,"heading_deg":215.11534251708673,"speed_ms":9.083413318953896,"peak_altitude_m":0.0,"u_ms":-5.0321524220364875,"v_ms":-7.211952008627663}},{"type":"Feature","geometry":{"type":"Point","coordinates":[-80.6542,28.1133]},"properties":{"site":"KMLB","name":"Melbourne FL","scan_time":"2026-09-07T06:58:39Z","stale":false,"bins":25,"density_birds_km3":18.9925,"heading_deg":152.14926780721927,"speed_ms":7.699600829274714,"peak_altitude_m":0.0,"u_ms":3.746996840858234,"v_ms":-6.587383835724628}},{"type":"Feature","geometry":{"type":"Point","coordinates":[-86.5625,36.2472]},"properties":{"site":"KOHX","name":"Nashville TN","scan_time":"2026-09-07T07:01:07Z","stale":false,"bins":25,"density_birds_km3":104.45466666666668,"heading_deg":219.2699530172587,"speed_ms":10.603570735630129,"peak_altitude_m":200.0,"u_ms":-6.106366334358764,"v_ms":-7.19074456542551}},{"type":"Feature","geometry":{"type":"Point","coordinates":[-72.8639,40.8655]},"properties":{"site":"KOKX","name":"Upton NY","scan_time":"2026-09-07T06:58:09Z","stale":false,"bins":25,"density_birds_km3":9.15875,"heading_deg":217.3517905630832,"speed_ms":8.086048590732274,"peak_altitude_m":0.0,"u_ms":-4.926759025455538,"v_ms":-6.308938783866785}},{"type":"Feature","geometry":{"type":"Point","coordinates":[-80.2183,40.5317]},"properties":{"site":"KPBZ","name":"Pittsburgh PA","scan_time":"2026-09-07T06:59:43Z","stale":false,"bins":25,"density_birds_km3":16.50642857142857,"heading_deg":264.69631128440943,"speed_ms":10.326366350772425,"peak_altitude_m":400.0,"u_ms":-10.161327188541259,"v_ms":-1.1677740274351984}},{"type":"Feature","geometry":{"type":"Point","coordinates":[-78.4899,35.6655]},"properties":{"site":"KRAX","name":"Raleigh NC","scan_time":"2026-09-07T06:59:09Z","stale":false,"bins":25,"density_birds_km3":35.745,"heading_deg":210.73123095923776,"speed_ms":9.786969007577481,"peak_altitude_m":0.0,"u_ms":-4.969306476733808,"v_ms":-8.101356071609821}},{"type":"Feature","geometry":{"type":"Point","coordinates":[-82.4017,27.7055]},"properties":{"site":"KTBW","name":"Tampa FL","scan_time":"2026-09-07T07:02:24Z","stale":false,"bins":25,"density_birds_km3":13.289375000000001,"heading_deg":168.3667137648881,"speed_ms":8.50440316056815,"peak_altitude_m":0.0,"u_ms":1.72502116451886,"v_ms":-8.318387263662872}}]}