{"type":"FeatureCollection","frame":"2026-10-04T06","site_count":20,"fresh_count":20,"failures":{},"features":[{"type":"Feature","geometry":{"type":"Point","coordinates":[-77.0073,36.984]},"properties":{"site":"KAKQ","name":"Wakefield VA","scan_time":"2026-10-04T06:00:43Z","stale":false,"bins":25,"density_birds_km3":1.8875,"heading_deg":189.2843520257391,"speed_ms":5.952728494623656,"peak_altitude_m":0.0,"u_ms":-0.9165893817204303,"v_ms":-5.352123655913979}},{"type":"Feature","geometry":{"type":"Point","coordinates":[-71.1369,41.9558]},"properties":{"site":"KBOX","name":"Boston MA","scan_time":"2026-10-04T05:58:20Z","stale":false,"bins":25,"density_birds_km3":9.90125,"heading_deg":202.02805063115466,"speed_ms":10.432396057121194,"peak_altitude_m":0.0,"u_ms":-3.897006192341716,"v_ms":-9.469263237710098}},{"type":"Feature","geometry":{"type":"Point","coordinates":[-78.7369,42.9489]},"properties":{"site":"KBUF","name":"Buffalo NY","scan_time":"2026-10-04T06:01:07Z","stale":false,"bins":25,"density_birds_km3":7.166666666666667,"heading_deg":278.94615464148023,"speed_ms":9.341744186046512,"peak_altitude_m":200.0,"u_ms":-8.92002046511628,"v_ms":1.5193190697674417}},{"type":"Feature","geometry":{"type":"Point","coordinates":[-81.8597,41.4131]},"properties":{"site":"KCLE","name":"Cleveland OH","scan_time":"2026-10-04T05:58:52Z","stale":false,"bins":25,"density_birds_km3":20.45266666666667,"heading_deg":246.73281714661698,"speed_ms":7.825764441257009,"peak_altitude_m":200.0,"u_ms":-6.966354153083843,"v_ms":-3.2618874690311643}},{"type":"Feature","geometry":{"type":"Point","coordinates":[-81.0423,32.6555]},"properties":{"site":"KCLX","name":"Charleston SC","scan_time":"2026-10-04T06:00:36Z","stale":false,"bins":25,"density_birds_km3":3.9843749999999996,"heading_deg":235.10586295026945,"speed_ms":2.6336970390970063,"peak_altitude_m":0.0,"u_ms":-1.879414362833306,"v_ms":-1.3873613610338622}},{"type":"Feature","geometry":{"type":"Point","coordinates":[-74.4108,39.947]},"properties":{"site":"KDIX","name":"Philadelphia PA","scan_time":"2026-10-04T06:01:12Z","stale":false,"bins":25,"density_birds_km3":80.235,"heading_deg":221.88613968556922,"speed_ms":12.989560355224208,"peak_altitude_m":0.0,"u_ms":-8.648369931241875,"v_ms":-9.419234028223721}},{"type":"Feature","geometry":{"type":"Point","coordinates":[-84.5658,33.3636]},"properties":{"site":"KFFC","name":"Atlanta GA","scan_time":"2026-10-04T06:02:09Z","stale":false,"bins":25,"density_birds_km3":89.09066666666666,"heading_deg":147.48821218430925,"speed_ms":6.489118351342452,"peak_altitude_m":400.0,"u_ms":2.4292219162501123,"v_ms":-5.486567541680386}},{"type":"Feature","geometry":{"type":"Point","coordinates":[-85.5449,42.8939]},"properties":{"site":"KGRR","name":"Grand Rapids MI","scan_time":"2026-10-04T05:57:55Z","stale":false,"bins":25,"density_birds_km3":1.756,"heading_deg":334.6982384328463,"speed_ms":9.537811191473162,"peak_altitude_m":200.0,"u_ms":-3.7336848115721355,"v_ms":8.367826417967263}},{"type":"Feature","geometry":{"type":"Point","coordinates":[-83.8217,39.4203]},"properties":{"site":"KILN","name":"Wilmington OH","scan_time":"2026-10-04T05:58:21Z","stale":false,"bins":25,"density_birds_km3":27.755333333333336,"heading_deg":257.6447914821878,"speed_ms":10.251581104348036,"peak_altitude_m":200.0,"u_ms":-9.041229720881732,"v_ms":-2.132224458617261}},{"type":"Feature","geometry":{"type":"Point","coordinates":[-81.7019,30.4846]},"properties":{"site":"KJAX","name":"Jacksonville FL","scan_time":"2026-10-04T06:01:18Z","stale":false,"bins":25,"density_birds_km3":7.579375,"heading_deg":261.48749054012654,"speed_ms":3.033399323599769,"peak_altitude_m":0.0,"u_ms":-2.2370032170254888,"v_ms":0.15769858945805493}},{"type":"Feature","geometry":{"type":"Point","coordinates":[-88.0847,41.6045]},"properties":{"site":"KLOT","name":"Chicago IL","scan_time":"2026-10-04T06:01:41Z","stale":false,"bins":25,"density_birds_km3":3.3406666666666665,"heading_deg":357.7445195982031,"speed_ms":10.824576677316294,"peak_altitude_m":200.0,"u_ms":-0.5151317891373802,"v_ms":9.975367412140576}},{"type":"Feature","geometry":{"type":"Point","coordinates":[-78.4292,33.9892]},"properties":{"site":"KLTX","name":"Wilmington NC","scan_time":"2026-10-04T05:58:30Z","stale":false,"bins":25,"density_birds_km3":2.46875,"heading_deg":null,"speed_ms":null,"peak_altitude_m":0.0,"u_ms":null,"v_ms":null}},{"type":"Feature","geometry":{"type":"Point","coordinates":[-77.4778,38.9753]},"properties":{"site":"KLWX","name":"Sterling VA","scan_time":"2026-10-04T06:01:46Z","stale":false,"bins":25,"density_birds_km3":116.59,"heading_deg":202.49729741614607,"speed_ms":6.986841013772086,"peak_altitude_m":200.0,"u_ms":-2.60855370196384,"v_ms":-5.970003781021563}},{"type":"Feature","geometry":{"type":"Point","coordinates":[-76.8762,34.7759]},"properties":{"site":"KMHX","name":"Morehead City NC","scan_time":"2026-10-04T05:59:51Z","stale":false,"bins":25,"density_birds_km3":3.26625,"heading_deg":246.3873187692099,"speed_ms":5.026418996553045,"peak_altitude_m":0.0,"u_ms":-4.140804289544236,"v_ms":-1.9328054385292992}},{"type":"Feature","geometry":{"type":"Point","coordinates":[-80.6542,28.1133]},"properties":{"site":"KMLB","name":"Melbourne FL","scan_time":"2026-10-04T05:58:58Z","stale":false,"bins":25,"density_birds_km3":1.24375,"heading_deg":315.37565971024844,"speed_ms":6.670226244343892,"peak_altitude_m":200.0,"u_ms":-4.639245852187028,"v_ms":4.7502413273001505}},{"type":"Feature","geometry":{"type":"Point","coordinates":[-86.5625,36.2472]},"properties":{"site":"KOHX","name":"Nashville TN","scan_time":"2026-10-04T05:59:17Z","stale":false,"bins":25,"density_birds_km3":275.716,"heading_deg":206.34212060544039,"speed_ms":4.699387630750482,"peak_altitude_m":200.0,"u_ms":-1.3216717685347723,"v_ms":-3.6839059515346713}},{"type":"Feature","geometry":{"type":"Point","coordinates":[-72.8639,40.8655]},"properties":{"site":"KOKX","name":"Upton NY","scan_time":"2026-10-04T06:03:02Z","stale":false,"bins":25,"density_birds_km3":10.793125,"heading_deg":243.41201352686016,"speed_ms":13.572251375615405,"peak_altitude_m":0.0,"u_ms":-12.057768896611641,"v_ms":-6.002476107732407}},{"type":"Feature","geometry":{"type":"Point","coordinates":[-80.2183,40.5317]},"properties":{"site":"KPBZ","name":"Pittsburgh PA","scan_time":"2026-10-04T05:56:57Z","stale":false,"bins":25,"density_birds_km3":25.865000000000002,"heading_deg":267.423988271448,"speed_ms":10.654064234624839,"peak_altitude_m":400.0,"u_ms":-10.339061058794288,"v_ms":-0.4908328960813013}},{"type":"Feature","geometry":{"type":"Point","coordinates":[-78.4899,35.6655]},"properties":{"site":"KRAX","name":"Raleigh NC","scan_time":"2026-10-04T06:02:06Z","stale":false,"bins":25,"density_birds_km3":7.456875,"heading_deg":217.36757043655908,"speed_ms":5.642634891331712,"peak_altitude_m":0.0,"u_ms":-3.278985482923554,"v_ms":-4.28572459511622}},{"type":"Feature","geometry":{"type":"Point","coordinates":[-82.4017,27.7055]},"properties":{"site":"KTBW","name":"Tampa FL","scan_time":"2026-10-04T06:01:09Z","stale":false,"bins":25,"density_birds_km3":6.38875,"heading_deg":299.50109822984376,"speed_ms":5.932580708276267,"peak_altitude_m":0.0,"u_ms":-4.679459009978478,"v_ms":3.341654275092937}}]}