{"type":"FeatureCollection","frame":"2026-09-21T02","site_count":20,"fresh_count":20,"failures":{},"features":[{"type":"Feature","geometry":{"type":"Point","coordinates":[-77.0073,36.984]},"properties":{"site":"KAKQ","name":"Wakefield VA","scan_time":"2026-09-21T02:02:46Z","stale":false,"bins":25,"density_birds_km3":3.473125,"heading_deg":53.32327304551098,"speed_ms":7.66629836242577,"peak_altitude_m":200.0,"u_ms":5.102857657009177,"v_ms":3.374164117329494}},{"type":"Feature","geometry":{"type":"Point","coordinates":[-71.1369,41.9558]},"properties":{"site":"KBOX","name":"Boston MA","scan_time":"2026-09-21T01:58:03Z","stale":false,"bins":25,"density_birds_km3":0.5322222222222223,"heading_deg":288.5061807121813,"speed_ms":4.937770700636943,"peak_altitude_m":0.0,"u_ms":-4.652505307855626,"v_ms":1.551783439490446}},{"type":"Feature","geometry":{"type":"Point","coordinates":[-78.7369,42.9489]},"properties":{"site":"KBUF","name":"Buffalo NY","scan_time":"2026-09-21T02:01:16Z","stale":false,"bins":25,"density_birds_km3":25.827333333333335,"heading_deg":201.59633893594574,"speed_ms":11.91060685062337,"peak_altitude_m":600.0,"u_ms":-4.475738106915154,"v_ms":-11.002098810046203}},{"type":"Feature","geometry":{"type":"Point","coordinates":[-81.8597,41.4131]},"properties":{"site":"KCLE","name":"Cleveland OH","scan_time":"2026-09-21T02:02:14Z","stale":false,"bins":25,"density_birds_km3":19.636000000000003,"heading_deg":235.11768921928575,"speed_ms":14.456764234441424,"peak_altitude_m":800.0,"u_ms":-11.7349909401352,"v_ms":-8.334736915464491}},{"type":"Feature","geometry":{"type":"Point","coordinates":[-81.0423,32.6555]},"properties":{"site":"KCLX","name":"Charleston SC","scan_time":"2026-09-21T02:00:02Z","stale":false,"bins":25,"density_birds_km3":16.998125,"heading_deg":238.76512596540402,"speed_ms":7.360712859572581,"peak_altitude_m":200.0,"u_ms":-4.556497818531391,"v_ms":-4.440382681357687}},{"type":"Feature","geometry":{"type":"Point","coordinates":[-74.4108,39.947]},"properties":{"site":"KDIX","name":"Philadelphia PA","scan_time":"2026-09-21T02:01:45Z","stale":false,"bins":25,"density_birds_km3":1.8925,"heading_deg":54.28998159742882,"speed_ms":5.1629084112149535,"peak_altitude_m":200.0,"u_ms":3.9721794392523364,"v_ms":2.9157046728971965}},{"type":"Feature","geometry":{"type":"Point","coordinates":[-84.5658,33.3636]},"properties":{"site":"KFFC","name":"Atlanta GA","scan_time":"2026-09-21T02:00:10Z","stale":false,"bins":25,"density_birds_km3":38.11266666666667,"heading_deg":251.9920759727515,"speed_ms":8.377245885007609,"peak_altitude_m":400.0,"u_ms":-5.979482936556525,"v_ms":-3.109016774825517}},{"type":"Feature","geometry":{"type":"Point","coordinates":[-85.5449,42.8939]},"properties":{"site":"KGRR","name":"Grand Rapids MI","scan_time":"2026-09-21T01:59:32Z","stale":false,"bins":25,"density_birds_km3":221.80266666666665,"heading_deg":213.9878857049983,"speed_ms":15.173203448110032,"peak_altitude_m":200.0,"u_ms":-8.929889481340771,"v_ms":-11.906048138886216}},{"type":"Feature","geometry":{"type":"Point","coordinates":[-83.8217,39.4203]},"properties":{"site":"KILN","name":"Wilmington OH","scan_time":"2026-09-21T01:58:29Z","stale":false,"bins":25,"density_birds_km3":32.99666666666666,"heading_deg":191.19999999999996,"speed_ms":3.57,"peak_altitude_m":400.0,"u_ms":-0.69,"v_ms":-3.5}},{"type":"Feature","geometry":{"type":"Point","coordinates":[-81.7019,30.4846]},"properties":{"site":"KJAX","name":"Jacksonville FL","scan_time":"2026-09-21T01:58:34Z","stale":false,"bins":25,"density_birds_km3":76.3275,"heading_deg":184.32341830045596,"speed_ms":10.302979326387524,"peak_altitude_m":200.0,"u_ms":-0.7735222953934868,"v_ms":-10.266100681475658}},{"type":"Feature","geometry":{"type":"Point","coordinates":[-88.0847,41.6045]},"properties":{"site":"KLOT","name":"Chicago IL","scan_time":"2026-09-21T02:01:21Z","stale":false,"bins":25,"density_birds_km3":5.407333333333333,"heading_deg":227.19917937751262,"speed_ms":13.900262606337073,"peak_altitude_m":400.0,"u_ms":-10.201575638022438,"v_ms":-9.351379607939835}},{"type":"Feature","geometry":{"type":"Point","coordinates":[-78.4292,33.9892]},"properties":{"site":"KLTX","name":"Wilmington NC","scan_time":"2026-09-21T01:59:55Z","stale":false,"bins":25,"density_birds_km3":7.9,"heading_deg":244.41628812195387,"speed_ms":5.9531259892371,"peak_altitude_m":200.0,"u_ms":-4.134022633744856,"v_ms":-3.1546802785691677}},{"type":"Feature","geometry":{"type":"Point","coordinates":[-77.4778,38.9753]},"properties":{"site":"KLWX","name":"Sterling VA","scan_time":"2026-09-21T01:57:45Z","stale":false,"bins":25,"density_birds_km3":15.339375,"heading_deg":122.1658234962622,"speed_ms":7.854842285434836,"peak_altitude_m":400.0,"u_ms":6.464102208818975,"v_ms":-4.225366778058522}},{"type":"Feature","geometry":{"type":"Point","coordinates":[-76.8762,34.7759]},"properties":{"site":"KMHX","name":"Morehead City NC","scan_time":"2026-09-21T01:59:14Z","stale":false,"bins":25,"density_birds_km3":5.0962499999999995,"heading_deg":269.88498686882406,"speed_ms":4.800030663559426,"peak_altitude_m":200.0,"u_ms":-2.34148288973384,"v_ms":-0.8519416165828531}},{"type":"Feature","geometry":{"type":"Point","coordinates":[-80.6542,28.1133]},"properties":{"site":"KMLB","name":"Melbourne FL","scan_time":"2026-09-21T01:59:52Z","stale":false,"bins":25,"density_birds_km3":38.1275,"heading_deg":166.77915858457587,"speed_ms":7.233848764015475,"peak_altitude_m":0.0,"u_ms":1.5686872991934957,"v_ms":-7.005062290997312}},{"type":"Feature","geometry":{"type":"Point","coordinates":[-86.5625,36.2472]},"properties":{"site":"KOHX","name":"Nashville TN","scan_time":"2026-09-21T02:02:20Z","stale":false,"bins":25,"density_birds_km3":112.59666666666666,"heading_deg":192.04887643837833,"speed_ms":3.4703179490215814,"peak_altitude_m":400.0,"u_ms":-0.7640467154149028,"v_ms":-2.9911264395038337}},{"type":"Feature","geometry":{"type":"Point","coordinates":[-72.8639,40.8655]},"properties":{"site":"KOKX","name":"Upton NY","scan_time":"2026-09-21T02:02:37Z","stale":false,"bins":25,"density_birds_km3":0.45,"heading_deg":23.332397528105368,"speed_ms":4.714673539518901,"peak_altitude_m":200.0,"u_ms":1.8742611683848796,"v_ms":4.214501718213059}},{"type":"Feature","geometry":{"type":"Point","coordinates":[-80.2183,40.5317]},"properties":{"site":"KPBZ","name":"Pittsburgh PA","scan_time":"2026-09-21T02:01:43Z","stale":false,"bins":25,"density_birds_km3":26.300714285714285,"heading_deg":217.72130918015466,"speed_ms":9.966592256240142,"peak_altitude_m":600.0,"u_ms":-6.104189732992549,"v_ms":-7.526658872151829}},{"type":"Feature","geometry":{"type":"Point","coordinates":[-78.4899,35.6655]},"properties":{"site":"KRAX","name":"Raleigh NC","scan_time":"2026-09-21T02:00:55Z","stale":false,"bins":25,"density_birds_km3":9.89,"heading_deg":82.71759644158242,"speed_ms":4.65819514661274,"peak_altitude_m":200.0,"u_ms":1.6522901921132458,"v_ms":-0.48452098078867534}},{"type":"Feature","geometry":{"type":"Point","coordinates":[-82.4017,27.7055]},"properties":{"site":"KTBW","name":"Tampa FL","scan_time":"2026-09-21T01:58:20Z","stale":false,"bins":25,"density_birds_km3":16.735,"heading_deg":219.86390296224326,"speed_ms":6.339827830893338,"peak_altitude_m":0.0,"u_ms":-2.5975201673140127,"v_ms":-5.079405811174186}}]}