{"type":"FeatureCollection","frame":"2026-08-24T07","site_count":20,"fresh_count":20,"failures":{},"features":[{"type":"Feature","geometry":{"type":"Point","coordinates":[-77.0073,36.984]},"properties":{"site":"KAKQ","name":"Wakefield VA","scan_time":"2026-08-24T07:02:09Z","stale":false,"bins":25,"density_birds_km3":8.6875,"heading_deg":174.79016619993516,"speed_ms":9.32341510791367,"peak_altitude_m":200.0,"u_ms":0.694536690647482,"v_ms":-9.219238129496404}},{"type":"Feature","geometry":{"type":"Point","coordinates":[-71.1369,41.9558]},"properties":{"site":"KBOX","name":"Boston MA","scan_time":"2026-08-24T06:58:21Z","stale":false,"bins":25,"density_birds_km3":0.9862500000000001,"heading_deg":40.029991394101124,"speed_ms":6.690540712468193,"peak_altitude_m":0.0,"u_ms":4.297417302798982,"v_ms":4.80973282442748}},{"type":"Feature","geometry":{"type":"Point","coordinates":[-78.7369,42.9489]},"properties":{"site":"KBUF","name":"Buffalo NY","scan_time":"2026-08-24T06:59:22Z","stale":false,"bins":25,"density_birds_km3":0.7646666666666666,"heading_deg":null,"speed_ms":null,"peak_altitude_m":200.0,"u_ms":null,"v_ms":null}},{"type":"Feature","geometry":{"type":"Point","coordinates":[-81.8597,41.4131]},"properties":{"site":"KCLE","name":"Cleveland OH","scan_time":"2026-08-24T07:02:14Z","stale":false,"bins":25,"density_birds_km3":1.6013333333333333,"heading_deg":130.42400793266364,"speed_ms":9.213771856786012,"peak_altitude_m":800.0,"u_ms":7.032089925062448,"v_ms":-5.933476269775187}},{"type":"Feature","geometry":{"type":"Point","coordinates":[-81.0423,32.6555]},"properties":{"site":"KCLX","name":"Charleston SC","scan_time":"2026-08-24T06:57:47Z","stale":false,"bins":25,"density_birds_km3":3.698125,"heading_deg":39.82000462667628,"speed_ms":4.2842083897158325,"peak_altitude_m":0.0,"u_ms":2.3483000676589985,"v_ms":1.564583897158322}},{"type":"Feature","geometry":{"type":"Point","coordinates":[-74.4108,39.947]},"properties":{"site":"KDIX","name":"Philadelphia PA","scan_time":"2026-08-24T06:58:00Z","stale":false,"bins":25,"density_birds_km3":1.855625,"heading_deg":154.41442839667837,"speed_ms":5.535874031660491,"peak_altitude_m":200.0,"u_ms":2.177022566520714,"v_ms":-4.701926574604244}},{"type":"Feature","geometry":{"type":"Point","coordinates":[-84.5658,33.3636]},"properties":{"site":"KFFC","name":"Atlanta GA","scan_time":"2026-08-24T06:58:32Z","stale":false,"bins":25,"density_birds_km3":20.0,"heading_deg":196.02353776564385,"speed_ms":6.367188812587505,"peak_altitude_m":600.0,"u_ms":-1.8832852190146008,"v_ms":-5.329789652643509}},{"type":"Feature","geometry":{"type":"Point","coordinates":[-85.5449,42.8939]},"properties":{"site":"KGRR","name":"Grand Rapids MI","scan_time":"2026-08-24T07:00:46Z","stale":false,"bins":25,"density_birds_km3":0.8153333333333334,"heading_deg":153.760612343627,"speed_ms":8.702632869991824,"peak_altitude_m":400.0,"u_ms":3.282371218315617,"v_ms":-7.766271463614064}},{"type":"Feature","geometry":{"type":"Point","coordinates":[-83.8217,39.4203]},"properties":{"site":"KILN","name":"Wilmington OH","scan_time":"2026-08-24T07:00:06Z","stale":false,"bins":25,"density_birds_km3":8.261333333333333,"heading_deg":182.70893523536697,"speed_ms":11.966425861651464,"peak_altitude_m":600.0,"u_ms":-0.6641012188231495,"v_ms":-11.897451771732987}},{"type":"Feature","geometry":{"type":"Point","coordinates":[-81.7019,30.4846]},"properties":{"site":"KJAX","name":"Jacksonville FL","scan_time":"2026-08-24T06:58:17Z","stale":false,"bins":25,"density_birds_km3":8.50375,"heading_deg":145.87892356991742,"speed_ms":4.922163778561571,"peak_altitude_m":0.0,"u_ms":1.9213563870572001,"v_ms":-3.9233652813985587}},{"type":"Feature","geometry":{"type":"Point","coordinates":[-88.0847,41.6045]},"properties":{"site":"KLOT","name":"Chicago IL","scan_time":"2026-08-24T06:57:04Z","stale":false,"bins":25,"density_birds_km3":11.660666666666666,"heading_deg":157.72764349803742,"speed_ms":7.975371905551428,"peak_altitude_m":400.0,"u_ms":2.9901812360642617,"v_ms":-7.3670373334857935}},{"type":"Feature","geometry":{"type":"Point","coordinates":[-78.4292,33.9892]},"properties":{"site":"KLTX","name":"Wilmington NC","scan_time":"2026-08-24T06:57:43Z","stale":false,"bins":25,"density_birds_km3":3.760625,"heading_deg":282.1006708127506,"speed_ms":4.263175922846691,"peak_altitude_m":0.0,"u_ms":-3.2263185899567675,"v_ms":0.7851745926172263}},{"type":"Feature","geometry":{"type":"Point","coordinates":[-77.4778,38.9753]},"properties":{"site":"KLWX","name":"Sterling VA","scan_time":"2026-08-24T06:58:01Z","stale":false,"bins":25,"density_birds_km3":3.024375,"heading_deg":238.28909379408128,"speed_ms":3.067781682861278,"peak_altitude_m":0.0,"u_ms":0.3321066776927847,"v_ms":-0.01310109572048766}},{"type":"Feature","geometry":{"type":"Point","coordinates":[-76.8762,34.7759]},"properties":{"site":"KMHX","name":"Morehead City NC","scan_time":"2026-08-24T06:59:07Z","stale":false,"bins":25,"density_birds_km3":7.831875,"heading_deg":158.50942640494765,"speed_ms":5.675033675610026,"peak_altitude_m":0.0,"u_ms":1.9917687976151044,"v_ms":-5.172501932207132}},{"type":"Feature","geometry":{"type":"Point","coordinates":[-80.6542,28.1133]},"properties":{"site":"KMLB","name":"Melbourne FL","scan_time":"2026-08-24T06:59:14Z","stale":false,"bins":25,"density_birds_km3":4.096875,"heading_deg":97.80791150260562,"speed_ms":4.289859627708269,"peak_altitude_m":200.0,"u_ms":3.984288983826671,"v_ms":-0.5940692706743973}},{"type":"Feature","geometry":{"type":"Point","coordinates":[-86.5625,36.2472]},"properties":{"site":"KOHX","name":"Nashville TN","scan_time":"2026-08-24T07:01:19Z","stale":false,"bins":25,"density_birds_km3":24.752000000000002,"heading_deg":217.85953054614995,"speed_ms":6.096708414134884,"peak_altitude_m":400.0,"u_ms":-3.6307277526395176,"v_ms":-4.342557099762982}},{"type":"Feature","geometry":{"type":"Point","coordinates":[-72.8639,40.8655]},"properties":{"site":"KOKX","name":"Upton NY","scan_time":"2026-08-24T06:59:35Z","stale":false,"bins":25,"density_birds_km3":0.8374999999999999,"heading_deg":76.72655230613736,"speed_ms":6.901111940298508,"peak_altitude_m":0.0,"u_ms":6.516111940298508,"v_ms":1.5084552238805968}},{"type":"Feature","geometry":{"type":"Point","coordinates":[-80.2183,40.5317]},"properties":{"site":"KPBZ","name":"Pittsburgh PA","scan_time":"2026-08-24T06:58:18Z","stale":false,"bins":25,"density_birds_km3":3.4114285714285715,"heading_deg":171.93161752672964,"speed_ms":6.089537269681742,"peak_altitude_m":600.0,"u_ms":1.7693990787269682,"v_ms":-5.3804438860971535}},{"type":"Feature","geometry":{"type":"Point","coordinates":[-78.4899,35.6655]},"properties":{"site":"KRAX","name":"Raleigh NC","scan_time":"2026-08-24T07:01:26Z","stale":false,"bins":25,"density_birds_km3":8.899375000000001,"heading_deg":218.59828644198114,"speed_ms":6.0855437684417595,"peak_altitude_m":600.0,"u_ms":-2.570323169874947,"v_ms":-4.335978642686524}},{"type":"Feature","geometry":{"type":"Point","coordinates":[-82.4017,27.7055]},"properties":{"site":"KTBW","name":"Tampa FL","scan_time":"2026-08-24T07:02:04Z","stale":false,"bins":25,"density_birds_km3":2.544375,"heading_deg":7.192875096477707,"speed_ms":3.6729744346116027,"peak_altitude_m":200.0,"u_ms":0.2942994100294985,"v_ms":0.252367256637168}}]}