{"type":"FeatureCollection","frame":"2026-09-13T05","site_count":20,"fresh_count":20,"failures":{},"features":[{"type":"Feature","geometry":{"type":"Point","coordinates":[-77.0073,36.984]},"properties":{"site":"KAKQ","name":"Wakefield VA","scan_time":"2026-09-13T05:00:10Z","stale":false,"bins":25,"density_birds_km3":6.203125,"heading_deg":229.92089391929406,"speed_ms":4.118361382646377,"peak_altitude_m":0.0,"u_ms":0.08413886929356036,"v_ms":0.27201148846115064}},{"type":"Feature","geometry":{"type":"Point","coordinates":[-71.1369,41.9558]},"properties":{"site":"KBOX","name":"Boston MA","scan_time":"2026-09-13T05:00:58Z","stale":false,"bins":25,"density_birds_km3":0.601875,"heading_deg":358.0567599946645,"speed_ms":8.984158004158003,"peak_altitude_m":0.0,"u_ms":-0.1108939708939709,"v_ms":8.605166320166319}},{"type":"Feature","geometry":{"type":"Point","coordinates":[-78.7369,42.9489]},"properties":{"site":"KBUF","name":"Buffalo NY","scan_time":"2026-09-13T04:58:13Z","stale":false,"bins":25,"density_birds_km3":1.0613333333333332,"heading_deg":61.421911691653406,"speed_ms":7.809320754716981,"peak_altitude_m":200.0,"u_ms":6.754672955974843,"v_ms":3.6440943396226415}},{"type":"Feature","geometry":{"type":"Point","coordinates":[-81.8597,41.4131]},"properties":{"site":"KCLE","name":"Cleveland OH","scan_time":"2026-09-13T04:59:16Z","stale":false,"bins":25,"density_birds_km3":4.431333333333333,"heading_deg":102.76883166840646,"speed_ms":8.228047239356101,"peak_altitude_m":400.0,"u_ms":7.046590943282683,"v_ms":-1.021994884910486}},{"type":"Feature","geometry":{"type":"Point","coordinates":[-81.0423,32.6555]},"properties":{"site":"KCLX","name":"Charleston SC","scan_time":"2026-09-13T05:01:08Z","stale":false,"bins":25,"density_birds_km3":4.571875,"heading_deg":101.22616635894519,"speed_ms":4.559309260019149,"peak_altitude_m":0.0,"u_ms":4.000917795103269,"v_ms":0.29204076049787997}},{"type":"Feature","geometry":{"type":"Point","coordinates":[-74.4108,39.947]},"properties":{"site":"KDIX","name":"Philadelphia PA","scan_time":"2026-09-13T04:58:12Z","stale":false,"bins":25,"density_birds_km3":3.289375,"heading_deg":306.8471207915574,"speed_ms":6.468831464943947,"peak_altitude_m":200.0,"u_ms":-4.872437773133194,"v_ms":3.383087592627779}},{"type":"Feature","geometry":{"type":"Point","coordinates":[-84.5658,33.3636]},"properties":{"site":"KFFC","name":"Atlanta GA","scan_time":"2026-09-13T05:02:35Z","stale":false,"bins":25,"density_birds_km3":66.02133333333333,"heading_deg":147.06910925819068,"speed_ms":9.213799882866144,"peak_altitude_m":1400.0,"u_ms":3.882553316099846,"v_ms":-6.869331226270297}},{"type":"Feature","geometry":{"type":"Point","coordinates":[-85.5449,42.8939]},"properties":{"site":"KGRR","name":"Grand Rapids MI","scan_time":"2026-09-13T05:02:15Z","stale":false,"bins":25,"density_birds_km3":35.30266666666667,"heading_deg":146.59164332701872,"speed_ms":14.037881038784304,"peak_altitude_m":600.0,"u_ms":7.605466092084373,"v_ms":-11.742069630301655}},{"type":"Feature","geometry":{"type":"Point","coordinates":[-83.8217,39.4203]},"properties":{"site":"KILN","name":"Wilmington OH","scan_time":"2026-09-13T04:58:46Z","stale":false,"bins":25,"density_birds_km3":17.687333333333335,"heading_deg":133.27004557667667,"speed_ms":9.652904903697562,"peak_altitude_m":800.0,"u_ms":6.084323621423994,"v_ms":-6.389600467377785}},{"type":"Feature","geometry":{"type":"Point","coordinates":[-81.7019,30.4846]},"properties":{"site":"KJAX","name":"Jacksonville FL","scan_time":"2026-09-13T05:00:16Z","stale":false,"bins":25,"density_birds_km3":10.54625,"heading_deg":129.76924188293077,"speed_ms":4.027062833432129,"peak_altitude_m":0.0,"u_ms":2.867635447540012,"v_ms":-2.4436075874333136}},{"type":"Feature","geometry":{"type":"Point","coordinates":[-88.0847,41.6045]},"properties":{"site":"KLOT","name":"Chicago IL","scan_time":"2026-09-13T04:58:22Z","stale":false,"bins":25,"density_birds_km3":135.55733333333333,"heading_deg":161.9628350450364,"speed_ms":12.362716636503128,"peak_altitude_m":600.0,"u_ms":3.4242437640162096,"v_ms":-11.512897027579966}},{"type":"Feature","geometry":{"type":"Point","coordinates":[-78.4292,33.9892]},"properties":{"site":"KLTX","name":"Wilmington NC","scan_time":"2026-09-13T05:00:13Z","stale":false,"bins":25,"density_birds_km3":4.3,"heading_deg":343.16861766790385,"speed_ms":5.336936046511628,"peak_altitude_m":0.0,"u_ms":-0.8777383720930233,"v_ms":4.762959302325582}},{"type":"Feature","geometry":{"type":"Point","coordinates":[-77.4778,38.9753]},"properties":{"site":"KLWX","name":"Sterling VA","scan_time":"2026-09-13T05:00:13Z","stale":false,"bins":25,"density_birds_km3":15.741249999999999,"heading_deg":257.8881991544564,"speed_ms":5.105972128210234,"peak_altitude_m":200.0,"u_ms":-4.371319131992833,"v_ms":-0.8070459884531158}},{"type":"Feature","geometry":{"type":"Point","coordinates":[-76.8762,34.7759]},"properties":{"site":"KMHX","name":"Morehead City NC","scan_time":"2026-09-13T05:01:12Z","stale":false,"bins":25,"density_birds_km3":1.879375,"heading_deg":39.83576729842352,"speed_ms":7.598842700365813,"peak_altitude_m":0.0,"u_ms":4.912637179913536,"v_ms":5.7700199534419685}},{"type":"Feature","geometry":{"type":"Point","coordinates":[-80.6542,28.1133]},"properties":{"site":"KMLB","name":"Melbourne FL","scan_time":"2026-09-13T05:00:32Z","stale":false,"bins":25,"density_birds_km3":9.1025,"heading_deg":117.97673662260847,"speed_ms":4.521803199890132,"peak_altitude_m":0.0,"u_ms":3.851508617729863,"v_ms":-2.2184089816658656}},{"type":"Feature","geometry":{"type":"Point","coordinates":[-86.5625,36.2472]},"properties":{"site":"KOHX","name":"Nashville TN","scan_time":"2026-09-13T05:01:04Z","stale":false,"bins":25,"density_birds_km3":136.93266666666668,"heading_deg":155.51492221937954,"speed_ms":7.482977424427576,"peak_altitude_m":400.0,"u_ms":2.847343219781985,"v_ms":-6.677328321948987}},{"type":"Feature","geometry":{"type":"Point","coordinates":[-72.8639,40.8655]},"properties":{"site":"KOKX","name":"Upton NY","scan_time":"2026-09-13T04:58:31Z","stale":false,"bins":25,"density_birds_km3":1.454375,"heading_deg":309.0201195492069,"speed_ms":7.630879120879122,"peak_altitude_m":0.0,"u_ms":-5.547942057942058,"v_ms":4.575139860139861}},{"type":"Feature","geometry":{"type":"Point","coordinates":[-80.2183,40.5317]},"properties":{"site":"KPBZ","name":"Pittsburgh PA","scan_time":"2026-09-13T05:01:59Z","stale":false,"bins":25,"density_birds_km3":2.4071428571428575,"heading_deg":55.17957945210783,"speed_ms":7.124047994947901,"peak_altitude_m":600.0,"u_ms":5.8762014524786865,"v_ms":3.8083706978212826}},{"type":"Feature","geometry":{"type":"Point","coordinates":[-78.4899,35.6655]},"properties":{"site":"KRAX","name":"Raleigh NC","scan_time":"2026-09-13T05:01:50Z","stale":false,"bins":25,"density_birds_km3":8.8625,"heading_deg":326.34489824036376,"speed_ms":3.513061787812301,"peak_altitude_m":0.0,"u_ms":0.021745346450562524,"v_ms":2.2014884280557716}},{"type":"Feature","geometry":{"type":"Point","coordinates":[-82.4017,27.7055]},"properties":{"site":"KTBW","name":"Tampa FL","scan_time":"2026-09-13T05:00:14Z","stale":false,"bins":25,"density_birds_km3":7.25875,"heading_deg":264.3679761999873,"speed_ms":4.756275185121406,"peak_altitude_m":0.0,"u_ms":-1.778054933700706,"v_ms":-0.63472016531772}}]}