{"type":"FeatureCollection","frame":"2026-08-27T09","site_count":20,"fresh_count":20,"failures":{},"features":[{"type":"Feature","geometry":{"type":"Point","coordinates":[-77.0073,36.984]},"properties":{"site":"KAKQ","name":"Wakefield VA","scan_time":"2026-08-27T08:58:46Z","stale":false,"bins":25,"density_birds_km3":0.484375,"heading_deg":12.234120241233118,"speed_ms":6.997974193548386,"peak_altitude_m":0.0,"u_ms":1.494709677419355,"v_ms":6.766722580645161}},{"type":"Feature","geometry":{"type":"Point","coordinates":[-71.1369,41.9558]},"properties":{"site":"KBOX","name":"Boston MA","scan_time":"2026-08-27T08:59:38Z","stale":false,"bins":25,"density_birds_km3":0.699375,"heading_deg":48.86906487510934,"speed_ms":6.240456171735241,"peak_altitude_m":0.0,"u_ms":4.654758497316637,"v_ms":3.8731484794275493}},{"type":"Feature","geometry":{"type":"Point","coordinates":[-78.7369,42.9489]},"properties":{"site":"KBUF","name":"Buffalo NY","scan_time":"2026-08-27T09:03:22Z","stale":false,"bins":25,"density_birds_km3":2.555333333333333,"heading_deg":69.4753281446536,"speed_ms":14.197499999999998,"peak_altitude_m":600.0,"u_ms":13.31,"v_ms":4.93}},{"type":"Feature","geometry":{"type":"Point","coordinates":[-81.8597,41.4131]},"properties":{"site":"KCLE","name":"Cleveland OH","scan_time":"2026-08-27T09:00:11Z","stale":false,"bins":25,"density_birds_km3":1.166,"heading_deg":111.62452615063197,"speed_ms":8.346769759450172,"peak_altitude_m":200.0,"u_ms":7.457709049255441,"v_ms":-3.1449828178694155}},{"type":"Feature","geometry":{"type":"Point","coordinates":[-81.0423,32.6555]},"properties":{"site":"KCLX","name":"Charleston SC","scan_time":"2026-08-27T08:57:56Z","stale":false,"bins":25,"density_birds_km3":0.645,"heading_deg":60.586645042456475,"speed_ms":6.885436046511628,"peak_altitude_m":0.0,"u_ms":5.946356589147286,"v_ms":3.429496124031008}},{"type":"Feature","geometry":{"type":"Point","coordinates":[-74.4108,39.947]},"properties":{"site":"KDIX","name":"Philadelphia PA","scan_time":"2026-08-27T08:59:36Z","stale":false,"bins":25,"density_birds_km3":0.2425,"heading_deg":5.349990552124263,"speed_ms":9.291875,"peak_altitude_m":0.0,"u_ms":0.8949687499999999,"v_ms":9.12740625}},{"type":"Feature","geometry":{"type":"Point","coordinates":[-84.5658,33.3636]},"properties":{"site":"KFFC","name":"Atlanta GA","scan_time":"2026-08-27T08:59:21Z","stale":false,"bins":25,"density_birds_km3":4.644666666666667,"heading_deg":326.1346761043881,"speed_ms":2.617165829145729,"peak_altitude_m":400.0,"u_ms":-0.3556539842067481,"v_ms":0.8961536252692033}},{"type":"Feature","geometry":{"type":"Point","coordinates":[-85.5449,42.8939]},"properties":{"site":"KGRR","name":"Grand Rapids MI","scan_time":"2026-08-27T09:01:01Z","stale":false,"bins":25,"density_birds_km3":3.4593333333333334,"heading_deg":156.16955843333562,"speed_ms":9.18761473197069,"peak_altitude_m":400.0,"u_ms":3.533575009641342,"v_ms":-8.402250289240264}},{"type":"Feature","geometry":{"type":"Point","coordinates":[-83.8217,39.4203]},"properties":{"site":"KILN","name":"Wilmington OH","scan_time":"2026-08-27T08:59:45Z","stale":false,"bins":25,"density_birds_km3":3.759333333333333,"heading_deg":110.3647586287451,"speed_ms":11.671393326233582,"peak_altitude_m":600.0,"u_ms":10.588652822151225,"v_ms":-4.099859779907703}},{"type":"Feature","geometry":{"type":"Point","coordinates":[-81.7019,30.4846]},"properties":{"site":"KJAX","name":"Jacksonville FL","scan_time":"2026-08-27T09:01:33Z","stale":false,"bins":25,"density_birds_km3":10.554375,"heading_deg":188.6485468537951,"speed_ms":5.079720346012561,"peak_altitude_m":0.0,"u_ms":-0.839155113165067,"v_ms":-4.877571394715013}},{"type":"Feature","geometry":{"type":"Point","coordinates":[-88.0847,41.6045]},"properties":{"site":"KLOT","name":"Chicago IL","scan_time":"2026-08-27T09:02:16Z","stale":false,"bins":25,"density_birds_km3":36.73866666666667,"heading_deg":161.02391272780577,"speed_ms":10.649486444307334,"peak_altitude_m":200.0,"u_ms":3.49191866584401,"v_ms":-9.97167803868907}},{"type":"Feature","geometry":{"type":"Point","coordinates":[-78.4292,33.9892]},"properties":{"site":"KLTX","name":"Wilmington NC","scan_time":"2026-08-27T08:59:31Z","stale":false,"bins":25,"density_birds_km3":1.0318749999999999,"heading_deg":120.36375673684634,"speed_ms":2.4380170835875536,"peak_altitude_m":0.0,"u_ms":2.0013788895668094,"v_ms":-0.3684563758389262}},{"type":"Feature","geometry":{"type":"Point","coordinates":[-77.4778,38.9753]},"properties":{"site":"KLWX","name":"Sterling VA","scan_time":"2026-08-27T08:59:44Z","stale":false,"bins":25,"density_birds_km3":0.889375,"heading_deg":357.4967817210652,"speed_ms":6.440196767392832,"peak_altitude_m":0.0,"u_ms":0.4587491215741392,"v_ms":5.818081517919888}},{"type":"Feature","geometry":{"type":"Point","coordinates":[-76.8762,34.7759]},"properties":{"site":"KMHX","name":"Morehead City NC","scan_time":"2026-08-27T09:02:41Z","stale":false,"bins":25,"density_birds_km3":0.23125,"heading_deg":22.791109582772478,"speed_ms":4.059917808219178,"peak_altitude_m":0.0,"u_ms":1.6852328767123288,"v_ms":3.5724657534246576}},{"type":"Feature","geometry":{"type":"Point","coordinates":[-80.6542,28.1133]},"properties":{"site":"KMLB","name":"Melbourne FL","scan_time":"2026-08-27T08:59:15Z","stale":false,"bins":25,"density_birds_km3":3.654375,"heading_deg":25.603387894573835,"speed_ms":2.1704772494013,"peak_altitude_m":0.0,"u_ms":0.6584108792336641,"v_ms":1.9885391720834757}},{"type":"Feature","geometry":{"type":"Point","coordinates":[-86.5625,36.2472]},"properties":{"site":"KOHX","name":"Nashville TN","scan_time":"2026-08-27T08:58:41Z","stale":false,"bins":25,"density_birds_km3":5.182,"heading_deg":105.98928096266343,"speed_ms":5.392440499163772,"peak_altitude_m":400.0,"u_ms":4.464676444101376,"v_ms":-1.0369432651485913}},{"type":"Feature","geometry":{"type":"Point","coordinates":[-72.8639,40.8655]},"properties":{"site":"KOKX","name":"Upton NY","scan_time":"2026-08-27T08:58:49Z","stale":false,"bins":25,"density_birds_km3":0.699375,"heading_deg":7.9731049428123955,"speed_ms":7.9291472172351884,"peak_altitude_m":0.0,"u_ms":1.1781328545780971,"v_ms":7.754928186714543}},{"type":"Feature","geometry":{"type":"Point","coordinates":[-80.2183,40.5317]},"properties":{"site":"KPBZ","name":"Pittsburgh PA","scan_time":"2026-08-27T09:01:09Z","stale":false,"bins":25,"density_birds_km3":0.6078571428571429,"heading_deg":64.54671109952564,"speed_ms":8.363137485311398,"peak_altitude_m":400.0,"u_ms":7.485287896592245,"v_ms":3.3459694477085784}},{"type":"Feature","geometry":{"type":"Point","coordinates":[-78.4899,35.6655]},"properties":{"site":"KRAX","name":"Raleigh NC","scan_time":"2026-08-27T08:57:58Z","stale":false,"bins":25,"density_birds_km3":0.80125,"heading_deg":48.92696193850971,"speed_ms":4.122698907956318,"peak_altitude_m":0.0,"u_ms":3.1947503900156002,"v_ms":2.5482137285491415}},{"type":"Feature","geometry":{"type":"Point","coordinates":[-82.4017,27.7055]},"properties":{"site":"KTBW","name":"Tampa FL","scan_time":"2026-08-27T08:59:27Z","stale":false,"bins":25,"density_birds_km3":2.08375,"heading_deg":321.978982319278,"speed_ms":4.087214885954382,"peak_altitude_m":0.0,"u_ms":-2.4441656662665068,"v_ms":3.020225090036014}}]}