{"type":"FeatureCollection","frame":"2026-08-30T12","site_count":20,"fresh_count":20,"failures":{},"features":[{"type":"Feature","geometry":{"type":"Point","coordinates":[-77.0073,36.984]},"properties":{"site":"KAKQ","name":"Wakefield VA","scan_time":"2026-08-30T12:02:10Z","stale":false,"bins":25,"density_birds_km3":3.016875,"heading_deg":283.2294856277677,"speed_ms":6.633355293048614,"peak_altitude_m":0.0,"u_ms":-6.361987732848704,"v_ms":1.4864311676510675}},{"type":"Feature","geometry":{"type":"Point","coordinates":[-71.1369,41.9558]},"properties":{"site":"KBOX","name":"Boston MA","scan_time":"2026-08-30T12:00:11Z","stale":false,"bins":25,"density_birds_km3":4.17375,"heading_deg":91.46861113892108,"speed_ms":8.970097349108881,"peak_altitude_m":0.0,"u_ms":8.509874194997753,"v_ms":-0.8855114572412761}},{"type":"Feature","geometry":{"type":"Point","coordinates":[-78.7369,42.9489]},"properties":{"site":"KBUF","name":"Buffalo NY","scan_time":"2026-08-30T11:57:20Z","stale":false,"bins":25,"density_birds_km3":0.8813333333333334,"heading_deg":60.488966418457615,"speed_ms":3.1936300309597523,"peak_altitude_m":200.0,"u_ms":2.7651934984520126,"v_ms":1.3916486068111455}},{"type":"Feature","geometry":{"type":"Point","coordinates":[-81.8597,41.4131]},"properties":{"site":"KCLE","name":"Cleveland OH","scan_time":"2026-08-30T12:01:53Z","stale":false,"bins":25,"density_birds_km3":0.634,"heading_deg":45.079201730311496,"speed_ms":6.852291446673706,"peak_altitude_m":200.0,"u_ms":4.880232312565997,"v_ms":4.7279619852164725}},{"type":"Feature","geometry":{"type":"Point","coordinates":[-81.0423,32.6555]},"properties":{"site":"KCLX","name":"Charleston SC","scan_time":"2026-08-30T11:59:42Z","stale":false,"bins":25,"density_birds_km3":4.726875,"heading_deg":217.71926796235158,"speed_ms":8.60498347216713,"peak_altitude_m":0.0,"u_ms":-5.263059632420997,"v_ms":-6.784038080126933}},{"type":"Feature","geometry":{"type":"Point","coordinates":[-74.4108,39.947]},"properties":{"site":"KDIX","name":"Philadelphia PA","scan_time":"2026-08-30T11:58:14Z","stale":false,"bins":25,"density_birds_km3":2.01375,"heading_deg":25.01068139196213,"speed_ms":6.581891891891892,"peak_altitude_m":200.0,"u_ms":2.616349798073936,"v_ms":5.808788443616029}},{"type":"Feature","geometry":{"type":"Point","coordinates":[-84.5658,33.3636]},"properties":{"site":"KFFC","name":"Atlanta GA","scan_time":"2026-08-30T11:58:58Z","stale":false,"bins":25,"density_birds_km3":36.086,"heading_deg":245.32390396910085,"speed_ms":9.229028193474486,"peak_altitude_m":200.0,"u_ms":-8.355315005727377,"v_ms":-3.8800801832760587}},{"type":"Feature","geometry":{"type":"Point","coordinates":[-85.5449,42.8939]},"properties":{"site":"KGRR","name":"Grand Rapids MI","scan_time":"2026-08-30T12:00:30Z","stale":false,"bins":25,"density_birds_km3":4.09,"heading_deg":null,"speed_ms":null,"peak_altitude_m":200.0,"u_ms":null,"v_ms":null}},{"type":"Feature","geometry":{"type":"Point","coordinates":[-83.8217,39.4203]},"properties":{"site":"KILN","name":"Wilmington OH","scan_time":"2026-08-30T11:59:56Z","stale":false,"bins":25,"density_birds_km3":0.38266666666666665,"heading_deg":55.83834180500102,"speed_ms":4.255986038394415,"peak_altitude_m":200.0,"u_ms":3.6202792321116926,"v_ms":1.9531239092495636}},{"type":"Feature","geometry":{"type":"Point","coordinates":[-81.7019,30.4846]},"properties":{"site":"KJAX","name":"Jacksonville FL","scan_time":"2026-08-30T12:01:49Z","stale":false,"bins":25,"density_birds_km3":3.3206249999999997,"heading_deg":200.737764556751,"speed_ms":8.516809873751649,"peak_altitude_m":0.0,"u_ms":-2.9945260976069346,"v_ms":-7.935790465423026}},{"type":"Feature","geometry":{"type":"Point","coordinates":[-88.0847,41.6045]},"properties":{"site":"KLOT","name":"Chicago IL","scan_time":"2026-08-30T11:59:17Z","stale":false,"bins":25,"density_birds_km3":0.27666666666666667,"heading_deg":null,"speed_ms":null,"peak_altitude_m":400.0,"u_ms":null,"v_ms":null}},{"type":"Feature","geometry":{"type":"Point","coordinates":[-78.4292,33.9892]},"properties":{"site":"KLTX","name":"Wilmington NC","scan_time":"2026-08-30T11:59:32Z","stale":false,"bins":25,"density_birds_km3":3.2893749999999997,"heading_deg":227.7416609170956,"speed_ms":10.692982954545455,"peak_altitude_m":0.0,"u_ms":-7.9146834415584415,"v_ms":-7.1914853896103885}},{"type":"Feature","geometry":{"type":"Point","coordinates":[-77.4778,38.9753]},"properties":{"site":"KLWX","name":"Sterling VA","scan_time":"2026-08-30T12:01:47Z","stale":false,"bins":25,"density_birds_km3":1.198125,"heading_deg":13.318618647665875,"speed_ms":4.550825158684363,"peak_altitude_m":0.0,"u_ms":1.0617484131563761,"v_ms":4.296699365262551}},{"type":"Feature","geometry":{"type":"Point","coordinates":[-76.8762,34.7759]},"properties":{"site":"KMHX","name":"Morehead City NC","scan_time":"2026-08-30T11:57:51Z","stale":false,"bins":25,"density_birds_km3":1.8,"heading_deg":221.78172862998218,"speed_ms":7.528047255038221,"peak_altitude_m":0.0,"u_ms":-5.000059068797777,"v_ms":-5.60961084086171}},{"type":"Feature","geometry":{"type":"Point","coordinates":[-80.6542,28.1133]},"properties":{"site":"KMLB","name":"Melbourne FL","scan_time":"2026-08-30T11:58:16Z","stale":false,"bins":25,"density_birds_km3":0.88875,"heading_deg":190.5483635094081,"speed_ms":4.572334739803095,"peak_altitude_m":0.0,"u_ms":-0.8105555555555555,"v_ms":-4.477573839662447}},{"type":"Feature","geometry":{"type":"Point","coordinates":[-86.5625,36.2472]},"properties":{"site":"KOHX","name":"Nashville TN","scan_time":"2026-08-30T11:57:27Z","stale":false,"bins":25,"density_birds_km3":2.65,"heading_deg":335.08749025116595,"speed_ms":4.6369006289308174,"peak_altitude_m":200.0,"u_ms":-1.0830893081761008,"v_ms":3.6555522012578616}},{"type":"Feature","geometry":{"type":"Point","coordinates":[-72.8639,40.8655]},"properties":{"site":"KOKX","name":"Upton NY","scan_time":"2026-08-30T11:56:21Z","stale":false,"bins":25,"density_birds_km3":3.02875,"heading_deg":83.61524019397413,"speed_ms":7.94838769611891,"peak_altitude_m":200.0,"u_ms":7.867380264244427,"v_ms":0.8383856317093311}},{"type":"Feature","geometry":{"type":"Point","coordinates":[-80.2183,40.5317]},"properties":{"site":"KPBZ","name":"Pittsburgh PA","scan_time":"2026-08-30T11:58:44Z","stale":false,"bins":25,"density_birds_km3":0.5264285714285715,"heading_deg":36.29824370180973,"speed_ms":4.011858887381275,"peak_altitude_m":400.0,"u_ms":2.2940298507462686,"v_ms":2.955563093622795}},{"type":"Feature","geometry":{"type":"Point","coordinates":[-78.4899,35.6655]},"properties":{"site":"KRAX","name":"Raleigh NC","scan_time":"2026-08-30T12:01:27Z","stale":false,"bins":25,"density_birds_km3":4.16375,"heading_deg":218.29035717494415,"speed_ms":5.41772761474793,"peak_altitude_m":200.0,"u_ms":-3.348764484574868,"v_ms":-4.233753197893153}},{"type":"Feature","geometry":{"type":"Point","coordinates":[-82.4017,27.7055]},"properties":{"site":"KTBW","name":"Tampa FL","scan_time":"2026-08-30T12:00:53Z","stale":false,"bins":25,"density_birds_km3":1.86375,"heading_deg":221.80278631138728,"speed_ms":5.586063150822976,"peak_altitude_m":0.0,"u_ms":-3.610440040309036,"v_ms":-4.089197178367484}}]}