{"type":"FeatureCollection","frame":"2026-08-31T10","site_count":20,"fresh_count":20,"failures":{},"features":[{"type":"Feature","geometry":{"type":"Point","coordinates":[-77.0073,36.984]},"properties":{"site":"KAKQ","name":"Wakefield VA","scan_time":"2026-08-31T09:59:00Z","stale":false,"bins":25,"density_birds_km3":0.48875,"heading_deg":93.76117438251094,"speed_ms":5.206941935483871,"peak_altitude_m":0.0,"u_ms":4.98181935483871,"v_ms":-0.30209032258064517}},{"type":"Feature","geometry":{"type":"Point","coordinates":[-71.1369,41.9558]},"properties":{"site":"KBOX","name":"Boston MA","scan_time":"2026-08-31T10:02:19Z","stale":false,"bins":25,"density_birds_km3":5.135625,"heading_deg":203.63967805910187,"speed_ms":8.755034726453026,"peak_altitude_m":200.0,"u_ms":-3.5225990008529298,"v_ms":-8.009989033751674}},{"type":"Feature","geometry":{"type":"Point","coordinates":[-78.7369,42.9489]},"properties":{"site":"KBUF","name":"Buffalo NY","scan_time":"2026-08-31T10:00:58Z","stale":false,"bins":25,"density_birds_km3":0.9673333333333333,"heading_deg":16.034532802483405,"speed_ms":5.2517522123893805,"peak_altitude_m":200.0,"u_ms":1.4196637168141593,"v_ms":4.827362831858407}},{"type":"Feature","geometry":{"type":"Point","coordinates":[-81.8597,41.4131]},"properties":{"site":"KCLE","name":"Cleveland OH","scan_time":"2026-08-31T09:59:48Z","stale":false,"bins":25,"density_birds_km3":0.64,"heading_deg":59.412105138347066,"speed_ms":8.956100628930816,"peak_altitude_m":200.0,"u_ms":7.015754716981132,"v_ms":3.960398322851153}},{"type":"Feature","geometry":{"type":"Point","coordinates":[-81.0423,32.6555]},"properties":{"site":"KCLX","name":"Charleston SC","scan_time":"2026-08-31T09:58:19Z","stale":false,"bins":25,"density_birds_km3":4.624375,"heading_deg":228.3998160584155,"speed_ms":7.640479794566835,"peak_altitude_m":0.0,"u_ms":-5.688910663603189,"v_ms":-5.100206784700636}},{"type":"Feature","geometry":{"type":"Point","coordinates":[-74.4108,39.947]},"properties":{"site":"KDIX","name":"Philadelphia PA","scan_time":"2026-08-31T09:57:50Z","stale":false,"bins":25,"density_birds_km3":1.46625,"heading_deg":207.0082267766465,"speed_ms":6.436358208955224,"peak_altitude_m":200.0,"u_ms":-2.853752665245203,"v_ms":-5.6847036247334755}},{"type":"Feature","geometry":{"type":"Point","coordinates":[-84.5658,33.3636]},"properties":{"site":"KFFC","name":"Atlanta GA","scan_time":"2026-08-31T10:01:32Z","stale":false,"bins":25,"density_birds_km3":6.0,"heading_deg":261.3250282088706,"speed_ms":5.258907777777778,"peak_altitude_m":400.0,"u_ms":-4.688504444444444,"v_ms":-1.3471388888888889}},{"type":"Feature","geometry":{"type":"Point","coordinates":[-85.5449,42.8939]},"properties":{"site":"KGRR","name":"Grand Rapids MI","scan_time":"2026-08-31T10:01:06Z","stale":false,"bins":25,"density_birds_km3":0.622,"heading_deg":59.81165516377339,"speed_ms":8.01705501618123,"peak_altitude_m":200.0,"u_ms":6.914163969795037,"v_ms":3.643538295577131}},{"type":"Feature","geometry":{"type":"Point","coordinates":[-83.8217,39.4203]},"properties":{"site":"KILN","name":"Wilmington OH","scan_time":"2026-08-31T09:57:22Z","stale":false,"bins":25,"density_birds_km3":0.6166666666666667,"heading_deg":62.94151660473127,"speed_ms":8.789836244541485,"peak_altitude_m":200.0,"u_ms":7.604836244541484,"v_ms":3.9331659388646285}},{"type":"Feature","geometry":{"type":"Point","coordinates":[-81.7019,30.4846]},"properties":{"site":"KJAX","name":"Jacksonville FL","scan_time":"2026-08-31T10:01:57Z","stale":false,"bins":25,"density_birds_km3":40.1175,"heading_deg":194.6988414122508,"speed_ms":10.107520761596112,"peak_altitude_m":0.0,"u_ms":-2.541889344198439,"v_ms":-9.78012355681588}},{"type":"Feature","geometry":{"type":"Point","coordinates":[-88.0847,41.6045]},"properties":{"site":"KLOT","name":"Chicago IL","scan_time":"2026-08-31T09:58:06Z","stale":false,"bins":25,"density_birds_km3":0.3993333333333334,"heading_deg":49.15114736608639,"speed_ms":13.137915966386556,"peak_altitude_m":200.0,"u_ms":9.595915966386555,"v_ms":8.425109243697479}},{"type":"Feature","geometry":{"type":"Point","coordinates":[-78.4292,33.9892]},"properties":{"site":"KLTX","name":"Wilmington NC","scan_time":"2026-08-31T09:59:00Z","stale":false,"bins":25,"density_birds_km3":3.255,"heading_deg":213.9159304121202,"speed_ms":5.93678893796812,"peak_altitude_m":200.0,"u_ms":-3.3040176685231417,"v_ms":-4.925686575763396}},{"type":"Feature","geometry":{"type":"Point","coordinates":[-77.4778,38.9753]},"properties":{"site":"KLWX","name":"Sterling VA","scan_time":"2026-08-31T09:56:41Z","stale":false,"bins":25,"density_birds_km3":10.644666666666666,"heading_deg":208.64029196700602,"speed_ms":5.669351319950945,"peak_altitude_m":200.0,"u_ms":-2.747991996385464,"v_ms":-4.855571548441231}},{"type":"Feature","geometry":{"type":"Point","coordinates":[-76.8762,34.7759]},"properties":{"site":"KMHX","name":"Morehead City NC","scan_time":"2026-08-31T09:59:21Z","stale":false,"bins":25,"density_birds_km3":0.53375,"heading_deg":169.28833833388168,"speed_ms":4.700152224824357,"peak_altitude_m":0.0,"u_ms":0.7893442622950821,"v_ms":-4.599391100702576}},{"type":"Feature","geometry":{"type":"Point","coordinates":[-80.6542,28.1133]},"properties":{"site":"KMLB","name":"Melbourne FL","scan_time":"2026-08-31T10:00:41Z","stale":false,"bins":25,"density_birds_km3":2.3825,"heading_deg":169.13657749012165,"speed_ms":4.746671038824765,"peak_altitude_m":0.0,"u_ms":0.9851915005246591,"v_ms":-4.544658971668416}},{"type":"Feature","geometry":{"type":"Point","coordinates":[-86.5625,36.2472]},"properties":{"site":"KOHX","name":"Nashville TN","scan_time":"2026-08-31T09:59:30Z","stale":false,"bins":25,"density_birds_km3":3.6035714285714286,"heading_deg":19.1440573429933,"speed_ms":4.619634049323787,"peak_altitude_m":200.0,"u_ms":1.5529455051710421,"v_ms":4.289132856006364}},{"type":"Feature","geometry":{"type":"Point","coordinates":[-72.8639,40.8655]},"properties":{"site":"KOKX","name":"Upton NY","scan_time":"2026-08-31T09:59:17Z","stale":false,"bins":25,"density_birds_km3":0.55875,"heading_deg":219.40788229558618,"speed_ms":8.598227848101265,"peak_altitude_m":0.0,"u_ms":-5.459240506329115,"v_ms":-6.23523590333717}},{"type":"Feature","geometry":{"type":"Point","coordinates":[-80.2183,40.5317]},"properties":{"site":"KPBZ","name":"Pittsburgh PA","scan_time":"2026-08-31T10:02:01Z","stale":false,"bins":25,"density_birds_km3":1.8557142857142856,"heading_deg":68.8833650759504,"speed_ms":6.7377283372365335,"peak_altitude_m":400.0,"u_ms":4.453298204527713,"v_ms":0.10724043715846986}},{"type":"Feature","geometry":{"type":"Point","coordinates":[-78.4899,35.6655]},"properties":{"site":"KRAX","name":"Raleigh NC","scan_time":"2026-08-31T10:03:37Z","stale":false,"bins":25,"density_birds_km3":1.542142857142857,"heading_deg":127.7781893393473,"speed_ms":4.318145853193518,"peak_altitude_m":200.0,"u_ms":2.4014442326024787,"v_ms":-2.0053527168732126}},{"type":"Feature","geometry":{"type":"Point","coordinates":[-82.4017,27.7055]},"properties":{"site":"KTBW","name":"Tampa FL","scan_time":"2026-08-31T10:01:29Z","stale":false,"bins":25,"density_birds_km3":10.440625,"heading_deg":210.77906078675952,"speed_ms":3.501375366744506,"peak_altitude_m":0.0,"u_ms":-1.7790575414645828,"v_ms":-3.005267349260523}}]}