{"type":"FeatureCollection","frame":"2026-09-08T02","site_count":20,"fresh_count":19,"failures":{"KOKX":"RuntimeError('no scan within 20 min of 2026-09-08T02:00Z')"},"features":[{"type":"Feature","geometry":{"type":"Point","coordinates":[-77.0073,36.984]},"properties":{"site":"KAKQ","name":"Wakefield VA","scan_time":"2026-09-08T02:01:28Z","stale":false,"bins":25,"density_birds_km3":10.7475,"heading_deg":239.84842207687853,"speed_ms":6.75,"peak_altitude_m":0.0,"u_ms":-4.147586828785852,"v_ms":-2.692271801733667}},{"type":"Feature","geometry":{"type":"Point","coordinates":[-71.1369,41.9558]},"properties":{"site":"KBOX","name":"Boston MA","scan_time":"2026-09-08T02:04:13Z","stale":false,"bins":25,"density_birds_km3":2.66875,"heading_deg":164.34232244327288,"speed_ms":10.702407407407405,"peak_altitude_m":0.0,"u_ms":2.2693928738865443,"v_ms":-9.962918424753868}},{"type":"Feature","geometry":{"type":"Point","coordinates":[-78.7369,42.9489]},"properties":{"site":"KBUF","name":"Buffalo NY","scan_time":"2026-09-08T01:57:46Z","stale":false,"bins":25,"density_birds_km3":2.8833333333333333,"heading_deg":199.06561634049427,"speed_ms":5.048989595375723,"peak_altitude_m":200.0,"u_ms":-0.7790728323699423,"v_ms":-4.601657803468209}},{"type":"Feature","geometry":{"type":"Point","coordinates":[-81.8597,41.4131]},"properties":{"site":"KCLE","name":"Cleveland OH","scan_time":"2026-09-08T01:59:10Z","stale":false,"bins":25,"density_birds_km3":10.496666666666666,"heading_deg":260.645360172084,"speed_ms":8.896898239369477,"peak_altitude_m":400.0,"u_ms":-8.593057903769147,"v_ms":-1.50283989067565}},{"type":"Feature","geometry":{"type":"Point","coordinates":[-81.0423,32.6555]},"properties":{"site":"KCLX","name":"Charleston SC","scan_time":"2026-09-08T02:00:16Z","stale":false,"bins":25,"density_birds_km3":18.04375,"heading_deg":231.1619089582505,"speed_ms":13.103885115128714,"peak_altitude_m":0.0,"u_ms":-10.202300484202459,"v_ms":-7.901705855714635}},{"type":"Feature","geometry":{"type":"Point","coordinates":[-74.4108,39.947]},"properties":{"site":"KDIX","name":"Philadelphia PA","scan_time":"2026-09-08T01:57:30Z","stale":false,"bins":25,"density_birds_km3":14.329375,"heading_deg":180.171258350377,"speed_ms":6.47591559745134,"peak_altitude_m":400.0,"u_ms":-0.6737230514096185,"v_ms":-5.543097669547002}},{"type":"Feature","geometry":{"type":"Point","coordinates":[-84.5658,33.3636]},"properties":{"site":"KFFC","name":"Atlanta GA","scan_time":"2026-09-08T02:00:25Z","stale":false,"bins":25,"density_birds_km3":37.08533333333333,"heading_deg":256.1369419795544,"speed_ms":9.398469720147576,"peak_altitude_m":600.0,"u_ms":-8.696873571492846,"v_ms":-1.747896157653199}},{"type":"Feature","geometry":{"type":"Point","coordinates":[-85.5449,42.8939]},"properties":{"site":"KGRR","name":"Grand Rapids MI","scan_time":"2026-09-08T01:56:51Z","stale":false,"bins":25,"density_birds_km3":12.923333333333334,"heading_deg":311.9990930434375,"speed_ms":4.122716017539335,"peak_altitude_m":200.0,"u_ms":-2.950138251225174,"v_ms":2.6578700025793136}},{"type":"Feature","geometry":{"type":"Point","coordinates":[-83.8217,39.4203]},"properties":{"site":"KILN","name":"Wilmington OH","scan_time":"2026-09-08T02:00:24Z","stale":false,"bins":25,"density_birds_km3":7.15,"heading_deg":268.6426091756048,"speed_ms":8.880175291375291,"peak_altitude_m":200.0,"u_ms":-7.311317482517482,"v_ms":-0.46175011655011666}},{"type":"Feature","geometry":{"type":"Point","coordinates":[-81.7019,30.4846]},"properties":{"site":"KJAX","name":"Jacksonville FL","scan_time":"2026-09-08T01:59:56Z","stale":false,"bins":25,"density_birds_km3":106.23875,"heading_deg":191.36058718421512,"speed_ms":10.81380347813809,"peak_altitude_m":0.0,"u_ms":-2.1112119358027015,"v_ms":-10.503356826846142}},{"type":"Feature","geometry":{"type":"Point","coordinates":[-88.0847,41.6045]},"properties":{"site":"KLOT","name":"Chicago IL","scan_time":"2026-09-08T02:00:32Z","stale":false,"bins":25,"density_birds_km3":6.481333333333334,"heading_deg":281.6901166367901,"speed_ms":8.648929967254675,"peak_altitude_m":400.0,"u_ms":-5.356299778176825,"v_ms":0.9281303475229744}},{"type":"Feature","geometry":{"type":"Point","coordinates":[-78.4292,33.9892]},"properties":{"site":"KLTX","name":"Wilmington NC","scan_time":"2026-09-08T02:01:25Z","stale":false,"bins":25,"density_birds_km3":26.250625,"heading_deg":224.961253460458,"speed_ms":14.915264097923414,"peak_altitude_m":0.0,"u_ms":-10.55897194703753,"v_ms":-10.451140455324824}},{"type":"Feature","geometry":{"type":"Point","coordinates":[-77.4778,38.9753]},"properties":{"site":"KLWX","name":"Sterling VA","scan_time":"2026-09-08T01:58:07Z","stale":false,"bins":25,"density_birds_km3":28.510714285714283,"heading_deg":229.8518975938899,"speed_ms":5.920969328848953,"peak_altitude_m":200.0,"u_ms":-4.5095999196827465,"v_ms":-3.1844370262537023}},{"type":"Feature","geometry":{"type":"Point","coordinates":[-76.8762,34.7759]},"properties":{"site":"KMHX","name":"Morehead City NC","scan_time":"2026-09-08T01:57:54Z","stale":false,"bins":25,"density_birds_km3":10.79375,"heading_deg":220.26237748296495,"speed_ms":13.070332966587527,"peak_altitude_m":0.0,"u_ms":-8.325359314378366,"v_ms":-9.843161155828362}},{"type":"Feature","geometry":{"type":"Point","coordinates":[-80.6542,28.1133]},"properties":{"site":"KMLB","name":"Melbourne FL","scan_time":"2026-09-08T01:58:19Z","stale":false,"bins":25,"density_birds_km3":18.573125,"heading_deg":168.44765371926957,"speed_ms":6.5459259009994275,"peak_altitude_m":0.0,"u_ms":1.3455170441161624,"v_ms":-6.39555809805835}},{"type":"Feature","geometry":{"type":"Point","coordinates":[-86.5625,36.2472]},"properties":{"site":"KOHX","name":"Nashville TN","scan_time":"2026-09-08T01:59:59Z","stale":false,"bins":25,"density_birds_km3":93.14666666666668,"heading_deg":234.40917951472477,"speed_ms":6.787709204122531,"peak_altitude_m":200.0,"u_ms":-5.323456198110507,"v_ms":-3.803481176638992}},{"type":"Feature","geometry":{"type":"Point","coordinates":[-80.2183,40.5317]},"properties":{"site":"KPBZ","name":"Pittsburgh PA","scan_time":"2026-09-08T02:01:44Z","stale":false,"bins":25,"density_birds_km3":16.970000000000002,"heading_deg":249.90893201015223,"speed_ms":6.330899341327479,"peak_altitude_m":600.0,"u_ms":-4.98381523391319,"v_ms":-2.2978327140685697}},{"type":"Feature","geometry":{"type":"Point","coordinates":[-78.4899,35.6655]},"properties":{"site":"KRAX","name":"Raleigh NC","scan_time":"2026-09-08T01:57:17Z","stale":false,"bins":25,"density_birds_km3":33.480000000000004,"heading_deg":252.85877985742297,"speed_ms":8.50704093829374,"peak_altitude_m":200.0,"u_ms":-7.180119901389511,"v_ms":-2.276464963394591}},{"type":"Feature","geometry":{"type":"Point","coordinates":[-82.4017,27.7055]},"properties":{"site":"KTBW","name":"Tampa FL","scan_time":"2026-09-08T02:03:15Z","stale":false,"bins":25,"density_birds_km3":13.922500000000001,"heading_deg":220.6482574489464,"speed_ms":4.017835787394505,"peak_altitude_m":0.0,"u_ms":-2.0892314598671216,"v_ms":-2.661391632249955}}]}