{"type":"FeatureCollection","frame":"2026-08-28T04","site_count":20,"fresh_count":20,"failures":{},"features":[{"type":"Feature","geometry":{"type":"Point","coordinates":[-77.0073,36.984]},"properties":{"site":"KAKQ","name":"Wakefield VA","scan_time":"2026-08-28T03:58:42Z","stale":false,"bins":25,"density_birds_km3":3.108125,"heading_deg":56.83159256195764,"speed_ms":7.0896480997385884,"peak_altitude_m":0.0,"u_ms":5.909732555801327,"v_ms":3.8644882364769755}},{"type":"Feature","geometry":{"type":"Point","coordinates":[-71.1369,41.9558]},"properties":{"site":"KBOX","name":"Boston MA","scan_time":"2026-08-28T03:58:19Z","stale":false,"bins":25,"density_birds_km3":1.024375,"heading_deg":1.7695659089151126,"speed_ms":6.564443765281174,"peak_altitude_m":0.0,"u_ms":0.38102078239608805,"v_ms":6.450605134474327}},{"type":"Feature","geometry":{"type":"Point","coordinates":[-78.7369,42.9489]},"properties":{"site":"KBUF","name":"Buffalo NY","scan_time":"2026-08-28T04:01:49Z","stale":false,"bins":25,"density_birds_km3":16.050666666666668,"heading_deg":177.72062265745774,"speed_ms":8.50036717062635,"peak_altitude_m":400.0,"u_ms":0.25380461870742643,"v_ms":-8.42535346403057}},{"type":"Feature","geometry":{"type":"Point","coordinates":[-81.8597,41.4131]},"properties":{"site":"KCLE","name":"Cleveland OH","scan_time":"2026-08-28T03:58:12Z","stale":false,"bins":25,"density_birds_km3":20.747333333333334,"heading_deg":184.1494271836855,"speed_ms":8.205873372971235,"peak_altitude_m":800.0,"u_ms":-0.7137949542021533,"v_ms":-8.123376185119717}},{"type":"Feature","geometry":{"type":"Point","coordinates":[-81.0423,32.6555]},"properties":{"site":"KCLX","name":"Charleston SC","scan_time":"2026-08-28T03:57:45Z","stale":false,"bins":25,"density_birds_km3":0.9525,"heading_deg":9.467719013880478,"speed_ms":3.9460144451739985,"peak_altitude_m":0.0,"u_ms":0.472554169402495,"v_ms":2.732994090610637}},{"type":"Feature","geometry":{"type":"Point","coordinates":[-74.4108,39.947]},"properties":{"site":"KDIX","name":"Philadelphia PA","scan_time":"2026-08-28T03:59:33Z","stale":false,"bins":25,"density_birds_km3":1.60125,"heading_deg":352.7131620442315,"speed_ms":3.2485516045099745,"peak_altitude_m":0.0,"u_ms":1.208343451864701,"v_ms":1.8100260190806592}},{"type":"Feature","geometry":{"type":"Point","coordinates":[-84.5658,33.3636]},"properties":{"site":"KFFC","name":"Atlanta GA","scan_time":"2026-08-28T03:57:28Z","stale":false,"bins":25,"density_birds_km3":17.948666666666668,"heading_deg":193.7976465917082,"speed_ms":2.9716838156086327,"peak_altitude_m":1200.0,"u_ms":-0.8562583113554475,"v_ms":-2.184510233646596}},{"type":"Feature","geometry":{"type":"Point","coordinates":[-85.5449,42.8939]},"properties":{"site":"KGRR","name":"Grand Rapids MI","scan_time":"2026-08-28T04:00:08Z","stale":false,"bins":25,"density_birds_km3":50.42266666666667,"heading_deg":210.8390280647603,"speed_ms":11.777088864160241,"peak_altitude_m":400.0,"u_ms":-6.0553601992422434,"v_ms":-10.046195718411361}},{"type":"Feature","geometry":{"type":"Point","coordinates":[-83.8217,39.4203]},"properties":{"site":"KILN","name":"Wilmington OH","scan_time":"2026-08-28T03:58:34Z","stale":false,"bins":25,"density_birds_km3":28.031333333333336,"heading_deg":190.7121070465201,"speed_ms":8.286058039961942,"peak_altitude_m":400.0,"u_ms":-1.6233308753568032,"v_ms":-7.91676284490961}},{"type":"Feature","geometry":{"type":"Point","coordinates":[-81.7019,30.4846]},"properties":{"site":"KJAX","name":"Jacksonville FL","scan_time":"2026-08-28T04:02:01Z","stale":false,"bins":25,"density_birds_km3":13.144375,"heading_deg":194.72268641392333,"speed_ms":4.982536376604851,"peak_altitude_m":200.0,"u_ms":-0.7433856395625298,"v_ms":-4.2123533048026625}},{"type":"Feature","geometry":{"type":"Point","coordinates":[-88.0847,41.6045]},"properties":{"site":"KLOT","name":"Chicago IL","scan_time":"2026-08-28T04:00:10Z","stale":false,"bins":25,"density_birds_km3":21.62,"heading_deg":179.7151267425839,"speed_ms":6.881983269539449,"peak_altitude_m":1200.0,"u_ms":1.1933192369428327,"v_ms":-4.148237436720582}},{"type":"Feature","geometry":{"type":"Point","coordinates":[-78.4292,33.9892]},"properties":{"site":"KLTX","name":"Wilmington NC","scan_time":"2026-08-28T04:02:39Z","stale":false,"bins":25,"density_birds_km3":0.6313333333333334,"heading_deg":57.00223030664522,"speed_ms":4.540012626262626,"peak_altitude_m":0.0,"u_ms":3.628888888888889,"v_ms":2.6277146464646464}},{"type":"Feature","geometry":{"type":"Point","coordinates":[-77.4778,38.9753]},"properties":{"site":"KLWX","name":"Sterling VA","scan_time":"2026-08-28T03:59:40Z","stale":false,"bins":25,"density_birds_km3":4.91625,"heading_deg":21.555538403255785,"speed_ms":2.5932549286199866,"peak_altitude_m":0.0,"u_ms":1.1165574439157036,"v_ms":1.9950781781101292}},{"type":"Feature","geometry":{"type":"Point","coordinates":[-76.8762,34.7759]},"properties":{"site":"KMHX","name":"Morehead City NC","scan_time":"2026-08-28T04:02:43Z","stale":false,"bins":25,"density_birds_km3":0.19499999999999998,"heading_deg":31.29611570137303,"speed_ms":9.332637362637364,"peak_altitude_m":0.0,"u_ms":4.847472527472528,"v_ms":7.973076923076922}},{"type":"Feature","geometry":{"type":"Point","coordinates":[-80.6542,28.1133]},"properties":{"site":"KMLB","name":"Melbourne FL","scan_time":"2026-08-28T04:01:16Z","stale":false,"bins":25,"density_birds_km3":4.984375,"heading_deg":176.6484689889872,"speed_ms":3.279658934169279,"peak_altitude_m":0.0,"u_ms":0.7031999999999999,"v_ms":-2.633558620689655}},{"type":"Feature","geometry":{"type":"Point","coordinates":[-86.5625,36.2472]},"properties":{"site":"KOHX","name":"Nashville TN","scan_time":"2026-08-28T03:58:23Z","stale":false,"bins":25,"density_birds_km3":53.646,"heading_deg":205.6883228504907,"speed_ms":7.119433446420361,"peak_altitude_m":600.0,"u_ms":-3.114168686077869,"v_ms":-6.167041717928643}},{"type":"Feature","geometry":{"type":"Point","coordinates":[-72.8639,40.8655]},"properties":{"site":"KOKX","name":"Upton NY","scan_time":"2026-08-28T03:58:08Z","stale":false,"bins":25,"density_birds_km3":1.5318749999999999,"heading_deg":311.3024478062574,"speed_ms":4.806005867560771,"peak_altitude_m":0.0,"u_ms":-3.514207879295893,"v_ms":3.0839061190276613}},{"type":"Feature","geometry":{"type":"Point","coordinates":[-80.2183,40.5317]},"properties":{"site":"KPBZ","name":"Pittsburgh PA","scan_time":"2026-08-28T04:01:48Z","stale":false,"bins":25,"density_birds_km3":36.795,"heading_deg":197.09364460669462,"speed_ms":8.413974530700989,"peak_altitude_m":600.0,"u_ms":-2.7085623046609593,"v_ms":-7.878087278939297}},{"type":"Feature","geometry":{"type":"Point","coordinates":[-78.4899,35.6655]},"properties":{"site":"KRAX","name":"Raleigh NC","scan_time":"2026-08-28T03:57:58Z","stale":false,"bins":25,"density_birds_km3":1.4075,"heading_deg":128.26405788820244,"speed_ms":3.3788138605064417,"peak_altitude_m":0.0,"u_ms":2.077219013771657,"v_ms":-0.28144380275433145}},{"type":"Feature","geometry":{"type":"Point","coordinates":[-82.4017,27.7055]},"properties":{"site":"KTBW","name":"Tampa FL","scan_time":"2026-08-28T03:58:48Z","stale":false,"bins":25,"density_birds_km3":3.834375,"heading_deg":324.3670013033725,"speed_ms":2.8653806030969844,"peak_altitude_m":0.0,"u_ms":-1.7232665036674817,"v_ms":2.1418973105134476}}]}