{"type":"FeatureCollection","frame":"2026-10-10T04","site_count":20,"fresh_count":20,"failures":{},"features":[{"type":"Feature","geometry":{"type":"Point","coordinates":[-77.0073,36.984]},"properties":{"site":"KAKQ","name":"Wakefield VA","scan_time":"2026-10-10T03:58:10Z","stale":false,"bins":25,"density_birds_km3":6.6725,"heading_deg":218.5218698641921,"speed_ms":9.571977517564404,"peak_altitude_m":200.0,"u_ms":-5.923269320843092,"v_ms":-7.469937236533958}},{"type":"Feature","geometry":{"type":"Point","coordinates":[-71.1369,41.9558]},"properties":{"site":"KBOX","name":"Boston MA","scan_time":"2026-10-10T03:56:16Z","stale":false,"bins":25,"density_birds_km3":4.17,"heading_deg":108.83484819253398,"speed_ms":8.872861639934044,"peak_altitude_m":0.0,"u_ms":8.348859241493031,"v_ms":-2.9573931944236245}},{"type":"Feature","geometry":{"type":"Point","coordinates":[-78.7369,42.9489]},"properties":{"site":"KBUF","name":"Buffalo NY","scan_time":"2026-10-10T03:57:04Z","stale":false,"bins":25,"density_birds_km3":39.15933333333333,"heading_deg":195.11004545349232,"speed_ms":10.379805921108634,"peak_altitude_m":400.0,"u_ms":-2.8042086177837553,"v_ms":-9.892356356083692}},{"type":"Feature","geometry":{"type":"Point","coordinates":[-81.8597,41.4131]},"properties":{"site":"KCLE","name":"Cleveland OH","scan_time":"2026-10-10T04:00:18Z","stale":false,"bins":25,"density_birds_km3":5.457333333333334,"heading_deg":286.2860543746016,"speed_ms":10.961585634009284,"peak_altitude_m":200.0,"u_ms":-10.269333007573907,"v_ms":2.8177681407280724}},{"type":"Feature","geometry":{"type":"Point","coordinates":[-81.0423,32.6555]},"properties":{"site":"KCLX","name":"Charleston SC","scan_time":"2026-10-10T03:58:11Z","stale":false,"bins":25,"density_birds_km3":17.530625,"heading_deg":218.92138649203207,"speed_ms":13.701816562778273,"peak_altitude_m":0.0,"u_ms":-8.931920451172456,"v_ms":-9.889002671415852}},{"type":"Feature","geometry":{"type":"Point","coordinates":[-74.4108,39.947]},"properties":{"site":"KDIX","name":"Philadelphia PA","scan_time":"2026-10-10T03:58:00Z","stale":false,"bins":25,"density_birds_km3":12.86125,"heading_deg":196.86631550569226,"speed_ms":8.481629896005442,"peak_altitude_m":200.0,"u_ms":-2.490684225872291,"v_ms":-8.081969579162212}},{"type":"Feature","geometry":{"type":"Point","coordinates":[-84.5658,33.3636]},"properties":{"site":"KFFC","name":"Atlanta GA","scan_time":"2026-10-10T04:01:32Z","stale":false,"bins":25,"density_birds_km3":48.14142857142857,"heading_deg":249.51476814020918,"speed_ms":22.33572299651568,"peak_altitude_m":400.0,"u_ms":-20.922635017421605,"v_ms":-7.61870680894309}},{"type":"Feature","geometry":{"type":"Point","coordinates":[-85.5449,42.8939]},"properties":{"site":"KGRR","name":"Grand Rapids MI","scan_time":"2026-10-10T04:00:13Z","stale":false,"bins":25,"density_birds_km3":6.343999999999999,"heading_deg":281.87891859206206,"speed_ms":13.259516501997059,"peak_altitude_m":200.0,"u_ms":-12.731117300819843,"v_ms":2.616464158082825}},{"type":"Feature","geometry":{"type":"Point","coordinates":[-83.8217,39.4203]},"properties":{"site":"KILN","name":"Wilmington OH","scan_time":"2026-10-10T04:01:25Z","stale":false,"bins":25,"density_birds_km3":3.606,"heading_deg":308.2035507718615,"speed_ms":10.863540395636903,"peak_altitude_m":200.0,"u_ms":-8.161615825476058,"v_ms":6.556561286744315}},{"type":"Feature","geometry":{"type":"Point","coordinates":[-81.7019,30.4846]},"properties":{"site":"KJAX","name":"Jacksonville FL","scan_time":"2026-10-10T04:02:25Z","stale":false,"bins":25,"density_birds_km3":26.388749999999998,"heading_deg":null,"speed_ms":null,"peak_altitude_m":0.0,"u_ms":null,"v_ms":null}},{"type":"Feature","geometry":{"type":"Point","coordinates":[-88.0847,41.6045]},"properties":{"site":"KLOT","name":"Chicago IL","scan_time":"2026-10-10T04:00:11Z","stale":false,"bins":25,"density_birds_km3":1.244,"heading_deg":341.21227952435385,"speed_ms":14.047309344790547,"peak_altitude_m":200.0,"u_ms":-4.088813104189044,"v_ms":13.043141783029}},{"type":"Feature","geometry":{"type":"Point","coordinates":[-78.4292,33.9892]},"properties":{"site":"KLTX","name":"Wilmington NC","scan_time":"2026-10-10T03:58:30Z","stale":false,"bins":25,"density_birds_km3":48.85333333333333,"heading_deg":235.8865219256975,"speed_ms":13.050507226300967,"peak_altitude_m":0.0,"u_ms":-10.907703052130952,"v_ms":-7.004850856535994}},{"type":"Feature","geometry":{"type":"Point","coordinates":[-77.4778,38.9753]},"properties":{"site":"KLWX","name":"Sterling VA","scan_time":"2026-10-10T03:59:09Z","stale":false,"bins":25,"density_birds_km3":21.759375,"heading_deg":239.72138012523175,"speed_ms":5.618073119395669,"peak_altitude_m":200.0,"u_ms":-3.890834126228988,"v_ms":-3.0834489519361075}},{"type":"Feature","geometry":{"type":"Point","coordinates":[-76.8762,34.7759]},"properties":{"site":"KMHX","name":"Morehead City NC","scan_time":"2026-10-10T03:59:45Z","stale":false,"bins":25,"density_birds_km3":10.48875,"heading_deg":216.51025964698584,"speed_ms":9.643467270776203,"peak_altitude_m":0.0,"u_ms":-5.582956361034935,"v_ms":-7.437109216644806}},{"type":"Feature","geometry":{"type":"Point","coordinates":[-80.6542,28.1133]},"properties":{"site":"KMLB","name":"Melbourne FL","scan_time":"2026-10-10T04:01:51Z","stale":false,"bins":25,"density_birds_km3":5.77125,"heading_deg":339.50754710131343,"speed_ms":7.28367554689192,"peak_altitude_m":200.0,"u_ms":-1.7028059345895603,"v_ms":6.9176878925709335}},{"type":"Feature","geometry":{"type":"Point","coordinates":[-86.5625,36.2472]},"properties":{"site":"KOHX","name":"Nashville TN","scan_time":"2026-10-10T04:03:19Z","stale":false,"bins":25,"density_birds_km3":12.649333333333335,"heading_deg":276.6710434840817,"speed_ms":10.91989195741541,"peak_altitude_m":200.0,"u_ms":-10.263708759354907,"v_ms":1.6473500579740696}},{"type":"Feature","geometry":{"type":"Point","coordinates":[-72.8639,40.8655]},"properties":{"site":"KOKX","name":"Upton NY","scan_time":"2026-10-10T04:02:46Z","stale":false,"bins":25,"density_birds_km3":10.025,"heading_deg":192.95407306524444,"speed_ms":6.178184143222507,"peak_altitude_m":0.0,"u_ms":-1.269988147963321,"v_ms":-5.889418002619924}},{"type":"Feature","geometry":{"type":"Point","coordinates":[-80.2183,40.5317]},"properties":{"site":"KPBZ","name":"Pittsburgh PA","scan_time":"2026-10-10T03:59:27Z","stale":false,"bins":25,"density_birds_km3":18.910714285714285,"heading_deg":240.9208670820828,"speed_ms":7.300703682719546,"peak_altitude_m":600.0,"u_ms":-5.957787346553352,"v_ms":-3.5307660056657224}},{"type":"Feature","geometry":{"type":"Point","coordinates":[-78.4899,35.6655]},"properties":{"site":"KRAX","name":"Raleigh NC","scan_time":"2026-10-10T03:59:32Z","stale":false,"bins":25,"density_birds_km3":18.579375,"heading_deg":240.6879352126124,"speed_ms":11.784118755256518,"peak_altitude_m":200.0,"u_ms":-10.139272329688815,"v_ms":-5.651674684608915}},{"type":"Feature","geometry":{"type":"Point","coordinates":[-82.4017,27.7055]},"properties":{"site":"KTBW","name":"Tampa FL","scan_time":"2026-10-10T04:02:44Z","stale":false,"bins":25,"density_birds_km3":12.215625000000001,"heading_deg":312.67198597513914,"speed_ms":4.596074187771808,"peak_altitude_m":0.0,"u_ms":-2.4189209516500383,"v_ms":3.2473302634944994}}]}