{"type":"FeatureCollection","frame":"2026-08-27T12","site_count":20,"fresh_count":20,"failures":{},"features":[{"type":"Feature","geometry":{"type":"Point","coordinates":[-77.0073,36.984]},"properties":{"site":"KAKQ","name":"Wakefield VA","scan_time":"2026-08-27T12:02:09Z","stale":false,"bins":25,"density_birds_km3":0.24562499999999998,"heading_deg":33.045775238470576,"speed_ms":3.716198979591837,"peak_altitude_m":0.0,"u_ms":2.030918367346939,"v_ms":3.0930867346938777}},{"type":"Feature","geometry":{"type":"Point","coordinates":[-71.1369,41.9558]},"properties":{"site":"KBOX","name":"Boston MA","scan_time":"2026-08-27T11:59:12Z","stale":false,"bins":25,"density_birds_km3":1.403125,"heading_deg":2.4293688406935647,"speed_ms":5.731659232827833,"peak_altitude_m":0.0,"u_ms":0.31262265834076725,"v_ms":5.658117752007137}},{"type":"Feature","geometry":{"type":"Point","coordinates":[-78.7369,42.9489]},"properties":{"site":"KBUF","name":"Buffalo NY","scan_time":"2026-08-27T11:58:25Z","stale":false,"bins":25,"density_birds_km3":1.3980000000000001,"heading_deg":54.75379240001807,"speed_ms":7.861607824427481,"peak_altitude_m":200.0,"u_ms":6.390582061068701,"v_ms":4.201708015267176}},{"type":"Feature","geometry":{"type":"Point","coordinates":[-81.8597,41.4131]},"properties":{"site":"KCLE","name":"Cleveland OH","scan_time":"2026-08-27T11:59:26Z","stale":false,"bins":25,"density_birds_km3":1.656,"heading_deg":126.828776426998,"speed_ms":3.8569999999999993,"peak_altitude_m":200.0,"u_ms":2.9375910931174083,"v_ms":-2.3779271255060728}},{"type":"Feature","geometry":{"type":"Point","coordinates":[-81.0423,32.6555]},"properties":{"site":"KCLX","name":"Charleston SC","scan_time":"2026-08-27T12:01:49Z","stale":false,"bins":25,"density_birds_km3":0.253125,"heading_deg":72.58085587231062,"speed_ms":5.94720297029703,"peak_altitude_m":0.0,"u_ms":5.676064356435644,"v_ms":1.7286138613861384}},{"type":"Feature","geometry":{"type":"Point","coordinates":[-74.4108,39.947]},"properties":{"site":"KDIX","name":"Philadelphia PA","scan_time":"2026-08-27T12:00:02Z","stale":false,"bins":25,"density_birds_km3":0.55875,"heading_deg":316.167809364165,"speed_ms":7.303378076062639,"peak_altitude_m":0.0,"u_ms":-4.798366890380313,"v_ms":5.239798657718121}},{"type":"Feature","geometry":{"type":"Point","coordinates":[-84.5658,33.3636]},"properties":{"site":"KFFC","name":"Atlanta GA","scan_time":"2026-08-27T12:01:39Z","stale":false,"bins":25,"density_birds_km3":6.0793333333333335,"heading_deg":249.21547571612064,"speed_ms":6.573455801710901,"peak_altitude_m":200.0,"u_ms":-6.1434492213204654,"v_ms":-2.264395700811581}},{"type":"Feature","geometry":{"type":"Point","coordinates":[-85.5449,42.8939]},"properties":{"site":"KGRR","name":"Grand Rapids MI","scan_time":"2026-08-27T12:03:48Z","stale":false,"bins":25,"density_birds_km3":0.8006666666666666,"heading_deg":145.41151036148034,"speed_ms":7.295453788509575,"peak_altitude_m":200.0,"u_ms":4.097910074937553,"v_ms":-6.024104912572855}},{"type":"Feature","geometry":{"type":"Point","coordinates":[-83.8217,39.4203]},"properties":{"site":"KILN","name":"Wilmington OH","scan_time":"2026-08-27T11:58:25Z","stale":false,"bins":25,"density_birds_km3":1.076,"heading_deg":142.4926493163029,"speed_ms":7.927583643122675,"peak_altitude_m":600.0,"u_ms":4.52675960346964,"v_ms":-6.354677819083023}},{"type":"Feature","geometry":{"type":"Point","coordinates":[-81.7019,30.4846]},"properties":{"site":"KJAX","name":"Jacksonville FL","scan_time":"2026-08-27T11:58:14Z","stale":false,"bins":25,"density_birds_km3":2.4899999999999998,"heading_deg":21.693547182392276,"speed_ms":6.313592062295905,"peak_altitude_m":0.0,"u_ms":2.340180859080633,"v_ms":5.778231600100478}},{"type":"Feature","geometry":{"type":"Point","coordinates":[-88.0847,41.6045]},"properties":{"site":"KLOT","name":"Chicago IL","scan_time":"2026-08-27T12:03:24Z","stale":false,"bins":25,"density_birds_km3":8.308,"heading_deg":178.40601954556698,"speed_ms":9.939207062600321,"peak_altitude_m":200.0,"u_ms":0.2809486356340289,"v_ms":-9.921054574638845}},{"type":"Feature","geometry":{"type":"Point","coordinates":[-78.4292,33.9892]},"properties":{"site":"KLTX","name":"Wilmington NC","scan_time":"2026-08-27T12:00:29Z","stale":false,"bins":25,"density_birds_km3":0.295,"heading_deg":98.55993397053051,"speed_ms":2.6165042372881357,"peak_altitude_m":0.0,"u_ms":2.5809110169491527,"v_ms":-0.25154661016949154}},{"type":"Feature","geometry":{"type":"Point","coordinates":[-77.4778,38.9753]},"properties":{"site":"KLWX","name":"Sterling VA","scan_time":"2026-08-27T12:00:03Z","stale":false,"bins":25,"density_birds_km3":1.321875,"heading_deg":355.4438055507013,"speed_ms":3.951343779677113,"peak_altitude_m":0.0,"u_ms":-0.32476733143399805,"v_ms":3.7358214624881296}},{"type":"Feature","geometry":{"type":"Point","coordinates":[-76.8762,34.7759]},"properties":{"site":"KMHX","name":"Morehead City NC","scan_time":"2026-08-27T11:58:06Z","stale":false,"bins":25,"density_birds_km3":0.250625,"heading_deg":76.06649509090188,"speed_ms":1.585261845386534,"peak_altitude_m":0.0,"u_ms":1.4811221945137159,"v_ms":0.47451371571072315}},{"type":"Feature","geometry":{"type":"Point","coordinates":[-80.6542,28.1133]},"properties":{"site":"KMLB","name":"Melbourne FL","scan_time":"2026-08-27T12:00:54Z","stale":false,"bins":25,"density_birds_km3":0.38875000000000004,"heading_deg":6.372517357423028,"speed_ms":3.384935691318328,"peak_altitude_m":0.0,"u_ms":0.3831189710610932,"v_ms":3.3364790996784564}},{"type":"Feature","geometry":{"type":"Point","coordinates":[-86.5625,36.2472]},"properties":{"site":"KOHX","name":"Nashville TN","scan_time":"2026-08-27T12:00:03Z","stale":false,"bins":25,"density_birds_km3":2.4833333333333334,"heading_deg":157.91726436651197,"speed_ms":3.7476403580146465,"peak_altitude_m":200.0,"u_ms":1.401654461621915,"v_ms":-3.42101979929482}},{"type":"Feature","geometry":{"type":"Point","coordinates":[-72.8639,40.8655]},"properties":{"site":"KOKX","name":"Upton NY","scan_time":"2026-08-27T12:00:44Z","stale":false,"bins":25,"density_birds_km3":1.1331250000000002,"heading_deg":5.445067471545635,"speed_ms":6.466914127423823,"peak_altitude_m":0.0,"u_ms":0.6331191135734072,"v_ms":6.420869806094182}},{"type":"Feature","geometry":{"type":"Point","coordinates":[-80.2183,40.5317]},"properties":{"site":"KPBZ","name":"Pittsburgh PA","scan_time":"2026-08-27T12:01:57Z","stale":false,"bins":25,"density_birds_km3":0.26785714285714285,"heading_deg":59.17715896850351,"speed_ms":5.2354666666666665,"peak_altitude_m":400.0,"u_ms":4.39672,"v_ms":2.445226666666666}},{"type":"Feature","geometry":{"type":"Point","coordinates":[-78.4899,35.6655]},"properties":{"site":"KRAX","name":"Raleigh NC","scan_time":"2026-08-27T12:00:57Z","stale":false,"bins":25,"density_birds_km3":0.605625,"heading_deg":197.3135029224043,"speed_ms":0.9095356037151703,"peak_altitude_m":0.0,"u_ms":0.16768833849329207,"v_ms":-0.34124871001032}},{"type":"Feature","geometry":{"type":"Point","coordinates":[-82.4017,27.7055]},"properties":{"site":"KTBW","name":"Tampa FL","scan_time":"2026-08-27T11:58:32Z","stale":false,"bins":25,"density_birds_km3":0.60375,"heading_deg":341.7987165571397,"speed_ms":7.054099378881988,"peak_altitude_m":0.0,"u_ms":-2.156573498964803,"v_ms":6.485621118012422}}]}