{"type":"FeatureCollection","frame":"2026-08-25T04","site_count":20,"fresh_count":20,"failures":{},"features":[{"type":"Feature","geometry":{"type":"Point","coordinates":[-77.0073,36.984]},"properties":{"site":"KAKQ","name":"Wakefield VA","scan_time":"2026-08-25T03:58:22Z","stale":false,"bins":25,"density_birds_km3":12.0575,"heading_deg":195.50805004946218,"speed_ms":4.452140487299118,"peak_altitude_m":200.0,"u_ms":-0.4636283048211508,"v_ms":-4.096795749092794}},{"type":"Feature","geometry":{"type":"Point","coordinates":[-71.1369,41.9558]},"properties":{"site":"KBOX","name":"Boston MA","scan_time":"2026-08-25T03:59:38Z","stale":false,"bins":25,"density_birds_km3":1.68625,"heading_deg":56.88276185956199,"speed_ms":5.819050797182055,"peak_altitude_m":0.0,"u_ms":4.264579162031888,"v_ms":3.2990619206525773}},{"type":"Feature","geometry":{"type":"Point","coordinates":[-78.7369,42.9489]},"properties":{"site":"KBUF","name":"Buffalo NY","scan_time":"2026-08-25T03:59:34Z","stale":false,"bins":25,"density_birds_km3":3.291333333333333,"heading_deg":143.4505384239477,"speed_ms":8.18881912092364,"peak_altitude_m":400.0,"u_ms":4.780340287624064,"v_ms":-6.564699210046587}},{"type":"Feature","geometry":{"type":"Point","coordinates":[-81.8597,41.4131]},"properties":{"site":"KCLE","name":"Cleveland OH","scan_time":"2026-08-25T03:59:42Z","stale":false,"bins":25,"density_birds_km3":1.6953333333333334,"heading_deg":117.39473637520355,"speed_ms":6.029201101928375,"peak_altitude_m":200.0,"u_ms":4.908980716253444,"v_ms":-2.8216371507280598}},{"type":"Feature","geometry":{"type":"Point","coordinates":[-81.0423,32.6555]},"properties":{"site":"KCLX","name":"Charleston SC","scan_time":"2026-08-25T04:00:45Z","stale":false,"bins":25,"density_birds_km3":25.528750000000002,"heading_deg":186.2880418893643,"speed_ms":6.636831280758025,"peak_altitude_m":600.0,"u_ms":-0.8176855275077737,"v_ms":-5.598207526381509}},{"type":"Feature","geometry":{"type":"Point","coordinates":[-74.4108,39.947]},"properties":{"site":"KDIX","name":"Philadelphia PA","scan_time":"2026-08-25T04:01:59Z","stale":false,"bins":25,"density_birds_km3":4.559375,"heading_deg":179.45957035892408,"speed_ms":9.560856986151101,"peak_altitude_m":200.0,"u_ms":0.04392568216097633,"v_ms":-9.477892499657205}},{"type":"Feature","geometry":{"type":"Point","coordinates":[-84.5658,33.3636]},"properties":{"site":"KFFC","name":"Atlanta GA","scan_time":"2026-08-25T03:58:52Z","stale":false,"bins":25,"density_birds_km3":35.827999999999996,"heading_deg":227.0879386584753,"speed_ms":5.667924784607083,"peak_altitude_m":600.0,"u_ms":-4.0198055415992116,"v_ms":-3.860734475892741}},{"type":"Feature","geometry":{"type":"Point","coordinates":[-85.5449,42.8939]},"properties":{"site":"KGRR","name":"Grand Rapids MI","scan_time":"2026-08-25T04:00:50Z","stale":false,"bins":25,"density_birds_km3":11.593333333333334,"heading_deg":204.57299262840203,"speed_ms":12.392024501064013,"peak_altitude_m":400.0,"u_ms":-5.1255271179616955,"v_ms":-11.251217576350147}},{"type":"Feature","geometry":{"type":"Point","coordinates":[-83.8217,39.4203]},"properties":{"site":"KILN","name":"Wilmington OH","scan_time":"2026-08-25T03:57:07Z","stale":false,"bins":25,"density_birds_km3":9.217333333333332,"heading_deg":160.1859744097227,"speed_ms":6.140386284722221,"peak_altitude_m":400.0,"u_ms":2.0174110243055554,"v_ms":-5.718463541666666}},{"type":"Feature","geometry":{"type":"Point","coordinates":[-81.7019,30.4846]},"properties":{"site":"KJAX","name":"Jacksonville FL","scan_time":"2026-08-25T04:01:39Z","stale":false,"bins":25,"density_birds_km3":17.3675,"heading_deg":141.39818978656223,"speed_ms":7.380381146909203,"peak_altitude_m":200.0,"u_ms":4.671711499922922,"v_ms":-5.597432942808694}},{"type":"Feature","geometry":{"type":"Point","coordinates":[-88.0847,41.6045]},"properties":{"site":"KLOT","name":"Chicago IL","scan_time":"2026-08-25T04:03:14Z","stale":false,"bins":25,"density_birds_km3":6.862666666666667,"heading_deg":248.43943484940536,"speed_ms":5.509855227361057,"peak_altitude_m":200.0,"u_ms":-3.738614457831325,"v_ms":-1.3739875631558491}},{"type":"Feature","geometry":{"type":"Point","coordinates":[-78.4292,33.9892]},"properties":{"site":"KLTX","name":"Wilmington NC","scan_time":"2026-08-25T04:01:27Z","stale":false,"bins":25,"density_birds_km3":13.59875,"heading_deg":229.23888541822188,"speed_ms":7.708656798749655,"peak_altitude_m":400.0,"u_ms":-4.978011400202262,"v_ms":-5.452025834329318}},{"type":"Feature","geometry":{"type":"Point","coordinates":[-77.4778,38.9753]},"properties":{"site":"KLWX","name":"Sterling VA","scan_time":"2026-08-25T04:00:51Z","stale":false,"bins":25,"density_birds_km3":12.285,"heading_deg":184.31955762700352,"speed_ms":8.874300254452926,"peak_altitude_m":200.0,"u_ms":-0.6946483460559795,"v_ms":-8.614698218829517}},{"type":"Feature","geometry":{"type":"Point","coordinates":[-76.8762,34.7759]},"properties":{"site":"KMHX","name":"Morehead City NC","scan_time":"2026-08-25T03:59:22Z","stale":false,"bins":25,"density_birds_km3":5.78625,"heading_deg":158.57951320872303,"speed_ms":6.66346835169583,"peak_altitude_m":800.0,"u_ms":0.9048120544394037,"v_ms":-5.95651112551307}},{"type":"Feature","geometry":{"type":"Point","coordinates":[-80.6542,28.1133]},"properties":{"site":"KMLB","name":"Melbourne FL","scan_time":"2026-08-25T04:02:05Z","stale":false,"bins":25,"density_birds_km3":5.35125,"heading_deg":133.53097345214007,"speed_ms":5.859105140186916,"peak_altitude_m":0.0,"u_ms":3.9278948598130845,"v_ms":-4.126899532710281}},{"type":"Feature","geometry":{"type":"Point","coordinates":[-86.5625,36.2472]},"properties":{"site":"KOHX","name":"Nashville TN","scan_time":"2026-08-25T03:59:13Z","stale":false,"bins":25,"density_birds_km3":30.084666666666667,"heading_deg":242.56569092969482,"speed_ms":7.321892215303477,"peak_altitude_m":400.0,"u_ms":-6.369075498038868,"v_ms":-3.160833647262171}},{"type":"Feature","geometry":{"type":"Point","coordinates":[-72.8639,40.8655]},"properties":{"site":"KOKX","name":"Upton NY","scan_time":"2026-08-25T03:58:58Z","stale":false,"bins":25,"density_birds_km3":2.83125,"heading_deg":161.996077324484,"speed_ms":7.346498896247241,"peak_altitude_m":0.0,"u_ms":2.255476821192053,"v_ms":-6.806156732891834}},{"type":"Feature","geometry":{"type":"Point","coordinates":[-80.2183,40.5317]},"properties":{"site":"KPBZ","name":"Pittsburgh PA","scan_time":"2026-08-25T03:59:40Z","stale":false,"bins":25,"density_birds_km3":2.827142857142857,"heading_deg":138.76448610590714,"speed_ms":6.548204144282424,"peak_altitude_m":600.0,"u_ms":4.063384497313891,"v_ms":-4.906354566385264}},{"type":"Feature","geometry":{"type":"Point","coordinates":[-78.4899,35.6655]},"properties":{"site":"KRAX","name":"Raleigh NC","scan_time":"2026-08-25T03:59:11Z","stale":false,"bins":25,"density_birds_km3":23.09,"heading_deg":193.286905647993,"speed_ms":9.082028043960804,"peak_altitude_m":400.0,"u_ms":-1.8332824427480914,"v_ms":-8.8720851605219}},{"type":"Feature","geometry":{"type":"Point","coordinates":[-82.4017,27.7055]},"properties":{"site":"KTBW","name":"Tampa FL","scan_time":"2026-08-25T03:59:31Z","stale":false,"bins":25,"density_birds_km3":5.954375,"heading_deg":127.28588845814791,"speed_ms":3.3145369494376116,"peak_altitude_m":0.0,"u_ms":0.3207610638074214,"v_ms":-2.770969200042048}}]}