{"type":"FeatureCollection","frame":"2026-08-26T02","site_count":20,"fresh_count":20,"failures":{},"features":[{"type":"Feature","geometry":{"type":"Point","coordinates":[-77.0073,36.984]},"properties":{"site":"KAKQ","name":"Wakefield VA","scan_time":"2026-08-26T01:59:29Z","stale":false,"bins":25,"density_birds_km3":17.36875,"heading_deg":236.11071041986673,"speed_ms":4.01914499747893,"peak_altitude_m":0.0,"u_ms":-2.486861629330836,"v_ms":-1.6726503637542318}},{"type":"Feature","geometry":{"type":"Point","coordinates":[-71.1369,41.9558]},"properties":{"site":"KBOX","name":"Boston MA","scan_time":"2026-08-26T01:58:01Z","stale":false,"bins":25,"density_birds_km3":6.405,"heading_deg":147.06719172405423,"speed_ms":7.790142760027192,"peak_altitude_m":0.0,"u_ms":3.4372433718558804,"v_ms":-6.119556990709269}},{"type":"Feature","geometry":{"type":"Point","coordinates":[-78.7369,42.9489]},"properties":{"site":"KBUF","name":"Buffalo NY","scan_time":"2026-08-26T02:03:17Z","stale":false,"bins":25,"density_birds_km3":11.326666666666666,"heading_deg":175.6239217366344,"speed_ms":6.61818952324897,"peak_altitude_m":1000.0,"u_ms":-0.17493996468510886,"v_ms":-4.937230723955268}},{"type":"Feature","geometry":{"type":"Point","coordinates":[-81.8597,41.4131]},"properties":{"site":"KCLE","name":"Cleveland OH","scan_time":"2026-08-26T01:57:32Z","stale":false,"bins":25,"density_birds_km3":9.764000000000001,"heading_deg":241.6261532721607,"speed_ms":3.41028218092375,"peak_altitude_m":400.0,"u_ms":-2.2732843673134737,"v_ms":-0.9961362394096749}},{"type":"Feature","geometry":{"type":"Point","coordinates":[-81.0423,32.6555]},"properties":{"site":"KCLX","name":"Charleston SC","scan_time":"2026-08-26T01:58:20Z","stale":false,"bins":25,"density_birds_km3":15.099375,"heading_deg":230.0645886761631,"speed_ms":4.588322667127907,"peak_altitude_m":200.0,"u_ms":-2.8483062354060364,"v_ms":-1.889766928997665}},{"type":"Feature","geometry":{"type":"Point","coordinates":[-74.4108,39.947]},"properties":{"site":"KDIX","name":"Philadelphia PA","scan_time":"2026-08-26T01:58:53Z","stale":false,"bins":25,"density_birds_km3":4.833125,"heading_deg":179.10044230809038,"speed_ms":8.178233153638812,"peak_altitude_m":1800.0,"u_ms":-0.43921024258760105,"v_ms":-7.0890215633423175}},{"type":"Feature","geometry":{"type":"Point","coordinates":[-84.5658,33.3636]},"properties":{"site":"KFFC","name":"Atlanta GA","scan_time":"2026-08-26T02:00:30Z","stale":false,"bins":25,"density_birds_km3":40.70466666666667,"heading_deg":235.12625637646056,"speed_ms":6.504456728249475,"peak_altitude_m":600.0,"u_ms":-5.137409591194968,"v_ms":-3.83142590408805}},{"type":"Feature","geometry":{"type":"Point","coordinates":[-85.5449,42.8939]},"properties":{"site":"KGRR","name":"Grand Rapids MI","scan_time":"2026-08-26T01:56:18Z","stale":false,"bins":25,"density_birds_km3":6.615333333333334,"heading_deg":93.8534475938401,"speed_ms":2.1528316532258063,"peak_altitude_m":400.0,"u_ms":1.7133840725806453,"v_ms":0.03716028225806452}},{"type":"Feature","geometry":{"type":"Point","coordinates":[-83.8217,39.4203]},"properties":{"site":"KILN","name":"Wilmington OH","scan_time":"2026-08-26T02:01:42Z","stale":false,"bins":25,"density_birds_km3":7.582,"heading_deg":275.3391429581607,"speed_ms":3.57240353200883,"peak_altitude_m":200.0,"u_ms":-2.089400441501104,"v_ms":0.5973439293598234}},{"type":"Feature","geometry":{"type":"Point","coordinates":[-81.7019,30.4846]},"properties":{"site":"KJAX","name":"Jacksonville FL","scan_time":"2026-08-26T02:01:46Z","stale":false,"bins":25,"density_birds_km3":64.66375000000001,"heading_deg":161.87392709821663,"speed_ms":5.757428107463668,"peak_altitude_m":200.0,"u_ms":1.7396702912701187,"v_ms":-5.46121780509363}},{"type":"Feature","geometry":{"type":"Point","coordinates":[-88.0847,41.6045]},"properties":{"site":"KLOT","name":"Chicago IL","scan_time":"2026-08-26T02:01:31Z","stale":false,"bins":25,"density_birds_km3":1.934,"heading_deg":8.16603292823172,"speed_ms":6.367012893982809,"peak_altitude_m":200.0,"u_ms":0.8538538681948425,"v_ms":5.351131805157593}},{"type":"Feature","geometry":{"type":"Point","coordinates":[-78.4292,33.9892]},"properties":{"site":"KLTX","name":"Wilmington NC","scan_time":"2026-08-26T01:59:55Z","stale":false,"bins":25,"density_birds_km3":25.891875,"heading_deg":210.7215603653591,"speed_ms":9.204001979385426,"peak_altitude_m":1400.0,"u_ms":-3.738354937601082,"v_ms":-7.526505419171072}},{"type":"Feature","geometry":{"type":"Point","coordinates":[-77.4778,38.9753]},"properties":{"site":"KLWX","name":"Sterling VA","scan_time":"2026-08-26T01:57:43Z","stale":false,"bins":25,"density_birds_km3":9.833124999999999,"heading_deg":225.86814881854525,"speed_ms":3.526553435114504,"peak_altitude_m":400.0,"u_ms":-1.671259541984733,"v_ms":-2.069293893129771}},{"type":"Feature","geometry":{"type":"Point","coordinates":[-76.8762,34.7759]},"properties":{"site":"KMHX","name":"Morehead City NC","scan_time":"2026-08-26T02:01:54Z","stale":false,"bins":25,"density_birds_km3":12.03125,"heading_deg":216.5542874234606,"speed_ms":6.079182295184165,"peak_altitude_m":1000.0,"u_ms":-2.117940152735207,"v_ms":-4.858120941347603}},{"type":"Feature","geometry":{"type":"Point","coordinates":[-80.6542,28.1133]},"properties":{"site":"KMLB","name":"Melbourne FL","scan_time":"2026-08-26T01:58:31Z","stale":false,"bins":25,"density_birds_km3":9.23,"heading_deg":177.09201812257163,"speed_ms":3.340264869258908,"peak_altitude_m":0.0,"u_ms":0.06458000270965994,"v_ms":-2.5436289120715347}},{"type":"Feature","geometry":{"type":"Point","coordinates":[-86.5625,36.2472]},"properties":{"site":"KOHX","name":"Nashville TN","scan_time":"2026-08-26T02:02:25Z","stale":false,"bins":25,"density_birds_km3":21.538666666666664,"heading_deg":222.2047455795422,"speed_ms":5.897800235235855,"peak_altitude_m":200.0,"u_ms":-3.438342515785564,"v_ms":-4.043852606165656}},{"type":"Feature","geometry":{"type":"Point","coordinates":[-72.8639,40.8655]},"properties":{"site":"KOKX","name":"Upton NY","scan_time":"2026-08-26T02:00:21Z","stale":false,"bins":25,"density_birds_km3":10.684666666666667,"heading_deg":167.98427263110156,"speed_ms":7.188454463730032,"peak_altitude_m":0.0,"u_ms":0.4954346172463867,"v_ms":-6.52506050757209}},{"type":"Feature","geometry":{"type":"Point","coordinates":[-80.2183,40.5317]},"properties":{"site":"KPBZ","name":"Pittsburgh PA","scan_time":"2026-08-26T02:02:01Z","stale":false,"bins":25,"density_birds_km3":25.809285714285714,"heading_deg":210.59590748187065,"speed_ms":5.879615845001809,"peak_altitude_m":600.0,"u_ms":-3.0425972218355923,"v_ms":-5.008616763633326}},{"type":"Feature","geometry":{"type":"Point","coordinates":[-78.4899,35.6655]},"properties":{"site":"KRAX","name":"Raleigh NC","scan_time":"2026-08-26T01:59:39Z","stale":false,"bins":25,"density_birds_km3":26.44875,"heading_deg":231.75340302552073,"speed_ms":3.424503217259652,"peak_altitude_m":200.0,"u_ms":-2.6288252271006813,"v_ms":-1.983039600681302}},{"type":"Feature","geometry":{"type":"Point","coordinates":[-82.4017,27.7055]},"properties":{"site":"KTBW","name":"Tampa FL","scan_time":"2026-08-26T01:59:34Z","stale":false,"bins":25,"density_birds_km3":9.2625,"heading_deg":174.5288149215587,"speed_ms":6.906657894736842,"peak_altitude_m":0.0,"u_ms":0.2386673414304993,"v_ms":-6.596641025641026}}]}