{"type":"FeatureCollection","frame":"2026-08-23T11","site_count":20,"fresh_count":20,"failures":{},"features":[{"type":"Feature","geometry":{"type":"Point","coordinates":[-77.0073,36.984]},"properties":{"site":"KAKQ","name":"Wakefield VA","scan_time":"2026-08-23T11:01:30Z","stale":false,"bins":25,"density_birds_km3":2.468125,"heading_deg":124.598620087298,"speed_ms":9.47942444219067,"peak_altitude_m":400.0,"u_ms":7.264267241379311,"v_ms":-5.611658215010142}},{"type":"Feature","geometry":{"type":"Point","coordinates":[-71.1369,41.9558]},"properties":{"site":"KBOX","name":"Boston MA","scan_time":"2026-08-23T11:01:06Z","stale":false,"bins":25,"density_birds_km3":0.61875,"heading_deg":270.8066567863117,"speed_ms":2.604751773049645,"peak_altitude_m":0.0,"u_ms":-2.5979533941236066,"v_ms":0.02204660587639311}},{"type":"Feature","geometry":{"type":"Point","coordinates":[-78.7369,42.9489]},"properties":{"site":"KBUF","name":"Buffalo NY","scan_time":"2026-08-23T10:57:06Z","stale":false,"bins":25,"density_birds_km3":1.4146666666666665,"heading_deg":67.71366575984015,"speed_ms":8.024915174363809,"peak_altitude_m":200.0,"u_ms":7.439934024505184,"v_ms":2.9690810556079175}},{"type":"Feature","geometry":{"type":"Point","coordinates":[-81.8597,41.4131]},"properties":{"site":"KCLE","name":"Cleveland OH","scan_time":"2026-08-23T11:01:15Z","stale":false,"bins":25,"density_birds_km3":9.477333333333332,"heading_deg":124.92076312433359,"speed_ms":8.53000422059651,"peak_altitude_m":200.0,"u_ms":6.821624929656725,"v_ms":-4.937497889701745}},{"type":"Feature","geometry":{"type":"Point","coordinates":[-81.0423,32.6555]},"properties":{"site":"KCLX","name":"Charleston SC","scan_time":"2026-08-23T11:01:36Z","stale":false,"bins":25,"density_birds_km3":0.263125,"heading_deg":40.588885122270966,"speed_ms":7.583087885985749,"peak_altitude_m":0.0,"u_ms":4.733420427553444,"v_ms":5.449263657957245}},{"type":"Feature","geometry":{"type":"Point","coordinates":[-74.4108,39.947]},"properties":{"site":"KDIX","name":"Philadelphia PA","scan_time":"2026-08-23T11:01:51Z","stale":false,"bins":25,"density_birds_km3":0.49125,"heading_deg":109.67100610210566,"speed_ms":2.487751677852349,"peak_altitude_m":200.0,"u_ms":2.100604026845638,"v_ms":-0.06867449664429529}},{"type":"Feature","geometry":{"type":"Point","coordinates":[-84.5658,33.3636]},"properties":{"site":"KFFC","name":"Atlanta GA","scan_time":"2026-08-23T11:02:49Z","stale":false,"bins":25,"density_birds_km3":7.588666666666667,"heading_deg":170.59844479763984,"speed_ms":8.047698322059212,"peak_altitude_m":200.0,"u_ms":1.315472195379074,"v_ms":-7.942058332601247}},{"type":"Feature","geometry":{"type":"Point","coordinates":[-85.5449,42.8939]},"properties":{"site":"KGRR","name":"Grand Rapids MI","scan_time":"2026-08-23T11:01:40Z","stale":false,"bins":25,"density_birds_km3":2.5446666666666666,"heading_deg":143.66617954290905,"speed_ms":6.063530799475754,"peak_altitude_m":200.0,"u_ms":3.300178243774574,"v_ms":-5.0040000000000004}},{"type":"Feature","geometry":{"type":"Point","coordinates":[-83.8217,39.4203]},"properties":{"site":"KILN","name":"Wilmington OH","scan_time":"2026-08-23T11:00:21Z","stale":false,"bins":25,"density_birds_km3":7.787999999999999,"heading_deg":152.34483302781092,"speed_ms":9.760208047945206,"peak_altitude_m":400.0,"u_ms":4.508176369863014,"v_ms":-8.610796232876712}},{"type":"Feature","geometry":{"type":"Point","coordinates":[-81.7019,30.4846]},"properties":{"site":"KJAX","name":"Jacksonville FL","scan_time":"2026-08-23T10:59:48Z","stale":false,"bins":25,"density_birds_km3":1.074375,"heading_deg":86.74178362561388,"speed_ms":4.983680838672102,"peak_altitude_m":0.0,"u_ms":4.9118986604542805,"v_ms":0.1973791496796738}},{"type":"Feature","geometry":{"type":"Point","coordinates":[-88.0847,41.6045]},"properties":{"site":"KLOT","name":"Chicago IL","scan_time":"2026-08-23T11:02:06Z","stale":false,"bins":25,"density_birds_km3":2.996,"heading_deg":177.13224388743575,"speed_ms":6.470865470852018,"peak_altitude_m":200.0,"u_ms":0.3170964125560538,"v_ms":-6.460394618834081}},{"type":"Feature","geometry":{"type":"Point","coordinates":[-78.4292,33.9892]},"properties":{"site":"KLTX","name":"Wilmington NC","scan_time":"2026-08-23T10:58:06Z","stale":false,"bins":25,"density_birds_km3":0.7575,"heading_deg":103.31877979731676,"speed_ms":5.577522708505368,"peak_altitude_m":0.0,"u_ms":5.137018992568127,"v_ms":-1.498150289017341}},{"type":"Feature","geometry":{"type":"Point","coordinates":[-77.4778,38.9753]},"properties":{"site":"KLWX","name":"Sterling VA","scan_time":"2026-08-23T10:57:23Z","stale":false,"bins":25,"density_birds_km3":0.89625,"heading_deg":112.58958431714163,"speed_ms":3.567531380753138,"peak_altitude_m":0.0,"u_ms":3.0444281729428173,"v_ms":-1.690536959553696}},{"type":"Feature","geometry":{"type":"Point","coordinates":[-76.8762,34.7759]},"properties":{"site":"KMHX","name":"Morehead City NC","scan_time":"2026-08-23T10:59:46Z","stale":false,"bins":25,"density_birds_km3":1.974375,"heading_deg":116.81633332275456,"speed_ms":7.147279924002533,"peak_altitude_m":200.0,"u_ms":6.301082963901204,"v_ms":-3.2276725775807473}},{"type":"Feature","geometry":{"type":"Point","coordinates":[-80.6542,28.1133]},"properties":{"site":"KMLB","name":"Melbourne FL","scan_time":"2026-08-23T10:58:58Z","stale":false,"bins":25,"density_birds_km3":6.935625,"heading_deg":46.836964950908566,"speed_ms":3.971233666756781,"peak_altitude_m":0.0,"u_ms":2.875447418221141,"v_ms":2.7227115436604485}},{"type":"Feature","geometry":{"type":"Point","coordinates":[-86.5625,36.2472]},"properties":{"site":"KOHX","name":"Nashville TN","scan_time":"2026-08-23T11:02:25Z","stale":false,"bins":25,"density_birds_km3":8.391333333333334,"heading_deg":198.52050080095322,"speed_ms":7.825263366965917,"peak_altitude_m":200.0,"u_ms":-2.4095805195836975,"v_ms":-7.100485421466592}},{"type":"Feature","geometry":{"type":"Point","coordinates":[-72.8639,40.8655]},"properties":{"site":"KOKX","name":"Upton NY","scan_time":"2026-08-23T10:59:24Z","stale":false,"bins":25,"density_birds_km3":1.2806250000000001,"heading_deg":284.00595749590025,"speed_ms":9.191738047808764,"peak_altitude_m":0.0,"u_ms":-8.893824701195218,"v_ms":2.2661503984063742}},{"type":"Feature","geometry":{"type":"Point","coordinates":[-80.2183,40.5317]},"properties":{"site":"KPBZ","name":"Pittsburgh PA","scan_time":"2026-08-23T11:00:42Z","stale":false,"bins":25,"density_birds_km3":0.9171428571428571,"heading_deg":112.3934654517181,"speed_ms":8.582546184738955,"peak_altitude_m":400.0,"u_ms":7.825084337349399,"v_ms":-3.3733493975903612}},{"type":"Feature","geometry":{"type":"Point","coordinates":[-78.4899,35.6655]},"properties":{"site":"KRAX","name":"Raleigh NC","scan_time":"2026-08-23T11:02:56Z","stale":false,"bins":25,"density_birds_km3":8.239375,"heading_deg":127.02725115753495,"speed_ms":10.249008680741614,"peak_altitude_m":600.0,"u_ms":7.853129353767013,"v_ms":-6.392000857357196}},{"type":"Feature","geometry":{"type":"Point","coordinates":[-82.4017,27.7055]},"properties":{"site":"KTBW","name":"Tampa FL","scan_time":"2026-08-23T11:01:15Z","stale":false,"bins":25,"density_birds_km3":2.746875,"heading_deg":23.819623861677798,"speed_ms":4.370727148392978,"peak_altitude_m":200.0,"u_ms":1.7572350125370413,"v_ms":3.962149532710281}}]}