{"type":"FeatureCollection","frame":"2026-09-13T04","site_count":20,"fresh_count":20,"failures":{},"features":[{"type":"Feature","geometry":{"type":"Point","coordinates":[-77.0073,36.984]},"properties":{"site":"KAKQ","name":"Wakefield VA","scan_time":"2026-09-13T03:58:58Z","stale":false,"bins":25,"density_birds_km3":8.024375000000001,"heading_deg":270.974273833817,"speed_ms":4.482618787973205,"peak_altitude_m":0.0,"u_ms":-1.1831609284935347,"v_ms":0.22675416731578152}},{"type":"Feature","geometry":{"type":"Point","coordinates":[-71.1369,41.9558]},"properties":{"site":"KBOX","name":"Boston MA","scan_time":"2026-09-13T04:01:27Z","stale":false,"bins":25,"density_birds_km3":1.16875,"heading_deg":353.64456341012,"speed_ms":8.063016042780749,"peak_altitude_m":0.0,"u_ms":-0.7031069518716578,"v_ms":7.703807486631017}},{"type":"Feature","geometry":{"type":"Point","coordinates":[-78.7369,42.9489]},"properties":{"site":"KBUF","name":"Buffalo NY","scan_time":"2026-09-13T03:57:56Z","stale":false,"bins":25,"density_birds_km3":1.0886666666666664,"heading_deg":52.79629759325221,"speed_ms":8.636760563380282,"peak_altitude_m":200.0,"u_ms":6.813710961420699,"v_ms":5.119271279853032}},{"type":"Feature","geometry":{"type":"Point","coordinates":[-81.8597,41.4131]},"properties":{"site":"KCLE","name":"Cleveland OH","scan_time":"2026-09-13T04:01:21Z","stale":false,"bins":25,"density_birds_km3":3.939333333333333,"heading_deg":98.69265827817519,"speed_ms":7.724141140632933,"peak_altitude_m":400.0,"u_ms":6.570756473176512,"v_ms":-0.6661837874428836}},{"type":"Feature","geometry":{"type":"Point","coordinates":[-81.0423,32.6555]},"properties":{"site":"KCLX","name":"Charleston SC","scan_time":"2026-09-13T04:01:16Z","stale":false,"bins":25,"density_birds_km3":4.70625,"heading_deg":75.64155847743412,"speed_ms":4.064350425079702,"peak_altitude_m":0.0,"u_ms":3.6278546758767267,"v_ms":1.1309072794899044}},{"type":"Feature","geometry":{"type":"Point","coordinates":[-74.4108,39.947]},"properties":{"site":"KDIX","name":"Philadelphia PA","scan_time":"2026-09-13T04:00:02Z","stale":false,"bins":25,"density_birds_km3":3.46625,"heading_deg":317.87402127790773,"speed_ms":6.401672379577846,"peak_altitude_m":200.0,"u_ms":-4.065359913404294,"v_ms":4.146581273678513}},{"type":"Feature","geometry":{"type":"Point","coordinates":[-84.5658,33.3636]},"properties":{"site":"KFFC","name":"Atlanta GA","scan_time":"2026-09-13T03:58:59Z","stale":false,"bins":25,"density_birds_km3":61.51733333333333,"heading_deg":142.51905999567904,"speed_ms":9.361550674064762,"peak_altitude_m":1600.0,"u_ms":4.16053968529195,"v_ms":-6.711298495816897}},{"type":"Feature","geometry":{"type":"Point","coordinates":[-85.5449,42.8939]},"properties":{"site":"KGRR","name":"Grand Rapids MI","scan_time":"2026-09-13T04:01:37Z","stale":false,"bins":25,"density_birds_km3":23.444000000000003,"heading_deg":133.35164938553845,"speed_ms":12.046368370134303,"peak_altitude_m":400.0,"u_ms":8.655852208058274,"v_ms":-8.320063453221033}},{"type":"Feature","geometry":{"type":"Point","coordinates":[-83.8217,39.4203]},"properties":{"site":"KILN","name":"Wilmington OH","scan_time":"2026-09-13T03:58:15Z","stale":false,"bins":25,"density_birds_km3":22.436666666666667,"heading_deg":128.8425973610286,"speed_ms":10.461803892437974,"peak_altitude_m":800.0,"u_ms":7.461953647303521,"v_ms":-6.482707175753974}},{"type":"Feature","geometry":{"type":"Point","coordinates":[-81.7019,30.4846]},"properties":{"site":"KJAX","name":"Jacksonville FL","scan_time":"2026-09-13T04:00:31Z","stale":false,"bins":25,"density_birds_km3":7.74625,"heading_deg":132.37074451358356,"speed_ms":1.9725861373355926,"peak_altitude_m":0.0,"u_ms":1.0681780037117727,"v_ms":-0.5636076817558299}},{"type":"Feature","geometry":{"type":"Point","coordinates":[-88.0847,41.6045]},"properties":{"site":"KLOT","name":"Chicago IL","scan_time":"2026-09-13T04:01:50Z","stale":false,"bins":25,"density_birds_km3":94.00999999999999,"heading_deg":158.7074710481341,"speed_ms":11.249666631209447,"peak_altitude_m":400.0,"u_ms":3.764591851930646,"v_ms":-10.306825444101692}},{"type":"Feature","geometry":{"type":"Point","coordinates":[-78.4292,33.9892]},"properties":{"site":"KLTX","name":"Wilmington NC","scan_time":"2026-09-13T04:00:11Z","stale":false,"bins":25,"density_birds_km3":6.413125,"heading_deg":325.0018039716728,"speed_ms":5.457333463567103,"peak_altitude_m":0.0,"u_ms":-2.0775454190271536,"v_ms":4.045459074037898}},{"type":"Feature","geometry":{"type":"Point","coordinates":[-77.4778,38.9753]},"properties":{"site":"KLWX","name":"Sterling VA","scan_time":"2026-09-13T04:00:28Z","stale":false,"bins":25,"density_birds_km3":20.361875,"heading_deg":266.0586999048147,"speed_ms":5.3046979307796525,"peak_altitude_m":200.0,"u_ms":-4.476415506835817,"v_ms":-0.3425437245966253}},{"type":"Feature","geometry":{"type":"Point","coordinates":[-76.8762,34.7759]},"properties":{"site":"KMHX","name":"Morehead City NC","scan_time":"2026-09-13T03:58:44Z","stale":false,"bins":25,"density_birds_km3":2.171875,"heading_deg":35.14549289765923,"speed_ms":7.382510797581341,"peak_altitude_m":0.0,"u_ms":4.3113734523466745,"v_ms":5.962715231788079}},{"type":"Feature","geometry":{"type":"Point","coordinates":[-80.6542,28.1133]},"properties":{"site":"KMLB","name":"Melbourne FL","scan_time":"2026-09-13T04:01:15Z","stale":false,"bins":25,"density_birds_km3":8.199375,"heading_deg":130.37369785623048,"speed_ms":4.326842747160607,"peak_altitude_m":0.0,"u_ms":3.27741977284854,"v_ms":-2.74516197880936}},{"type":"Feature","geometry":{"type":"Point","coordinates":[-86.5625,36.2472]},"properties":{"site":"KOHX","name":"Nashville TN","scan_time":"2026-09-13T03:58:28Z","stale":false,"bins":25,"density_birds_km3":137.32933333333332,"heading_deg":154.86263335738494,"speed_ms":7.417590318164606,"peak_altitude_m":400.0,"u_ms":2.9391278386749127,"v_ms":-6.4888900647591665}},{"type":"Feature","geometry":{"type":"Point","coordinates":[-72.8639,40.8655]},"properties":{"site":"KOKX","name":"Upton NY","scan_time":"2026-09-13T04:00:33Z","stale":false,"bins":25,"density_birds_km3":1.7381250000000001,"heading_deg":312.34533504649255,"speed_ms":6.1037135660309465,"peak_altitude_m":0.0,"u_ms":-4.288434688736956,"v_ms":3.669363080244693}},{"type":"Feature","geometry":{"type":"Point","coordinates":[-80.2183,40.5317]},"properties":{"site":"KPBZ","name":"Pittsburgh PA","scan_time":"2026-09-13T03:58:49Z","stale":false,"bins":25,"density_birds_km3":2.519285714285714,"heading_deg":43.9391552016011,"speed_ms":7.176221765913759,"peak_altitude_m":600.0,"u_ms":5.081361102962746,"v_ms":4.767838075682018}},{"type":"Feature","geometry":{"type":"Point","coordinates":[-78.4899,35.6655]},"properties":{"site":"KRAX","name":"Raleigh NC","scan_time":"2026-09-13T03:59:12Z","stale":false,"bins":25,"density_birds_km3":8.788125,"heading_deg":331.7599542409324,"speed_ms":4.725427067776118,"peak_altitude_m":0.0,"u_ms":0.10288315198065559,"v_ms":3.4756084204537365}},{"type":"Feature","geometry":{"type":"Point","coordinates":[-82.4017,27.7055]},"properties":{"site":"KTBW","name":"Tampa FL","scan_time":"2026-09-13T04:01:06Z","stale":false,"bins":25,"density_birds_km3":8.0725,"heading_deg":250.30888757894462,"speed_ms":5.942719108082998,"peak_altitude_m":0.0,"u_ms":-2.560357695881078,"v_ms":-1.922049396097863}}]}