{"type":"FeatureCollection","frame":"2026-08-15T04","site_count":20,"fresh_count":20,"failures":{},"features":[{"type":"Feature","geometry":{"type":"Point","coordinates":[-77.0073,36.984]},"properties":{"site":"KAKQ","name":"Wakefield VA","scan_time":"2026-08-15T04:02:59Z","stale":false,"bins":25,"density_birds_km3":11.47375,"heading_deg":182.9644654682011,"speed_ms":5.01118318941961,"peak_altitude_m":200.0,"u_ms":-0.0009509235982075026,"v_ms":-4.424990162859329}},{"type":"Feature","geometry":{"type":"Point","coordinates":[-71.1369,41.9558]},"properties":{"site":"KBOX","name":"Boston MA","scan_time":"2026-08-15T03:56:17Z","stale":false,"bins":25,"density_birds_km3":3.41125,"heading_deg":204.2746459833435,"speed_ms":8.250652612282309,"peak_altitude_m":400.0,"u_ms":-3.5106159486709436,"v_ms":-7.415556370302475}},{"type":"Feature","geometry":{"type":"Point","coordinates":[-78.7369,42.9489]},"properties":{"site":"KBUF","name":"Buffalo NY","scan_time":"2026-08-15T04:02:04Z","stale":false,"bins":25,"density_birds_km3":5.582,"heading_deg":256.3846936198873,"speed_ms":5.521073689239222,"peak_altitude_m":400.0,"u_ms":-4.945259763525618,"v_ms":-0.1798387674668577}},{"type":"Feature","geometry":{"type":"Point","coordinates":[-81.8597,41.4131]},"properties":{"site":"KCLE","name":"Cleveland OH","scan_time":"2026-08-15T04:00:16Z","stale":false,"bins":25,"density_birds_km3":6.441333333333334,"heading_deg":256.46162030187736,"speed_ms":6.4822667495081285,"peak_altitude_m":400.0,"u_ms":-6.224341928135032,"v_ms":-1.6338076007041527}},{"type":"Feature","geometry":{"type":"Point","coordinates":[-81.0423,32.6555]},"properties":{"site":"KCLX","name":"Charleston SC","scan_time":"2026-08-15T03:59:57Z","stale":false,"bins":25,"density_birds_km3":2.78625,"heading_deg":50.01704772313911,"speed_ms":5.780841373120934,"peak_altitude_m":0.0,"u_ms":3.182039488445142,"v_ms":3.3848171415750503}},{"type":"Feature","geometry":{"type":"Point","coordinates":[-74.4108,39.947]},"properties":{"site":"KDIX","name":"Philadelphia PA","scan_time":"2026-08-15T03:57:06Z","stale":false,"bins":25,"density_birds_km3":3.564375,"heading_deg":178.04249752507778,"speed_ms":7.144934198982277,"peak_altitude_m":200.0,"u_ms":-1.4622179329706966,"v_ms":-5.133381294964028}},{"type":"Feature","geometry":{"type":"Point","coordinates":[-84.5658,33.3636]},"properties":{"site":"KFFC","name":"Atlanta GA","scan_time":"2026-08-15T04:01:55Z","stale":false,"bins":25,"density_birds_km3":22.42,"heading_deg":186.44909062673474,"speed_ms":4.252867082961641,"peak_altitude_m":1800.0,"u_ms":-0.30526553672316376,"v_ms":-3.3359084151055605}},{"type":"Feature","geometry":{"type":"Point","coordinates":[-85.5449,42.8939]},"properties":{"site":"KGRR","name":"Grand Rapids MI","scan_time":"2026-08-15T03:59:55Z","stale":false,"bins":25,"density_birds_km3":7.676,"heading_deg":252.51823478910228,"speed_ms":8.257978113600833,"peak_altitude_m":200.0,"u_ms":-7.8278678130970984,"v_ms":-2.2367465693937816}},{"type":"Feature","geometry":{"type":"Point","coordinates":[-83.8217,39.4203]},"properties":{"site":"KILN","name":"Wilmington OH","scan_time":"2026-08-15T04:01:43Z","stale":false,"bins":25,"density_birds_km3":40.56266666666667,"heading_deg":215.8487831697303,"speed_ms":7.914862928144105,"peak_altitude_m":400.0,"u_ms":-4.718416113339031,"v_ms":-5.335168134902372}},{"type":"Feature","geometry":{"type":"Point","coordinates":[-81.7019,30.4846]},"properties":{"site":"KJAX","name":"Jacksonville FL","scan_time":"2026-08-15T03:58:53Z","stale":false,"bins":25,"density_birds_km3":8.399375,"heading_deg":150.68275028366347,"speed_ms":4.502017144591108,"peak_altitude_m":0.0,"u_ms":2.050934607798513,"v_ms":-3.7724616901835835}},{"type":"Feature","geometry":{"type":"Point","coordinates":[-88.0847,41.6045]},"properties":{"site":"KLOT","name":"Chicago IL","scan_time":"2026-08-15T04:01:32Z","stale":false,"bins":25,"density_birds_km3":5.792666666666666,"heading_deg":277.2116193882577,"speed_ms":6.55114952463267,"peak_altitude_m":400.0,"u_ms":-6.0774515372268185,"v_ms":0.9654080750709964}},{"type":"Feature","geometry":{"type":"Point","coordinates":[-78.4292,33.9892]},"properties":{"site":"KLTX","name":"Wilmington NC","scan_time":"2026-08-15T04:01:33Z","stale":false,"bins":25,"density_birds_km3":1.42125,"heading_deg":36.921402379420336,"speed_ms":7.558313199105145,"peak_altitude_m":0.0,"u_ms":4.2987248322147655,"v_ms":5.286926174496644}},{"type":"Feature","geometry":{"type":"Point","coordinates":[-77.4778,38.9753]},"properties":{"site":"KLWX","name":"Sterling VA","scan_time":"2026-08-15T03:58:59Z","stale":false,"bins":25,"density_birds_km3":25.09642857142857,"heading_deg":220.2539157021628,"speed_ms":5.913969310778375,"peak_altitude_m":600.0,"u_ms":-3.8549034175334325,"v_ms":-4.1075274317064805}},{"type":"Feature","geometry":{"type":"Point","coordinates":[-76.8762,34.7759]},"properties":{"site":"KMHX","name":"Morehead City NC","scan_time":"2026-08-15T04:01:14Z","stale":false,"bins":25,"density_birds_km3":0.956875,"heading_deg":69.67137397211772,"speed_ms":9.722802090137167,"peak_altitude_m":200.0,"u_ms":8.53125408229915,"v_ms":3.557067276290007}},{"type":"Feature","geometry":{"type":"Point","coordinates":[-80.6542,28.1133]},"properties":{"site":"KMLB","name":"Melbourne FL","scan_time":"2026-08-15T04:00:10Z","stale":false,"bins":25,"density_birds_km3":2.495,"heading_deg":41.6416285880337,"speed_ms":1.5266574793284888,"peak_altitude_m":0.0,"u_ms":-0.3116537208719619,"v_ms":1.345053871210223}},{"type":"Feature","geometry":{"type":"Point","coordinates":[-86.5625,36.2472]},"properties":{"site":"KOHX","name":"Nashville TN","scan_time":"2026-08-15T04:03:13Z","stale":false,"bins":25,"density_birds_km3":19.479333333333333,"heading_deg":142.06329864311866,"speed_ms":3.613402238269619,"peak_altitude_m":200.0,"u_ms":0.7880276532393307,"v_ms":-1.7759119066360929}},{"type":"Feature","geometry":{"type":"Point","coordinates":[-72.8639,40.8655]},"properties":{"site":"KOKX","name":"Upton NY","scan_time":"2026-08-15T03:59:37Z","stale":false,"bins":25,"density_birds_km3":7.456,"heading_deg":231.54680563488984,"speed_ms":4.95973710183939,"peak_altitude_m":0.0,"u_ms":-2.9911709286675636,"v_ms":-3.0983795423956932}},{"type":"Feature","geometry":{"type":"Point","coordinates":[-80.2183,40.5317]},"properties":{"site":"KPBZ","name":"Pittsburgh PA","scan_time":"2026-08-15T03:57:50Z","stale":false,"bins":25,"density_birds_km3":16.080714285714286,"heading_deg":228.55115228855274,"speed_ms":6.94278945254986,"peak_altitude_m":800.0,"u_ms":-4.81219649310668,"v_ms":-3.6737353321732926}},{"type":"Feature","geometry":{"type":"Point","coordinates":[-78.4899,35.6655]},"properties":{"site":"KRAX","name":"Raleigh NC","scan_time":"2026-08-15T04:01:22Z","stale":false,"bins":25,"density_birds_km3":4.841875,"heading_deg":164.97960014376977,"speed_ms":4.205833225764812,"peak_altitude_m":0.0,"u_ms":1.1907951465083257,"v_ms":-3.9336633535562155}},{"type":"Feature","geometry":{"type":"Point","coordinates":[-82.4017,27.7055]},"properties":{"site":"KTBW","name":"Tampa FL","scan_time":"2026-08-15T03:58:08Z","stale":false,"bins":25,"density_birds_km3":9.880625,"heading_deg":226.8693397654046,"speed_ms":4.447478018850022,"peak_altitude_m":200.0,"u_ms":-2.756951103801632,"v_ms":-2.932638370548422}}]}