{"type":"FeatureCollection","frame":"2026-08-15T11","site_count":20,"fresh_count":20,"failures":{},"features":[{"type":"Feature","geometry":{"type":"Point","coordinates":[-77.0073,36.984]},"properties":{"site":"KAKQ","name":"Wakefield VA","scan_time":"2026-08-15T11:00:58Z","stale":false,"bins":25,"density_birds_km3":5.199375,"heading_deg":217.73480194941612,"speed_ms":9.05377319836105,"peak_altitude_m":200.0,"u_ms":-5.555097613882863,"v_ms":-7.121637744034707}},{"type":"Feature","geometry":{"type":"Point","coordinates":[-71.1369,41.9558]},"properties":{"site":"KBOX","name":"Boston MA","scan_time":"2026-08-15T11:01:50Z","stale":false,"bins":25,"density_birds_km3":7.056875,"heading_deg":197.97082817111826,"speed_ms":6.277815959613851,"peak_altitude_m":200.0,"u_ms":-1.95202462137986,"v_ms":-5.937785847134886}},{"type":"Feature","geometry":{"type":"Point","coordinates":[-78.7369,42.9489]},"properties":{"site":"KBUF","name":"Buffalo NY","scan_time":"2026-08-15T11:02:48Z","stale":false,"bins":25,"density_birds_km3":1.8166666666666667,"heading_deg":281.62533893520254,"speed_ms":4.741306422018349,"peak_altitude_m":200.0,"u_ms":-4.238036697247707,"v_ms":1.0538899082568807}},{"type":"Feature","geometry":{"type":"Point","coordinates":[-81.8597,41.4131]},"properties":{"site":"KCLE","name":"Cleveland OH","scan_time":"2026-08-15T11:00:10Z","stale":false,"bins":25,"density_birds_km3":8.266666666666667,"heading_deg":261.9080444150813,"speed_ms":4.82155,"peak_altitude_m":200.0,"u_ms":-4.172958870967741,"v_ms":-0.7351370967741936}},{"type":"Feature","geometry":{"type":"Point","coordinates":[-81.0423,32.6555]},"properties":{"site":"KCLX","name":"Charleston SC","scan_time":"2026-08-15T11:00:04Z","stale":false,"bins":25,"density_birds_km3":0.75625,"heading_deg":140.97961594401252,"speed_ms":5.725628099173554,"peak_altitude_m":0.0,"u_ms":3.527198347107438,"v_ms":-4.469669421487604}},{"type":"Feature","geometry":{"type":"Point","coordinates":[-74.4108,39.947]},"properties":{"site":"KDIX","name":"Philadelphia PA","scan_time":"2026-08-15T11:03:25Z","stale":false,"bins":25,"density_birds_km3":6.244375,"heading_deg":228.55413744011932,"speed_ms":10.37817052399559,"peak_altitude_m":400.0,"u_ms":-7.720532010820559,"v_ms":-6.85595130748422}},{"type":"Feature","geometry":{"type":"Point","coordinates":[-84.5658,33.3636]},"properties":{"site":"KFFC","name":"Atlanta GA","scan_time":"2026-08-15T10:58:39Z","stale":false,"bins":25,"density_birds_km3":1.51,"heading_deg":132.1107594683752,"speed_ms":6.142121078214759,"peak_altitude_m":200.0,"u_ms":4.368868758285462,"v_ms":-4.196288113124171}},{"type":"Feature","geometry":{"type":"Point","coordinates":[-85.5449,42.8939]},"properties":{"site":"KGRR","name":"Grand Rapids MI","scan_time":"2026-08-15T10:59:59Z","stale":false,"bins":25,"density_birds_km3":1.3793333333333335,"heading_deg":304.95716107925125,"speed_ms":9.113781431334624,"peak_altitude_m":400.0,"u_ms":-7.496900386847195,"v_ms":5.145889748549323}},{"type":"Feature","geometry":{"type":"Point","coordinates":[-83.8217,39.4203]},"properties":{"site":"KILN","name":"Wilmington OH","scan_time":"2026-08-15T11:00:03Z","stale":false,"bins":25,"density_birds_km3":6.935333333333333,"heading_deg":242.01927091644848,"speed_ms":6.4962358184764994,"peak_altitude_m":200.0,"u_ms":-4.032893030794166,"v_ms":-2.25996961102107}},{"type":"Feature","geometry":{"type":"Point","coordinates":[-81.7019,30.4846]},"properties":{"site":"KJAX","name":"Jacksonville FL","scan_time":"2026-08-15T11:01:33Z","stale":false,"bins":25,"density_birds_km3":2.663125,"heading_deg":136.32980838723898,"speed_ms":5.153341938512087,"peak_altitude_m":0.0,"u_ms":3.5401642806852855,"v_ms":-3.714660877728233}},{"type":"Feature","geometry":{"type":"Point","coordinates":[-88.0847,41.6045]},"properties":{"site":"KLOT","name":"Chicago IL","scan_time":"2026-08-15T10:58:52Z","stale":false,"bins":25,"density_birds_km3":1.0006666666666668,"heading_deg":350.7679405828955,"speed_ms":5.4808561872909705,"peak_altitude_m":200.0,"u_ms":-0.8263545150501672,"v_ms":5.407157190635451}},{"type":"Feature","geometry":{"type":"Point","coordinates":[-78.4292,33.9892]},"properties":{"site":"KLTX","name":"Wilmington NC","scan_time":"2026-08-15T11:00:56Z","stale":false,"bins":25,"density_birds_km3":0.6024999999999999,"heading_deg":129.28592001386644,"speed_ms":5.6466251298027,"peak_altitude_m":0.0,"u_ms":4.163769470404985,"v_ms":-3.539698857736241}},{"type":"Feature","geometry":{"type":"Point","coordinates":[-77.4778,38.9753]},"properties":{"site":"KLWX","name":"Sterling VA","scan_time":"2026-08-15T10:57:00Z","stale":false,"bins":25,"density_birds_km3":7.306875,"heading_deg":223.5994846388712,"speed_ms":9.13562409102575,"peak_altitude_m":200.0,"u_ms":-6.240071006929592,"v_ms":-6.48470442296176}},{"type":"Feature","geometry":{"type":"Point","coordinates":[-76.8762,34.7759]},"properties":{"site":"KMHX","name":"Morehead City NC","scan_time":"2026-08-15T11:00:33Z","stale":false,"bins":25,"density_birds_km3":3.94875,"heading_deg":181.26479180177907,"speed_ms":8.056634920634922,"peak_altitude_m":200.0,"u_ms":-0.22488095238095238,"v_ms":-8.008425396825396}},{"type":"Feature","geometry":{"type":"Point","coordinates":[-80.6542,28.1133]},"properties":{"site":"KMLB","name":"Melbourne FL","scan_time":"2026-08-15T10:59:30Z","stale":false,"bins":25,"density_birds_km3":1.043125,"heading_deg":12.680435726528286,"speed_ms":2.888309352517986,"peak_altitude_m":0.0,"u_ms":0.44085731414868107,"v_ms":2.7517865707434055}},{"type":"Feature","geometry":{"type":"Point","coordinates":[-86.5625,36.2472]},"properties":{"site":"KOHX","name":"Nashville TN","scan_time":"2026-08-15T11:01:32Z","stale":false,"bins":25,"density_birds_km3":10.937333333333333,"heading_deg":117.76400267621239,"speed_ms":3.84415626625065,"peak_altitude_m":200.0,"u_ms":2.957860114404576,"v_ms":-1.0799141965678627}},{"type":"Feature","geometry":{"type":"Point","coordinates":[-72.8639,40.8655]},"properties":{"site":"KOKX","name":"Upton NY","scan_time":"2026-08-15T11:01:54Z","stale":false,"bins":25,"density_birds_km3":3.816875,"heading_deg":238.52161907701873,"speed_ms":9.295930175381086,"peak_altitude_m":200.0,"u_ms":-7.884677921652188,"v_ms":-4.7860236026880845}},{"type":"Feature","geometry":{"type":"Point","coordinates":[-80.2183,40.5317]},"properties":{"site":"KPBZ","name":"Pittsburgh PA","scan_time":"2026-08-15T11:02:38Z","stale":false,"bins":25,"density_birds_km3":19.434285714285714,"heading_deg":207.07741131554783,"speed_ms":4.2455882133810166,"peak_altitude_m":800.0,"u_ms":-1.8500126657726121,"v_ms":-3.720543138131426}},{"type":"Feature","geometry":{"type":"Point","coordinates":[-78.4899,35.6655]},"properties":{"site":"KRAX","name":"Raleigh NC","scan_time":"2026-08-15T11:00:41Z","stale":false,"bins":25,"density_birds_km3":2.883125,"heading_deg":215.6543923161601,"speed_ms":8.369221764578365,"peak_altitude_m":200.0,"u_ms":-4.941458920442228,"v_ms":-6.666631259484066}},{"type":"Feature","geometry":{"type":"Point","coordinates":[-82.4017,27.7055]},"properties":{"site":"KTBW","name":"Tampa FL","scan_time":"2026-08-15T11:02:05Z","stale":false,"bins":25,"density_birds_km3":3.7375,"heading_deg":315.35253011424464,"speed_ms":4.427796922047508,"peak_altitude_m":0.0,"u_ms":-3.043939444630311,"v_ms":3.1306038808966203}}]}