{"type":"FeatureCollection","frame":"2026-08-27T06","site_count":20,"fresh_count":20,"failures":{},"features":[{"type":"Feature","geometry":{"type":"Point","coordinates":[-77.0073,36.984]},"properties":{"site":"KAKQ","name":"Wakefield VA","scan_time":"2026-08-27T05:58:07Z","stale":false,"bins":25,"density_birds_km3":1.88375,"heading_deg":354.57709766095815,"speed_ms":8.357205980066446,"peak_altitude_m":0.0,"u_ms":-0.37026910299003324,"v_ms":8.046747508305648}},{"type":"Feature","geometry":{"type":"Point","coordinates":[-71.1369,41.9558]},"properties":{"site":"KBOX","name":"Boston MA","scan_time":"2026-08-27T06:01:36Z","stale":false,"bins":25,"density_birds_km3":0.9887499999999999,"heading_deg":59.68880433755173,"speed_ms":6.71968394437421,"peak_altitude_m":0.0,"u_ms":5.713716814159293,"v_ms":3.179070796460177}},{"type":"Feature","geometry":{"type":"Point","coordinates":[-78.7369,42.9489]},"properties":{"site":"KBUF","name":"Buffalo NY","scan_time":"2026-08-27T05:57:37Z","stale":false,"bins":25,"density_birds_km3":0.8933333333333333,"heading_deg":31.25327298229468,"speed_ms":8.940007462686566,"peak_altitude_m":200.0,"u_ms":4.693320895522388,"v_ms":7.291858208955223}},{"type":"Feature","geometry":{"type":"Point","coordinates":[-81.8597,41.4131]},"properties":{"site":"KCLE","name":"Cleveland OH","scan_time":"2026-08-27T05:58:12Z","stale":false,"bins":25,"density_birds_km3":1.2,"heading_deg":57.15706772965235,"speed_ms":9.482211111111111,"peak_altitude_m":200.0,"u_ms":8.040322222222223,"v_ms":4.4995111111111115}},{"type":"Feature","geometry":{"type":"Point","coordinates":[-81.0423,32.6555]},"properties":{"site":"KCLX","name":"Charleston SC","scan_time":"2026-08-27T05:59:26Z","stale":false,"bins":25,"density_birds_km3":1.6356249999999999,"heading_deg":1.415067355293398,"speed_ms":5.077084927314461,"peak_altitude_m":0.0,"u_ms":0.510964039785769,"v_ms":4.896266258607498}},{"type":"Feature","geometry":{"type":"Point","coordinates":[-74.4108,39.947]},"properties":{"site":"KDIX","name":"Philadelphia PA","scan_time":"2026-08-27T05:58:18Z","stale":false,"bins":25,"density_birds_km3":0.978125,"heading_deg":5.53316426421291,"speed_ms":9.03578507078507,"peak_altitude_m":0.0,"u_ms":0.9133140283140283,"v_ms":8.812419562419562}},{"type":"Feature","geometry":{"type":"Point","coordinates":[-84.5658,33.3636]},"properties":{"site":"KFFC","name":"Atlanta GA","scan_time":"2026-08-27T06:02:02Z","stale":false,"bins":25,"density_birds_km3":12.373333333333333,"heading_deg":156.15875729358154,"speed_ms":3.172828968638862,"peak_altitude_m":200.0,"u_ms":-0.17574307576247433,"v_ms":-0.8858190537773466}},{"type":"Feature","geometry":{"type":"Point","coordinates":[-85.5449,42.8939]},"properties":{"site":"KGRR","name":"Grand Rapids MI","scan_time":"2026-08-27T05:59:06Z","stale":false,"bins":25,"density_birds_km3":9.831333333333333,"heading_deg":156.0187705269814,"speed_ms":11.41851000339098,"peak_altitude_m":600.0,"u_ms":4.452777890810443,"v_ms":-10.469793828416412}},{"type":"Feature","geometry":{"type":"Point","coordinates":[-83.8217,39.4203]},"properties":{"site":"KILN","name":"Wilmington OH","scan_time":"2026-08-27T06:01:16Z","stale":false,"bins":25,"density_birds_km3":1.4573333333333334,"heading_deg":78.84225067350549,"speed_ms":11.521019283746556,"peak_altitude_m":600.0,"u_ms":11.221437098255281,"v_ms":1.9030165289256196}},{"type":"Feature","geometry":{"type":"Point","coordinates":[-81.7019,30.4846]},"properties":{"site":"KJAX","name":"Jacksonville FL","scan_time":"2026-08-27T05:59:45Z","stale":false,"bins":25,"density_birds_km3":11.07125,"heading_deg":168.63073993712857,"speed_ms":4.473876569747709,"peak_altitude_m":0.0,"u_ms":0.7433137232718633,"v_ms":-4.3597064147528}},{"type":"Feature","geometry":{"type":"Point","coordinates":[-88.0847,41.6045]},"properties":{"site":"KLOT","name":"Chicago IL","scan_time":"2026-08-27T06:00:02Z","stale":false,"bins":25,"density_birds_km3":34.968666666666664,"heading_deg":163.25152339645783,"speed_ms":12.425008293138621,"peak_altitude_m":400.0,"u_ms":3.4835037080815208,"v_ms":-11.830863439650734}},{"type":"Feature","geometry":{"type":"Point","coordinates":[-78.4292,33.9892]},"properties":{"site":"KLTX","name":"Wilmington NC","scan_time":"2026-08-27T05:59:09Z","stale":false,"bins":25,"density_birds_km3":0.785625,"heading_deg":343.8892431763301,"speed_ms":3.011482159194877,"peak_altitude_m":0.0,"u_ms":-0.7778956999085088,"v_ms":2.1518206770356816}},{"type":"Feature","geometry":{"type":"Point","coordinates":[-77.4778,38.9753]},"properties":{"site":"KLWX","name":"Sterling VA","scan_time":"2026-08-27T06:01:11Z","stale":false,"bins":25,"density_birds_km3":3.186875,"heading_deg":309.0827482269889,"speed_ms":6.174454688112986,"peak_altitude_m":0.0,"u_ms":-3.7445076500588463,"v_ms":4.035755198116909}},{"type":"Feature","geometry":{"type":"Point","coordinates":[-76.8762,34.7759]},"properties":{"site":"KMHX","name":"Morehead City NC","scan_time":"2026-08-27T06:00:00Z","stale":false,"bins":25,"density_birds_km3":0.345625,"heading_deg":33.811583886692105,"speed_ms":5.7659493670886075,"peak_altitude_m":0.0,"u_ms":3.173128390596745,"v_ms":4.75880650994575}},{"type":"Feature","geometry":{"type":"Point","coordinates":[-80.6542,28.1133]},"properties":{"site":"KMLB","name":"Melbourne FL","scan_time":"2026-08-27T06:01:04Z","stale":false,"bins":25,"density_birds_km3":10.58125,"heading_deg":148.69371549607655,"speed_ms":1.7304259850905215,"peak_altitude_m":0.0,"u_ms":0.5037326943556976,"v_ms":-1.1615613536859544}},{"type":"Feature","geometry":{"type":"Point","coordinates":[-86.5625,36.2472]},"properties":{"site":"KOHX","name":"Nashville TN","scan_time":"2026-08-27T06:02:16Z","stale":false,"bins":25,"density_birds_km3":6.306,"heading_deg":75.36100541855265,"speed_ms":4.909680727349614,"peak_altitude_m":400.0,"u_ms":3.3322729675441383,"v_ms":0.789715614758431}},{"type":"Feature","geometry":{"type":"Point","coordinates":[-72.8639,40.8655]},"properties":{"site":"KOKX","name":"Upton NY","scan_time":"2026-08-27T06:03:05Z","stale":false,"bins":25,"density_birds_km3":1.7675,"heading_deg":338.52148536539676,"speed_ms":7.468285612025769,"peak_altitude_m":0.0,"u_ms":-2.44719040801718,"v_ms":6.5989656406585535}},{"type":"Feature","geometry":{"type":"Point","coordinates":[-80.2183,40.5317]},"properties":{"site":"KPBZ","name":"Pittsburgh PA","scan_time":"2026-08-27T05:57:48Z","stale":false,"bins":25,"density_birds_km3":2.6164285714285715,"heading_deg":19.663940202244053,"speed_ms":4.78032214032214,"peak_altitude_m":400.0,"u_ms":2.2227245427245426,"v_ms":3.333753753753754}},{"type":"Feature","geometry":{"type":"Point","coordinates":[-78.4899,35.6655]},"properties":{"site":"KRAX","name":"Raleigh NC","scan_time":"2026-08-27T05:59:15Z","stale":false,"bins":25,"density_birds_km3":2.11,"heading_deg":355.02766347075095,"speed_ms":6.188063463819692,"peak_altitude_m":0.0,"u_ms":-0.22612692763938316,"v_ms":5.73290925266904}},{"type":"Feature","geometry":{"type":"Point","coordinates":[-82.4017,27.7055]},"properties":{"site":"KTBW","name":"Tampa FL","scan_time":"2026-08-27T05:59:23Z","stale":false,"bins":25,"density_birds_km3":2.671875,"heading_deg":290.348124191073,"speed_ms":4.793118707562631,"peak_altitude_m":0.0,"u_ms":-2.932828377429173,"v_ms":1.8639007258253337}}]}