{"type":"FeatureCollection","frame":"2026-09-21T01","site_count":20,"fresh_count":20,"failures":{},"features":[{"type":"Feature","geometry":{"type":"Point","coordinates":[-77.0073,36.984]},"properties":{"site":"KAKQ","name":"Wakefield VA","scan_time":"2026-09-21T01:02:04Z","stale":false,"bins":25,"density_birds_km3":2.583125,"heading_deg":46.145356240171985,"speed_ms":7.929774818401938,"peak_altitude_m":200.0,"u_ms":4.5001743341404365,"v_ms":3.9620629539951575}},{"type":"Feature","geometry":{"type":"Point","coordinates":[-71.1369,41.9558]},"properties":{"site":"KBOX","name":"Boston MA","scan_time":"2026-09-21T01:01:28Z","stale":false,"bins":25,"density_birds_km3":0.325625,"heading_deg":295.73591983662556,"speed_ms":4.994335106382979,"peak_altitude_m":0.0,"u_ms":-4.322446808510639,"v_ms":2.1001329787234044}},{"type":"Feature","geometry":{"type":"Point","coordinates":[-78.7369,42.9489]},"properties":{"site":"KBUF","name":"Buffalo NY","scan_time":"2026-09-21T00:59:23Z","stale":false,"bins":25,"density_birds_km3":17.536,"heading_deg":207.42248098460203,"speed_ms":9.863383135644769,"peak_altitude_m":400.0,"u_ms":-4.67567328163017,"v_ms":-8.62865533759124}},{"type":"Feature","geometry":{"type":"Point","coordinates":[-81.8597,41.4131]},"properties":{"site":"KCLE","name":"Cleveland OH","scan_time":"2026-09-21T00:57:38Z","stale":false,"bins":25,"density_birds_km3":14.258000000000001,"heading_deg":231.7447092484315,"speed_ms":10.972860658841348,"peak_altitude_m":800.0,"u_ms":-8.60732535024612,"v_ms":-6.70203095418402}},{"type":"Feature","geometry":{"type":"Point","coordinates":[-81.0423,32.6555]},"properties":{"site":"KCLX","name":"Charleston SC","scan_time":"2026-09-21T00:58:46Z","stale":false,"bins":25,"density_birds_km3":14.239375,"heading_deg":246.2618061767111,"speed_ms":6.210104235387254,"peak_altitude_m":200.0,"u_ms":-3.8295922944979552,"v_ms":-3.2510515899195145}},{"type":"Feature","geometry":{"type":"Point","coordinates":[-74.4108,39.947]},"properties":{"site":"KDIX","name":"Philadelphia PA","scan_time":"2026-09-21T01:02:31Z","stale":false,"bins":25,"density_birds_km3":1.936875,"heading_deg":57.76504160934484,"speed_ms":6.02495311994827,"peak_altitude_m":200.0,"u_ms":4.855418687358552,"v_ms":3.0562851600387972}},{"type":"Feature","geometry":{"type":"Point","coordinates":[-84.5658,33.3636]},"properties":{"site":"KFFC","name":"Atlanta GA","scan_time":"2026-09-21T01:00:35Z","stale":false,"bins":25,"density_birds_km3":46.26266666666667,"heading_deg":260.80056829787316,"speed_ms":7.523629420410986,"peak_altitude_m":400.0,"u_ms":-6.352665216012912,"v_ms":-1.4431824077009539}},{"type":"Feature","geometry":{"type":"Point","coordinates":[-85.5449,42.8939]},"properties":{"site":"KGRR","name":"Grand Rapids MI","scan_time":"2026-09-21T01:01:20Z","stale":false,"bins":25,"density_birds_km3":109.45866666666667,"heading_deg":211.07775547498974,"speed_ms":12.569807962871604,"peak_altitude_m":200.0,"u_ms":-6.70637206356167,"v_ms":-10.297234799344649}},{"type":"Feature","geometry":{"type":"Point","coordinates":[-83.8217,39.4203]},"properties":{"site":"KILN","name":"Wilmington OH","scan_time":"2026-09-21T01:00:48Z","stale":false,"bins":25,"density_birds_km3":11.848333333333334,"heading_deg":null,"speed_ms":null,"peak_altitude_m":400.0,"u_ms":null,"v_ms":null}},{"type":"Feature","geometry":{"type":"Point","coordinates":[-81.7019,30.4846]},"properties":{"site":"KJAX","name":"Jacksonville FL","scan_time":"2026-09-21T01:00:51Z","stale":false,"bins":25,"density_birds_km3":75.669375,"heading_deg":184.82337489715667,"speed_ms":9.5901779136037,"peak_altitude_m":200.0,"u_ms":-0.7571038242339142,"v_ms":-9.533859502766994}},{"type":"Feature","geometry":{"type":"Point","coordinates":[-88.0847,41.6045]},"properties":{"site":"KLOT","name":"Chicago IL","scan_time":"2026-09-21T01:00:39Z","stale":false,"bins":25,"density_birds_km3":12.698,"heading_deg":223.97827391099668,"speed_ms":14.255682558017433,"peak_altitude_m":400.0,"u_ms":-9.903868528824951,"v_ms":-10.134578389163078}},{"type":"Feature","geometry":{"type":"Point","coordinates":[-78.4292,33.9892]},"properties":{"site":"KLTX","name":"Wilmington NC","scan_time":"2026-09-21T00:59:44Z","stale":false,"bins":25,"density_birds_km3":8.9125,"heading_deg":237.44568987042746,"speed_ms":5.299649570830673,"peak_altitude_m":200.0,"u_ms":-3.4140632758742995,"v_ms":-3.3015549407675393}},{"type":"Feature","geometry":{"type":"Point","coordinates":[-77.4778,38.9753]},"properties":{"site":"KLWX","name":"Sterling VA","scan_time":"2026-09-21T00:58:28Z","stale":false,"bins":25,"density_birds_km3":14.328125,"heading_deg":110.6852839698932,"speed_ms":7.1516903073286056,"peak_altitude_m":200.0,"u_ms":6.308790823920848,"v_ms":-2.5148585938184054}},{"type":"Feature","geometry":{"type":"Point","coordinates":[-76.8762,34.7759]},"properties":{"site":"KMHX","name":"Morehead City NC","scan_time":"2026-09-21T00:58:27Z","stale":false,"bins":25,"density_birds_km3":8.63875,"heading_deg":282.1410495846176,"speed_ms":4.696902539613632,"peak_altitude_m":200.0,"u_ms":-2.794920772737139,"v_ms":0.06926488676651475}},{"type":"Feature","geometry":{"type":"Point","coordinates":[-80.6542,28.1133]},"properties":{"site":"KMLB","name":"Melbourne FL","scan_time":"2026-09-21T00:59:46Z","stale":false,"bins":25,"density_birds_km3":35.0325,"heading_deg":183.31524974022614,"speed_ms":6.786287529898968,"peak_altitude_m":0.0,"u_ms":-0.35949180679018955,"v_ms":-6.75112723572882}},{"type":"Feature","geometry":{"type":"Point","coordinates":[-86.5625,36.2472]},"properties":{"site":"KOHX","name":"Nashville TN","scan_time":"2026-09-21T00:58:13Z","stale":false,"bins":25,"density_birds_km3":133.27133333333333,"heading_deg":161.75860468655324,"speed_ms":4.345792530414599,"peak_altitude_m":400.0,"u_ms":1.1958666659996797,"v_ms":-4.033904924363695}},{"type":"Feature","geometry":{"type":"Point","coordinates":[-72.8639,40.8655]},"properties":{"site":"KOKX","name":"Upton NY","scan_time":"2026-09-21T01:00:49Z","stale":false,"bins":25,"density_birds_km3":0.24,"heading_deg":97.72816411354873,"speed_ms":9.71,"peak_altitude_m":0.0,"u_ms":9.583333333333334,"v_ms":-1.31}},{"type":"Feature","geometry":{"type":"Point","coordinates":[-80.2183,40.5317]},"properties":{"site":"KPBZ","name":"Pittsburgh PA","scan_time":"2026-09-21T01:01:53Z","stale":false,"bins":25,"density_birds_km3":22.23785714285714,"heading_deg":204.72249306295143,"speed_ms":10.416958358868497,"peak_altitude_m":800.0,"u_ms":-4.424634390220302,"v_ms":-9.169811631132472}},{"type":"Feature","geometry":{"type":"Point","coordinates":[-78.4899,35.6655]},"properties":{"site":"KRAX","name":"Raleigh NC","scan_time":"2026-09-21T01:00:09Z","stale":false,"bins":25,"density_birds_km3":16.249375,"heading_deg":36.8333612965059,"speed_ms":4.365032765907945,"peak_altitude_m":200.0,"u_ms":1.3849858466788165,"v_ms":1.7210419170964366}},{"type":"Feature","geometry":{"type":"Point","coordinates":[-82.4017,27.7055]},"properties":{"site":"KTBW","name":"Tampa FL","scan_time":"2026-09-21T00:58:42Z","stale":false,"bins":25,"density_birds_km3":19.11875,"heading_deg":213.2102703786785,"speed_ms":7.0740762789480565,"peak_altitude_m":0.0,"u_ms":-1.359501504644773,"v_ms":-5.393497317807143}}]}