{"type":"FeatureCollection","frame":"2026-08-25T07","site_count":20,"fresh_count":20,"failures":{},"features":[{"type":"Feature","geometry":{"type":"Point","coordinates":[-77.0073,36.984]},"properties":{"site":"KAKQ","name":"Wakefield VA","scan_time":"2026-08-25T06:59:27Z","stale":false,"bins":25,"density_birds_km3":21.15625,"heading_deg":198.82235015631287,"speed_ms":9.36839247200638,"peak_altitude_m":200.0,"u_ms":-3.161698525718675,"v_ms":-8.776919963364552}},{"type":"Feature","geometry":{"type":"Point","coordinates":[-71.1369,41.9558]},"properties":{"site":"KBOX","name":"Boston MA","scan_time":"2026-08-25T06:58:44Z","stale":false,"bins":25,"density_birds_km3":1.496875,"heading_deg":108.68071809294605,"speed_ms":5.920952778938571,"peak_altitude_m":0.0,"u_ms":5.542507312996239,"v_ms":-1.9411575428332637}},{"type":"Feature","geometry":{"type":"Point","coordinates":[-78.7369,42.9489]},"properties":{"site":"KBUF","name":"Buffalo NY","scan_time":"2026-08-25T07:05:06Z","stale":false,"bins":25,"density_birds_km3":2.9046666666666665,"heading_deg":147.61943304821924,"speed_ms":8.812504016525132,"peak_altitude_m":600.0,"u_ms":4.250236401193482,"v_ms":-7.313860454441129}},{"type":"Feature","geometry":{"type":"Point","coordinates":[-81.8597,41.4131]},"properties":{"site":"KCLE","name":"Cleveland OH","scan_time":"2026-08-25T06:57:23Z","stale":false,"bins":25,"density_birds_km3":0.8773333333333333,"heading_deg":122.72599583857796,"speed_ms":6.070000000000001,"peak_altitude_m":200.0,"u_ms":4.825084226646248,"v_ms":-3.21322358346095}},{"type":"Feature","geometry":{"type":"Point","coordinates":[-81.0423,32.6555]},"properties":{"site":"KCLX","name":"Charleston SC","scan_time":"2026-08-25T06:59:59Z","stale":false,"bins":25,"density_birds_km3":17.48875,"heading_deg":199.70668977694493,"speed_ms":5.22867231335549,"peak_altitude_m":0.0,"u_ms":-1.73499338837068,"v_ms":-4.693260784103498}},{"type":"Feature","geometry":{"type":"Point","coordinates":[-74.4108,39.947]},"properties":{"site":"KDIX","name":"Philadelphia PA","scan_time":"2026-08-25T07:03:20Z","stale":false,"bins":25,"density_birds_km3":2.466875,"heading_deg":184.90141063423567,"speed_ms":9.259404611097034,"peak_altitude_m":0.0,"u_ms":-0.6619077780592855,"v_ms":-8.948299974664302}},{"type":"Feature","geometry":{"type":"Point","coordinates":[-84.5658,33.3636]},"properties":{"site":"KFFC","name":"Atlanta GA","scan_time":"2026-08-25T06:56:29Z","stale":false,"bins":25,"density_birds_km3":20.48,"heading_deg":223.73999372655777,"speed_ms":6.768536458333333,"peak_altitude_m":600.0,"u_ms":-4.608055338541667,"v_ms":-4.678609700520834}},{"type":"Feature","geometry":{"type":"Point","coordinates":[-85.5449,42.8939]},"properties":{"site":"KGRR","name":"Grand Rapids MI","scan_time":"2026-08-25T07:02:34Z","stale":false,"bins":25,"density_birds_km3":10.566666666666666,"heading_deg":208.2215304206072,"speed_ms":11.429849192327106,"peak_altitude_m":400.0,"u_ms":-5.413295683997981,"v_ms":-10.062989020696618}},{"type":"Feature","geometry":{"type":"Point","coordinates":[-83.8217,39.4203]},"properties":{"site":"KILN","name":"Wilmington OH","scan_time":"2026-08-25T06:59:03Z","stale":false,"bins":25,"density_birds_km3":4.682666666666666,"heading_deg":183.38359688024173,"speed_ms":4.06359156935346,"peak_altitude_m":400.0,"u_ms":-0.14062517801196237,"v_ms":-3.7972016519510112}},{"type":"Feature","geometry":{"type":"Point","coordinates":[-81.7019,30.4846]},"properties":{"site":"KJAX","name":"Jacksonville FL","scan_time":"2026-08-25T07:00:21Z","stale":false,"bins":25,"density_birds_km3":36.02625,"heading_deg":172.64916683065547,"speed_ms":8.22261226401999,"peak_altitude_m":400.0,"u_ms":1.6732813367573571,"v_ms":-7.904958009439201}},{"type":"Feature","geometry":{"type":"Point","coordinates":[-88.0847,41.6045]},"properties":{"site":"KLOT","name":"Chicago IL","scan_time":"2026-08-25T07:01:16Z","stale":false,"bins":25,"density_birds_km3":1.6626666666666665,"heading_deg":275.77890161733274,"speed_ms":5.0424979951884525,"peak_altitude_m":400.0,"u_ms":-3.2768003207698477,"v_ms":0.3294867682437851}},{"type":"Feature","geometry":{"type":"Point","coordinates":[-78.4292,33.9892]},"properties":{"site":"KLTX","name":"Wilmington NC","scan_time":"2026-08-25T06:58:55Z","stale":false,"bins":25,"density_birds_km3":10.764375,"heading_deg":223.94609845203126,"speed_ms":6.2283625595168965,"peak_altitude_m":400.0,"u_ms":-4.098852630356521,"v_ms":-4.141190337939844}},{"type":"Feature","geometry":{"type":"Point","coordinates":[-77.4778,38.9753]},"properties":{"site":"KLWX","name":"Sterling VA","scan_time":"2026-08-25T06:59:10Z","stale":false,"bins":25,"density_birds_km3":4.41375,"heading_deg":183.5518418334066,"speed_ms":7.95349255846917,"peak_altitude_m":200.0,"u_ms":-0.27073706591070174,"v_ms":-7.856422395464209}},{"type":"Feature","geometry":{"type":"Point","coordinates":[-76.8762,34.7759]},"properties":{"site":"KMHX","name":"Morehead City NC","scan_time":"2026-08-25T07:01:48Z","stale":false,"bins":25,"density_birds_km3":3.2725,"heading_deg":144.7325260794467,"speed_ms":6.735668449197861,"peak_altitude_m":0.0,"u_ms":3.393475935828877,"v_ms":-5.105972116119175}},{"type":"Feature","geometry":{"type":"Point","coordinates":[-80.6542,28.1133]},"properties":{"site":"KMLB","name":"Melbourne FL","scan_time":"2026-08-25T07:01:03Z","stale":false,"bins":25,"density_birds_km3":3.1825,"heading_deg":145.69726883467294,"speed_ms":5.581975648075412,"peak_altitude_m":200.0,"u_ms":2.609524744697565,"v_ms":-4.743026315789474}},{"type":"Feature","geometry":{"type":"Point","coordinates":[-86.5625,36.2472]},"properties":{"site":"KOHX","name":"Nashville TN","scan_time":"2026-08-25T07:02:23Z","stale":false,"bins":25,"density_birds_km3":21.695333333333334,"heading_deg":251.42667215624618,"speed_ms":8.277378852595028,"peak_altitude_m":400.0,"u_ms":-7.558764096733553,"v_ms":-2.25054297391144}},{"type":"Feature","geometry":{"type":"Point","coordinates":[-72.8639,40.8655]},"properties":{"site":"KOKX","name":"Upton NY","scan_time":"2026-08-25T07:02:08Z","stale":false,"bins":25,"density_birds_km3":0.9818749999999999,"heading_deg":114.21841372935044,"speed_ms":3.864156588160408,"peak_altitude_m":0.0,"u_ms":3.3000827498408656,"v_ms":-1.7005219605346913}},{"type":"Feature","geometry":{"type":"Point","coordinates":[-80.2183,40.5317]},"properties":{"site":"KPBZ","name":"Pittsburgh PA","scan_time":"2026-08-25T07:01:16Z","stale":false,"bins":25,"density_birds_km3":0.7492857142857143,"heading_deg":114.82826401462204,"speed_ms":7.571833171677983,"peak_altitude_m":600.0,"u_ms":6.5626964112512125,"v_ms":-3.043947623666343}},{"type":"Feature","geometry":{"type":"Point","coordinates":[-78.4899,35.6655]},"properties":{"site":"KRAX","name":"Raleigh NC","scan_time":"2026-08-25T06:58:45Z","stale":false,"bins":25,"density_birds_km3":16.98,"heading_deg":192.81756015831468,"speed_ms":9.547074544450581,"peak_altitude_m":400.0,"u_ms":-2.0970664457942205,"v_ms":-9.284841524019878}},{"type":"Feature","geometry":{"type":"Point","coordinates":[-82.4017,27.7055]},"properties":{"site":"KTBW","name":"Tampa FL","scan_time":"2026-08-25T07:01:33Z","stale":false,"bins":25,"density_birds_km3":5.29375,"heading_deg":200.66444253462913,"speed_ms":3.367456906729634,"peak_altitude_m":0.0,"u_ms":0.034168831168831196,"v_ms":-3.2626375442739084}}]}