{"type":"FeatureCollection","frame":"2026-08-17T09","site_count":20,"fresh_count":19,"failures":{"KGRR":"RuntimeError('no scan within 20 min of 2026-08-17T09:00Z')"},"features":[{"type":"Feature","geometry":{"type":"Point","coordinates":[-77.0073,36.984]},"properties":{"site":"KAKQ","name":"Wakefield VA","scan_time":"2026-08-17T08:59:21Z","stale":false,"bins":25,"density_birds_km3":0.995,"heading_deg":84.13762231730375,"speed_ms":5.787676322418135,"peak_altitude_m":200.0,"u_ms":5.335554156171284,"v_ms":0.14862090680100756}},{"type":"Feature","geometry":{"type":"Point","coordinates":[-71.1369,41.9558]},"properties":{"site":"KBOX","name":"Boston MA","scan_time":"2026-08-17T09:00:17Z","stale":false,"bins":25,"density_birds_km3":0.7025,"heading_deg":null,"speed_ms":null,"peak_altitude_m":200.0,"u_ms":null,"v_ms":null}},{"type":"Feature","geometry":{"type":"Point","coordinates":[-78.7369,42.9489]},"properties":{"site":"KBUF","name":"Buffalo NY","scan_time":"2026-08-17T09:03:05Z","stale":false,"bins":25,"density_birds_km3":1.7266666666666666,"heading_deg":161.1478558934176,"speed_ms":4.660127413127414,"peak_altitude_m":200.0,"u_ms":1.3983281853281855,"v_ms":-4.168517374517375}},{"type":"Feature","geometry":{"type":"Point","coordinates":[-81.8597,41.4131]},"properties":{"site":"KCLE","name":"Cleveland OH","scan_time":"2026-08-17T08:58:32Z","stale":false,"bins":25,"density_birds_km3":1.214,"heading_deg":120.89956690589848,"speed_ms":7.051153846153846,"peak_altitude_m":200.0,"u_ms":5.931967032967033,"v_ms":-3.6451978021978024}},{"type":"Feature","geometry":{"type":"Point","coordinates":[-81.0423,32.6555]},"properties":{"site":"KCLX","name":"Charleston SC","scan_time":"2026-08-17T09:01:19Z","stale":false,"bins":25,"density_birds_km3":2.731875,"heading_deg":108.49122885068347,"speed_ms":6.0744256292906185,"peak_altitude_m":0.0,"u_ms":5.509924485125858,"v_ms":-1.8836132723112131}},{"type":"Feature","geometry":{"type":"Point","coordinates":[-74.4108,39.947]},"properties":{"site":"KDIX","name":"Philadelphia PA","scan_time":"2026-08-17T09:00:55Z","stale":false,"bins":25,"density_birds_km3":0.270625,"heading_deg":42.810375080781704,"speed_ms":9.03081683168317,"peak_altitude_m":200.0,"u_ms":5.655569306930692,"v_ms":5.556163366336634}},{"type":"Feature","geometry":{"type":"Point","coordinates":[-84.5658,33.3636]},"properties":{"site":"KFFC","name":"Atlanta GA","scan_time":"2026-08-17T09:00:57Z","stale":false,"bins":25,"density_birds_km3":6.322666666666667,"heading_deg":124.65831713272594,"speed_ms":6.591508857022353,"peak_altitude_m":200.0,"u_ms":4.919733234921973,"v_ms":-2.4652899620413327}},{"type":"Feature","geometry":{"type":"Point","coordinates":[-83.8217,39.4203]},"properties":{"site":"KILN","name":"Wilmington OH","scan_time":"2026-08-17T09:01:43Z","stale":false,"bins":25,"density_birds_km3":3.752666666666667,"heading_deg":129.7676561372846,"speed_ms":5.800216811800248,"peak_altitude_m":400.0,"u_ms":4.1532308512528875,"v_ms":-3.218923049582371}},{"type":"Feature","geometry":{"type":"Point","coordinates":[-81.7019,30.4846]},"properties":{"site":"KJAX","name":"Jacksonville FL","scan_time":"2026-08-17T08:58:39Z","stale":false,"bins":25,"density_birds_km3":20.241875,"heading_deg":161.2703544988245,"speed_ms":5.583908787747792,"peak_altitude_m":0.0,"u_ms":2.030783980732415,"v_ms":-4.771363860927561}},{"type":"Feature","geometry":{"type":"Point","coordinates":[-88.0847,41.6045]},"properties":{"site":"KLOT","name":"Chicago IL","scan_time":"2026-08-17T08:59:34Z","stale":false,"bins":25,"density_birds_km3":8.962666666666667,"heading_deg":178.9203978606953,"speed_ms":7.0353745443725355,"peak_altitude_m":400.0,"u_ms":0.3602841627612884,"v_ms":-6.45490738674403}},{"type":"Feature","geometry":{"type":"Point","coordinates":[-78.4292,33.9892]},"properties":{"site":"KLTX","name":"Wilmington NC","scan_time":"2026-08-17T09:00:08Z","stale":false,"bins":25,"density_birds_km3":0.7887500000000001,"heading_deg":52.74321568552048,"speed_ms":6.160982567353407,"peak_altitude_m":0.0,"u_ms":4.782028526148969,"v_ms":3.500832012678288}},{"type":"Feature","geometry":{"type":"Point","coordinates":[-77.4778,38.9753]},"properties":{"site":"KLWX","name":"Sterling VA","scan_time":"2026-08-17T08:58:09Z","stale":false,"bins":25,"density_birds_km3":0.8675,"heading_deg":76.82313738578908,"speed_ms":5.658213256484149,"peak_altitude_m":0.0,"u_ms":4.594048991354467,"v_ms":-0.17507925072046096}},{"type":"Feature","geometry":{"type":"Point","coordinates":[-76.8762,34.7759]},"properties":{"site":"KMHX","name":"Morehead City NC","scan_time":"2026-08-17T09:00:33Z","stale":false,"bins":25,"density_birds_km3":0.415625,"heading_deg":73.1903673095972,"speed_ms":6.918945783132529,"peak_altitude_m":0.0,"u_ms":6.486460843373494,"v_ms":1.6941114457831326}},{"type":"Feature","geometry":{"type":"Point","coordinates":[-80.6542,28.1133]},"properties":{"site":"KMLB","name":"Melbourne FL","scan_time":"2026-08-17T09:00:17Z","stale":false,"bins":25,"density_birds_km3":9.62375,"heading_deg":112.91451148055344,"speed_ms":4.934542148330952,"peak_altitude_m":0.0,"u_ms":4.263228990778023,"v_ms":-1.9325334459020653}},{"type":"Feature","geometry":{"type":"Point","coordinates":[-86.5625,36.2472]},"properties":{"site":"KOHX","name":"Nashville TN","scan_time":"2026-08-17T09:01:38Z","stale":false,"bins":25,"density_birds_km3":5.980666666666667,"heading_deg":72.73916862445698,"speed_ms":6.461417902129082,"peak_altitude_m":200.0,"u_ms":5.947198751532715,"v_ms":0.9687916620220711}},{"type":"Feature","geometry":{"type":"Point","coordinates":[-72.8639,40.8655]},"properties":{"site":"KOKX","name":"Upton NY","scan_time":"2026-08-17T09:01:56Z","stale":false,"bins":25,"density_birds_km3":0.315,"heading_deg":329.3826960190925,"speed_ms":8.531962864721486,"peak_altitude_m":0.0,"u_ms":-4.256525198938992,"v_ms":7.307612732095491}},{"type":"Feature","geometry":{"type":"Point","coordinates":[-80.2183,40.5317]},"properties":{"site":"KPBZ","name":"Pittsburgh PA","scan_time":"2026-08-17T09:01:18Z","stale":false,"bins":25,"density_birds_km3":0.8235714285714285,"heading_deg":121.09268169194391,"speed_ms":6.876145833333334,"peak_altitude_m":400.0,"u_ms":5.795234375,"v_ms":-3.6136805555555553}},{"type":"Feature","geometry":{"type":"Point","coordinates":[-78.4899,35.6655]},"properties":{"site":"KRAX","name":"Raleigh NC","scan_time":"2026-08-17T09:04:15Z","stale":false,"bins":25,"density_birds_km3":1.5675,"heading_deg":72.1353882306005,"speed_ms":7.840115768463074,"peak_altitude_m":0.0,"u_ms":7.245588822355289,"v_ms":1.7806586826347308}},{"type":"Feature","geometry":{"type":"Point","coordinates":[-82.4017,27.7055]},"properties":{"site":"KTBW","name":"Tampa FL","scan_time":"2026-08-17T09:01:14Z","stale":false,"bins":25,"density_birds_km3":4.3618749999999995,"heading_deg":197.49658976207226,"speed_ms":4.5548345035105315,"peak_altitude_m":0.0,"u_ms":-0.957299039977074,"v_ms":-4.316159908296318}}]}