{"type":"FeatureCollection","frame":"2026-10-01T00","site_count":20,"fresh_count":20,"failures":{},"features":[{"type":"Feature","geometry":{"type":"Point","coordinates":[-77.0073,36.984]},"properties":{"site":"KAKQ","name":"Wakefield VA","scan_time":"2026-10-01T00:02:36Z","stale":false,"bins":25,"density_birds_km3":24.27875,"heading_deg":302.6436621071647,"speed_ms":6.072964135835844,"peak_altitude_m":0.0,"u_ms":-4.482143353672666,"v_ms":2.4208848896784323}},{"type":"Feature","geometry":{"type":"Point","coordinates":[-71.1369,41.9558]},"properties":{"site":"KBOX","name":"Boston MA","scan_time":"2026-10-01T00:01:30Z","stale":false,"bins":25,"density_birds_km3":10.735624999999999,"heading_deg":37.0401967033276,"speed_ms":6.373245619141875,"peak_altitude_m":0.0,"u_ms":2.7956133201373934,"v_ms":3.521653955871223}},{"type":"Feature","geometry":{"type":"Point","coordinates":[-78.7369,42.9489]},"properties":{"site":"KBUF","name":"Buffalo NY","scan_time":"2026-09-30T23:56:41Z","stale":false,"bins":25,"density_birds_km3":0.9480000000000001,"heading_deg":42.60514174209944,"speed_ms":6.6598369950389795,"peak_altitude_m":200.0,"u_ms":4.488646350106308,"v_ms":4.869029057406095}},{"type":"Feature","geometry":{"type":"Point","coordinates":[-81.8597,41.4131]},"properties":{"site":"KCLE","name":"Cleveland OH","scan_time":"2026-10-01T00:00:54Z","stale":false,"bins":25,"density_birds_km3":3.873333333333333,"heading_deg":null,"speed_ms":null,"peak_altitude_m":200.0,"u_ms":null,"v_ms":null}},{"type":"Feature","geometry":{"type":"Point","coordinates":[-81.0423,32.6555]},"properties":{"site":"KCLX","name":"Charleston SC","scan_time":"2026-09-30T23:59:06Z","stale":false,"bins":25,"density_birds_km3":3.33625,"heading_deg":292.3072672972689,"speed_ms":5.479102990033223,"peak_altitude_m":0.0,"u_ms":-4.393173734610123,"v_ms":2.0244498729724447}},{"type":"Feature","geometry":{"type":"Point","coordinates":[-74.4108,39.947]},"properties":{"site":"KDIX","name":"Philadelphia PA","scan_time":"2026-09-30T23:57:54Z","stale":false,"bins":25,"density_birds_km3":16.6375,"heading_deg":72.96918865556746,"speed_ms":6.233794709948904,"peak_altitude_m":0.0,"u_ms":4.617996693718065,"v_ms":2.01479335737902}},{"type":"Feature","geometry":{"type":"Point","coordinates":[-84.5658,33.3636]},"properties":{"site":"KFFC","name":"Atlanta GA","scan_time":"2026-09-30T23:58:03Z","stale":false,"bins":25,"density_birds_km3":3.106,"heading_deg":262.4595716423542,"speed_ms":5.229260692026649,"peak_altitude_m":400.0,"u_ms":-4.943322587577907,"v_ms":-0.822555340640447}},{"type":"Feature","geometry":{"type":"Point","coordinates":[-85.5449,42.8939]},"properties":{"site":"KGRR","name":"Grand Rapids MI","scan_time":"2026-09-30T23:58:30Z","stale":false,"bins":25,"density_birds_km3":0.2946666666666667,"heading_deg":27.56385313855873,"speed_ms":8.12108843537415,"peak_altitude_m":200.0,"u_ms":4.070680272108843,"v_ms":6.765555555555555}},{"type":"Feature","geometry":{"type":"Point","coordinates":[-83.8217,39.4203]},"properties":{"site":"KILN","name":"Wilmington OH","scan_time":"2026-09-30T23:59:53Z","stale":false,"bins":25,"density_birds_km3":6.160666666666667,"heading_deg":7.048584075289398,"speed_ms":7.819343073593073,"peak_altitude_m":200.0,"u_ms":1.056801948051948,"v_ms":7.450738095238094}},{"type":"Feature","geometry":{"type":"Point","coordinates":[-81.7019,30.4846]},"properties":{"site":"KJAX","name":"Jacksonville FL","scan_time":"2026-10-01T00:02:03Z","stale":false,"bins":25,"density_birds_km3":17.46625,"heading_deg":253.42395463403332,"speed_ms":6.984143747314138,"peak_altitude_m":0.0,"u_ms":-6.6338114167024775,"v_ms":-1.9267207420140382}},{"type":"Feature","geometry":{"type":"Point","coordinates":[-88.0847,41.6045]},"properties":{"site":"KLOT","name":"Chicago IL","scan_time":"2026-09-30T23:58:52Z","stale":false,"bins":25,"density_birds_km3":8.17,"heading_deg":null,"speed_ms":null,"peak_altitude_m":200.0,"u_ms":null,"v_ms":null}},{"type":"Feature","geometry":{"type":"Point","coordinates":[-78.4292,33.9892]},"properties":{"site":"KLTX","name":"Wilmington NC","scan_time":"2026-10-01T00:00:01Z","stale":false,"bins":25,"density_birds_km3":17.34,"heading_deg":297.06989021060633,"speed_ms":7.413514712245781,"peak_altitude_m":0.0,"u_ms":-6.496938194143949,"v_ms":3.362905668541757}},{"type":"Feature","geometry":{"type":"Point","coordinates":[-77.4778,38.9753]},"properties":{"site":"KLWX","name":"Sterling VA","scan_time":"2026-09-30T23:59:11Z","stale":false,"bins":25,"density_birds_km3":14.883125,"heading_deg":13.928751553210283,"speed_ms":7.236944502882147,"peak_altitude_m":0.0,"u_ms":1.378348971262675,"v_ms":6.394516346194302}},{"type":"Feature","geometry":{"type":"Point","coordinates":[-76.8762,34.7759]},"properties":{"site":"KMHX","name":"Morehead City NC","scan_time":"2026-10-01T00:02:08Z","stale":false,"bins":25,"density_birds_km3":15.101875,"heading_deg":327.5735140915658,"speed_ms":6.316416125160383,"peak_altitude_m":0.0,"u_ms":-3.2577625098298912,"v_ms":5.194633914159183}},{"type":"Feature","geometry":{"type":"Point","coordinates":[-80.6542,28.1133]},"properties":{"site":"KMLB","name":"Melbourne FL","scan_time":"2026-09-30T23:59:16Z","stale":false,"bins":25,"density_birds_km3":17.354375,"heading_deg":263.83423752539215,"speed_ms":4.566585392206295,"peak_altitude_m":0.0,"u_ms":-4.516062090326297,"v_ms":-0.4350968810775769}},{"type":"Feature","geometry":{"type":"Point","coordinates":[-86.5625,36.2472]},"properties":{"site":"KOHX","name":"Nashville TN","scan_time":"2026-10-01T00:01:57Z","stale":false,"bins":25,"density_birds_km3":2.4186666666666667,"heading_deg":5.8974315007196205,"speed_ms":6.195063395810364,"peak_altitude_m":200.0,"u_ms":0.6330898566703418,"v_ms":6.158302094818081}},{"type":"Feature","geometry":{"type":"Point","coordinates":[-72.8639,40.8655]},"properties":{"site":"KOKX","name":"Upton NY","scan_time":"2026-10-01T00:00:52Z","stale":false,"bins":25,"density_birds_km3":11.125,"heading_deg":302.90765843237153,"speed_ms":5.437522616171265,"peak_altitude_m":0.0,"u_ms":-0.86893689947744,"v_ms":-0.13728324998595276}},{"type":"Feature","geometry":{"type":"Point","coordinates":[-80.2183,40.5317]},"properties":{"site":"KPBZ","name":"Pittsburgh PA","scan_time":"2026-09-30T23:57:59Z","stale":false,"bins":25,"density_birds_km3":2.1585714285714284,"heading_deg":50.299483867963744,"speed_ms":7.2232693580410325,"peak_altitude_m":600.0,"u_ms":5.618070814030443,"v_ms":4.375671740569159}},{"type":"Feature","geometry":{"type":"Point","coordinates":[-78.4899,35.6655]},"properties":{"site":"KRAX","name":"Raleigh NC","scan_time":"2026-10-01T00:03:25Z","stale":false,"bins":25,"density_birds_km3":57.266875,"heading_deg":344.4669415883087,"speed_ms":3.9815361422750466,"peak_altitude_m":0.0,"u_ms":-1.1141685146546356,"v_ms":3.5754853016681056}},{"type":"Feature","geometry":{"type":"Point","coordinates":[-82.4017,27.7055]},"properties":{"site":"KTBW","name":"Tampa FL","scan_time":"2026-09-30T23:57:17Z","stale":false,"bins":25,"density_birds_km3":15.704375,"heading_deg":210.17733277629335,"speed_ms":5.642413532338309,"peak_altitude_m":0.0,"u_ms":-2.3182543283582087,"v_ms":-3.5472071641791048}}]}