{"type":"FeatureCollection","frame":"2026-10-07T09","site_count":20,"fresh_count":19,"failures":{"KILN":"RuntimeError('no scan within 20 min of 2026-10-07T09:00Z')"},"features":[{"type":"Feature","geometry":{"type":"Point","coordinates":[-77.0073,36.984]},"properties":{"site":"KAKQ","name":"Wakefield VA","scan_time":"2026-10-07T09:00:01Z","stale":false,"bins":25,"density_birds_km3":4.83375,"heading_deg":222.59231759960554,"speed_ms":9.01947239105134,"peak_altitude_m":0.0,"u_ms":-5.206952023794129,"v_ms":-6.669116772274667}},{"type":"Feature","geometry":{"type":"Point","coordinates":[-71.1369,41.9558]},"properties":{"site":"KBOX","name":"Boston MA","scan_time":"2026-10-07T09:01:11Z","stale":false,"bins":25,"density_birds_km3":1.7425,"heading_deg":201.0121855519249,"speed_ms":3.942440775305097,"peak_altitude_m":0.0,"u_ms":-1.460358937544867,"v_ms":-3.5958255563531947}},{"type":"Feature","geometry":{"type":"Point","coordinates":[-78.7369,42.9489]},"properties":{"site":"KBUF","name":"Buffalo NY","scan_time":"2026-10-07T09:02:37Z","stale":false,"bins":25,"density_birds_km3":0.30333333333333334,"heading_deg":45.84125015573822,"speed_ms":10.117450549450549,"peak_altitude_m":200.0,"u_ms":6.938637362637363,"v_ms":6.869978021978023}},{"type":"Feature","geometry":{"type":"Point","coordinates":[-81.8597,41.4131]},"properties":{"site":"KCLE","name":"Cleveland OH","scan_time":"2026-10-07T08:56:29Z","stale":false,"bins":25,"density_birds_km3":0.33,"heading_deg":43.47484183427736,"speed_ms":11.423252525252526,"peak_altitude_m":200.0,"u_ms":7.784727272727274,"v_ms":8.083434343434345}},{"type":"Feature","geometry":{"type":"Point","coordinates":[-81.0423,32.6555]},"properties":{"site":"KCLX","name":"Charleston SC","scan_time":"2026-10-07T09:00:32Z","stale":false,"bins":25,"density_birds_km3":26.829375,"heading_deg":213.2549044417165,"speed_ms":13.864702401751812,"peak_altitude_m":0.0,"u_ms":-7.82322268036434,"v_ms":-11.14171220909917}},{"type":"Feature","geometry":{"type":"Point","coordinates":[-74.4108,39.947]},"properties":{"site":"KDIX","name":"Philadelphia PA","scan_time":"2026-10-07T09:00:44Z","stale":false,"bins":25,"density_birds_km3":7.617500000000001,"heading_deg":243.9033093459986,"speed_ms":5.9036013785180925,"peak_altitude_m":0.0,"u_ms":-5.260142775088208,"v_ms":-2.4744621317797653}},{"type":"Feature","geometry":{"type":"Point","coordinates":[-84.5658,33.3636]},"properties":{"site":"KFFC","name":"Atlanta GA","scan_time":"2026-10-07T08:57:25Z","stale":false,"bins":25,"density_birds_km3":18.230666666666664,"heading_deg":223.94969598418356,"speed_ms":10.378388370817333,"peak_altitude_m":200.0,"u_ms":-7.171731212287439,"v_ms":-6.893346132748218}},{"type":"Feature","geometry":{"type":"Point","coordinates":[-85.5449,42.8939]},"properties":{"site":"KGRR","name":"Grand Rapids MI","scan_time":"2026-10-07T08:55:58Z","stale":false,"bins":25,"density_birds_km3":0.478,"heading_deg":71.35990778823866,"speed_ms":13.26100558659218,"peak_altitude_m":200.0,"u_ms":11.916312849162011,"v_ms":2.8739664804469274}},{"type":"Feature","geometry":{"type":"Point","coordinates":[-81.7019,30.4846]},"properties":{"site":"KJAX","name":"Jacksonville FL","scan_time":"2026-10-07T08:58:28Z","stale":false,"bins":25,"density_birds_km3":217.201875,"heading_deg":219.45196987274917,"speed_ms":8.991345028208745,"peak_altitude_m":0.0,"u_ms":-5.867442465914434,"v_ms":-6.712970997884345}},{"type":"Feature","geometry":{"type":"Point","coordinates":[-88.0847,41.6045]},"properties":{"site":"KLOT","name":"Chicago IL","scan_time":"2026-10-07T08:59:24Z","stale":false,"bins":25,"density_birds_km3":1.002,"heading_deg":92.14456938322598,"speed_ms":18.904147802929426,"peak_altitude_m":400.0,"u_ms":18.225013315579226,"v_ms":-1.2307856191744342}},{"type":"Feature","geometry":{"type":"Point","coordinates":[-78.4292,33.9892]},"properties":{"site":"KLTX","name":"Wilmington NC","scan_time":"2026-10-07T08:59:05Z","stale":false,"bins":25,"density_birds_km3":14.850625,"heading_deg":231.93144499361023,"speed_ms":13.755878367003369,"peak_altitude_m":0.0,"u_ms":-10.790841750841752,"v_ms":-8.484058501683503}},{"type":"Feature","geometry":{"type":"Point","coordinates":[-77.4778,38.9753]},"properties":{"site":"KLWX","name":"Sterling VA","scan_time":"2026-10-07T09:00:43Z","stale":false,"bins":25,"density_birds_km3":5.243125,"heading_deg":320.11656713206236,"speed_ms":6.373267326732673,"peak_altitude_m":0.0,"u_ms":-3.5512883216032445,"v_ms":4.816727901705833}},{"type":"Feature","geometry":{"type":"Point","coordinates":[-76.8762,34.7759]},"properties":{"site":"KMHX","name":"Morehead City NC","scan_time":"2026-10-07T08:58:40Z","stale":false,"bins":25,"density_birds_km3":3.12875,"heading_deg":213.09681451463686,"speed_ms":10.519988014382742,"peak_altitude_m":0.0,"u_ms":-5.55763883339992,"v_ms":-8.82254494606472}},{"type":"Feature","geometry":{"type":"Point","coordinates":[-80.6542,28.1133]},"properties":{"site":"KMLB","name":"Melbourne FL","scan_time":"2026-10-07T09:01:29Z","stale":false,"bins":25,"density_birds_km3":51.368750000000006,"heading_deg":183.31479739787758,"speed_ms":6.310915683173135,"peak_altitude_m":0.0,"u_ms":-0.5117500912519771,"v_ms":-6.174309770045017}},{"type":"Feature","geometry":{"type":"Point","coordinates":[-86.5625,36.2472]},"properties":{"site":"KOHX","name":"Nashville TN","scan_time":"2026-10-07T09:01:06Z","stale":false,"bins":25,"density_birds_km3":8.350666666666665,"heading_deg":51.933402995716484,"speed_ms":11.04813013972056,"peak_altitude_m":200.0,"u_ms":8.43488223552894,"v_ms":6.713000399201596}},{"type":"Feature","geometry":{"type":"Point","coordinates":[-72.8639,40.8655]},"properties":{"site":"KOKX","name":"Upton NY","scan_time":"2026-10-07T08:58:28Z","stale":false,"bins":25,"density_birds_km3":1.446875,"heading_deg":272.4431979027328,"speed_ms":4.788953287197232,"peak_altitude_m":0.0,"u_ms":-4.2308088235294115,"v_ms":0.07021193771626298}},{"type":"Feature","geometry":{"type":"Point","coordinates":[-80.2183,40.5317]},"properties":{"site":"KPBZ","name":"Pittsburgh PA","scan_time":"2026-10-07T09:02:41Z","stale":false,"bins":25,"density_birds_km3":0.6028571428571429,"heading_deg":19.267136545588393,"speed_ms":4.739774881516588,"peak_altitude_m":400.0,"u_ms":1.330367298578199,"v_ms":4.064028436018957}},{"type":"Feature","geometry":{"type":"Point","coordinates":[-78.4899,35.6655]},"properties":{"site":"KRAX","name":"Raleigh NC","scan_time":"2026-10-07T08:58:27Z","stale":false,"bins":25,"density_birds_km3":7.5893749999999995,"heading_deg":230.13283410622407,"speed_ms":8.794995881383855,"peak_altitude_m":200.0,"u_ms":-6.532570840197693,"v_ms":-5.5039077429983525}},{"type":"Feature","geometry":{"type":"Point","coordinates":[-82.4017,27.7055]},"properties":{"site":"KTBW","name":"Tampa FL","scan_time":"2026-10-07T08:59:56Z","stale":false,"bins":25,"density_birds_km3":20.516875,"heading_deg":263.3751250574174,"speed_ms":1.7243690575094617,"peak_altitude_m":0.0,"u_ms":-1.2311080340933565,"v_ms":-0.5244487522693007}}]}