{"type":"FeatureCollection","frame":"2026-09-06T05","site_count":20,"fresh_count":20,"failures":{},"features":[{"type":"Feature","geometry":{"type":"Point","coordinates":[-77.0073,36.984]},"properties":{"site":"KAKQ","name":"Wakefield VA","scan_time":"2026-09-06T05:01:05Z","stale":false,"bins":25,"density_birds_km3":58.978125,"heading_deg":209.3651839052636,"speed_ms":11.141958777088963,"peak_altitude_m":200.0,"u_ms":-5.296668256239072,"v_ms":-9.599028665289039}},{"type":"Feature","geometry":{"type":"Point","coordinates":[-71.1369,41.9558]},"properties":{"site":"KBOX","name":"Boston MA","scan_time":"2026-09-06T05:01:46Z","stale":false,"bins":25,"density_birds_km3":16.810625,"heading_deg":187.97179045169503,"speed_ms":10.625585320417288,"peak_altitude_m":200.0,"u_ms":-1.372624441132638,"v_ms":-10.215861400894187}},{"type":"Feature","geometry":{"type":"Point","coordinates":[-78.7369,42.9489]},"properties":{"site":"KBUF","name":"Buffalo NY","scan_time":"2026-09-06T05:03:32Z","stale":false,"bins":25,"density_birds_km3":31.176,"heading_deg":209.5631561150847,"speed_ms":8.190107775211702,"peak_altitude_m":400.0,"u_ms":-4.098836498160979,"v_ms":-7.0556864254554785}},{"type":"Feature","geometry":{"type":"Point","coordinates":[-81.8597,41.4131]},"properties":{"site":"KCLE","name":"Cleveland OH","scan_time":"2026-09-06T04:58:53Z","stale":false,"bins":25,"density_birds_km3":47.57266666666667,"heading_deg":219.213506640664,"speed_ms":9.759061786179739,"peak_altitude_m":200.0,"u_ms":-6.177151445507924,"v_ms":-7.448192519514007}},{"type":"Feature","geometry":{"type":"Point","coordinates":[-81.0423,32.6555]},"properties":{"site":"KCLX","name":"Charleston SC","scan_time":"2026-09-06T05:00:55Z","stale":false,"bins":25,"density_birds_km3":16.745625,"heading_deg":167.21771799186496,"speed_ms":9.229642070690106,"peak_altitude_m":0.0,"u_ms":-0.00758892247975214,"v_ms":-7.943701339902213}},{"type":"Feature","geometry":{"type":"Point","coordinates":[-74.4108,39.947]},"properties":{"site":"KDIX","name":"Philadelphia PA","scan_time":"2026-09-06T04:59:21Z","stale":false,"bins":25,"density_birds_km3":38.076875,"heading_deg":214.60377372399677,"speed_ms":11.54829588168672,"peak_altitude_m":200.0,"u_ms":-6.4749296653152335,"v_ms":-9.512034371255519}},{"type":"Feature","geometry":{"type":"Point","coordinates":[-84.5658,33.3636]},"properties":{"site":"KFFC","name":"Atlanta GA","scan_time":"2026-09-06T04:58:26Z","stale":false,"bins":25,"density_birds_km3":68.68466666666667,"heading_deg":187.59245421443433,"speed_ms":7.9931967348364985,"peak_altitude_m":1400.0,"u_ms":-1.5480474050491622,"v_ms":-7.41399914585497}},{"type":"Feature","geometry":{"type":"Point","coordinates":[-85.5449,42.8939]},"properties":{"site":"KGRR","name":"Grand Rapids MI","scan_time":"2026-09-06T05:03:01Z","stale":false,"bins":25,"density_birds_km3":105.36933333333333,"heading_deg":219.17463650702098,"speed_ms":9.754031786604578,"peak_altitude_m":200.0,"u_ms":-6.077361281587306,"v_ms":-7.203312032596454}},{"type":"Feature","geometry":{"type":"Point","coordinates":[-83.8217,39.4203]},"properties":{"site":"KILN","name":"Wilmington OH","scan_time":"2026-09-06T05:01:25Z","stale":false,"bins":25,"density_birds_km3":51.102,"heading_deg":218.87432059363294,"speed_ms":12.82839993216182,"peak_altitude_m":200.0,"u_ms":-7.665472845159354,"v_ms":-9.02199131149466}},{"type":"Feature","geometry":{"type":"Point","coordinates":[-81.7019,30.4846]},"properties":{"site":"KJAX","name":"Jacksonville FL","scan_time":"2026-09-06T04:58:15Z","stale":false,"bins":25,"density_birds_km3":23.35,"heading_deg":139.42017331814668,"speed_ms":8.051422376873662,"peak_altitude_m":0.0,"u_ms":3.428698072805139,"v_ms":-5.564481263383297}},{"type":"Feature","geometry":{"type":"Point","coordinates":[-88.0847,41.6045]},"properties":{"site":"KLOT","name":"Chicago IL","scan_time":"2026-09-06T05:02:31Z","stale":false,"bins":25,"density_birds_km3":83.66266666666667,"heading_deg":203.4129372316603,"speed_ms":10.840387827306484,"peak_altitude_m":400.0,"u_ms":-3.256341657768499,"v_ms":-9.08095430857252}},{"type":"Feature","geometry":{"type":"Point","coordinates":[-78.4292,33.9892]},"properties":{"site":"KLTX","name":"Wilmington NC","scan_time":"2026-09-06T04:59:00Z","stale":false,"bins":25,"density_birds_km3":28.235625000000002,"heading_deg":166.75571667393172,"speed_ms":8.669118683120278,"peak_altitude_m":1200.0,"u_ms":0.7065456277554999,"v_ms":-8.224018432771341}},{"type":"Feature","geometry":{"type":"Point","coordinates":[-77.4778,38.9753]},"properties":{"site":"KLWX","name":"Sterling VA","scan_time":"2026-09-06T05:02:06Z","stale":false,"bins":25,"density_birds_km3":95.606875,"heading_deg":224.5626428477857,"speed_ms":10.908392571140936,"peak_altitude_m":200.0,"u_ms":-7.657182864725994,"v_ms":-7.64584921324957}},{"type":"Feature","geometry":{"type":"Point","coordinates":[-76.8762,34.7759]},"properties":{"site":"KMHX","name":"Morehead City NC","scan_time":"2026-09-06T04:58:21Z","stale":false,"bins":25,"density_birds_km3":42.0675,"heading_deg":174.65699269750516,"speed_ms":9.43587077316218,"peak_altitude_m":0.0,"u_ms":0.7939959588756165,"v_ms":-9.350683574017946}},{"type":"Feature","geometry":{"type":"Point","coordinates":[-80.6542,28.1133]},"properties":{"site":"KMLB","name":"Melbourne FL","scan_time":"2026-09-06T04:58:42Z","stale":false,"bins":25,"density_birds_km3":6.8225,"heading_deg":74.06600528339926,"speed_ms":3.7577938201213907,"peak_altitude_m":0.0,"u_ms":3.0759720434062903,"v_ms":0.5943663785175649}},{"type":"Feature","geometry":{"type":"Point","coordinates":[-86.5625,36.2472]},"properties":{"site":"KOHX","name":"Nashville TN","scan_time":"2026-09-06T05:00:31Z","stale":false,"bins":25,"density_birds_km3":77.092,"heading_deg":209.75125399410723,"speed_ms":8.21116968470572,"peak_altitude_m":400.0,"u_ms":-1.9175078261471143,"v_ms":-5.773499628149916}},{"type":"Feature","geometry":{"type":"Point","coordinates":[-72.8639,40.8655]},"properties":{"site":"KOKX","name":"Upton NY","scan_time":"2026-09-06T04:59:42Z","stale":false,"bins":25,"density_birds_km3":4.048125,"heading_deg":266.8890864156315,"speed_ms":7.76841624050829,"peak_altitude_m":200.0,"u_ms":-7.7180799628079955,"v_ms":-0.45479311947931195}},{"type":"Feature","geometry":{"type":"Point","coordinates":[-80.2183,40.5317]},"properties":{"site":"KPBZ","name":"Pittsburgh PA","scan_time":"2026-09-06T04:59:22Z","stale":false,"bins":25,"density_birds_km3":84.64642857142857,"heading_deg":242.32438276074623,"speed_ms":12.521375975697229,"peak_altitude_m":600.0,"u_ms":-10.960184971098267,"v_ms":-5.526010041770389}},{"type":"Feature","geometry":{"type":"Point","coordinates":[-78.4899,35.6655]},"properties":{"site":"KRAX","name":"Raleigh NC","scan_time":"2026-09-06T05:02:26Z","stale":false,"bins":25,"density_birds_km3":46.115625,"heading_deg":213.16994975740502,"speed_ms":7.564910914198092,"peak_altitude_m":200.0,"u_ms":-4.0836783683660585,"v_ms":-6.214932083101515}},{"type":"Feature","geometry":{"type":"Point","coordinates":[-82.4017,27.7055]},"properties":{"site":"KTBW","name":"Tampa FL","scan_time":"2026-09-06T05:00:07Z","stale":false,"bins":25,"density_birds_km3":7.198125,"heading_deg":184.06625475742197,"speed_ms":5.855407330206705,"peak_altitude_m":0.0,"u_ms":0.2817978113600834,"v_ms":-5.801105610561056}}]}