{"type":"FeatureCollection","frame":"2026-09-27T03","site_count":20,"fresh_count":20,"failures":{},"features":[{"type":"Feature","geometry":{"type":"Point","coordinates":[-77.0073,36.984]},"properties":{"site":"KAKQ","name":"Wakefield VA","scan_time":"2026-09-27T03:02:41Z","stale":false,"bins":25,"density_birds_km3":14.175999999999998,"heading_deg":160.2,"speed_ms":15.33,"peak_altitude_m":400.0,"u_ms":5.19,"v_ms":-14.43}},{"type":"Feature","geometry":{"type":"Point","coordinates":[-71.1369,41.9558]},"properties":{"site":"KBOX","name":"Boston MA","scan_time":"2026-09-27T03:00:49Z","stale":false,"bins":25,"density_birds_km3":0.015,"heading_deg":null,"speed_ms":null,"peak_altitude_m":2400.0,"u_ms":null,"v_ms":null}},{"type":"Feature","geometry":{"type":"Point","coordinates":[-78.7369,42.9489]},"properties":{"site":"KBUF","name":"Buffalo NY","scan_time":"2026-09-27T03:00:22Z","stale":false,"bins":25,"density_birds_km3":36.967999999999996,"heading_deg":194.78949338846172,"speed_ms":17.03440975979225,"peak_altitude_m":200.0,"u_ms":-4.621847002813245,"v_ms":-16.06515220370771}},{"type":"Feature","geometry":{"type":"Point","coordinates":[-81.8597,41.4131]},"properties":{"site":"KCLE","name":"Cleveland OH","scan_time":"2026-09-27T02:58:02Z","stale":false,"bins":25,"density_birds_km3":25.066,"heading_deg":189.36009121399644,"speed_ms":12.143041119208469,"peak_altitude_m":400.0,"u_ms":-2.192244268312144,"v_ms":-11.637111282515027}},{"type":"Feature","geometry":{"type":"Point","coordinates":[-81.0423,32.6555]},"properties":{"site":"KCLX","name":"Charleston SC","scan_time":"2026-09-27T03:02:09Z","stale":false,"bins":25,"density_birds_km3":44.674375,"heading_deg":176.88656031343166,"speed_ms":10.783600917752068,"peak_altitude_m":200.0,"u_ms":1.126628660165923,"v_ms":-10.608976762405742}},{"type":"Feature","geometry":{"type":"Point","coordinates":[-74.4108,39.947]},"properties":{"site":"KDIX","name":"Philadelphia PA","scan_time":"2026-09-27T03:00:00Z","stale":false,"bins":25,"density_birds_km3":0.0,"heading_deg":null,"speed_ms":null,"peak_altitude_m":2000.0,"u_ms":null,"v_ms":null}},{"type":"Feature","geometry":{"type":"Point","coordinates":[-84.5658,33.3636]},"properties":{"site":"KFFC","name":"Atlanta GA","scan_time":"2026-09-27T03:01:05Z","stale":false,"bins":25,"density_birds_km3":198.07666666666668,"heading_deg":174.1744862549465,"speed_ms":14.31470225333625,"peak_altitude_m":800.0,"u_ms":1.5386004745637212,"v_ms":-14.196150716052706}},{"type":"Feature","geometry":{"type":"Point","coordinates":[-85.5449,42.8939]},"properties":{"site":"KGRR","name":"Grand Rapids MI","scan_time":"2026-09-27T02:58:19Z","stale":false,"bins":25,"density_birds_km3":85.51666666666667,"heading_deg":200.9610440804139,"speed_ms":9.196335217306569,"peak_altitude_m":200.0,"u_ms":-3.203725589553693,"v_ms":-8.52389374390957}},{"type":"Feature","geometry":{"type":"Point","coordinates":[-83.8217,39.4203]},"properties":{"site":"KILN","name":"Wilmington OH","scan_time":"2026-09-27T02:58:09Z","stale":false,"bins":25,"density_birds_km3":72.80533333333332,"heading_deg":191.59222831325326,"speed_ms":13.729133396820746,"peak_altitude_m":200.0,"u_ms":-2.9051238004541795,"v_ms":-13.220686946011282}},{"type":"Feature","geometry":{"type":"Point","coordinates":[-81.7019,30.4846]},"properties":{"site":"KJAX","name":"Jacksonville FL","scan_time":"2026-09-27T02:58:19Z","stale":false,"bins":25,"density_birds_km3":145.146875,"heading_deg":189.91599132406265,"speed_ms":10.216890132839582,"peak_altitude_m":600.0,"u_ms":-0.9603304411479751,"v_ms":-9.77171597735053}},{"type":"Feature","geometry":{"type":"Point","coordinates":[-88.0847,41.6045]},"properties":{"site":"KLOT","name":"Chicago IL","scan_time":"2026-09-27T03:00:22Z","stale":false,"bins":25,"density_birds_km3":30.39466666666667,"heading_deg":181.7438713537254,"speed_ms":6.799597517108265,"peak_altitude_m":400.0,"u_ms":-0.34743244428847175,"v_ms":-5.64446021231795}},{"type":"Feature","geometry":{"type":"Point","coordinates":[-78.4292,33.9892]},"properties":{"site":"KLTX","name":"Wilmington NC","scan_time":"2026-09-27T02:58:02Z","stale":false,"bins":25,"density_birds_km3":40.918125,"heading_deg":154.91071538430023,"speed_ms":8.953245021963054,"peak_altitude_m":0.0,"u_ms":2.580010866737071,"v_ms":-7.403821265133079}},{"type":"Feature","geometry":{"type":"Point","coordinates":[-77.4778,38.9753]},"properties":{"site":"KLWX","name":"Sterling VA","scan_time":"2026-09-27T02:58:08Z","stale":false,"bins":25,"density_birds_km3":7.419333333333333,"heading_deg":170.69399603614042,"speed_ms":15.851761638733706,"peak_altitude_m":400.0,"u_ms":1.7365372439478584,"v_ms":-15.446411545623835}},{"type":"Feature","geometry":{"type":"Point","coordinates":[-76.8762,34.7759]},"properties":{"site":"KMHX","name":"Morehead City NC","scan_time":"2026-09-27T02:59:08Z","stale":false,"bins":25,"density_birds_km3":41.924375,"heading_deg":215.4216439976737,"speed_ms":7.513262023316139,"peak_altitude_m":0.0,"u_ms":-2.471768090879275,"v_ms":-5.992827901845613}},{"type":"Feature","geometry":{"type":"Point","coordinates":[-80.6542,28.1133]},"properties":{"site":"KMLB","name":"Melbourne FL","scan_time":"2026-09-27T02:56:38Z","stale":false,"bins":25,"density_birds_km3":60.679375,"heading_deg":167.01918928156064,"speed_ms":13.052577535149611,"peak_altitude_m":0.0,"u_ms":2.993588607920894,"v_ms":-12.59795406087449}},{"type":"Feature","geometry":{"type":"Point","coordinates":[-86.5625,36.2472]},"properties":{"site":"KOHX","name":"Nashville TN","scan_time":"2026-09-27T02:57:57Z","stale":false,"bins":25,"density_birds_km3":62.03933333333334,"heading_deg":197.95465272024504,"speed_ms":11.373535069149678,"peak_altitude_m":200.0,"u_ms":-3.615726044767298,"v_ms":-10.556549715771713}},{"type":"Feature","geometry":{"type":"Point","coordinates":[-72.8639,40.8655]},"properties":{"site":"KOKX","name":"Upton NY","scan_time":"2026-09-27T03:02:06Z","stale":false,"bins":25,"density_birds_km3":0.1325,"heading_deg":null,"speed_ms":null,"peak_altitude_m":200.0,"u_ms":null,"v_ms":null}},{"type":"Feature","geometry":{"type":"Point","coordinates":[-80.2183,40.5317]},"properties":{"site":"KPBZ","name":"Pittsburgh PA","scan_time":"2026-09-27T02:57:58Z","stale":false,"bins":25,"density_birds_km3":35.142857142857146,"heading_deg":201.13137000350898,"speed_ms":18.655138112563264,"peak_altitude_m":600.0,"u_ms":-7.566799934958028,"v_ms":-16.148909530681518}},{"type":"Feature","geometry":{"type":"Point","coordinates":[-78.4899,35.6655]},"properties":{"site":"KRAX","name":"Raleigh NC","scan_time":"2026-09-27T02:59:08Z","stale":false,"bins":25,"density_birds_km3":65.041875,"heading_deg":203.38516987884847,"speed_ms":10.402286667115165,"peak_altitude_m":200.0,"u_ms":-3.447454036962643,"v_ms":-9.287366195423399}},{"type":"Feature","geometry":{"type":"Point","coordinates":[-82.4017,27.7055]},"properties":{"site":"KTBW","name":"Tampa FL","scan_time":"2026-09-27T02:58:23Z","stale":false,"bins":25,"density_birds_km3":36.99875,"heading_deg":188.6434559583825,"speed_ms":12.483350619953377,"peak_altitude_m":200.0,"u_ms":-1.7871370654413998,"v_ms":-12.292033007871888}}]}