{"type":"FeatureCollection","frame":"2026-08-15T12","site_count":20,"fresh_count":20,"failures":{},"features":[{"type":"Feature","geometry":{"type":"Point","coordinates":[-77.0073,36.984]},"properties":{"site":"KAKQ","name":"Wakefield VA","scan_time":"2026-08-15T12:00:54Z","stale":false,"bins":25,"density_birds_km3":2.12625,"heading_deg":213.53547393602952,"speed_ms":8.29468253968254,"peak_altitude_m":200.0,"u_ms":-4.634591416813639,"v_ms":-6.845922986478541}},{"type":"Feature","geometry":{"type":"Point","coordinates":[-71.1369,41.9558]},"properties":{"site":"KBOX","name":"Boston MA","scan_time":"2026-08-15T12:03:15Z","stale":false,"bins":25,"density_birds_km3":3.174375,"heading_deg":195.3248258078849,"speed_ms":7.118421674876847,"peak_altitude_m":0.0,"u_ms":-1.9031270935960594,"v_ms":-6.819103448275862}},{"type":"Feature","geometry":{"type":"Point","coordinates":[-78.7369,42.9489]},"properties":{"site":"KBUF","name":"Buffalo NY","scan_time":"2026-08-15T11:59:05Z","stale":false,"bins":25,"density_birds_km3":1.1186666666666667,"heading_deg":298.4186638631985,"speed_ms":4.6134028605482715,"peak_altitude_m":200.0,"u_ms":-3.857896305125149,"v_ms":2.224213349225268}},{"type":"Feature","geometry":{"type":"Point","coordinates":[-81.8597,41.4131]},"properties":{"site":"KCLE","name":"Cleveland OH","scan_time":"2026-08-15T12:01:02Z","stale":false,"bins":25,"density_birds_km3":4.007333333333333,"heading_deg":275.57940469766385,"speed_ms":5.391989685576443,"peak_altitude_m":200.0,"u_ms":-5.316541340875062,"v_ms":0.5207220096489769}},{"type":"Feature","geometry":{"type":"Point","coordinates":[-81.0423,32.6555]},"properties":{"site":"KCLX","name":"Charleston SC","scan_time":"2026-08-15T11:58:59Z","stale":false,"bins":25,"density_birds_km3":0.6375,"heading_deg":122.65338295942416,"speed_ms":5.164196078431373,"peak_altitude_m":0.0,"u_ms":4.089852941176471,"v_ms":-2.745039215686275}},{"type":"Feature","geometry":{"type":"Point","coordinates":[-74.4108,39.947]},"properties":{"site":"KDIX","name":"Philadelphia PA","scan_time":"2026-08-15T11:59:13Z","stale":false,"bins":25,"density_birds_km3":4.973125,"heading_deg":230.61841044071463,"speed_ms":9.73057071024513,"peak_altitude_m":400.0,"u_ms":-7.496931489629164,"v_ms":-6.144217473287242}},{"type":"Feature","geometry":{"type":"Point","coordinates":[-84.5658,33.3636]},"properties":{"site":"KFFC","name":"Atlanta GA","scan_time":"2026-08-15T12:00:20Z","stale":false,"bins":25,"density_birds_km3":2.313333333333333,"heading_deg":142.821190817066,"speed_ms":8.059593659942363,"peak_altitude_m":200.0,"u_ms":4.540541786743517,"v_ms":-6.544146974063401}},{"type":"Feature","geometry":{"type":"Point","coordinates":[-85.5449,42.8939]},"properties":{"site":"KGRR","name":"Grand Rapids MI","scan_time":"2026-08-15T12:00:21Z","stale":false,"bins":25,"density_birds_km3":1.1186666666666667,"heading_deg":289.0453311221942,"speed_ms":4.143851902173913,"peak_altitude_m":200.0,"u_ms":-3.8908559782608694,"v_ms":1.356616847826087}},{"type":"Feature","geometry":{"type":"Point","coordinates":[-83.8217,39.4203]},"properties":{"site":"KILN","name":"Wilmington OH","scan_time":"2026-08-15T12:00:45Z","stale":false,"bins":25,"density_birds_km3":0.7553333333333333,"heading_deg":293.0690077975721,"speed_ms":6.043873015873016,"peak_altitude_m":200.0,"u_ms":-3.439507936507936,"v_ms":1.3684126984126983}},{"type":"Feature","geometry":{"type":"Point","coordinates":[-81.7019,30.4846]},"properties":{"site":"KJAX","name":"Jacksonville FL","scan_time":"2026-08-15T11:58:30Z","stale":false,"bins":25,"density_birds_km3":1.72625,"heading_deg":133.79912330292066,"speed_ms":4.451491672700941,"peak_altitude_m":0.0,"u_ms":3.1323533671252712,"v_ms":-3.113200579290369}},{"type":"Feature","geometry":{"type":"Point","coordinates":[-88.0847,41.6045]},"properties":{"site":"KLOT","name":"Chicago IL","scan_time":"2026-08-15T12:01:58Z","stale":false,"bins":25,"density_birds_km3":0.46066666666666667,"heading_deg":347.9358001454233,"speed_ms":3.765969465648855,"peak_altitude_m":200.0,"u_ms":-0.7864732824427481,"v_ms":3.682290076335878}},{"type":"Feature","geometry":{"type":"Point","coordinates":[-78.4292,33.9892]},"properties":{"site":"KLTX","name":"Wilmington NC","scan_time":"2026-08-15T11:59:24Z","stale":false,"bins":25,"density_birds_km3":0.8775000000000001,"heading_deg":152.90685419972255,"speed_ms":4.952478571428571,"peak_altitude_m":200.0,"u_ms":2.032092857142857,"v_ms":-4.2176}},{"type":"Feature","geometry":{"type":"Point","coordinates":[-77.4778,38.9753]},"properties":{"site":"KLWX","name":"Sterling VA","scan_time":"2026-08-15T12:01:28Z","stale":false,"bins":25,"density_birds_km3":10.83,"heading_deg":236.57308999732885,"speed_ms":8.471887557176771,"peak_altitude_m":400.0,"u_ms":-7.0534983498349835,"v_ms":-4.536817787041863}},{"type":"Feature","geometry":{"type":"Point","coordinates":[-76.8762,34.7759]},"properties":{"site":"KMHX","name":"Morehead City NC","scan_time":"2026-08-15T12:00:34Z","stale":false,"bins":25,"density_birds_km3":3.910625,"heading_deg":198.15495579657602,"speed_ms":7.150329000160488,"peak_altitude_m":200.0,"u_ms":-2.210120365912374,"v_ms":-6.639576311988445}},{"type":"Feature","geometry":{"type":"Point","coordinates":[-80.6542,28.1133]},"properties":{"site":"KMLB","name":"Melbourne FL","scan_time":"2026-08-15T11:58:57Z","stale":false,"bins":25,"density_birds_km3":0.503125,"heading_deg":159.39156811309806,"speed_ms":3.4281476846057575,"peak_altitude_m":0.0,"u_ms":0.9229536921151439,"v_ms":-3.1028535669586987}},{"type":"Feature","geometry":{"type":"Point","coordinates":[-86.5625,36.2472]},"properties":{"site":"KOHX","name":"Nashville TN","scan_time":"2026-08-15T12:03:34Z","stale":false,"bins":25,"density_birds_km3":3.8459999999999996,"heading_deg":118.09582288970574,"speed_ms":5.366177847113884,"peak_altitude_m":200.0,"u_ms":4.785836366788005,"v_ms":-2.3061379788524876}},{"type":"Feature","geometry":{"type":"Point","coordinates":[-72.8639,40.8655]},"properties":{"site":"KOKX","name":"Upton NY","scan_time":"2026-08-15T12:03:25Z","stale":false,"bins":25,"density_birds_km3":5.813125,"heading_deg":238.36493515927089,"speed_ms":8.974556403914399,"peak_altitude_m":200.0,"u_ms":-7.659762340036563,"v_ms":-4.588607377137326}},{"type":"Feature","geometry":{"type":"Point","coordinates":[-80.2183,40.5317]},"properties":{"site":"KPBZ","name":"Pittsburgh PA","scan_time":"2026-08-15T11:57:50Z","stale":false,"bins":25,"density_birds_km3":14.789285714285715,"heading_deg":216.4543369943043,"speed_ms":3.3939452679589515,"peak_altitude_m":600.0,"u_ms":-1.9138996579247434,"v_ms":-2.7325384155942882}},{"type":"Feature","geometry":{"type":"Point","coordinates":[-78.4899,35.6655]},"properties":{"site":"KRAX","name":"Raleigh NC","scan_time":"2026-08-15T11:58:10Z","stale":false,"bins":25,"density_birds_km3":2.3181249999999998,"heading_deg":219.11522346430854,"speed_ms":7.69344120819849,"peak_altitude_m":400.0,"u_ms":-4.868252427184466,"v_ms":-5.837597087378641}},{"type":"Feature","geometry":{"type":"Point","coordinates":[-82.4017,27.7055]},"properties":{"site":"KTBW","name":"Tampa FL","scan_time":"2026-08-15T11:57:38Z","stale":false,"bins":25,"density_birds_km3":1.168125,"heading_deg":263.8005975105809,"speed_ms":2.3871612212104982,"peak_altitude_m":0.0,"u_ms":-2.0463202999464385,"v_ms":-0.25184252811997854}}]}