{"type":"FeatureCollection","frame":"2026-09-09T07","site_count":20,"fresh_count":20,"failures":{},"features":[{"type":"Feature","geometry":{"type":"Point","coordinates":[-77.0073,36.984]},"properties":{"site":"KAKQ","name":"Wakefield VA","scan_time":"2026-09-09T06:57:55Z","stale":false,"bins":25,"density_birds_km3":0.949375,"heading_deg":45.97533473797143,"speed_ms":9.1266534914361,"peak_altitude_m":0.0,"u_ms":1.8416337285902502,"v_ms":1.7935375494071146}},{"type":"Feature","geometry":{"type":"Point","coordinates":[-71.1369,41.9558]},"properties":{"site":"KBOX","name":"Boston MA","scan_time":"2026-09-09T06:58:01Z","stale":false,"bins":25,"density_birds_km3":7.786875,"heading_deg":209.6559343152666,"speed_ms":4.575402345004819,"peak_altitude_m":200.0,"u_ms":-2.3277272727272726,"v_ms":-3.8085207195631225}},{"type":"Feature","geometry":{"type":"Point","coordinates":[-78.7369,42.9489]},"properties":{"site":"KBUF","name":"Buffalo NY","scan_time":"2026-09-09T07:02:28Z","stale":false,"bins":25,"density_birds_km3":0.9053333333333333,"heading_deg":40.51285902054109,"speed_ms":10.865501474926253,"peak_altitude_m":200.0,"u_ms":6.958333333333333,"v_ms":7.812883480825959}},{"type":"Feature","geometry":{"type":"Point","coordinates":[-81.8597,41.4131]},"properties":{"site":"KCLE","name":"Cleveland OH","scan_time":"2026-09-09T07:00:44Z","stale":false,"bins":25,"density_birds_km3":2.6300000000000003,"heading_deg":59.222971413447944,"speed_ms":10.769121776870053,"peak_altitude_m":200.0,"u_ms":9.307281082461067,"v_ms":5.320291039060505}},{"type":"Feature","geometry":{"type":"Point","coordinates":[-81.0423,32.6555]},"properties":{"site":"KCLX","name":"Charleston SC","scan_time":"2026-09-09T06:59:00Z","stale":false,"bins":25,"density_birds_km3":5.381875,"heading_deg":224.6946524607853,"speed_ms":11.810385822196398,"peak_altitude_m":0.0,"u_ms":-8.154219639744335,"v_ms":-8.20365950029053}},{"type":"Feature","geometry":{"type":"Point","coordinates":[-74.4108,39.947]},"properties":{"site":"KDIX","name":"Philadelphia PA","scan_time":"2026-09-09T06:56:45Z","stale":false,"bins":25,"density_birds_km3":2.4625,"heading_deg":59.63124519801597,"speed_ms":6.364411689961881,"peak_altitude_m":0.0,"u_ms":5.192594663278272,"v_ms":3.3552426937738242}},{"type":"Feature","geometry":{"type":"Point","coordinates":[-84.5658,33.3636]},"properties":{"site":"KFFC","name":"Atlanta GA","scan_time":"2026-09-09T06:58:00Z","stale":false,"bins":25,"density_birds_km3":12.864666666666666,"heading_deg":264.229913414895,"speed_ms":7.483048142198269,"peak_altitude_m":200.0,"u_ms":-6.656759599937815,"v_ms":-0.20011659843498986}},{"type":"Feature","geometry":{"type":"Point","coordinates":[-85.5449,42.8939]},"properties":{"site":"KGRR","name":"Grand Rapids MI","scan_time":"2026-09-09T06:58:06Z","stale":false,"bins":25,"density_birds_km3":0.8426666666666667,"heading_deg":29.90470311371371,"speed_ms":8.852367601246105,"peak_altitude_m":200.0,"u_ms":4.589979231568016,"v_ms":7.518452751817239}},{"type":"Feature","geometry":{"type":"Point","coordinates":[-83.8217,39.4203]},"properties":{"site":"KILN","name":"Wilmington OH","scan_time":"2026-09-09T07:01:46Z","stale":false,"bins":25,"density_birds_km3":2.856666666666667,"heading_deg":64.25321228317213,"speed_ms":13.184856476079345,"peak_altitude_m":400.0,"u_ms":11.011869311551925,"v_ms":5.033971995332555}},{"type":"Feature","geometry":{"type":"Point","coordinates":[-81.7019,30.4846]},"properties":{"site":"KJAX","name":"Jacksonville FL","scan_time":"2026-09-09T07:00:13Z","stale":false,"bins":25,"density_birds_km3":27.035,"heading_deg":191.15305545579756,"speed_ms":9.358685439496925,"peak_altitude_m":0.0,"u_ms":-1.7603278309520505,"v_ms":-9.156488417256208}},{"type":"Feature","geometry":{"type":"Point","coordinates":[-88.0847,41.6045]},"properties":{"site":"KLOT","name":"Chicago IL","scan_time":"2026-09-09T07:00:50Z","stale":false,"bins":25,"density_birds_km3":3.2493333333333334,"heading_deg":72.50950521082021,"speed_ms":12.691335202761001,"peak_altitude_m":400.0,"u_ms":12.03289689387403,"v_ms":3.98679033649698}},{"type":"Feature","geometry":{"type":"Point","coordinates":[-78.4292,33.9892]},"properties":{"site":"KLTX","name":"Wilmington NC","scan_time":"2026-09-09T07:00:02Z","stale":false,"bins":25,"density_birds_km3":2.87875,"heading_deg":241.4960294247884,"speed_ms":9.599096437880105,"peak_altitude_m":0.0,"u_ms":-8.300708079930496,"v_ms":-4.579887054735014}},{"type":"Feature","geometry":{"type":"Point","coordinates":[-77.4778,38.9753]},"properties":{"site":"KLWX","name":"Sterling VA","scan_time":"2026-09-09T06:58:15Z","stale":false,"bins":25,"density_birds_km3":3.005625,"heading_deg":31.243556682373985,"speed_ms":8.436791772688718,"peak_altitude_m":0.0,"u_ms":4.77515903307888,"v_ms":6.622082273112808}},{"type":"Feature","geometry":{"type":"Point","coordinates":[-76.8762,34.7759]},"properties":{"site":"KMHX","name":"Morehead City NC","scan_time":"2026-09-09T06:58:54Z","stale":false,"bins":25,"density_birds_km3":0.835625,"heading_deg":254.59470636604098,"speed_ms":5.115198170731708,"peak_altitude_m":0.0,"u_ms":-4.576013719512195,"v_ms":-1.4707088414634146}},{"type":"Feature","geometry":{"type":"Point","coordinates":[-80.6542,28.1133]},"properties":{"site":"KMLB","name":"Melbourne FL","scan_time":"2026-09-09T06:56:58Z","stale":false,"bins":25,"density_birds_km3":5.181875,"heading_deg":98.64136590860429,"speed_ms":1.4957384915279652,"peak_altitude_m":0.0,"u_ms":0.6227230469335733,"v_ms":0.5165677013045434}},{"type":"Feature","geometry":{"type":"Point","coordinates":[-86.5625,36.2472]},"properties":{"site":"KOHX","name":"Nashville TN","scan_time":"2026-09-09T06:58:20Z","stale":false,"bins":25,"density_birds_km3":9.704,"heading_deg":14.33710137927465,"speed_ms":9.727223138224787,"peak_altitude_m":200.0,"u_ms":2.7982982962352296,"v_ms":8.471037372904645}},{"type":"Feature","geometry":{"type":"Point","coordinates":[-72.8639,40.8655]},"properties":{"site":"KOKX","name":"Upton NY","scan_time":"2026-09-09T06:58:58Z","stale":false,"bins":25,"density_birds_km3":1.3587500000000001,"heading_deg":41.82719675108523,"speed_ms":4.818672566371682,"peak_altitude_m":0.0,"u_ms":2.755286446204006,"v_ms":2.34439683278994}},{"type":"Feature","geometry":{"type":"Point","coordinates":[-80.2183,40.5317]},"properties":{"site":"KPBZ","name":"Pittsburgh PA","scan_time":"2026-09-09T06:56:54Z","stale":false,"bins":25,"density_birds_km3":4.110714285714286,"heading_deg":57.779756317966296,"speed_ms":11.15020692053556,"peak_altitude_m":400.0,"u_ms":9.47810119979134,"v_ms":5.5903199443575025}},{"type":"Feature","geometry":{"type":"Point","coordinates":[-78.4899,35.6655]},"properties":{"site":"KRAX","name":"Raleigh NC","scan_time":"2026-09-09T06:56:01Z","stale":false,"bins":25,"density_birds_km3":1.919375,"heading_deg":349.43925243225397,"speed_ms":6.212132855747314,"peak_altitude_m":0.0,"u_ms":-0.7762585477043308,"v_ms":3.1386063171605345}},{"type":"Feature","geometry":{"type":"Point","coordinates":[-82.4017,27.7055]},"properties":{"site":"KTBW","name":"Tampa FL","scan_time":"2026-09-09T07:01:59Z","stale":false,"bins":25,"density_birds_km3":8.553125,"heading_deg":199.10182673005053,"speed_ms":4.382688117001828,"peak_altitude_m":0.0,"u_ms":-1.2987685557586839,"v_ms":-4.036965996343692}}]}