{"type":"FeatureCollection","frame":"2026-08-30T08","site_count":20,"fresh_count":19,"failures":{"KJAX":"RuntimeError(\"vol2bird failed rc=255 on KJAX20260830_080004_V06: Warning: no user configuration file 'options.conf' found. Using default settings ...\\nCan't read file identifier string\\nWarning: load_wsr88d_m31_into_radar: Unexpected end of file.\\nCurrent sweep index: 0\\nLast ray read: 120\\nError: RSL radar object contains no radial velocity volume...\\nError: failed to read radar volume\\n\")"},"features":[{"type":"Feature","geometry":{"type":"Point","coordinates":[-77.0073,36.984]},"properties":{"site":"KAKQ","name":"Wakefield VA","scan_time":"2026-08-30T08:01:22Z","stale":false,"bins":25,"density_birds_km3":13.204374999999999,"heading_deg":225.09357129057517,"speed_ms":7.19485350499361,"peak_altitude_m":0.0,"u_ms":-4.703291996024045,"v_ms":-5.238124201259053}},{"type":"Feature","geometry":{"type":"Point","coordinates":[-71.1369,41.9558]},"properties":{"site":"KBOX","name":"Boston MA","scan_time":"2026-08-30T08:02:36Z","stale":false,"bins":25,"density_birds_km3":1.223125,"heading_deg":64.8863960711071,"speed_ms":7.759294239750907,"peak_altitude_m":0.0,"u_ms":6.712433834976648,"v_ms":3.1670264660093412}},{"type":"Feature","geometry":{"type":"Point","coordinates":[-78.7369,42.9489]},"properties":{"site":"KBUF","name":"Buffalo NY","scan_time":"2026-08-30T07:58:17Z","stale":false,"bins":25,"density_birds_km3":0.4766666666666667,"heading_deg":53.378608254309185,"speed_ms":7.6810769230769225,"peak_altitude_m":200.0,"u_ms":6.021944055944055,"v_ms":4.252013986013986}},{"type":"Feature","geometry":{"type":"Point","coordinates":[-81.8597,41.4131]},"properties":{"site":"KCLE","name":"Cleveland OH","scan_time":"2026-08-30T08:00:02Z","stale":false,"bins":25,"density_birds_km3":1.0833333333333333,"heading_deg":42.66779561863242,"speed_ms":8.705344036697248,"peak_altitude_m":200.0,"u_ms":5.765665137614678,"v_ms":6.2639678899082565}},{"type":"Feature","geometry":{"type":"Point","coordinates":[-81.0423,32.6555]},"properties":{"site":"KCLX","name":"Charleston SC","scan_time":"2026-08-30T07:57:50Z","stale":false,"bins":25,"density_birds_km3":12.021875,"heading_deg":214.43165859752955,"speed_ms":10.324328497894246,"peak_altitude_m":0.0,"u_ms":-5.802563822596579,"v_ms":-8.500437269276764}},{"type":"Feature","geometry":{"type":"Point","coordinates":[-74.4108,39.947]},"properties":{"site":"KDIX","name":"Philadelphia PA","scan_time":"2026-08-30T07:59:30Z","stale":false,"bins":25,"density_birds_km3":5.756875,"heading_deg":146.72943209619388,"speed_ms":2.9593775798392348,"peak_altitude_m":0.0,"u_ms":0.4631316532696067,"v_ms":-1.65432543993048}},{"type":"Feature","geometry":{"type":"Point","coordinates":[-84.5658,33.3636]},"properties":{"site":"KFFC","name":"Atlanta GA","scan_time":"2026-08-30T07:55:49Z","stale":false,"bins":25,"density_birds_km3":15.702666666666666,"heading_deg":244.05079095571182,"speed_ms":6.09792052305341,"peak_altitude_m":200.0,"u_ms":-5.4207913730151995,"v_ms":-2.6198840961195557}},{"type":"Feature","geometry":{"type":"Point","coordinates":[-85.5449,42.8939]},"properties":{"site":"KGRR","name":"Grand Rapids MI","scan_time":"2026-08-30T07:58:55Z","stale":false,"bins":25,"density_birds_km3":0.38199999999999995,"heading_deg":2.307533988898622,"speed_ms":9.374990925589836,"peak_altitude_m":200.0,"u_ms":0.5897822141560799,"v_ms":9.1405444646098}},{"type":"Feature","geometry":{"type":"Point","coordinates":[-83.8217,39.4203]},"properties":{"site":"KILN","name":"Wilmington OH","scan_time":"2026-08-30T08:00:58Z","stale":false,"bins":25,"density_birds_km3":1.016,"heading_deg":10.086318380289795,"speed_ms":7.3095,"peak_altitude_m":200.0,"u_ms":1.2880066666666667,"v_ms":5.999359999999999}},{"type":"Feature","geometry":{"type":"Point","coordinates":[-88.0847,41.6045]},"properties":{"site":"KLOT","name":"Chicago IL","scan_time":"2026-08-30T08:00:51Z","stale":false,"bins":25,"density_birds_km3":1.3926666666666667,"heading_deg":41.7001959868731,"speed_ms":16.834805447470817,"peak_altitude_m":600.0,"u_ms":11.210719844357978,"v_ms":12.246439688715954}},{"type":"Feature","geometry":{"type":"Point","coordinates":[-78.4292,33.9892]},"properties":{"site":"KLTX","name":"Wilmington NC","scan_time":"2026-08-30T07:58:35Z","stale":false,"bins":25,"density_birds_km3":20.103125,"heading_deg":229.75894729795633,"speed_ms":8.537925695631898,"peak_altitude_m":0.0,"u_ms":-6.503300792787192,"v_ms":-5.503883413648376}},{"type":"Feature","geometry":{"type":"Point","coordinates":[-77.4778,38.9753]},"properties":{"site":"KLWX","name":"Sterling VA","scan_time":"2026-08-30T08:02:35Z","stale":false,"bins":25,"density_birds_km3":5.601875,"heading_deg":318.41461135822635,"speed_ms":4.721689967565149,"peak_altitude_m":200.0,"u_ms":-2.376966782239123,"v_ms":3.325605636953361}},{"type":"Feature","geometry":{"type":"Point","coordinates":[-76.8762,34.7759]},"properties":{"site":"KMHX","name":"Morehead City NC","scan_time":"2026-08-30T07:59:03Z","stale":false,"bins":25,"density_birds_km3":5.035,"heading_deg":235.54881830111114,"speed_ms":4.258373277039612,"peak_altitude_m":0.0,"u_ms":-3.353632186762697,"v_ms":-2.4777933689308336}},{"type":"Feature","geometry":{"type":"Point","coordinates":[-80.6542,28.1133]},"properties":{"site":"KMLB","name":"Melbourne FL","scan_time":"2026-08-30T08:01:56Z","stale":false,"bins":25,"density_birds_km3":1.9175,"heading_deg":226.78949342844328,"speed_ms":4.568966753585397,"peak_altitude_m":0.0,"u_ms":-3.2343024771838333,"v_ms":-2.959608865710561}},{"type":"Feature","geometry":{"type":"Point","coordinates":[-86.5625,36.2472]},"properties":{"site":"KOHX","name":"Nashville TN","scan_time":"2026-08-30T08:00:56Z","stale":false,"bins":25,"density_birds_km3":8.754666666666667,"heading_deg":15.806216861710237,"speed_ms":5.729744136460555,"peak_altitude_m":200.0,"u_ms":1.9508300335059396,"v_ms":5.152578434358818}},{"type":"Feature","geometry":{"type":"Point","coordinates":[-72.8639,40.8655]},"properties":{"site":"KOKX","name":"Upton NY","scan_time":"2026-08-30T08:01:59Z","stale":false,"bins":25,"density_birds_km3":1.7425,"heading_deg":55.200316502990326,"speed_ms":4.611404839292163,"peak_altitude_m":0.0,"u_ms":2.60614301191766,"v_ms":1.7663199711087036}},{"type":"Feature","geometry":{"type":"Point","coordinates":[-80.2183,40.5317]},"properties":{"site":"KPBZ","name":"Pittsburgh PA","scan_time":"2026-08-30T08:01:44Z","stale":false,"bins":25,"density_birds_km3":1.3628571428571428,"heading_deg":77.93567290059848,"speed_ms":4.4277672955974845,"peak_altitude_m":600.0,"u_ms":4.298464360587003,"v_ms":0.612856394129979}},{"type":"Feature","geometry":{"type":"Point","coordinates":[-78.4899,35.6655]},"properties":{"site":"KRAX","name":"Raleigh NC","scan_time":"2026-08-30T08:00:08Z","stale":false,"bins":25,"density_birds_km3":17.755,"heading_deg":214.13788491161117,"speed_ms":5.696396284376828,"peak_altitude_m":200.0,"u_ms":-3.1823303101228793,"v_ms":-4.6919232738443535}},{"type":"Feature","geometry":{"type":"Point","coordinates":[-82.4017,27.7055]},"properties":{"site":"KTBW","name":"Tampa FL","scan_time":"2026-08-30T08:01:58Z","stale":false,"bins":25,"density_birds_km3":3.92875,"heading_deg":256.0530189564089,"speed_ms":3.8625879356995068,"peak_altitude_m":0.0,"u_ms":-3.346326595575362,"v_ms":-0.546813624064937}}]}