{"type":"FeatureCollection","frame":"2026-09-22T06","site_count":20,"fresh_count":20,"failures":{},"features":[{"type":"Feature","geometry":{"type":"Point","coordinates":[-77.0073,36.984]},"properties":{"site":"KAKQ","name":"Wakefield VA","scan_time":"2026-09-22T06:00:37Z","stale":false,"bins":25,"density_birds_km3":8.032499999999999,"heading_deg":215.4353110217865,"speed_ms":6.717756150731859,"peak_altitude_m":0.0,"u_ms":-3.2610448458424166,"v_ms":-4.661957334163812}},{"type":"Feature","geometry":{"type":"Point","coordinates":[-71.1369,41.9558]},"properties":{"site":"KBOX","name":"Boston MA","scan_time":"2026-09-22T06:03:08Z","stale":false,"bins":25,"density_birds_km3":16.5575,"heading_deg":170.31909009538688,"speed_ms":12.754369998490109,"peak_altitude_m":200.0,"u_ms":2.1667722331269816,"v_ms":-12.330234787860487}},{"type":"Feature","geometry":{"type":"Point","coordinates":[-78.7369,42.9489]},"properties":{"site":"KBUF","name":"Buffalo NY","scan_time":"2026-09-22T05:57:23Z","stale":false,"bins":25,"density_birds_km3":19.538,"heading_deg":239.26157072376483,"speed_ms":17.47090046746511,"peak_altitude_m":600.0,"u_ms":-15.04211280581431,"v_ms":-8.541224963319342}},{"type":"Feature","geometry":{"type":"Point","coordinates":[-81.8597,41.4131]},"properties":{"site":"KCLE","name":"Cleveland OH","scan_time":"2026-09-22T05:58:16Z","stale":false,"bins":25,"density_birds_km3":17.738,"heading_deg":230.30114406091195,"speed_ms":13.717059575267806,"peak_altitude_m":400.0,"u_ms":-10.67792557789889,"v_ms":-7.829444089456868}},{"type":"Feature","geometry":{"type":"Point","coordinates":[-81.0423,32.6555]},"properties":{"site":"KCLX","name":"Charleston SC","scan_time":"2026-09-22T05:59:30Z","stale":false,"bins":25,"density_birds_km3":6.741875,"heading_deg":224.96977382588514,"speed_ms":4.025900621118012,"peak_altitude_m":0.0,"u_ms":-2.3818401779920273,"v_ms":-2.6496681190321683}},{"type":"Feature","geometry":{"type":"Point","coordinates":[-74.4108,39.947]},"properties":{"site":"KDIX","name":"Philadelphia PA","scan_time":"2026-09-22T06:01:08Z","stale":false,"bins":25,"density_birds_km3":18.48875,"heading_deg":230.55238033924974,"speed_ms":10.077249939157944,"peak_altitude_m":0.0,"u_ms":-7.756298369432953,"v_ms":-6.342292528595765}},{"type":"Feature","geometry":{"type":"Point","coordinates":[-84.5658,33.3636]},"properties":{"site":"KFFC","name":"Atlanta GA","scan_time":"2026-09-22T05:59:44Z","stale":false,"bins":25,"density_birds_km3":48.04933333333334,"heading_deg":228.12257996118478,"speed_ms":5.309491217359936,"peak_altitude_m":400.0,"u_ms":-2.630947359658129,"v_ms":-4.069689624552543}},{"type":"Feature","geometry":{"type":"Point","coordinates":[-85.5449,42.8939]},"properties":{"site":"KGRR","name":"Grand Rapids MI","scan_time":"2026-09-22T05:57:58Z","stale":false,"bins":25,"density_birds_km3":14.467333333333334,"heading_deg":209.96938565538133,"speed_ms":11.455851343256072,"peak_altitude_m":200.0,"u_ms":-6.087806552693424,"v_ms":-8.76396940233169}},{"type":"Feature","geometry":{"type":"Point","coordinates":[-83.8217,39.4203]},"properties":{"site":"KILN","name":"Wilmington OH","scan_time":"2026-09-22T05:59:41Z","stale":false,"bins":25,"density_birds_km3":67.25866666666667,"heading_deg":181.94432177612606,"speed_ms":10.118015086335072,"peak_altitude_m":200.0,"u_ms":-0.4135255635073251,"v_ms":-9.895655492337886}},{"type":"Feature","geometry":{"type":"Point","coordinates":[-81.7019,30.4846]},"properties":{"site":"KJAX","name":"Jacksonville FL","scan_time":"2026-09-22T06:01:33Z","stale":false,"bins":25,"density_birds_km3":20.186875,"heading_deg":170.29467504130557,"speed_ms":5.381745618923772,"peak_altitude_m":0.0,"u_ms":0.9136383057774476,"v_ms":-5.301057341011828}},{"type":"Feature","geometry":{"type":"Point","coordinates":[-88.0847,41.6045]},"properties":{"site":"KLOT","name":"Chicago IL","scan_time":"2026-09-22T05:59:56Z","stale":false,"bins":25,"density_birds_km3":31.108,"heading_deg":255.23667952693853,"speed_ms":11.049220136299345,"peak_altitude_m":600.0,"u_ms":-10.50040418327547,"v_ms":-2.1645797436886545}},{"type":"Feature","geometry":{"type":"Point","coordinates":[-78.4292,33.9892]},"properties":{"site":"KLTX","name":"Wilmington NC","scan_time":"2026-09-22T05:59:47Z","stale":false,"bins":25,"density_birds_km3":6.876875,"heading_deg":226.12415887943573,"speed_ms":5.602794946373387,"peak_altitude_m":0.0,"u_ms":-3.9719823668423926,"v_ms":-3.919394655517179}},{"type":"Feature","geometry":{"type":"Point","coordinates":[-77.4778,38.9753]},"properties":{"site":"KLWX","name":"Sterling VA","scan_time":"2026-09-22T06:00:37Z","stale":false,"bins":25,"density_birds_km3":10.441538461538462,"heading_deg":257.9946145692908,"speed_ms":7.745722796762589,"peak_altitude_m":200.0,"u_ms":-7.5207947392086325,"v_ms":-1.5339163669064746}},{"type":"Feature","geometry":{"type":"Point","coordinates":[-76.8762,34.7759]},"properties":{"site":"KMHX","name":"Morehead City NC","scan_time":"2026-09-22T05:57:58Z","stale":false,"bins":25,"density_birds_km3":2.424375,"heading_deg":241.5374758881768,"speed_ms":4.568808971384377,"peak_altitude_m":0.0,"u_ms":-3.8402320185614847,"v_ms":-2.277976282547048}},{"type":"Feature","geometry":{"type":"Point","coordinates":[-80.6542,28.1133]},"properties":{"site":"KMLB","name":"Melbourne FL","scan_time":"2026-09-22T06:01:37Z","stale":false,"bins":25,"density_birds_km3":3.281875,"heading_deg":347.11925215659664,"speed_ms":4.998276518758332,"peak_altitude_m":0.0,"u_ms":-0.9466215958864977,"v_ms":4.495159017330033}},{"type":"Feature","geometry":{"type":"Point","coordinates":[-86.5625,36.2472]},"properties":{"site":"KOHX","name":"Nashville TN","scan_time":"2026-09-22T06:00:26Z","stale":false,"bins":25,"density_birds_km3":194.51666666666668,"heading_deg":201.5842855614659,"speed_ms":9.00065807557193,"peak_altitude_m":400.0,"u_ms":-3.1207799503041724,"v_ms":-7.630432764973009}},{"type":"Feature","geometry":{"type":"Point","coordinates":[-72.8639,40.8655]},"properties":{"site":"KOKX","name":"Upton NY","scan_time":"2026-09-22T06:00:40Z","stale":false,"bins":25,"density_birds_km3":12.308,"heading_deg":243.6635253152159,"speed_ms":13.393861153367444,"peak_altitude_m":0.0,"u_ms":-11.929507675286958,"v_ms":-5.860377541142303}},{"type":"Feature","geometry":{"type":"Point","coordinates":[-80.2183,40.5317]},"properties":{"site":"KPBZ","name":"Pittsburgh PA","scan_time":"2026-09-22T06:01:20Z","stale":false,"bins":25,"density_birds_km3":2.9385714285714286,"heading_deg":267.2677642790865,"speed_ms":9.389082278481014,"peak_altitude_m":400.0,"u_ms":-8.217972249269717,"v_ms":-0.006628529698150188}},{"type":"Feature","geometry":{"type":"Point","coordinates":[-78.4899,35.6655]},"properties":{"site":"KRAX","name":"Raleigh NC","scan_time":"2026-09-22T05:57:34Z","stale":false,"bins":25,"density_birds_km3":55.745,"heading_deg":193.9120956152652,"speed_ms":5.249846174544802,"peak_altitude_m":200.0,"u_ms":-0.6838918288635751,"v_ms":-4.942999596376357}},{"type":"Feature","geometry":{"type":"Point","coordinates":[-82.4017,27.7055]},"properties":{"site":"KTBW","name":"Tampa FL","scan_time":"2026-09-22T06:00:57Z","stale":false,"bins":25,"density_birds_km3":13.300625,"heading_deg":228.11878767551744,"speed_ms":4.191205413788243,"peak_altitude_m":0.0,"u_ms":-2.3823939094882283,"v_ms":-2.5803017059072326}}]}