{"type":"FeatureCollection","frame":"2026-09-09T04","site_count":20,"fresh_count":20,"failures":{},"features":[{"type":"Feature","geometry":{"type":"Point","coordinates":[-77.0073,36.984]},"properties":{"site":"KAKQ","name":"Wakefield VA","scan_time":"2026-09-09T04:01:32Z","stale":false,"bins":25,"density_birds_km3":2.159375,"heading_deg":357.786405728094,"speed_ms":8.179374638100754,"peak_altitude_m":0.0,"u_ms":-0.181702374059062,"v_ms":3.6466126230457445}},{"type":"Feature","geometry":{"type":"Point","coordinates":[-71.1369,41.9558]},"properties":{"site":"KBOX","name":"Boston MA","scan_time":"2026-09-09T04:03:34Z","stale":false,"bins":25,"density_birds_km3":3.3981250000000003,"heading_deg":277.6733584460653,"speed_ms":4.4257527178920215,"peak_altitude_m":0.0,"u_ms":-1.141094527363184,"v_ms":-0.3598968122351205}},{"type":"Feature","geometry":{"type":"Point","coordinates":[-78.7369,42.9489]},"properties":{"site":"KBUF","name":"Buffalo NY","scan_time":"2026-09-09T04:00:37Z","stale":false,"bins":25,"density_birds_km3":2.868666666666667,"heading_deg":22.789120439247245,"speed_ms":6.722219381826632,"peak_altitude_m":200.0,"u_ms":2.6237206600046474,"v_ms":5.912203114106437}},{"type":"Feature","geometry":{"type":"Point","coordinates":[-81.8597,41.4131]},"properties":{"site":"KCLE","name":"Cleveland OH","scan_time":"2026-09-09T03:58:54Z","stale":false,"bins":25,"density_birds_km3":2.2133333333333334,"heading_deg":30.598646935016788,"speed_ms":10.085415662650602,"peak_altitude_m":200.0,"u_ms":5.126813253012048,"v_ms":7.844855421686745}},{"type":"Feature","geometry":{"type":"Point","coordinates":[-81.0423,32.6555]},"properties":{"site":"KCLX","name":"Charleston SC","scan_time":"2026-09-09T03:58:44Z","stale":false,"bins":25,"density_birds_km3":4.505625,"heading_deg":234.67425752496325,"speed_ms":10.652111941350629,"peak_altitude_m":0.0,"u_ms":-8.600172000563937,"v_ms":-5.916316086282251}},{"type":"Feature","geometry":{"type":"Point","coordinates":[-74.4108,39.947]},"properties":{"site":"KDIX","name":"Philadelphia PA","scan_time":"2026-09-09T04:02:07Z","stale":false,"bins":25,"density_birds_km3":4.57625,"heading_deg":113.76032104161325,"speed_ms":5.588079026524473,"peak_altitude_m":0.0,"u_ms":1.9474952146568223,"v_ms":-0.3475553732567679}},{"type":"Feature","geometry":{"type":"Point","coordinates":[-84.5658,33.3636]},"properties":{"site":"KFFC","name":"Atlanta GA","scan_time":"2026-09-09T04:00:15Z","stale":false,"bins":25,"density_birds_km3":26.483999999999998,"heading_deg":267.29565771453656,"speed_ms":10.262723153602176,"peak_altitude_m":200.0,"u_ms":-9.406655339072648,"v_ms":-0.09005386900266828}},{"type":"Feature","geometry":{"type":"Point","coordinates":[-85.5449,42.8939]},"properties":{"site":"KGRR","name":"Grand Rapids MI","scan_time":"2026-09-09T03:58:10Z","stale":false,"bins":25,"density_birds_km3":3.3606666666666665,"heading_deg":22.527412136118706,"speed_ms":10.825148415563579,"peak_altitude_m":200.0,"u_ms":4.621466105094264,"v_ms":9.336251504211793}},{"type":"Feature","geometry":{"type":"Point","coordinates":[-83.8217,39.4203]},"properties":{"site":"KILN","name":"Wilmington OH","scan_time":"2026-09-09T03:59:27Z","stale":false,"bins":25,"density_birds_km3":4.458666666666667,"heading_deg":61.20311702521463,"speed_ms":11.376030203349282,"peak_altitude_m":200.0,"u_ms":9.1584375,"v_ms":4.454884868421053}},{"type":"Feature","geometry":{"type":"Point","coordinates":[-81.7019,30.4846]},"properties":{"site":"KJAX","name":"Jacksonville FL","scan_time":"2026-09-09T04:02:16Z","stale":false,"bins":25,"density_birds_km3":29.57875,"heading_deg":188.88996979108094,"speed_ms":9.721445989350013,"peak_altitude_m":0.0,"u_ms":-1.498242752091962,"v_ms":-9.527114994505958}},{"type":"Feature","geometry":{"type":"Point","coordinates":[-88.0847,41.6045]},"properties":{"site":"KLOT","name":"Chicago IL","scan_time":"2026-09-09T03:59:19Z","stale":false,"bins":25,"density_birds_km3":2.3040000000000003,"heading_deg":40.98425943982383,"speed_ms":13.364340577552843,"peak_altitude_m":400.0,"u_ms":8.71962488835963,"v_ms":9.596674605537363}},{"type":"Feature","geometry":{"type":"Point","coordinates":[-78.4292,33.9892]},"properties":{"site":"KLTX","name":"Wilmington NC","scan_time":"2026-09-09T03:58:14Z","stale":false,"bins":25,"density_birds_km3":6.225625,"heading_deg":236.8599965640575,"speed_ms":9.48830037144865,"peak_altitude_m":0.0,"u_ms":-7.878601546029516,"v_ms":-5.045748418833451}},{"type":"Feature","geometry":{"type":"Point","coordinates":[-77.4778,38.9753]},"properties":{"site":"KLWX","name":"Sterling VA","scan_time":"2026-09-09T04:01:47Z","stale":false,"bins":25,"density_birds_km3":5.75375,"heading_deg":23.594781348523053,"speed_ms":7.661508759797141,"peak_altitude_m":0.0,"u_ms":2.800477178423236,"v_ms":5.776309359151683}},{"type":"Feature","geometry":{"type":"Point","coordinates":[-76.8762,34.7759]},"properties":{"site":"KMHX","name":"Morehead City NC","scan_time":"2026-09-09T04:02:06Z","stale":false,"bins":25,"density_birds_km3":2.5925,"heading_deg":246.57200290636644,"speed_ms":5.809966666666666,"peak_altitude_m":0.0,"u_ms":-4.877889743589743,"v_ms":-2.4916871794871795}},{"type":"Feature","geometry":{"type":"Point","coordinates":[-80.6542,28.1133]},"properties":{"site":"KMLB","name":"Melbourne FL","scan_time":"2026-09-09T03:57:51Z","stale":false,"bins":25,"density_birds_km3":8.7525,"heading_deg":192.7727573447128,"speed_ms":3.69462225078549,"peak_altitude_m":0.0,"u_ms":-0.22678306198229076,"v_ms":-3.102581405312768}},{"type":"Feature","geometry":{"type":"Point","coordinates":[-86.5625,36.2472]},"properties":{"site":"KOHX","name":"Nashville TN","scan_time":"2026-09-09T04:01:22Z","stale":false,"bins":25,"density_birds_km3":10.346666666666666,"heading_deg":22.47282844037056,"speed_ms":9.476649484536082,"peak_altitude_m":200.0,"u_ms":3.44348324742268,"v_ms":8.712757731958764}},{"type":"Feature","geometry":{"type":"Point","coordinates":[-72.8639,40.8655]},"properties":{"site":"KOKX","name":"Upton NY","scan_time":"2026-09-09T03:57:21Z","stale":false,"bins":25,"density_birds_km3":3.00375,"heading_deg":89.02100136596873,"speed_ms":5.872303370786516,"peak_altitude_m":0.0,"u_ms":1.2468705784436118,"v_ms":0.16695588847274218}},{"type":"Feature","geometry":{"type":"Point","coordinates":[-80.2183,40.5317]},"properties":{"site":"KPBZ","name":"Pittsburgh PA","scan_time":"2026-09-09T03:59:51Z","stale":false,"bins":25,"density_birds_km3":9.490714285714287,"heading_deg":35.25687828945117,"speed_ms":8.881004436964504,"peak_altitude_m":400.0,"u_ms":5.0024831701346395,"v_ms":7.209781211750306}},{"type":"Feature","geometry":{"type":"Point","coordinates":[-78.4899,35.6655]},"properties":{"site":"KRAX","name":"Raleigh NC","scan_time":"2026-09-09T03:59:53Z","stale":false,"bins":25,"density_birds_km3":7.1125,"heading_deg":294.0008326360393,"speed_ms":7.185811950790861,"peak_altitude_m":200.0,"u_ms":-3.520468365553603,"v_ms":0.9777794376098422}},{"type":"Feature","geometry":{"type":"Point","coordinates":[-82.4017,27.7055]},"properties":{"site":"KTBW","name":"Tampa FL","scan_time":"2026-09-09T04:01:13Z","stale":false,"bins":25,"density_birds_km3":19.394375,"heading_deg":210.74273079227143,"speed_ms":7.309733492314138,"peak_altitude_m":200.0,"u_ms":-3.715730398633624,"v_ms":-6.291636750346428}}]}