{"type":"FeatureCollection","frame":"2026-08-26T01","site_count":20,"fresh_count":20,"failures":{},"features":[{"type":"Feature","geometry":{"type":"Point","coordinates":[-77.0073,36.984]},"properties":{"site":"KAKQ","name":"Wakefield VA","scan_time":"2026-08-26T00:58:40Z","stale":false,"bins":25,"density_birds_km3":17.728125,"heading_deg":207.37973993346617,"speed_ms":4.051479300373792,"peak_altitude_m":200.0,"u_ms":-1.6319715776853092,"v_ms":-2.7942100994428385}},{"type":"Feature","geometry":{"type":"Point","coordinates":[-71.1369,41.9558]},"properties":{"site":"KBOX","name":"Boston MA","scan_time":"2026-08-26T00:57:21Z","stale":false,"bins":25,"density_birds_km3":6.774285714285715,"heading_deg":139.73240575071623,"speed_ms":8.113506355932204,"peak_altitude_m":0.0,"u_ms":4.413343220338984,"v_ms":-5.756060381355932}},{"type":"Feature","geometry":{"type":"Point","coordinates":[-78.7369,42.9489]},"properties":{"site":"KBUF","name":"Buffalo NY","scan_time":"2026-08-26T01:01:14Z","stale":false,"bins":25,"density_birds_km3":16.681333333333335,"heading_deg":155.43859082925343,"speed_ms":6.880784909279834,"peak_altitude_m":1000.0,"u_ms":1.3712656861961472,"v_ms":-5.5742598513308295}},{"type":"Feature","geometry":{"type":"Point","coordinates":[-81.8597,41.4131]},"properties":{"site":"KCLE","name":"Cleveland OH","scan_time":"2026-08-26T01:00:44Z","stale":false,"bins":25,"density_birds_km3":11.578,"heading_deg":229.7703531537066,"speed_ms":3.484573107500865,"peak_altitude_m":200.0,"u_ms":-2.0926011061182166,"v_ms":-1.784788570111764}},{"type":"Feature","geometry":{"type":"Point","coordinates":[-81.0423,32.6555]},"properties":{"site":"KCLX","name":"Charleston SC","scan_time":"2026-08-26T01:02:29Z","stale":false,"bins":25,"density_birds_km3":10.570625,"heading_deg":274.42301384208633,"speed_ms":4.0508,"peak_altitude_m":0.0,"u_ms":-3.9829539452495974,"v_ms":0.5064070853462158}},{"type":"Feature","geometry":{"type":"Point","coordinates":[-74.4108,39.947]},"properties":{"site":"KDIX","name":"Philadelphia PA","scan_time":"2026-08-26T01:03:03Z","stale":false,"bins":25,"density_birds_km3":3.562857142857143,"heading_deg":147.54592159796235,"speed_ms":6.736681766704417,"peak_altitude_m":200.0,"u_ms":2.4644733861834656,"v_ms":-5.084484711211778}},{"type":"Feature","geometry":{"type":"Point","coordinates":[-84.5658,33.3636]},"properties":{"site":"KFFC","name":"Atlanta GA","scan_time":"2026-08-26T01:01:36Z","stale":false,"bins":25,"density_birds_km3":18.679333333333332,"heading_deg":206.16494806731723,"speed_ms":6.367845516847515,"peak_altitude_m":600.0,"u_ms":-2.3760347658480865,"v_ms":-5.688441604797259}},{"type":"Feature","geometry":{"type":"Point","coordinates":[-85.5449,42.8939]},"properties":{"site":"KGRR","name":"Grand Rapids MI","scan_time":"2026-08-26T01:01:01Z","stale":false,"bins":25,"density_birds_km3":0.7393333333333333,"heading_deg":94.83784641111544,"speed_ms":3.7300541027953114,"peak_altitude_m":200.0,"u_ms":3.6471956717763754,"v_ms":-0.3504959422903517}},{"type":"Feature","geometry":{"type":"Point","coordinates":[-83.8217,39.4203]},"properties":{"site":"KILN","name":"Wilmington OH","scan_time":"2026-08-26T00:58:41Z","stale":false,"bins":25,"density_birds_km3":3.0559999999999996,"heading_deg":330.27280894110004,"speed_ms":3.054133566128328,"peak_altitude_m":200.0,"u_ms":-1.6823046704495854,"v_ms":1.945126582278481}},{"type":"Feature","geometry":{"type":"Point","coordinates":[-81.7019,30.4846]},"properties":{"site":"KJAX","name":"Jacksonville FL","scan_time":"2026-08-26T00:59:29Z","stale":false,"bins":25,"density_birds_km3":53.253750000000004,"heading_deg":156.25376769775136,"speed_ms":5.240017388574258,"peak_altitude_m":200.0,"u_ms":2.0436506345622063,"v_ms":-4.772886503326773}},{"type":"Feature","geometry":{"type":"Point","coordinates":[-88.0847,41.6045]},"properties":{"site":"KLOT","name":"Chicago IL","scan_time":"2026-08-26T00:57:51Z","stale":false,"bins":25,"density_birds_km3":0.9873333333333333,"heading_deg":9.045267438491349,"speed_ms":5.1062930452397035,"peak_altitude_m":200.0,"u_ms":0.807879810938555,"v_ms":5.014436191762322}},{"type":"Feature","geometry":{"type":"Point","coordinates":[-78.4292,33.9892]},"properties":{"site":"KLTX","name":"Wilmington NC","scan_time":"2026-08-26T00:58:39Z","stale":false,"bins":25,"density_birds_km3":25.633125,"heading_deg":229.23672897629703,"speed_ms":7.374523043160205,"peak_altitude_m":400.0,"u_ms":-4.853226042428676,"v_ms":-4.734635698610095}},{"type":"Feature","geometry":{"type":"Point","coordinates":[-77.4778,38.9753]},"properties":{"site":"KLWX","name":"Sterling VA","scan_time":"2026-08-26T01:01:21Z","stale":false,"bins":25,"density_birds_km3":11.049333333333333,"heading_deg":211.00424957373207,"speed_ms":2.7406368597296296,"peak_altitude_m":400.0,"u_ms":-0.5909004092769441,"v_ms":-1.9816364876596801}},{"type":"Feature","geometry":{"type":"Point","coordinates":[-76.8762,34.7759]},"properties":{"site":"KMHX","name":"Morehead City NC","scan_time":"2026-08-26T00:59:43Z","stale":false,"bins":25,"density_birds_km3":14.25375,"heading_deg":224.24094792546325,"speed_ms":5.7402223196667395,"peak_altitude_m":200.0,"u_ms":-1.357398816049112,"v_ms":-3.517479500109625}},{"type":"Feature","geometry":{"type":"Point","coordinates":[-80.6542,28.1133]},"properties":{"site":"KMLB","name":"Melbourne FL","scan_time":"2026-08-26T00:59:17Z","stale":false,"bins":25,"density_birds_km3":8.87,"heading_deg":201.5108282530831,"speed_ms":3.6632610231769362,"peak_altitude_m":200.0,"u_ms":-1.2178476540418315,"v_ms":-2.9870470604861503}},{"type":"Feature","geometry":{"type":"Point","coordinates":[-86.5625,36.2472]},"properties":{"site":"KOHX","name":"Nashville TN","scan_time":"2026-08-26T00:58:22Z","stale":false,"bins":25,"density_birds_km3":12.043333333333333,"heading_deg":214.3336845603096,"speed_ms":4.092961302109283,"peak_altitude_m":200.0,"u_ms":-2.2621408403919614,"v_ms":-3.310856446880363}},{"type":"Feature","geometry":{"type":"Point","coordinates":[-72.8639,40.8655]},"properties":{"site":"KOKX","name":"Upton NY","scan_time":"2026-08-26T01:00:01Z","stale":false,"bins":25,"density_birds_km3":7.246666666666667,"heading_deg":139.6421231780121,"speed_ms":7.535850964891885,"peak_altitude_m":0.0,"u_ms":2.7209172285515,"v_ms":-5.0384852359916295}},{"type":"Feature","geometry":{"type":"Point","coordinates":[-80.2183,40.5317]},"properties":{"site":"KPBZ","name":"Pittsburgh PA","scan_time":"2026-08-26T00:58:42Z","stale":false,"bins":25,"density_birds_km3":14.535000000000002,"heading_deg":194.57033766473387,"speed_ms":4.729580459770115,"peak_altitude_m":600.0,"u_ms":-1.2144258620689656,"v_ms":-4.526022988505747}},{"type":"Feature","geometry":{"type":"Point","coordinates":[-78.4899,35.6655]},"properties":{"site":"KRAX","name":"Raleigh NC","scan_time":"2026-08-26T00:58:25Z","stale":false,"bins":25,"density_birds_km3":22.753125,"heading_deg":235.66072449390032,"speed_ms":2.8819025758033923,"peak_altitude_m":200.0,"u_ms":-2.2708870989911207,"v_ms":-1.4677015696731452}},{"type":"Feature","geometry":{"type":"Point","coordinates":[-82.4017,27.7055]},"properties":{"site":"KTBW","name":"Tampa FL","scan_time":"2026-08-26T00:58:46Z","stale":false,"bins":25,"density_birds_km3":14.75875,"heading_deg":130.32920120755165,"speed_ms":6.822003642215822,"peak_altitude_m":0.0,"u_ms":4.697725309164832,"v_ms":-4.191996866000339}}]}