{"type":"FeatureCollection","frame":"2026-09-08T07","site_count":20,"fresh_count":19,"failures":{"KOKX":"RuntimeError('no scan within 20 min of 2026-09-08T07:00Z')"},"features":[{"type":"Feature","geometry":{"type":"Point","coordinates":[-77.0073,36.984]},"properties":{"site":"KAKQ","name":"Wakefield VA","scan_time":"2026-09-08T06:57:47Z","stale":false,"bins":25,"density_birds_km3":3.249375,"heading_deg":238.51613220192286,"speed_ms":8.056270925533962,"peak_altitude_m":0.0,"u_ms":-3.270773523186454,"v_ms":-4.401046757744853}},{"type":"Feature","geometry":{"type":"Point","coordinates":[-71.1369,41.9558]},"properties":{"site":"KBOX","name":"Boston MA","scan_time":"2026-09-08T06:59:07Z","stale":false,"bins":25,"density_birds_km3":0.81375,"heading_deg":141.27238214398372,"speed_ms":9.238069230769232,"peak_altitude_m":0.0,"u_ms":5.6877,"v_ms":-6.9636000000000005}},{"type":"Feature","geometry":{"type":"Point","coordinates":[-78.7369,42.9489]},"properties":{"site":"KBUF","name":"Buffalo NY","scan_time":"2026-09-08T07:03:38Z","stale":false,"bins":25,"density_birds_km3":5.885999999999999,"heading_deg":173.9218404189471,"speed_ms":5.9608019028202515,"peak_altitude_m":400.0,"u_ms":0.627689432551818,"v_ms":-5.741197191074868}},{"type":"Feature","geometry":{"type":"Point","coordinates":[-81.8597,41.4131]},"properties":{"site":"KCLE","name":"Cleveland OH","scan_time":"2026-09-08T06:57:03Z","stale":false,"bins":25,"density_birds_km3":4.6080000000000005,"heading_deg":285.6535296166152,"speed_ms":7.080778356481481,"peak_altitude_m":200.0,"u_ms":-6.4367824074074065,"v_ms":1.5634635416666665}},{"type":"Feature","geometry":{"type":"Point","coordinates":[-81.0423,32.6555]},"properties":{"site":"KCLX","name":"Charleston SC","scan_time":"2026-09-08T07:00:10Z","stale":false,"bins":25,"density_birds_km3":11.31125,"heading_deg":223.6653778262395,"speed_ms":15.23849792760431,"peak_altitude_m":0.0,"u_ms":-10.507738601823709,"v_ms":-10.83163360044211}},{"type":"Feature","geometry":{"type":"Point","coordinates":[-74.4108,39.947]},"properties":{"site":"KDIX","name":"Philadelphia PA","scan_time":"2026-09-08T06:58:27Z","stale":false,"bins":25,"density_birds_km3":12.765,"heading_deg":166.89200592012293,"speed_ms":5.339316000783391,"peak_altitude_m":200.0,"u_ms":0.17795142969056021,"v_ms":-4.256290148844496}},{"type":"Feature","geometry":{"type":"Point","coordinates":[-84.5658,33.3636]},"properties":{"site":"KFFC","name":"Atlanta GA","scan_time":"2026-09-08T06:59:25Z","stale":false,"bins":25,"density_birds_km3":16.727333333333334,"heading_deg":262.7867306175104,"speed_ms":8.290034729152529,"peak_altitude_m":400.0,"u_ms":-7.505774220589997,"v_ms":-0.46429763282902903}},{"type":"Feature","geometry":{"type":"Point","coordinates":[-85.5449,42.8939]},"properties":{"site":"KGRR","name":"Grand Rapids MI","scan_time":"2026-09-08T07:01:15Z","stale":false,"bins":25,"density_birds_km3":5.057333333333333,"heading_deg":346.3376769498771,"speed_ms":8.002629844450302,"peak_altitude_m":200.0,"u_ms":-1.987894806221988,"v_ms":7.711620089638809}},{"type":"Feature","geometry":{"type":"Point","coordinates":[-83.8217,39.4203]},"properties":{"site":"KILN","name":"Wilmington OH","scan_time":"2026-09-08T07:03:15Z","stale":false,"bins":25,"density_birds_km3":4.924,"heading_deg":257.68450575066055,"speed_ms":8.223425490738181,"peak_altitude_m":200.0,"u_ms":-5.331971246889687,"v_ms":-1.378082665192148}},{"type":"Feature","geometry":{"type":"Point","coordinates":[-81.7019,30.4846]},"properties":{"site":"KJAX","name":"Jacksonville FL","scan_time":"2026-09-08T07:00:06Z","stale":false,"bins":25,"density_birds_km3":79.481875,"heading_deg":195.56602739968613,"speed_ms":11.227742452956301,"peak_altitude_m":0.0,"u_ms":-3.0660061021160816,"v_ms":-10.687761089573717}},{"type":"Feature","geometry":{"type":"Point","coordinates":[-88.0847,41.6045]},"properties":{"site":"KLOT","name":"Chicago IL","scan_time":"2026-09-08T06:57:24Z","stale":false,"bins":25,"density_birds_km3":2.016,"heading_deg":317.51144483551485,"speed_ms":11.617619047619048,"peak_altitude_m":200.0,"u_ms":-7.688964947089946,"v_ms":8.152585978835978}},{"type":"Feature","geometry":{"type":"Point","coordinates":[-78.4292,33.9892]},"properties":{"site":"KLTX","name":"Wilmington NC","scan_time":"2026-09-08T07:00:31Z","stale":false,"bins":25,"density_birds_km3":8.093125,"heading_deg":228.12022740957886,"speed_ms":12.755894949181473,"peak_altitude_m":0.0,"u_ms":-9.47826130809217,"v_ms":-8.36523857552952}},{"type":"Feature","geometry":{"type":"Point","coordinates":[-77.4778,38.9753]},"properties":{"site":"KLWX","name":"Sterling VA","scan_time":"2026-09-08T07:02:56Z","stale":false,"bins":25,"density_birds_km3":14.208124999999999,"heading_deg":254.49989146012933,"speed_ms":4.4073974902792505,"peak_altitude_m":200.0,"u_ms":-3.5361280487804874,"v_ms":-1.2670422410745845}},{"type":"Feature","geometry":{"type":"Point","coordinates":[-76.8762,34.7759]},"properties":{"site":"KMHX","name":"Morehead City NC","scan_time":"2026-09-08T06:59:06Z","stale":false,"bins":25,"density_birds_km3":0.899375,"heading_deg":241.5086830746082,"speed_ms":8.591466296038915,"peak_altitude_m":0.0,"u_ms":-7.425232800555942,"v_ms":-3.8959068797776237}},{"type":"Feature","geometry":{"type":"Point","coordinates":[-80.6542,28.1133]},"properties":{"site":"KMLB","name":"Melbourne FL","scan_time":"2026-09-08T07:01:42Z","stale":false,"bins":25,"density_birds_km3":16.01,"heading_deg":155.4934632078474,"speed_ms":7.018454421237557,"peak_altitude_m":0.0,"u_ms":2.8889568612141328,"v_ms":-6.391123170017568}},{"type":"Feature","geometry":{"type":"Point","coordinates":[-86.5625,36.2472]},"properties":{"site":"KOHX","name":"Nashville TN","scan_time":"2026-09-08T07:01:08Z","stale":false,"bins":25,"density_birds_km3":23.384,"heading_deg":335.8834940405433,"speed_ms":6.063972231725397,"peak_altitude_m":200.0,"u_ms":-0.9028823126924392,"v_ms":5.037613182803056}},{"type":"Feature","geometry":{"type":"Point","coordinates":[-80.2183,40.5317]},"properties":{"site":"KPBZ","name":"Pittsburgh PA","scan_time":"2026-09-08T06:58:23Z","stale":false,"bins":25,"density_birds_km3":9.125714285714285,"heading_deg":264.755381293515,"speed_ms":4.717777082028804,"peak_altitude_m":600.0,"u_ms":-3.16323262366938,"v_ms":-0.41564261114589857}},{"type":"Feature","geometry":{"type":"Point","coordinates":[-78.4899,35.6655]},"properties":{"site":"KRAX","name":"Raleigh NC","scan_time":"2026-09-08T06:56:16Z","stale":false,"bins":25,"density_birds_km3":10.099375,"heading_deg":234.55489999889738,"speed_ms":8.006888655072105,"peak_altitude_m":0.0,"u_ms":-6.154166615089435,"v_ms":-4.580214148666213}},{"type":"Feature","geometry":{"type":"Point","coordinates":[-82.4017,27.7055]},"properties":{"site":"KTBW","name":"Tampa FL","scan_time":"2026-09-08T07:00:59Z","stale":false,"bins":25,"density_birds_km3":39.228125,"heading_deg":175.42058546481798,"speed_ms":7.351384210945591,"peak_altitude_m":0.0,"u_ms":0.7575922886959292,"v_ms":-6.957918585198757}}]}