{"type":"FeatureCollection","frame":"2026-09-16T10","site_count":20,"fresh_count":19,"failures":{"KDIX":"RuntimeError('no scan within 20 min of 2026-09-16T10:00Z')"},"features":[{"type":"Feature","geometry":{"type":"Point","coordinates":[-77.0073,36.984]},"properties":{"site":"KAKQ","name":"Wakefield VA","scan_time":"2026-09-16T09:58:22Z","stale":false,"bins":25,"density_birds_km3":0.4975,"heading_deg":311.062419735076,"speed_ms":4.093236409608091,"peak_altitude_m":200.0,"u_ms":-2.67322376738306,"v_ms":2.32834386852086}},{"type":"Feature","geometry":{"type":"Point","coordinates":[-71.1369,41.9558]},"properties":{"site":"KBOX","name":"Boston MA","scan_time":"2026-09-16T10:02:20Z","stale":false,"bins":25,"density_birds_km3":0.08625,"heading_deg":53.01019416653497,"speed_ms":5.583014705882353,"peak_altitude_m":0.0,"u_ms":4.399264705882353,"v_ms":3.3867647058823533}},{"type":"Feature","geometry":{"type":"Point","coordinates":[-78.7369,42.9489]},"properties":{"site":"KBUF","name":"Buffalo NY","scan_time":"2026-09-16T09:57:28Z","stale":false,"bins":25,"density_birds_km3":0.864,"heading_deg":68.80387169712293,"speed_ms":8.072903474903475,"peak_altitude_m":200.0,"u_ms":7.4308030888030885,"v_ms":2.6243166023166022}},{"type":"Feature","geometry":{"type":"Point","coordinates":[-81.8597,41.4131]},"properties":{"site":"KCLE","name":"Cleveland OH","scan_time":"2026-09-16T10:00:38Z","stale":false,"bins":25,"density_birds_km3":3.5413333333333337,"heading_deg":101.59303409473276,"speed_ms":8.74535203313253,"peak_altitude_m":400.0,"u_ms":8.416027861445784,"v_ms":-1.9681908885542168}},{"type":"Feature","geometry":{"type":"Point","coordinates":[-81.0423,32.6555]},"properties":{"site":"KCLX","name":"Charleston SC","scan_time":"2026-09-16T09:56:27Z","stale":false,"bins":25,"density_birds_km3":10.32875,"heading_deg":226.95453700656333,"speed_ms":12.061452872449905,"peak_altitude_m":0.0,"u_ms":-8.728245656516739,"v_ms":-8.100949815364126}},{"type":"Feature","geometry":{"type":"Point","coordinates":[-84.5658,33.3636]},"properties":{"site":"KFFC","name":"Atlanta GA","scan_time":"2026-09-16T10:01:35Z","stale":false,"bins":25,"density_birds_km3":9.256,"heading_deg":270.9585938184454,"speed_ms":4.638692019590896,"peak_altitude_m":200.0,"u_ms":-4.214884759435321,"v_ms":0.11619778161912984}},{"type":"Feature","geometry":{"type":"Point","coordinates":[-85.5449,42.8939]},"properties":{"site":"KGRR","name":"Grand Rapids MI","scan_time":"2026-09-16T10:00:47Z","stale":false,"bins":25,"density_birds_km3":13.753333333333332,"heading_deg":210.8129785191198,"speed_ms":7.682251527198682,"peak_altitude_m":200.0,"u_ms":-4.346134490448947,"v_ms":-5.975659846795307}},{"type":"Feature","geometry":{"type":"Point","coordinates":[-83.8217,39.4203]},"properties":{"site":"KILN","name":"Wilmington OH","scan_time":"2026-09-16T10:00:27Z","stale":false,"bins":25,"density_birds_km3":19.424666666666667,"heading_deg":137.57011945330223,"speed_ms":8.260616330174425,"peak_altitude_m":400.0,"u_ms":5.207252781211372,"v_ms":-4.528717209174564}},{"type":"Feature","geometry":{"type":"Point","coordinates":[-81.7019,30.4846]},"properties":{"site":"KJAX","name":"Jacksonville FL","scan_time":"2026-09-16T09:59:53Z","stale":false,"bins":25,"density_birds_km3":72.7775,"heading_deg":201.62594373102436,"speed_ms":11.248674102787682,"peak_altitude_m":0.0,"u_ms":-4.233072320881284,"v_ms":-10.307112258376428}},{"type":"Feature","geometry":{"type":"Point","coordinates":[-88.0847,41.6045]},"properties":{"site":"KLOT","name":"Chicago IL","scan_time":"2026-09-16T09:59:38Z","stale":false,"bins":25,"density_birds_km3":102.0475,"heading_deg":205.11777722841248,"speed_ms":9.592554499977052,"peak_altitude_m":200.0,"u_ms":-4.071629721419064,"v_ms":-8.515764835467436}},{"type":"Feature","geometry":{"type":"Point","coordinates":[-78.4292,33.9892]},"properties":{"site":"KLTX","name":"Wilmington NC","scan_time":"2026-09-16T09:59:49Z","stale":false,"bins":25,"density_birds_km3":3.395,"heading_deg":235.40463816536754,"speed_ms":11.243634972259423,"peak_altitude_m":0.0,"u_ms":-9.235569160130094,"v_ms":-6.400464893820548}},{"type":"Feature","geometry":{"type":"Point","coordinates":[-77.4778,38.9753]},"properties":{"site":"KLWX","name":"Sterling VA","scan_time":"2026-09-16T09:59:27Z","stale":false,"bins":25,"density_birds_km3":1.359375,"heading_deg":30.20487341385808,"speed_ms":8.026644798500469,"peak_altitude_m":200.0,"u_ms":3.528940955951265,"v_ms":6.535037488284912}},{"type":"Feature","geometry":{"type":"Point","coordinates":[-76.8762,34.7759]},"properties":{"site":"KMHX","name":"Morehead City NC","scan_time":"2026-09-16T10:01:57Z","stale":false,"bins":25,"density_birds_km3":0.65125,"heading_deg":243.33655402068652,"speed_ms":7.004476464937559,"peak_altitude_m":0.0,"u_ms":-6.219135446685878,"v_ms":-3.0811239193083573}},{"type":"Feature","geometry":{"type":"Point","coordinates":[-80.6542,28.1133]},"properties":{"site":"KMLB","name":"Melbourne FL","scan_time":"2026-09-16T10:01:16Z","stale":false,"bins":25,"density_birds_km3":4.683125,"heading_deg":210.08496731972153,"speed_ms":4.989554780181437,"peak_altitude_m":0.0,"u_ms":-2.6982875087229585,"v_ms":-4.109225401256105}},{"type":"Feature","geometry":{"type":"Point","coordinates":[-86.5625,36.2472]},"properties":{"site":"KOHX","name":"Nashville TN","scan_time":"2026-09-16T10:00:26Z","stale":false,"bins":25,"density_birds_km3":16.686666666666667,"heading_deg":13.298993068727494,"speed_ms":9.849313623651618,"peak_altitude_m":200.0,"u_ms":2.5542129444666397,"v_ms":9.138086695964843}},{"type":"Feature","geometry":{"type":"Point","coordinates":[-72.8639,40.8655]},"properties":{"site":"KOKX","name":"Upton NY","scan_time":"2026-09-16T09:59:16Z","stale":false,"bins":25,"density_birds_km3":0.068125,"heading_deg":60.05505853374964,"speed_ms":3.919423076923077,"peak_altitude_m":0.0,"u_ms":2.8258653846153843,"v_ms":1.349230769230769}},{"type":"Feature","geometry":{"type":"Point","coordinates":[-80.2183,40.5317]},"properties":{"site":"KPBZ","name":"Pittsburgh PA","scan_time":"2026-09-16T09:59:48Z","stale":false,"bins":25,"density_birds_km3":2.612142857142857,"heading_deg":60.25438998475437,"speed_ms":9.18055236532677,"peak_altitude_m":400.0,"u_ms":7.933453650533224,"v_ms":4.020412906754169}},{"type":"Feature","geometry":{"type":"Point","coordinates":[-78.4899,35.6655]},"properties":{"site":"KRAX","name":"Raleigh NC","scan_time":"2026-09-16T10:02:35Z","stale":false,"bins":25,"density_birds_km3":1.9668750000000002,"heading_deg":258.87018186791306,"speed_ms":6.486286986955139,"peak_altitude_m":200.0,"u_ms":-6.020496341075406,"v_ms":-1.2517976455615654}},{"type":"Feature","geometry":{"type":"Point","coordinates":[-82.4017,27.7055]},"properties":{"site":"KTBW","name":"Tampa FL","scan_time":"2026-09-16T10:02:42Z","stale":false,"bins":25,"density_birds_km3":5.399375,"heading_deg":215.8262156568014,"speed_ms":6.902357027089605,"peak_altitude_m":0.0,"u_ms":-4.04972910395925,"v_ms":-5.4461796712201895}}]}