{"type":"FeatureCollection","frame":"2026-09-04T00","site_count":20,"fresh_count":20,"failures":{},"features":[{"type":"Feature","geometry":{"type":"Point","coordinates":[-77.0073,36.984]},"properties":{"site":"KAKQ","name":"Wakefield VA","scan_time":"2026-09-04T00:01:12Z","stale":false,"bins":25,"density_birds_km3":9.0975,"heading_deg":281.1474387611364,"speed_ms":4.608934020618556,"peak_altitude_m":0.0,"u_ms":-4.346463917525773,"v_ms":0.5639676975945016}},{"type":"Feature","geometry":{"type":"Point","coordinates":[-71.1369,41.9558]},"properties":{"site":"KBOX","name":"Boston MA","scan_time":"2026-09-03T23:59:59Z","stale":false,"bins":25,"density_birds_km3":2.2087499999999998,"heading_deg":8.149426487987839,"speed_ms":2.9832124500285553,"peak_altitude_m":0.0,"u_ms":0.2775414049114791,"v_ms":0.5779954311821818}},{"type":"Feature","geometry":{"type":"Point","coordinates":[-78.7369,42.9489]},"properties":{"site":"KBUF","name":"Buffalo NY","scan_time":"2026-09-03T23:59:13Z","stale":false,"bins":25,"density_birds_km3":3.7646666666666664,"heading_deg":96.8475106112568,"speed_ms":3.944071976616734,"peak_altitude_m":200.0,"u_ms":3.750571793934965,"v_ms":-0.32312020460358043}},{"type":"Feature","geometry":{"type":"Point","coordinates":[-81.8597,41.4131]},"properties":{"site":"KCLE","name":"Cleveland OH","scan_time":"2026-09-03T23:59:46Z","stale":false,"bins":25,"density_birds_km3":2.3346666666666667,"heading_deg":null,"speed_ms":null,"peak_altitude_m":200.0,"u_ms":null,"v_ms":null}},{"type":"Feature","geometry":{"type":"Point","coordinates":[-81.0423,32.6555]},"properties":{"site":"KCLX","name":"Charleston SC","scan_time":"2026-09-03T23:57:50Z","stale":false,"bins":25,"density_birds_km3":1.620625,"heading_deg":300.80577445460113,"speed_ms":5.123258773621289,"peak_altitude_m":0.0,"u_ms":-4.338249132279213,"v_ms":2.6313729271114537}},{"type":"Feature","geometry":{"type":"Point","coordinates":[-74.4108,39.947]},"properties":{"site":"KDIX","name":"Philadelphia PA","scan_time":"2026-09-03T23:59:21Z","stale":false,"bins":25,"density_birds_km3":2.955,"heading_deg":70.345903681306,"speed_ms":7.369716081491114,"peak_altitude_m":0.0,"u_ms":6.809109232769831,"v_ms":2.3760121369744254}},{"type":"Feature","geometry":{"type":"Point","coordinates":[-84.5658,33.3636]},"properties":{"site":"KFFC","name":"Atlanta GA","scan_time":"2026-09-04T00:02:35Z","stale":false,"bins":25,"density_birds_km3":0.466,"heading_deg":307.24979845986394,"speed_ms":3.657302725968436,"peak_altitude_m":200.0,"u_ms":-2.9039598278335728,"v_ms":2.119555236728838}},{"type":"Feature","geometry":{"type":"Point","coordinates":[-85.5449,42.8939]},"properties":{"site":"KGRR","name":"Grand Rapids MI","scan_time":"2026-09-04T00:01:29Z","stale":false,"bins":25,"density_birds_km3":0.4786666666666667,"heading_deg":321.59933391112435,"speed_ms":5.139692307692308,"peak_altitude_m":200.0,"u_ms":-2.986083916083916,"v_ms":3.7755104895104896}},{"type":"Feature","geometry":{"type":"Point","coordinates":[-83.8217,39.4203]},"properties":{"site":"KILN","name":"Wilmington OH","scan_time":"2026-09-03T23:58:36Z","stale":false,"bins":25,"density_birds_km3":1.12,"heading_deg":128.46967360109073,"speed_ms":7.333196428571429,"peak_altitude_m":200.0,"u_ms":5.741398809523809,"v_ms":-4.541434523809524}},{"type":"Feature","geometry":{"type":"Point","coordinates":[-81.7019,30.4846]},"properties":{"site":"KJAX","name":"Jacksonville FL","scan_time":"2026-09-03T23:58:27Z","stale":false,"bins":25,"density_birds_km3":6.697500000000001,"heading_deg":266.36542584628626,"speed_ms":5.101764761100159,"peak_altitude_m":0.0,"u_ms":-5.074618417347226,"v_ms":-0.38006477048718673}},{"type":"Feature","geometry":{"type":"Point","coordinates":[-88.0847,41.6045]},"properties":{"site":"KLOT","name":"Chicago IL","scan_time":"2026-09-03T23:59:46Z","stale":false,"bins":25,"density_birds_km3":4.174666666666667,"heading_deg":17.823276583105542,"speed_ms":2.8243787927179813,"peak_altitude_m":200.0,"u_ms":0.9568843819865858,"v_ms":2.5952060044714145}},{"type":"Feature","geometry":{"type":"Point","coordinates":[-78.4292,33.9892]},"properties":{"site":"KLTX","name":"Wilmington NC","scan_time":"2026-09-04T00:02:34Z","stale":false,"bins":25,"density_birds_km3":0.9462499999999999,"heading_deg":358.89285255076703,"speed_ms":5.5274421678783865,"peak_altitude_m":0.0,"u_ms":-0.11588235294117646,"v_ms":5.455789821546596}},{"type":"Feature","geometry":{"type":"Point","coordinates":[-77.4778,38.9753]},"properties":{"site":"KLWX","name":"Sterling VA","scan_time":"2026-09-04T00:00:15Z","stale":false,"bins":25,"density_birds_km3":4.5112499999999995,"heading_deg":42.78843651829333,"speed_ms":6.66944305901912,"peak_altitude_m":0.0,"u_ms":4.454206151288446,"v_ms":4.473211415904683}},{"type":"Feature","geometry":{"type":"Point","coordinates":[-76.8762,34.7759]},"properties":{"site":"KMHX","name":"Morehead City NC","scan_time":"2026-09-03T23:58:53Z","stale":false,"bins":25,"density_birds_km3":1.235625,"heading_deg":32.708860329683304,"speed_ms":7.191676829268293,"peak_altitude_m":0.0,"u_ms":3.905772357723578,"v_ms":5.989410569105691}},{"type":"Feature","geometry":{"type":"Point","coordinates":[-80.6542,28.1133]},"properties":{"site":"KMLB","name":"Melbourne FL","scan_time":"2026-09-04T00:00:46Z","stale":false,"bins":25,"density_birds_km3":2.65125,"heading_deg":283.1849038066223,"speed_ms":4.4071192833569075,"peak_altitude_m":0.0,"u_ms":-4.289658180103724,"v_ms":1.006786892975012}},{"type":"Feature","geometry":{"type":"Point","coordinates":[-86.5625,36.2472]},"properties":{"site":"KOHX","name":"Nashville TN","scan_time":"2026-09-03T23:57:24Z","stale":false,"bins":25,"density_birds_km3":0.9026666666666666,"heading_deg":169.26277159145337,"speed_ms":2.279437869822485,"peak_altitude_m":200.0,"u_ms":0.3962573964497041,"v_ms":-2.1249334319526625}},{"type":"Feature","geometry":{"type":"Point","coordinates":[-72.8639,40.8655]},"properties":{"site":"KOKX","name":"Upton NY","scan_time":"2026-09-04T00:02:15Z","stale":false,"bins":25,"density_birds_km3":2.753125,"heading_deg":42.5063261886526,"speed_ms":5.5059429874572405,"peak_altitude_m":0.0,"u_ms":3.5941185860889395,"v_ms":3.963429874572406}},{"type":"Feature","geometry":{"type":"Point","coordinates":[-80.2183,40.5317]},"properties":{"site":"KPBZ","name":"Pittsburgh PA","scan_time":"2026-09-03T23:57:08Z","stale":false,"bins":25,"density_birds_km3":1.6007142857142858,"heading_deg":215.69999999999996,"speed_ms":2.44,"peak_altitude_m":400.0,"u_ms":-1.43,"v_ms":-1.9799999999999998}},{"type":"Feature","geometry":{"type":"Point","coordinates":[-78.4899,35.6655]},"properties":{"site":"KRAX","name":"Raleigh NC","scan_time":"2026-09-03T23:57:50Z","stale":false,"bins":25,"density_birds_km3":3.610625,"heading_deg":21.42570469752052,"speed_ms":5.870573855755894,"peak_altitude_m":0.0,"u_ms":2.1191955617198333,"v_ms":5.471466712898752}},{"type":"Feature","geometry":{"type":"Point","coordinates":[-82.4017,27.7055]},"properties":{"site":"KTBW","name":"Tampa FL","scan_time":"2026-09-04T00:01:55Z","stale":false,"bins":25,"density_birds_km3":12.57375,"heading_deg":270.63564587791393,"speed_ms":4.2913992444577005,"peak_altitude_m":0.0,"u_ms":-4.216187990853962,"v_ms":0.010136196440998137}}]}