{"type":"FeatureCollection","frame":"2026-09-04T03","site_count":20,"fresh_count":20,"failures":{},"features":[{"type":"Feature","geometry":{"type":"Point","coordinates":[-77.0073,36.984]},"properties":{"site":"KAKQ","name":"Wakefield VA","scan_time":"2026-09-04T03:03:08Z","stale":false,"bins":25,"density_birds_km3":6.32625,"heading_deg":51.38404560615116,"speed_ms":8.640550286504643,"peak_altitude_m":0.0,"u_ms":5.731898834222486,"v_ms":4.592927287097411}},{"type":"Feature","geometry":{"type":"Point","coordinates":[-71.1369,41.9558]},"properties":{"site":"KBOX","name":"Boston MA","scan_time":"2026-09-04T03:01:55Z","stale":false,"bins":25,"density_birds_km3":5.7875,"heading_deg":121.81591812609199,"speed_ms":7.296481201382886,"peak_altitude_m":0.0,"u_ms":5.1336970613656,"v_ms":-4.148995246326707}},{"type":"Feature","geometry":{"type":"Point","coordinates":[-78.7369,42.9489]},"properties":{"site":"KBUF","name":"Buffalo NY","scan_time":"2026-09-04T02:58:00Z","stale":false,"bins":25,"density_birds_km3":118.26666666666667,"heading_deg":204.6071726533354,"speed_ms":8.756837091319053,"peak_altitude_m":400.0,"u_ms":-3.490035738444194,"v_ms":-7.654519954904171}},{"type":"Feature","geometry":{"type":"Point","coordinates":[-81.8597,41.4131]},"properties":{"site":"KCLE","name":"Cleveland OH","scan_time":"2026-09-04T03:02:28Z","stale":false,"bins":25,"density_birds_km3":10.894,"heading_deg":131.83222028520223,"speed_ms":10.107326357016094,"peak_altitude_m":800.0,"u_ms":6.083229300532403,"v_ms":-6.45336882687718}},{"type":"Feature","geometry":{"type":"Point","coordinates":[-81.0423,32.6555]},"properties":{"site":"KCLX","name":"Charleston SC","scan_time":"2026-09-04T02:59:18Z","stale":false,"bins":25,"density_birds_km3":3.88625,"heading_deg":252.78190706127225,"speed_ms":7.177831139976073,"peak_altitude_m":0.0,"u_ms":-6.807115023072979,"v_ms":-2.1168381473252436}},{"type":"Feature","geometry":{"type":"Point","coordinates":[-74.4108,39.947]},"properties":{"site":"KDIX","name":"Philadelphia PA","scan_time":"2026-09-04T03:00:05Z","stale":false,"bins":25,"density_birds_km3":8.575,"heading_deg":144.70941630478825,"speed_ms":8.100520446096654,"peak_altitude_m":1400.0,"u_ms":3.642403965303594,"v_ms":-5.947229389897223}},{"type":"Feature","geometry":{"type":"Point","coordinates":[-84.5658,33.3636]},"properties":{"site":"KFFC","name":"Atlanta GA","scan_time":"2026-09-04T02:59:38Z","stale":false,"bins":25,"density_birds_km3":16.15,"heading_deg":287.4865402966376,"speed_ms":6.402107739938081,"peak_altitude_m":400.0,"u_ms":-5.009334571723426,"v_ms":1.3928743034055728}},{"type":"Feature","geometry":{"type":"Point","coordinates":[-85.5449,42.8939]},"properties":{"site":"KGRR","name":"Grand Rapids MI","scan_time":"2026-09-04T03:00:17Z","stale":false,"bins":25,"density_birds_km3":26.956,"heading_deg":347.2759928338127,"speed_ms":6.5932734827125685,"peak_altitude_m":200.0,"u_ms":1.0887861700549044,"v_ms":-0.5252144235049708}},{"type":"Feature","geometry":{"type":"Point","coordinates":[-83.8217,39.4203]},"properties":{"site":"KILN","name":"Wilmington OH","scan_time":"2026-09-04T02:58:53Z","stale":false,"bins":25,"density_birds_km3":18.864666666666665,"heading_deg":130.95516099216186,"speed_ms":9.259358589249745,"peak_altitude_m":600.0,"u_ms":6.28767325158144,"v_ms":-5.790977842174082}},{"type":"Feature","geometry":{"type":"Point","coordinates":[-81.7019,30.4846]},"properties":{"site":"KJAX","name":"Jacksonville FL","scan_time":"2026-09-04T03:01:44Z","stale":false,"bins":25,"density_birds_km3":7.406875,"heading_deg":209.2250452223288,"speed_ms":7.1112306913142564,"peak_altitude_m":0.0,"u_ms":-3.419360175571875,"v_ms":-6.194109057145269}},{"type":"Feature","geometry":{"type":"Point","coordinates":[-88.0847,41.6045]},"properties":{"site":"KLOT","name":"Chicago IL","scan_time":"2026-09-04T03:01:12Z","stale":false,"bins":25,"density_birds_km3":35.56933333333333,"heading_deg":97.11979609593371,"speed_ms":6.564816321175544,"peak_altitude_m":200.0,"u_ms":3.6364055178618293,"v_ms":-1.8616917194587097}},{"type":"Feature","geometry":{"type":"Point","coordinates":[-78.4292,33.9892]},"properties":{"site":"KLTX","name":"Wilmington NC","scan_time":"2026-09-04T03:00:21Z","stale":false,"bins":25,"density_birds_km3":2.663125,"heading_deg":352.03120797871026,"speed_ms":4.422476713637449,"peak_altitude_m":0.0,"u_ms":-0.9147743014091235,"v_ms":1.9751850967279674}},{"type":"Feature","geometry":{"type":"Point","coordinates":[-77.4778,38.9753]},"properties":{"site":"KLWX","name":"Sterling VA","scan_time":"2026-09-04T02:57:04Z","stale":false,"bins":25,"density_birds_km3":10.44,"heading_deg":132.5351009030765,"speed_ms":5.597611169238817,"peak_altitude_m":200.0,"u_ms":4.2957317551661,"v_ms":-3.521194742348941}},{"type":"Feature","geometry":{"type":"Point","coordinates":[-76.8762,34.7759]},"properties":{"site":"KMHX","name":"Morehead City NC","scan_time":"2026-09-04T03:00:46Z","stale":false,"bins":25,"density_birds_km3":2.013125,"heading_deg":54.41540201657,"speed_ms":6.4469512573734855,"peak_altitude_m":0.0,"u_ms":3.342545793231915,"v_ms":2.49971126979199}},{"type":"Feature","geometry":{"type":"Point","coordinates":[-80.6542,28.1133]},"properties":{"site":"KMLB","name":"Melbourne FL","scan_time":"2026-09-04T02:57:37Z","stale":false,"bins":25,"density_birds_km3":5.0337499999999995,"heading_deg":250.5452673249461,"speed_ms":3.8284018889026963,"peak_altitude_m":0.0,"u_ms":-2.5222579843419908,"v_ms":-0.3999689325214366}},{"type":"Feature","geometry":{"type":"Point","coordinates":[-86.5625,36.2472]},"properties":{"site":"KOHX","name":"Nashville TN","scan_time":"2026-09-04T03:01:17Z","stale":false,"bins":25,"density_birds_km3":24.929333333333332,"heading_deg":222.46656251234458,"speed_ms":2.5945237203829494,"peak_altitude_m":600.0,"u_ms":-1.2390854147724235,"v_ms":-0.5768214152002996}},{"type":"Feature","geometry":{"type":"Point","coordinates":[-72.8639,40.8655]},"properties":{"site":"KOKX","name":"Upton NY","scan_time":"2026-09-04T03:00:07Z","stale":false,"bins":25,"density_birds_km3":11.626875,"heading_deg":137.25176965010652,"speed_ms":8.065010482180293,"peak_altitude_m":0.0,"u_ms":2.1817464925012096,"v_ms":-5.237590173627909}},{"type":"Feature","geometry":{"type":"Point","coordinates":[-80.2183,40.5317]},"properties":{"site":"KPBZ","name":"Pittsburgh PA","scan_time":"2026-09-04T02:58:10Z","stale":false,"bins":25,"density_birds_km3":12.837857142857143,"heading_deg":178.59703263086993,"speed_ms":7.135262337951372,"peak_altitude_m":800.0,"u_ms":2.4424041617982533,"v_ms":-2.2373493573693874}},{"type":"Feature","geometry":{"type":"Point","coordinates":[-78.4899,35.6655]},"properties":{"site":"KRAX","name":"Raleigh NC","scan_time":"2026-09-04T03:01:31Z","stale":false,"bins":25,"density_birds_km3":7.635,"heading_deg":51.654570442364914,"speed_ms":6.259301452178268,"peak_altitude_m":200.0,"u_ms":3.2914947421131697,"v_ms":3.132274244700384}},{"type":"Feature","geometry":{"type":"Point","coordinates":[-82.4017,27.7055]},"properties":{"site":"KTBW","name":"Tampa FL","scan_time":"2026-09-04T02:59:55Z","stale":false,"bins":25,"density_birds_km3":5.66875,"heading_deg":303.3919324790873,"speed_ms":4.9338619320688135,"peak_altitude_m":0.0,"u_ms":-4.053748345831496,"v_ms":2.525153286281429}}]}