{"type":"FeatureCollection","frame":"2026-09-14T09","site_count":20,"fresh_count":20,"failures":{},"features":[{"type":"Feature","geometry":{"type":"Point","coordinates":[-77.0073,36.984]},"properties":{"site":"KAKQ","name":"Wakefield VA","scan_time":"2026-09-14T09:03:05Z","stale":false,"bins":25,"density_birds_km3":14.800625,"heading_deg":154.2825357716218,"speed_ms":4.372898103965205,"peak_altitude_m":0.0,"u_ms":0.4922524386639079,"v_ms":-3.730073054347367}},{"type":"Feature","geometry":{"type":"Point","coordinates":[-71.1369,41.9558]},"properties":{"site":"KBOX","name":"Boston MA","scan_time":"2026-09-14T09:01:43Z","stale":false,"bins":25,"density_birds_km3":0.841875,"heading_deg":122.43065092096036,"speed_ms":8.844249628528974,"peak_altitude_m":0.0,"u_ms":7.224034175334324,"v_ms":-4.817191679049034}},{"type":"Feature","geometry":{"type":"Point","coordinates":[-78.7369,42.9489]},"properties":{"site":"KBUF","name":"Buffalo NY","scan_time":"2026-09-14T08:57:18Z","stale":false,"bins":25,"density_birds_km3":12.114,"heading_deg":177.8504841439172,"speed_ms":12.358659952671838,"peak_altitude_m":400.0,"u_ms":0.4268609322546915,"v_ms":-12.325301304276046}},{"type":"Feature","geometry":{"type":"Point","coordinates":[-81.8597,41.4131]},"properties":{"site":"KCLE","name":"Cleveland OH","scan_time":"2026-09-14T08:56:59Z","stale":false,"bins":25,"density_birds_km3":11.806666666666667,"heading_deg":209.94070565056995,"speed_ms":13.916963226571767,"peak_altitude_m":200.0,"u_ms":-6.9669078687228145,"v_ms":-12.038614924024175}},{"type":"Feature","geometry":{"type":"Point","coordinates":[-81.0423,32.6555]},"properties":{"site":"KCLX","name":"Charleston SC","scan_time":"2026-09-14T08:58:34Z","stale":false,"bins":25,"density_birds_km3":52.960625,"heading_deg":174.30329562950334,"speed_ms":8.873006184204314,"peak_altitude_m":200.0,"u_ms":0.3415283482037483,"v_ms":-8.448712174857196}},{"type":"Feature","geometry":{"type":"Point","coordinates":[-74.4108,39.947]},"properties":{"site":"KDIX","name":"Philadelphia PA","scan_time":"2026-09-14T09:01:07Z","stale":false,"bins":25,"density_birds_km3":4.549375,"heading_deg":172.1062068573126,"speed_ms":9.406494023904383,"peak_altitude_m":0.0,"u_ms":1.0923107569721116,"v_ms":-9.166292073086963}},{"type":"Feature","geometry":{"type":"Point","coordinates":[-84.5658,33.3636]},"properties":{"site":"KFFC","name":"Atlanta GA","scan_time":"2026-09-14T09:02:09Z","stale":false,"bins":25,"density_birds_km3":116.21866666666666,"heading_deg":189.28897702442143,"speed_ms":9.039253132026984,"peak_altitude_m":400.0,"u_ms":-1.3494336538020284,"v_ms":-8.774114370611722}},{"type":"Feature","geometry":{"type":"Point","coordinates":[-85.5449,42.8939]},"properties":{"site":"KGRR","name":"Grand Rapids MI","scan_time":"2026-09-14T09:00:06Z","stale":false,"bins":25,"density_birds_km3":5.682,"heading_deg":218.63058067188095,"speed_ms":8.515245247594462,"peak_altitude_m":400.0,"u_ms":-5.31755573808965,"v_ms":-6.563243370100916}},{"type":"Feature","geometry":{"type":"Point","coordinates":[-83.8217,39.4203]},"properties":{"site":"KILN","name":"Wilmington OH","scan_time":"2026-09-14T08:58:04Z","stale":false,"bins":25,"density_birds_km3":40.202666666666666,"heading_deg":191.7574554233514,"speed_ms":15.10266395686437,"peak_altitude_m":400.0,"u_ms":-3.497958689340522,"v_ms":-13.63989066777271}},{"type":"Feature","geometry":{"type":"Point","coordinates":[-81.7019,30.4846]},"properties":{"site":"KJAX","name":"Jacksonville FL","scan_time":"2026-09-14T09:02:27Z","stale":false,"bins":25,"density_birds_km3":87.11375,"heading_deg":177.64388012775976,"speed_ms":10.99038588096675,"peak_altitude_m":200.0,"u_ms":0.3075917464149208,"v_ms":-10.880450326177545}},{"type":"Feature","geometry":{"type":"Point","coordinates":[-88.0847,41.6045]},"properties":{"site":"KLOT","name":"Chicago IL","scan_time":"2026-09-14T09:02:45Z","stale":false,"bins":25,"density_birds_km3":38.135999999999996,"heading_deg":192.39448273147147,"speed_ms":11.30573194182225,"peak_altitude_m":200.0,"u_ms":-2.393527725333893,"v_ms":-10.981640444724146}},{"type":"Feature","geometry":{"type":"Point","coordinates":[-78.4292,33.9892]},"properties":{"site":"KLTX","name":"Wilmington NC","scan_time":"2026-09-14T08:59:51Z","stale":false,"bins":25,"density_birds_km3":43.11,"heading_deg":170.363356495515,"speed_ms":6.883156925308195,"peak_altitude_m":0.0,"u_ms":1.0572259608411894,"v_ms":-6.611202175489485}},{"type":"Feature","geometry":{"type":"Point","coordinates":[-77.4778,38.9753]},"properties":{"site":"KLWX","name":"Sterling VA","scan_time":"2026-09-14T08:59:07Z","stale":false,"bins":25,"density_birds_km3":23.039375,"heading_deg":185.19801973759047,"speed_ms":10.386214613983086,"peak_altitude_m":200.0,"u_ms":-0.6304979196693227,"v_ms":-10.117084273787833}},{"type":"Feature","geometry":{"type":"Point","coordinates":[-76.8762,34.7759]},"properties":{"site":"KMHX","name":"Morehead City NC","scan_time":"2026-09-14T08:58:33Z","stale":false,"bins":25,"density_birds_km3":22.768125,"heading_deg":137.1981067000501,"speed_ms":5.290045020314045,"peak_altitude_m":0.0,"u_ms":2.9472323487427254,"v_ms":-3.978955473811354}},{"type":"Feature","geometry":{"type":"Point","coordinates":[-80.6542,28.1133]},"properties":{"site":"KMLB","name":"Melbourne FL","scan_time":"2026-09-14T09:03:13Z","stale":false,"bins":25,"density_birds_km3":15.665625,"heading_deg":154.4405169052809,"speed_ms":10.572113558375229,"peak_altitude_m":200.0,"u_ms":4.5701819487670585,"v_ms":-9.508288644162478}},{"type":"Feature","geometry":{"type":"Point","coordinates":[-86.5625,36.2472]},"properties":{"site":"KOHX","name":"Nashville TN","scan_time":"2026-09-14T09:00:45Z","stale":false,"bins":25,"density_birds_km3":182.81933333333333,"heading_deg":205.84265622711746,"speed_ms":8.619777558172183,"peak_altitude_m":200.0,"u_ms":-3.618940520513877,"v_ms":-7.120952962669886}},{"type":"Feature","geometry":{"type":"Point","coordinates":[-72.8639,40.8655]},"properties":{"site":"KOKX","name":"Upton NY","scan_time":"2026-09-14T08:58:57Z","stale":false,"bins":25,"density_birds_km3":0.7025,"heading_deg":164.68370665805202,"speed_ms":10.171996370235934,"peak_altitude_m":0.0,"u_ms":2.5209709618874774,"v_ms":-9.635607985480943}},{"type":"Feature","geometry":{"type":"Point","coordinates":[-80.2183,40.5317]},"properties":{"site":"KPBZ","name":"Pittsburgh PA","scan_time":"2026-09-14T08:59:18Z","stale":false,"bins":25,"density_birds_km3":75.1557142857143,"heading_deg":201.34030253527817,"speed_ms":14.128825441481172,"peak_altitude_m":600.0,"u_ms":-5.380514285171175,"v_ms":-12.957829851540671}},{"type":"Feature","geometry":{"type":"Point","coordinates":[-78.4899,35.6655]},"properties":{"site":"KRAX","name":"Raleigh NC","scan_time":"2026-09-14T09:01:36Z","stale":false,"bins":25,"density_birds_km3":28.74,"heading_deg":null,"speed_ms":null,"peak_altitude_m":200.0,"u_ms":null,"v_ms":null}},{"type":"Feature","geometry":{"type":"Point","coordinates":[-82.4017,27.7055]},"properties":{"site":"KTBW","name":"Tampa FL","scan_time":"2026-09-14T08:59:53Z","stale":false,"bins":25,"density_birds_km3":21.35625,"heading_deg":175.99516194701422,"speed_ms":7.097372256365232,"peak_altitude_m":200.0,"u_ms":0.7517497805092187,"v_ms":-7.046542581211589}}]}