{"type":"FeatureCollection","frame":"2026-09-06T02","site_count":20,"fresh_count":20,"failures":{},"features":[{"type":"Feature","geometry":{"type":"Point","coordinates":[-77.0073,36.984]},"properties":{"site":"KAKQ","name":"Wakefield VA","scan_time":"2026-09-06T02:01:59Z","stale":false,"bins":25,"density_birds_km3":52.805,"heading_deg":205.72010255076006,"speed_ms":8.985913781624502,"peak_altitude_m":400.0,"u_ms":-3.8244353956629253,"v_ms":-7.911790945406126}},{"type":"Feature","geometry":{"type":"Point","coordinates":[-71.1369,41.9558]},"properties":{"site":"KBOX","name":"Boston MA","scan_time":"2026-09-06T02:00:30Z","stale":false,"bins":25,"density_birds_km3":4.780625000000001,"heading_deg":219.96488274883262,"speed_ms":7.074691713575075,"peak_altitude_m":200.0,"u_ms":-4.707247021861501,"v_ms":-4.837288912161278}},{"type":"Feature","geometry":{"type":"Point","coordinates":[-78.7369,42.9489]},"properties":{"site":"KBUF","name":"Buffalo NY","scan_time":"2026-09-06T01:56:12Z","stale":false,"bins":25,"density_birds_km3":14.663333333333332,"heading_deg":209.72866543512788,"speed_ms":7.0780686519663565,"peak_altitude_m":400.0,"u_ms":-3.459333484882928,"v_ms":-6.152052739258923}},{"type":"Feature","geometry":{"type":"Point","coordinates":[-81.8597,41.4131]},"properties":{"site":"KCLE","name":"Cleveland OH","scan_time":"2026-09-06T02:03:09Z","stale":false,"bins":25,"density_birds_km3":20.444666666666667,"heading_deg":222.55000736916534,"speed_ms":11.16565232986598,"peak_altitude_m":600.0,"u_ms":-7.463500505429289,"v_ms":-8.26643069097075}},{"type":"Feature","geometry":{"type":"Point","coordinates":[-81.0423,32.6555]},"properties":{"site":"KCLX","name":"Charleston SC","scan_time":"2026-09-06T01:58:29Z","stale":false,"bins":25,"density_birds_km3":14.34625,"heading_deg":202.58455541752687,"speed_ms":5.371342685370742,"peak_altitude_m":0.0,"u_ms":-0.23301341814062904,"v_ms":-3.945382068484796}},{"type":"Feature","geometry":{"type":"Point","coordinates":[-74.4108,39.947]},"properties":{"site":"KDIX","name":"Philadelphia PA","scan_time":"2026-09-06T02:02:22Z","stale":false,"bins":25,"density_birds_km3":52.54125,"heading_deg":206.87766570935398,"speed_ms":10.628153769179455,"peak_altitude_m":600.0,"u_ms":-5.282223148765844,"v_ms":-9.05573894501096}},{"type":"Feature","geometry":{"type":"Point","coordinates":[-84.5658,33.3636]},"properties":{"site":"KFFC","name":"Atlanta GA","scan_time":"2026-09-06T01:59:24Z","stale":false,"bins":25,"density_birds_km3":57.18333333333333,"heading_deg":205.0430108786526,"speed_ms":6.991930515884582,"peak_altitude_m":1600.0,"u_ms":-2.435148236665695,"v_ms":-6.117062663946371}},{"type":"Feature","geometry":{"type":"Point","coordinates":[-85.5449,42.8939]},"properties":{"site":"KGRR","name":"Grand Rapids MI","scan_time":"2026-09-06T02:01:14Z","stale":false,"bins":25,"density_birds_km3":124.47399999999999,"heading_deg":224.09557392179627,"speed_ms":11.395382075471698,"peak_altitude_m":200.0,"u_ms":-7.638238153945112,"v_ms":-7.809565501715267}},{"type":"Feature","geometry":{"type":"Point","coordinates":[-83.8217,39.4203]},"properties":{"site":"KILN","name":"Wilmington OH","scan_time":"2026-09-06T01:59:48Z","stale":false,"bins":25,"density_birds_km3":19.176,"heading_deg":205.78806568798578,"speed_ms":9.723989014045333,"peak_altitude_m":400.0,"u_ms":-3.7381671533861773,"v_ms":-8.162377624808789}},{"type":"Feature","geometry":{"type":"Point","coordinates":[-81.7019,30.4846]},"properties":{"site":"KJAX","name":"Jacksonville FL","scan_time":"2026-09-06T01:57:44Z","stale":false,"bins":25,"density_birds_km3":17.776875,"heading_deg":137.29241104889041,"speed_ms":8.362903842071747,"peak_altitude_m":0.0,"u_ms":2.508338640062265,"v_ms":-5.440288686053916}},{"type":"Feature","geometry":{"type":"Point","coordinates":[-88.0847,41.6045]},"properties":{"site":"KLOT","name":"Chicago IL","scan_time":"2026-09-06T01:58:46Z","stale":false,"bins":25,"density_birds_km3":38.376,"heading_deg":206.008562740834,"speed_ms":10.925824739532661,"peak_altitude_m":400.0,"u_ms":-4.717588311251835,"v_ms":-9.740455132400545}},{"type":"Feature","geometry":{"type":"Point","coordinates":[-78.4292,33.9892]},"properties":{"site":"KLTX","name":"Wilmington NC","scan_time":"2026-09-06T01:59:07Z","stale":false,"bins":25,"density_birds_km3":35.680625,"heading_deg":215.03644682002223,"speed_ms":8.243525580252115,"peak_altitude_m":200.0,"u_ms":-2.2922806278310333,"v_ms":-5.600235963341409}},{"type":"Feature","geometry":{"type":"Point","coordinates":[-77.4778,38.9753]},"properties":{"site":"KLWX","name":"Sterling VA","scan_time":"2026-09-06T01:59:13Z","stale":false,"bins":25,"density_birds_km3":112.069375,"heading_deg":239.06330651362046,"speed_ms":11.065677526759178,"peak_altitude_m":600.0,"u_ms":-8.817292518602937,"v_ms":-5.662922057607651}},{"type":"Feature","geometry":{"type":"Point","coordinates":[-76.8762,34.7759]},"properties":{"site":"KMHX","name":"Morehead City NC","scan_time":"2026-09-06T01:58:50Z","stale":false,"bins":25,"density_birds_km3":25.528125,"heading_deg":187.93936904321308,"speed_ms":5.650259272860815,"peak_altitude_m":0.0,"u_ms":-1.0277740237483166,"v_ms":-5.247561023381075}},{"type":"Feature","geometry":{"type":"Point","coordinates":[-80.6542,28.1133]},"properties":{"site":"KMLB","name":"Melbourne FL","scan_time":"2026-09-06T01:58:30Z","stale":false,"bins":25,"density_birds_km3":11.526875,"heading_deg":265.14575223072916,"speed_ms":4.940166412877963,"peak_altitude_m":0.0,"u_ms":-1.524388187948662,"v_ms":-1.049322384163585}},{"type":"Feature","geometry":{"type":"Point","coordinates":[-86.5625,36.2472]},"properties":{"site":"KOHX","name":"Nashville TN","scan_time":"2026-09-06T02:01:41Z","stale":false,"bins":25,"density_birds_km3":50.60066666666667,"heading_deg":169.88491475127856,"speed_ms":6.189409362195491,"peak_altitude_m":200.0,"u_ms":0.7705716657224543,"v_ms":-5.005373973992437}},{"type":"Feature","geometry":{"type":"Point","coordinates":[-72.8639,40.8655]},"properties":{"site":"KOKX","name":"Upton NY","scan_time":"2026-09-06T02:01:48Z","stale":false,"bins":25,"density_birds_km3":15.43125,"heading_deg":247.4329853639633,"speed_ms":10.193648769393226,"peak_altitude_m":200.0,"u_ms":-9.013613435139307,"v_ms":-3.752134676305743}},{"type":"Feature","geometry":{"type":"Point","coordinates":[-80.2183,40.5317]},"properties":{"site":"KPBZ","name":"Pittsburgh PA","scan_time":"2026-09-06T02:00:27Z","stale":false,"bins":25,"density_birds_km3":75.83714285714287,"heading_deg":217.76873781034269,"speed_ms":12.669481407527408,"peak_altitude_m":600.0,"u_ms":-7.697659834984742,"v_ms":-9.767867045925481}},{"type":"Feature","geometry":{"type":"Point","coordinates":[-78.4899,35.6655]},"properties":{"site":"KRAX","name":"Raleigh NC","scan_time":"2026-09-06T01:57:24Z","stale":false,"bins":25,"density_birds_km3":68.58,"heading_deg":212.7977915744636,"speed_ms":9.311336415655756,"peak_altitude_m":200.0,"u_ms":-4.915228473334859,"v_ms":-7.770275852597849}},{"type":"Feature","geometry":{"type":"Point","coordinates":[-82.4017,27.7055]},"properties":{"site":"KTBW","name":"Tampa FL","scan_time":"2026-09-06T02:00:39Z","stale":false,"bins":25,"density_birds_km3":11.741875,"heading_deg":179.74790695256453,"speed_ms":6.5451054537707725,"peak_altitude_m":0.0,"u_ms":-1.4107770558159352,"v_ms":-5.986362910097998}}]}