{"type":"FeatureCollection","frame":"2026-09-16T09","site_count":20,"fresh_count":19,"failures":{"KDIX":"RuntimeError('no scan within 20 min of 2026-09-16T09:00Z')"},"features":[{"type":"Feature","geometry":{"type":"Point","coordinates":[-77.0073,36.984]},"properties":{"site":"KAKQ","name":"Wakefield VA","scan_time":"2026-09-16T09:01:56Z","stale":false,"bins":25,"density_birds_km3":0.8624999999999999,"heading_deg":305.17689544100546,"speed_ms":4.908333333333334,"peak_altitude_m":0.0,"u_ms":-3.1548550724637683,"v_ms":2.242768115942029}},{"type":"Feature","geometry":{"type":"Point","coordinates":[-71.1369,41.9558]},"properties":{"site":"KBOX","name":"Boston MA","scan_time":"2026-09-16T08:59:15Z","stale":false,"bins":25,"density_birds_km3":0.48812500000000003,"heading_deg":54.6225052246822,"speed_ms":5.7194087403598965,"peak_altitude_m":0.0,"u_ms":4.624061696658098,"v_ms":3.2570951156812336}},{"type":"Feature","geometry":{"type":"Point","coordinates":[-78.7369,42.9489]},"properties":{"site":"KBUF","name":"Buffalo NY","scan_time":"2026-09-16T08:57:03Z","stale":false,"bins":25,"density_birds_km3":1.1720000000000002,"heading_deg":67.4106772597482,"speed_ms":10.11144811858609,"peak_altitude_m":200.0,"u_ms":9.23748574686431,"v_ms":3.7172976054732048}},{"type":"Feature","geometry":{"type":"Point","coordinates":[-81.8597,41.4131]},"properties":{"site":"KCLE","name":"Cleveland OH","scan_time":"2026-09-16T09:00:52Z","stale":false,"bins":25,"density_birds_km3":4.83,"heading_deg":87.4797772856405,"speed_ms":8.160594744121715,"peak_altitude_m":400.0,"u_ms":8.134120331950207,"v_ms":0.3244426002766252}},{"type":"Feature","geometry":{"type":"Point","coordinates":[-81.0423,32.6555]},"properties":{"site":"KCLX","name":"Charleston SC","scan_time":"2026-09-16T08:55:56Z","stale":false,"bins":25,"density_birds_km3":19.8225,"heading_deg":222.55557522048753,"speed_ms":11.84364540260724,"peak_altitude_m":0.0,"u_ms":-7.893866986521891,"v_ms":-8.539191944698716}},{"type":"Feature","geometry":{"type":"Point","coordinates":[-84.5658,33.3636]},"properties":{"site":"KFFC","name":"Atlanta GA","scan_time":"2026-09-16T08:57:56Z","stale":false,"bins":25,"density_birds_km3":10.982666666666667,"heading_deg":276.0662960140029,"speed_ms":5.046947917931286,"peak_altitude_m":400.0,"u_ms":-4.256155153575331,"v_ms":0.32320322933106704}},{"type":"Feature","geometry":{"type":"Point","coordinates":[-85.5449,42.8939]},"properties":{"site":"KGRR","name":"Grand Rapids MI","scan_time":"2026-09-16T09:00:34Z","stale":false,"bins":25,"density_birds_km3":21.23,"heading_deg":186.1103254719517,"speed_ms":8.10427961311393,"peak_altitude_m":200.0,"u_ms":-1.468746702675543,"v_ms":-7.495213541012435}},{"type":"Feature","geometry":{"type":"Point","coordinates":[-83.8217,39.4203]},"properties":{"site":"KILN","name":"Wilmington OH","scan_time":"2026-09-16T09:00:48Z","stale":false,"bins":25,"density_birds_km3":30.452666666666666,"heading_deg":91.99508617358292,"speed_ms":7.930455152483745,"peak_altitude_m":200.0,"u_ms":7.732879348468595,"v_ms":0.3510517328195809}},{"type":"Feature","geometry":{"type":"Point","coordinates":[-81.7019,30.4846]},"properties":{"site":"KJAX","name":"Jacksonville FL","scan_time":"2026-09-16T09:00:35Z","stale":false,"bins":25,"density_birds_km3":95.65062499999999,"heading_deg":203.4564316976961,"speed_ms":11.534114755815018,"peak_altitude_m":0.0,"u_ms":-4.791585926148932,"v_ms":-10.156005929552208}},{"type":"Feature","geometry":{"type":"Point","coordinates":[-88.0847,41.6045]},"properties":{"site":"KLOT","name":"Chicago IL","scan_time":"2026-09-16T09:01:49Z","stale":false,"bins":25,"density_birds_km3":43.32785714285715,"heading_deg":203.69153506411027,"speed_ms":9.457454663544532,"peak_altitude_m":400.0,"u_ms":-3.6360975609756094,"v_ms":-8.415476267797015}},{"type":"Feature","geometry":{"type":"Point","coordinates":[-78.4292,33.9892]},"properties":{"site":"KLTX","name":"Wilmington NC","scan_time":"2026-09-16T08:59:09Z","stale":false,"bins":25,"density_birds_km3":7.8881250000000005,"heading_deg":236.63923033879126,"speed_ms":12.152923606662398,"peak_altitude_m":0.0,"u_ms":-10.130562940422807,"v_ms":-6.702095611787317}},{"type":"Feature","geometry":{"type":"Point","coordinates":[-77.4778,38.9753]},"properties":{"site":"KLWX","name":"Sterling VA","scan_time":"2026-09-16T09:02:57Z","stale":false,"bins":25,"density_birds_km3":2.349375,"heading_deg":13.278133603376782,"speed_ms":7.780699919549477,"peak_altitude_m":200.0,"u_ms":2.174467685706624,"v_ms":6.93367390721373}},{"type":"Feature","geometry":{"type":"Point","coordinates":[-76.8762,34.7759]},"properties":{"site":"KMHX","name":"Morehead City NC","scan_time":"2026-09-16T08:58:38Z","stale":false,"bins":25,"density_birds_km3":1.250625,"heading_deg":227.7532042323188,"speed_ms":6.87151424287856,"peak_altitude_m":0.0,"u_ms":-5.054982508745628,"v_ms":-4.408750624687657}},{"type":"Feature","geometry":{"type":"Point","coordinates":[-80.6542,28.1133]},"properties":{"site":"KMLB","name":"Melbourne FL","scan_time":"2026-09-16T08:58:09Z","stale":false,"bins":25,"density_birds_km3":4.286875,"heading_deg":240.0887073141161,"speed_ms":4.18439679903367,"peak_altitude_m":0.0,"u_ms":-3.538455382757059,"v_ms":-2.1717197644571944}},{"type":"Feature","geometry":{"type":"Point","coordinates":[-86.5625,36.2472]},"properties":{"site":"KOHX","name":"Nashville TN","scan_time":"2026-09-16T08:59:22Z","stale":false,"bins":25,"density_birds_km3":17.397333333333332,"heading_deg":13.997478115044405,"speed_ms":9.994977007970572,"peak_altitude_m":200.0,"u_ms":2.619709150827713,"v_ms":9.271753908645003}},{"type":"Feature","geometry":{"type":"Point","coordinates":[-72.8639,40.8655]},"properties":{"site":"KOKX","name":"Upton NY","scan_time":"2026-09-16T09:00:49Z","stale":false,"bins":25,"density_birds_km3":0.3575,"heading_deg":65.95997734866177,"speed_ms":4.5792631578947365,"peak_altitude_m":0.0,"u_ms":4.026175438596491,"v_ms":1.6716140350877193}},{"type":"Feature","geometry":{"type":"Point","coordinates":[-80.2183,40.5317]},"properties":{"site":"KPBZ","name":"Pittsburgh PA","scan_time":"2026-09-16T09:00:51Z","stale":false,"bins":25,"density_birds_km3":2.535,"heading_deg":63.94280636753465,"speed_ms":9.855728374189912,"peak_altitude_m":400.0,"u_ms":8.752431670893207,"v_ms":3.6019526627218927}},{"type":"Feature","geometry":{"type":"Point","coordinates":[-78.4899,35.6655]},"properties":{"site":"KRAX","name":"Raleigh NC","scan_time":"2026-09-16T09:01:15Z","stale":false,"bins":25,"density_birds_km3":5.038125,"heading_deg":247.68959676657613,"speed_ms":7.281999007321008,"peak_altitude_m":0.0,"u_ms":-6.322291847623775,"v_ms":-2.7277912892418414}},{"type":"Feature","geometry":{"type":"Point","coordinates":[-82.4017,27.7055]},"properties":{"site":"KTBW","name":"Tampa FL","scan_time":"2026-09-16T09:01:10Z","stale":false,"bins":25,"density_birds_km3":10.73,"heading_deg":190.54501992827008,"speed_ms":8.494900978564772,"peak_altitude_m":0.0,"u_ms":-1.5006494641192918,"v_ms":-8.0149924277726}}]}