{"type":"FeatureCollection","frame":"2026-09-10T09","site_count":20,"fresh_count":20,"failures":{},"features":[{"type":"Feature","geometry":{"type":"Point","coordinates":[-77.0073,36.984]},"properties":{"site":"KAKQ","name":"Wakefield VA","scan_time":"2026-09-10T08:57:53Z","stale":false,"bins":25,"density_birds_km3":0.72,"heading_deg":58.47300321399799,"speed_ms":13.991759581881533,"peak_altitude_m":0.0,"u_ms":11.87130662020906,"v_ms":6.243432055749128}},{"type":"Feature","geometry":{"type":"Point","coordinates":[-71.1369,41.9558]},"properties":{"site":"KBOX","name":"Boston MA","scan_time":"2026-09-10T09:02:41Z","stale":false,"bins":25,"density_birds_km3":0.23625000000000002,"heading_deg":53.4414447157222,"speed_ms":14.216732954545455,"peak_altitude_m":0.0,"u_ms":11.682017045454545,"v_ms":7.081704545454545}},{"type":"Feature","geometry":{"type":"Point","coordinates":[-78.7369,42.9489]},"properties":{"site":"KBUF","name":"Buffalo NY","scan_time":"2026-09-10T08:56:13Z","stale":false,"bins":25,"density_birds_km3":6.044666666666667,"heading_deg":120.17092813336522,"speed_ms":14.97850115804566,"peak_altitude_m":600.0,"u_ms":12.46725708613654,"v_ms":-7.880371677511856}},{"type":"Feature","geometry":{"type":"Point","coordinates":[-81.8597,41.4131]},"properties":{"site":"KCLE","name":"Cleveland OH","scan_time":"2026-09-10T09:00:30Z","stale":false,"bins":25,"density_birds_km3":73.19733333333333,"heading_deg":163.8718476020144,"speed_ms":14.62129761189136,"peak_altitude_m":800.0,"u_ms":3.531207807348307,"v_ms":-14.006348707579647}},{"type":"Feature","geometry":{"type":"Point","coordinates":[-81.0423,32.6555]},"properties":{"site":"KCLX","name":"Charleston SC","scan_time":"2026-09-10T08:58:06Z","stale":false,"bins":25,"density_birds_km3":1.615625,"heading_deg":292.3474121896487,"speed_ms":4.671671826625388,"peak_altitude_m":0.0,"u_ms":-3.948467492260062,"v_ms":1.754620743034056}},{"type":"Feature","geometry":{"type":"Point","coordinates":[-74.4108,39.947]},"properties":{"site":"KDIX","name":"Philadelphia PA","scan_time":"2026-09-10T08:58:38Z","stale":false,"bins":25,"density_birds_km3":0.330625,"heading_deg":65.38422111192831,"speed_ms":15.2395825426945,"peak_altitude_m":0.0,"u_ms":13.812314990512334,"v_ms":5.257286527514231}},{"type":"Feature","geometry":{"type":"Point","coordinates":[-84.5658,33.3636]},"properties":{"site":"KFFC","name":"Atlanta GA","scan_time":"2026-09-10T09:01:05Z","stale":false,"bins":25,"density_birds_km3":13.461333333333332,"heading_deg":265.20720961341874,"speed_ms":3.3599767199960375,"peak_altitude_m":200.0,"u_ms":-0.9203536579325376,"v_ms":-1.0024850165931944}},{"type":"Feature","geometry":{"type":"Point","coordinates":[-85.5449,42.8939]},"properties":{"site":"KGRR","name":"Grand Rapids MI","scan_time":"2026-09-10T09:02:04Z","stale":false,"bins":25,"density_birds_km3":57.95466666666667,"heading_deg":173.03091449783133,"speed_ms":9.02889273794453,"peak_altitude_m":400.0,"u_ms":1.20596869605248,"v_ms":-8.829681321210728}},{"type":"Feature","geometry":{"type":"Point","coordinates":[-83.8217,39.4203]},"properties":{"site":"KILN","name":"Wilmington OH","scan_time":"2026-09-10T09:01:03Z","stale":false,"bins":25,"density_birds_km3":51.45333333333333,"heading_deg":157.51526880395554,"speed_ms":11.303408395957502,"peak_altitude_m":600.0,"u_ms":4.852252008292304,"v_ms":-9.890838559212233}},{"type":"Feature","geometry":{"type":"Point","coordinates":[-81.7019,30.4846]},"properties":{"site":"KJAX","name":"Jacksonville FL","scan_time":"2026-09-10T09:02:06Z","stale":false,"bins":25,"density_birds_km3":4.426875,"heading_deg":220.5410976498265,"speed_ms":3.012503176620076,"peak_altitude_m":0.0,"u_ms":-1.8421233940420725,"v_ms":-2.218718057320345}},{"type":"Feature","geometry":{"type":"Point","coordinates":[-88.0847,41.6045]},"properties":{"site":"KLOT","name":"Chicago IL","scan_time":"2026-09-10T09:01:14Z","stale":false,"bins":25,"density_birds_km3":167.166,"heading_deg":169.18710700109705,"speed_ms":11.22579615268004,"peak_altitude_m":400.0,"u_ms":1.8952825649863565,"v_ms":-10.794762354987474}},{"type":"Feature","geometry":{"type":"Point","coordinates":[-78.4292,33.9892]},"properties":{"site":"KLTX","name":"Wilmington NC","scan_time":"2026-09-10T09:01:51Z","stale":false,"bins":25,"density_birds_km3":0.891875,"heading_deg":32.591102348450164,"speed_ms":2.5577540867093105,"peak_altitude_m":0.0,"u_ms":1.415678749111585,"v_ms":1.4207462686567163}},{"type":"Feature","geometry":{"type":"Point","coordinates":[-77.4778,38.9753]},"properties":{"site":"KLWX","name":"Sterling VA","scan_time":"2026-09-10T08:58:47Z","stale":false,"bins":25,"density_birds_km3":2.131875,"heading_deg":63.05806416162786,"speed_ms":8.493017015706807,"peak_altitude_m":0.0,"u_ms":6.995399214659686,"v_ms":2.006047120418848}},{"type":"Feature","geometry":{"type":"Point","coordinates":[-76.8762,34.7759]},"properties":{"site":"KMHX","name":"Morehead City NC","scan_time":"2026-09-10T08:56:29Z","stale":false,"bins":25,"density_birds_km3":0.36875,"heading_deg":66.62846841641654,"speed_ms":7.849488926746167,"peak_altitude_m":0.0,"u_ms":6.568909710391822,"v_ms":2.708449744463373}},{"type":"Feature","geometry":{"type":"Point","coordinates":[-80.6542,28.1133]},"properties":{"site":"KMLB","name":"Melbourne FL","scan_time":"2026-09-10T09:00:22Z","stale":false,"bins":25,"density_birds_km3":3.165625,"heading_deg":165.99651926088677,"speed_ms":2.245133267522211,"peak_altitude_m":0.0,"u_ms":0.41861994076999026,"v_ms":-1.2032951628825272}},{"type":"Feature","geometry":{"type":"Point","coordinates":[-86.5625,36.2472]},"properties":{"site":"KOHX","name":"Nashville TN","scan_time":"2026-09-10T08:58:04Z","stale":false,"bins":25,"density_birds_km3":9.719333333333333,"heading_deg":52.56803278784564,"speed_ms":9.85928252966596,"peak_altitude_m":200.0,"u_ms":7.454018108237876,"v_ms":5.381337540297689}},{"type":"Feature","geometry":{"type":"Point","coordinates":[-72.8639,40.8655]},"properties":{"site":"KOKX","name":"Upton NY","scan_time":"2026-09-10T09:01:59Z","stale":false,"bins":25,"density_birds_km3":0.4425,"heading_deg":51.6,"speed_ms":11.96,"peak_altitude_m":0.0,"u_ms":9.37,"v_ms":7.430000000000001}},{"type":"Feature","geometry":{"type":"Point","coordinates":[-80.2183,40.5317]},"properties":{"site":"KPBZ","name":"Pittsburgh PA","scan_time":"2026-09-10T08:57:55Z","stale":false,"bins":25,"density_birds_km3":11.132857142857143,"heading_deg":122.86730699431246,"speed_ms":8.512596561016299,"peak_altitude_m":600.0,"u_ms":6.967220582574106,"v_ms":-4.644849223662261}},{"type":"Feature","geometry":{"type":"Point","coordinates":[-78.4899,35.6655]},"properties":{"site":"KRAX","name":"Raleigh NC","scan_time":"2026-09-10T09:02:11Z","stale":false,"bins":25,"density_birds_km3":1.6175,"heading_deg":66.3444277361464,"speed_ms":10.935741459627328,"peak_altitude_m":0.0,"u_ms":9.961040372670807,"v_ms":4.162352484472049}},{"type":"Feature","geometry":{"type":"Point","coordinates":[-82.4017,27.7055]},"properties":{"site":"KTBW","name":"Tampa FL","scan_time":"2026-09-10T08:59:59Z","stale":false,"bins":25,"density_birds_km3":3.240625,"heading_deg":309.92457499537306,"speed_ms":6.06959467284308,"peak_altitude_m":0.0,"u_ms":-4.490899440262497,"v_ms":3.838191468828412}}]}