{"type":"FeatureCollection","frame":"2026-09-29T00","site_count":20,"fresh_count":20,"failures":{},"features":[{"type":"Feature","geometry":{"type":"Point","coordinates":[-77.0073,36.984]},"properties":{"site":"KAKQ","name":"Wakefield VA","scan_time":"2026-09-29T00:03:17Z","stale":false,"bins":25,"density_birds_km3":21.391875000000002,"heading_deg":303.34806797932515,"speed_ms":4.444783472619952,"peak_altitude_m":200.0,"u_ms":-3.4991856115948807,"v_ms":1.8733925544971068}},{"type":"Feature","geometry":{"type":"Point","coordinates":[-71.1369,41.9558]},"properties":{"site":"KBOX","name":"Boston MA","scan_time":"2026-09-29T00:00:27Z","stale":false,"bins":25,"density_birds_km3":0.605,"heading_deg":343.87043694469764,"speed_ms":1.84,"peak_altitude_m":200.0,"u_ms":-0.4766666666666667,"v_ms":1.776666666666667}},{"type":"Feature","geometry":{"type":"Point","coordinates":[-78.7369,42.9489]},"properties":{"site":"KBUF","name":"Buffalo NY","scan_time":"2026-09-28T23:56:58Z","stale":false,"bins":25,"density_birds_km3":2.308666666666667,"heading_deg":127.34346811914182,"speed_ms":5.535428818943113,"peak_altitude_m":400.0,"u_ms":3.119133699104822,"v_ms":-3.145607854461449}},{"type":"Feature","geometry":{"type":"Point","coordinates":[-81.8597,41.4131]},"properties":{"site":"KCLE","name":"Cleveland OH","scan_time":"2026-09-28T23:59:47Z","stale":false,"bins":25,"density_birds_km3":9.794,"heading_deg":151.2483523173218,"speed_ms":4.314404737594446,"peak_altitude_m":400.0,"u_ms":1.9602715948539922,"v_ms":-3.8097474644340075}},{"type":"Feature","geometry":{"type":"Point","coordinates":[-81.0423,32.6555]},"properties":{"site":"KCLX","name":"Charleston SC","scan_time":"2026-09-28T23:57:30Z","stale":false,"bins":25,"density_birds_km3":9.4975,"heading_deg":198.32593844983018,"speed_ms":4.5895218651211795,"peak_altitude_m":200.0,"u_ms":-1.2034971022128556,"v_ms":-4.112756849315068}},{"type":"Feature","geometry":{"type":"Point","coordinates":[-74.4108,39.947]},"properties":{"site":"KDIX","name":"Philadelphia PA","scan_time":"2026-09-29T00:02:18Z","stale":false,"bins":25,"density_birds_km3":14.425625,"heading_deg":123.07490026773486,"speed_ms":4.763711152529148,"peak_altitude_m":200.0,"u_ms":3.0543864591911922,"v_ms":-2.1921342811321574}},{"type":"Feature","geometry":{"type":"Point","coordinates":[-84.5658,33.3636]},"properties":{"site":"KFFC","name":"Atlanta GA","scan_time":"2026-09-29T00:00:00Z","stale":false,"bins":25,"density_birds_km3":17.866666666666667,"heading_deg":165.3435768681183,"speed_ms":5.741540671641791,"peak_altitude_m":400.0,"u_ms":1.500309328358209,"v_ms":-5.495265671641791}},{"type":"Feature","geometry":{"type":"Point","coordinates":[-85.5449,42.8939]},"properties":{"site":"KGRR","name":"Grand Rapids MI","scan_time":"2026-09-28T23:58:54Z","stale":false,"bins":25,"density_birds_km3":8.086,"heading_deg":123.29504315725424,"speed_ms":5.873467721988622,"peak_altitude_m":400.0,"u_ms":4.905977409514386,"v_ms":-3.1022491549179647}},{"type":"Feature","geometry":{"type":"Point","coordinates":[-83.8217,39.4203]},"properties":{"site":"KILN","name":"Wilmington OH","scan_time":"2026-09-29T00:01:38Z","stale":false,"bins":25,"density_birds_km3":20.206,"heading_deg":145.27816885104383,"speed_ms":6.0750656678986275,"peak_altitude_m":400.0,"u_ms":3.4853649683210133,"v_ms":-4.916173442449841}},{"type":"Feature","geometry":{"type":"Point","coordinates":[-81.7019,30.4846]},"properties":{"site":"KJAX","name":"Jacksonville FL","scan_time":"2026-09-28T23:59:50Z","stale":false,"bins":25,"density_birds_km3":39.719375,"heading_deg":175.74986116776847,"speed_ms":5.5771895013453765,"peak_altitude_m":200.0,"u_ms":0.8644175544051235,"v_ms":-5.295344998505138}},{"type":"Feature","geometry":{"type":"Point","coordinates":[-88.0847,41.6045]},"properties":{"site":"KLOT","name":"Chicago IL","scan_time":"2026-09-28T23:57:11Z","stale":false,"bins":25,"density_birds_km3":0.994,"heading_deg":229.67323306430058,"speed_ms":5.20683433936955,"peak_altitude_m":200.0,"u_ms":-3.877069081153588,"v_ms":-3.29617035546613}},{"type":"Feature","geometry":{"type":"Point","coordinates":[-78.4292,33.9892]},"properties":{"site":"KLTX","name":"Wilmington NC","scan_time":"2026-09-29T00:01:25Z","stale":false,"bins":25,"density_birds_km3":43.684375,"heading_deg":65.42677644590042,"speed_ms":2.823266757278775,"peak_altitude_m":0.0,"u_ms":1.4423483797124257,"v_ms":0.6110581586665713}},{"type":"Feature","geometry":{"type":"Point","coordinates":[-77.4778,38.9753]},"properties":{"site":"KLWX","name":"Sterling VA","scan_time":"2026-09-28T23:57:31Z","stale":false,"bins":25,"density_birds_km3":15.626875,"heading_deg":154.23976755065883,"speed_ms":5.986989518322932,"peak_altitude_m":200.0,"u_ms":2.5305408865418464,"v_ms":-5.411668266922707}},{"type":"Feature","geometry":{"type":"Point","coordinates":[-76.8762,34.7759]},"properties":{"site":"KMHX","name":"Morehead City NC","scan_time":"2026-09-29T00:00:11Z","stale":false,"bins":25,"density_birds_km3":44.358125,"heading_deg":329.66363327208626,"speed_ms":5.140476116669015,"peak_altitude_m":0.0,"u_ms":-2.5845577004368048,"v_ms":4.0682694096096945}},{"type":"Feature","geometry":{"type":"Point","coordinates":[-80.6542,28.1133]},"properties":{"site":"KMLB","name":"Melbourne FL","scan_time":"2026-09-28T23:58:01Z","stale":false,"bins":25,"density_birds_km3":20.2,"heading_deg":250.6460947048423,"speed_ms":5.644769183168317,"peak_altitude_m":0.0,"u_ms":-3.6080569306930697,"v_ms":-0.4103948019801981}},{"type":"Feature","geometry":{"type":"Point","coordinates":[-86.5625,36.2472]},"properties":{"site":"KOHX","name":"Nashville TN","scan_time":"2026-09-28T23:57:31Z","stale":false,"bins":25,"density_birds_km3":2.9213333333333336,"heading_deg":209.49191589079092,"speed_ms":5.921552734375,"peak_altitude_m":400.0,"u_ms":-2.843623046875,"v_ms":-5.142377929687501}},{"type":"Feature","geometry":{"type":"Point","coordinates":[-72.8639,40.8655]},"properties":{"site":"KOKX","name":"Upton NY","scan_time":"2026-09-29T00:02:20Z","stale":false,"bins":25,"density_birds_km3":2.089375,"heading_deg":154.21296587346788,"speed_ms":8.220423657718122,"peak_altitude_m":0.0,"u_ms":3.4823489932885905,"v_ms":-7.380947986577181}},{"type":"Feature","geometry":{"type":"Point","coordinates":[-80.2183,40.5317]},"properties":{"site":"KPBZ","name":"Pittsburgh PA","scan_time":"2026-09-29T00:03:12Z","stale":false,"bins":25,"density_birds_km3":4.422142857142857,"heading_deg":134.85568337896774,"speed_ms":7.575585071707953,"peak_altitude_m":400.0,"u_ms":5.130682855280313,"v_ms":-5.403754889178617}},{"type":"Feature","geometry":{"type":"Point","coordinates":[-78.4899,35.6655]},"properties":{"site":"KRAX","name":"Raleigh NC","scan_time":"2026-09-29T00:04:12Z","stale":false,"bins":25,"density_birds_km3":66.288125,"heading_deg":236.21470619206235,"speed_ms":3.308394263137547,"peak_altitude_m":200.0,"u_ms":-2.6033696994842104,"v_ms":-1.5991270237904402}},{"type":"Feature","geometry":{"type":"Point","coordinates":[-82.4017,27.7055]},"properties":{"site":"KTBW","name":"Tampa FL","scan_time":"2026-09-28T23:58:04Z","stale":false,"bins":25,"density_birds_km3":38.401875,"heading_deg":120.28256374203197,"speed_ms":7.336057908271215,"peak_altitude_m":0.0,"u_ms":5.524293968295303,"v_ms":-3.3050255525536283}}]}