{"type":"FeatureCollection","frame":"2026-08-22T08","site_count":20,"fresh_count":20,"failures":{},"features":[{"type":"Feature","geometry":{"type":"Point","coordinates":[-77.0073,36.984]},"properties":{"site":"KAKQ","name":"Wakefield VA","scan_time":"2026-08-22T08:00:13Z","stale":false,"bins":25,"density_birds_km3":3.15375,"heading_deg":234.88210142076,"speed_ms":2.5410730639060324,"peak_altitude_m":200.0,"u_ms":-1.4703026080031854,"v_ms":-0.2726597650806291}},{"type":"Feature","geometry":{"type":"Point","coordinates":[-71.1369,41.9558]},"properties":{"site":"KBOX","name":"Boston MA","scan_time":"2026-08-22T07:58:45Z","stale":false,"bins":25,"density_birds_km3":2.14375,"heading_deg":193.25637556477577,"speed_ms":8.862471516213848,"peak_altitude_m":0.0,"u_ms":-2.024688869412796,"v_ms":-8.484820333041192}},{"type":"Feature","geometry":{"type":"Point","coordinates":[-78.7369,42.9489]},"properties":{"site":"KBUF","name":"Buffalo NY","scan_time":"2026-08-22T08:00:27Z","stale":false,"bins":25,"density_birds_km3":0.7253333333333333,"heading_deg":355.9746868072842,"speed_ms":7.820423183072677,"peak_altitude_m":200.0,"u_ms":-0.6616191352345907,"v_ms":7.70853725850966}},{"type":"Feature","geometry":{"type":"Point","coordinates":[-81.8597,41.4131]},"properties":{"site":"KCLE","name":"Cleveland OH","scan_time":"2026-08-22T08:01:12Z","stale":false,"bins":25,"density_birds_km3":3.094666666666667,"heading_deg":7.220863690833953,"speed_ms":9.174046778464255,"peak_altitude_m":200.0,"u_ms":1.0508384819064431,"v_ms":8.564624889673434}},{"type":"Feature","geometry":{"type":"Point","coordinates":[-81.0423,32.6555]},"properties":{"site":"KCLX","name":"Charleston SC","scan_time":"2026-08-22T08:01:33Z","stale":false,"bins":25,"density_birds_km3":3.1725,"heading_deg":160.6665388830389,"speed_ms":6.222525462481813,"peak_altitude_m":0.0,"u_ms":1.828561629598836,"v_ms":-5.733639575971731}},{"type":"Feature","geometry":{"type":"Point","coordinates":[-74.4108,39.947]},"properties":{"site":"KDIX","name":"Philadelphia PA","scan_time":"2026-08-22T08:01:57Z","stale":false,"bins":25,"density_birds_km3":5.202500000000001,"heading_deg":233.45691061947073,"speed_ms":5.254500780968401,"peak_altitude_m":400.0,"u_ms":-4.216336657455244,"v_ms":-3.082071368496936}},{"type":"Feature","geometry":{"type":"Point","coordinates":[-84.5658,33.3636]},"properties":{"site":"KFFC","name":"Atlanta GA","scan_time":"2026-08-22T07:59:02Z","stale":false,"bins":25,"density_birds_km3":16.372,"heading_deg":177.34537380680993,"speed_ms":6.267623177783207,"peak_altitude_m":800.0,"u_ms":-0.1300228031598665,"v_ms":-5.567645980943073}},{"type":"Feature","geometry":{"type":"Point","coordinates":[-85.5449,42.8939]},"properties":{"site":"KGRR","name":"Grand Rapids MI","scan_time":"2026-08-22T07:59:32Z","stale":false,"bins":25,"density_birds_km3":0.9073333333333333,"heading_deg":null,"speed_ms":null,"peak_altitude_m":200.0,"u_ms":null,"v_ms":null}},{"type":"Feature","geometry":{"type":"Point","coordinates":[-83.8217,39.4203]},"properties":{"site":"KILN","name":"Wilmington OH","scan_time":"2026-08-22T08:01:31Z","stale":false,"bins":25,"density_birds_km3":2.6266666666666665,"heading_deg":55.03545544229826,"speed_ms":6.462449860370652,"peak_altitude_m":200.0,"u_ms":5.214696623508504,"v_ms":3.5524168570703223}},{"type":"Feature","geometry":{"type":"Point","coordinates":[-81.7019,30.4846]},"properties":{"site":"KJAX","name":"Jacksonville FL","scan_time":"2026-08-22T07:59:53Z","stale":false,"bins":25,"density_birds_km3":10.58375,"heading_deg":125.33874056927397,"speed_ms":4.305308955576559,"peak_altitude_m":0.0,"u_ms":3.615109286389414,"v_ms":-2.1961442580340265}},{"type":"Feature","geometry":{"type":"Point","coordinates":[-88.0847,41.6045]},"properties":{"site":"KLOT","name":"Chicago IL","scan_time":"2026-08-22T08:00:41Z","stale":false,"bins":25,"density_birds_km3":6.016666666666667,"heading_deg":137.0394677797362,"speed_ms":10.208731161347517,"peak_altitude_m":400.0,"u_ms":6.312324911347518,"v_ms":-6.923192597517731}},{"type":"Feature","geometry":{"type":"Point","coordinates":[-78.4292,33.9892]},"properties":{"site":"KLTX","name":"Wilmington NC","scan_time":"2026-08-22T08:01:10Z","stale":false,"bins":25,"density_birds_km3":0.51625,"heading_deg":306.6742254448554,"speed_ms":5.812615012106538,"peak_altitude_m":0.0,"u_ms":-4.432154963680388,"v_ms":3.397481840193705}},{"type":"Feature","geometry":{"type":"Point","coordinates":[-77.4778,38.9753]},"properties":{"site":"KLWX","name":"Sterling VA","scan_time":"2026-08-22T07:57:47Z","stale":false,"bins":25,"density_birds_km3":4.923125,"heading_deg":285.52441978481704,"speed_ms":4.946352672337184,"peak_altitude_m":200.0,"u_ms":-4.6601421861114645,"v_ms":1.3368693665100928}},{"type":"Feature","geometry":{"type":"Point","coordinates":[-76.8762,34.7759]},"properties":{"site":"KMHX","name":"Morehead City NC","scan_time":"2026-08-22T08:02:17Z","stale":false,"bins":25,"density_birds_km3":1.585625,"heading_deg":165.7,"speed_ms":4.04,"peak_altitude_m":0.0,"u_ms":1.0,"v_ms":-3.92}},{"type":"Feature","geometry":{"type":"Point","coordinates":[-80.6542,28.1133]},"properties":{"site":"KMLB","name":"Melbourne FL","scan_time":"2026-08-22T07:59:20Z","stale":false,"bins":25,"density_birds_km3":5.975,"heading_deg":83.52112932182814,"speed_ms":3.4711727168113815,"peak_altitude_m":0.0,"u_ms":3.1772183282770166,"v_ms":0.566622031593263}},{"type":"Feature","geometry":{"type":"Point","coordinates":[-86.5625,36.2472]},"properties":{"site":"KOHX","name":"Nashville TN","scan_time":"2026-08-22T07:59:55Z","stale":false,"bins":25,"density_birds_km3":21.338666666666665,"heading_deg":190.41293906493962,"speed_ms":5.0278542864283935,"peak_altitude_m":400.0,"u_ms":-0.9827977380654837,"v_ms":-4.596826418395401}},{"type":"Feature","geometry":{"type":"Point","coordinates":[-72.8639,40.8655]},"properties":{"site":"KOKX","name":"Upton NY","scan_time":"2026-08-22T07:57:22Z","stale":false,"bins":25,"density_birds_km3":0.87,"heading_deg":206.10810826767528,"speed_ms":5.001966001478197,"peak_altitude_m":0.0,"u_ms":-2.1700960827790094,"v_ms":-4.384338507021433}},{"type":"Feature","geometry":{"type":"Point","coordinates":[-80.2183,40.5317]},"properties":{"site":"KPBZ","name":"Pittsburgh PA","scan_time":"2026-08-22T08:00:58Z","stale":false,"bins":25,"density_birds_km3":1.4157142857142857,"heading_deg":8.464322666925018,"speed_ms":3.0646821392532795,"peak_altitude_m":400.0,"u_ms":-0.5612815338042382,"v_ms":1.527255297679112}},{"type":"Feature","geometry":{"type":"Point","coordinates":[-78.4899,35.6655]},"properties":{"site":"KRAX","name":"Raleigh NC","scan_time":"2026-08-22T08:01:25Z","stale":false,"bins":25,"density_birds_km3":4.55375,"heading_deg":213.52554990163716,"speed_ms":4.702121378552794,"peak_altitude_m":200.0,"u_ms":-2.574510503913223,"v_ms":-3.4948400384456955}},{"type":"Feature","geometry":{"type":"Point","coordinates":[-82.4017,27.7055]},"properties":{"site":"KTBW","name":"Tampa FL","scan_time":"2026-08-22T08:01:35Z","stale":false,"bins":25,"density_birds_km3":1.24,"heading_deg":278.0659544012432,"speed_ms":2.0436735725113695,"peak_altitude_m":0.0,"u_ms":-0.27423951490651843,"v_ms":-0.09865588681152088}}]}