{"type":"FeatureCollection","frame":"2026-09-20T06","site_count":20,"fresh_count":20,"failures":{},"features":[{"type":"Feature","geometry":{"type":"Point","coordinates":[-77.0073,36.984]},"properties":{"site":"KAKQ","name":"Wakefield VA","scan_time":"2026-09-20T05:56:03Z","stale":false,"bins":25,"density_birds_km3":8.738125,"heading_deg":231.79889494229948,"speed_ms":6.374244635193133,"peak_altitude_m":0.0,"u_ms":-4.529609442060085,"v_ms":-3.709782546494993}},{"type":"Feature","geometry":{"type":"Point","coordinates":[-71.1369,41.9558]},"properties":{"site":"KBOX","name":"Boston MA","scan_time":"2026-09-20T05:57:01Z","stale":false,"bins":25,"density_birds_km3":1.361875,"heading_deg":343.38741024039706,"speed_ms":4.502444852941176,"peak_altitude_m":0.0,"u_ms":-1.1438832720588235,"v_ms":4.2797334558823525}},{"type":"Feature","geometry":{"type":"Point","coordinates":[-78.7369,42.9489]},"properties":{"site":"KBUF","name":"Buffalo NY","scan_time":"2026-09-20T06:01:12Z","stale":false,"bins":25,"density_birds_km3":3.0406666666666666,"heading_deg":249.15535368136335,"speed_ms":2.014144736842105,"peak_altitude_m":200.0,"u_ms":-0.774828947368421,"v_ms":-0.25701535087719296}},{"type":"Feature","geometry":{"type":"Point","coordinates":[-81.8597,41.4131]},"properties":{"site":"KCLE","name":"Cleveland OH","scan_time":"2026-09-20T06:00:25Z","stale":false,"bins":25,"density_birds_km3":11.496,"heading_deg":323.2697272143519,"speed_ms":4.2803398480542825,"peak_altitude_m":200.0,"u_ms":-1.1432152177695298,"v_ms":1.2751963115467146}},{"type":"Feature","geometry":{"type":"Point","coordinates":[-81.0423,32.6555]},"properties":{"site":"KCLX","name":"Charleston SC","scan_time":"2026-09-20T06:00:02Z","stale":false,"bins":25,"density_birds_km3":27.12125,"heading_deg":210.75887881981103,"speed_ms":8.920261096004056,"peak_altitude_m":0.0,"u_ms":-4.234139281928377,"v_ms":-7.664726229432641}},{"type":"Feature","geometry":{"type":"Point","coordinates":[-74.4108,39.947]},"properties":{"site":"KDIX","name":"Philadelphia PA","scan_time":"2026-09-20T05:57:50Z","stale":false,"bins":25,"density_birds_km3":0.765,"heading_deg":310.4398924410758,"speed_ms":8.275881870385563,"peak_altitude_m":200.0,"u_ms":-6.026497128794094,"v_ms":5.36433962264151}},{"type":"Feature","geometry":{"type":"Point","coordinates":[-84.5658,33.3636]},"properties":{"site":"KFFC","name":"Atlanta GA","scan_time":"2026-09-20T05:59:02Z","stale":false,"bins":25,"density_birds_km3":89.61533333333334,"heading_deg":213.1199038490822,"speed_ms":8.56943558765985,"peak_altitude_m":400.0,"u_ms":-4.036758069675576,"v_ms":-6.9193974989399125}},{"type":"Feature","geometry":{"type":"Point","coordinates":[-85.5449,42.8939]},"properties":{"site":"KGRR","name":"Grand Rapids MI","scan_time":"2026-09-20T05:59:27Z","stale":false,"bins":25,"density_birds_km3":0.728,"heading_deg":306.3710762124138,"speed_ms":3.3866819431714017,"peak_altitude_m":400.0,"u_ms":-2.0743996333638863,"v_ms":1.4887076076993584}},{"type":"Feature","geometry":{"type":"Point","coordinates":[-83.8217,39.4203]},"properties":{"site":"KILN","name":"Wilmington OH","scan_time":"2026-09-20T05:59:29Z","stale":false,"bins":25,"density_birds_km3":26.51,"heading_deg":139.4,"speed_ms":6.93,"peak_altitude_m":600.0,"u_ms":4.51,"v_ms":-5.26}},{"type":"Feature","geometry":{"type":"Point","coordinates":[-81.7019,30.4846]},"properties":{"site":"KJAX","name":"Jacksonville FL","scan_time":"2026-09-20T05:58:33Z","stale":false,"bins":25,"density_birds_km3":40.646875,"heading_deg":188.4582116513756,"speed_ms":8.496406089028984,"peak_altitude_m":200.0,"u_ms":-1.2250062274160067,"v_ms":-8.39303221342354}},{"type":"Feature","geometry":{"type":"Point","coordinates":[-88.0847,41.6045]},"properties":{"site":"KLOT","name":"Chicago IL","scan_time":"2026-09-20T06:01:00Z","stale":false,"bins":25,"density_birds_km3":54.504999999999995,"heading_deg":null,"speed_ms":null,"peak_altitude_m":400.0,"u_ms":null,"v_ms":null}},{"type":"Feature","geometry":{"type":"Point","coordinates":[-78.4292,33.9892]},"properties":{"site":"KLTX","name":"Wilmington NC","scan_time":"2026-09-20T05:59:11Z","stale":false,"bins":25,"density_birds_km3":25.835625,"heading_deg":227.24176904864422,"speed_ms":12.486476877840149,"peak_altitude_m":0.0,"u_ms":-9.035553206483439,"v_ms":-8.405005953682778}},{"type":"Feature","geometry":{"type":"Point","coordinates":[-77.4778,38.9753]},"properties":{"site":"KLWX","name":"Sterling VA","scan_time":"2026-09-20T06:01:38Z","stale":false,"bins":25,"density_birds_km3":8.005,"heading_deg":350.8130036391874,"speed_ms":8.914472220045452,"peak_altitude_m":200.0,"u_ms":-0.274519238304208,"v_ms":8.429712404983935}},{"type":"Feature","geometry":{"type":"Point","coordinates":[-76.8762,34.7759]},"properties":{"site":"KMHX","name":"Morehead City NC","scan_time":"2026-09-20T06:00:08Z","stale":false,"bins":25,"density_birds_km3":8.0625,"heading_deg":216.24412557314264,"speed_ms":10.062751937984498,"peak_altitude_m":0.0,"u_ms":-5.636405426356589,"v_ms":-8.011619379844962}},{"type":"Feature","geometry":{"type":"Point","coordinates":[-80.6542,28.1133]},"properties":{"site":"KMLB","name":"Melbourne FL","scan_time":"2026-09-20T05:59:01Z","stale":false,"bins":25,"density_birds_km3":2.911875,"heading_deg":193.8216487812239,"speed_ms":3.3337926593689633,"peak_altitude_m":0.0,"u_ms":-0.6690598840952994,"v_ms":-3.1340845675037556}},{"type":"Feature","geometry":{"type":"Point","coordinates":[-86.5625,36.2472]},"properties":{"site":"KOHX","name":"Nashville TN","scan_time":"2026-09-20T05:58:07Z","stale":false,"bins":25,"density_birds_km3":43.43666666666666,"heading_deg":32.39365589234433,"speed_ms":7.356166525976518,"peak_altitude_m":200.0,"u_ms":2.769980814979664,"v_ms":4.956217327910369}},{"type":"Feature","geometry":{"type":"Point","coordinates":[-72.8639,40.8655]},"properties":{"site":"KOKX","name":"Upton NY","scan_time":"2026-09-20T05:56:20Z","stale":false,"bins":25,"density_birds_km3":0.50875,"heading_deg":300.370570100426,"speed_ms":6.373916666666667,"peak_altitude_m":0.0,"u_ms":-5.373208333333333,"v_ms":3.078930555555556}},{"type":"Feature","geometry":{"type":"Point","coordinates":[-80.2183,40.5317]},"properties":{"site":"KPBZ","name":"Pittsburgh PA","scan_time":"2026-09-20T05:58:11Z","stale":false,"bins":25,"density_birds_km3":8.486428571428572,"heading_deg":88.13290407411257,"speed_ms":9.3917624779059,"peak_altitude_m":400.0,"u_ms":9.338097803215216,"v_ms":-0.15443649524450803}},{"type":"Feature","geometry":{"type":"Point","coordinates":[-78.4899,35.6655]},"properties":{"site":"KRAX","name":"Raleigh NC","scan_time":"2026-09-20T06:01:24Z","stale":false,"bins":25,"density_birds_km3":33.730000000000004,"heading_deg":236.36351467274966,"speed_ms":6.677468135385073,"peak_altitude_m":0.0,"u_ms":-5.006089723312804,"v_ms":-3.6392616712874233}},{"type":"Feature","geometry":{"type":"Point","coordinates":[-82.4017,27.7055]},"properties":{"site":"KTBW","name":"Tampa FL","scan_time":"2026-09-20T05:58:13Z","stale":false,"bins":25,"density_birds_km3":12.745,"heading_deg":213.2392341782405,"speed_ms":6.571223759073965,"peak_altitude_m":0.0,"u_ms":-3.199087698646262,"v_ms":-5.432452422993918}}]}