{"type":"FeatureCollection","frame":"2026-09-29T12","site_count":20,"fresh_count":20,"failures":{},"features":[{"type":"Feature","geometry":{"type":"Point","coordinates":[-77.0073,36.984]},"properties":{"site":"KAKQ","name":"Wakefield VA","scan_time":"2026-09-29T12:02:32Z","stale":false,"bins":25,"density_birds_km3":0.5443749999999999,"heading_deg":282.9780154987998,"speed_ms":4.971079219288175,"peak_altitude_m":0.0,"u_ms":-4.631228473019519,"v_ms":1.4280941446613091}},{"type":"Feature","geometry":{"type":"Point","coordinates":[-71.1369,41.9558]},"properties":{"site":"KBOX","name":"Boston MA","scan_time":"2026-09-29T12:03:02Z","stale":false,"bins":25,"density_birds_km3":5.710625,"heading_deg":77.25636027915552,"speed_ms":3.681937046004842,"peak_altitude_m":200.0,"u_ms":3.4724818401937045,"v_ms":0.6412711864406779}},{"type":"Feature","geometry":{"type":"Point","coordinates":[-78.7369,42.9489]},"properties":{"site":"KBUF","name":"Buffalo NY","scan_time":"2026-09-29T11:59:10Z","stale":false,"bins":25,"density_birds_km3":1.438,"heading_deg":115.89577607036716,"speed_ms":4.335583992554677,"peak_altitude_m":200.0,"u_ms":3.8480269892973475,"v_ms":-1.852442996742671}},{"type":"Feature","geometry":{"type":"Point","coordinates":[-81.8597,41.4131]},"properties":{"site":"KCLE","name":"Cleveland OH","scan_time":"2026-09-29T11:57:55Z","stale":false,"bins":25,"density_birds_km3":3.3066666666666666,"heading_deg":145.55087942873666,"speed_ms":4.345060704168353,"peak_altitude_m":200.0,"u_ms":2.420390530149737,"v_ms":-3.597308781869688}},{"type":"Feature","geometry":{"type":"Point","coordinates":[-81.0423,32.6555]},"properties":{"site":"KCLX","name":"Charleston SC","scan_time":"2026-09-29T11:57:31Z","stale":false,"bins":25,"density_birds_km3":2.8175,"heading_deg":225.82331480321997,"speed_ms":5.00566992014197,"peak_altitude_m":200.0,"u_ms":-3.2835536823425024,"v_ms":-3.4910226264418815}},{"type":"Feature","geometry":{"type":"Point","coordinates":[-74.4108,39.947]},"properties":{"site":"KDIX","name":"Philadelphia PA","scan_time":"2026-09-29T12:02:45Z","stale":false,"bins":25,"density_birds_km3":1.898125,"heading_deg":107.94531142606658,"speed_ms":4.617214356272638,"peak_altitude_m":0.0,"u_ms":3.8297958511689165,"v_ms":-1.7439216331906486}},{"type":"Feature","geometry":{"type":"Point","coordinates":[-84.5658,33.3636]},"properties":{"site":"KFFC","name":"Atlanta GA","scan_time":"2026-09-29T12:03:07Z","stale":false,"bins":25,"density_birds_km3":2.933333333333333,"heading_deg":239.50245033339405,"speed_ms":5.552245454545455,"peak_altitude_m":200.0,"u_ms":-4.368388636363637,"v_ms":-2.6956772727272726}},{"type":"Feature","geometry":{"type":"Point","coordinates":[-85.5449,42.8939]},"properties":{"site":"KGRR","name":"Grand Rapids MI","scan_time":"2026-09-29T12:03:57Z","stale":false,"bins":25,"density_birds_km3":1.9813333333333332,"heading_deg":10.776999358300037,"speed_ms":0.9874587680915518,"peak_altitude_m":200.0,"u_ms":0.19811511275664762,"v_ms":0.9629552339279703}},{"type":"Feature","geometry":{"type":"Point","coordinates":[-83.8217,39.4203]},"properties":{"site":"KILN","name":"Wilmington OH","scan_time":"2026-09-29T11:58:18Z","stale":false,"bins":25,"density_birds_km3":1.6153333333333333,"heading_deg":271.324816308457,"speed_ms":1.540714876033058,"peak_altitude_m":200.0,"u_ms":-0.9385578512396694,"v_ms":0.3501611570247934}},{"type":"Feature","geometry":{"type":"Point","coordinates":[-81.7019,30.4846]},"properties":{"site":"KJAX","name":"Jacksonville FL","scan_time":"2026-09-29T12:01:03Z","stale":false,"bins":25,"density_birds_km3":7.480625,"heading_deg":150.8186945745305,"speed_ms":3.0599380515953833,"peak_altitude_m":200.0,"u_ms":1.8484309232858114,"v_ms":-1.7073217922606927}},{"type":"Feature","geometry":{"type":"Point","coordinates":[-88.0847,41.6045]},"properties":{"site":"KLOT","name":"Chicago IL","scan_time":"2026-09-29T11:57:31Z","stale":false,"bins":25,"density_birds_km3":4.197333333333334,"heading_deg":8.434433919022522,"speed_ms":2.625705209656925,"peak_altitude_m":200.0,"u_ms":1.1684450444726813,"v_ms":0.36502382465057176}},{"type":"Feature","geometry":{"type":"Point","coordinates":[-78.4292,33.9892]},"properties":{"site":"KLTX","name":"Wilmington NC","scan_time":"2026-09-29T11:59:07Z","stale":false,"bins":25,"density_birds_km3":0.183125,"heading_deg":232.70014803079317,"speed_ms":4.49208904109589,"peak_altitude_m":0.0,"u_ms":-3.086232876712329,"v_ms":-2.622671232876712}},{"type":"Feature","geometry":{"type":"Point","coordinates":[-77.4778,38.9753]},"properties":{"site":"KLWX","name":"Sterling VA","scan_time":"2026-09-29T11:58:17Z","stale":false,"bins":25,"density_birds_km3":3.504375,"heading_deg":207.54368555611887,"speed_ms":2.468066357474135,"peak_altitude_m":0.0,"u_ms":-0.14986799857295752,"v_ms":-2.051657153050303}},{"type":"Feature","geometry":{"type":"Point","coordinates":[-76.8762,34.7759]},"properties":{"site":"KMHX","name":"Morehead City NC","scan_time":"2026-09-29T11:59:39Z","stale":false,"bins":25,"density_birds_km3":0.7418750000000001,"heading_deg":341.83204513862336,"speed_ms":1.7850126368997472,"peak_altitude_m":200.0,"u_ms":-0.9621651221566976,"v_ms":0.612089300758214}},{"type":"Feature","geometry":{"type":"Point","coordinates":[-80.6542,28.1133]},"properties":{"site":"KMLB","name":"Melbourne FL","scan_time":"2026-09-29T11:59:54Z","stale":false,"bins":25,"density_birds_km3":1.99125,"heading_deg":193.25355248210082,"speed_ms":5.488463516554163,"peak_altitude_m":0.0,"u_ms":-0.7683960141433622,"v_ms":-4.997788492446159}},{"type":"Feature","geometry":{"type":"Point","coordinates":[-86.5625,36.2472]},"properties":{"site":"KOHX","name":"Nashville TN","scan_time":"2026-09-29T12:02:09Z","stale":false,"bins":25,"density_birds_km3":2.880666666666667,"heading_deg":215.3833530978268,"speed_ms":2.3409614935822636,"peak_altitude_m":200.0,"u_ms":-0.9998809801633606,"v_ms":-1.8025927654609102}},{"type":"Feature","geometry":{"type":"Point","coordinates":[-72.8639,40.8655]},"properties":{"site":"KOKX","name":"Upton NY","scan_time":"2026-09-29T12:00:22Z","stale":false,"bins":25,"density_birds_km3":1.0150000000000001,"heading_deg":27.146190236163136,"speed_ms":0.6492540073982738,"peak_altitude_m":0.0,"u_ms":0.30518495684340324,"v_ms":0.12345869297163999}},{"type":"Feature","geometry":{"type":"Point","coordinates":[-80.2183,40.5317]},"properties":{"site":"KPBZ","name":"Pittsburgh PA","scan_time":"2026-09-29T12:01:58Z","stale":false,"bins":25,"density_birds_km3":1.4892857142857143,"heading_deg":230.57976227689497,"speed_ms":2.5819712230215823,"peak_altitude_m":400.0,"u_ms":-1.976450839328537,"v_ms":-1.4214628297362109}},{"type":"Feature","geometry":{"type":"Point","coordinates":[-78.4899,35.6655]},"properties":{"site":"KRAX","name":"Raleigh NC","scan_time":"2026-09-29T12:02:25Z","stale":false,"bins":25,"density_birds_km3":1.340625,"heading_deg":191.3275205548897,"speed_ms":5.609100233100233,"peak_altitude_m":0.0,"u_ms":-1.0315198135198136,"v_ms":-5.4953286713286715}},{"type":"Feature","geometry":{"type":"Point","coordinates":[-82.4017,27.7055]},"properties":{"site":"KTBW","name":"Tampa FL","scan_time":"2026-09-29T11:59:36Z","stale":false,"bins":25,"density_birds_km3":3.141875,"heading_deg":245.36069473946327,"speed_ms":2.1739904515615676,"peak_altitude_m":200.0,"u_ms":-1.827964989059081,"v_ms":-0.7849472846628207}}]}