{"type":"FeatureCollection","frame":"2026-08-22T00","site_count":20,"fresh_count":20,"failures":{},"features":[{"type":"Feature","geometry":{"type":"Point","coordinates":[-77.0073,36.984]},"properties":{"site":"KAKQ","name":"Wakefield VA","scan_time":"2026-08-21T23:58:04Z","stale":false,"bins":25,"density_birds_km3":12.718125,"heading_deg":270.3561609196643,"speed_ms":2.1245018921708363,"peak_altitude_m":200.0,"u_ms":-2.0289271145623435,"v_ms":-0.05342163463901315}},{"type":"Feature","geometry":{"type":"Point","coordinates":[-71.1369,41.9558]},"properties":{"site":"KBOX","name":"Boston MA","scan_time":"2026-08-21T23:58:14Z","stale":false,"bins":25,"density_birds_km3":0.985,"heading_deg":212.99101590481567,"speed_ms":7.611170483460559,"peak_altitude_m":0.0,"u_ms":-4.244809160305343,"v_ms":-6.014115776081424}},{"type":"Feature","geometry":{"type":"Point","coordinates":[-78.7369,42.9489]},"properties":{"site":"KBUF","name":"Buffalo NY","scan_time":"2026-08-22T00:02:47Z","stale":false,"bins":25,"density_birds_km3":0.8866666666666667,"heading_deg":263.6067136771512,"speed_ms":6.9962979683972915,"peak_altitude_m":200.0,"u_ms":-6.8833258088788565,"v_ms":-0.809525959367946}},{"type":"Feature","geometry":{"type":"Point","coordinates":[-81.8597,41.4131]},"properties":{"site":"KCLE","name":"Cleveland OH","scan_time":"2026-08-22T00:03:01Z","stale":false,"bins":25,"density_birds_km3":1.794,"heading_deg":255.2316833767934,"speed_ms":3.510896577380952,"peak_altitude_m":200.0,"u_ms":-3.3300930059523806,"v_ms":-0.9428831845238096}},{"type":"Feature","geometry":{"type":"Point","coordinates":[-81.0423,32.6555]},"properties":{"site":"KCLX","name":"Charleston SC","scan_time":"2026-08-21T23:58:14Z","stale":false,"bins":25,"density_birds_km3":1.423125,"heading_deg":273.69999999999993,"speed_ms":1.36,"peak_altitude_m":0.0,"u_ms":-1.35,"v_ms":0.09000000000000001}},{"type":"Feature","geometry":{"type":"Point","coordinates":[-74.4108,39.947]},"properties":{"site":"KDIX","name":"Philadelphia PA","scan_time":"2026-08-22T00:02:00Z","stale":false,"bins":25,"density_birds_km3":6.2325,"heading_deg":269.6249719015535,"speed_ms":4.648874736736536,"peak_altitude_m":200.0,"u_ms":-4.536710460334971,"v_ms":0.07584294453916354}},{"type":"Feature","geometry":{"type":"Point","coordinates":[-84.5658,33.3636]},"properties":{"site":"KFFC","name":"Atlanta GA","scan_time":"2026-08-22T00:02:14Z","stale":false,"bins":25,"density_birds_km3":0.962,"heading_deg":268.0290543768975,"speed_ms":2.953298611111111,"peak_altitude_m":200.0,"u_ms":-1.6217569444444442,"v_ms":-0.046472222222222075}},{"type":"Feature","geometry":{"type":"Point","coordinates":[-85.5449,42.8939]},"properties":{"site":"KGRR","name":"Grand Rapids MI","scan_time":"2026-08-22T00:00:05Z","stale":false,"bins":25,"density_birds_km3":0.5306666666666666,"heading_deg":80.68636320808535,"speed_ms":4.6961286254728885,"peak_altitude_m":200.0,"u_ms":4.624955863808323,"v_ms":0.7589785624211856}},{"type":"Feature","geometry":{"type":"Point","coordinates":[-83.8217,39.4203]},"properties":{"site":"KILN","name":"Wilmington OH","scan_time":"2026-08-22T00:00:43Z","stale":false,"bins":25,"density_birds_km3":2.476,"heading_deg":279.81285129650246,"speed_ms":3.535216805817398,"peak_altitude_m":200.0,"u_ms":-3.4074925935900886,"v_ms":0.5135416105575006}},{"type":"Feature","geometry":{"type":"Point","coordinates":[-81.7019,30.4846]},"properties":{"site":"KJAX","name":"Jacksonville FL","scan_time":"2026-08-22T00:00:15Z","stale":false,"bins":25,"density_birds_km3":0.4975,"heading_deg":333.6129131533551,"speed_ms":4.565254237288136,"peak_altitude_m":0.0,"u_ms":-1.7909517601043026,"v_ms":3.6897783572359844}},{"type":"Feature","geometry":{"type":"Point","coordinates":[-88.0847,41.6045]},"properties":{"site":"KLOT","name":"Chicago IL","scan_time":"2026-08-21T23:59:40Z","stale":false,"bins":25,"density_birds_km3":0.4686666666666667,"heading_deg":35.86635117792893,"speed_ms":7.3892887624466566,"peak_altitude_m":200.0,"u_ms":4.083314366998577,"v_ms":4.718051209103841}},{"type":"Feature","geometry":{"type":"Point","coordinates":[-78.4292,33.9892]},"properties":{"site":"KLTX","name":"Wilmington NC","scan_time":"2026-08-21T23:58:42Z","stale":false,"bins":25,"density_birds_km3":3.278125,"heading_deg":234.7,"speed_ms":5.01,"peak_altitude_m":0.0,"u_ms":-4.08,"v_ms":-2.9}},{"type":"Feature","geometry":{"type":"Point","coordinates":[-77.4778,38.9753]},"properties":{"site":"KLWX","name":"Sterling VA","scan_time":"2026-08-22T00:00:39Z","stale":false,"bins":25,"density_birds_km3":0.543125,"heading_deg":222.32361968455234,"speed_ms":3.6880092059838896,"peak_altitude_m":0.0,"u_ms":-2.3543498273878023,"v_ms":-2.6539700805523596}},{"type":"Feature","geometry":{"type":"Point","coordinates":[-76.8762,34.7759]},"properties":{"site":"KMHX","name":"Morehead City NC","scan_time":"2026-08-21T23:58:13Z","stale":false,"bins":25,"density_birds_km3":1.9708333333333334,"heading_deg":null,"speed_ms":null,"peak_altitude_m":200.0,"u_ms":null,"v_ms":null}},{"type":"Feature","geometry":{"type":"Point","coordinates":[-80.6542,28.1133]},"properties":{"site":"KMLB","name":"Melbourne FL","scan_time":"2026-08-22T00:02:40Z","stale":false,"bins":25,"density_birds_km3":4.164375,"heading_deg":325.453763411232,"speed_ms":2.7554125113327292,"peak_altitude_m":0.0,"u_ms":-0.7547083711090963,"v_ms":1.3567905711695378}},{"type":"Feature","geometry":{"type":"Point","coordinates":[-86.5625,36.2472]},"properties":{"site":"KOHX","name":"Nashville TN","scan_time":"2026-08-22T00:01:09Z","stale":false,"bins":25,"density_birds_km3":7.649333333333333,"heading_deg":178.26427240607657,"speed_ms":8.330767822903956,"peak_altitude_m":200.0,"u_ms":0.2354837022834234,"v_ms":-8.319124978211608}},{"type":"Feature","geometry":{"type":"Point","coordinates":[-72.8639,40.8655]},"properties":{"site":"KOKX","name":"Upton NY","scan_time":"2026-08-22T00:01:42Z","stale":false,"bins":25,"density_birds_km3":4.2162500000000005,"heading_deg":220.5788878781832,"speed_ms":7.607013837226602,"peak_altitude_m":0.0,"u_ms":-4.957098646034816,"v_ms":-5.765647969052224}},{"type":"Feature","geometry":{"type":"Point","coordinates":[-80.2183,40.5317]},"properties":{"site":"KPBZ","name":"Pittsburgh PA","scan_time":"2026-08-21T23:57:56Z","stale":false,"bins":25,"density_birds_km3":0.5164285714285713,"heading_deg":261.80287559291304,"speed_ms":5.220277392510402,"peak_altitude_m":400.0,"u_ms":-5.121927877947296,"v_ms":-0.738016643550624}},{"type":"Feature","geometry":{"type":"Point","coordinates":[-78.4899,35.6655]},"properties":{"site":"KRAX","name":"Raleigh NC","scan_time":"2026-08-21T23:57:10Z","stale":false,"bins":25,"density_birds_km3":8.43,"heading_deg":null,"speed_ms":null,"peak_altitude_m":0.0,"u_ms":null,"v_ms":null}},{"type":"Feature","geometry":{"type":"Point","coordinates":[-82.4017,27.7055]},"properties":{"site":"KTBW","name":"Tampa FL","scan_time":"2026-08-22T00:00:18Z","stale":false,"bins":25,"density_birds_km3":0.865,"heading_deg":86.65162705788634,"speed_ms":2.9653540462427745,"peak_altitude_m":0.0,"u_ms":2.9482080924855487,"v_ms":0.19801300578034686}}]}