{"type":"FeatureCollection","frame":"2026-09-15T02","site_count":20,"fresh_count":19,"failures":{"KBUF":"RuntimeError('no scan within 20 min of 2026-09-15T02:00Z')"},"features":[{"type":"Feature","geometry":{"type":"Point","coordinates":[-77.0073,36.984]},"properties":{"site":"KAKQ","name":"Wakefield VA","scan_time":"2026-09-15T01:59:58Z","stale":false,"bins":25,"density_birds_km3":62.14875,"heading_deg":203.02409285931543,"speed_ms":13.125892314809228,"peak_altitude_m":0.0,"u_ms":-5.035405881051509,"v_ms":-11.708273899314147}},{"type":"Feature","geometry":{"type":"Point","coordinates":[-71.1369,41.9558]},"properties":{"site":"KBOX","name":"Boston MA","scan_time":"2026-09-15T02:02:02Z","stale":false,"bins":25,"density_birds_km3":16.29875,"heading_deg":190.7986456617085,"speed_ms":15.508707289948997,"peak_altitude_m":400.0,"u_ms":-2.8974191816543318,"v_ms":-15.180817962188904}},{"type":"Feature","geometry":{"type":"Point","coordinates":[-81.8597,41.4131]},"properties":{"site":"KCLE","name":"Cleveland OH","scan_time":"2026-09-15T02:02:30Z","stale":false,"bins":25,"density_birds_km3":17.727333333333334,"heading_deg":269.00024239771346,"speed_ms":9.437071565567297,"peak_altitude_m":400.0,"u_ms":-9.10876838027904,"v_ms":-0.4978090331315106}},{"type":"Feature","geometry":{"type":"Point","coordinates":[-81.0423,32.6555]},"properties":{"site":"KCLX","name":"Charleston SC","scan_time":"2026-09-15T01:58:30Z","stale":false,"bins":25,"density_birds_km3":63.35875,"heading_deg":219.18849103569895,"speed_ms":9.287792352639269,"peak_altitude_m":600.0,"u_ms":-3.9661569742192744,"v_ms":-7.386432646373722}},{"type":"Feature","geometry":{"type":"Point","coordinates":[-74.4108,39.947]},"properties":{"site":"KDIX","name":"Philadelphia PA","scan_time":"2026-09-15T02:01:19Z","stale":false,"bins":25,"density_birds_km3":50.81875,"heading_deg":197.2252200053048,"speed_ms":15.217270134103874,"peak_altitude_m":200.0,"u_ms":-4.269385048529302,"v_ms":-14.432383616112222}},{"type":"Feature","geometry":{"type":"Point","coordinates":[-84.5658,33.3636]},"properties":{"site":"KFFC","name":"Atlanta GA","scan_time":"2026-09-15T02:00:13Z","stale":false,"bins":25,"density_birds_km3":116.01666666666667,"heading_deg":215.39156627875437,"speed_ms":6.763822496767705,"peak_altitude_m":1000.0,"u_ms":-3.6898870277259013,"v_ms":-5.4914724895848295}},{"type":"Feature","geometry":{"type":"Point","coordinates":[-85.5449,42.8939]},"properties":{"site":"KGRR","name":"Grand Rapids MI","scan_time":"2026-09-15T02:03:01Z","stale":false,"bins":25,"density_birds_km3":7.607333333333333,"heading_deg":311.91315471206843,"speed_ms":11.426514726507715,"peak_altitude_m":200.0,"u_ms":-8.050903751753156,"v_ms":7.63234133941094}},{"type":"Feature","geometry":{"type":"Point","coordinates":[-83.8217,39.4203]},"properties":{"site":"KILN","name":"Wilmington OH","scan_time":"2026-09-15T02:01:09Z","stale":false,"bins":25,"density_birds_km3":12.758666666666667,"heading_deg":269.17683692483735,"speed_ms":8.993816490751385,"peak_altitude_m":400.0,"u_ms":-7.41193541644895,"v_ms":-0.6509034381858084}},{"type":"Feature","geometry":{"type":"Point","coordinates":[-81.7019,30.4846]},"properties":{"site":"KJAX","name":"Jacksonville FL","scan_time":"2026-09-15T01:58:23Z","stale":false,"bins":25,"density_birds_km3":60.360625,"heading_deg":197.78835732858886,"speed_ms":10.848419810099713,"peak_altitude_m":0.0,"u_ms":-2.204182776437454,"v_ms":-10.355244209283784}},{"type":"Feature","geometry":{"type":"Point","coordinates":[-88.0847,41.6045]},"properties":{"site":"KLOT","name":"Chicago IL","scan_time":"2026-09-15T01:58:11Z","stale":false,"bins":25,"density_birds_km3":3.2359999999999998,"heading_deg":340.8027869912731,"speed_ms":16.8511039634779,"peak_altitude_m":400.0,"u_ms":-5.135721103963478,"v_ms":15.635465864287196}},{"type":"Feature","geometry":{"type":"Point","coordinates":[-78.4292,33.9892]},"properties":{"site":"KLTX","name":"Wilmington NC","scan_time":"2026-09-15T02:00:28Z","stale":false,"bins":25,"density_birds_km3":107.579375,"heading_deg":223.5524591674978,"speed_ms":13.949995524686873,"peak_altitude_m":200.0,"u_ms":-9.550586033535788,"v_ms":-9.673225363982446}},{"type":"Feature","geometry":{"type":"Point","coordinates":[-77.4778,38.9753]},"properties":{"site":"KLWX","name":"Sterling VA","scan_time":"2026-09-15T01:59:46Z","stale":false,"bins":25,"density_birds_km3":100.236875,"heading_deg":208.97176410494737,"speed_ms":13.568265882160865,"peak_altitude_m":400.0,"u_ms":-6.439815699744429,"v_ms":-11.621503350057457}},{"type":"Feature","geometry":{"type":"Point","coordinates":[-76.8762,34.7759]},"properties":{"site":"KMHX","name":"Morehead City NC","scan_time":"2026-09-15T02:00:44Z","stale":false,"bins":25,"density_birds_km3":73.22,"heading_deg":207.60026554603675,"speed_ms":14.956715226246082,"peak_altitude_m":0.0,"u_ms":-6.975942770287003,"v_ms":-13.004382231634319}},{"type":"Feature","geometry":{"type":"Point","coordinates":[-80.6542,28.1133]},"properties":{"site":"KMLB","name":"Melbourne FL","scan_time":"2026-09-15T01:57:38Z","stale":false,"bins":25,"density_birds_km3":30.46375,"heading_deg":191.500441932362,"speed_ms":8.683956376925568,"peak_altitude_m":0.0,"u_ms":-0.8915931905444788,"v_ms":-8.25312554933617}},{"type":"Feature","geometry":{"type":"Point","coordinates":[-86.5625,36.2472]},"properties":{"site":"KOHX","name":"Nashville TN","scan_time":"2026-09-15T01:58:13Z","stale":false,"bins":25,"density_birds_km3":128.528,"heading_deg":236.1571456031405,"speed_ms":8.153033632100916,"peak_altitude_m":200.0,"u_ms":-6.891238121913773,"v_ms":-3.9435627515664553}},{"type":"Feature","geometry":{"type":"Point","coordinates":[-72.8639,40.8655]},"properties":{"site":"KOKX","name":"Upton NY","scan_time":"2026-09-15T01:56:04Z","stale":false,"bins":25,"density_birds_km3":54.986875,"heading_deg":207.25111047891627,"speed_ms":13.971236634551266,"peak_altitude_m":0.0,"u_ms":-6.347287704936881,"v_ms":-12.377961323553082}},{"type":"Feature","geometry":{"type":"Point","coordinates":[-80.2183,40.5317]},"properties":{"site":"KPBZ","name":"Pittsburgh PA","scan_time":"2026-09-15T02:02:15Z","stale":false,"bins":25,"density_birds_km3":100.3542857142857,"heading_deg":221.25975616473195,"speed_ms":7.7375122423414195,"peak_altitude_m":600.0,"u_ms":-5.0991762754811525,"v_ms":-5.652283837262272}},{"type":"Feature","geometry":{"type":"Point","coordinates":[-78.4899,35.6655]},"properties":{"site":"KRAX","name":"Raleigh NC","scan_time":"2026-09-15T01:58:58Z","stale":false,"bins":25,"density_birds_km3":119.266875,"heading_deg":228.30543285342296,"speed_ms":12.403883833637,"peak_altitude_m":200.0,"u_ms":-9.204984694225812,"v_ms":-7.677425742054386}},{"type":"Feature","geometry":{"type":"Point","coordinates":[-82.4017,27.7055]},"properties":{"site":"KTBW","name":"Tampa FL","scan_time":"2026-09-15T01:58:47Z","stale":false,"bins":25,"density_birds_km3":49.070625,"heading_deg":195.55358138560482,"speed_ms":9.292096340733382,"peak_altitude_m":600.0,"u_ms":-2.140954873715181,"v_ms":-8.935735865398087}}]}