{"type":"FeatureCollection","frame":"2026-09-30T00","site_count":20,"fresh_count":20,"failures":{},"features":[{"type":"Feature","geometry":{"type":"Point","coordinates":[-77.0073,36.984]},"properties":{"site":"KAKQ","name":"Wakefield VA","scan_time":"2026-09-30T00:00:49Z","stale":false,"bins":25,"density_birds_km3":16.365625,"heading_deg":236.3998775935686,"speed_ms":3.7528549058549445,"peak_altitude_m":200.0,"u_ms":-2.978668219837299,"v_ms":-1.8199568422258718}},{"type":"Feature","geometry":{"type":"Point","coordinates":[-71.1369,41.9558]},"properties":{"site":"KBOX","name":"Boston MA","scan_time":"2026-09-29T23:59:40Z","stale":false,"bins":25,"density_birds_km3":26.63625,"heading_deg":86.6452672207145,"speed_ms":5.985521605013237,"peak_altitude_m":200.0,"u_ms":5.482544509484832,"v_ms":0.5832836219669185}},{"type":"Feature","geometry":{"type":"Point","coordinates":[-78.7369,42.9489]},"properties":{"site":"KBUF","name":"Buffalo NY","scan_time":"2026-09-30T00:04:11Z","stale":false,"bins":25,"density_birds_km3":5.352,"heading_deg":159.54790819319066,"speed_ms":4.986129795714997,"peak_altitude_m":400.0,"u_ms":2.2009591429995017,"v_ms":-4.126615595416044}},{"type":"Feature","geometry":{"type":"Point","coordinates":[-81.8597,41.4131]},"properties":{"site":"KCLE","name":"Cleveland OH","scan_time":"2026-09-30T00:03:10Z","stale":false,"bins":25,"density_birds_km3":6.410666666666667,"heading_deg":289.78738603106564,"speed_ms":3.380284345380689,"peak_altitude_m":200.0,"u_ms":0.552843453806895,"v_ms":0.2566930528069992}},{"type":"Feature","geometry":{"type":"Point","coordinates":[-81.0423,32.6555]},"properties":{"site":"KCLX","name":"Charleston SC","scan_time":"2026-09-29T23:58:02Z","stale":false,"bins":25,"density_birds_km3":5.24125,"heading_deg":287.3410670948166,"speed_ms":5.288029556650247,"peak_altitude_m":0.0,"u_ms":-3.75,"v_ms":1.5078891625615762}},{"type":"Feature","geometry":{"type":"Point","coordinates":[-74.4108,39.947]},"properties":{"site":"KDIX","name":"Philadelphia PA","scan_time":"2026-09-29T23:56:55Z","stale":false,"bins":25,"density_birds_km3":15.161875,"heading_deg":133.9454294600094,"speed_ms":7.870230027207518,"peak_altitude_m":200.0,"u_ms":5.420652980460054,"v_ms":-5.232426828262841}},{"type":"Feature","geometry":{"type":"Point","coordinates":[-84.5658,33.3636]},"properties":{"site":"KFFC","name":"Atlanta GA","scan_time":"2026-09-29T23:56:41Z","stale":false,"bins":25,"density_birds_km3":3.71,"heading_deg":257.39723869956197,"speed_ms":3.3791482479784367,"peak_altitude_m":400.0,"u_ms":-3.266359389038634,"v_ms":-0.7533369272237197}},{"type":"Feature","geometry":{"type":"Point","coordinates":[-85.5449,42.8939]},"properties":{"site":"KGRR","name":"Grand Rapids MI","scan_time":"2026-09-29T23:58:43Z","stale":false,"bins":25,"density_birds_km3":1.2306666666666668,"heading_deg":34.69254788892477,"speed_ms":4.757973997833153,"peak_altitude_m":200.0,"u_ms":2.6591874322860236,"v_ms":3.9126218851570966}},{"type":"Feature","geometry":{"type":"Point","coordinates":[-83.8217,39.4203]},"properties":{"site":"KILN","name":"Wilmington OH","scan_time":"2026-09-29T23:58:30Z","stale":false,"bins":25,"density_birds_km3":10.845333333333334,"heading_deg":348.3418438158258,"speed_ms":7.523995574133267,"peak_altitude_m":200.0,"u_ms":-1.5700252028522252,"v_ms":7.315586427342021}},{"type":"Feature","geometry":{"type":"Point","coordinates":[-81.7019,30.4846]},"properties":{"site":"KJAX","name":"Jacksonville FL","scan_time":"2026-09-30T00:00:36Z","stale":false,"bins":25,"density_birds_km3":25.726875,"heading_deg":242.0924464816845,"speed_ms":5.087670580228007,"peak_altitude_m":0.0,"u_ms":-3.229474221541603,"v_ms":-1.5434621648557332}},{"type":"Feature","geometry":{"type":"Point","coordinates":[-88.0847,41.6045]},"properties":{"site":"KLOT","name":"Chicago IL","scan_time":"2026-09-29T23:58:46Z","stale":false,"bins":25,"density_birds_km3":0.8,"heading_deg":14.73878405398642,"speed_ms":6.524015025041736,"peak_altitude_m":200.0,"u_ms":1.6664023372287142,"v_ms":6.291143572621034}},{"type":"Feature","geometry":{"type":"Point","coordinates":[-78.4292,33.9892]},"properties":{"site":"KLTX","name":"Wilmington NC","scan_time":"2026-09-30T00:01:26Z","stale":false,"bins":25,"density_birds_km3":31.206875,"heading_deg":339.13265518174455,"speed_ms":5.7408318474145,"peak_altitude_m":0.0,"u_ms":-2.037578586740929,"v_ms":5.202404784324726}},{"type":"Feature","geometry":{"type":"Point","coordinates":[-77.4778,38.9753]},"properties":{"site":"KLWX","name":"Sterling VA","scan_time":"2026-09-30T00:01:19Z","stale":false,"bins":25,"density_birds_km3":10.228125,"heading_deg":126.5364069362611,"speed_ms":4.275210217550721,"peak_altitude_m":200.0,"u_ms":1.743020043999022,"v_ms":-2.044753116597409}},{"type":"Feature","geometry":{"type":"Point","coordinates":[-76.8762,34.7759]},"properties":{"site":"KMHX","name":"Morehead City NC","scan_time":"2026-09-29T23:59:17Z","stale":false,"bins":25,"density_birds_km3":18.136875,"heading_deg":344.1420874222781,"speed_ms":4.870505892894066,"peak_altitude_m":0.0,"u_ms":-1.2823533668757323,"v_ms":4.593641877455372}},{"type":"Feature","geometry":{"type":"Point","coordinates":[-80.6542,28.1133]},"properties":{"site":"KMLB","name":"Melbourne FL","scan_time":"2026-09-30T00:02:03Z","stale":false,"bins":25,"density_birds_km3":18.39125,"heading_deg":42.144987590915385,"speed_ms":3.6192357099164005,"peak_altitude_m":0.0,"u_ms":1.0878515598450351,"v_ms":0.6499813090464214}},{"type":"Feature","geometry":{"type":"Point","coordinates":[-86.5625,36.2472]},"properties":{"site":"KOHX","name":"Nashville TN","scan_time":"2026-09-30T00:02:55Z","stale":false,"bins":25,"density_birds_km3":2.336,"heading_deg":269.72262804800573,"speed_ms":2.321735655152726,"peak_altitude_m":200.0,"u_ms":-1.9589980017128175,"v_ms":0.14054810162717665}},{"type":"Feature","geometry":{"type":"Point","coordinates":[-72.8639,40.8655]},"properties":{"site":"KOKX","name":"Upton NY","scan_time":"2026-09-29T23:56:14Z","stale":false,"bins":25,"density_birds_km3":5.013125,"heading_deg":138.41437193411403,"speed_ms":6.793196608901634,"peak_altitude_m":0.0,"u_ms":3.857623737688568,"v_ms":-4.829761875077921}},{"type":"Feature","geometry":{"type":"Point","coordinates":[-80.2183,40.5317]},"properties":{"site":"KPBZ","name":"Pittsburgh PA","scan_time":"2026-09-30T00:01:59Z","stale":false,"bins":25,"density_birds_km3":4.251428571428572,"heading_deg":59.49872606539441,"speed_ms":7.4839213709677415,"peak_altitude_m":600.0,"u_ms":5.943067876344085,"v_ms":3.894485887096774}},{"type":"Feature","geometry":{"type":"Point","coordinates":[-78.4899,35.6655]},"properties":{"site":"KRAX","name":"Raleigh NC","scan_time":"2026-09-29T23:56:33Z","stale":false,"bins":25,"density_birds_km3":91.450625,"heading_deg":227.69986478112403,"speed_ms":5.050524056861673,"peak_altitude_m":200.0,"u_ms":-3.6607247129579004,"v_ms":-3.3722456943685075}},{"type":"Feature","geometry":{"type":"Point","coordinates":[-82.4017,27.7055]},"properties":{"site":"KTBW","name":"Tampa FL","scan_time":"2026-09-29T23:58:41Z","stale":false,"bins":25,"density_birds_km3":33.46625,"heading_deg":21.903676064659585,"speed_ms":3.0947011914988978,"peak_altitude_m":0.0,"u_ms":0.9033457214357747,"v_ms":1.2277619243267468}}]}