{"type":"FeatureCollection","frame":"2026-08-15T00","site_count":20,"fresh_count":20,"failures":{},"features":[{"type":"Feature","geometry":{"type":"Point","coordinates":[-77.0073,36.984]},"properties":{"site":"KAKQ","name":"Wakefield VA","scan_time":"2026-08-14T23:57:31Z","stale":false,"bins":25,"density_birds_km3":4.75875,"heading_deg":142.6414857462912,"speed_ms":3.869968470835523,"peak_altitude_m":0.0,"u_ms":2.359872569626905,"v_ms":-3.021698633736206}},{"type":"Feature","geometry":{"type":"Point","coordinates":[-71.1369,41.9558]},"properties":{"site":"KBOX","name":"Boston MA","scan_time":"2026-08-14T23:58:29Z","stale":false,"bins":25,"density_birds_km3":0.7718750000000001,"heading_deg":124.11875121031538,"speed_ms":5.1278477905073645,"peak_altitude_m":0.0,"u_ms":4.118707037643207,"v_ms":-2.919067103109657}},{"type":"Feature","geometry":{"type":"Point","coordinates":[-78.7369,42.9489]},"properties":{"site":"KBUF","name":"Buffalo NY","scan_time":"2026-08-14T23:57:35Z","stale":false,"bins":25,"density_birds_km3":1.0793333333333335,"heading_deg":208.7183571363237,"speed_ms":3.329598517603459,"peak_altitude_m":200.0,"u_ms":-1.595182211241507,"v_ms":-2.9050648548486717}},{"type":"Feature","geometry":{"type":"Point","coordinates":[-81.8597,41.4131]},"properties":{"site":"KCLE","name":"Cleveland OH","scan_time":"2026-08-15T00:01:15Z","stale":false,"bins":25,"density_birds_km3":3.8606666666666665,"heading_deg":234.60839133092844,"speed_ms":3.2058930741190768,"peak_altitude_m":200.0,"u_ms":-2.672940461725395,"v_ms":-1.6882746051032806}},{"type":"Feature","geometry":{"type":"Point","coordinates":[-81.0423,32.6555]},"properties":{"site":"KCLX","name":"Charleston SC","scan_time":"2026-08-14T23:58:13Z","stale":false,"bins":25,"density_birds_km3":0.1225,"heading_deg":281.18324147352513,"speed_ms":1.7091935483870968,"peak_altitude_m":0.0,"u_ms":-0.6937096774193549,"v_ms":0.31322580645161296}},{"type":"Feature","geometry":{"type":"Point","coordinates":[-74.4108,39.947]},"properties":{"site":"KDIX","name":"Philadelphia PA","scan_time":"2026-08-14T23:57:47Z","stale":false,"bins":25,"density_birds_km3":0.758125,"heading_deg":318.9692244724266,"speed_ms":5.954224924012158,"peak_altitude_m":0.0,"u_ms":-3.845055724417427,"v_ms":4.401327254305978}},{"type":"Feature","geometry":{"type":"Point","coordinates":[-84.5658,33.3636]},"properties":{"site":"KFFC","name":"Atlanta GA","scan_time":"2026-08-15T00:01:26Z","stale":false,"bins":25,"density_birds_km3":0.4266666666666667,"heading_deg":144.43265336545005,"speed_ms":3.6076138147566716,"peak_altitude_m":200.0,"u_ms":2.0078178963893247,"v_ms":-2.9145525902668763}},{"type":"Feature","geometry":{"type":"Point","coordinates":[-85.5449,42.8939]},"properties":{"site":"KGRR","name":"Grand Rapids MI","scan_time":"2026-08-14T23:59:12Z","stale":false,"bins":25,"density_birds_km3":1.514,"heading_deg":244.69786313044065,"speed_ms":4.805986784140969,"peak_altitude_m":200.0,"u_ms":-4.325832599118943,"v_ms":-2.0817224669603522}},{"type":"Feature","geometry":{"type":"Point","coordinates":[-83.8217,39.4203]},"properties":{"site":"KILN","name":"Wilmington OH","scan_time":"2026-08-15T00:01:15Z","stale":false,"bins":25,"density_birds_km3":0.846,"heading_deg":87.2863162770215,"speed_ms":4.724207171314742,"peak_altitude_m":200.0,"u_ms":4.4788366533864545,"v_ms":0.2037689243027888}},{"type":"Feature","geometry":{"type":"Point","coordinates":[-81.7019,30.4846]},"properties":{"site":"KJAX","name":"Jacksonville FL","scan_time":"2026-08-15T00:01:19Z","stale":false,"bins":25,"density_birds_km3":1.39625,"heading_deg":46.13048694719776,"speed_ms":2.1702648114901257,"peak_altitude_m":0.0,"u_ms":1.4816337522441652,"v_ms":1.4862073608617594}},{"type":"Feature","geometry":{"type":"Point","coordinates":[-88.0847,41.6045]},"properties":{"site":"KLOT","name":"Chicago IL","scan_time":"2026-08-15T00:01:13Z","stale":false,"bins":25,"density_birds_km3":0.5953333333333333,"heading_deg":275.605232015997,"speed_ms":3.9384044943820222,"peak_altitude_m":200.0,"u_ms":-3.882359550561798,"v_ms":0.3888089887640449}},{"type":"Feature","geometry":{"type":"Point","coordinates":[-78.4292,33.9892]},"properties":{"site":"KLTX","name":"Wilmington NC","scan_time":"2026-08-15T00:02:16Z","stale":false,"bins":25,"density_birds_km3":0.22,"heading_deg":27.139437588073395,"speed_ms":7.099047619047619,"peak_altitude_m":200.0,"u_ms":3.235595238095238,"v_ms":6.309880952380952}},{"type":"Feature","geometry":{"type":"Point","coordinates":[-77.4778,38.9753]},"properties":{"site":"KLWX","name":"Sterling VA","scan_time":"2026-08-14T23:59:58Z","stale":false,"bins":25,"density_birds_km3":2.174375,"heading_deg":216.052334558438,"speed_ms":4.476724336793541,"peak_altitude_m":0.0,"u_ms":-2.5699307958477506,"v_ms":-3.5051730103806227}},{"type":"Feature","geometry":{"type":"Point","coordinates":[-76.8762,34.7759]},"properties":{"site":"KMHX","name":"Morehead City NC","scan_time":"2026-08-15T00:01:28Z","stale":false,"bins":25,"density_birds_km3":2.301875,"heading_deg":31.203581026796076,"speed_ms":8.384338854194949,"peak_altitude_m":0.0,"u_ms":4.343866413250068,"v_ms":7.164357860439859}},{"type":"Feature","geometry":{"type":"Point","coordinates":[-80.6542,28.1133]},"properties":{"site":"KMLB","name":"Melbourne FL","scan_time":"2026-08-14T23:58:04Z","stale":false,"bins":25,"density_birds_km3":0.529375,"heading_deg":130.4459957862777,"speed_ms":3.5004166666666667,"peak_altitude_m":0.0,"u_ms":2.5470476190476194,"v_ms":-2.1448571428571426}},{"type":"Feature","geometry":{"type":"Point","coordinates":[-86.5625,36.2472]},"properties":{"site":"KOHX","name":"Nashville TN","scan_time":"2026-08-14T23:59:46Z","stale":false,"bins":25,"density_birds_km3":3.288,"heading_deg":95.67235335218538,"speed_ms":3.2837659703914013,"peak_altitude_m":200.0,"u_ms":3.2100202798620963,"v_ms":-0.23441492597850336}},{"type":"Feature","geometry":{"type":"Point","coordinates":[-72.8639,40.8655]},"properties":{"site":"KOKX","name":"Upton NY","scan_time":"2026-08-15T00:02:09Z","stale":false,"bins":25,"density_birds_km3":0.24812499999999998,"heading_deg":24.099999999999998,"speed_ms":3.21,"peak_altitude_m":0.0,"u_ms":1.31,"v_ms":2.9300000000000006}},{"type":"Feature","geometry":{"type":"Point","coordinates":[-80.2183,40.5317]},"properties":{"site":"KPBZ","name":"Pittsburgh PA","scan_time":"2026-08-14T23:57:58Z","stale":false,"bins":25,"density_birds_km3":1.782142857142857,"heading_deg":200.3342468417709,"speed_ms":6.110950280673617,"peak_altitude_m":1000.0,"u_ms":-2.9778628708901365,"v_ms":-4.757742582197274}},{"type":"Feature","geometry":{"type":"Point","coordinates":[-78.4899,35.6655]},"properties":{"site":"KRAX","name":"Raleigh NC","scan_time":"2026-08-15T00:02:08Z","stale":false,"bins":25,"density_birds_km3":1.281875,"heading_deg":154.61901813258436,"speed_ms":3.9575670404680636,"peak_altitude_m":0.0,"u_ms":1.7104339346660167,"v_ms":-3.5486153096050703}},{"type":"Feature","geometry":{"type":"Point","coordinates":[-82.4017,27.7055]},"properties":{"site":"KTBW","name":"Tampa FL","scan_time":"2026-08-15T00:01:55Z","stale":false,"bins":25,"density_birds_km3":2.14,"heading_deg":228.08991084350745,"speed_ms":3.594449313467718,"peak_altitude_m":200.0,"u_ms":-2.6785597429155708,"v_ms":-2.367931638913234}}]}