{"type":"FeatureCollection","frame":"2026-09-05T06","site_count":20,"fresh_count":20,"failures":{},"features":[{"type":"Feature","geometry":{"type":"Point","coordinates":[-77.0073,36.984]},"properties":{"site":"KAKQ","name":"Wakefield VA","scan_time":"2026-09-05T06:01:22Z","stale":false,"bins":25,"density_birds_km3":9.343125,"heading_deg":141.56096113120935,"speed_ms":9.955564251789417,"peak_altitude_m":0.0,"u_ms":5.554984948826007,"v_ms":-7.649553816308782}},{"type":"Feature","geometry":{"type":"Point","coordinates":[-71.1369,41.9558]},"properties":{"site":"KBOX","name":"Boston MA","scan_time":"2026-09-05T06:00:41Z","stale":false,"bins":25,"density_birds_km3":19.648125,"heading_deg":185.84900033890656,"speed_ms":11.846779704151421,"peak_altitude_m":600.0,"u_ms":-1.2317814537935423,"v_ms":-11.761185303006203}},{"type":"Feature","geometry":{"type":"Point","coordinates":[-78.7369,42.9489]},"properties":{"site":"KBUF","name":"Buffalo NY","scan_time":"2026-09-05T06:00:48Z","stale":false,"bins":25,"density_birds_km3":19.832666666666668,"heading_deg":206.8271704809754,"speed_ms":9.947676224410904,"peak_altitude_m":400.0,"u_ms":-4.523247840263537,"v_ms":-8.829000302531178}},{"type":"Feature","geometry":{"type":"Point","coordinates":[-81.8597,41.4131]},"properties":{"site":"KCLE","name":"Cleveland OH","scan_time":"2026-09-05T05:58:10Z","stale":false,"bins":25,"density_birds_km3":23.944000000000003,"heading_deg":205.99482897980943,"speed_ms":8.579244904777813,"peak_altitude_m":600.0,"u_ms":-3.4286994654193115,"v_ms":-7.558874317852767}},{"type":"Feature","geometry":{"type":"Point","coordinates":[-81.0423,32.6555]},"properties":{"site":"KCLX","name":"Charleston SC","scan_time":"2026-09-05T06:02:24Z","stale":false,"bins":25,"density_birds_km3":2.120625,"heading_deg":84.64473552927598,"speed_ms":3.8572434191067737,"peak_altitude_m":0.0,"u_ms":2.4414551907719613,"v_ms":0.1483643892339544}},{"type":"Feature","geometry":{"type":"Point","coordinates":[-74.4108,39.947]},"properties":{"site":"KDIX","name":"Philadelphia PA","scan_time":"2026-09-05T05:58:21Z","stale":false,"bins":25,"density_birds_km3":61.15,"heading_deg":217.9713324126161,"speed_ms":9.770930548740594,"peak_altitude_m":400.0,"u_ms":-5.986463035655871,"v_ms":-7.5943233766764795}},{"type":"Feature","geometry":{"type":"Point","coordinates":[-84.5658,33.3636]},"properties":{"site":"KFFC","name":"Atlanta GA","scan_time":"2026-09-05T05:56:45Z","stale":false,"bins":25,"density_birds_km3":27.487333333333332,"heading_deg":205.53276847742816,"speed_ms":7.984588009522422,"peak_altitude_m":1400.0,"u_ms":-2.938411796142448,"v_ms":-4.510367779235292}},{"type":"Feature","geometry":{"type":"Point","coordinates":[-85.5449,42.8939]},"properties":{"site":"KGRR","name":"Grand Rapids MI","scan_time":"2026-09-05T05:58:39Z","stale":false,"bins":25,"density_birds_km3":17.223333333333336,"heading_deg":267.04271718655684,"speed_ms":7.708984944901443,"peak_altitude_m":200.0,"u_ms":-7.2136392208598465,"v_ms":-0.24423599255005446}},{"type":"Feature","geometry":{"type":"Point","coordinates":[-83.8217,39.4203]},"properties":{"site":"KILN","name":"Wilmington OH","scan_time":"2026-09-05T05:58:22Z","stale":false,"bins":25,"density_birds_km3":27.14,"heading_deg":170.50173138972593,"speed_ms":8.316873741095554,"peak_altitude_m":600.0,"u_ms":1.9697177597641857,"v_ms":-7.105738639154999}},{"type":"Feature","geometry":{"type":"Point","coordinates":[-81.7019,30.4846]},"properties":{"site":"KJAX","name":"Jacksonville FL","scan_time":"2026-09-05T06:00:36Z","stale":false,"bins":25,"density_birds_km3":6.2525,"heading_deg":149.23083772603405,"speed_ms":4.727807,"peak_altitude_m":400.0,"u_ms":1.4679649999999997,"v_ms":-4.125121}},{"type":"Feature","geometry":{"type":"Point","coordinates":[-88.0847,41.6045]},"properties":{"site":"KLOT","name":"Chicago IL","scan_time":"2026-09-05T05:58:00Z","stale":false,"bins":25,"density_birds_km3":58.542,"heading_deg":145.8537066396658,"speed_ms":10.92862378007812,"peak_altitude_m":400.0,"u_ms":6.041737783699452,"v_ms":-9.029969708357532}},{"type":"Feature","geometry":{"type":"Point","coordinates":[-78.4292,33.9892]},"properties":{"site":"KLTX","name":"Wilmington NC","scan_time":"2026-09-05T05:57:56Z","stale":false,"bins":25,"density_birds_km3":5.2975,"heading_deg":113.36489835838582,"speed_ms":6.540972500885164,"peak_altitude_m":0.0,"u_ms":3.5558137613596124,"v_ms":-2.2585943585506905}},{"type":"Feature","geometry":{"type":"Point","coordinates":[-77.4778,38.9753]},"properties":{"site":"KLWX","name":"Sterling VA","scan_time":"2026-09-05T05:58:14Z","stale":false,"bins":25,"density_birds_km3":73.593125,"heading_deg":186.20646159088517,"speed_ms":10.023213870181488,"peak_altitude_m":0.0,"u_ms":-0.7681282218957273,"v_ms":-9.723835616438356}},{"type":"Feature","geometry":{"type":"Point","coordinates":[-76.8762,34.7759]},"properties":{"site":"KMHX","name":"Morehead City NC","scan_time":"2026-09-05T05:58:50Z","stale":false,"bins":25,"density_birds_km3":3.5675,"heading_deg":90.34201103516293,"speed_ms":8.004889589905362,"peak_altitude_m":0.0,"u_ms":6.999670522257273,"v_ms":0.47604100946372274}},{"type":"Feature","geometry":{"type":"Point","coordinates":[-80.6542,28.1133]},"properties":{"site":"KMLB","name":"Melbourne FL","scan_time":"2026-09-05T06:02:23Z","stale":false,"bins":25,"density_birds_km3":5.094375,"heading_deg":5.021721235911984,"speed_ms":2.9530585204269415,"peak_altitude_m":0.0,"u_ms":0.3889338731443995,"v_ms":2.85502637713164}},{"type":"Feature","geometry":{"type":"Point","coordinates":[-86.5625,36.2472]},"properties":{"site":"KOHX","name":"Nashville TN","scan_time":"2026-09-05T05:57:53Z","stale":false,"bins":25,"density_birds_km3":37.76466666666667,"heading_deg":172.01557666724017,"speed_ms":4.671435557046269,"peak_altitude_m":400.0,"u_ms":0.3220174060409201,"v_ms":-4.217767578159479}},{"type":"Feature","geometry":{"type":"Point","coordinates":[-72.8639,40.8655]},"properties":{"site":"KOKX","name":"Upton NY","scan_time":"2026-09-05T06:00:49Z","stale":false,"bins":25,"density_birds_km3":46.649375,"heading_deg":215.13126234475996,"speed_ms":9.406862238062061,"peak_altitude_m":0.0,"u_ms":-5.347711560105044,"v_ms":-7.609970791575111}},{"type":"Feature","geometry":{"type":"Point","coordinates":[-80.2183,40.5317]},"properties":{"site":"KPBZ","name":"Pittsburgh PA","scan_time":"2026-09-05T05:59:24Z","stale":false,"bins":25,"density_birds_km3":66.57000000000001,"heading_deg":192.17596356260734,"speed_ms":7.5871502334818315,"peak_altitude_m":600.0,"u_ms":-1.2825537008212122,"v_ms":-7.145170844291772}},{"type":"Feature","geometry":{"type":"Point","coordinates":[-78.4899,35.6655]},"properties":{"site":"KRAX","name":"Raleigh NC","scan_time":"2026-09-05T05:57:33Z","stale":false,"bins":25,"density_birds_km3":13.915625,"heading_deg":124.53555867392427,"speed_ms":6.609360880305412,"peak_altitude_m":0.0,"u_ms":3.332470244778801,"v_ms":-3.2652652144621603}},{"type":"Feature","geometry":{"type":"Point","coordinates":[-82.4017,27.7055]},"properties":{"site":"KTBW","name":"Tampa FL","scan_time":"2026-09-05T06:01:13Z","stale":false,"bins":25,"density_birds_km3":2.790625,"heading_deg":285.4244128763839,"speed_ms":2.733736263736264,"peak_altitude_m":0.0,"u_ms":-2.1226754877775287,"v_ms":0.987909845256784}}]}