{"type":"FeatureCollection","frame":"2026-10-05T03","site_count":20,"fresh_count":20,"failures":{},"features":[{"type":"Feature","geometry":{"type":"Point","coordinates":[-77.0073,36.984]},"properties":{"site":"KAKQ","name":"Wakefield VA","scan_time":"2026-10-05T02:58:41Z","stale":false,"bins":25,"density_birds_km3":24.130625,"heading_deg":180.66054810133792,"speed_ms":7.793878370328162,"peak_altitude_m":0.0,"u_ms":-0.12415887487373416,"v_ms":-7.752809189567199}},{"type":"Feature","geometry":{"type":"Point","coordinates":[-71.1369,41.9558]},"properties":{"site":"KBOX","name":"Boston MA","scan_time":"2026-10-05T03:01:58Z","stale":false,"bins":25,"density_birds_km3":3.98125,"heading_deg":168.850146418339,"speed_ms":7.29997014925373,"peak_altitude_m":0.0,"u_ms":1.5338381775333858,"v_ms":-7.068105263157895}},{"type":"Feature","geometry":{"type":"Point","coordinates":[-78.7369,42.9489]},"properties":{"site":"KBUF","name":"Buffalo NY","scan_time":"2026-10-05T03:03:49Z","stale":false,"bins":25,"density_birds_km3":2.008,"heading_deg":99.69475161081114,"speed_ms":11.00702855245684,"peak_altitude_m":200.0,"u_ms":10.701022576361222,"v_ms":-1.9818459495351926}},{"type":"Feature","geometry":{"type":"Point","coordinates":[-81.8597,41.4131]},"properties":{"site":"KCLE","name":"Cleveland OH","scan_time":"2026-10-05T02:56:47Z","stale":false,"bins":25,"density_birds_km3":8.505333333333333,"heading_deg":131.39360420394812,"speed_ms":13.745371648110396,"peak_altitude_m":400.0,"u_ms":10.059726360357534,"v_ms":-9.20587423553395}},{"type":"Feature","geometry":{"type":"Point","coordinates":[-81.0423,32.6555]},"properties":{"site":"KCLX","name":"Charleston SC","scan_time":"2026-10-05T02:59:34Z","stale":false,"bins":25,"density_birds_km3":145.2475,"heading_deg":109.01048387626024,"speed_ms":2.3786101584190753,"peak_altitude_m":0.0,"u_ms":2.135830475257227,"v_ms":-0.7121656050955413}},{"type":"Feature","geometry":{"type":"Point","coordinates":[-74.4108,39.947]},"properties":{"site":"KDIX","name":"Philadelphia PA","scan_time":"2026-10-05T03:01:42Z","stale":false,"bins":25,"density_birds_km3":2.98125,"heading_deg":165.1706790993392,"speed_ms":5.4625209134071895,"peak_altitude_m":0.0,"u_ms":1.211453764413294,"v_ms":-5.116945512095863}},{"type":"Feature","geometry":{"type":"Point","coordinates":[-84.5658,33.3636]},"properties":{"site":"KFFC","name":"Atlanta GA","scan_time":"2026-10-05T02:58:27Z","stale":false,"bins":25,"density_birds_km3":100.85555555555555,"heading_deg":241.49366272171815,"speed_ms":4.488766273922666,"peak_altitude_m":600.0,"u_ms":-3.9294409907564116,"v_ms":-2.166988836089051}},{"type":"Feature","geometry":{"type":"Point","coordinates":[-85.5449,42.8939]},"properties":{"site":"KGRR","name":"Grand Rapids MI","scan_time":"2026-10-05T02:55:44Z","stale":false,"bins":25,"density_birds_km3":34.79533333333333,"heading_deg":162.86547840066913,"speed_ms":11.747307759036145,"peak_altitude_m":400.0,"u_ms":3.638064385542169,"v_ms":-11.127589397590361}},{"type":"Feature","geometry":{"type":"Point","coordinates":[-83.8217,39.4203]},"properties":{"site":"KILN","name":"Wilmington OH","scan_time":"2026-10-05T03:00:45Z","stale":false,"bins":25,"density_birds_km3":61.050666666666665,"heading_deg":138.74079787745896,"speed_ms":11.44699888617105,"peak_altitude_m":400.0,"u_ms":7.2695242203197346,"v_ms":-8.536740849130776}},{"type":"Feature","geometry":{"type":"Point","coordinates":[-81.7019,30.4846]},"properties":{"site":"KJAX","name":"Jacksonville FL","scan_time":"2026-10-05T02:59:32Z","stale":false,"bins":25,"density_birds_km3":26.278125000000003,"heading_deg":191.93386430279736,"speed_ms":6.832027289501798,"peak_altitude_m":200.0,"u_ms":-1.5632910070894435,"v_ms":-6.581546566961252}},{"type":"Feature","geometry":{"type":"Point","coordinates":[-88.0847,41.6045]},"properties":{"site":"KLOT","name":"Chicago IL","scan_time":"2026-10-05T03:01:47Z","stale":false,"bins":25,"density_birds_km3":59.708666666666666,"heading_deg":163.0680304723471,"speed_ms":13.975712626866004,"peak_altitude_m":400.0,"u_ms":4.066088675010887,"v_ms":-13.300380625928117}},{"type":"Feature","geometry":{"type":"Point","coordinates":[-78.4292,33.9892]},"properties":{"site":"KLTX","name":"Wilmington NC","scan_time":"2026-10-05T02:59:09Z","stale":false,"bins":25,"density_birds_km3":37.568125,"heading_deg":198.3122435558994,"speed_ms":4.90913554161745,"peak_altitude_m":0.0,"u_ms":-1.3600222935764557,"v_ms":-4.431869832132697}},{"type":"Feature","geometry":{"type":"Point","coordinates":[-77.4778,38.9753]},"properties":{"site":"KLWX","name":"Sterling VA","scan_time":"2026-10-05T03:00:56Z","stale":false,"bins":25,"density_birds_km3":62.385,"heading_deg":183.46300920955113,"speed_ms":12.583190548108151,"peak_altitude_m":200.0,"u_ms":0.12988706379225062,"v_ms":-11.48036340064955}},{"type":"Feature","geometry":{"type":"Point","coordinates":[-76.8762,34.7759]},"properties":{"site":"KMHX","name":"Morehead City NC","scan_time":"2026-10-05T03:00:01Z","stale":false,"bins":25,"density_birds_km3":19.475625,"heading_deg":176.11834428818133,"speed_ms":4.778103276741873,"peak_altitude_m":0.0,"u_ms":0.6369992618505087,"v_ms":-4.539390224333259}},{"type":"Feature","geometry":{"type":"Point","coordinates":[-80.6542,28.1133]},"properties":{"site":"KMLB","name":"Melbourne FL","scan_time":"2026-10-05T03:00:26Z","stale":false,"bins":25,"density_birds_km3":6.480625,"heading_deg":248.54573445281648,"speed_ms":3.5983362268518517,"peak_altitude_m":0.0,"u_ms":-3.2308381558641974,"v_ms":-1.1911226851851853}},{"type":"Feature","geometry":{"type":"Point","coordinates":[-86.5625,36.2472]},"properties":{"site":"KOHX","name":"Nashville TN","scan_time":"2026-10-05T03:01:45Z","stale":false,"bins":25,"density_birds_km3":250.81066666666666,"heading_deg":188.91306319365296,"speed_ms":9.368425452399686,"peak_altitude_m":400.0,"u_ms":-1.5080749888362006,"v_ms":-9.124097619452655}},{"type":"Feature","geometry":{"type":"Point","coordinates":[-72.8639,40.8655]},"properties":{"site":"KOKX","name":"Upton NY","scan_time":"2026-10-05T03:01:41Z","stale":false,"bins":25,"density_birds_km3":3.470625,"heading_deg":197.72692338850905,"speed_ms":6.798854298642534,"peak_altitude_m":0.0,"u_ms":-1.9749049773755656,"v_ms":-6.0782950226244346}},{"type":"Feature","geometry":{"type":"Point","coordinates":[-80.2183,40.5317]},"properties":{"site":"KPBZ","name":"Pittsburgh PA","scan_time":"2026-10-05T02:58:51Z","stale":false,"bins":25,"density_birds_km3":8.811428571428571,"heading_deg":109.23364982905181,"speed_ms":11.578730544747081,"peak_altitude_m":400.0,"u_ms":10.134489299610895,"v_ms":-3.6807676718547344}},{"type":"Feature","geometry":{"type":"Point","coordinates":[-78.4899,35.6655]},"properties":{"site":"KRAX","name":"Raleigh NC","scan_time":"2026-10-05T02:58:32Z","stale":false,"bins":25,"density_birds_km3":17.465625,"heading_deg":177.91736716220703,"speed_ms":7.5925221572356385,"peak_altitude_m":0.0,"u_ms":0.042202447163515025,"v_ms":-7.400501632638416}},{"type":"Feature","geometry":{"type":"Point","coordinates":[-82.4017,27.7055]},"properties":{"site":"KTBW","name":"Tampa FL","scan_time":"2026-10-05T02:59:31Z","stale":false,"bins":25,"density_birds_km3":11.863125,"heading_deg":225.4336137238759,"speed_ms":6.654486010854102,"peak_altitude_m":0.0,"u_ms":-4.584924390115391,"v_ms":-4.685864903314189}}]}