{"type":"FeatureCollection","frame":"2026-09-23T07","site_count":20,"fresh_count":19,"failures":{"KMHX":"RuntimeError('no scan within 20 min of 2026-09-23T07:00Z')"},"features":[{"type":"Feature","geometry":{"type":"Point","coordinates":[-77.0073,36.984]},"properties":{"site":"KAKQ","name":"Wakefield VA","scan_time":"2026-09-23T06:58:30Z","stale":false,"bins":25,"density_birds_km3":0.16642857142857143,"heading_deg":260.0,"speed_ms":14.295000000000002,"peak_altitude_m":200.0,"u_ms":-14.024999999999999,"v_ms":-2.53}},{"type":"Feature","geometry":{"type":"Point","coordinates":[-71.1369,41.9558]},"properties":{"site":"KBOX","name":"Boston MA","scan_time":"2026-09-23T06:58:12Z","stale":false,"bins":25,"density_birds_km3":0.333125,"heading_deg":227.49716745048656,"speed_ms":10.241447368421053,"peak_altitude_m":0.0,"u_ms":-7.5807142857142855,"v_ms":-6.791672932330827}},{"type":"Feature","geometry":{"type":"Point","coordinates":[-78.7369,42.9489]},"properties":{"site":"KBUF","name":"Buffalo NY","scan_time":"2026-09-23T06:59:46Z","stale":false,"bins":25,"density_birds_km3":7.152,"heading_deg":257.6915083389528,"speed_ms":13.636242542878447,"peak_altitude_m":200.0,"u_ms":-13.261891312453393,"v_ms":-2.952527964205816}},{"type":"Feature","geometry":{"type":"Point","coordinates":[-81.8597,41.4131]},"properties":{"site":"KCLE","name":"Cleveland OH","scan_time":"2026-09-23T06:58:45Z","stale":false,"bins":25,"density_birds_km3":46.272666666666666,"heading_deg":246.13841269282176,"speed_ms":13.121002579585248,"peak_altitude_m":200.0,"u_ms":-11.708462624836073,"v_ms":-4.545057572307647}},{"type":"Feature","geometry":{"type":"Point","coordinates":[-81.0423,32.6555]},"properties":{"site":"KCLX","name":"Charleston SC","scan_time":"2026-09-23T07:01:10Z","stale":false,"bins":25,"density_birds_km3":20.841875,"heading_deg":202.9251947290071,"speed_ms":11.62585160303512,"peak_altitude_m":200.0,"u_ms":-4.518540623219267,"v_ms":-10.5314827699967}},{"type":"Feature","geometry":{"type":"Point","coordinates":[-74.4108,39.947]},"properties":{"site":"KDIX","name":"Philadelphia PA","scan_time":"2026-09-23T06:57:46Z","stale":false,"bins":25,"density_birds_km3":3.99375,"heading_deg":200.28964414983278,"speed_ms":12.32613749672002,"peak_altitude_m":200.0,"u_ms":-4.288045132511152,"v_ms":-11.558210443453161}},{"type":"Feature","geometry":{"type":"Point","coordinates":[-84.5658,33.3636]},"properties":{"site":"KFFC","name":"Atlanta GA","scan_time":"2026-09-23T07:03:20Z","stale":false,"bins":25,"density_birds_km3":50.724666666666664,"heading_deg":204.5052789430215,"speed_ms":9.115855533796838,"peak_altitude_m":400.0,"u_ms":-2.4743597460801454,"v_ms":-7.947986252579285}},{"type":"Feature","geometry":{"type":"Point","coordinates":[-85.5449,42.8939]},"properties":{"site":"KGRR","name":"Grand Rapids MI","scan_time":"2026-09-23T06:59:25Z","stale":false,"bins":25,"density_birds_km3":6.807333333333333,"heading_deg":251.20185651911237,"speed_ms":16.334255214964255,"peak_altitude_m":400.0,"u_ms":-15.384107335226718,"v_ms":-4.479963764567623}},{"type":"Feature","geometry":{"type":"Point","coordinates":[-83.8217,39.4203]},"properties":{"site":"KILN","name":"Wilmington OH","scan_time":"2026-09-23T07:02:00Z","stale":false,"bins":25,"density_birds_km3":5.6226666666666665,"heading_deg":222.77512926258552,"speed_ms":6.519978081485301,"peak_altitude_m":200.0,"u_ms":-3.1134283135636927,"v_ms":-3.9536578133058273}},{"type":"Feature","geometry":{"type":"Point","coordinates":[-81.7019,30.4846]},"properties":{"site":"KJAX","name":"Jacksonville FL","scan_time":"2026-09-23T06:58:58Z","stale":false,"bins":25,"density_birds_km3":54.384375,"heading_deg":188.84394658722164,"speed_ms":9.401519048439924,"peak_altitude_m":0.0,"u_ms":-1.4385341607768778,"v_ms":-9.289822099637995}},{"type":"Feature","geometry":{"type":"Point","coordinates":[-88.0847,41.6045]},"properties":{"site":"KLOT","name":"Chicago IL","scan_time":"2026-09-23T07:01:17Z","stale":false,"bins":25,"density_birds_km3":14.506666666666666,"heading_deg":215.52776217405005,"speed_ms":8.69943945051399,"peak_altitude_m":200.0,"u_ms":-4.8927575715668645,"v_ms":-5.155203521873415}},{"type":"Feature","geometry":{"type":"Point","coordinates":[-78.4292,33.9892]},"properties":{"site":"KLTX","name":"Wilmington NC","scan_time":"2026-09-23T06:59:47Z","stale":false,"bins":25,"density_birds_km3":10.373125,"heading_deg":223.52861555470886,"speed_ms":9.071696089654758,"peak_altitude_m":0.0,"u_ms":-6.0081508706392714,"v_ms":-6.682308850997168}},{"type":"Feature","geometry":{"type":"Point","coordinates":[-77.4778,38.9753]},"properties":{"site":"KLWX","name":"Sterling VA","scan_time":"2026-09-23T07:00:47Z","stale":false,"bins":25,"density_birds_km3":38.909285714285716,"heading_deg":212.429749419056,"speed_ms":11.135244801140093,"peak_altitude_m":200.0,"u_ms":-6.294892084981903,"v_ms":-8.755945170545106}},{"type":"Feature","geometry":{"type":"Point","coordinates":[-80.6542,28.1133]},"properties":{"site":"KMLB","name":"Melbourne FL","scan_time":"2026-09-23T06:58:23Z","stale":false,"bins":25,"density_birds_km3":4.780625,"heading_deg":4.6334750418759905,"speed_ms":1.6849862583431492,"peak_altitude_m":0.0,"u_ms":0.1414932600444968,"v_ms":0.6557636435021594}},{"type":"Feature","geometry":{"type":"Point","coordinates":[-86.5625,36.2472]},"properties":{"site":"KOHX","name":"Nashville TN","scan_time":"2026-09-23T06:58:52Z","stale":false,"bins":25,"density_birds_km3":35.122,"heading_deg":222.7382052740325,"speed_ms":6.1821500436614905,"peak_altitude_m":200.0,"u_ms":-4.13074718098637,"v_ms":-4.134344508143818}},{"type":"Feature","geometry":{"type":"Point","coordinates":[-72.8639,40.8655]},"properties":{"site":"KOKX","name":"Upton NY","scan_time":"2026-09-23T06:57:48Z","stale":false,"bins":25,"density_birds_km3":0.19625,"heading_deg":237.63715487701558,"speed_ms":14.023290734824283,"peak_altitude_m":600.0,"u_ms":-11.879424920127796,"v_ms":-7.067188498402556}},{"type":"Feature","geometry":{"type":"Point","coordinates":[-80.2183,40.5317]},"properties":{"site":"KPBZ","name":"Pittsburgh PA","scan_time":"2026-09-23T07:00:00Z","stale":false,"bins":25,"density_birds_km3":23.964285714285715,"heading_deg":241.222614579548,"speed_ms":12.67138990729977,"peak_altitude_m":400.0,"u_ms":-10.94735700020865,"v_ms":-5.686235059167188}},{"type":"Feature","geometry":{"type":"Point","coordinates":[-78.4899,35.6655]},"properties":{"site":"KRAX","name":"Raleigh NC","scan_time":"2026-09-23T06:59:55Z","stale":false,"bins":25,"density_birds_km3":2.67625,"heading_deg":198.5376117169467,"speed_ms":8.69788189987163,"peak_altitude_m":200.0,"u_ms":-2.8282464698331196,"v_ms":-8.191373555840821}},{"type":"Feature","geometry":{"type":"Point","coordinates":[-82.4017,27.7055]},"properties":{"site":"KTBW","name":"Tampa FL","scan_time":"2026-09-23T07:01:38Z","stale":false,"bins":25,"density_birds_km3":7.345000000000001,"heading_deg":234.8658161856578,"speed_ms":3.2742375765827094,"peak_altitude_m":0.0,"u_ms":-2.4898791695030633,"v_ms":-1.9208543226684818}}]}