{"type":"FeatureCollection","frame":"2026-09-18T08","site_count":20,"fresh_count":20,"failures":{},"features":[{"type":"Feature","geometry":{"type":"Point","coordinates":[-77.0073,36.984]},"properties":{"site":"KAKQ","name":"Wakefield VA","scan_time":"2026-09-18T08:00:21Z","stale":false,"bins":25,"density_birds_km3":6.578749999999999,"heading_deg":118.10039184944216,"speed_ms":9.184106973209197,"peak_altitude_m":0.0,"u_ms":8.045879726391792,"v_ms":-4.297148964468935}},{"type":"Feature","geometry":{"type":"Point","coordinates":[-71.1369,41.9558]},"properties":{"site":"KBOX","name":"Boston MA","scan_time":"2026-09-18T08:01:24Z","stale":false,"bins":25,"density_birds_km3":2.9725,"heading_deg":148.96770922339616,"speed_ms":6.421328847771235,"peak_altitude_m":0.0,"u_ms":3.114703532380151,"v_ms":-5.506656854499579}},{"type":"Feature","geometry":{"type":"Point","coordinates":[-78.7369,42.9489]},"properties":{"site":"KBUF","name":"Buffalo NY","scan_time":"2026-09-18T07:56:34Z","stale":false,"bins":25,"density_birds_km3":20.43133333333333,"heading_deg":185.43573434784517,"speed_ms":8.254966880934512,"peak_altitude_m":600.0,"u_ms":-0.955304597513623,"v_ms":-8.065052044245768}},{"type":"Feature","geometry":{"type":"Point","coordinates":[-81.8597,41.4131]},"properties":{"site":"KCLE","name":"Cleveland OH","scan_time":"2026-09-18T07:58:10Z","stale":false,"bins":25,"density_birds_km3":21.842,"heading_deg":205.63532001411167,"speed_ms":10.462342581570674,"peak_altitude_m":400.0,"u_ms":-4.399790312242469,"v_ms":-9.187910447761196}},{"type":"Feature","geometry":{"type":"Point","coordinates":[-81.0423,32.6555]},"properties":{"site":"KCLX","name":"Charleston SC","scan_time":"2026-09-18T07:56:25Z","stale":false,"bins":25,"density_birds_km3":7.018125,"heading_deg":157.2897440541613,"speed_ms":6.406391164944782,"peak_altitude_m":0.0,"u_ms":0.6110206626291415,"v_ms":-5.827027965799786}},{"type":"Feature","geometry":{"type":"Point","coordinates":[-74.4108,39.947]},"properties":{"site":"KDIX","name":"Philadelphia PA","scan_time":"2026-09-18T07:56:56Z","stale":false,"bins":25,"density_birds_km3":2.193125,"heading_deg":136.3007359989909,"speed_ms":6.632785714285714,"peak_altitude_m":0.0,"u_ms":3.45304,"v_ms":-4.1938771428571435}},{"type":"Feature","geometry":{"type":"Point","coordinates":[-84.5658,33.3636]},"properties":{"site":"KFFC","name":"Atlanta GA","scan_time":"2026-09-18T07:59:14Z","stale":false,"bins":25,"density_birds_km3":55.16866666666667,"heading_deg":184.85506945332955,"speed_ms":8.61348942032313,"peak_altitude_m":1000.0,"u_ms":-1.7394384493613526,"v_ms":-7.995478472079562}},{"type":"Feature","geometry":{"type":"Point","coordinates":[-85.5449,42.8939]},"properties":{"site":"KGRR","name":"Grand Rapids MI","scan_time":"2026-09-18T07:59:38Z","stale":false,"bins":25,"density_birds_km3":36.90266666666666,"heading_deg":195.27523538625456,"speed_ms":8.384056256097121,"peak_altitude_m":200.0,"u_ms":-2.315160783321892,"v_ms":-7.98401506666185}},{"type":"Feature","geometry":{"type":"Point","coordinates":[-83.8217,39.4203]},"properties":{"site":"KILN","name":"Wilmington OH","scan_time":"2026-09-18T08:00:44Z","stale":false,"bins":25,"density_birds_km3":20.714000000000002,"heading_deg":159.13475718566698,"speed_ms":8.735448873371482,"peak_altitude_m":400.0,"u_ms":3.7293369540620054,"v_ms":-6.653393140012286}},{"type":"Feature","geometry":{"type":"Point","coordinates":[-81.7019,30.4846]},"properties":{"site":"KJAX","name":"Jacksonville FL","scan_time":"2026-09-18T07:56:34Z","stale":false,"bins":25,"density_birds_km3":16.63625,"heading_deg":194.66653045205848,"speed_ms":11.521955867979853,"peak_altitude_m":0.0,"u_ms":-2.93114953762875,"v_ms":-11.123388091120969}},{"type":"Feature","geometry":{"type":"Point","coordinates":[-88.0847,41.6045]},"properties":{"site":"KLOT","name":"Chicago IL","scan_time":"2026-09-18T07:56:59Z","stale":false,"bins":25,"density_birds_km3":25.779999999999998,"heading_deg":198.91621095017842,"speed_ms":11.557515201697415,"peak_altitude_m":400.0,"u_ms":-3.1941602194219474,"v_ms":-9.490337412994542}},{"type":"Feature","geometry":{"type":"Point","coordinates":[-78.4292,33.9892]},"properties":{"site":"KLTX","name":"Wilmington NC","scan_time":"2026-09-18T07:58:48Z","stale":false,"bins":25,"density_birds_km3":4.438124999999999,"heading_deg":104.82488664632552,"speed_ms":6.913416094639989,"peak_altitude_m":0.0,"u_ms":5.076071272089966,"v_ms":-1.460151891339273}},{"type":"Feature","geometry":{"type":"Point","coordinates":[-77.4778,38.9753]},"properties":{"site":"KLWX","name":"Sterling VA","scan_time":"2026-09-18T07:57:44Z","stale":false,"bins":25,"density_birds_km3":27.145,"heading_deg":193.0748258882591,"speed_ms":9.11072190205091,"peak_altitude_m":200.0,"u_ms":-1.414470006299727,"v_ms":-8.690025898877714}},{"type":"Feature","geometry":{"type":"Point","coordinates":[-76.8762,34.7759]},"properties":{"site":"KMHX","name":"Morehead City NC","scan_time":"2026-09-18T07:56:47Z","stale":false,"bins":25,"density_birds_km3":2.324375,"heading_deg":84.9243878038025,"speed_ms":7.057942442173212,"peak_altitude_m":0.0,"u_ms":6.003590640129101,"v_ms":0.8897175901022055}},{"type":"Feature","geometry":{"type":"Point","coordinates":[-80.6542,28.1133]},"properties":{"site":"KMLB","name":"Melbourne FL","scan_time":"2026-09-18T07:59:49Z","stale":false,"bins":25,"density_birds_km3":3.953125,"heading_deg":217.40692953319524,"speed_ms":3.1828386780104707,"peak_altitude_m":0.0,"u_ms":-1.5022758507853402,"v_ms":-2.272720876963351}},{"type":"Feature","geometry":{"type":"Point","coordinates":[-86.5625,36.2472]},"properties":{"site":"KOHX","name":"Nashville TN","scan_time":"2026-09-18T08:00:02Z","stale":false,"bins":25,"density_birds_km3":66.648,"heading_deg":140.19585486976308,"speed_ms":4.024876265354299,"peak_altitude_m":400.0,"u_ms":2.066044792541912,"v_ms":-3.164373624614892}},{"type":"Feature","geometry":{"type":"Point","coordinates":[-72.8639,40.8655]},"properties":{"site":"KOKX","name":"Upton NY","scan_time":"2026-09-18T08:00:51Z","stale":false,"bins":25,"density_birds_km3":0.58,"heading_deg":89.77489888340665,"speed_ms":5.9915568181818175,"peak_altitude_m":0.0,"u_ms":5.79278409090909,"v_ms":-0.2528863636363638}},{"type":"Feature","geometry":{"type":"Point","coordinates":[-80.2183,40.5317]},"properties":{"site":"KPBZ","name":"Pittsburgh PA","scan_time":"2026-09-18T08:00:33Z","stale":false,"bins":25,"density_birds_km3":3.557142857142857,"heading_deg":176.14433620699052,"speed_ms":6.914094377510041,"peak_altitude_m":400.0,"u_ms":0.8215361445783134,"v_ms":-6.5589859437751015}},{"type":"Feature","geometry":{"type":"Point","coordinates":[-78.4899,35.6655]},"properties":{"site":"KRAX","name":"Raleigh NC","scan_time":"2026-09-18T07:58:06Z","stale":false,"bins":25,"density_birds_km3":9.532666666666668,"heading_deg":98.46086910857727,"speed_ms":8.7590407275603,"peak_altitude_m":200.0,"u_ms":8.021919335705812,"v_ms":-1.1998877026492687}},{"type":"Feature","geometry":{"type":"Point","coordinates":[-82.4017,27.7055]},"properties":{"site":"KTBW","name":"Tampa FL","scan_time":"2026-09-18T07:57:56Z","stale":false,"bins":25,"density_birds_km3":3.4962500000000003,"heading_deg":196.60961603633018,"speed_ms":8.00251698248123,"peak_altitude_m":0.0,"u_ms":-2.315652484805148,"v_ms":-7.477216660707901}}]}