{"type":"FeatureCollection","frame":"2026-10-01T04","site_count":20,"fresh_count":20,"failures":{},"features":[{"type":"Feature","geometry":{"type":"Point","coordinates":[-77.0073,36.984]},"properties":{"site":"KAKQ","name":"Wakefield VA","scan_time":"2026-10-01T04:02:16Z","stale":false,"bins":25,"density_birds_km3":11.8575,"heading_deg":292.30518132720033,"speed_ms":5.927087286527515,"peak_altitude_m":0.0,"u_ms":-1.543025511279781,"v_ms":0.9254337971747838}},{"type":"Feature","geometry":{"type":"Point","coordinates":[-71.1369,41.9558]},"properties":{"site":"KBOX","name":"Boston MA","scan_time":"2026-10-01T04:01:26Z","stale":false,"bins":25,"density_birds_km3":9.3325,"heading_deg":100.84180532642169,"speed_ms":7.529794373744139,"peak_altitude_m":0.0,"u_ms":5.867747488278633,"v_ms":-0.8003375753516406}},{"type":"Feature","geometry":{"type":"Point","coordinates":[-78.7369,42.9489]},"properties":{"site":"KBUF","name":"Buffalo NY","scan_time":"2026-10-01T04:02:40Z","stale":false,"bins":25,"density_birds_km3":0.92,"heading_deg":54.5,"speed_ms":13.91,"peak_altitude_m":200.0,"u_ms":11.33,"v_ms":8.08}},{"type":"Feature","geometry":{"type":"Point","coordinates":[-81.8597,41.4131]},"properties":{"site":"KCLE","name":"Cleveland OH","scan_time":"2026-10-01T03:57:41Z","stale":false,"bins":25,"density_birds_km3":1.282,"heading_deg":28.99294665005841,"speed_ms":11.724641148325356,"peak_altitude_m":200.0,"u_ms":5.8520999468367885,"v_ms":9.958553960659223}},{"type":"Feature","geometry":{"type":"Point","coordinates":[-81.0423,32.6555]},"properties":{"site":"KCLX","name":"Charleston SC","scan_time":"2026-10-01T04:02:27Z","stale":false,"bins":25,"density_birds_km3":11.703750000000001,"heading_deg":246.8263302704214,"speed_ms":7.701632565842193,"peak_altitude_m":0.0,"u_ms":-6.327724237405845,"v_ms":-2.8752625674448424}},{"type":"Feature","geometry":{"type":"Point","coordinates":[-74.4108,39.947]},"properties":{"site":"KDIX","name":"Philadelphia PA","scan_time":"2026-10-01T03:56:37Z","stale":false,"bins":25,"density_birds_km3":11.348125,"heading_deg":73.28558174911122,"speed_ms":6.095742536080204,"peak_altitude_m":0.0,"u_ms":3.492330615842239,"v_ms":0.8327206125371819}},{"type":"Feature","geometry":{"type":"Point","coordinates":[-84.5658,33.3636]},"properties":{"site":"KFFC","name":"Atlanta GA","scan_time":"2026-10-01T03:59:30Z","stale":false,"bins":25,"density_birds_km3":8.647333333333334,"heading_deg":296.36376330208475,"speed_ms":9.240349240613677,"peak_altitude_m":200.0,"u_ms":-7.383440752447767,"v_ms":3.6295721224269526}},{"type":"Feature","geometry":{"type":"Point","coordinates":[-85.5449,42.8939]},"properties":{"site":"KGRR","name":"Grand Rapids MI","scan_time":"2026-10-01T03:58:59Z","stale":false,"bins":25,"density_birds_km3":0.0,"heading_deg":null,"speed_ms":null,"peak_altitude_m":1600.0,"u_ms":null,"v_ms":null}},{"type":"Feature","geometry":{"type":"Point","coordinates":[-83.8217,39.4203]},"properties":{"site":"KILN","name":"Wilmington OH","scan_time":"2026-10-01T03:58:55Z","stale":false,"bins":25,"density_birds_km3":9.456,"heading_deg":41.124865190740664,"speed_ms":12.128180344049632,"peak_altitude_m":400.0,"u_ms":7.587907501410038,"v_ms":8.195006345177665}},{"type":"Feature","geometry":{"type":"Point","coordinates":[-81.7019,30.4846]},"properties":{"site":"KJAX","name":"Jacksonville FL","scan_time":"2026-10-01T04:03:02Z","stale":false,"bins":25,"density_birds_km3":33.161875,"heading_deg":213.4228125878679,"speed_ms":5.985826531189322,"peak_altitude_m":0.0,"u_ms":-2.6845898919825815,"v_ms":-4.155243274831753}},{"type":"Feature","geometry":{"type":"Point","coordinates":[-88.0847,41.6045]},"properties":{"site":"KLOT","name":"Chicago IL","scan_time":"2026-10-01T04:02:07Z","stale":false,"bins":25,"density_birds_km3":0.57,"heading_deg":37.83973741929512,"speed_ms":9.776510538641688,"peak_altitude_m":200.0,"u_ms":6.041393442622951,"v_ms":7.39288056206089}},{"type":"Feature","geometry":{"type":"Point","coordinates":[-78.4292,33.9892]},"properties":{"site":"KLTX","name":"Wilmington NC","scan_time":"2026-10-01T04:01:25Z","stale":false,"bins":25,"density_birds_km3":9.12875,"heading_deg":253.53418613025298,"speed_ms":7.527469093406593,"peak_altitude_m":0.0,"u_ms":-6.555332417582418,"v_ms":-2.1634395604395604}},{"type":"Feature","geometry":{"type":"Point","coordinates":[-77.4778,38.9753]},"properties":{"site":"KLWX","name":"Sterling VA","scan_time":"2026-10-01T03:59:46Z","stale":false,"bins":25,"density_birds_km3":25.135,"heading_deg":3.795034380028998,"speed_ms":8.379345036801272,"peak_altitude_m":200.0,"u_ms":1.2033193256415355,"v_ms":6.068480206882833}},{"type":"Feature","geometry":{"type":"Point","coordinates":[-76.8762,34.7759]},"properties":{"site":"KMHX","name":"Morehead City NC","scan_time":"2026-10-01T03:59:51Z","stale":false,"bins":25,"density_birds_km3":3.653125,"heading_deg":281.99564632022657,"speed_ms":5.340935842600512,"peak_altitude_m":0.0,"u_ms":-1.838786997433704,"v_ms":-0.2404687767322497}},{"type":"Feature","geometry":{"type":"Point","coordinates":[-80.6542,28.1133]},"properties":{"site":"KMLB","name":"Melbourne FL","scan_time":"2026-10-01T04:02:02Z","stale":false,"bins":25,"density_birds_km3":3.25,"heading_deg":223.7032809667653,"speed_ms":5.070901560392988,"peak_altitude_m":200.0,"u_ms":-3.0338027355037567,"v_ms":-3.096696204970141}},{"type":"Feature","geometry":{"type":"Point","coordinates":[-86.5625,36.2472]},"properties":{"site":"KOHX","name":"Nashville TN","scan_time":"2026-10-01T03:59:46Z","stale":false,"bins":25,"density_birds_km3":10.06,"heading_deg":12.488895385276031,"speed_ms":11.722809807819747,"peak_altitude_m":200.0,"u_ms":2.2905222001325383,"v_ms":10.652621603711065}},{"type":"Feature","geometry":{"type":"Point","coordinates":[-72.8639,40.8655]},"properties":{"site":"KOKX","name":"Upton NY","scan_time":"2026-10-01T04:02:24Z","stale":false,"bins":25,"density_birds_km3":7.79,"heading_deg":43.11033412271758,"speed_ms":5.024274135302143,"peak_altitude_m":0.0,"u_ms":1.8702929138913411,"v_ms":2.5103691517534705}},{"type":"Feature","geometry":{"type":"Point","coordinates":[-80.2183,40.5317]},"properties":{"site":"KPBZ","name":"Pittsburgh PA","scan_time":"2026-10-01T03:58:55Z","stale":false,"bins":25,"density_birds_km3":7.005,"heading_deg":39.867646797985465,"speed_ms":10.654427332993372,"peak_altitude_m":400.0,"u_ms":6.910097909229986,"v_ms":7.733084140744519}},{"type":"Feature","geometry":{"type":"Point","coordinates":[-78.4899,35.6655]},"properties":{"site":"KRAX","name":"Raleigh NC","scan_time":"2026-10-01T03:59:42Z","stale":false,"bins":25,"density_birds_km3":15.538125,"heading_deg":58.47917746706176,"speed_ms":6.027560726678914,"peak_altitude_m":0.0,"u_ms":3.1694382527046336,"v_ms":2.9913349663196573}},{"type":"Feature","geometry":{"type":"Point","coordinates":[-82.4017,27.7055]},"properties":{"site":"KTBW","name":"Tampa FL","scan_time":"2026-10-01T04:02:51Z","stale":false,"bins":25,"density_birds_km3":11.468125,"heading_deg":265.0983208777106,"speed_ms":6.151476919723145,"peak_altitude_m":0.0,"u_ms":-5.114407324649844,"v_ms":0.47452558722546184}}]}