{"type":"FeatureCollection","frame":"2026-08-18T09","site_count":20,"fresh_count":20,"failures":{},"features":[{"type":"Feature","geometry":{"type":"Point","coordinates":[-77.0073,36.984]},"properties":{"site":"KAKQ","name":"Wakefield VA","scan_time":"2026-08-18T09:00:04Z","stale":false,"bins":25,"density_birds_km3":4.769375,"heading_deg":216.23905169731333,"speed_ms":4.753546526867628,"peak_altitude_m":400.0,"u_ms":-1.7753040629095675,"v_ms":-2.979711664482307}},{"type":"Feature","geometry":{"type":"Point","coordinates":[-71.1369,41.9558]},"properties":{"site":"KBOX","name":"Boston MA","scan_time":"2026-08-18T09:00:51Z","stale":false,"bins":25,"density_birds_km3":0.7937500000000001,"heading_deg":210.2743378144768,"speed_ms":5.187413931144916,"peak_altitude_m":0.0,"u_ms":-2.583474779823859,"v_ms":-4.49240192153723}},{"type":"Feature","geometry":{"type":"Point","coordinates":[-78.7369,42.9489]},"properties":{"site":"KBUF","name":"Buffalo NY","scan_time":"2026-08-18T08:56:40Z","stale":false,"bins":25,"density_birds_km3":2.6726666666666667,"heading_deg":171.28806851145157,"speed_ms":4.710673484659516,"peak_altitude_m":200.0,"u_ms":0.705091045148416,"v_ms":-4.336373160389124}},{"type":"Feature","geometry":{"type":"Point","coordinates":[-81.8597,41.4131]},"properties":{"site":"KCLE","name":"Cleveland OH","scan_time":"2026-08-18T09:00:40Z","stale":false,"bins":25,"density_birds_km3":4.13,"heading_deg":209.5333790817779,"speed_ms":5.318044250645994,"peak_altitude_m":600.0,"u_ms":-2.496498708010336,"v_ms":-4.517994186046512}},{"type":"Feature","geometry":{"type":"Point","coordinates":[-81.0423,32.6555]},"properties":{"site":"KCLX","name":"Charleston SC","scan_time":"2026-08-18T08:57:51Z","stale":false,"bins":25,"density_birds_km3":2.559375,"heading_deg":131.00535123721554,"speed_ms":7.483339032730827,"peak_altitude_m":0.0,"u_ms":5.205884220810943,"v_ms":-5.039728871519297}},{"type":"Feature","geometry":{"type":"Point","coordinates":[-74.4108,39.947]},"properties":{"site":"KDIX","name":"Philadelphia PA","scan_time":"2026-08-18T08:59:33Z","stale":false,"bins":25,"density_birds_km3":1.099375,"heading_deg":249.51820398137704,"speed_ms":4.063141809290953,"peak_altitude_m":200.0,"u_ms":-3.7059046454767732,"v_ms":-1.268190709046455}},{"type":"Feature","geometry":{"type":"Point","coordinates":[-84.5658,33.3636]},"properties":{"site":"KFFC","name":"Atlanta GA","scan_time":"2026-08-18T09:01:47Z","stale":false,"bins":25,"density_birds_km3":4.994666666666666,"heading_deg":111.92784024269682,"speed_ms":8.946290300822879,"peak_altitude_m":400.0,"u_ms":8.260677188722516,"v_ms":-3.377932011331445}},{"type":"Feature","geometry":{"type":"Point","coordinates":[-85.5449,42.8939]},"properties":{"site":"KGRR","name":"Grand Rapids MI","scan_time":"2026-08-18T08:59:26Z","stale":false,"bins":25,"density_birds_km3":0.6346666666666666,"heading_deg":79.76465344932569,"speed_ms":7.442402528977871,"peak_altitude_m":200.0,"u_ms":7.184383561643836,"v_ms":1.1915911485774497}},{"type":"Feature","geometry":{"type":"Point","coordinates":[-83.8217,39.4203]},"properties":{"site":"KILN","name":"Wilmington OH","scan_time":"2026-08-18T08:58:26Z","stale":false,"bins":25,"density_birds_km3":19.229333333333333,"heading_deg":206.81955637363413,"speed_ms":7.889254854368933,"peak_altitude_m":400.0,"u_ms":-3.4167912621359227,"v_ms":-6.851838418862692}},{"type":"Feature","geometry":{"type":"Point","coordinates":[-81.7019,30.4846]},"properties":{"site":"KJAX","name":"Jacksonville FL","scan_time":"2026-08-18T09:02:41Z","stale":false,"bins":25,"density_birds_km3":17.7475,"heading_deg":159.9428391072063,"speed_ms":5.1729607325233316,"peak_altitude_m":0.0,"u_ms":2.103080824088748,"v_ms":-4.407452016200035}},{"type":"Feature","geometry":{"type":"Point","coordinates":[-88.0847,41.6045]},"properties":{"site":"KLOT","name":"Chicago IL","scan_time":"2026-08-18T09:00:44Z","stale":false,"bins":25,"density_birds_km3":1.4973333333333334,"heading_deg":71.66682156246128,"speed_ms":7.9226669634906495,"peak_altitude_m":200.0,"u_ms":7.0774666073018695,"v_ms":2.566366874443455}},{"type":"Feature","geometry":{"type":"Point","coordinates":[-78.4292,33.9892]},"properties":{"site":"KLTX","name":"Wilmington NC","scan_time":"2026-08-18T08:58:55Z","stale":false,"bins":25,"density_birds_km3":1.834375,"heading_deg":98.62045956805768,"speed_ms":7.845134582623509,"peak_altitude_m":0.0,"u_ms":7.7294821124361155,"v_ms":-1.2676320272572401}},{"type":"Feature","geometry":{"type":"Point","coordinates":[-77.4778,38.9753]},"properties":{"site":"KLWX","name":"Sterling VA","scan_time":"2026-08-18T08:58:30Z","stale":false,"bins":25,"density_birds_km3":6.413125,"heading_deg":193.3930654770813,"speed_ms":7.3061136008337675,"peak_altitude_m":400.0,"u_ms":-1.820550286607608,"v_ms":-7.023912454403335}},{"type":"Feature","geometry":{"type":"Point","coordinates":[-76.8762,34.7759]},"properties":{"site":"KMHX","name":"Morehead City NC","scan_time":"2026-08-18T09:00:21Z","stale":false,"bins":25,"density_birds_km3":1.498125,"heading_deg":86.05780610400724,"speed_ms":8.208865248226951,"peak_altitude_m":0.0,"u_ms":8.148931998331248,"v_ms":0.4887901543596163}},{"type":"Feature","geometry":{"type":"Point","coordinates":[-80.6542,28.1133]},"properties":{"site":"KMLB","name":"Melbourne FL","scan_time":"2026-08-18T08:59:47Z","stale":false,"bins":25,"density_birds_km3":4.2725,"heading_deg":141.55657985751347,"speed_ms":9.328423054417788,"peak_altitude_m":0.0,"u_ms":5.779362200117028,"v_ms":-7.316416032767701}},{"type":"Feature","geometry":{"type":"Point","coordinates":[-86.5625,36.2472]},"properties":{"site":"KOHX","name":"Nashville TN","scan_time":"2026-08-18T09:01:36Z","stale":false,"bins":25,"density_birds_km3":46.59133333333333,"heading_deg":196.40865420462822,"speed_ms":7.944224963154808,"peak_altitude_m":400.0,"u_ms":-2.1644038233147795,"v_ms":-6.8971109076079955}},{"type":"Feature","geometry":{"type":"Point","coordinates":[-72.8639,40.8655]},"properties":{"site":"KOKX","name":"Upton NY","scan_time":"2026-08-18T08:56:03Z","stale":false,"bins":25,"density_birds_km3":0.8025,"heading_deg":213.73060162580296,"speed_ms":4.276947826086956,"peak_altitude_m":0.0,"u_ms":-2.2215478260869563,"v_ms":-3.598860869565218}},{"type":"Feature","geometry":{"type":"Point","coordinates":[-80.2183,40.5317]},"properties":{"site":"KPBZ","name":"Pittsburgh PA","scan_time":"2026-08-18T08:59:24Z","stale":false,"bins":25,"density_birds_km3":8.110714285714286,"heading_deg":201.20967668889472,"speed_ms":9.102426885130372,"peak_altitude_m":600.0,"u_ms":-3.208276074700493,"v_ms":-8.220518851303735}},{"type":"Feature","geometry":{"type":"Point","coordinates":[-78.4899,35.6655]},"properties":{"site":"KRAX","name":"Raleigh NC","scan_time":"2026-08-18T09:01:55Z","stale":false,"bins":25,"density_birds_km3":6.87125,"heading_deg":194.40271599650293,"speed_ms":6.080454876273653,"peak_altitude_m":400.0,"u_ms":-1.4915201965065503,"v_ms":-5.762136098981077}},{"type":"Feature","geometry":{"type":"Point","coordinates":[-82.4017,27.7055]},"properties":{"site":"KTBW","name":"Tampa FL","scan_time":"2026-08-18T08:59:19Z","stale":false,"bins":25,"density_birds_km3":1.526875,"heading_deg":143.26630829626208,"speed_ms":4.913901639344263,"peak_altitude_m":0.0,"u_ms":2.299254098360656,"v_ms":-4.146848360655738}}]}