{"type":"FeatureCollection","frame":"2026-09-01T12","site_count":20,"fresh_count":20,"failures":{},"features":[{"type":"Feature","geometry":{"type":"Point","coordinates":[-77.0073,36.984]},"properties":{"site":"KAKQ","name":"Wakefield VA","scan_time":"2026-09-01T12:02:49Z","stale":false,"bins":25,"density_birds_km3":0.711875,"heading_deg":124.53449509739167,"speed_ms":5.466788321167883,"peak_altitude_m":0.0,"u_ms":4.46103102189781,"v_ms":-3.1195346715328465}},{"type":"Feature","geometry":{"type":"Point","coordinates":[-71.1369,41.9558]},"properties":{"site":"KBOX","name":"Boston MA","scan_time":"2026-09-01T12:00:41Z","stale":false,"bins":25,"density_birds_km3":0.723125,"heading_deg":294.4449336606259,"speed_ms":2.044232437120555,"peak_altitude_m":0.0,"u_ms":-1.820954032957502,"v_ms":0.8389245446660885}},{"type":"Feature","geometry":{"type":"Point","coordinates":[-78.7369,42.9489]},"properties":{"site":"KBUF","name":"Buffalo NY","scan_time":"2026-09-01T11:57:29Z","stale":false,"bins":25,"density_birds_km3":0.8546666666666667,"heading_deg":98.63719077908962,"speed_ms":7.664121779859483,"peak_altitude_m":200.0,"u_ms":7.396377829820452,"v_ms":-1.1482201405152224}},{"type":"Feature","geometry":{"type":"Point","coordinates":[-81.8597,41.4131]},"properties":{"site":"KCLE","name":"Cleveland OH","scan_time":"2026-09-01T11:59:28Z","stale":false,"bins":25,"density_birds_km3":2.3400000000000003,"heading_deg":97.87853381348366,"speed_ms":8.693894586894586,"peak_altitude_m":200.0,"u_ms":8.38028205128205,"v_ms":-1.6042307692307691}},{"type":"Feature","geometry":{"type":"Point","coordinates":[-81.0423,32.6555]},"properties":{"site":"KCLX","name":"Charleston SC","scan_time":"2026-09-01T11:57:43Z","stale":false,"bins":25,"density_birds_km3":3.295,"heading_deg":200.0896812110774,"speed_ms":6.579889984825493,"peak_altitude_m":0.0,"u_ms":-2.2374032625189684,"v_ms":-6.178810698027314}},{"type":"Feature","geometry":{"type":"Point","coordinates":[-74.4108,39.947]},"properties":{"site":"KDIX","name":"Philadelphia PA","scan_time":"2026-09-01T12:02:06Z","stale":false,"bins":25,"density_birds_km3":0.349375,"heading_deg":70.66526958350475,"speed_ms":6.301844484629295,"peak_altitude_m":0.0,"u_ms":5.546003616636527,"v_ms":1.0337070524412297}},{"type":"Feature","geometry":{"type":"Point","coordinates":[-84.5658,33.3636]},"properties":{"site":"KFFC","name":"Atlanta GA","scan_time":"2026-09-01T12:02:36Z","stale":false,"bins":25,"density_birds_km3":6.083333333333333,"heading_deg":173.53825259881256,"speed_ms":4.277413698630137,"peak_altitude_m":200.0,"u_ms":-0.9133873972602741,"v_ms":-2.742755068493151}},{"type":"Feature","geometry":{"type":"Point","coordinates":[-85.5449,42.8939]},"properties":{"site":"KGRR","name":"Grand Rapids MI","scan_time":"2026-09-01T12:00:24Z","stale":false,"bins":25,"density_birds_km3":7.4,"heading_deg":111.69163471326361,"speed_ms":7.784001814882032,"peak_altitude_m":600.0,"u_ms":7.165709820528332,"v_ms":-2.969019963702359}},{"type":"Feature","geometry":{"type":"Point","coordinates":[-83.8217,39.4203]},"properties":{"site":"KILN","name":"Wilmington OH","scan_time":"2026-09-01T12:00:53Z","stale":false,"bins":25,"density_birds_km3":2.3280000000000003,"heading_deg":103.48126996741728,"speed_ms":11.596732588134136,"peak_altitude_m":400.0,"u_ms":11.076159357982228,"v_ms":-2.6551676698194324}},{"type":"Feature","geometry":{"type":"Point","coordinates":[-81.7019,30.4846]},"properties":{"site":"KJAX","name":"Jacksonville FL","scan_time":"2026-09-01T12:02:06Z","stale":false,"bins":25,"density_birds_km3":6.253125,"heading_deg":190.00273431339616,"speed_ms":9.499970760233918,"peak_altitude_m":0.0,"u_ms":-1.6351159507965314,"v_ms":-9.34074006856221}},{"type":"Feature","geometry":{"type":"Point","coordinates":[-88.0847,41.6045]},"properties":{"site":"KLOT","name":"Chicago IL","scan_time":"2026-09-01T11:59:07Z","stale":false,"bins":25,"density_birds_km3":53.434666666666665,"heading_deg":118.26533712654496,"speed_ms":10.642121593971453,"peak_altitude_m":600.0,"u_ms":9.269610115780019,"v_ms":-5.098104850783511}},{"type":"Feature","geometry":{"type":"Point","coordinates":[-78.4292,33.9892]},"properties":{"site":"KLTX","name":"Wilmington NC","scan_time":"2026-09-01T11:58:49Z","stale":false,"bins":25,"density_birds_km3":2.518125,"heading_deg":194.4519275525516,"speed_ms":5.563849590469099,"peak_altitude_m":0.0,"u_ms":-1.7507669396872676,"v_ms":-4.630570861255895}},{"type":"Feature","geometry":{"type":"Point","coordinates":[-77.4778,38.9753]},"properties":{"site":"KLWX","name":"Sterling VA","scan_time":"2026-09-01T11:58:39Z","stale":false,"bins":25,"density_birds_km3":4.156875,"heading_deg":155.27380698608363,"speed_ms":5.7746524701873945,"peak_altitude_m":0.0,"u_ms":2.9741908006814315,"v_ms":-4.735402044293015}},{"type":"Feature","geometry":{"type":"Point","coordinates":[-76.8762,34.7759]},"properties":{"site":"KMHX","name":"Morehead City NC","scan_time":"2026-09-01T12:00:20Z","stale":false,"bins":25,"density_birds_km3":1.575625,"heading_deg":180.98457000121763,"speed_ms":4.745922253074177,"peak_altitude_m":0.0,"u_ms":-0.24466481554938527,"v_ms":-4.115271717572392}},{"type":"Feature","geometry":{"type":"Point","coordinates":[-80.6542,28.1133]},"properties":{"site":"KMLB","name":"Melbourne FL","scan_time":"2026-09-01T11:57:47Z","stale":false,"bins":25,"density_birds_km3":0.77375,"heading_deg":178.99210407188298,"speed_ms":6.548311793214863,"peak_altitude_m":0.0,"u_ms":0.12722940226171245,"v_ms":-6.5458481421647825}},{"type":"Feature","geometry":{"type":"Point","coordinates":[-86.5625,36.2472]},"properties":{"site":"KOHX","name":"Nashville TN","scan_time":"2026-09-01T12:00:11Z","stale":false,"bins":25,"density_birds_km3":4.335333333333334,"heading_deg":141.38074608983382,"speed_ms":4.092835384615385,"peak_altitude_m":200.0,"u_ms":2.559047692307692,"v_ms":-2.6838476923076926}},{"type":"Feature","geometry":{"type":"Point","coordinates":[-72.8639,40.8655]},"properties":{"site":"KOKX","name":"Upton NY","scan_time":"2026-09-01T11:59:44Z","stale":false,"bins":25,"density_birds_km3":0.343125,"heading_deg":293.933572770639,"speed_ms":2.81735883424408,"peak_altitude_m":0.0,"u_ms":-2.442695810564663,"v_ms":0.9924225865209471}},{"type":"Feature","geometry":{"type":"Point","coordinates":[-80.2183,40.5317]},"properties":{"site":"KPBZ","name":"Pittsburgh PA","scan_time":"2026-09-01T11:59:36Z","stale":false,"bins":25,"density_birds_km3":5.924285714285714,"heading_deg":113.71334124453287,"speed_ms":16.702599469496022,"peak_altitude_m":1000.0,"u_ms":14.995654690137451,"v_ms":-6.828265010851219}},{"type":"Feature","geometry":{"type":"Point","coordinates":[-78.4899,35.6655]},"properties":{"site":"KRAX","name":"Raleigh NC","scan_time":"2026-09-01T11:59:39Z","stale":false,"bins":25,"density_birds_km3":1.115,"heading_deg":119.1831616045699,"speed_ms":5.42946599213041,"peak_altitude_m":0.0,"u_ms":4.6802754356379985,"v_ms":-2.567054525014053}},{"type":"Feature","geometry":{"type":"Point","coordinates":[-82.4017,27.7055]},"properties":{"site":"KTBW","name":"Tampa FL","scan_time":"2026-09-01T12:02:39Z","stale":false,"bins":25,"density_birds_km3":1.735625,"heading_deg":208.25491398199594,"speed_ms":4.154574927953891,"peak_altitude_m":0.0,"u_ms":-1.9747982708933718,"v_ms":-3.6175396253602305}}]}