{"type":"FeatureCollection","frame":"2026-10-05T12","site_count":20,"fresh_count":20,"failures":{},"features":[{"type":"Feature","geometry":{"type":"Point","coordinates":[-77.0073,36.984]},"properties":{"site":"KAKQ","name":"Wakefield VA","scan_time":"2026-10-05T12:03:11Z","stale":false,"bins":25,"density_birds_km3":1.759375,"heading_deg":190.0963335009795,"speed_ms":7.238159857904085,"peak_altitude_m":200.0,"u_ms":-1.643239786856128,"v_ms":-6.9712646536412075}},{"type":"Feature","geometry":{"type":"Point","coordinates":[-71.1369,41.9558]},"properties":{"site":"KBOX","name":"Boston MA","scan_time":"2026-10-05T11:55:57Z","stale":false,"bins":25,"density_birds_km3":1.574375,"heading_deg":85.37052742531537,"speed_ms":2.3313547874453713,"peak_altitude_m":0.0,"u_ms":2.32253873659118,"v_ms":0.20445768772348033}},{"type":"Feature","geometry":{"type":"Point","coordinates":[-78.7369,42.9489]},"properties":{"site":"KBUF","name":"Buffalo NY","scan_time":"2026-10-05T11:57:27Z","stale":false,"bins":25,"density_birds_km3":1.428,"heading_deg":92.36945170828837,"speed_ms":6.05405140186916,"peak_altitude_m":200.0,"u_ms":5.952584112149533,"v_ms":-0.19670560747663557}},{"type":"Feature","geometry":{"type":"Point","coordinates":[-81.8597,41.4131]},"properties":{"site":"KCLE","name":"Cleveland OH","scan_time":"2026-10-05T12:01:01Z","stale":false,"bins":25,"density_birds_km3":3.52,"heading_deg":128.33200895297244,"speed_ms":7.500492424242425,"peak_altitude_m":200.0,"u_ms":5.736397727272728,"v_ms":-4.73914393939394}},{"type":"Feature","geometry":{"type":"Point","coordinates":[-81.0423,32.6555]},"properties":{"site":"KCLX","name":"Charleston SC","scan_time":"2026-10-05T12:00:07Z","stale":false,"bins":25,"density_birds_km3":0.2425,"heading_deg":null,"speed_ms":null,"peak_altitude_m":0.0,"u_ms":null,"v_ms":null}},{"type":"Feature","geometry":{"type":"Point","coordinates":[-74.4108,39.947]},"properties":{"site":"KDIX","name":"Philadelphia PA","scan_time":"2026-10-05T12:00:13Z","stale":false,"bins":25,"density_birds_km3":0.466875,"heading_deg":103.45534601224502,"speed_ms":4.622909836065574,"peak_altitude_m":0.0,"u_ms":4.160122950819672,"v_ms":-1.3434836065573772}},{"type":"Feature","geometry":{"type":"Point","coordinates":[-84.5658,33.3636]},"properties":{"site":"KFFC","name":"Atlanta GA","scan_time":"2026-10-05T11:57:32Z","stale":false,"bins":25,"density_birds_km3":2.398,"heading_deg":198.55291002234705,"speed_ms":7.410125104253546,"peak_altitude_m":200.0,"u_ms":-2.3815401723658605,"v_ms":-6.988554350847929}},{"type":"Feature","geometry":{"type":"Point","coordinates":[-85.5449,42.8939]},"properties":{"site":"KGRR","name":"Grand Rapids MI","scan_time":"2026-10-05T12:01:18Z","stale":false,"bins":25,"density_birds_km3":4.0953333333333335,"heading_deg":172.01073742976908,"speed_ms":7.307480058603288,"peak_altitude_m":200.0,"u_ms":0.9880042324597103,"v_ms":-7.241657170763471}},{"type":"Feature","geometry":{"type":"Point","coordinates":[-83.8217,39.4203]},"properties":{"site":"KILN","name":"Wilmington OH","scan_time":"2026-10-05T12:02:01Z","stale":false,"bins":25,"density_birds_km3":2.5013333333333336,"heading_deg":187.72940208989436,"speed_ms":10.092666666666668,"peak_altitude_m":200.0,"u_ms":-1.1674799999999999,"v_ms":-9.885546666666666}},{"type":"Feature","geometry":{"type":"Point","coordinates":[-81.7019,30.4846]},"properties":{"site":"KJAX","name":"Jacksonville FL","scan_time":"2026-10-05T12:01:12Z","stale":false,"bins":25,"density_birds_km3":0.451875,"heading_deg":317.0865386467665,"speed_ms":3.8524619640387274,"peak_altitude_m":0.0,"u_ms":-2.11417704011065,"v_ms":2.577759336099585}},{"type":"Feature","geometry":{"type":"Point","coordinates":[-88.0847,41.6045]},"properties":{"site":"KLOT","name":"Chicago IL","scan_time":"2026-10-05T12:01:30Z","stale":false,"bins":25,"density_birds_km3":8.410666666666666,"heading_deg":179.09387000136337,"speed_ms":9.141234147114773,"peak_altitude_m":200.0,"u_ms":0.10689521242866203,"v_ms":-9.12908449587825}},{"type":"Feature","geometry":{"type":"Point","coordinates":[-78.4292,33.9892]},"properties":{"site":"KLTX","name":"Wilmington NC","scan_time":"2026-10-05T11:58:40Z","stale":false,"bins":25,"density_birds_km3":0.8423076923076922,"heading_deg":null,"speed_ms":null,"peak_altitude_m":400.0,"u_ms":null,"v_ms":null}},{"type":"Feature","geometry":{"type":"Point","coordinates":[-77.4778,38.9753]},"properties":{"site":"KLWX","name":"Sterling VA","scan_time":"2026-10-05T11:56:43Z","stale":false,"bins":25,"density_birds_km3":7.292,"heading_deg":129.20717711311337,"speed_ms":7.4425429095150815,"peak_altitude_m":200.0,"u_ms":0.9431844692551242,"v_ms":-1.9393467755374103}},{"type":"Feature","geometry":{"type":"Point","coordinates":[-76.8762,34.7759]},"properties":{"site":"KMHX","name":"Morehead City NC","scan_time":"2026-10-05T11:59:42Z","stale":false,"bins":25,"density_birds_km3":0.03357142857142857,"heading_deg":null,"speed_ms":null,"peak_altitude_m":1000.0,"u_ms":null,"v_ms":null}},{"type":"Feature","geometry":{"type":"Point","coordinates":[-80.6542,28.1133]},"properties":{"site":"KMLB","name":"Melbourne FL","scan_time":"2026-10-05T12:01:24Z","stale":false,"bins":25,"density_birds_km3":0.74875,"heading_deg":6.979282223779788,"speed_ms":3.2434319526627218,"peak_altitude_m":0.0,"u_ms":0.312814877430262,"v_ms":2.9940236686390533}},{"type":"Feature","geometry":{"type":"Point","coordinates":[-86.5625,36.2472]},"properties":{"site":"KOHX","name":"Nashville TN","scan_time":"2026-10-05T12:03:27Z","stale":false,"bins":25,"density_birds_km3":17.12933333333333,"heading_deg":201.9660208276995,"speed_ms":11.520514906203783,"peak_altitude_m":200.0,"u_ms":-4.413844866505799,"v_ms":-10.466950260761267}},{"type":"Feature","geometry":{"type":"Point","coordinates":[-72.8639,40.8655]},"properties":{"site":"KOKX","name":"Upton NY","scan_time":"2026-10-05T12:00:22Z","stale":false,"bins":25,"density_birds_km3":1.199375,"heading_deg":81.01889847352656,"speed_ms":3.655075560187597,"peak_altitude_m":0.0,"u_ms":3.5832621156852524,"v_ms":0.5454142782699322}},{"type":"Feature","geometry":{"type":"Point","coordinates":[-80.2183,40.5317]},"properties":{"site":"KPBZ","name":"Pittsburgh PA","scan_time":"2026-10-05T12:01:08Z","stale":false,"bins":25,"density_birds_km3":1.4428571428571428,"heading_deg":157.09100809145374,"speed_ms":9.03108910891089,"peak_altitude_m":600.0,"u_ms":3.511138613861386,"v_ms":-8.312673267326733}},{"type":"Feature","geometry":{"type":"Point","coordinates":[-78.4899,35.6655]},"properties":{"site":"KRAX","name":"Raleigh NC","scan_time":"2026-10-05T11:59:24Z","stale":false,"bins":25,"density_birds_km3":0.8724999999999999,"heading_deg":186.9724198813681,"speed_ms":3.9156805157593126,"peak_altitude_m":0.0,"u_ms":-0.5358739255014326,"v_ms":-3.6986461318051576}},{"type":"Feature","geometry":{"type":"Point","coordinates":[-82.4017,27.7055]},"properties":{"site":"KTBW","name":"Tampa FL","scan_time":"2026-10-05T12:00:20Z","stale":false,"bins":25,"density_birds_km3":1.088125,"heading_deg":344.5239982925888,"speed_ms":6.546904078116025,"peak_altitude_m":0.0,"u_ms":-1.6754049396898332,"v_ms":6.286794945433658}}]}