{"type":"FeatureCollection","frame":"2026-09-27T11","site_count":20,"fresh_count":20,"failures":{},"features":[{"type":"Feature","geometry":{"type":"Point","coordinates":[-77.0073,36.984]},"properties":{"site":"KAKQ","name":"Wakefield VA","scan_time":"2026-09-27T10:58:44Z","stale":false,"bins":25,"density_birds_km3":0.0375,"heading_deg":125.23611633458438,"speed_ms":9.467,"peak_altitude_m":0.0,"u_ms":7.215333333333334,"v_ms":-5.591666666666667}},{"type":"Feature","geometry":{"type":"Point","coordinates":[-71.1369,41.9558]},"properties":{"site":"KBOX","name":"Boston MA","scan_time":"2026-09-27T11:03:19Z","stale":false,"bins":25,"density_birds_km3":0.0044444444444444444,"heading_deg":null,"speed_ms":null,"peak_altitude_m":2000.0,"u_ms":null,"v_ms":null}},{"type":"Feature","geometry":{"type":"Point","coordinates":[-78.7369,42.9489]},"properties":{"site":"KBUF","name":"Buffalo NY","scan_time":"2026-09-27T10:57:34Z","stale":false,"bins":25,"density_birds_km3":0.38533333333333336,"heading_deg":213.21642748005954,"speed_ms":11.393165217391305,"peak_altitude_m":200.0,"u_ms":-6.157043478260869,"v_ms":-9.39806956521739}},{"type":"Feature","geometry":{"type":"Point","coordinates":[-81.8597,41.4131]},"properties":{"site":"KCLE","name":"Cleveland OH","scan_time":"2026-09-27T11:02:05Z","stale":false,"bins":25,"density_birds_km3":1.884,"heading_deg":191.88999577291156,"speed_ms":9.02745042492918,"peak_altitude_m":400.0,"u_ms":-1.8812145892351275,"v_ms":-8.816837818696884}},{"type":"Feature","geometry":{"type":"Point","coordinates":[-81.0423,32.6555]},"properties":{"site":"KCLX","name":"Charleston SC","scan_time":"2026-09-27T10:59:21Z","stale":false,"bins":25,"density_birds_km3":0.49687499999999996,"heading_deg":185.73758153908332,"speed_ms":6.052632944228274,"peak_altitude_m":200.0,"u_ms":-0.96715953307393,"v_ms":-5.506796368352789}},{"type":"Feature","geometry":{"type":"Point","coordinates":[-74.4108,39.947]},"properties":{"site":"KDIX","name":"Philadelphia PA","scan_time":"2026-09-27T10:57:17Z","stale":false,"bins":25,"density_birds_km3":0.0,"heading_deg":null,"speed_ms":null,"peak_altitude_m":3000.0,"u_ms":null,"v_ms":null}},{"type":"Feature","geometry":{"type":"Point","coordinates":[-84.5658,33.3636]},"properties":{"site":"KFFC","name":"Atlanta GA","scan_time":"2026-09-27T11:03:01Z","stale":false,"bins":25,"density_birds_km3":1.5833333333333333,"heading_deg":212.56875702636032,"speed_ms":8.571191578947369,"peak_altitude_m":400.0,"u_ms":-3.1628210526315788,"v_ms":-6.300058947368421}},{"type":"Feature","geometry":{"type":"Point","coordinates":[-85.5449,42.8939]},"properties":{"site":"KGRR","name":"Grand Rapids MI","scan_time":"2026-09-27T10:59:09Z","stale":false,"bins":25,"density_birds_km3":1.9306666666666668,"heading_deg":210.74678640628113,"speed_ms":8.371506565307532,"peak_altitude_m":400.0,"u_ms":-4.2877159640635805,"v_ms":-7.183690393918451}},{"type":"Feature","geometry":{"type":"Point","coordinates":[-83.8217,39.4203]},"properties":{"site":"KILN","name":"Wilmington OH","scan_time":"2026-09-27T10:56:42Z","stale":false,"bins":25,"density_birds_km3":5.852666666666666,"heading_deg":193.18554452849705,"speed_ms":12.442980517261024,"peak_altitude_m":400.0,"u_ms":-2.816150165204512,"v_ms":-12.104269112453002}},{"type":"Feature","geometry":{"type":"Point","coordinates":[-81.7019,30.4846]},"properties":{"site":"KJAX","name":"Jacksonville FL","scan_time":"2026-09-27T11:01:22Z","stale":false,"bins":25,"density_birds_km3":3.471875,"heading_deg":141.17961788898032,"speed_ms":6.403698432714826,"peak_altitude_m":0.0,"u_ms":2.541253828139074,"v_ms":-4.035462078904702}},{"type":"Feature","geometry":{"type":"Point","coordinates":[-88.0847,41.6045]},"properties":{"site":"KLOT","name":"Chicago IL","scan_time":"2026-09-27T10:57:34Z","stale":false,"bins":25,"density_birds_km3":3.8639999999999994,"heading_deg":210.92504727636722,"speed_ms":6.552877846790891,"peak_altitude_m":400.0,"u_ms":-1.946055900621118,"v_ms":-5.269784334023465}},{"type":"Feature","geometry":{"type":"Point","coordinates":[-78.4292,33.9892]},"properties":{"site":"KLTX","name":"Wilmington NC","scan_time":"2026-09-27T10:57:21Z","stale":false,"bins":25,"density_birds_km3":2.69125,"heading_deg":204.43668830260552,"speed_ms":9.265813197026022,"peak_altitude_m":0.0,"u_ms":-3.5263406133829003,"v_ms":-7.899330855018587}},{"type":"Feature","geometry":{"type":"Point","coordinates":[-77.4778,38.9753]},"properties":{"site":"KLWX","name":"Sterling VA","scan_time":"2026-09-27T10:59:26Z","stale":false,"bins":25,"density_birds_km3":0.783125,"heading_deg":151.03143756759627,"speed_ms":9.014878487848785,"peak_altitude_m":0.0,"u_ms":4.2916831683168315,"v_ms":-7.906822682268228}},{"type":"Feature","geometry":{"type":"Point","coordinates":[-76.8762,34.7759]},"properties":{"site":"KMHX","name":"Morehead City NC","scan_time":"2026-09-27T10:58:48Z","stale":false,"bins":25,"density_birds_km3":0.32375,"heading_deg":154.33345077933456,"speed_ms":10.465800781250001,"peak_altitude_m":0.0,"u_ms":4.1571875,"v_ms":-9.41529296875}},{"type":"Feature","geometry":{"type":"Point","coordinates":[-80.6542,28.1133]},"properties":{"site":"KMLB","name":"Melbourne FL","scan_time":"2026-09-27T10:56:40Z","stale":false,"bins":25,"density_birds_km3":3.718125,"heading_deg":175.61321066320002,"speed_ms":6.9604069963000335,"peak_altitude_m":200.0,"u_ms":0.7032357887655567,"v_ms":-6.753523377060208}},{"type":"Feature","geometry":{"type":"Point","coordinates":[-86.5625,36.2472]},"properties":{"site":"KOHX","name":"Nashville TN","scan_time":"2026-09-27T10:59:39Z","stale":false,"bins":25,"density_birds_km3":12.552666666666665,"heading_deg":205.74265623004038,"speed_ms":9.412805247225025,"peak_altitude_m":200.0,"u_ms":-4.040594296032715,"v_ms":-8.351419087577673}},{"type":"Feature","geometry":{"type":"Point","coordinates":[-72.8639,40.8655]},"properties":{"site":"KOKX","name":"Upton NY","scan_time":"2026-09-27T10:58:54Z","stale":false,"bins":25,"density_birds_km3":0.017499999999999998,"heading_deg":null,"speed_ms":null,"peak_altitude_m":200.0,"u_ms":null,"v_ms":null}},{"type":"Feature","geometry":{"type":"Point","coordinates":[-80.2183,40.5317]},"properties":{"site":"KPBZ","name":"Pittsburgh PA","scan_time":"2026-09-27T10:58:00Z","stale":false,"bins":25,"density_birds_km3":0.05071428571428571,"heading_deg":183.74025069371731,"speed_ms":12.559154929577465,"peak_altitude_m":400.0,"u_ms":-0.8880281690140847,"v_ms":-12.338450704225352}},{"type":"Feature","geometry":{"type":"Point","coordinates":[-78.4899,35.6655]},"properties":{"site":"KRAX","name":"Raleigh NC","scan_time":"2026-09-27T10:57:07Z","stale":false,"bins":25,"density_birds_km3":1.981875,"heading_deg":130.43875114178144,"speed_ms":9.424002525252524,"peak_altitude_m":0.0,"u_ms":6.815356691919192,"v_ms":-6.226938131313131}},{"type":"Feature","geometry":{"type":"Point","coordinates":[-82.4017,27.7055]},"properties":{"site":"KTBW","name":"Tampa FL","scan_time":"2026-09-27T11:00:39Z","stale":false,"bins":25,"density_birds_km3":7.36125,"heading_deg":204.8960574351798,"speed_ms":8.23217184581423,"peak_altitude_m":1000.0,"u_ms":-1.086467991169978,"v_ms":-7.104386143657667}}]}