{"type":"FeatureCollection","frame":"2026-08-17T04","site_count":20,"fresh_count":19,"failures":{"KGRR":"RuntimeError(\"vol2bird failed rc=139 on KGRR20260817_034029_V06: Warning: no user configuration file 'options.conf' found. Using default settings ...\\nWarning: load_wsr88d_m31_into_radar: Unexpected end of file.\\nCurrent sweep index: 6\\nLast ray read: 37\\nReading RSL polar volume with nominal time 20260817-034029, source: RAD:KGRR,PLC:GRAND_RAPIDS,state:MI,radar_name:KGRR\\nWarning: resampling DBZH sweep at elevation 0.483395 (37 rays into 360 azimuth-bins) ...\\nWarning: dimensions of scan parameter 1 at elev 0.483395 do not match scan dimensions, resampling ...\\nWarning: dimensions of scan parameter 2 at elev 0.483395 do not match scan dimensions, resampling ...\\nWarning: resampling RHOHV sweep at elevation 0.483395 (37 rays into 360 azimuth-bins) ...\\nWarning: resampling DBZH sweep at elevation 0.483395 (37 rays into 360 azimuth-bins) ...\\nWarning: dimensions of scan parameter 1 at elev 0.483395 do not match scan dimensions, resampling ...\\nWarning: dimensions of scan parameter 2 at elev 0.483395 do not match scan dimensions, resampling ...\\nWarning: resampling RHOHV sweep at elevation 0.483395 (37 rays into 360 azimuth-bins) ...\\n\")"},"features":[{"type":"Feature","geometry":{"type":"Point","coordinates":[-77.0073,36.984]},"properties":{"site":"KAKQ","name":"Wakefield VA","scan_time":"2026-08-17T03:57:49Z","stale":false,"bins":25,"density_birds_km3":4.1725,"heading_deg":null,"speed_ms":null,"peak_altitude_m":200.0,"u_ms":null,"v_ms":null}},{"type":"Feature","geometry":{"type":"Point","coordinates":[-71.1369,41.9558]},"properties":{"site":"KBOX","name":"Boston MA","scan_time":"2026-08-17T03:56:45Z","stale":false,"bins":25,"density_birds_km3":0.43875000000000003,"heading_deg":null,"speed_ms":null,"peak_altitude_m":0.0,"u_ms":null,"v_ms":null}},{"type":"Feature","geometry":{"type":"Point","coordinates":[-78.7369,42.9489]},"properties":{"site":"KBUF","name":"Buffalo NY","scan_time":"2026-08-17T04:00:20Z","stale":false,"bins":25,"density_birds_km3":0.7906666666666667,"heading_deg":77.3730846758158,"speed_ms":6.563423499577346,"peak_altitude_m":200.0,"u_ms":6.178909551986475,"v_ms":1.58218089602705}},{"type":"Feature","geometry":{"type":"Point","coordinates":[-81.8597,41.4131]},"properties":{"site":"KCLE","name":"Cleveland OH","scan_time":"2026-08-17T04:02:03Z","stale":false,"bins":25,"density_birds_km3":2.3666666666666667,"heading_deg":114.35038221607711,"speed_ms":8.07732957746479,"peak_altitude_m":200.0,"u_ms":6.568442253521127,"v_ms":-3.017515492957746}},{"type":"Feature","geometry":{"type":"Point","coordinates":[-81.0423,32.6555]},"properties":{"site":"KCLX","name":"Charleston SC","scan_time":"2026-08-17T03:58:32Z","stale":false,"bins":25,"density_birds_km3":7.998125,"heading_deg":145.16663664912122,"speed_ms":5.274373900661697,"peak_altitude_m":200.0,"u_ms":1.6812421475835497,"v_ms":-3.776602730546947}},{"type":"Feature","geometry":{"type":"Point","coordinates":[-74.4108,39.947]},"properties":{"site":"KDIX","name":"Philadelphia PA","scan_time":"2026-08-17T04:00:45Z","stale":false,"bins":25,"density_birds_km3":0.171875,"heading_deg":342.5,"speed_ms":11.89,"peak_altitude_m":0.0,"u_ms":-3.5800000000000005,"v_ms":11.34}},{"type":"Feature","geometry":{"type":"Point","coordinates":[-84.5658,33.3636]},"properties":{"site":"KFFC","name":"Atlanta GA","scan_time":"2026-08-17T03:57:44Z","stale":false,"bins":25,"density_birds_km3":16.558666666666667,"heading_deg":170.16023806682432,"speed_ms":5.890047507850874,"peak_altitude_m":2000.0,"u_ms":0.8652729688380707,"v_ms":-4.934552298896851}},{"type":"Feature","geometry":{"type":"Point","coordinates":[-83.8217,39.4203]},"properties":{"site":"KILN","name":"Wilmington OH","scan_time":"2026-08-17T04:01:10Z","stale":false,"bins":25,"density_birds_km3":9.620000000000001,"heading_deg":135.8538502015267,"speed_ms":6.014207900207899,"peak_altitude_m":600.0,"u_ms":4.295696465696466,"v_ms":-4.08157519057519}},{"type":"Feature","geometry":{"type":"Point","coordinates":[-81.7019,30.4846]},"properties":{"site":"KJAX","name":"Jacksonville FL","scan_time":"2026-08-17T03:58:40Z","stale":false,"bins":25,"density_birds_km3":22.209375,"heading_deg":153.48917679102863,"speed_ms":5.56867060644435,"peak_altitude_m":200.0,"u_ms":2.3974622203461378,"v_ms":-5.0134118474743214}},{"type":"Feature","geometry":{"type":"Point","coordinates":[-88.0847,41.6045]},"properties":{"site":"KLOT","name":"Chicago IL","scan_time":"2026-08-17T03:58:40Z","stale":false,"bins":25,"density_birds_km3":19.793333333333333,"heading_deg":179.42435470677384,"speed_ms":10.09101852475581,"peak_altitude_m":400.0,"u_ms":-0.008856517345907746,"v_ms":-9.929932974065343}},{"type":"Feature","geometry":{"type":"Point","coordinates":[-78.4292,33.9892]},"properties":{"site":"KLTX","name":"Wilmington NC","scan_time":"2026-08-17T03:58:59Z","stale":false,"bins":25,"density_birds_km3":3.91375,"heading_deg":62.546866413051205,"speed_ms":4.434180772916002,"peak_altitude_m":200.0,"u_ms":3.1626796550622807,"v_ms":1.5512424145640373}},{"type":"Feature","geometry":{"type":"Point","coordinates":[-77.4778,38.9753]},"properties":{"site":"KLWX","name":"Sterling VA","scan_time":"2026-08-17T03:59:55Z","stale":false,"bins":25,"density_birds_km3":2.27125,"heading_deg":26.092758487932045,"speed_ms":6.272771813927884,"peak_altitude_m":0.0,"u_ms":3.179697219928434,"v_ms":4.619419212771814}},{"type":"Feature","geometry":{"type":"Point","coordinates":[-76.8762,34.7759]},"properties":{"site":"KMHX","name":"Morehead City NC","scan_time":"2026-08-17T04:00:15Z","stale":false,"bins":25,"density_birds_km3":0.908125,"heading_deg":36.60382542689497,"speed_ms":7.010660701995871,"peak_altitude_m":0.0,"u_ms":3.795788024776325,"v_ms":5.048320715760496}},{"type":"Feature","geometry":{"type":"Point","coordinates":[-80.6542,28.1133]},"properties":{"site":"KMLB","name":"Melbourne FL","scan_time":"2026-08-17T04:00:10Z","stale":false,"bins":25,"density_birds_km3":2.6575,"heading_deg":2.4099388360447334,"speed_ms":4.590729927007299,"peak_altitude_m":0.0,"u_ms":0.03146691782434653,"v_ms":3.1071556392747826}},{"type":"Feature","geometry":{"type":"Point","coordinates":[-86.5625,36.2472]},"properties":{"site":"KOHX","name":"Nashville TN","scan_time":"2026-08-17T03:56:30Z","stale":false,"bins":25,"density_birds_km3":13.974,"heading_deg":137.24828452634756,"speed_ms":5.035021229903153,"peak_altitude_m":200.0,"u_ms":2.213101951242784,"v_ms":-1.2733753160631647}},{"type":"Feature","geometry":{"type":"Point","coordinates":[-72.8639,40.8655]},"properties":{"site":"KOKX","name":"Upton NY","scan_time":"2026-08-17T03:58:10Z","stale":false,"bins":25,"density_birds_km3":0.265625,"heading_deg":20.15514586141515,"speed_ms":7.2674936708860765,"peak_altitude_m":0.0,"u_ms":2.557493670886076,"v_ms":6.78379746835443}},{"type":"Feature","geometry":{"type":"Point","coordinates":[-80.2183,40.5317]},"properties":{"site":"KPBZ","name":"Pittsburgh PA","scan_time":"2026-08-17T04:00:54Z","stale":false,"bins":25,"density_birds_km3":1.1642857142857144,"heading_deg":117.92997915080403,"speed_ms":7.885693251533742,"peak_altitude_m":400.0,"u_ms":6.557730061349694,"v_ms":-3.4723190184049075}},{"type":"Feature","geometry":{"type":"Point","coordinates":[-78.4899,35.6655]},"properties":{"site":"KRAX","name":"Raleigh NC","scan_time":"2026-08-17T03:58:24Z","stale":false,"bins":25,"density_birds_km3":1.8,"heading_deg":54.73207406015399,"speed_ms":8.304304589707927,"peak_altitude_m":200.0,"u_ms":6.745869262865089,"v_ms":4.537214881780249}},{"type":"Feature","geometry":{"type":"Point","coordinates":[-82.4017,27.7055]},"properties":{"site":"KTBW","name":"Tampa FL","scan_time":"2026-08-17T04:03:55Z","stale":false,"bins":25,"density_birds_km3":3.653125,"heading_deg":179.22179201284203,"speed_ms":6.37144984594317,"peak_altitude_m":0.0,"u_ms":0.11004964053406366,"v_ms":-6.323663129065388}}]}