{"type":"FeatureCollection","frame":"2026-10-03T12","site_count":20,"fresh_count":18,"failures":{"KLWX":"RuntimeError('no scan within 20 min of 2026-10-03T12:00Z')","KILN":"RuntimeError('no scan within 20 min of 2026-10-03T12:00Z')"},"features":[{"type":"Feature","geometry":{"type":"Point","coordinates":[-77.0073,36.984]},"properties":{"site":"KAKQ","name":"Wakefield VA","scan_time":"2026-10-03T11:57:48Z","stale":false,"bins":25,"density_birds_km3":2.52625,"heading_deg":217.31381858593477,"speed_ms":7.198551203397829,"peak_altitude_m":200.0,"u_ms":-4.357121283624351,"v_ms":-5.700915526191599}},{"type":"Feature","geometry":{"type":"Point","coordinates":[-71.1369,41.9558]},"properties":{"site":"KBOX","name":"Boston MA","scan_time":"2026-10-03T11:58:55Z","stale":false,"bins":25,"density_birds_km3":4.99375,"heading_deg":216.3296158322188,"speed_ms":8.309573163099262,"peak_altitude_m":0.0,"u_ms":-4.8590837401426965,"v_ms":-6.734075603955439}},{"type":"Feature","geometry":{"type":"Point","coordinates":[-78.7369,42.9489]},"properties":{"site":"KBUF","name":"Buffalo NY","scan_time":"2026-10-03T11:55:42Z","stale":false,"bins":25,"density_birds_km3":2.1959999999999997,"heading_deg":240.3619195494988,"speed_ms":5.198491196114147,"peak_altitude_m":200.0,"u_ms":-4.515634486945963,"v_ms":-2.553703703703704}},{"type":"Feature","geometry":{"type":"Point","coordinates":[-81.8597,41.4131]},"properties":{"site":"KCLE","name":"Cleveland OH","scan_time":"2026-10-03T11:59:28Z","stale":false,"bins":25,"density_birds_km3":10.008666666666667,"heading_deg":214.7747389413158,"speed_ms":8.704049983338887,"peak_altitude_m":200.0,"u_ms":-4.687078973675442,"v_ms":-7.2565484838387215}},{"type":"Feature","geometry":{"type":"Point","coordinates":[-81.0423,32.6555]},"properties":{"site":"KCLX","name":"Charleston SC","scan_time":"2026-10-03T12:00:07Z","stale":false,"bins":25,"density_birds_km3":0.021875000000000002,"heading_deg":143.83719164709782,"speed_ms":1.8085714285714285,"peak_altitude_m":0.0,"u_ms":0.3502857142857142,"v_ms":-0.6317142857142858}},{"type":"Feature","geometry":{"type":"Point","coordinates":[-74.4108,39.947]},"properties":{"site":"KDIX","name":"Philadelphia PA","scan_time":"2026-10-03T11:58:13Z","stale":false,"bins":25,"density_birds_km3":9.6025,"heading_deg":195.9744125369478,"speed_ms":13.874997297297298,"peak_altitude_m":0.0,"u_ms":-4.156000675675676,"v_ms":-12.799913513513513}},{"type":"Feature","geometry":{"type":"Point","coordinates":[-84.5658,33.3636]},"properties":{"site":"KFFC","name":"Atlanta GA","scan_time":"2026-10-03T11:58:39Z","stale":false,"bins":25,"density_birds_km3":0.5306666666666666,"heading_deg":83.8591039725527,"speed_ms":2.473089533417402,"peak_altitude_m":200.0,"u_ms":1.9547288776796974,"v_ms":0.7135435056746532}},{"type":"Feature","geometry":{"type":"Point","coordinates":[-85.5449,42.8939]},"properties":{"site":"KGRR","name":"Grand Rapids MI","scan_time":"2026-10-03T12:02:06Z","stale":false,"bins":25,"density_birds_km3":3.155333333333333,"heading_deg":234.31675179621772,"speed_ms":5.359351362772027,"peak_altitude_m":200.0,"u_ms":-4.383380519754912,"v_ms":-2.989317557574477}},{"type":"Feature","geometry":{"type":"Point","coordinates":[-81.7019,30.4846]},"properties":{"site":"KJAX","name":"Jacksonville FL","scan_time":"2026-10-03T12:01:48Z","stale":false,"bins":25,"density_birds_km3":0.05625,"heading_deg":287.2545723576723,"speed_ms":3.5645555555555553,"peak_altitude_m":0.0,"u_ms":-3.2198888888888892,"v_ms":1.1466666666666667}},{"type":"Feature","geometry":{"type":"Point","coordinates":[-88.0847,41.6045]},"properties":{"site":"KLOT","name":"Chicago IL","scan_time":"2026-10-03T12:00:04Z","stale":false,"bins":25,"density_birds_km3":3.94,"heading_deg":243.55343174689088,"speed_ms":5.512853274665764,"peak_altitude_m":200.0,"u_ms":-4.926089016754104,"v_ms":-2.456232865121002}},{"type":"Feature","geometry":{"type":"Point","coordinates":[-78.4292,33.9892]},"properties":{"site":"KLTX","name":"Wilmington NC","scan_time":"2026-10-03T12:01:39Z","stale":false,"bins":25,"density_birds_km3":0.198125,"heading_deg":126.28428673820143,"speed_ms":5.769809523809524,"peak_altitude_m":200.0,"u_ms":4.527142857142858,"v_ms":-3.3525079365079367}},{"type":"Feature","geometry":{"type":"Point","coordinates":[-76.8762,34.7759]},"properties":{"site":"KMHX","name":"Morehead City NC","scan_time":"2026-10-03T11:58:30Z","stale":false,"bins":25,"density_birds_km3":0.9093749999999999,"heading_deg":144.2513814392126,"speed_ms":6.711168384879725,"peak_altitude_m":200.0,"u_ms":3.886707903780069,"v_ms":-5.331512027491409}},{"type":"Feature","geometry":{"type":"Point","coordinates":[-80.6542,28.1133]},"properties":{"site":"KMLB","name":"Melbourne FL","scan_time":"2026-10-03T11:59:02Z","stale":false,"bins":25,"density_birds_km3":0.401875,"heading_deg":null,"speed_ms":null,"peak_altitude_m":0.0,"u_ms":null,"v_ms":null}},{"type":"Feature","geometry":{"type":"Point","coordinates":[-86.5625,36.2472]},"properties":{"site":"KOHX","name":"Nashville TN","scan_time":"2026-10-03T11:58:38Z","stale":false,"bins":25,"density_birds_km3":5.812666666666667,"heading_deg":184.58083912464562,"speed_ms":7.6399678862254845,"peak_altitude_m":200.0,"u_ms":0.6014256222043811,"v_ms":-7.03809152425737}},{"type":"Feature","geometry":{"type":"Point","coordinates":[-72.8639,40.8655]},"properties":{"site":"KOKX","name":"Upton NY","scan_time":"2026-10-03T12:01:34Z","stale":false,"bins":25,"density_birds_km3":5.619375,"heading_deg":223.82277699182586,"speed_ms":13.717295702516141,"peak_altitude_m":0.0,"u_ms":-9.469060342908037,"v_ms":-9.856541972834558}},{"type":"Feature","geometry":{"type":"Point","coordinates":[-80.2183,40.5317]},"properties":{"site":"KPBZ","name":"Pittsburgh PA","scan_time":"2026-10-03T12:01:24Z","stale":false,"bins":25,"density_birds_km3":2.687142857142857,"heading_deg":203.90091872525718,"speed_ms":8.964479083399947,"peak_altitude_m":400.0,"u_ms":-4.118894217958966,"v_ms":-5.849445776711963}},{"type":"Feature","geometry":{"type":"Point","coordinates":[-78.4899,35.6655]},"properties":{"site":"KRAX","name":"Raleigh NC","scan_time":"2026-10-03T11:59:23Z","stale":false,"bins":25,"density_birds_km3":4.861875,"heading_deg":179.92466950962913,"speed_ms":8.95023276748971,"peak_altitude_m":200.0,"u_ms":-0.013797582304526759,"v_ms":-8.938735853909465}},{"type":"Feature","geometry":{"type":"Point","coordinates":[-82.4017,27.7055]},"properties":{"site":"KTBW","name":"Tampa FL","scan_time":"2026-10-03T11:59:00Z","stale":false,"bins":25,"density_birds_km3":0.83125,"heading_deg":297.20502233466453,"speed_ms":7.027052631578947,"peak_altitude_m":0.0,"u_ms":-5.931187969924812,"v_ms":3.408278195488722}}]}