{"type":"FeatureCollection","frame":"2026-09-14T02","site_count":20,"fresh_count":20,"failures":{},"features":[{"type":"Feature","geometry":{"type":"Point","coordinates":[-77.0073,36.984]},"properties":{"site":"KAKQ","name":"Wakefield VA","scan_time":"2026-09-14T01:57:24Z","stale":false,"bins":25,"density_birds_km3":24.800625,"heading_deg":161.71121685889278,"speed_ms":7.065813865577984,"peak_altitude_m":200.0,"u_ms":2.081930898918878,"v_ms":-6.6414286434313645}},{"type":"Feature","geometry":{"type":"Point","coordinates":[-71.1369,41.9558]},"properties":{"site":"KBOX","name":"Boston MA","scan_time":"2026-09-14T01:59:54Z","stale":false,"bins":25,"density_birds_km3":0.745,"heading_deg":90.73274302363535,"speed_ms":7.293624894869637,"peak_altitude_m":0.0,"u_ms":7.179638351555929,"v_ms":-0.2371488645920942}},{"type":"Feature","geometry":{"type":"Point","coordinates":[-78.7369,42.9489]},"properties":{"site":"KBUF","name":"Buffalo NY","scan_time":"2026-09-14T01:59:50Z","stale":false,"bins":25,"density_birds_km3":56.44230769230769,"heading_deg":157.10327431561265,"speed_ms":11.074572664460316,"peak_altitude_m":400.0,"u_ms":4.28785940312373,"v_ms":-10.1998322011264}},{"type":"Feature","geometry":{"type":"Point","coordinates":[-81.8597,41.4131]},"properties":{"site":"KCLE","name":"Cleveland OH","scan_time":"2026-09-14T01:58:06Z","stale":false,"bins":25,"density_birds_km3":22.074,"heading_deg":162.88509339454902,"speed_ms":14.00740652370885,"peak_altitude_m":400.0,"u_ms":4.101088190878889,"v_ms":-13.38251827242525}},{"type":"Feature","geometry":{"type":"Point","coordinates":[-81.0423,32.6555]},"properties":{"site":"KCLX","name":"Charleston SC","scan_time":"2026-09-14T02:01:43Z","stale":false,"bins":25,"density_birds_km3":28.982499999999998,"heading_deg":162.12425244078918,"speed_ms":9.119109141489293,"peak_altitude_m":1800.0,"u_ms":1.5077257337560115,"v_ms":-7.985476698798819}},{"type":"Feature","geometry":{"type":"Point","coordinates":[-74.4108,39.947]},"properties":{"site":"KDIX","name":"Philadelphia PA","scan_time":"2026-09-14T01:58:10Z","stale":false,"bins":25,"density_birds_km3":8.27375,"heading_deg":132.58594049313845,"speed_ms":7.384814899801131,"peak_altitude_m":200.0,"u_ms":5.2250321248279015,"v_ms":-5.001554994645862}},{"type":"Feature","geometry":{"type":"Point","coordinates":[-84.5658,33.3636]},"properties":{"site":"KFFC","name":"Atlanta GA","scan_time":"2026-09-14T01:56:59Z","stale":false,"bins":25,"density_birds_km3":197.75933333333333,"heading_deg":180.65118389079782,"speed_ms":10.309218443967247,"peak_altitude_m":1200.0,"u_ms":-0.6374335134624916,"v_ms":-10.151297873846662}},{"type":"Feature","geometry":{"type":"Point","coordinates":[-85.5449,42.8939]},"properties":{"site":"KGRR","name":"Grand Rapids MI","scan_time":"2026-09-14T02:00:35Z","stale":false,"bins":25,"density_birds_km3":124.49000000000001,"heading_deg":171.27988463803558,"speed_ms":15.343836666934424,"peak_altitude_m":400.0,"u_ms":2.8234188020456794,"v_ms":-14.944784909095777}},{"type":"Feature","geometry":{"type":"Point","coordinates":[-83.8217,39.4203]},"properties":{"site":"KILN","name":"Wilmington OH","scan_time":"2026-09-14T01:57:42Z","stale":false,"bins":25,"density_birds_km3":112.08,"heading_deg":156.43638929281633,"speed_ms":12.929536997382822,"peak_altitude_m":400.0,"u_ms":5.227256245538901,"v_ms":-11.512502022364977}},{"type":"Feature","geometry":{"type":"Point","coordinates":[-81.7019,30.4846]},"properties":{"site":"KJAX","name":"Jacksonville FL","scan_time":"2026-09-14T01:57:38Z","stale":false,"bins":25,"density_birds_km3":21.338125,"heading_deg":151.90484173031885,"speed_ms":9.558364136961425,"peak_altitude_m":0.0,"u_ms":1.7658226179666676,"v_ms":-7.861542134090975}},{"type":"Feature","geometry":{"type":"Point","coordinates":[-88.0847,41.6045]},"properties":{"site":"KLOT","name":"Chicago IL","scan_time":"2026-09-14T01:57:06Z","stale":false,"bins":25,"density_birds_km3":115.724,"heading_deg":169.88168090373486,"speed_ms":13.112112091812044,"peak_altitude_m":600.0,"u_ms":2.2647221902150116,"v_ms":-12.77000305348789}},{"type":"Feature","geometry":{"type":"Point","coordinates":[-78.4292,33.9892]},"properties":{"site":"KLTX","name":"Wilmington NC","scan_time":"2026-09-14T01:59:25Z","stale":false,"bins":25,"density_birds_km3":29.791875,"heading_deg":165.6264225018853,"speed_ms":10.229713428577423,"peak_altitude_m":1800.0,"u_ms":1.2144431157824072,"v_ms":-8.53382759561122}},{"type":"Feature","geometry":{"type":"Point","coordinates":[-77.4778,38.9753]},"properties":{"site":"KLWX","name":"Sterling VA","scan_time":"2026-09-14T02:01:11Z","stale":false,"bins":25,"density_birds_km3":76.74866666666667,"heading_deg":164.31364813516083,"speed_ms":7.624752538181564,"peak_altitude_m":400.0,"u_ms":1.3099157132159587,"v_ms":-7.035875868554412}},{"type":"Feature","geometry":{"type":"Point","coordinates":[-76.8762,34.7759]},"properties":{"site":"KMHX","name":"Morehead City NC","scan_time":"2026-09-14T01:57:54Z","stale":false,"bins":25,"density_birds_km3":15.676874999999999,"heading_deg":139.45328718093987,"speed_ms":9.270195359221752,"peak_altitude_m":200.0,"u_ms":4.721669723307551,"v_ms":-6.113844191053346}},{"type":"Feature","geometry":{"type":"Point","coordinates":[-80.6542,28.1133]},"properties":{"site":"KMLB","name":"Melbourne FL","scan_time":"2026-09-14T02:01:04Z","stale":false,"bins":25,"density_birds_km3":10.6275,"heading_deg":132.37637704674322,"speed_ms":4.7696335509675905,"peak_altitude_m":0.0,"u_ms":2.33419563555085,"v_ms":-3.4114828539497677}},{"type":"Feature","geometry":{"type":"Point","coordinates":[-86.5625,36.2472]},"properties":{"site":"KOHX","name":"Nashville TN","scan_time":"2026-09-14T01:59:43Z","stale":false,"bins":25,"density_birds_km3":163.37266666666667,"heading_deg":173.4781738806875,"speed_ms":6.553310835349855,"peak_altitude_m":600.0,"u_ms":0.8374340873014254,"v_ms":-6.481975034583508}},{"type":"Feature","geometry":{"type":"Point","coordinates":[-72.8639,40.8655]},"properties":{"site":"KOKX","name":"Upton NY","scan_time":"2026-09-14T01:58:14Z","stale":false,"bins":25,"density_birds_km3":2.50875,"heading_deg":101.83945580966008,"speed_ms":7.799896729776248,"peak_altitude_m":0.0,"u_ms":6.164541021227768,"v_ms":-2.6709667240390136}},{"type":"Feature","geometry":{"type":"Point","coordinates":[-80.2183,40.5317]},"properties":{"site":"KPBZ","name":"Pittsburgh PA","scan_time":"2026-09-14T01:59:44Z","stale":false,"bins":25,"density_birds_km3":58.82714285714286,"heading_deg":150.15527050405444,"speed_ms":8.771164064207484,"peak_altitude_m":600.0,"u_ms":3.8221923796109665,"v_ms":-6.393454916340853}},{"type":"Feature","geometry":{"type":"Point","coordinates":[-78.4899,35.6655]},"properties":{"site":"KRAX","name":"Raleigh NC","scan_time":"2026-09-14T02:02:49Z","stale":false,"bins":25,"density_birds_km3":34.8425,"heading_deg":151.31968467777435,"speed_ms":8.76527520534344,"peak_altitude_m":1600.0,"u_ms":2.7075521256431085,"v_ms":-6.753743117609892}},{"type":"Feature","geometry":{"type":"Point","coordinates":[-82.4017,27.7055]},"properties":{"site":"KTBW","name":"Tampa FL","scan_time":"2026-09-14T01:59:40Z","stale":false,"bins":25,"density_birds_km3":19.801875,"heading_deg":174.6180452540697,"speed_ms":7.06583772691397,"peak_altitude_m":0.0,"u_ms":-0.6362099447513813,"v_ms":-5.404556274664562}}]}