{"type":"FeatureCollection","frame":"2026-09-24T04","site_count":20,"fresh_count":20,"failures":{},"features":[{"type":"Feature","geometry":{"type":"Point","coordinates":[-77.0073,36.984]},"properties":{"site":"KAKQ","name":"Wakefield VA","scan_time":"2026-09-24T04:01:09Z","stale":false,"bins":25,"density_birds_km3":40.693125,"heading_deg":183.03711356068888,"speed_ms":14.432580803736018,"peak_altitude_m":0.0,"u_ms":-0.9381247695710951,"v_ms":-14.250333814673713}},{"type":"Feature","geometry":{"type":"Point","coordinates":[-71.1369,41.9558]},"properties":{"site":"KBOX","name":"Boston MA","scan_time":"2026-09-24T03:59:44Z","stale":false,"bins":25,"density_birds_km3":0.65375,"heading_deg":229.12180299819286,"speed_ms":9.597147087857847,"peak_altitude_m":0.0,"u_ms":-7.276525172754195,"v_ms":-6.00365251727542}},{"type":"Feature","geometry":{"type":"Point","coordinates":[-78.7369,42.9489]},"properties":{"site":"KBUF","name":"Buffalo NY","scan_time":"2026-09-24T03:59:36Z","stale":false,"bins":25,"density_birds_km3":17.375999999999998,"heading_deg":245.69449137706877,"speed_ms":11.427817295887047,"peak_altitude_m":200.0,"u_ms":-10.201541973603439,"v_ms":-4.5204078422345}},{"type":"Feature","geometry":{"type":"Point","coordinates":[-81.8597,41.4131]},"properties":{"site":"KCLE","name":"Cleveland OH","scan_time":"2026-09-24T04:00:45Z","stale":false,"bins":25,"density_birds_km3":38.35066666666667,"heading_deg":259.1438350979244,"speed_ms":12.00598591916558,"peak_altitude_m":200.0,"u_ms":-11.482468491960018,"v_ms":-1.5708978704910914}},{"type":"Feature","geometry":{"type":"Point","coordinates":[-81.0423,32.6555]},"properties":{"site":"KCLX","name":"Charleston SC","scan_time":"2026-09-24T03:58:06Z","stale":false,"bins":25,"density_birds_km3":19.6425,"heading_deg":211.56765589754602,"speed_ms":11.547988796588053,"peak_altitude_m":0.0,"u_ms":-6.172494350552213,"v_ms":-9.62718482446927}},{"type":"Feature","geometry":{"type":"Point","coordinates":[-74.4108,39.947]},"properties":{"site":"KDIX","name":"Philadelphia PA","scan_time":"2026-09-24T04:00:12Z","stale":false,"bins":25,"density_birds_km3":26.363750000000003,"heading_deg":224.7805465795165,"speed_ms":20.103565665402936,"peak_altitude_m":400.0,"u_ms":-14.237378001360941,"v_ms":-14.090607562943521}},{"type":"Feature","geometry":{"type":"Point","coordinates":[-84.5658,33.3636]},"properties":{"site":"KFFC","name":"Atlanta GA","scan_time":"2026-09-24T03:57:35Z","stale":false,"bins":25,"density_birds_km3":21.756000000000004,"heading_deg":234.03509164708157,"speed_ms":8.831530314658481,"peak_altitude_m":600.0,"u_ms":-6.758018112049118,"v_ms":-4.8648119723714505}},{"type":"Feature","geometry":{"type":"Point","coordinates":[-85.5449,42.8939]},"properties":{"site":"KGRR","name":"Grand Rapids MI","scan_time":"2026-09-24T03:59:23Z","stale":false,"bins":25,"density_birds_km3":17.244000000000003,"heading_deg":238.23862328347923,"speed_ms":12.882439203556933,"peak_altitude_m":400.0,"u_ms":-10.649083317224049,"v_ms":-5.9431927314904325}},{"type":"Feature","geometry":{"type":"Point","coordinates":[-83.8217,39.4203]},"properties":{"site":"KILN","name":"Wilmington OH","scan_time":"2026-09-24T03:58:46Z","stale":false,"bins":25,"density_birds_km3":46.096,"heading_deg":236.80429484975832,"speed_ms":11.17823296309152,"peak_altitude_m":400.0,"u_ms":-8.866218182344094,"v_ms":-5.546541565428671}},{"type":"Feature","geometry":{"type":"Point","coordinates":[-81.7019,30.4846]},"properties":{"site":"KJAX","name":"Jacksonville FL","scan_time":"2026-09-24T03:59:56Z","stale":false,"bins":25,"density_birds_km3":51.9125,"heading_deg":188.22014481849078,"speed_ms":15.512573812734805,"peak_altitude_m":200.0,"u_ms":-2.4586428330603987,"v_ms":-15.216430498025238}},{"type":"Feature","geometry":{"type":"Point","coordinates":[-88.0847,41.6045]},"properties":{"site":"KLOT","name":"Chicago IL","scan_time":"2026-09-24T04:00:07Z","stale":false,"bins":25,"density_birds_km3":37.57181818181818,"heading_deg":188.11171519626882,"speed_ms":10.22409719353663,"peak_altitude_m":200.0,"u_ms":-2.0201547807070828,"v_ms":-8.498342364232778}},{"type":"Feature","geometry":{"type":"Point","coordinates":[-78.4292,33.9892]},"properties":{"site":"KLTX","name":"Wilmington NC","scan_time":"2026-09-24T03:58:40Z","stale":false,"bins":25,"density_birds_km3":3.999375,"heading_deg":213.63909717956741,"speed_ms":12.897815283638069,"peak_altitude_m":0.0,"u_ms":-7.469493670886076,"v_ms":-10.393802156586966}},{"type":"Feature","geometry":{"type":"Point","coordinates":[-77.4778,38.9753]},"properties":{"site":"KLWX","name":"Sterling VA","scan_time":"2026-09-24T03:59:16Z","stale":false,"bins":25,"density_birds_km3":113.6475,"heading_deg":211.7908932258734,"speed_ms":13.550716073147258,"peak_altitude_m":200.0,"u_ms":-7.227328200192493,"v_ms":-10.9984976213392}},{"type":"Feature","geometry":{"type":"Point","coordinates":[-76.8762,34.7759]},"properties":{"site":"KMHX","name":"Morehead City NC","scan_time":"2026-09-24T03:58:10Z","stale":false,"bins":25,"density_birds_km3":0.84125,"heading_deg":194.87411681014427,"speed_ms":13.315698365527487,"peak_altitude_m":0.0,"u_ms":-3.4925557206537894,"v_ms":-12.793046062407132}},{"type":"Feature","geometry":{"type":"Point","coordinates":[-80.6542,28.1133]},"properties":{"site":"KMLB","name":"Melbourne FL","scan_time":"2026-09-24T03:59:57Z","stale":false,"bins":25,"density_birds_km3":24.9975,"heading_deg":157.64567564191077,"speed_ms":9.845726822682268,"peak_altitude_m":0.0,"u_ms":3.688264826482648,"v_ms":-9.07725297529753}},{"type":"Feature","geometry":{"type":"Point","coordinates":[-86.5625,36.2472]},"properties":{"site":"KOHX","name":"Nashville TN","scan_time":"2026-09-24T04:00:21Z","stale":false,"bins":25,"density_birds_km3":20.62,"heading_deg":196.21661811790187,"speed_ms":6.867726611260227,"peak_altitude_m":200.0,"u_ms":-2.0955634964266077,"v_ms":-6.103971154157099}},{"type":"Feature","geometry":{"type":"Point","coordinates":[-72.8639,40.8655]},"properties":{"site":"KOKX","name":"Upton NY","scan_time":"2026-09-24T03:58:39Z","stale":false,"bins":25,"density_birds_km3":2.56625,"heading_deg":238.38183851479613,"speed_ms":18.215546357615892,"peak_altitude_m":200.0,"u_ms":-15.543366445916114,"v_ms":-9.46542494481236}},{"type":"Feature","geometry":{"type":"Point","coordinates":[-80.2183,40.5317]},"properties":{"site":"KPBZ","name":"Pittsburgh PA","scan_time":"2026-09-24T03:59:16Z","stale":false,"bins":25,"density_birds_km3":69.08500000000001,"heading_deg":241.98362361118927,"speed_ms":11.367129855624043,"peak_altitude_m":400.0,"u_ms":-9.875909589211103,"v_ms":-5.00278564927812}},{"type":"Feature","geometry":{"type":"Point","coordinates":[-78.4899,35.6655]},"properties":{"site":"KRAX","name":"Raleigh NC","scan_time":"2026-09-24T04:02:01Z","stale":false,"bins":25,"density_birds_km3":11.268125,"heading_deg":208.6393307065461,"speed_ms":13.65841792866256,"peak_altitude_m":200.0,"u_ms":-6.607768347478781,"v_ms":-11.927618572141787}},{"type":"Feature","geometry":{"type":"Point","coordinates":[-82.4017,27.7055]},"properties":{"site":"KTBW","name":"Tampa FL","scan_time":"2026-09-24T03:58:57Z","stale":false,"bins":25,"density_birds_km3":27.318749999999998,"heading_deg":189.50140704660805,"speed_ms":12.326267560518005,"peak_altitude_m":200.0,"u_ms":-2.1191635015787305,"v_ms":-12.080472246373496}}]}