{"type":"FeatureCollection","frame":"2026-09-19T05","site_count":20,"fresh_count":20,"failures":{},"features":[{"type":"Feature","geometry":{"type":"Point","coordinates":[-77.0073,36.984]},"properties":{"site":"KAKQ","name":"Wakefield VA","scan_time":"2026-09-19T04:58:40Z","stale":false,"bins":25,"density_birds_km3":39.362500000000004,"heading_deg":208.34868629555336,"speed_ms":8.359529056843442,"peak_altitude_m":0.0,"u_ms":-3.845942203874245,"v_ms":-7.25230342966021}},{"type":"Feature","geometry":{"type":"Point","coordinates":[-71.1369,41.9558]},"properties":{"site":"KBOX","name":"Boston MA","scan_time":"2026-09-19T05:02:41Z","stale":false,"bins":25,"density_birds_km3":9.213125,"heading_deg":205.39201642997887,"speed_ms":12.439605861203447,"peak_altitude_m":400.0,"u_ms":-5.503079166949325,"v_ms":-10.899634353164643}},{"type":"Feature","geometry":{"type":"Point","coordinates":[-78.7369,42.9489]},"properties":{"site":"KBUF","name":"Buffalo NY","scan_time":"2026-09-19T05:01:30Z","stale":false,"bins":25,"density_birds_km3":95.74666666666667,"heading_deg":224.15090518577765,"speed_ms":9.6887658404122,"peak_altitude_m":400.0,"u_ms":-6.673768973680546,"v_ms":-6.76201204567609}},{"type":"Feature","geometry":{"type":"Point","coordinates":[-81.8597,41.4131]},"properties":{"site":"KCLE","name":"Cleveland OH","scan_time":"2026-09-19T04:59:49Z","stale":false,"bins":25,"density_birds_km3":117.32199999999999,"heading_deg":239.56773732006673,"speed_ms":9.43661900350654,"peak_altitude_m":400.0,"u_ms":-8.040642429684524,"v_ms":-4.678700989446285}},{"type":"Feature","geometry":{"type":"Point","coordinates":[-81.0423,32.6555]},"properties":{"site":"KCLX","name":"Charleston SC","scan_time":"2026-09-19T04:57:49Z","stale":false,"bins":25,"density_birds_km3":17.455,"heading_deg":146.93287542958117,"speed_ms":7.06956208822687,"peak_altitude_m":0.0,"u_ms":2.144183256946434,"v_ms":-5.633457462045261}},{"type":"Feature","geometry":{"type":"Point","coordinates":[-74.4108,39.947]},"properties":{"site":"KDIX","name":"Philadelphia PA","scan_time":"2026-09-19T04:59:56Z","stale":false,"bins":25,"density_birds_km3":84.470625,"heading_deg":223.27680183713926,"speed_ms":14.435498213136224,"peak_altitude_m":400.0,"u_ms":-9.928768210842527,"v_ms":-10.286739916982976}},{"type":"Feature","geometry":{"type":"Point","coordinates":[-84.5658,33.3636]},"properties":{"site":"KFFC","name":"Atlanta GA","scan_time":"2026-09-19T05:02:03Z","stale":false,"bins":25,"density_birds_km3":115.79266666666668,"heading_deg":161.5651240011756,"speed_ms":8.331433999850306,"peak_altitude_m":400.0,"u_ms":0.15900851521973183,"v_ms":-6.738554542889878}},{"type":"Feature","geometry":{"type":"Point","coordinates":[-85.5449,42.8939]},"properties":{"site":"KGRR","name":"Grand Rapids MI","scan_time":"2026-09-19T05:00:47Z","stale":false,"bins":25,"density_birds_km3":25.473,"heading_deg":285.41130539568667,"speed_ms":11.662885662431941,"peak_altitude_m":400.0,"u_ms":-11.032967591392275,"v_ms":3.0917583614207933}},{"type":"Feature","geometry":{"type":"Point","coordinates":[-83.8217,39.4203]},"properties":{"site":"KILN","name":"Wilmington OH","scan_time":"2026-09-19T04:57:31Z","stale":false,"bins":25,"density_birds_km3":61.88466666666667,"heading_deg":242.8544844726281,"speed_ms":10.349150893597768,"peak_altitude_m":200.0,"u_ms":-8.182582330571924,"v_ms":-4.370887888222176}},{"type":"Feature","geometry":{"type":"Point","coordinates":[-81.7019,30.4846]},"properties":{"site":"KJAX","name":"Jacksonville FL","scan_time":"2026-09-19T04:57:34Z","stale":false,"bins":25,"density_birds_km3":29.198125,"heading_deg":189.3391684893659,"speed_ms":10.2731979182348,"peak_altitude_m":1000.0,"u_ms":-1.7867050904320523,"v_ms":-10.087481451214003}},{"type":"Feature","geometry":{"type":"Point","coordinates":[-88.0847,41.6045]},"properties":{"site":"KLOT","name":"Chicago IL","scan_time":"2026-09-19T04:59:39Z","stale":false,"bins":25,"density_birds_km3":40.14333333333333,"heading_deg":280.34867350016924,"speed_ms":12.374899757950088,"peak_altitude_m":200.0,"u_ms":-10.970220348885734,"v_ms":2.1809091060846333}},{"type":"Feature","geometry":{"type":"Point","coordinates":[-78.4292,33.9892]},"properties":{"site":"KLTX","name":"Wilmington NC","scan_time":"2026-09-19T05:02:14Z","stale":false,"bins":25,"density_birds_km3":23.631875,"heading_deg":200.8266496213954,"speed_ms":9.168915528148423,"peak_altitude_m":600.0,"u_ms":-2.586944341077029,"v_ms":-8.739939397161235}},{"type":"Feature","geometry":{"type":"Point","coordinates":[-77.4778,38.9753]},"properties":{"site":"KLWX","name":"Sterling VA","scan_time":"2026-09-19T04:58:37Z","stale":false,"bins":25,"density_birds_km3":158.46846153846155,"heading_deg":221.19157942514647,"speed_ms":11.816248572969245,"peak_altitude_m":400.0,"u_ms":-7.908189820594909,"v_ms":-8.489059447065054}},{"type":"Feature","geometry":{"type":"Point","coordinates":[-76.8762,34.7759]},"properties":{"site":"KMHX","name":"Morehead City NC","scan_time":"2026-09-19T04:58:30Z","stale":false,"bins":25,"density_birds_km3":16.1475,"heading_deg":182.7319337947392,"speed_ms":6.17841565378958,"peak_altitude_m":0.0,"u_ms":-0.059820778818611094,"v_ms":-5.724530850816754}},{"type":"Feature","geometry":{"type":"Point","coordinates":[-80.6542,28.1133]},"properties":{"site":"KMLB","name":"Melbourne FL","scan_time":"2026-09-19T05:00:59Z","stale":false,"bins":25,"density_birds_km3":6.164375,"heading_deg":162.5061991747835,"speed_ms":6.247993511102099,"peak_altitude_m":0.0,"u_ms":1.941059515360438,"v_ms":-5.891764169116902}},{"type":"Feature","geometry":{"type":"Point","coordinates":[-86.5625,36.2472]},"properties":{"site":"KOHX","name":"Nashville TN","scan_time":"2026-09-19T05:00:51Z","stale":false,"bins":25,"density_birds_km3":168.20933333333332,"heading_deg":212.8915125336255,"speed_ms":5.791014291715879,"peak_altitude_m":200.0,"u_ms":-3.1027649674611792,"v_ms":-4.7659467568188845}},{"type":"Feature","geometry":{"type":"Point","coordinates":[-72.8639,40.8655]},"properties":{"site":"KOKX","name":"Upton NY","scan_time":"2026-09-19T04:56:54Z","stale":false,"bins":25,"density_birds_km3":23.13125,"heading_deg":226.38558727573698,"speed_ms":14.46155989689323,"peak_altitude_m":200.0,"u_ms":-10.528381766381766,"v_ms":-9.741874915208248}},{"type":"Feature","geometry":{"type":"Point","coordinates":[-80.2183,40.5317]},"properties":{"site":"KPBZ","name":"Pittsburgh PA","scan_time":"2026-09-19T05:00:51Z","stale":false,"bins":25,"density_birds_km3":181.54,"heading_deg":227.6240714529529,"speed_ms":9.94173975825871,"peak_altitude_m":600.0,"u_ms":-7.14366920316656,"v_ms":-6.155803404208439}},{"type":"Feature","geometry":{"type":"Point","coordinates":[-78.4899,35.6655]},"properties":{"site":"KRAX","name":"Raleigh NC","scan_time":"2026-09-19T04:55:52Z","stale":false,"bins":25,"density_birds_km3":67.60125,"heading_deg":207.17198033474045,"speed_ms":9.347274066202448,"peak_altitude_m":0.0,"u_ms":-3.9207418179106424,"v_ms":-7.770979706740493}},{"type":"Feature","geometry":{"type":"Point","coordinates":[-82.4017,27.7055]},"properties":{"site":"KTBW","name":"Tampa FL","scan_time":"2026-09-19T05:00:37Z","stale":false,"bins":25,"density_birds_km3":9.4225,"heading_deg":205.18822925481803,"speed_ms":7.11360167241837,"peak_altitude_m":0.0,"u_ms":-2.94680780461906,"v_ms":-6.385734005840191}}]}