{"type":"FeatureCollection","frame":"2026-09-17T10","site_count":20,"fresh_count":20,"failures":{},"features":[{"type":"Feature","geometry":{"type":"Point","coordinates":[-77.0073,36.984]},"properties":{"site":"KAKQ","name":"Wakefield VA","scan_time":"2026-09-17T10:02:16Z","stale":false,"bins":25,"density_birds_km3":0.608125,"heading_deg":54.88610695805022,"speed_ms":6.461587628865979,"peak_altitude_m":200.0,"u_ms":3.9497835051546386,"v_ms":3.5550721649484536}},{"type":"Feature","geometry":{"type":"Point","coordinates":[-71.1369,41.9558]},"properties":{"site":"KBOX","name":"Boston MA","scan_time":"2026-09-17T10:00:40Z","stale":false,"bins":25,"density_birds_km3":0.39,"heading_deg":350.9677886001787,"speed_ms":3.5671014492753628,"peak_altitude_m":0.0,"u_ms":0.11508856682769728,"v_ms":2.5192753623188406}},{"type":"Feature","geometry":{"type":"Point","coordinates":[-78.7369,42.9489]},"properties":{"site":"KBUF","name":"Buffalo NY","scan_time":"2026-09-17T09:57:07Z","stale":false,"bins":25,"density_birds_km3":16.290666666666667,"heading_deg":242.54727167098957,"speed_ms":6.805178016041904,"peak_altitude_m":200.0,"u_ms":-5.775243493206744,"v_ms":-2.863897119004747}},{"type":"Feature","geometry":{"type":"Point","coordinates":[-81.8597,41.4131]},"properties":{"site":"KCLE","name":"Cleveland OH","scan_time":"2026-09-17T10:00:50Z","stale":false,"bins":25,"density_birds_km3":14.868,"heading_deg":189.5490768301775,"speed_ms":3.942350910232266,"peak_altitude_m":200.0,"u_ms":0.6336853197022687,"v_ms":-1.9460564074970854}},{"type":"Feature","geometry":{"type":"Point","coordinates":[-81.0423,32.6555]},"properties":{"site":"KCLX","name":"Charleston SC","scan_time":"2026-09-17T10:01:31Z","stale":false,"bins":25,"density_birds_km3":3.459375,"heading_deg":238.1428044515536,"speed_ms":8.4594271774485,"peak_altitude_m":200.0,"u_ms":-7.17549512106975,"v_ms":-4.444542826165522}},{"type":"Feature","geometry":{"type":"Point","coordinates":[-74.4108,39.947]},"properties":{"site":"KDIX","name":"Philadelphia PA","scan_time":"2026-09-17T09:59:55Z","stale":false,"bins":25,"density_birds_km3":0.48125,"heading_deg":116.06014662695793,"speed_ms":5.6551558441558445,"peak_altitude_m":200.0,"u_ms":4.439688311688312,"v_ms":-1.7907662337662338}},{"type":"Feature","geometry":{"type":"Point","coordinates":[-84.5658,33.3636]},"properties":{"site":"KFFC","name":"Atlanta GA","scan_time":"2026-09-17T09:56:58Z","stale":false,"bins":25,"density_birds_km3":9.988,"heading_deg":320.73393805491355,"speed_ms":5.537486393872203,"peak_altitude_m":400.0,"u_ms":-2.2111576967009334,"v_ms":0.34197608009137964}},{"type":"Feature","geometry":{"type":"Point","coordinates":[-85.5449,42.8939]},"properties":{"site":"KGRR","name":"Grand Rapids MI","scan_time":"2026-09-17T09:59:10Z","stale":false,"bins":25,"density_birds_km3":1.3526666666666667,"heading_deg":284.1342457566609,"speed_ms":5.056939379004437,"peak_altitude_m":200.0,"u_ms":-3.983031049778216,"v_ms":0.8964465253819616}},{"type":"Feature","geometry":{"type":"Point","coordinates":[-83.8217,39.4203]},"properties":{"site":"KILN","name":"Wilmington OH","scan_time":"2026-09-17T09:59:19Z","stale":false,"bins":25,"density_birds_km3":6.7,"heading_deg":93.64763188868908,"speed_ms":11.118020120724346,"peak_altitude_m":400.0,"u_ms":11.036441649899398,"v_ms":-0.8709557344064386}},{"type":"Feature","geometry":{"type":"Point","coordinates":[-81.7019,30.4846]},"properties":{"site":"KJAX","name":"Jacksonville FL","scan_time":"2026-09-17T09:57:05Z","stale":false,"bins":25,"density_birds_km3":31.2075,"heading_deg":201.1152680717532,"speed_ms":11.67101127872268,"peak_altitude_m":0.0,"u_ms":-4.219809283410461,"v_ms":-10.816980187110603}},{"type":"Feature","geometry":{"type":"Point","coordinates":[-88.0847,41.6045]},"properties":{"site":"KLOT","name":"Chicago IL","scan_time":"2026-09-17T10:01:00Z","stale":false,"bins":25,"density_birds_km3":1.2833333333333334,"heading_deg":16.87229015153223,"speed_ms":6.060848611838659,"peak_altitude_m":400.0,"u_ms":2.469596647459403,"v_ms":3.4812781561026713}},{"type":"Feature","geometry":{"type":"Point","coordinates":[-78.4292,33.9892]},"properties":{"site":"KLTX","name":"Wilmington NC","scan_time":"2026-09-17T10:03:11Z","stale":false,"bins":25,"density_birds_km3":0.8125,"heading_deg":244.25008877469537,"speed_ms":5.596949806949808,"peak_altitude_m":0.0,"u_ms":-4.978486486486487,"v_ms":-2.4395289575289576}},{"type":"Feature","geometry":{"type":"Point","coordinates":[-77.4778,38.9753]},"properties":{"site":"KLWX","name":"Sterling VA","scan_time":"2026-09-17T10:01:06Z","stale":false,"bins":25,"density_birds_km3":4.020625,"heading_deg":143.77285719355334,"speed_ms":3.1556099967116076,"peak_altitude_m":200.0,"u_ms":1.2501989477145676,"v_ms":-2.3530434067740873}},{"type":"Feature","geometry":{"type":"Point","coordinates":[-76.8762,34.7759]},"properties":{"site":"KMHX","name":"Morehead City NC","scan_time":"2026-09-17T09:59:12Z","stale":false,"bins":25,"density_birds_km3":0.26375,"heading_deg":239.2606396176767,"speed_ms":3.694715639810427,"peak_altitude_m":0.0,"u_ms":-3.13675355450237,"v_ms":-1.9023459715639812}},{"type":"Feature","geometry":{"type":"Point","coordinates":[-80.6542,28.1133]},"properties":{"site":"KMLB","name":"Melbourne FL","scan_time":"2026-09-17T09:59:24Z","stale":false,"bins":25,"density_birds_km3":1.2481250000000002,"heading_deg":229.510081770223,"speed_ms":4.015911823647294,"peak_altitude_m":0.0,"u_ms":-2.942084168336673,"v_ms":-2.591177354709419}},{"type":"Feature","geometry":{"type":"Point","coordinates":[-86.5625,36.2472]},"properties":{"site":"KOHX","name":"Nashville TN","scan_time":"2026-09-17T10:01:23Z","stale":false,"bins":25,"density_birds_km3":25.154666666666667,"heading_deg":65.62766782110569,"speed_ms":7.197375437294605,"peak_altitude_m":200.0,"u_ms":5.255535619633203,"v_ms":2.044545743665854}},{"type":"Feature","geometry":{"type":"Point","coordinates":[-72.8639,40.8655]},"properties":{"site":"KOKX","name":"Upton NY","scan_time":"2026-09-17T10:03:47Z","stale":false,"bins":25,"density_birds_km3":0.06875,"heading_deg":89.17888344143442,"speed_ms":3.0700943396226417,"peak_altitude_m":0.0,"u_ms":2.7424528301886792,"v_ms":0.18830188679245288}},{"type":"Feature","geometry":{"type":"Point","coordinates":[-80.2183,40.5317]},"properties":{"site":"KPBZ","name":"Pittsburgh PA","scan_time":"2026-09-17T10:00:37Z","stale":false,"bins":25,"density_birds_km3":9.23,"heading_deg":114.65615268049605,"speed_ms":5.3682925696594435,"peak_altitude_m":400.0,"u_ms":4.907949690402478,"v_ms":-1.5608227554179568}},{"type":"Feature","geometry":{"type":"Point","coordinates":[-78.4899,35.6655]},"properties":{"site":"KRAX","name":"Raleigh NC","scan_time":"2026-09-17T10:01:14Z","stale":false,"bins":25,"density_birds_km3":1.8287499999999999,"heading_deg":85.21004149990566,"speed_ms":5.173332192952446,"peak_altitude_m":200.0,"u_ms":3.9465720150530275,"v_ms":0.43656175162504274}},{"type":"Feature","geometry":{"type":"Point","coordinates":[-82.4017,27.7055]},"properties":{"site":"KTBW","name":"Tampa FL","scan_time":"2026-09-17T09:59:49Z","stale":false,"bins":25,"density_birds_km3":3.851875,"heading_deg":221.74653825309926,"speed_ms":8.043353886094435,"peak_altitude_m":0.0,"u_ms":-5.352432257017686,"v_ms":-5.676014927794905}}]}