{"type":"FeatureCollection","frame":"2026-10-08T09","site_count":20,"fresh_count":19,"failures":{"KILN":"RuntimeError('no scan within 20 min of 2026-10-08T09:00Z')"},"features":[{"type":"Feature","geometry":{"type":"Point","coordinates":[-77.0073,36.984]},"properties":{"site":"KAKQ","name":"Wakefield VA","scan_time":"2026-10-08T08:56:35Z","stale":false,"bins":25,"density_birds_km3":0.43374999999999997,"heading_deg":68.67942091917679,"speed_ms":14.984668587896255,"peak_altitude_m":200.0,"u_ms":13.714394812680116,"v_ms":5.28971181556196}},{"type":"Feature","geometry":{"type":"Point","coordinates":[-71.1369,41.9558]},"properties":{"site":"KBOX","name":"Boston MA","scan_time":"2026-10-08T09:01:54Z","stale":false,"bins":25,"density_birds_km3":0.291875,"heading_deg":28.847119395460652,"speed_ms":9.884817987152035,"peak_altitude_m":0.0,"u_ms":4.9093576017130625,"v_ms":8.357387580299786}},{"type":"Feature","geometry":{"type":"Point","coordinates":[-78.7369,42.9489]},"properties":{"site":"KBUF","name":"Buffalo NY","scan_time":"2026-10-08T09:01:13Z","stale":false,"bins":25,"density_birds_km3":1.1806666666666668,"heading_deg":108.71778398977148,"speed_ms":7.2730095990965555,"peak_altitude_m":200.0,"u_ms":6.597029926595144,"v_ms":-2.3748898927159794}},{"type":"Feature","geometry":{"type":"Point","coordinates":[-81.8597,41.4131]},"properties":{"site":"KCLE","name":"Cleveland OH","scan_time":"2026-10-08T08:58:46Z","stale":false,"bins":25,"density_birds_km3":3.874,"heading_deg":135.12816236740412,"speed_ms":11.168105317501292,"peak_altitude_m":200.0,"u_ms":7.767255205644468,"v_ms":-7.955888831526415}},{"type":"Feature","geometry":{"type":"Point","coordinates":[-81.0423,32.6555]},"properties":{"site":"KCLX","name":"Charleston SC","scan_time":"2026-10-08T09:01:09Z","stale":false,"bins":25,"density_birds_km3":17.12,"heading_deg":205.64820462333017,"speed_ms":7.281753796728971,"peak_altitude_m":0.0,"u_ms":-3.19882922021028,"v_ms":-6.0672915449766345}},{"type":"Feature","geometry":{"type":"Point","coordinates":[-74.4108,39.947]},"properties":{"site":"KDIX","name":"Philadelphia PA","scan_time":"2026-10-08T09:02:54Z","stale":false,"bins":25,"density_birds_km3":0.1475,"heading_deg":51.32963041790396,"speed_ms":13.611949152542374,"peak_altitude_m":0.0,"u_ms":10.494872881355933,"v_ms":8.030762711864407}},{"type":"Feature","geometry":{"type":"Point","coordinates":[-84.5658,33.3636]},"properties":{"site":"KFFC","name":"Atlanta GA","scan_time":"2026-10-08T08:58:33Z","stale":false,"bins":25,"density_birds_km3":31.96333333333333,"heading_deg":163.90086427154836,"speed_ms":6.7633865887996665,"peak_altitude_m":400.0,"u_ms":1.9622932526853687,"v_ms":-6.400235061007405}},{"type":"Feature","geometry":{"type":"Point","coordinates":[-85.5449,42.8939]},"properties":{"site":"KGRR","name":"Grand Rapids MI","scan_time":"2026-10-08T09:01:29Z","stale":false,"bins":25,"density_birds_km3":8.74,"heading_deg":156.88105064556748,"speed_ms":9.029351639969489,"peak_altitude_m":400.0,"u_ms":3.5598138825324184,"v_ms":-8.294064836003052}},{"type":"Feature","geometry":{"type":"Point","coordinates":[-81.7019,30.4846]},"properties":{"site":"KJAX","name":"Jacksonville FL","scan_time":"2026-10-08T09:00:22Z","stale":false,"bins":25,"density_birds_km3":107.2975,"heading_deg":204.7546002802211,"speed_ms":9.133137485653695,"peak_altitude_m":0.0,"u_ms":-3.8841447272600162,"v_ms":-8.20114065494882}},{"type":"Feature","geometry":{"type":"Point","coordinates":[-88.0847,41.6045]},"properties":{"site":"KLOT","name":"Chicago IL","scan_time":"2026-10-08T08:57:50Z","stale":false,"bins":25,"density_birds_km3":23.35666666666667,"heading_deg":176.11000154846252,"speed_ms":13.362825621556818,"peak_altitude_m":400.0,"u_ms":1.0261647589415694,"v_ms":-13.281093825821369}},{"type":"Feature","geometry":{"type":"Point","coordinates":[-78.4292,33.9892]},"properties":{"site":"KLTX","name":"Wilmington NC","scan_time":"2026-10-08T09:00:43Z","stale":false,"bins":25,"density_birds_km3":7.310625,"heading_deg":156.1958397356584,"speed_ms":3.4023364965375738,"peak_altitude_m":0.0,"u_ms":1.3201333675301359,"v_ms":-2.1913841155851927}},{"type":"Feature","geometry":{"type":"Point","coordinates":[-77.4778,38.9753]},"properties":{"site":"KLWX","name":"Sterling VA","scan_time":"2026-10-08T08:56:33Z","stale":false,"bins":25,"density_birds_km3":1.30375,"heading_deg":56.27046168869801,"speed_ms":8.307459252157239,"peak_altitude_m":0.0,"u_ms":6.558739213806328,"v_ms":3.175081495685522}},{"type":"Feature","geometry":{"type":"Point","coordinates":[-76.8762,34.7759]},"properties":{"site":"KMHX","name":"Morehead City NC","scan_time":"2026-10-08T09:01:13Z","stale":false,"bins":25,"density_birds_km3":1.5825,"heading_deg":99.83597364241376,"speed_ms":5.073811216429699,"peak_altitude_m":0.0,"u_ms":4.920323854660348,"v_ms":-0.7584834123222748}},{"type":"Feature","geometry":{"type":"Point","coordinates":[-80.6542,28.1133]},"properties":{"site":"KMLB","name":"Melbourne FL","scan_time":"2026-10-08T09:01:22Z","stale":false,"bins":25,"density_birds_km3":14.543125,"heading_deg":166.01604137673817,"speed_ms":3.1193145386565817,"peak_altitude_m":0.0,"u_ms":0.764460870686321,"v_ms":-2.968455885512914}},{"type":"Feature","geometry":{"type":"Point","coordinates":[-86.5625,36.2472]},"properties":{"site":"KOHX","name":"Nashville TN","scan_time":"2026-10-08T08:59:08Z","stale":false,"bins":25,"density_birds_km3":49.285333333333334,"heading_deg":142.56591606494544,"speed_ms":11.495010686072938,"peak_altitude_m":400.0,"u_ms":6.674381425170437,"v_ms":-9.05309557948274}},{"type":"Feature","geometry":{"type":"Point","coordinates":[-72.8639,40.8655]},"properties":{"site":"KOKX","name":"Upton NY","scan_time":"2026-10-08T09:01:18Z","stale":false,"bins":25,"density_birds_km3":0.106875,"heading_deg":41.243874500826585,"speed_ms":10.84096153846154,"peak_altitude_m":0.0,"u_ms":7.220897435897435,"v_ms":7.823653846153846}},{"type":"Feature","geometry":{"type":"Point","coordinates":[-80.2183,40.5317]},"properties":{"site":"KPBZ","name":"Pittsburgh PA","scan_time":"2026-10-08T09:03:00Z","stale":false,"bins":25,"density_birds_km3":2.48,"heading_deg":137.46389977524018,"speed_ms":12.774507488479264,"peak_altitude_m":600.0,"u_ms":8.372960829493088,"v_ms":-9.50081797235023}},{"type":"Feature","geometry":{"type":"Point","coordinates":[-78.4899,35.6655]},"properties":{"site":"KRAX","name":"Raleigh NC","scan_time":"2026-10-08T08:56:09Z","stale":false,"bins":25,"density_birds_km3":1.17375,"heading_deg":71.29687891005865,"speed_ms":10.383235607675907,"peak_altitude_m":200.0,"u_ms":9.562953091684436,"v_ms":3.2603784648187633}},{"type":"Feature","geometry":{"type":"Point","coordinates":[-82.4017,27.7055]},"properties":{"site":"KTBW","name":"Tampa FL","scan_time":"2026-10-08T08:58:32Z","stale":false,"bins":25,"density_birds_km3":37.69375,"heading_deg":137.5377508698041,"speed_ms":3.3332522509078246,"peak_altitude_m":0.0,"u_ms":1.9169833689830702,"v_ms":-2.4849052380241754}}]}