{"type":"FeatureCollection","frame":"2026-09-29T05","site_count":20,"fresh_count":20,"failures":{},"features":[{"type":"Feature","geometry":{"type":"Point","coordinates":[-77.0073,36.984]},"properties":{"site":"KAKQ","name":"Wakefield VA","scan_time":"2026-09-29T04:59:22Z","stale":false,"bins":25,"density_birds_km3":20.59,"heading_deg":290.0338885218353,"speed_ms":6.516212089013025,"peak_altitude_m":200.0,"u_ms":-5.1814399344242394,"v_ms":2.138464130665776}},{"type":"Feature","geometry":{"type":"Point","coordinates":[-71.1369,41.9558]},"properties":{"site":"KBOX","name":"Boston MA","scan_time":"2026-09-29T05:02:29Z","stale":false,"bins":25,"density_birds_km3":2.333125,"heading_deg":88.95474678840559,"speed_ms":8.65234395928208,"peak_altitude_m":0.0,"u_ms":8.276257701580498,"v_ms":0.37772836860433967}},{"type":"Feature","geometry":{"type":"Point","coordinates":[-78.7369,42.9489]},"properties":{"site":"KBUF","name":"Buffalo NY","scan_time":"2026-09-29T05:03:08Z","stale":false,"bins":25,"density_birds_km3":10.354000000000001,"heading_deg":149.5902646734889,"speed_ms":8.132783465327408,"peak_altitude_m":400.0,"u_ms":3.0662648895756877,"v_ms":-5.870283304359024}},{"type":"Feature","geometry":{"type":"Point","coordinates":[-81.8597,41.4131]},"properties":{"site":"KCLE","name":"Cleveland OH","scan_time":"2026-09-29T04:59:04Z","stale":false,"bins":25,"density_birds_km3":12.423333333333334,"heading_deg":147.86764247446263,"speed_ms":10.432491277041173,"peak_altitude_m":400.0,"u_ms":5.02242471415535,"v_ms":-8.39385527940308}},{"type":"Feature","geometry":{"type":"Point","coordinates":[-81.0423,32.6555]},"properties":{"site":"KCLX","name":"Charleston SC","scan_time":"2026-09-29T05:01:16Z","stale":false,"bins":25,"density_birds_km3":36.5225,"heading_deg":272.9163438928342,"speed_ms":4.460303771905805,"peak_altitude_m":0.0,"u_ms":-2.877987575301205,"v_ms":-0.8691656968784229}},{"type":"Feature","geometry":{"type":"Point","coordinates":[-74.4108,39.947]},"properties":{"site":"KDIX","name":"Philadelphia PA","scan_time":"2026-09-29T05:03:04Z","stale":false,"bins":25,"density_birds_km3":53.15375,"heading_deg":170.72479804940917,"speed_ms":4.571802810276912,"peak_altitude_m":200.0,"u_ms":1.1933839731906637,"v_ms":-4.181658180963019}},{"type":"Feature","geometry":{"type":"Point","coordinates":[-84.5658,33.3636]},"properties":{"site":"KFFC","name":"Atlanta GA","scan_time":"2026-09-29T04:57:29Z","stale":false,"bins":25,"density_birds_km3":51.70333333333333,"heading_deg":189.79278408887933,"speed_ms":7.90125162787699,"peak_altitude_m":400.0,"u_ms":-1.4015280768486882,"v_ms":-7.4334071304235705}},{"type":"Feature","geometry":{"type":"Point","coordinates":[-85.5449,42.8939]},"properties":{"site":"KGRR","name":"Grand Rapids MI","scan_time":"2026-09-29T04:59:39Z","stale":false,"bins":25,"density_birds_km3":37.992,"heading_deg":180.52563745971582,"speed_ms":8.310911946374675,"peak_altitude_m":400.0,"u_ms":-0.18073840106689132,"v_ms":-8.10031024075244}},{"type":"Feature","geometry":{"type":"Point","coordinates":[-83.8217,39.4203]},"properties":{"site":"KILN","name":"Wilmington OH","scan_time":"2026-09-29T05:03:04Z","stale":false,"bins":25,"density_birds_km3":41.25866666666666,"heading_deg":200.48064569287268,"speed_ms":5.927759016287487,"peak_altitude_m":200.0,"u_ms":-0.9151783867631851,"v_ms":-4.12878199327818}},{"type":"Feature","geometry":{"type":"Point","coordinates":[-81.7019,30.4846]},"properties":{"site":"KJAX","name":"Jacksonville FL","scan_time":"2026-09-29T05:00:50Z","stale":false,"bins":25,"density_birds_km3":53.885,"heading_deg":164.41780821030406,"speed_ms":8.032570636540783,"peak_altitude_m":600.0,"u_ms":1.4100227335993318,"v_ms":-7.011824487334137}},{"type":"Feature","geometry":{"type":"Point","coordinates":[-88.0847,41.6045]},"properties":{"site":"KLOT","name":"Chicago IL","scan_time":"2026-09-29T05:02:48Z","stale":false,"bins":25,"density_birds_km3":50.36533333333333,"heading_deg":169.8960901274149,"speed_ms":7.119905622915233,"peak_altitude_m":400.0,"u_ms":1.253535103510351,"v_ms":-6.853854105998836}},{"type":"Feature","geometry":{"type":"Point","coordinates":[-78.4292,33.9892]},"properties":{"site":"KLTX","name":"Wilmington NC","scan_time":"2026-09-29T04:59:46Z","stale":false,"bins":25,"density_birds_km3":22.275625,"heading_deg":300.4408548771624,"speed_ms":2.2535050505050505,"peak_altitude_m":0.0,"u_ms":-1.7634548260381595,"v_ms":0.4594615600448933}},{"type":"Feature","geometry":{"type":"Point","coordinates":[-77.4778,38.9753]},"properties":{"site":"KLWX","name":"Sterling VA","scan_time":"2026-09-29T05:02:06Z","stale":false,"bins":25,"density_birds_km3":22.6675,"heading_deg":173.26071309221973,"speed_ms":7.370983918572255,"peak_altitude_m":400.0,"u_ms":-0.20799823462885833,"v_ms":-6.751596281687032}},{"type":"Feature","geometry":{"type":"Point","coordinates":[-76.8762,34.7759]},"properties":{"site":"KMHX","name":"Morehead City NC","scan_time":"2026-09-29T05:01:57Z","stale":false,"bins":25,"density_birds_km3":5.308125,"heading_deg":2.0461337434647295,"speed_ms":2.5553057617532695,"peak_altitude_m":0.0,"u_ms":0.18832567456109356,"v_ms":1.6598468245552023}},{"type":"Feature","geometry":{"type":"Point","coordinates":[-80.6542,28.1133]},"properties":{"site":"KMLB","name":"Melbourne FL","scan_time":"2026-09-29T05:01:01Z","stale":false,"bins":25,"density_birds_km3":11.460625,"heading_deg":40.676956680890115,"speed_ms":5.428549609992909,"peak_altitude_m":0.0,"u_ms":2.4186417934871542,"v_ms":1.9591621665848469}},{"type":"Feature","geometry":{"type":"Point","coordinates":[-86.5625,36.2472]},"properties":{"site":"KOHX","name":"Nashville TN","scan_time":"2026-09-29T05:00:29Z","stale":false,"bins":25,"density_birds_km3":74.438,"heading_deg":195.40103993958977,"speed_ms":8.649444280251128,"peak_altitude_m":200.0,"u_ms":-1.3985631890521866,"v_ms":-7.125223855199406}},{"type":"Feature","geometry":{"type":"Point","coordinates":[-72.8639,40.8655]},"properties":{"site":"KOKX","name":"Upton NY","scan_time":"2026-09-29T05:00:36Z","stale":false,"bins":25,"density_birds_km3":8.3825,"heading_deg":132.0784157178356,"speed_ms":7.679501827131031,"peak_altitude_m":0.0,"u_ms":4.915497799985085,"v_ms":-4.9389201282720565}},{"type":"Feature","geometry":{"type":"Point","coordinates":[-80.2183,40.5317]},"properties":{"site":"KPBZ","name":"Pittsburgh PA","scan_time":"2026-09-29T04:58:37Z","stale":false,"bins":25,"density_birds_km3":13.152857142857144,"heading_deg":102.96445044426423,"speed_ms":5.778352186208397,"peak_altitude_m":400.0,"u_ms":3.0397721340004353,"v_ms":-1.1114879269088538}},{"type":"Feature","geometry":{"type":"Point","coordinates":[-78.4899,35.6655]},"properties":{"site":"KRAX","name":"Raleigh NC","scan_time":"2026-09-29T05:01:10Z","stale":false,"bins":25,"density_birds_km3":16.48,"heading_deg":268.0586004135405,"speed_ms":3.4228728003640776,"peak_altitude_m":400.0,"u_ms":-2.8945392141990287,"v_ms":0.07710292779126211}},{"type":"Feature","geometry":{"type":"Point","coordinates":[-82.4017,27.7055]},"properties":{"site":"KTBW","name":"Tampa FL","scan_time":"2026-09-29T05:00:24Z","stale":false,"bins":25,"density_birds_km3":12.339375,"heading_deg":164.87600711526372,"speed_ms":5.405302132401357,"peak_altitude_m":2000.0,"u_ms":-0.2729311654763714,"v_ms":-3.748044876665147}}]}