{"type":"FeatureCollection","frame":"2026-08-29T01","site_count":20,"fresh_count":20,"failures":{},"features":[{"type":"Feature","geometry":{"type":"Point","coordinates":[-77.0073,36.984]},"properties":{"site":"KAKQ","name":"Wakefield VA","scan_time":"2026-08-29T01:00:44Z","stale":false,"bins":25,"density_birds_km3":17.3325,"heading_deg":212.5079845357312,"speed_ms":5.794572304363505,"peak_altitude_m":200.0,"u_ms":-3.1358384421204466,"v_ms":-4.314736747205193}},{"type":"Feature","geometry":{"type":"Point","coordinates":[-71.1369,41.9558]},"properties":{"site":"KBOX","name":"Boston MA","scan_time":"2026-08-29T01:03:45Z","stale":false,"bins":25,"density_birds_km3":6.9956249999999995,"heading_deg":149.00555350305115,"speed_ms":8.300022447696866,"peak_altitude_m":0.0,"u_ms":4.204200413037622,"v_ms":-7.116226093202837}},{"type":"Feature","geometry":{"type":"Point","coordinates":[-78.7369,42.9489]},"properties":{"site":"KBUF","name":"Buffalo NY","scan_time":"2026-08-29T01:01:03Z","stale":false,"bins":25,"density_birds_km3":15.469333333333333,"heading_deg":150.23379724512895,"speed_ms":6.788773056369592,"peak_altitude_m":200.0,"u_ms":2.4998698500258576,"v_ms":-5.799723323564903}},{"type":"Feature","geometry":{"type":"Point","coordinates":[-81.8597,41.4131]},"properties":{"site":"KCLE","name":"Cleveland OH","scan_time":"2026-08-29T00:57:14Z","stale":false,"bins":25,"density_birds_km3":20.467333333333332,"heading_deg":235.6318598361892,"speed_ms":5.606574004507889,"peak_altitude_m":400.0,"u_ms":-4.558882174239702,"v_ms":-2.931311860974096}},{"type":"Feature","geometry":{"type":"Point","coordinates":[-81.0423,32.6555]},"properties":{"site":"KCLX","name":"Charleston SC","scan_time":"2026-08-29T00:58:05Z","stale":false,"bins":25,"density_birds_km3":6.382727272727272,"heading_deg":123.80000000000001,"speed_ms":1.22,"peak_altitude_m":200.0,"u_ms":1.01,"v_ms":-0.68}},{"type":"Feature","geometry":{"type":"Point","coordinates":[-74.4108,39.947]},"properties":{"site":"KDIX","name":"Philadelphia PA","scan_time":"2026-08-29T00:59:39Z","stale":false,"bins":25,"density_birds_km3":12.509375,"heading_deg":185.33340094831462,"speed_ms":7.7724527733118975,"peak_altitude_m":600.0,"u_ms":-1.1003014469453376,"v_ms":-7.328218448553055}},{"type":"Feature","geometry":{"type":"Point","coordinates":[-84.5658,33.3636]},"properties":{"site":"KFFC","name":"Atlanta GA","scan_time":"2026-08-29T01:01:46Z","stale":false,"bins":25,"density_birds_km3":11.735333333333333,"heading_deg":309.5844886726952,"speed_ms":3.3384235010337697,"peak_altitude_m":400.0,"u_ms":-1.4484568113944405,"v_ms":0.5732690098782449}},{"type":"Feature","geometry":{"type":"Point","coordinates":[-85.5449,42.8939]},"properties":{"site":"KGRR","name":"Grand Rapids MI","scan_time":"2026-08-29T01:01:22Z","stale":false,"bins":25,"density_birds_km3":3.258,"heading_deg":109.68460014296787,"speed_ms":4.051209330877839,"peak_altitude_m":200.0,"u_ms":3.7576243093922654,"v_ms":-1.3254593820339677}},{"type":"Feature","geometry":{"type":"Point","coordinates":[-83.8217,39.4203]},"properties":{"site":"KILN","name":"Wilmington OH","scan_time":"2026-08-29T00:57:30Z","stale":false,"bins":25,"density_birds_km3":19.586666666666666,"heading_deg":218.92750782689598,"speed_ms":7.806201178193209,"peak_altitude_m":400.0,"u_ms":-4.751664453297919,"v_ms":-6.1465403343889395}},{"type":"Feature","geometry":{"type":"Point","coordinates":[-81.7019,30.4846]},"properties":{"site":"KJAX","name":"Jacksonville FL","scan_time":"2026-08-29T01:00:50Z","stale":false,"bins":25,"density_birds_km3":16.349375,"heading_deg":260.30428065080065,"speed_ms":2.6201062966255657,"peak_altitude_m":0.0,"u_ms":-2.0637145838970277,"v_ms":-0.6815070928839242}},{"type":"Feature","geometry":{"type":"Point","coordinates":[-88.0847,41.6045]},"properties":{"site":"KLOT","name":"Chicago IL","scan_time":"2026-08-29T00:58:14Z","stale":false,"bins":25,"density_birds_km3":2.754,"heading_deg":87.99057354376588,"speed_ms":4.991696558410083,"peak_altitude_m":200.0,"u_ms":4.976946194861852,"v_ms":0.175523509452254}},{"type":"Feature","geometry":{"type":"Point","coordinates":[-78.4292,33.9892]},"properties":{"site":"KLTX","name":"Wilmington NC","scan_time":"2026-08-29T01:00:02Z","stale":false,"bins":25,"density_birds_km3":3.2825,"heading_deg":94.09772435113818,"speed_ms":5.3692586206896555,"peak_altitude_m":200.0,"u_ms":5.281132183908046,"v_ms":-0.5165862068965517}},{"type":"Feature","geometry":{"type":"Point","coordinates":[-77.4778,38.9753]},"properties":{"site":"KLWX","name":"Sterling VA","scan_time":"2026-08-29T01:00:06Z","stale":false,"bins":25,"density_birds_km3":34.50875,"heading_deg":204.90184173250722,"speed_ms":8.367192016142226,"peak_altitude_m":400.0,"u_ms":-3.2591479885841013,"v_ms":-7.303322789987456}},{"type":"Feature","geometry":{"type":"Point","coordinates":[-76.8762,34.7759]},"properties":{"site":"KMHX","name":"Morehead City NC","scan_time":"2026-08-29T00:59:54Z","stale":false,"bins":25,"density_birds_km3":0.843125,"heading_deg":75.50535264696391,"speed_ms":5.888899782135076,"peak_altitude_m":0.0,"u_ms":5.441427015250544,"v_ms":1.7769825708061002}},{"type":"Feature","geometry":{"type":"Point","coordinates":[-80.6542,28.1133]},"properties":{"site":"KMLB","name":"Melbourne FL","scan_time":"2026-08-29T00:57:30Z","stale":false,"bins":25,"density_birds_km3":9.50125,"heading_deg":228.515048756308,"speed_ms":5.076973424549402,"peak_altitude_m":0.0,"u_ms":-3.7865557163531114,"v_ms":-3.3606979344823045}},{"type":"Feature","geometry":{"type":"Point","coordinates":[-86.5625,36.2472]},"properties":{"site":"KOHX","name":"Nashville TN","scan_time":"2026-08-29T01:00:37Z","stale":false,"bins":25,"density_birds_km3":25.388666666666666,"heading_deg":216.18340515723756,"speed_ms":7.93954756715595,"peak_altitude_m":200.0,"u_ms":-4.673289394217893,"v_ms":-6.384896673056219}},{"type":"Feature","geometry":{"type":"Point","coordinates":[-72.8639,40.8655]},"properties":{"site":"KOKX","name":"Upton NY","scan_time":"2026-08-29T00:58:16Z","stale":false,"bins":25,"density_birds_km3":6.835625,"heading_deg":164.8928304153934,"speed_ms":7.705290777543731,"peak_altitude_m":0.0,"u_ms":1.4567588607015296,"v_ms":-7.121718106053668}},{"type":"Feature","geometry":{"type":"Point","coordinates":[-80.2183,40.5317]},"properties":{"site":"KPBZ","name":"Pittsburgh PA","scan_time":"2026-08-29T01:00:22Z","stale":false,"bins":25,"density_birds_km3":26.755714285714284,"heading_deg":210.25364684335807,"speed_ms":10.014395869006849,"peak_altitude_m":600.0,"u_ms":-4.992066834332192,"v_ms":-8.601763431078767}},{"type":"Feature","geometry":{"type":"Point","coordinates":[-78.4899,35.6655]},"properties":{"site":"KRAX","name":"Raleigh NC","scan_time":"2026-08-29T00:58:30Z","stale":false,"bins":25,"density_birds_km3":7.536875,"heading_deg":54.9201504582722,"speed_ms":5.4301210530771185,"peak_altitude_m":0.0,"u_ms":4.264821806484382,"v_ms":3.140273427579785}},{"type":"Feature","geometry":{"type":"Point","coordinates":[-82.4017,27.7055]},"properties":{"site":"KTBW","name":"Tampa FL","scan_time":"2026-08-29T01:01:02Z","stale":false,"bins":25,"density_birds_km3":15.970625,"heading_deg":206.40469573372638,"speed_ms":3.708755870381966,"peak_altitude_m":0.0,"u_ms":-0.8346923919849718,"v_ms":-3.134745616781465}}]}