{"type":"FeatureCollection","frame":"2026-09-16T00","site_count":20,"fresh_count":18,"failures":{"KDIX":"RuntimeError('no scan within 20 min of 2026-09-16T00:00Z')","KBUF":"RuntimeError('no scan within 20 min of 2026-09-16T00:00Z')"},"features":[{"type":"Feature","geometry":{"type":"Point","coordinates":[-77.0073,36.984]},"properties":{"site":"KAKQ","name":"Wakefield VA","scan_time":"2026-09-15T23:58:59Z","stale":false,"bins":25,"density_birds_km3":12.368125000000001,"heading_deg":239.5208006164653,"speed_ms":4.830539966631275,"peak_altitude_m":200.0,"u_ms":-3.736985186308712,"v_ms":-1.6337342636129228}},{"type":"Feature","geometry":{"type":"Point","coordinates":[-71.1369,41.9558]},"properties":{"site":"KBOX","name":"Boston MA","scan_time":"2026-09-16T00:00:44Z","stale":false,"bins":25,"density_birds_km3":7.755000000000001,"heading_deg":324.2614552070208,"speed_ms":6.3421940996292125,"peak_altitude_m":200.0,"u_ms":-3.7388344349508302,"v_ms":4.795714976624215}},{"type":"Feature","geometry":{"type":"Point","coordinates":[-81.8597,41.4131]},"properties":{"site":"KCLE","name":"Cleveland OH","scan_time":"2026-09-15T23:57:58Z","stale":false,"bins":25,"density_birds_km3":0.38999999999999996,"heading_deg":3.282882190940259,"speed_ms":11.71594871794872,"peak_altitude_m":200.0,"u_ms":0.7944786324786325,"v_ms":11.53288888888889}},{"type":"Feature","geometry":{"type":"Point","coordinates":[-81.0423,32.6555]},"properties":{"site":"KCLX","name":"Charleston SC","scan_time":"2026-09-15T23:58:51Z","stale":false,"bins":25,"density_birds_km3":3.565,"heading_deg":272.61306957059094,"speed_ms":7.666675085693668,"peak_altitude_m":0.0,"u_ms":-7.6591665163268985,"v_ms":0.32791448674003243}},{"type":"Feature","geometry":{"type":"Point","coordinates":[-84.5658,33.3636]},"properties":{"site":"KFFC","name":"Atlanta GA","scan_time":"2026-09-16T00:00:49Z","stale":false,"bins":25,"density_birds_km3":5.174666666666667,"heading_deg":250.6933106975568,"speed_ms":6.493097356544165,"peak_altitude_m":200.0,"u_ms":-6.1220335267569315,"v_ms":-2.0588265635074148}},{"type":"Feature","geometry":{"type":"Point","coordinates":[-85.5449,42.8939]},"properties":{"site":"KGRR","name":"Grand Rapids MI","scan_time":"2026-09-15T23:58:27Z","stale":false,"bins":25,"density_birds_km3":0.25333333333333335,"heading_deg":86.42279991195187,"speed_ms":3.497157894736842,"peak_altitude_m":200.0,"u_ms":3.4602368421052634,"v_ms":0.296}},{"type":"Feature","geometry":{"type":"Point","coordinates":[-83.8217,39.4203]},"properties":{"site":"KILN","name":"Wilmington OH","scan_time":"2026-09-16T00:00:11Z","stale":false,"bins":25,"density_birds_km3":0.3453333333333333,"heading_deg":355.1676218823356,"speed_ms":7.79318532818533,"peak_altitude_m":200.0,"u_ms":-0.6645173745173745,"v_ms":7.739903474903476}},{"type":"Feature","geometry":{"type":"Point","coordinates":[-81.7019,30.4846]},"properties":{"site":"KJAX","name":"Jacksonville FL","scan_time":"2026-09-15T23:57:58Z","stale":false,"bins":25,"density_birds_km3":11.011875,"heading_deg":242.91736210024294,"speed_ms":9.21480458986594,"peak_altitude_m":0.0,"u_ms":-8.18794421722336,"v_ms":-4.206990456714384}},{"type":"Feature","geometry":{"type":"Point","coordinates":[-88.0847,41.6045]},"properties":{"site":"KLOT","name":"Chicago IL","scan_time":"2026-09-16T00:00:22Z","stale":false,"bins":25,"density_birds_km3":0.9179999999999999,"heading_deg":142.67415345182116,"speed_ms":5.794945533769063,"peak_altitude_m":200.0,"u_ms":3.470973129992738,"v_ms":-4.580631808278867}},{"type":"Feature","geometry":{"type":"Point","coordinates":[-78.4292,33.9892]},"properties":{"site":"KLTX","name":"Wilmington NC","scan_time":"2026-09-15T23:57:50Z","stale":false,"bins":25,"density_birds_km3":16.3425,"heading_deg":217.12160013856223,"speed_ms":8.392525484785775,"peak_altitude_m":200.0,"u_ms":-5.016050816279604,"v_ms":-6.698578983674408}},{"type":"Feature","geometry":{"type":"Point","coordinates":[-77.4778,38.9753]},"properties":{"site":"KLWX","name":"Sterling VA","scan_time":"2026-09-15T23:56:56Z","stale":false,"bins":25,"density_birds_km3":14.122666666666667,"heading_deg":341.54208358857824,"speed_ms":4.841694802731411,"peak_altitude_m":0.0,"u_ms":-1.4662130121396055,"v_ms":4.533008820182094}},{"type":"Feature","geometry":{"type":"Point","coordinates":[-76.8762,34.7759]},"properties":{"site":"KMHX","name":"Morehead City NC","scan_time":"2026-09-15T23:58:58Z","stale":false,"bins":25,"density_birds_km3":27.135625,"heading_deg":202.06472967954363,"speed_ms":9.169339746695274,"peak_altitude_m":200.0,"u_ms":-3.3857699494774725,"v_ms":-8.483208987934574}},{"type":"Feature","geometry":{"type":"Point","coordinates":[-80.6542,28.1133]},"properties":{"site":"KMLB","name":"Melbourne FL","scan_time":"2026-09-16T00:00:54Z","stale":false,"bins":25,"density_birds_km3":27.7375,"heading_deg":194.99924095996425,"speed_ms":9.396990761604327,"peak_altitude_m":0.0,"u_ms":-2.3205644434429926,"v_ms":-8.983034925642182}},{"type":"Feature","geometry":{"type":"Point","coordinates":[-86.5625,36.2472]},"properties":{"site":"KOHX","name":"Nashville TN","scan_time":"2026-09-16T00:03:30Z","stale":false,"bins":25,"density_birds_km3":0.498,"heading_deg":315.7799072895451,"speed_ms":5.902600536193029,"peak_altitude_m":200.0,"u_ms":-4.111099195710456,"v_ms":4.18544235924933}},{"type":"Feature","geometry":{"type":"Point","coordinates":[-72.8639,40.8655]},"properties":{"site":"KOKX","name":"Upton NY","scan_time":"2026-09-15T23:59:34Z","stale":false,"bins":25,"density_birds_km3":3.594375,"heading_deg":294.376596028986,"speed_ms":4.897091890010443,"peak_altitude_m":0.0,"u_ms":-3.8536268708666896,"v_ms":2.1300678733031675}},{"type":"Feature","geometry":{"type":"Point","coordinates":[-80.2183,40.5317]},"properties":{"site":"KPBZ","name":"Pittsburgh PA","scan_time":"2026-09-16T00:00:11Z","stale":false,"bins":25,"density_birds_km3":0.6707142857142857,"heading_deg":1.9970241980739303,"speed_ms":8.353642172523962,"peak_altitude_m":400.0,"u_ms":0.24543130990415332,"v_ms":8.180883919062833}},{"type":"Feature","geometry":{"type":"Point","coordinates":[-78.4899,35.6655]},"properties":{"site":"KRAX","name":"Raleigh NC","scan_time":"2026-09-15T23:57:49Z","stale":false,"bins":25,"density_birds_km3":15.115,"heading_deg":210.26303018769931,"speed_ms":5.413004810709057,"peak_altitude_m":200.0,"u_ms":-2.726643798368542,"v_ms":-4.665551139928885}},{"type":"Feature","geometry":{"type":"Point","coordinates":[-82.4017,27.7055]},"properties":{"site":"KTBW","name":"Tampa FL","scan_time":"2026-09-16T00:02:42Z","stale":false,"bins":25,"density_birds_km3":17.238125,"heading_deg":227.69713452588402,"speed_ms":6.1422366846742324,"peak_altitude_m":0.0,"u_ms":-4.417654182226895,"v_ms":-4.186886987418875}}]}