{"type":"FeatureCollection","frame":"2026-09-08T06","site_count":20,"fresh_count":19,"failures":{"KOKX":"RuntimeError('no scan within 20 min of 2026-09-08T06:00Z')"},"features":[{"type":"Feature","geometry":{"type":"Point","coordinates":[-77.0073,36.984]},"properties":{"site":"KAKQ","name":"Wakefield VA","scan_time":"2026-09-08T06:01:23Z","stale":false,"bins":25,"density_birds_km3":4.84375,"heading_deg":233.4065680159196,"speed_ms":8.545083236546652,"peak_altitude_m":0.0,"u_ms":-3.494190218092657,"v_ms":-5.265670409085044}},{"type":"Feature","geometry":{"type":"Point","coordinates":[-71.1369,41.9558]},"properties":{"site":"KBOX","name":"Boston MA","scan_time":"2026-09-08T05:58:23Z","stale":false,"bins":25,"density_birds_km3":1.3625,"heading_deg":150.67620359242738,"speed_ms":8.268169273229072,"peak_altitude_m":0.0,"u_ms":3.741251149954002,"v_ms":-6.716688132474702}},{"type":"Feature","geometry":{"type":"Point","coordinates":[-78.7369,42.9489]},"properties":{"site":"KBUF","name":"Buffalo NY","scan_time":"2026-09-08T06:02:41Z","stale":false,"bins":25,"density_birds_km3":8.770000000000001,"heading_deg":182.9629379861162,"speed_ms":6.8979209426073735,"peak_altitude_m":400.0,"u_ms":-0.5354975294564804,"v_ms":-6.676745724059293}},{"type":"Feature","geometry":{"type":"Point","coordinates":[-81.8597,41.4131]},"properties":{"site":"KCLE","name":"Cleveland OH","scan_time":"2026-09-08T06:00:18Z","stale":false,"bins":25,"density_birds_km3":6.413333333333333,"heading_deg":273.8991692790798,"speed_ms":8.556290674706311,"peak_altitude_m":400.0,"u_ms":-8.283192639567524,"v_ms":0.41294625220916936}},{"type":"Feature","geometry":{"type":"Point","coordinates":[-81.0423,32.6555]},"properties":{"site":"KCLX","name":"Charleston SC","scan_time":"2026-09-08T06:00:07Z","stale":false,"bins":25,"density_birds_km3":12.59875,"heading_deg":224.5630759213508,"speed_ms":14.047308630907914,"peak_altitude_m":0.0,"u_ms":-9.816755814532597,"v_ms":-9.82200657403257}},{"type":"Feature","geometry":{"type":"Point","coordinates":[-74.4108,39.947]},"properties":{"site":"KDIX","name":"Philadelphia PA","scan_time":"2026-09-08T06:01:28Z","stale":false,"bins":25,"density_birds_km3":13.5475,"heading_deg":162.24293890766123,"speed_ms":5.736603616903488,"peak_altitude_m":200.0,"u_ms":0.13304391954235134,"v_ms":-4.06490357999631}},{"type":"Feature","geometry":{"type":"Point","coordinates":[-84.5658,33.3636]},"properties":{"site":"KFFC","name":"Atlanta GA","scan_time":"2026-09-08T06:01:48Z","stale":false,"bins":25,"density_birds_km3":19.995333333333335,"heading_deg":264.90627048079494,"speed_ms":8.866199779948653,"peak_altitude_m":400.0,"u_ms":-8.030402427233021,"v_ms":-0.3467765812022803}},{"type":"Feature","geometry":{"type":"Point","coordinates":[-85.5449,42.8939]},"properties":{"site":"KGRR","name":"Grand Rapids MI","scan_time":"2026-09-08T06:00:36Z","stale":false,"bins":25,"density_birds_km3":6.3020000000000005,"heading_deg":347.55416530908576,"speed_ms":6.0999280575539565,"peak_altitude_m":200.0,"u_ms":-1.333900761743546,"v_ms":5.918550571307659}},{"type":"Feature","geometry":{"type":"Point","coordinates":[-83.8217,39.4203]},"properties":{"site":"KILN","name":"Wilmington OH","scan_time":"2026-09-08T06:00:07Z","stale":false,"bins":25,"density_birds_km3":7.549333333333333,"heading_deg":246.01265116522353,"speed_ms":8.958321264570824,"peak_altitude_m":200.0,"u_ms":-6.372700459201695,"v_ms":-2.6995249028611794}},{"type":"Feature","geometry":{"type":"Point","coordinates":[-81.7019,30.4846]},"properties":{"site":"KJAX","name":"Jacksonville FL","scan_time":"2026-09-08T06:01:48Z","stale":false,"bins":25,"density_birds_km3":81.09125,"heading_deg":191.41120657621968,"speed_ms":11.716962848774472,"peak_altitude_m":0.0,"u_ms":-2.3243233389856632,"v_ms":-11.379564436565438}},{"type":"Feature","geometry":{"type":"Point","coordinates":[-88.0847,41.6045]},"properties":{"site":"KLOT","name":"Chicago IL","scan_time":"2026-09-08T06:00:51Z","stale":false,"bins":25,"density_birds_km3":3.924,"heading_deg":309.8141278639834,"speed_ms":10.252451580020388,"peak_altitude_m":200.0,"u_ms":-7.531778797145769,"v_ms":6.175667686034658}},{"type":"Feature","geometry":{"type":"Point","coordinates":[-78.4292,33.9892]},"properties":{"site":"KLTX","name":"Wilmington NC","scan_time":"2026-09-08T05:59:59Z","stale":false,"bins":25,"density_birds_km3":12.95125,"heading_deg":222.21835421186094,"speed_ms":13.512967038270354,"peak_altitude_m":0.0,"u_ms":-9.07086144491096,"v_ms":-9.788665122339655}},{"type":"Feature","geometry":{"type":"Point","coordinates":[-77.4778,38.9753]},"properties":{"site":"KLWX","name":"Sterling VA","scan_time":"2026-09-08T05:58:14Z","stale":false,"bins":25,"density_birds_km3":18.536875,"heading_deg":241.33093674898402,"speed_ms":5.557007353437227,"peak_altitude_m":200.0,"u_ms":-4.485393982324766,"v_ms":-2.4414885650678}},{"type":"Feature","geometry":{"type":"Point","coordinates":[-76.8762,34.7759]},"properties":{"site":"KMHX","name":"Morehead City NC","scan_time":"2026-09-08T05:58:53Z","stale":false,"bins":25,"density_birds_km3":1.065625,"heading_deg":244.86781166036099,"speed_ms":9.097548387096774,"peak_altitude_m":0.0,"u_ms":-8.16341935483871,"v_ms":-3.6678299120234605}},{"type":"Feature","geometry":{"type":"Point","coordinates":[-80.6542,28.1133]},"properties":{"site":"KMLB","name":"Melbourne FL","scan_time":"2026-09-08T06:00:46Z","stale":false,"bins":25,"density_birds_km3":18.91125,"heading_deg":157.8501610998344,"speed_ms":7.401124000264393,"peak_altitude_m":200.0,"u_ms":2.7784275232996234,"v_ms":-6.849913741820345}},{"type":"Feature","geometry":{"type":"Point","coordinates":[-86.5625,36.2472]},"properties":{"site":"KOHX","name":"Nashville TN","scan_time":"2026-09-08T06:01:20Z","stale":false,"bins":25,"density_birds_km3":26.740000000000002,"heading_deg":349.6610803019757,"speed_ms":6.221727499376714,"peak_altitude_m":200.0,"u_ms":-0.24709723261032154,"v_ms":5.5584023934181}},{"type":"Feature","geometry":{"type":"Point","coordinates":[-80.2183,40.5317]},"properties":{"site":"KPBZ","name":"Pittsburgh PA","scan_time":"2026-09-08T06:02:05Z","stale":false,"bins":25,"density_birds_km3":13.857857142857142,"heading_deg":254.89642903801058,"speed_ms":6.23963764754394,"peak_altitude_m":400.0,"u_ms":-4.956066697592908,"v_ms":-1.5966841915365186}},{"type":"Feature","geometry":{"type":"Point","coordinates":[-78.4899,35.6655]},"properties":{"site":"KRAX","name":"Raleigh NC","scan_time":"2026-09-08T06:03:41Z","stale":false,"bins":25,"density_birds_km3":12.18125,"heading_deg":243.78085917944048,"speed_ms":7.834204638752053,"peak_altitude_m":0.0,"u_ms":-6.584294950738917,"v_ms":-3.343251231527094}},{"type":"Feature","geometry":{"type":"Point","coordinates":[-82.4017,27.7055]},"properties":{"site":"KTBW","name":"Tampa FL","scan_time":"2026-09-08T06:02:12Z","stale":false,"bins":25,"density_birds_km3":28.273125,"heading_deg":170.59399380119785,"speed_ms":6.452825563145213,"peak_altitude_m":200.0,"u_ms":1.4045851846939452,"v_ms":-6.0480224152795286}}]}