{"type":"FeatureCollection","frame":"2026-08-13T05","site_count":20,"fresh_count":20,"failures":{},"features":[{"type":"Feature","geometry":{"type":"Point","coordinates":[-77.0073,36.984]},"properties":{"site":"KAKQ","name":"Wakefield VA","scan_time":"2026-08-13T04:58:07Z","stale":false,"bins":25,"density_birds_km3":3.5012499999999998,"heading_deg":23.769583524717387,"speed_ms":2.5288428571428567,"peak_altitude_m":200.0,"u_ms":1.2890303571428572,"v_ms":1.3822035714285714}},{"type":"Feature","geometry":{"type":"Point","coordinates":[-71.1369,41.9558]},"properties":{"site":"KBOX","name":"Boston MA","scan_time":"2026-08-13T05:02:45Z","stale":false,"bins":25,"density_birds_km3":1.4168749999999999,"heading_deg":72.60463008314356,"speed_ms":6.292120019675357,"peak_altitude_m":0.0,"u_ms":5.94392523364486,"v_ms":1.757338908017708}},{"type":"Feature","geometry":{"type":"Point","coordinates":[-78.7369,42.9489]},"properties":{"site":"KBUF","name":"Buffalo NY","scan_time":"2026-08-13T04:58:00Z","stale":false,"bins":25,"density_birds_km3":1.1626666666666665,"heading_deg":108.52189819098426,"speed_ms":6.777935779816515,"peak_altitude_m":200.0,"u_ms":5.938033256880735,"v_ms":-1.7032855504587159}},{"type":"Feature","geometry":{"type":"Point","coordinates":[-81.8597,41.4131]},"properties":{"site":"KCLE","name":"Cleveland OH","scan_time":"2026-08-13T04:58:22Z","stale":false,"bins":25,"density_birds_km3":0.7973333333333333,"heading_deg":96.35730549852143,"speed_ms":8.36563670411985,"peak_altitude_m":200.0,"u_ms":6.984194756554308,"v_ms":-0.4650936329588015}},{"type":"Feature","geometry":{"type":"Point","coordinates":[-81.0423,32.6555]},"properties":{"site":"KCLX","name":"Charleston SC","scan_time":"2026-08-13T05:02:07Z","stale":false,"bins":25,"density_birds_km3":4.036875,"heading_deg":138.6975605217675,"speed_ms":6.925398368883313,"peak_altitude_m":0.0,"u_ms":3.70340338770389,"v_ms":-4.368527289836889}},{"type":"Feature","geometry":{"type":"Point","coordinates":[-74.4108,39.947]},"properties":{"site":"KDIX","name":"Philadelphia PA","scan_time":"2026-08-13T05:00:16Z","stale":false,"bins":25,"density_birds_km3":0.885625,"heading_deg":50.474340867387944,"speed_ms":8.837911079745941,"peak_altitude_m":0.0,"u_ms":6.582342978122795,"v_ms":5.588242766407904}},{"type":"Feature","geometry":{"type":"Point","coordinates":[-84.5658,33.3636]},"properties":{"site":"KFFC","name":"Atlanta GA","scan_time":"2026-08-13T05:00:40Z","stale":false,"bins":25,"density_birds_km3":12.655333333333333,"heading_deg":130.2507323025811,"speed_ms":6.271915924774799,"peak_altitude_m":200.0,"u_ms":3.6575567613127538,"v_ms":-4.181408628773113}},{"type":"Feature","geometry":{"type":"Point","coordinates":[-85.5449,42.8939]},"properties":{"site":"KGRR","name":"Grand Rapids MI","scan_time":"2026-08-13T04:56:59Z","stale":false,"bins":25,"density_birds_km3":7.785714285714286,"heading_deg":195.04645689772528,"speed_ms":6.779878721058434,"peak_altitude_m":800.0,"u_ms":-2.089824513046674,"v_ms":-5.260841602352077}},{"type":"Feature","geometry":{"type":"Point","coordinates":[-83.8217,39.4203]},"properties":{"site":"KILN","name":"Wilmington OH","scan_time":"2026-08-13T05:00:42Z","stale":false,"bins":25,"density_birds_km3":8.700666666666667,"heading_deg":237.87176827226614,"speed_ms":5.212714449980836,"peak_altitude_m":200.0,"u_ms":-2.641163664239172,"v_ms":-1.6782660022997318}},{"type":"Feature","geometry":{"type":"Point","coordinates":[-81.7019,30.4846]},"properties":{"site":"KJAX","name":"Jacksonville FL","scan_time":"2026-08-13T05:03:18Z","stale":false,"bins":25,"density_birds_km3":20.33875,"heading_deg":144.01878496523784,"speed_ms":8.311956414629524,"peak_altitude_m":0.0,"u_ms":3.6877331817320447,"v_ms":-6.36352624597309}},{"type":"Feature","geometry":{"type":"Point","coordinates":[-88.0847,41.6045]},"properties":{"site":"KLOT","name":"Chicago IL","scan_time":"2026-08-13T05:00:11Z","stale":false,"bins":25,"density_birds_km3":6.804615384615385,"heading_deg":175.53504759483423,"speed_ms":5.113091302861051,"peak_altitude_m":400.0,"u_ms":-0.16987689501880776,"v_ms":-4.560650860595008}},{"type":"Feature","geometry":{"type":"Point","coordinates":[-78.4292,33.9892]},"properties":{"site":"KLTX","name":"Wilmington NC","scan_time":"2026-08-13T05:01:03Z","stale":false,"bins":25,"density_birds_km3":23.20875,"heading_deg":207.9208008076468,"speed_ms":6.310558429248476,"peak_altitude_m":0.0,"u_ms":-2.72428788083954,"v_ms":-5.49711008801625}},{"type":"Feature","geometry":{"type":"Point","coordinates":[-77.4778,38.9753]},"properties":{"site":"KLWX","name":"Sterling VA","scan_time":"2026-08-13T04:59:50Z","stale":false,"bins":25,"density_birds_km3":5.045625,"heading_deg":123.00013515106247,"speed_ms":3.301954980723791,"peak_altitude_m":200.0,"u_ms":2.6556274095261783,"v_ms":-1.646593707250342}},{"type":"Feature","geometry":{"type":"Point","coordinates":[-76.8762,34.7759]},"properties":{"site":"KMHX","name":"Morehead City NC","scan_time":"2026-08-13T05:03:20Z","stale":false,"bins":25,"density_birds_km3":8.594375,"heading_deg":173.53613463493488,"speed_ms":4.713902545454545,"peak_altitude_m":0.0,"u_ms":0.8882138181818181,"v_ms":-4.337331636363636}},{"type":"Feature","geometry":{"type":"Point","coordinates":[-80.6542,28.1133]},"properties":{"site":"KMLB","name":"Melbourne FL","scan_time":"2026-08-13T04:57:39Z","stale":false,"bins":25,"density_birds_km3":4.3825,"heading_deg":92.98156123317833,"speed_ms":5.252668663528741,"peak_altitude_m":0.0,"u_ms":3.74791755812295,"v_ms":-0.5515561260875765}},{"type":"Feature","geometry":{"type":"Point","coordinates":[-86.5625,36.2472]},"properties":{"site":"KOHX","name":"Nashville TN","scan_time":"2026-08-13T05:01:40Z","stale":false,"bins":25,"density_birds_km3":7.58,"heading_deg":61.86449384157918,"speed_ms":6.931605980650835,"peak_altitude_m":200.0,"u_ms":4.9720518909410725,"v_ms":3.0055540897097623}},{"type":"Feature","geometry":{"type":"Point","coordinates":[-72.8639,40.8655]},"properties":{"site":"KOKX","name":"Upton NY","scan_time":"2026-08-13T05:00:55Z","stale":false,"bins":25,"density_birds_km3":0.9525,"heading_deg":7.365461675192282,"speed_ms":8.411213910761155,"peak_altitude_m":0.0,"u_ms":1.3435892388451445,"v_ms":7.99750656167979}},{"type":"Feature","geometry":{"type":"Point","coordinates":[-80.2183,40.5317]},"properties":{"site":"KPBZ","name":"Pittsburgh PA","scan_time":"2026-08-13T04:59:35Z","stale":false,"bins":25,"density_birds_km3":0.7285714285714285,"heading_deg":71.99945635511966,"speed_ms":9.115306781485469,"peak_altitude_m":400.0,"u_ms":8.221377825618946,"v_ms":2.2894617868676}},{"type":"Feature","geometry":{"type":"Point","coordinates":[-78.4899,35.6655]},"properties":{"site":"KRAX","name":"Raleigh NC","scan_time":"2026-08-13T04:58:48Z","stale":false,"bins":25,"density_birds_km3":4.465625,"heading_deg":112.36483803702248,"speed_ms":5.340158819395643,"peak_altitude_m":0.0,"u_ms":3.706676036542516,"v_ms":-2.57298383696416}},{"type":"Feature","geometry":{"type":"Point","coordinates":[-82.4017,27.7055]},"properties":{"site":"KTBW","name":"Tampa FL","scan_time":"2026-08-13T05:04:11Z","stale":false,"bins":25,"density_birds_km3":3.841875,"heading_deg":121.11561434005179,"speed_ms":3.327722466243696,"peak_altitude_m":0.0,"u_ms":1.6669074345209047,"v_ms":-2.2947649259801532}}]}