{"type":"FeatureCollection","frame":"2026-09-01T04","site_count":20,"fresh_count":20,"failures":{},"features":[{"type":"Feature","geometry":{"type":"Point","coordinates":[-77.0073,36.984]},"properties":{"site":"KAKQ","name":"Wakefield VA","scan_time":"2026-09-01T03:57:59Z","stale":false,"bins":25,"density_birds_km3":12.346874999999999,"heading_deg":101.9402328602779,"speed_ms":6.71645368062268,"peak_altitude_m":200.0,"u_ms":1.0730615048074477,"v_ms":-2.048412270438012}},{"type":"Feature","geometry":{"type":"Point","coordinates":[-71.1369,41.9558]},"properties":{"site":"KBOX","name":"Boston MA","scan_time":"2026-09-01T03:58:39Z","stale":false,"bins":25,"density_birds_km3":2.5881250000000002,"heading_deg":20.86418431795988,"speed_ms":4.963518653986832,"peak_altitude_m":200.0,"u_ms":0.7136942209217263,"v_ms":2.2458473543038284}},{"type":"Feature","geometry":{"type":"Point","coordinates":[-78.7369,42.9489]},"properties":{"site":"KBUF","name":"Buffalo NY","scan_time":"2026-09-01T03:56:49Z","stale":false,"bins":25,"density_birds_km3":2.9553333333333334,"heading_deg":48.5475826373392,"speed_ms":6.599692627686619,"peak_altitude_m":400.0,"u_ms":4.921284954934134,"v_ms":3.4680379015484175}},{"type":"Feature","geometry":{"type":"Point","coordinates":[-81.8597,41.4131]},"properties":{"site":"KCLE","name":"Cleveland OH","scan_time":"2026-09-01T04:02:13Z","stale":false,"bins":25,"density_birds_km3":1.9026666666666665,"heading_deg":63.371955673385074,"speed_ms":11.036896427282569,"peak_altitude_m":200.0,"u_ms":9.379054492962828,"v_ms":3.7931468783832547}},{"type":"Feature","geometry":{"type":"Point","coordinates":[-81.0423,32.6555]},"properties":{"site":"KCLX","name":"Charleston SC","scan_time":"2026-09-01T03:57:43Z","stale":false,"bins":25,"density_birds_km3":9.28875,"heading_deg":232.95762956627797,"speed_ms":8.36905664277839,"peak_altitude_m":0.0,"u_ms":-5.3719425303197355,"v_ms":-5.415514746416759}},{"type":"Feature","geometry":{"type":"Point","coordinates":[-74.4108,39.947]},"properties":{"site":"KDIX","name":"Philadelphia PA","scan_time":"2026-09-01T04:02:15Z","stale":false,"bins":25,"density_birds_km3":3.2975,"heading_deg":26.824537672298856,"speed_ms":4.824498578199052,"peak_altitude_m":200.0,"u_ms":1.6121914691943127,"v_ms":3.484921327014218}},{"type":"Feature","geometry":{"type":"Point","coordinates":[-84.5658,33.3636]},"properties":{"site":"KFFC","name":"Atlanta GA","scan_time":"2026-09-01T04:01:44Z","stale":false,"bins":25,"density_birds_km3":62.059999999999995,"heading_deg":225.32169881493382,"speed_ms":6.478932860672467,"peak_altitude_m":600.0,"u_ms":-4.600573638414438,"v_ms":-4.521118272639381}},{"type":"Feature","geometry":{"type":"Point","coordinates":[-85.5449,42.8939]},"properties":{"site":"KGRR","name":"Grand Rapids MI","scan_time":"2026-09-01T03:57:44Z","stale":false,"bins":25,"density_birds_km3":6.597333333333333,"heading_deg":104.04650422222275,"speed_ms":9.495669967663703,"peak_altitude_m":200.0,"u_ms":9.154508892481811,"v_ms":-1.936688561034762}},{"type":"Feature","geometry":{"type":"Point","coordinates":[-83.8217,39.4203]},"properties":{"site":"KILN","name":"Wilmington OH","scan_time":"2026-09-01T04:01:40Z","stale":false,"bins":25,"density_birds_km3":2.6513333333333335,"heading_deg":84.25034183924916,"speed_ms":9.588579331154136,"peak_altitude_m":600.0,"u_ms":8.83010057832537,"v_ms":1.234427960774453}},{"type":"Feature","geometry":{"type":"Point","coordinates":[-81.7019,30.4846]},"properties":{"site":"KJAX","name":"Jacksonville FL","scan_time":"2026-09-01T04:00:20Z","stale":false,"bins":25,"density_birds_km3":21.56,"heading_deg":186.97445618445263,"speed_ms":9.90746489090065,"peak_altitude_m":0.0,"u_ms":-1.2074190459610028,"v_ms":-9.831453110492108}},{"type":"Feature","geometry":{"type":"Point","coordinates":[-88.0847,41.6045]},"properties":{"site":"KLOT","name":"Chicago IL","scan_time":"2026-09-01T03:59:39Z","stale":false,"bins":25,"density_birds_km3":6.758,"heading_deg":83.46443336236997,"speed_ms":14.44410549989777,"peak_altitude_m":200.0,"u_ms":13.20840932324678,"v_ms":1.5766295236148025}},{"type":"Feature","geometry":{"type":"Point","coordinates":[-78.4292,33.9892]},"properties":{"site":"KLTX","name":"Wilmington NC","scan_time":"2026-09-01T03:58:02Z","stale":false,"bins":25,"density_birds_km3":7.1875,"heading_deg":235.1633129902612,"speed_ms":7.508135638774412,"peak_altitude_m":200.0,"u_ms":-4.25421698620319,"v_ms":-5.017062354416771}},{"type":"Feature","geometry":{"type":"Point","coordinates":[-77.4778,38.9753]},"properties":{"site":"KLWX","name":"Sterling VA","scan_time":"2026-09-01T04:00:56Z","stale":false,"bins":25,"density_birds_km3":7.49625,"heading_deg":100.96251313198817,"speed_ms":5.578457773427071,"peak_altitude_m":200.0,"u_ms":2.1175954436237427,"v_ms":-1.8743579247130016}},{"type":"Feature","geometry":{"type":"Point","coordinates":[-76.8762,34.7759]},"properties":{"site":"KMHX","name":"Morehead City NC","scan_time":"2026-09-01T04:01:38Z","stale":false,"bins":25,"density_birds_km3":3.6675,"heading_deg":184.50666126903772,"speed_ms":4.822584883125747,"peak_altitude_m":0.0,"u_ms":-1.3144804640846273,"v_ms":-1.689609281692544}},{"type":"Feature","geometry":{"type":"Point","coordinates":[-80.6542,28.1133]},"properties":{"site":"KMLB","name":"Melbourne FL","scan_time":"2026-09-01T04:02:43Z","stale":false,"bins":25,"density_birds_km3":7.663125,"heading_deg":170.5105672673723,"speed_ms":7.561213604110594,"peak_altitude_m":0.0,"u_ms":1.3448739907022267,"v_ms":-7.404896011744556}},{"type":"Feature","geometry":{"type":"Point","coordinates":[-86.5625,36.2472]},"properties":{"site":"KOHX","name":"Nashville TN","scan_time":"2026-09-01T04:01:52Z","stale":false,"bins":25,"density_birds_km3":18.877333333333333,"heading_deg":79.60535604445694,"speed_ms":2.408505085464049,"peak_altitude_m":200.0,"u_ms":1.7153556293261762,"v_ms":0.39266527758157943}},{"type":"Feature","geometry":{"type":"Point","coordinates":[-72.8639,40.8655]},"properties":{"site":"KOKX","name":"Upton NY","scan_time":"2026-09-01T03:58:58Z","stale":false,"bins":25,"density_birds_km3":8.950833333333334,"heading_deg":279.48228095050723,"speed_ms":3.896741674167417,"peak_altitude_m":0.0,"u_ms":-3.717495499549955,"v_ms":0.8313838883888389}},{"type":"Feature","geometry":{"type":"Point","coordinates":[-80.2183,40.5317]},"properties":{"site":"KPBZ","name":"Pittsburgh PA","scan_time":"2026-09-01T03:58:03Z","stale":false,"bins":25,"density_birds_km3":4.880714285714285,"heading_deg":83.22680941209252,"speed_ms":8.146461288416075,"peak_altitude_m":600.0,"u_ms":7.814045508274233,"v_ms":0.748105791962175}},{"type":"Feature","geometry":{"type":"Point","coordinates":[-78.4899,35.6655]},"properties":{"site":"KRAX","name":"Raleigh NC","scan_time":"2026-09-01T03:58:14Z","stale":false,"bins":25,"density_birds_km3":11.826875,"heading_deg":58.84628439109158,"speed_ms":6.423581884479206,"peak_altitude_m":200.0,"u_ms":1.207177508851662,"v_ms":1.3013105744332296}},{"type":"Feature","geometry":{"type":"Point","coordinates":[-82.4017,27.7055]},"properties":{"site":"KTBW","name":"Tampa FL","scan_time":"2026-09-01T04:01:00Z","stale":false,"bins":25,"density_birds_km3":22.468125,"heading_deg":197.78387636731588,"speed_ms":8.285775367844334,"peak_altitude_m":0.0,"u_ms":-2.4264686943997287,"v_ms":-7.7009472168092845}}]}