{"type":"FeatureCollection","frame":"2026-08-25T01","site_count":20,"fresh_count":20,"failures":{},"features":[{"type":"Feature","geometry":{"type":"Point","coordinates":[-77.0073,36.984]},"properties":{"site":"KAKQ","name":"Wakefield VA","scan_time":"2026-08-25T00:57:37Z","stale":false,"bins":25,"density_birds_km3":17.206875,"heading_deg":219.72943081406777,"speed_ms":4.418004220023283,"peak_altitude_m":200.0,"u_ms":-2.7477502910360885,"v_ms":-2.9973195576251457}},{"type":"Feature","geometry":{"type":"Point","coordinates":[-71.1369,41.9558]},"properties":{"site":"KBOX","name":"Boston MA","scan_time":"2026-08-25T00:58:49Z","stale":false,"bins":25,"density_birds_km3":2.02375,"heading_deg":30.186660691804413,"speed_ms":6.912827564894932,"peak_altitude_m":0.0,"u_ms":3.581551297898641,"v_ms":5.2784734239802225}},{"type":"Feature","geometry":{"type":"Point","coordinates":[-78.7369,42.9489]},"properties":{"site":"KBUF","name":"Buffalo NY","scan_time":"2026-08-25T01:00:48Z","stale":false,"bins":25,"density_birds_km3":2.3013333333333335,"heading_deg":106.852648798411,"speed_ms":8.55890787949015,"peak_altitude_m":200.0,"u_ms":8.074087485515642,"v_ms":-2.481486095017381}},{"type":"Feature","geometry":{"type":"Point","coordinates":[-81.8597,41.4131]},"properties":{"site":"KCLE","name":"Cleveland OH","scan_time":"2026-08-25T01:02:02Z","stale":false,"bins":25,"density_birds_km3":2.7793333333333337,"heading_deg":84.26604579992542,"speed_ms":5.276547128664889,"peak_altitude_m":200.0,"u_ms":5.0114901865762045,"v_ms":0.16912042645989825}},{"type":"Feature","geometry":{"type":"Point","coordinates":[-81.0423,32.6555]},"properties":{"site":"KCLX","name":"Charleston SC","scan_time":"2026-08-25T00:57:36Z","stale":false,"bins":25,"density_birds_km3":13.495,"heading_deg":155.94984204776597,"speed_ms":4.793297541678441,"peak_altitude_m":200.0,"u_ms":0.8300117735706884,"v_ms":-3.480608458133182}},{"type":"Feature","geometry":{"type":"Point","coordinates":[-74.4108,39.947]},"properties":{"site":"KDIX","name":"Philadelphia PA","scan_time":"2026-08-25T00:59:05Z","stale":false,"bins":25,"density_birds_km3":3.5225,"heading_deg":131.07818835181035,"speed_ms":7.883228962818004,"peak_altitude_m":200.0,"u_ms":5.807375911759473,"v_ms":-5.096006048745775}},{"type":"Feature","geometry":{"type":"Point","coordinates":[-84.5658,33.3636]},"properties":{"site":"KFFC","name":"Atlanta GA","scan_time":"2026-08-25T01:00:46Z","stale":false,"bins":25,"density_birds_km3":19.669333333333334,"heading_deg":189.84897438320056,"speed_ms":6.346355409436009,"peak_altitude_m":800.0,"u_ms":-1.1521064940347072,"v_ms":-6.150083378524945}},{"type":"Feature","geometry":{"type":"Point","coordinates":[-85.5449,42.8939]},"properties":{"site":"KGRR","name":"Grand Rapids MI","scan_time":"2026-08-25T00:59:57Z","stale":false,"bins":25,"density_birds_km3":0.33866666666666667,"heading_deg":124.55848302878282,"speed_ms":6.0482283464566935,"peak_altitude_m":200.0,"u_ms":4.773169291338583,"v_ms":-3.3524212598425196}},{"type":"Feature","geometry":{"type":"Point","coordinates":[-83.8217,39.4203]},"properties":{"site":"KILN","name":"Wilmington OH","scan_time":"2026-08-25T01:02:06Z","stale":false,"bins":25,"density_birds_km3":4.5633333333333335,"heading_deg":138.6899425326281,"speed_ms":5.2485939783688975,"peak_altitude_m":600.0,"u_ms":3.400641625255773,"v_ms":-3.947703887752119}},{"type":"Feature","geometry":{"type":"Point","coordinates":[-81.7019,30.4846]},"properties":{"site":"KJAX","name":"Jacksonville FL","scan_time":"2026-08-25T00:59:32Z","stale":false,"bins":25,"density_birds_km3":14.364375,"heading_deg":110.30320186352085,"speed_ms":4.385613714484618,"peak_altitude_m":0.0,"u_ms":3.504902754209633,"v_ms":-1.894582082408737}},{"type":"Feature","geometry":{"type":"Point","coordinates":[-88.0847,41.6045]},"properties":{"site":"KLOT","name":"Chicago IL","scan_time":"2026-08-25T00:59:35Z","stale":false,"bins":25,"density_birds_km3":3.4099999999999997,"heading_deg":269.5359304564955,"speed_ms":5.415511241446725,"peak_altitude_m":200.0,"u_ms":-5.370078201368525,"v_ms":0.0026608015640273487}},{"type":"Feature","geometry":{"type":"Point","coordinates":[-78.4292,33.9892]},"properties":{"site":"KLTX","name":"Wilmington NC","scan_time":"2026-08-25T01:01:32Z","stale":false,"bins":25,"density_birds_km3":10.129375,"heading_deg":198.45427922601246,"speed_ms":8.32879021799543,"peak_altitude_m":200.0,"u_ms":-2.509543012412771,"v_ms":-7.879773358858766}},{"type":"Feature","geometry":{"type":"Point","coordinates":[-77.4778,38.9753]},"properties":{"site":"KLWX","name":"Sterling VA","scan_time":"2026-08-25T00:59:44Z","stale":false,"bins":25,"density_birds_km3":22.640666666666668,"heading_deg":166.57596167875826,"speed_ms":7.213916541419857,"peak_altitude_m":400.0,"u_ms":1.5547915008988298,"v_ms":-6.93166799280936}},{"type":"Feature","geometry":{"type":"Point","coordinates":[-76.8762,34.7759]},"properties":{"site":"KMHX","name":"Morehead City NC","scan_time":"2026-08-25T01:00:40Z","stale":false,"bins":25,"density_birds_km3":8.72125,"heading_deg":297.28105112920485,"speed_ms":3.4795563042075837,"peak_altitude_m":0.0,"u_ms":-2.1036291305282777,"v_ms":1.0152239982796931}},{"type":"Feature","geometry":{"type":"Point","coordinates":[-80.6542,28.1133]},"properties":{"site":"KMLB","name":"Melbourne FL","scan_time":"2026-08-25T00:58:58Z","stale":false,"bins":25,"density_birds_km3":10.08625,"heading_deg":10.71062823022669,"speed_ms":4.206884798909338,"peak_altitude_m":0.0,"u_ms":0.804609283014191,"v_ms":3.878629856850716}},{"type":"Feature","geometry":{"type":"Point","coordinates":[-86.5625,36.2472]},"properties":{"site":"KOHX","name":"Nashville TN","scan_time":"2026-08-25T01:00:58Z","stale":false,"bins":25,"density_birds_km3":20.58,"heading_deg":222.84256952039962,"speed_ms":5.011650469711694,"peak_altitude_m":400.0,"u_ms":-3.3114356980887596,"v_ms":-3.681229024943311}},{"type":"Feature","geometry":{"type":"Point","coordinates":[-72.8639,40.8655]},"properties":{"site":"KOKX","name":"Upton NY","scan_time":"2026-08-25T01:01:03Z","stale":false,"bins":25,"density_birds_km3":2.9856249999999998,"heading_deg":80.90948640610357,"speed_ms":5.441821226711326,"peak_altitude_m":0.0,"u_ms":5.308982625078502,"v_ms":0.6558446723885283}},{"type":"Feature","geometry":{"type":"Point","coordinates":[-80.2183,40.5317]},"properties":{"site":"KPBZ","name":"Pittsburgh PA","scan_time":"2026-08-25T01:02:29Z","stale":false,"bins":25,"density_birds_km3":1.8207142857142855,"heading_deg":113.0203158138657,"speed_ms":7.721167911915061,"peak_altitude_m":400.0,"u_ms":6.732611089264648,"v_ms":-3.2288202909948875}},{"type":"Feature","geometry":{"type":"Point","coordinates":[-78.4899,35.6655]},"properties":{"site":"KRAX","name":"Raleigh NC","scan_time":"2026-08-25T00:58:20Z","stale":false,"bins":25,"density_birds_km3":13.028125000000001,"heading_deg":170.24626922444145,"speed_ms":7.0896295407649115,"peak_altitude_m":400.0,"u_ms":1.1450655021834062,"v_ms":-6.960015355823216}},{"type":"Feature","geometry":{"type":"Point","coordinates":[-82.4017,27.7055]},"properties":{"site":"KTBW","name":"Tampa FL","scan_time":"2026-08-25T00:57:52Z","stale":false,"bins":25,"density_birds_km3":19.2925,"heading_deg":109.18302719477067,"speed_ms":6.322400453588208,"peak_altitude_m":0.0,"u_ms":5.637656568929208,"v_ms":-2.0969946541389923}}]}