{"type":"FeatureCollection","frame":"2026-09-24T10","site_count":20,"fresh_count":20,"failures":{},"features":[{"type":"Feature","geometry":{"type":"Point","coordinates":[-77.0073,36.984]},"properties":{"site":"KAKQ","name":"Wakefield VA","scan_time":"2026-09-24T10:01:38Z","stale":false,"bins":25,"density_birds_km3":6.685625,"heading_deg":189.7244272342942,"speed_ms":14.544229689164327,"peak_altitude_m":0.0,"u_ms":-2.5313769729834417,"v_ms":-14.285798392563184}},{"type":"Feature","geometry":{"type":"Point","coordinates":[-71.1369,41.9558]},"properties":{"site":"KBOX","name":"Boston MA","scan_time":"2026-09-24T10:00:23Z","stale":false,"bins":25,"density_birds_km3":0.218125,"heading_deg":220.3254974963273,"speed_ms":7.991220930232558,"peak_altitude_m":0.0,"u_ms":-5.235639534883721,"v_ms":-5.982994186046511}},{"type":"Feature","geometry":{"type":"Point","coordinates":[-78.7369,42.9489]},"properties":{"site":"KBUF","name":"Buffalo NY","scan_time":"2026-09-24T10:00:38Z","stale":false,"bins":25,"density_birds_km3":1.1713333333333333,"heading_deg":289.86245341022504,"speed_ms":5.2530734206033,"peak_altitude_m":200.0,"u_ms":-4.88019920318725,"v_ms":1.766237905520774}},{"type":"Feature","geometry":{"type":"Point","coordinates":[-81.8597,41.4131]},"properties":{"site":"KCLE","name":"Cleveland OH","scan_time":"2026-09-24T10:00:10Z","stale":false,"bins":25,"density_birds_km3":1.9506666666666668,"heading_deg":277.6482878060805,"speed_ms":8.032604237867394,"peak_altitude_m":200.0,"u_ms":-7.456907040328092,"v_ms":1.3992276144907723}},{"type":"Feature","geometry":{"type":"Point","coordinates":[-81.0423,32.6555]},"properties":{"site":"KCLX","name":"Charleston SC","scan_time":"2026-09-24T10:00:57Z","stale":false,"bins":25,"density_birds_km3":0.71,"heading_deg":202.03298079384467,"speed_ms":8.142155009451795,"peak_altitude_m":0.0,"u_ms":-3.1381568998109644,"v_ms":-7.492589792060491}},{"type":"Feature","geometry":{"type":"Point","coordinates":[-74.4108,39.947]},"properties":{"site":"KDIX","name":"Philadelphia PA","scan_time":"2026-09-24T10:03:00Z","stale":false,"bins":25,"density_birds_km3":0.03875,"heading_deg":225.59665393066805,"speed_ms":11.204745762711864,"peak_altitude_m":0.0,"u_ms":-8.09813559322034,"v_ms":-7.6525423728813555}},{"type":"Feature","geometry":{"type":"Point","coordinates":[-84.5658,33.3636]},"properties":{"site":"KFFC","name":"Atlanta GA","scan_time":"2026-09-24T09:59:07Z","stale":false,"bins":25,"density_birds_km3":2.4339999999999997,"heading_deg":231.05973362107704,"speed_ms":6.288657087593259,"peak_altitude_m":400.0,"u_ms":-4.580071843050567,"v_ms":-3.8485051119093674}},{"type":"Feature","geometry":{"type":"Point","coordinates":[-85.5449,42.8939]},"properties":{"site":"KGRR","name":"Grand Rapids MI","scan_time":"2026-09-24T09:57:34Z","stale":false,"bins":25,"density_birds_km3":1.5466666666666669,"heading_deg":255.60722864907288,"speed_ms":10.077586206896552,"peak_altitude_m":200.0,"u_ms":-9.641758620689656,"v_ms":-2.431612068965517}},{"type":"Feature","geometry":{"type":"Point","coordinates":[-83.8217,39.4203]},"properties":{"site":"KILN","name":"Wilmington OH","scan_time":"2026-09-24T10:00:14Z","stale":false,"bins":25,"density_birds_km3":2.19,"heading_deg":270.4000373421456,"speed_ms":3.8581333739342267,"peak_altitude_m":200.0,"u_ms":-3.7953836784409263,"v_ms":-0.09815468940316688}},{"type":"Feature","geometry":{"type":"Point","coordinates":[-81.7019,30.4846]},"properties":{"site":"KJAX","name":"Jacksonville FL","scan_time":"2026-09-24T09:58:29Z","stale":false,"bins":25,"density_birds_km3":12.9925,"heading_deg":184.43440413161989,"speed_ms":13.581954387990761,"peak_altitude_m":200.0,"u_ms":-1.156300519630485,"v_ms":-13.492158391070054}},{"type":"Feature","geometry":{"type":"Point","coordinates":[-88.0847,41.6045]},"properties":{"site":"KLOT","name":"Chicago IL","scan_time":"2026-09-24T09:59:17Z","stale":false,"bins":25,"density_birds_km3":3.7399999999999998,"heading_deg":327.38899669039915,"speed_ms":13.354242942686056,"peak_altitude_m":200.0,"u_ms":-2.1798973481608215,"v_ms":7.914617194183063}},{"type":"Feature","geometry":{"type":"Point","coordinates":[-78.4292,33.9892]},"properties":{"site":"KLTX","name":"Wilmington NC","scan_time":"2026-09-24T09:58:08Z","stale":false,"bins":25,"density_birds_km3":2.8668750000000003,"heading_deg":224.75044862180312,"speed_ms":11.207593203144814,"peak_altitude_m":0.0,"u_ms":-7.856956632006087,"v_ms":-7.976649759066702}},{"type":"Feature","geometry":{"type":"Point","coordinates":[-77.4778,38.9753]},"properties":{"site":"KLWX","name":"Sterling VA","scan_time":"2026-09-24T10:01:37Z","stale":false,"bins":25,"density_birds_km3":2.8918749999999998,"heading_deg":213.5897776700364,"speed_ms":13.875164288802422,"peak_altitude_m":200.0,"u_ms":-7.884796800691743,"v_ms":-11.258112840466927}},{"type":"Feature","geometry":{"type":"Point","coordinates":[-76.8762,34.7759]},"properties":{"site":"KMHX","name":"Morehead City NC","scan_time":"2026-09-24T10:02:45Z","stale":false,"bins":25,"density_birds_km3":0.13,"heading_deg":230.50000000000003,"speed_ms":13.07,"peak_altitude_m":0.0,"u_ms":-10.09,"v_ms":-8.31}},{"type":"Feature","geometry":{"type":"Point","coordinates":[-80.6542,28.1133]},"properties":{"site":"KMLB","name":"Melbourne FL","scan_time":"2026-09-24T09:59:20Z","stale":false,"bins":25,"density_birds_km3":5.45,"heading_deg":164.61387987969596,"speed_ms":14.170961009174311,"peak_altitude_m":0.0,"u_ms":3.711657110091743,"v_ms":-13.672537844036695}},{"type":"Feature","geometry":{"type":"Point","coordinates":[-86.5625,36.2472]},"properties":{"site":"KOHX","name":"Nashville TN","scan_time":"2026-09-24T09:57:27Z","stale":false,"bins":25,"density_birds_km3":10.158666666666667,"heading_deg":175.83539314892968,"speed_ms":6.98679354245964,"peak_altitude_m":200.0,"u_ms":1.1648687491796825,"v_ms":-6.380815723848275}},{"type":"Feature","geometry":{"type":"Point","coordinates":[-72.8639,40.8655]},"properties":{"site":"KOKX","name":"Upton NY","scan_time":"2026-09-24T10:03:28Z","stale":false,"bins":25,"density_birds_km3":0.083125,"heading_deg":228.7278822691879,"speed_ms":11.96,"peak_altitude_m":0.0,"u_ms":-8.996229508196722,"v_ms":-7.832377049180328}},{"type":"Feature","geometry":{"type":"Point","coordinates":[-80.2183,40.5317]},"properties":{"site":"KPBZ","name":"Pittsburgh PA","scan_time":"2026-09-24T10:00:10Z","stale":false,"bins":25,"density_birds_km3":4.312142857142857,"heading_deg":246.41982214892727,"speed_ms":10.85249792943515,"peak_altitude_m":400.0,"u_ms":-9.750054662912042,"v_ms":-4.178373364253769}},{"type":"Feature","geometry":{"type":"Point","coordinates":[-78.4899,35.6655]},"properties":{"site":"KRAX","name":"Raleigh NC","scan_time":"2026-09-24T09:59:38Z","stale":false,"bins":25,"density_birds_km3":6.590625,"heading_deg":214.10401293181724,"speed_ms":13.12527329664073,"peak_altitude_m":200.0,"u_ms":-7.342692161700512,"v_ms":-10.878222622888593}},{"type":"Feature","geometry":{"type":"Point","coordinates":[-82.4017,27.7055]},"properties":{"site":"KTBW","name":"Tampa FL","scan_time":"2026-09-24T10:02:33Z","stale":false,"bins":25,"density_birds_km3":3.566875,"heading_deg":196.2081205514778,"speed_ms":8.686219298245613,"peak_altitude_m":0.0,"u_ms":-2.3903315789473685,"v_ms":-8.288177192982456}}]}