{"type":"FeatureCollection","frame":"2026-09-02T07","site_count":20,"fresh_count":20,"failures":{},"features":[{"type":"Feature","geometry":{"type":"Point","coordinates":[-77.0073,36.984]},"properties":{"site":"KAKQ","name":"Wakefield VA","scan_time":"2026-09-02T06:58:30Z","stale":false,"bins":25,"density_birds_km3":7.2231250000000005,"heading_deg":105.4535635765441,"speed_ms":6.197420610885177,"peak_altitude_m":0.0,"u_ms":4.637851518560179,"v_ms":-1.2510859219520634}},{"type":"Feature","geometry":{"type":"Point","coordinates":[-71.1369,41.9558]},"properties":{"site":"KBOX","name":"Boston MA","scan_time":"2026-09-02T07:01:19Z","stale":false,"bins":25,"density_birds_km3":2.338125,"heading_deg":210.28051353151207,"speed_ms":7.53361051502146,"peak_altitude_m":0.0,"u_ms":-3.5624570815450642,"v_ms":-6.379975858369098}},{"type":"Feature","geometry":{"type":"Point","coordinates":[-78.7369,42.9489]},"properties":{"site":"KBUF","name":"Buffalo NY","scan_time":"2026-09-02T07:01:37Z","stale":false,"bins":25,"density_birds_km3":8.755333333333335,"heading_deg":123.27530696941926,"speed_ms":4.221131500799513,"peak_altitude_m":200.0,"u_ms":2.2162026954998857,"v_ms":-2.132654382090916}},{"type":"Feature","geometry":{"type":"Point","coordinates":[-81.8597,41.4131]},"properties":{"site":"KCLE","name":"Cleveland OH","scan_time":"2026-09-02T07:00:41Z","stale":false,"bins":25,"density_birds_km3":15.378000000000002,"heading_deg":116.70256562058984,"speed_ms":8.505296297911308,"peak_altitude_m":200.0,"u_ms":6.876981642175032,"v_ms":-4.6823568656521175}},{"type":"Feature","geometry":{"type":"Point","coordinates":[-81.0423,32.6555]},"properties":{"site":"KCLX","name":"Charleston SC","scan_time":"2026-09-02T07:02:39Z","stale":false,"bins":25,"density_birds_km3":6.65125,"heading_deg":170.775541153204,"speed_ms":6.449475574033828,"peak_altitude_m":0.0,"u_ms":-1.7657469526599263,"v_ms":-5.155839554001702}},{"type":"Feature","geometry":{"type":"Point","coordinates":[-74.4108,39.947]},"properties":{"site":"KDIX","name":"Philadelphia PA","scan_time":"2026-09-02T06:59:32Z","stale":false,"bins":25,"density_birds_km3":2.113125,"heading_deg":228.65296573549284,"speed_ms":8.93350381194409,"peak_altitude_m":200.0,"u_ms":-6.208783354510801,"v_ms":-5.6046219822109276}},{"type":"Feature","geometry":{"type":"Point","coordinates":[-84.5658,33.3636]},"properties":{"site":"KFFC","name":"Atlanta GA","scan_time":"2026-09-02T06:59:59Z","stale":false,"bins":25,"density_birds_km3":26.2,"heading_deg":159.11304667621238,"speed_ms":5.680857760814249,"peak_altitude_m":200.0,"u_ms":-0.49087913486005097,"v_ms":-2.8269129770992363}},{"type":"Feature","geometry":{"type":"Point","coordinates":[-85.5449,42.8939]},"properties":{"site":"KGRR","name":"Grand Rapids MI","scan_time":"2026-09-02T06:58:55Z","stale":false,"bins":25,"density_birds_km3":10.954666666666666,"heading_deg":109.21434497547442,"speed_ms":14.535580574488804,"peak_altitude_m":200.0,"u_ms":13.66944924537488,"v_ms":-4.862839581304771}},{"type":"Feature","geometry":{"type":"Point","coordinates":[-83.8217,39.4203]},"properties":{"site":"KILN","name":"Wilmington OH","scan_time":"2026-09-02T06:56:51Z","stale":false,"bins":25,"density_birds_km3":18.771333333333335,"heading_deg":129.41275373149205,"speed_ms":11.641750781916405,"peak_altitude_m":1200.0,"u_ms":8.539236209837929,"v_ms":-6.984272462325846}},{"type":"Feature","geometry":{"type":"Point","coordinates":[-81.7019,30.4846]},"properties":{"site":"KJAX","name":"Jacksonville FL","scan_time":"2026-09-02T06:59:23Z","stale":false,"bins":25,"density_birds_km3":30.658125,"heading_deg":191.15418993127614,"speed_ms":11.037270477094118,"peak_altitude_m":0.0,"u_ms":-2.143439698026031,"v_ms":-10.79873476207174}},{"type":"Feature","geometry":{"type":"Point","coordinates":[-88.0847,41.6045]},"properties":{"site":"KLOT","name":"Chicago IL","scan_time":"2026-09-02T06:59:48Z","stale":false,"bins":25,"density_birds_km3":12.364666666666666,"heading_deg":80.01406544145422,"speed_ms":11.469568124224942,"peak_altitude_m":200.0,"u_ms":10.672644093384376,"v_ms":1.4268949156197765}},{"type":"Feature","geometry":{"type":"Point","coordinates":[-78.4292,33.9892]},"properties":{"site":"KLTX","name":"Wilmington NC","scan_time":"2026-09-02T06:58:22Z","stale":false,"bins":25,"density_birds_km3":5.615625,"heading_deg":130.20055216194703,"speed_ms":6.505140383715489,"peak_altitude_m":0.0,"u_ms":1.1359230229293402,"v_ms":-3.4412891904539076}},{"type":"Feature","geometry":{"type":"Point","coordinates":[-77.4778,38.9753]},"properties":{"site":"KLWX","name":"Sterling VA","scan_time":"2026-09-02T07:01:32Z","stale":false,"bins":25,"density_birds_km3":27.055625,"heading_deg":198.12348875721406,"speed_ms":9.660742227616469,"peak_altitude_m":200.0,"u_ms":-2.250687144057511,"v_ms":-8.849440528428717}},{"type":"Feature","geometry":{"type":"Point","coordinates":[-76.8762,34.7759]},"properties":{"site":"KMHX","name":"Morehead City NC","scan_time":"2026-09-02T07:02:06Z","stale":false,"bins":25,"density_birds_km3":2.460625,"heading_deg":104.63800796827448,"speed_ms":7.508983739837399,"peak_altitude_m":0.0,"u_ms":3.1540396341463417,"v_ms":-1.7804776422764228}},{"type":"Feature","geometry":{"type":"Point","coordinates":[-80.6542,28.1133]},"properties":{"site":"KMLB","name":"Melbourne FL","scan_time":"2026-09-02T06:58:54Z","stale":false,"bins":25,"density_birds_km3":3.2981249999999998,"heading_deg":157.3348837991072,"speed_ms":5.592465415956036,"peak_altitude_m":0.0,"u_ms":2.191925336365359,"v_ms":-5.0350559029751745}},{"type":"Feature","geometry":{"type":"Point","coordinates":[-86.5625,36.2472]},"properties":{"site":"KOHX","name":"Nashville TN","scan_time":"2026-09-02T07:00:18Z","stale":false,"bins":25,"density_birds_km3":16.199333333333335,"heading_deg":145.73510065428582,"speed_ms":2.6801806658710237,"peak_altitude_m":400.0,"u_ms":0.6894440100415654,"v_ms":-1.971827647228281}},{"type":"Feature","geometry":{"type":"Point","coordinates":[-72.8639,40.8655]},"properties":{"site":"KOKX","name":"Upton NY","scan_time":"2026-09-02T07:01:29Z","stale":false,"bins":25,"density_birds_km3":6.376923076923077,"heading_deg":242.35325902073038,"speed_ms":8.29566229985444,"peak_altitude_m":0.0,"u_ms":-7.029804706453178,"v_ms":-3.7146918971373117}},{"type":"Feature","geometry":{"type":"Point","coordinates":[-80.2183,40.5317]},"properties":{"site":"KPBZ","name":"Pittsburgh PA","scan_time":"2026-09-02T06:59:22Z","stale":false,"bins":25,"density_birds_km3":12.87857142857143,"heading_deg":141.7807955391399,"speed_ms":11.095433153893113,"peak_altitude_m":600.0,"u_ms":6.506574726677397,"v_ms":-8.816973194960875}},{"type":"Feature","geometry":{"type":"Point","coordinates":[-78.4899,35.6655]},"properties":{"site":"KRAX","name":"Raleigh NC","scan_time":"2026-09-02T06:59:57Z","stale":false,"bins":25,"density_birds_km3":15.12,"heading_deg":141.68146463700265,"speed_ms":7.9702388965058795,"peak_altitude_m":200.0,"u_ms":2.7130150816402843,"v_ms":-3.9320815156425275}},{"type":"Feature","geometry":{"type":"Point","coordinates":[-82.4017,27.7055]},"properties":{"site":"KTBW","name":"Tampa FL","scan_time":"2026-09-02T07:00:21Z","stale":false,"bins":25,"density_birds_km3":12.419375,"heading_deg":186.3135585974323,"speed_ms":6.084945143432311,"peak_altitude_m":0.0,"u_ms":-0.7480895822848516,"v_ms":-5.930461499748364}}]}