{"type":"FeatureCollection","frame":"2026-09-05T04","site_count":20,"fresh_count":20,"failures":{},"features":[{"type":"Feature","geometry":{"type":"Point","coordinates":[-77.0073,36.984]},"properties":{"site":"KAKQ","name":"Wakefield VA","scan_time":"2026-09-05T03:58:43Z","stale":false,"bins":25,"density_birds_km3":8.476875,"heading_deg":128.62161393536434,"speed_ms":10.346253778662536,"peak_altitude_m":0.0,"u_ms":6.346241981862421,"v_ms":-6.248916168989163}},{"type":"Feature","geometry":{"type":"Point","coordinates":[-71.1369,41.9558]},"properties":{"site":"KBOX","name":"Boston MA","scan_time":"2026-09-05T03:58:34Z","stale":false,"bins":25,"density_birds_km3":17.859375,"heading_deg":188.07023383126693,"speed_ms":12.929344858962693,"peak_altitude_m":400.0,"u_ms":-1.911858682718555,"v_ms":-12.739066284034438}},{"type":"Feature","geometry":{"type":"Point","coordinates":[-78.7369,42.9489]},"properties":{"site":"KBUF","name":"Buffalo NY","scan_time":"2026-09-05T03:55:32Z","stale":false,"bins":25,"density_birds_km3":59.346000000000004,"heading_deg":197.39521120552703,"speed_ms":10.925449061436323,"peak_altitude_m":400.0,"u_ms":-3.285792021927903,"v_ms":-10.388234534200564}},{"type":"Feature","geometry":{"type":"Point","coordinates":[-81.8597,41.4131]},"properties":{"site":"KCLE","name":"Cleveland OH","scan_time":"2026-09-05T03:58:54Z","stale":false,"bins":25,"density_birds_km3":17.099333333333334,"heading_deg":182.94283971084872,"speed_ms":8.572124839175016,"peak_altitude_m":400.0,"u_ms":-0.041779406604545925,"v_ms":-8.21702990369995}},{"type":"Feature","geometry":{"type":"Point","coordinates":[-81.0423,32.6555]},"properties":{"site":"KCLX","name":"Charleston SC","scan_time":"2026-09-05T04:01:30Z","stale":false,"bins":25,"density_birds_km3":2.055625,"heading_deg":60.832780736000984,"speed_ms":5.052489241972856,"peak_altitude_m":0.0,"u_ms":2.5420191989407477,"v_ms":1.3865210195299569}},{"type":"Feature","geometry":{"type":"Point","coordinates":[-74.4108,39.947]},"properties":{"site":"KDIX","name":"Philadelphia PA","scan_time":"2026-09-05T04:01:02Z","stale":false,"bins":25,"density_birds_km3":100.295625,"heading_deg":213.98160538971555,"speed_ms":10.275063842515562,"peak_altitude_m":400.0,"u_ms":-5.771219706741944,"v_ms":-8.313062633589452}},{"type":"Feature","geometry":{"type":"Point","coordinates":[-84.5658,33.3636]},"properties":{"site":"KFFC","name":"Atlanta GA","scan_time":"2026-09-05T04:02:49Z","stale":false,"bins":25,"density_birds_km3":27.741333333333333,"heading_deg":240.98959141765144,"speed_ms":6.846943098835949,"peak_altitude_m":1400.0,"u_ms":-4.310145325717591,"v_ms":-3.580513580603957}},{"type":"Feature","geometry":{"type":"Point","coordinates":[-85.5449,42.8939]},"properties":{"site":"KGRR","name":"Grand Rapids MI","scan_time":"2026-09-05T04:00:01Z","stale":false,"bins":25,"density_birds_km3":32.438,"heading_deg":249.77709075554418,"speed_ms":7.403548307540539,"peak_altitude_m":200.0,"u_ms":-5.995492323817745,"v_ms":-2.256092854060053}},{"type":"Feature","geometry":{"type":"Point","coordinates":[-83.8217,39.4203]},"properties":{"site":"KILN","name":"Wilmington OH","scan_time":"2026-09-05T04:01:23Z","stale":false,"bins":25,"density_birds_km3":37.379333333333335,"heading_deg":175.06298785995003,"speed_ms":9.190518646667497,"peak_altitude_m":400.0,"u_ms":1.402391695946066,"v_ms":-8.42608839108955}},{"type":"Feature","geometry":{"type":"Point","coordinates":[-81.7019,30.4846]},"properties":{"site":"KJAX","name":"Jacksonville FL","scan_time":"2026-09-05T03:59:53Z","stale":false,"bins":25,"density_birds_km3":9.1825,"heading_deg":169.2880060891144,"speed_ms":4.212210117791243,"peak_altitude_m":0.0,"u_ms":1.1433975624702115,"v_ms":-3.952573023762511}},{"type":"Feature","geometry":{"type":"Point","coordinates":[-88.0847,41.6045]},"properties":{"site":"KLOT","name":"Chicago IL","scan_time":"2026-09-05T03:58:31Z","stale":false,"bins":25,"density_birds_km3":20.315333333333335,"heading_deg":126.59265197180639,"speed_ms":9.340727529288221,"peak_altitude_m":400.0,"u_ms":7.3316572047386215,"v_ms":-5.636398779247202}},{"type":"Feature","geometry":{"type":"Point","coordinates":[-78.4292,33.9892]},"properties":{"site":"KLTX","name":"Wilmington NC","scan_time":"2026-09-05T03:59:49Z","stale":false,"bins":25,"density_birds_km3":3.624375,"heading_deg":123.44337656389814,"speed_ms":6.98483359199862,"peak_altitude_m":0.0,"u_ms":1.4941076047594415,"v_ms":-2.548954992240041}},{"type":"Feature","geometry":{"type":"Point","coordinates":[-77.4778,38.9753]},"properties":{"site":"KLWX","name":"Sterling VA","scan_time":"2026-09-05T04:01:06Z","stale":false,"bins":25,"density_birds_km3":56.31375,"heading_deg":185.49364582757812,"speed_ms":9.674479145856917,"peak_altitude_m":1200.0,"u_ms":-1.187586513062973,"v_ms":-9.368493485161263}},{"type":"Feature","geometry":{"type":"Point","coordinates":[-76.8762,34.7759]},"properties":{"site":"KMHX","name":"Morehead City NC","scan_time":"2026-09-05T04:02:11Z","stale":false,"bins":25,"density_birds_km3":7.1293750000000005,"heading_deg":234.17510481450577,"speed_ms":3.9096060712405682,"peak_altitude_m":0.0,"u_ms":-2.266886295841376,"v_ms":-1.6574749956132655}},{"type":"Feature","geometry":{"type":"Point","coordinates":[-80.6542,28.1133]},"properties":{"site":"KMLB","name":"Melbourne FL","scan_time":"2026-09-05T04:01:05Z","stale":false,"bins":25,"density_birds_km3":8.425625,"heading_deg":90.0937112082177,"speed_ms":2.73539277501669,"peak_altitude_m":0.0,"u_ms":1.6948557228692234,"v_ms":0.3753185965432832}},{"type":"Feature","geometry":{"type":"Point","coordinates":[-86.5625,36.2472]},"properties":{"site":"KOHX","name":"Nashville TN","scan_time":"2026-09-05T04:01:41Z","stale":false,"bins":25,"density_birds_km3":28.224666666666668,"heading_deg":137.64481325597657,"speed_ms":3.598337860500272,"peak_altitude_m":400.0,"u_ms":0.12340765760445953,"v_ms":-1.2674426624465596}},{"type":"Feature","geometry":{"type":"Point","coordinates":[-72.8639,40.8655]},"properties":{"site":"KOKX","name":"Upton NY","scan_time":"2026-09-05T04:01:04Z","stale":false,"bins":25,"density_birds_km3":62.040625,"heading_deg":207.09953077397967,"speed_ms":11.168757265904398,"peak_altitude_m":200.0,"u_ms":-5.089416209137158,"v_ms":-9.907690525361406}},{"type":"Feature","geometry":{"type":"Point","coordinates":[-80.2183,40.5317]},"properties":{"site":"KPBZ","name":"Pittsburgh PA","scan_time":"2026-09-05T03:58:41Z","stale":false,"bins":25,"density_birds_km3":61.402857142857144,"heading_deg":182.06697349640322,"speed_ms":8.489025522311666,"peak_altitude_m":600.0,"u_ms":-0.019248987948443565,"v_ms":-8.24413963984924}},{"type":"Feature","geometry":{"type":"Point","coordinates":[-78.4899,35.6655]},"properties":{"site":"KRAX","name":"Raleigh NC","scan_time":"2026-09-05T03:57:56Z","stale":false,"bins":25,"density_birds_km3":15.521875,"heading_deg":8.230467956160728,"speed_ms":5.919417236219516,"peak_altitude_m":200.0,"u_ms":1.11996643345331,"v_ms":1.1266409188336637}},{"type":"Feature","geometry":{"type":"Point","coordinates":[-82.4017,27.7055]},"properties":{"site":"KTBW","name":"Tampa FL","scan_time":"2026-09-05T04:01:57Z","stale":false,"bins":25,"density_birds_km3":7.060625,"heading_deg":261.9968536320839,"speed_ms":2.794083421891605,"peak_altitude_m":0.0,"u_ms":-1.8980437477860432,"v_ms":0.054597945448104826}}]}