{"type":"FeatureCollection","frame":"2026-08-18T01","site_count":20,"fresh_count":20,"failures":{},"features":[{"type":"Feature","geometry":{"type":"Point","coordinates":[-77.0073,36.984]},"properties":{"site":"KAKQ","name":"Wakefield VA","scan_time":"2026-08-18T00:59:22Z","stale":false,"bins":25,"density_birds_km3":4.279375,"heading_deg":94.1882502004417,"speed_ms":4.8933060388945755,"peak_altitude_m":0.0,"u_ms":4.720109665155724,"v_ms":-0.7530896329872788}},{"type":"Feature","geometry":{"type":"Point","coordinates":[-71.1369,41.9558]},"properties":{"site":"KBOX","name":"Boston MA","scan_time":"2026-08-18T01:00:34Z","stale":false,"bins":25,"density_birds_km3":1.38625,"heading_deg":246.58070859283475,"speed_ms":3.752970498474059,"peak_altitude_m":0.0,"u_ms":-3.434425228891149,"v_ms":-1.4944760935910477}},{"type":"Feature","geometry":{"type":"Point","coordinates":[-78.7369,42.9489]},"properties":{"site":"KBUF","name":"Buffalo NY","scan_time":"2026-08-18T00:56:57Z","stale":false,"bins":25,"density_birds_km3":7.069333333333333,"heading_deg":190.00781953665927,"speed_ms":7.085799698227085,"peak_altitude_m":200.0,"u_ms":-1.1687165220671445,"v_ms":-6.774124858543946}},{"type":"Feature","geometry":{"type":"Point","coordinates":[-81.8597,41.4131]},"properties":{"site":"KCLE","name":"Cleveland OH","scan_time":"2026-08-18T00:57:11Z","stale":false,"bins":25,"density_birds_km3":13.272666666666668,"heading_deg":208.48756451947793,"speed_ms":6.306811856317507,"peak_altitude_m":200.0,"u_ms":-2.9528143682491836,"v_ms":-5.535795026375283}},{"type":"Feature","geometry":{"type":"Point","coordinates":[-81.0423,32.6555]},"properties":{"site":"KCLX","name":"Charleston SC","scan_time":"2026-08-18T01:02:13Z","stale":false,"bins":25,"density_birds_km3":6.35875,"heading_deg":105.03104751981361,"speed_ms":5.826092213920566,"peak_altitude_m":0.0,"u_ms":5.389521234762093,"v_ms":-1.590046205269367}},{"type":"Feature","geometry":{"type":"Point","coordinates":[-74.4108,39.947]},"properties":{"site":"KDIX","name":"Philadelphia PA","scan_time":"2026-08-18T00:59:41Z","stale":false,"bins":25,"density_birds_km3":5.18,"heading_deg":307.0758966576347,"speed_ms":3.64041677065136,"peak_altitude_m":200.0,"u_ms":-2.0762827551784375,"v_ms":0.9279223858248065}},{"type":"Feature","geometry":{"type":"Point","coordinates":[-84.5658,33.3636]},"properties":{"site":"KFFC","name":"Atlanta GA","scan_time":"2026-08-18T01:00:59Z","stale":false,"bins":25,"density_birds_km3":3.478666666666667,"heading_deg":64.70918280936252,"speed_ms":6.290872148744489,"peak_altitude_m":200.0,"u_ms":5.537603986965689,"v_ms":2.4875464826528653}},{"type":"Feature","geometry":{"type":"Point","coordinates":[-85.5449,42.8939]},"properties":{"site":"KGRR","name":"Grand Rapids MI","scan_time":"2026-08-18T01:03:50Z","stale":false,"bins":25,"density_birds_km3":3.8440000000000003,"heading_deg":135.19987280509488,"speed_ms":7.398296912937911,"peak_altitude_m":400.0,"u_ms":5.086746444675685,"v_ms":-5.215150884495317}},{"type":"Feature","geometry":{"type":"Point","coordinates":[-83.8217,39.4203]},"properties":{"site":"KILN","name":"Wilmington OH","scan_time":"2026-08-18T00:59:13Z","stale":false,"bins":25,"density_birds_km3":13.303333333333335,"heading_deg":187.11256325219227,"speed_ms":5.759142771205134,"peak_altitude_m":400.0,"u_ms":-0.795522358131141,"v_ms":-5.661552035291759}},{"type":"Feature","geometry":{"type":"Point","coordinates":[-81.7019,30.4846]},"properties":{"site":"KJAX","name":"Jacksonville FL","scan_time":"2026-08-18T01:01:14Z","stale":false,"bins":25,"density_birds_km3":18.0525,"heading_deg":91.13252984281067,"speed_ms":5.8233483274427895,"peak_altitude_m":0.0,"u_ms":4.799295633858127,"v_ms":-0.9530202420477668}},{"type":"Feature","geometry":{"type":"Point","coordinates":[-88.0847,41.6045]},"properties":{"site":"KLOT","name":"Chicago IL","scan_time":"2026-08-18T00:58:37Z","stale":false,"bins":25,"density_birds_km3":1.0833333333333333,"heading_deg":201.27077720760667,"speed_ms":1.3152157598499061,"peak_altitude_m":200.0,"u_ms":0.23911819887429642,"v_ms":-1.228055034396498}},{"type":"Feature","geometry":{"type":"Point","coordinates":[-78.4292,33.9892]},"properties":{"site":"KLTX","name":"Wilmington NC","scan_time":"2026-08-18T00:59:36Z","stale":false,"bins":25,"density_birds_km3":5.15375,"heading_deg":39.93640801089101,"speed_ms":8.695842793682132,"peak_altitude_m":0.0,"u_ms":5.5094595261599215,"v_ms":6.6626961994077}},{"type":"Feature","geometry":{"type":"Point","coordinates":[-77.4778,38.9753]},"properties":{"site":"KLWX","name":"Sterling VA","scan_time":"2026-08-18T01:00:24Z","stale":false,"bins":25,"density_birds_km3":14.64125,"heading_deg":122.56215089877817,"speed_ms":5.534468494674253,"peak_altitude_m":0.0,"u_ms":2.6721906147067633,"v_ms":-3.520891046755358}},{"type":"Feature","geometry":{"type":"Point","coordinates":[-76.8762,34.7759]},"properties":{"site":"KMHX","name":"Morehead City NC","scan_time":"2026-08-18T01:02:03Z","stale":false,"bins":25,"density_birds_km3":2.950625,"heading_deg":67.28564748132791,"speed_ms":8.622313069264985,"peak_altitude_m":0.0,"u_ms":6.922906163948316,"v_ms":3.406399067994069}},{"type":"Feature","geometry":{"type":"Point","coordinates":[-80.6542,28.1133]},"properties":{"site":"KMLB","name":"Melbourne FL","scan_time":"2026-08-18T00:58:43Z","stale":false,"bins":25,"density_birds_km3":19.21125,"heading_deg":142.06761365845327,"speed_ms":6.711499853529929,"peak_altitude_m":0.0,"u_ms":4.183655892979202,"v_ms":-5.195931061419783}},{"type":"Feature","geometry":{"type":"Point","coordinates":[-86.5625,36.2472]},"properties":{"site":"KOHX","name":"Nashville TN","scan_time":"2026-08-18T00:59:03Z","stale":false,"bins":25,"density_birds_km3":25.362000000000002,"heading_deg":164.96438065418118,"speed_ms":6.65470967063586,"peak_altitude_m":600.0,"u_ms":1.7149044502273745,"v_ms":-6.424088005677785}},{"type":"Feature","geometry":{"type":"Point","coordinates":[-72.8639,40.8655]},"properties":{"site":"KOKX","name":"Upton NY","scan_time":"2026-08-18T00:59:40Z","stale":false,"bins":25,"density_birds_km3":3.2350000000000003,"heading_deg":219.8813139362545,"speed_ms":5.8106535189481825,"peak_altitude_m":0.0,"u_ms":-3.460580046403712,"v_ms":-4.420448569218871}},{"type":"Feature","geometry":{"type":"Point","coordinates":[-80.2183,40.5317]},"properties":{"site":"KPBZ","name":"Pittsburgh PA","scan_time":"2026-08-18T00:59:06Z","stale":false,"bins":25,"density_birds_km3":17.975714285714286,"heading_deg":183.09021752508974,"speed_ms":6.906702898550724,"peak_altitude_m":400.0,"u_ms":-0.30263338111164195,"v_ms":-6.761128364389234}},{"type":"Feature","geometry":{"type":"Point","coordinates":[-78.4899,35.6655]},"properties":{"site":"KRAX","name":"Raleigh NC","scan_time":"2026-08-18T00:59:29Z","stale":false,"bins":25,"density_birds_km3":8.1875,"heading_deg":110.0324572525338,"speed_ms":3.2633549816625917,"peak_altitude_m":0.0,"u_ms":3.006424205378973,"v_ms":-1.1743283924205379}},{"type":"Feature","geometry":{"type":"Point","coordinates":[-82.4017,27.7055]},"properties":{"site":"KTBW","name":"Tampa FL","scan_time":"2026-08-18T01:00:14Z","stale":false,"bins":25,"density_birds_km3":21.10625,"heading_deg":107.97417585584682,"speed_ms":8.305504589872669,"peak_altitude_m":0.0,"u_ms":7.852068700029612,"v_ms":-2.4775667752443}}]}