{"type":"FeatureCollection","frame":"2026-09-30T10","site_count":20,"fresh_count":20,"failures":{},"features":[{"type":"Feature","geometry":{"type":"Point","coordinates":[-77.0073,36.984]},"properties":{"site":"KAKQ","name":"Wakefield VA","scan_time":"2026-09-30T09:57:26Z","stale":false,"bins":25,"density_birds_km3":25.19875,"heading_deg":237.83382956841913,"speed_ms":6.3925143239824385,"peak_altitude_m":0.0,"u_ms":-5.354965399211251,"v_ms":-3.3339196864846095}},{"type":"Feature","geometry":{"type":"Point","coordinates":[-71.1369,41.9558]},"properties":{"site":"KBOX","name":"Boston MA","scan_time":"2026-09-30T10:01:55Z","stale":false,"bins":25,"density_birds_km3":1.215,"heading_deg":329.01346761702285,"speed_ms":0.9470987654320987,"peak_altitude_m":0.0,"u_ms":-0.3280864197530864,"v_ms":0.549372427983539}},{"type":"Feature","geometry":{"type":"Point","coordinates":[-78.7369,42.9489]},"properties":{"site":"KBUF","name":"Buffalo NY","scan_time":"2026-09-30T10:00:37Z","stale":false,"bins":25,"density_birds_km3":0.7293333333333334,"heading_deg":68.06552879072146,"speed_ms":6.917778793418647,"peak_altitude_m":200.0,"u_ms":6.306334552102375,"v_ms":2.411197440585009}},{"type":"Feature","geometry":{"type":"Point","coordinates":[-81.8597,41.4131]},"properties":{"site":"KCLE","name":"Cleveland OH","scan_time":"2026-09-30T09:58:25Z","stale":false,"bins":25,"density_birds_km3":1.0693333333333332,"heading_deg":41.24377532874983,"speed_ms":9.506889027431422,"peak_altitude_m":200.0,"u_ms":6.225548628428927,"v_ms":7.069014962593517}},{"type":"Feature","geometry":{"type":"Point","coordinates":[-81.0423,32.6555]},"properties":{"site":"KCLX","name":"Charleston SC","scan_time":"2026-09-30T10:00:17Z","stale":false,"bins":25,"density_birds_km3":4.008125,"heading_deg":274.38428021815037,"speed_ms":6.449346639638236,"peak_altitude_m":0.0,"u_ms":-4.228559176672384,"v_ms":-0.2129642912833309}},{"type":"Feature","geometry":{"type":"Point","coordinates":[-74.4108,39.947]},"properties":{"site":"KDIX","name":"Philadelphia PA","scan_time":"2026-09-30T10:00:35Z","stale":false,"bins":25,"density_birds_km3":8.506874999999999,"heading_deg":205.59549864146896,"speed_ms":6.1188324761205,"peak_altitude_m":200.0,"u_ms":-2.5464570168993386,"v_ms":-5.229999265246142}},{"type":"Feature","geometry":{"type":"Point","coordinates":[-84.5658,33.3636]},"properties":{"site":"KFFC","name":"Atlanta GA","scan_time":"2026-09-30T10:00:03Z","stale":false,"bins":25,"density_birds_km3":5.5,"heading_deg":319.0420890330269,"speed_ms":6.773775621588841,"peak_altitude_m":200.0,"u_ms":-2.8074893875075806,"v_ms":3.643153426318981}},{"type":"Feature","geometry":{"type":"Point","coordinates":[-85.5449,42.8939]},"properties":{"site":"KGRR","name":"Grand Rapids MI","scan_time":"2026-09-30T10:02:52Z","stale":false,"bins":25,"density_birds_km3":0.31,"heading_deg":43.66245104430709,"speed_ms":10.910731182795699,"peak_altitude_m":200.0,"u_ms":7.667698924731183,"v_ms":7.455247311827956}},{"type":"Feature","geometry":{"type":"Point","coordinates":[-83.8217,39.4203]},"properties":{"site":"KILN","name":"Wilmington OH","scan_time":"2026-09-30T10:02:19Z","stale":false,"bins":25,"density_birds_km3":4.406000000000001,"heading_deg":82.25041795832954,"speed_ms":9.244548343168407,"peak_altitude_m":400.0,"u_ms":6.243776668179754,"v_ms":0.38197306702980777}},{"type":"Feature","geometry":{"type":"Point","coordinates":[-81.7019,30.4846]},"properties":{"site":"KJAX","name":"Jacksonville FL","scan_time":"2026-09-30T09:58:55Z","stale":false,"bins":25,"density_birds_km3":8.90625,"heading_deg":267.2242874734144,"speed_ms":4.709738190496245,"peak_altitude_m":0.0,"u_ms":-2.8364399522706534,"v_ms":0.22412367515968254}},{"type":"Feature","geometry":{"type":"Point","coordinates":[-88.0847,41.6045]},"properties":{"site":"KLOT","name":"Chicago IL","scan_time":"2026-09-30T10:02:58Z","stale":false,"bins":25,"density_birds_km3":0.31133333333333335,"heading_deg":43.077070835924246,"speed_ms":9.81245508982036,"peak_altitude_m":200.0,"u_ms":6.8224251497005985,"v_ms":6.977634730538922}},{"type":"Feature","geometry":{"type":"Point","coordinates":[-78.4292,33.9892]},"properties":{"site":"KLTX","name":"Wilmington NC","scan_time":"2026-09-30T10:01:12Z","stale":false,"bins":25,"density_birds_km3":4.5375,"heading_deg":203.1223450337169,"speed_ms":3.6854655647382923,"peak_altitude_m":0.0,"u_ms":-1.4091033057851243,"v_ms":-3.032353994490358}},{"type":"Feature","geometry":{"type":"Point","coordinates":[-77.4778,38.9753]},"properties":{"site":"KLWX","name":"Sterling VA","scan_time":"2026-09-30T09:58:35Z","stale":false,"bins":25,"density_birds_km3":10.071875,"heading_deg":257.742321434668,"speed_ms":5.231113869066087,"peak_altitude_m":200.0,"u_ms":-4.642062053986968,"v_ms":-1.7177238597579894}},{"type":"Feature","geometry":{"type":"Point","coordinates":[-76.8762,34.7759]},"properties":{"site":"KMHX","name":"Morehead City NC","scan_time":"2026-09-30T09:59:55Z","stale":false,"bins":25,"density_birds_km3":1.05875,"heading_deg":115.76299544960641,"speed_ms":1.9895271867612294,"peak_altitude_m":0.0,"u_ms":0.7934515366430259,"v_ms":-0.1606382978723404}},{"type":"Feature","geometry":{"type":"Point","coordinates":[-80.6542,28.1133]},"properties":{"site":"KMLB","name":"Melbourne FL","scan_time":"2026-09-30T10:01:51Z","stale":false,"bins":25,"density_birds_km3":7.51625,"heading_deg":170.6570627751291,"speed_ms":5.554880932556204,"peak_altitude_m":0.0,"u_ms":0.9722189841798501,"v_ms":-5.166003330557869}},{"type":"Feature","geometry":{"type":"Point","coordinates":[-86.5625,36.2472]},"properties":{"site":"KOHX","name":"Nashville TN","scan_time":"2026-09-30T10:01:58Z","stale":false,"bins":25,"density_birds_km3":4.714666666666667,"heading_deg":27.359820477715342,"speed_ms":8.683865950226245,"peak_altitude_m":200.0,"u_ms":3.8467972285067873,"v_ms":6.753614253393666}},{"type":"Feature","geometry":{"type":"Point","coordinates":[-72.8639,40.8655]},"properties":{"site":"KOKX","name":"Upton NY","scan_time":"2026-09-30T10:00:48Z","stale":false,"bins":25,"density_birds_km3":1.32125,"heading_deg":168.65084534710806,"speed_ms":2.997228801515869,"peak_altitude_m":0.0,"u_ms":0.4909663666508764,"v_ms":-2.8963761250592137}},{"type":"Feature","geometry":{"type":"Point","coordinates":[-80.2183,40.5317]},"properties":{"site":"KPBZ","name":"Pittsburgh PA","scan_time":"2026-09-30T10:01:13Z","stale":false,"bins":25,"density_birds_km3":8.890714285714285,"heading_deg":58.79361148659816,"speed_ms":5.814179320318148,"peak_altitude_m":400.0,"u_ms":4.893158190728689,"v_ms":2.9869727645215716}},{"type":"Feature","geometry":{"type":"Point","coordinates":[-78.4899,35.6655]},"properties":{"site":"KRAX","name":"Raleigh NC","scan_time":"2026-09-30T10:00:56Z","stale":false,"bins":25,"density_birds_km3":5.385,"heading_deg":180.55320727525174,"speed_ms":5.421064916966671,"peak_altitude_m":200.0,"u_ms":-0.6490500522587388,"v_ms":-4.950779235861108}},{"type":"Feature","geometry":{"type":"Point","coordinates":[-82.4017,27.7055]},"properties":{"site":"KTBW","name":"Tampa FL","scan_time":"2026-09-30T10:02:12Z","stale":false,"bins":25,"density_birds_km3":8.071250000000001,"heading_deg":313.81356109925485,"speed_ms":4.271622270404212,"peak_altitude_m":0.0,"u_ms":-2.8303840792937893,"v_ms":2.8321542512002478}}]}