{"type":"FeatureCollection","frame":"2026-09-23T11","site_count":20,"fresh_count":20,"failures":{},"features":[{"type":"Feature","geometry":{"type":"Point","coordinates":[-77.0073,36.984]},"properties":{"site":"KAKQ","name":"Wakefield VA","scan_time":"2026-09-23T11:01:16Z","stale":false,"bins":25,"density_birds_km3":0.0,"heading_deg":null,"speed_ms":null,"peak_altitude_m":600.0,"u_ms":null,"v_ms":null}},{"type":"Feature","geometry":{"type":"Point","coordinates":[-71.1369,41.9558]},"properties":{"site":"KBOX","name":"Boston MA","scan_time":"2026-09-23T11:00:49Z","stale":false,"bins":25,"density_birds_km3":1.84625,"heading_deg":216.98994240736278,"speed_ms":5.416651997291808,"peak_altitude_m":0.0,"u_ms":-3.3139878131347325,"v_ms":-4.257748815165876}},{"type":"Feature","geometry":{"type":"Point","coordinates":[-78.7369,42.9489]},"properties":{"site":"KBUF","name":"Buffalo NY","scan_time":"2026-09-23T10:58:14Z","stale":false,"bins":25,"density_birds_km3":1.7346666666666666,"heading_deg":270.55537278028083,"speed_ms":5.118242983467897,"peak_altitude_m":200.0,"u_ms":-5.076685890042292,"v_ms":-0.13220299884659745}},{"type":"Feature","geometry":{"type":"Point","coordinates":[-81.8597,41.4131]},"properties":{"site":"KCLE","name":"Cleveland OH","scan_time":"2026-09-23T10:56:57Z","stale":false,"bins":25,"density_birds_km3":0.8233333333333334,"heading_deg":null,"speed_ms":null,"peak_altitude_m":200.0,"u_ms":null,"v_ms":null}},{"type":"Feature","geometry":{"type":"Point","coordinates":[-81.0423,32.6555]},"properties":{"site":"KCLX","name":"Charleston SC","scan_time":"2026-09-23T10:58:54Z","stale":false,"bins":25,"density_birds_km3":0.8256249999999999,"heading_deg":206.54629033517764,"speed_ms":7.60072188449848,"peak_altitude_m":0.0,"u_ms":-3.40411094224924,"v_ms":-6.79104103343465}},{"type":"Feature","geometry":{"type":"Point","coordinates":[-74.4108,39.947]},"properties":{"site":"KDIX","name":"Philadelphia PA","scan_time":"2026-09-23T10:58:12Z","stale":false,"bins":25,"density_birds_km3":0.2025,"heading_deg":226.29999999999998,"speed_ms":9.08,"peak_altitude_m":200.0,"u_ms":-6.57,"v_ms":-6.28}},{"type":"Feature","geometry":{"type":"Point","coordinates":[-84.5658,33.3636]},"properties":{"site":"KFFC","name":"Atlanta GA","scan_time":"2026-09-23T10:57:37Z","stale":false,"bins":25,"density_birds_km3":18.63266666666667,"heading_deg":217.03504371963697,"speed_ms":10.196222087031206,"peak_altitude_m":1000.0,"u_ms":-5.89362904380189,"v_ms":-8.257055897509305}},{"type":"Feature","geometry":{"type":"Point","coordinates":[-85.5449,42.8939]},"properties":{"site":"KGRR","name":"Grand Rapids MI","scan_time":"2026-09-23T11:00:45Z","stale":false,"bins":25,"density_birds_km3":0.12533333333333332,"heading_deg":251.0636344003994,"speed_ms":9.199787234042553,"peak_altitude_m":200.0,"u_ms":-8.642819148936171,"v_ms":-2.8164893617021276}},{"type":"Feature","geometry":{"type":"Point","coordinates":[-83.8217,39.4203]},"properties":{"site":"KILN","name":"Wilmington OH","scan_time":"2026-09-23T11:03:23Z","stale":false,"bins":25,"density_birds_km3":0.8316666666666667,"heading_deg":251.6085589500512,"speed_ms":5.14044776119403,"peak_altitude_m":200.0,"u_ms":-4.852899786780383,"v_ms":-1.6380383795309168}},{"type":"Feature","geometry":{"type":"Point","coordinates":[-81.7019,30.4846]},"properties":{"site":"KJAX","name":"Jacksonville FL","scan_time":"2026-09-23T10:58:01Z","stale":false,"bins":25,"density_birds_km3":5.636875,"heading_deg":194.7693999643149,"speed_ms":10.547555161326091,"peak_altitude_m":0.0,"u_ms":-2.7254751081051114,"v_ms":-10.126454152345051}},{"type":"Feature","geometry":{"type":"Point","coordinates":[-88.0847,41.6045]},"properties":{"site":"KLOT","name":"Chicago IL","scan_time":"2026-09-23T11:01:03Z","stale":false,"bins":25,"density_birds_km3":0.7173333333333333,"heading_deg":238.22520658130946,"speed_ms":7.434402985074628,"peak_altitude_m":200.0,"u_ms":-6.343367537313433,"v_ms":-3.7488152985074623}},{"type":"Feature","geometry":{"type":"Point","coordinates":[-78.4292,33.9892]},"properties":{"site":"KLTX","name":"Wilmington NC","scan_time":"2026-09-23T10:58:27Z","stale":false,"bins":25,"density_birds_km3":0.22125,"heading_deg":187.98256387501098,"speed_ms":9.817313432835821,"peak_altitude_m":0.0,"u_ms":-1.3653731343283584,"v_ms":-9.625522388059702}},{"type":"Feature","geometry":{"type":"Point","coordinates":[-77.4778,38.9753]},"properties":{"site":"KLWX","name":"Sterling VA","scan_time":"2026-09-23T11:01:30Z","stale":false,"bins":25,"density_birds_km3":0.2571428571428572,"heading_deg":null,"speed_ms":null,"peak_altitude_m":0.0,"u_ms":null,"v_ms":null}},{"type":"Feature","geometry":{"type":"Point","coordinates":[-76.8762,34.7759]},"properties":{"site":"KMHX","name":"Morehead City NC","scan_time":"2026-09-23T11:00:36Z","stale":false,"bins":25,"density_birds_km3":0.16312500000000002,"heading_deg":200.19937645422863,"speed_ms":9.971417624521072,"peak_altitude_m":0.0,"u_ms":-3.456628352490421,"v_ms":-9.29647509578544}},{"type":"Feature","geometry":{"type":"Point","coordinates":[-80.6542,28.1133]},"properties":{"site":"KMLB","name":"Melbourne FL","scan_time":"2026-09-23T11:02:01Z","stale":false,"bins":25,"density_birds_km3":6.601875,"heading_deg":82.82349972169192,"speed_ms":2.3367461895294896,"peak_altitude_m":200.0,"u_ms":1.8656499100634287,"v_ms":0.1578623497112563}},{"type":"Feature","geometry":{"type":"Point","coordinates":[-86.5625,36.2472]},"properties":{"site":"KOHX","name":"Nashville TN","scan_time":"2026-09-23T10:57:55Z","stale":false,"bins":25,"density_birds_km3":7.156000000000001,"heading_deg":157.19140331659636,"speed_ms":6.146350419384903,"peak_altitude_m":800.0,"u_ms":2.7433476234855547,"v_ms":-5.073275862068965}},{"type":"Feature","geometry":{"type":"Point","coordinates":[-72.8639,40.8655]},"properties":{"site":"KOKX","name":"Upton NY","scan_time":"2026-09-23T10:56:34Z","stale":false,"bins":25,"density_birds_km3":1.851875,"heading_deg":230.99143436320415,"speed_ms":8.069890410958903,"peak_altitude_m":0.0,"u_ms":-6.335729941291584,"v_ms":-4.94986301369863}},{"type":"Feature","geometry":{"type":"Point","coordinates":[-80.2183,40.5317]},"properties":{"site":"KPBZ","name":"Pittsburgh PA","scan_time":"2026-09-23T10:59:00Z","stale":false,"bins":25,"density_birds_km3":0.08571428571428572,"heading_deg":264.9776357029246,"speed_ms":8.85525,"peak_altitude_m":400.0,"u_ms":-8.781583333333332,"v_ms":-0.7072500000000002}},{"type":"Feature","geometry":{"type":"Point","coordinates":[-78.4899,35.6655]},"properties":{"site":"KRAX","name":"Raleigh NC","scan_time":"2026-09-23T10:57:42Z","stale":false,"bins":25,"density_birds_km3":2.06,"heading_deg":null,"speed_ms":null,"peak_altitude_m":0.0,"u_ms":null,"v_ms":null}},{"type":"Feature","geometry":{"type":"Point","coordinates":[-82.4017,27.7055]},"properties":{"site":"KTBW","name":"Tampa FL","scan_time":"2026-09-23T11:00:32Z","stale":false,"bins":25,"density_birds_km3":3.863125,"heading_deg":325.87641831613377,"speed_ms":3.689807474518686,"peak_altitude_m":0.0,"u_ms":-1.9777463193657985,"v_ms":2.7202620935123765}}]}