{"type":"FeatureCollection","frame":"2026-09-11T07","site_count":20,"fresh_count":20,"failures":{},"features":[{"type":"Feature","geometry":{"type":"Point","coordinates":[-77.0073,36.984]},"properties":{"site":"KAKQ","name":"Wakefield VA","scan_time":"2026-09-11T06:57:53Z","stale":false,"bins":25,"density_birds_km3":14.405625,"heading_deg":113.17350420692323,"speed_ms":7.659850752744154,"peak_altitude_m":0.0,"u_ms":6.931519371773178,"v_ms":-2.991961907241095}},{"type":"Feature","geometry":{"type":"Point","coordinates":[-71.1369,41.9558]},"properties":{"site":"KBOX","name":"Boston MA","scan_time":"2026-09-11T07:01:28Z","stale":false,"bins":25,"density_birds_km3":3.1862500000000002,"heading_deg":125.57250388020553,"speed_ms":8.612895821071218,"peak_altitude_m":0.0,"u_ms":6.837916421424367,"v_ms":-5.1134628212674125}},{"type":"Feature","geometry":{"type":"Point","coordinates":[-78.7369,42.9489]},"properties":{"site":"KBUF","name":"Buffalo NY","scan_time":"2026-09-11T07:00:36Z","stale":false,"bins":25,"density_birds_km3":54.324,"heading_deg":182.15319902875245,"speed_ms":11.698038313329896,"peak_altitude_m":400.0,"u_ms":-0.4531561249785239,"v_ms":-11.6615351103257}},{"type":"Feature","geometry":{"type":"Point","coordinates":[-81.8597,41.4131]},"properties":{"site":"KCLE","name":"Cleveland OH","scan_time":"2026-09-11T06:59:58Z","stale":false,"bins":25,"density_birds_km3":52.424,"heading_deg":202.37115502627,"speed_ms":10.419493107482577,"peak_altitude_m":400.0,"u_ms":-3.6041615799379416,"v_ms":-8.851291520423215}},{"type":"Feature","geometry":{"type":"Point","coordinates":[-81.0423,32.6555]},"properties":{"site":"KCLX","name":"Charleston SC","scan_time":"2026-09-11T07:01:11Z","stale":false,"bins":25,"density_birds_km3":3.90875,"heading_deg":18.703894485147174,"speed_ms":3.3447329708986246,"peak_altitude_m":0.0,"u_ms":1.2834314039015031,"v_ms":0.8577070674768148}},{"type":"Feature","geometry":{"type":"Point","coordinates":[-74.4108,39.947]},"properties":{"site":"KDIX","name":"Philadelphia PA","scan_time":"2026-09-11T07:02:15Z","stale":false,"bins":25,"density_birds_km3":25.0225,"heading_deg":189.75560699100856,"speed_ms":7.40542815600847,"peak_altitude_m":400.0,"u_ms":-1.52899242404918,"v_ms":-7.052314108614137}},{"type":"Feature","geometry":{"type":"Point","coordinates":[-84.5658,33.3636]},"properties":{"site":"KFFC","name":"Atlanta GA","scan_time":"2026-09-11T06:57:07Z","stale":false,"bins":25,"density_birds_km3":28.022666666666666,"heading_deg":99.62607025232596,"speed_ms":4.713054432126374,"peak_altitude_m":400.0,"u_ms":4.067088071561117,"v_ms":-0.5673549983346815}},{"type":"Feature","geometry":{"type":"Point","coordinates":[-85.5449,42.8939]},"properties":{"site":"KGRR","name":"Grand Rapids MI","scan_time":"2026-09-11T07:01:58Z","stale":false,"bins":25,"density_birds_km3":47.102666666666664,"heading_deg":207.03459557839847,"speed_ms":9.520253350883898,"peak_altitude_m":200.0,"u_ms":-3.4794972612627917,"v_ms":-8.111280483489733}},{"type":"Feature","geometry":{"type":"Point","coordinates":[-83.8217,39.4203]},"properties":{"site":"KILN","name":"Wilmington OH","scan_time":"2026-09-11T06:59:19Z","stale":false,"bins":25,"density_birds_km3":70.764,"heading_deg":205.46242600051423,"speed_ms":9.541535903378364,"peak_altitude_m":400.0,"u_ms":-2.99834416746745,"v_ms":-6.76478501309517}},{"type":"Feature","geometry":{"type":"Point","coordinates":[-81.7019,30.4846]},"properties":{"site":"KJAX","name":"Jacksonville FL","scan_time":"2026-09-11T06:59:52Z","stale":false,"bins":25,"density_birds_km3":5.624375,"heading_deg":116.81003074546467,"speed_ms":3.49582212340189,"peak_altitude_m":0.0,"u_ms":1.7711450806003333,"v_ms":-2.4793096164535853}},{"type":"Feature","geometry":{"type":"Point","coordinates":[-88.0847,41.6045]},"properties":{"site":"KLOT","name":"Chicago IL","scan_time":"2026-09-11T07:01:27Z","stale":false,"bins":25,"density_birds_km3":51.866,"heading_deg":222.7335597706576,"speed_ms":9.006683504929368,"peak_altitude_m":200.0,"u_ms":-4.3495622051697325,"v_ms":-4.93976400724945}},{"type":"Feature","geometry":{"type":"Point","coordinates":[-78.4292,33.9892]},"properties":{"site":"KLTX","name":"Wilmington NC","scan_time":"2026-09-11T06:58:45Z","stale":false,"bins":25,"density_birds_km3":2.744375,"heading_deg":77.01706237780111,"speed_ms":7.970983840304182,"peak_altitude_m":0.0,"u_ms":6.551366444866921,"v_ms":1.4564092205323194}},{"type":"Feature","geometry":{"type":"Point","coordinates":[-77.4778,38.9753]},"properties":{"site":"KLWX","name":"Sterling VA","scan_time":"2026-09-11T06:57:26Z","stale":false,"bins":25,"density_birds_km3":57.2725,"heading_deg":205.83274238670657,"speed_ms":8.788715598685563,"peak_altitude_m":200.0,"u_ms":-3.5679671133703024,"v_ms":-7.520291897720273}},{"type":"Feature","geometry":{"type":"Point","coordinates":[-76.8762,34.7759]},"properties":{"site":"KMHX","name":"Morehead City NC","scan_time":"2026-09-11T06:59:01Z","stale":false,"bins":25,"density_birds_km3":2.124375,"heading_deg":92.8747642176163,"speed_ms":8.517292525014714,"peak_altitude_m":0.0,"u_ms":7.5738257798705115,"v_ms":-0.33798410829899933}},{"type":"Feature","geometry":{"type":"Point","coordinates":[-80.6542,28.1133]},"properties":{"site":"KMLB","name":"Melbourne FL","scan_time":"2026-09-11T07:01:21Z","stale":false,"bins":25,"density_birds_km3":5.285,"heading_deg":105.11856906414585,"speed_ms":3.328760496747487,"peak_altitude_m":0.0,"u_ms":1.4912134831460673,"v_ms":-0.6226303962152572}},{"type":"Feature","geometry":{"type":"Point","coordinates":[-86.5625,36.2472]},"properties":{"site":"KOHX","name":"Nashville TN","scan_time":"2026-09-11T06:58:31Z","stale":false,"bins":25,"density_birds_km3":59.641333333333336,"heading_deg":185.94488334644763,"speed_ms":5.149364199324853,"peak_altitude_m":400.0,"u_ms":0.07662325903735678,"v_ms":-2.580658268315039}},{"type":"Feature","geometry":{"type":"Point","coordinates":[-72.8639,40.8655]},"properties":{"site":"KOKX","name":"Upton NY","scan_time":"2026-09-11T07:00:20Z","stale":false,"bins":25,"density_birds_km3":4.880625,"heading_deg":198.9829637007986,"speed_ms":7.395165724563207,"peak_altitude_m":0.0,"u_ms":-2.0901991264131556,"v_ms":-6.7042433196300095}},{"type":"Feature","geometry":{"type":"Point","coordinates":[-80.2183,40.5317]},"properties":{"site":"KPBZ","name":"Pittsburgh PA","scan_time":"2026-09-11T07:00:51Z","stale":false,"bins":25,"density_birds_km3":63.08642857142858,"heading_deg":215.9062707754019,"speed_ms":6.233091563727766,"peak_altitude_m":600.0,"u_ms":-1.629625457139299,"v_ms":-4.420524450583667}},{"type":"Feature","geometry":{"type":"Point","coordinates":[-78.4899,35.6655]},"properties":{"site":"KRAX","name":"Raleigh NC","scan_time":"2026-09-11T06:56:52Z","stale":false,"bins":25,"density_birds_km3":13.7625,"heading_deg":131.77145283458034,"speed_ms":5.687404968436351,"peak_altitude_m":0.0,"u_ms":4.0395649212044145,"v_ms":-2.4566424451609974}},{"type":"Feature","geometry":{"type":"Point","coordinates":[-82.4017,27.7055]},"properties":{"site":"KTBW","name":"Tampa FL","scan_time":"2026-09-11T06:58:05Z","stale":false,"bins":25,"density_birds_km3":3.2168750000000004,"heading_deg":304.6888664404004,"speed_ms":2.836394399066511,"peak_altitude_m":200.0,"u_ms":-2.5641365227537922,"v_ms":0.9970108907040062}}]}