{"type":"FeatureCollection","frame":"2026-08-25T03","site_count":20,"fresh_count":20,"failures":{},"features":[{"type":"Feature","geometry":{"type":"Point","coordinates":[-77.0073,36.984]},"properties":{"site":"KAKQ","name":"Wakefield VA","scan_time":"2026-08-25T02:58:42Z","stale":false,"bins":25,"density_birds_km3":14.239375,"heading_deg":228.2579128569237,"speed_ms":3.863219788420175,"peak_altitude_m":200.0,"u_ms":-1.7383354549844168,"v_ms":-2.3454826390413066}},{"type":"Feature","geometry":{"type":"Point","coordinates":[-71.1369,41.9558]},"properties":{"site":"KBOX","name":"Boston MA","scan_time":"2026-08-25T02:59:33Z","stale":false,"bins":25,"density_birds_km3":2.225625,"heading_deg":33.89578422276061,"speed_ms":6.6606290367874195,"peak_altitude_m":0.0,"u_ms":3.5718702611625948,"v_ms":5.266470092670598}},{"type":"Feature","geometry":{"type":"Point","coordinates":[-78.7369,42.9489]},"properties":{"site":"KBUF","name":"Buffalo NY","scan_time":"2026-08-25T02:58:27Z","stale":false,"bins":25,"density_birds_km3":2.1719999999999997,"heading_deg":121.36708941063172,"speed_ms":8.1764671577655,"peak_altitude_m":400.0,"u_ms":6.913057090239411,"v_ms":-4.251243093922652}},{"type":"Feature","geometry":{"type":"Point","coordinates":[-81.8597,41.4131]},"properties":{"site":"KCLE","name":"Cleveland OH","scan_time":"2026-08-25T03:02:52Z","stale":false,"bins":25,"density_birds_km3":1.338666666666667,"heading_deg":115.54183233342529,"speed_ms":5.811208187718422,"peak_altitude_m":200.0,"u_ms":4.67236145781328,"v_ms":-2.7087918122815777}},{"type":"Feature","geometry":{"type":"Point","coordinates":[-81.0423,32.6555]},"properties":{"site":"KCLX","name":"Charleston SC","scan_time":"2026-08-25T03:00:55Z","stale":false,"bins":25,"density_birds_km3":26.927500000000002,"heading_deg":189.30476462467644,"speed_ms":7.262168725044108,"peak_altitude_m":400.0,"u_ms":-1.0271018664685672,"v_ms":-6.656652196118488}},{"type":"Feature","geometry":{"type":"Point","coordinates":[-74.4108,39.947]},"properties":{"site":"KDIX","name":"Philadelphia PA","scan_time":"2026-08-25T02:58:04Z","stale":false,"bins":25,"density_birds_km3":5.535,"heading_deg":165.6820850134803,"speed_ms":9.375752032520323,"peak_altitude_m":200.0,"u_ms":2.265,"v_ms":-9.05180103884372}},{"type":"Feature","geometry":{"type":"Point","coordinates":[-84.5658,33.3636]},"properties":{"site":"KFFC","name":"Atlanta GA","scan_time":"2026-08-25T03:02:23Z","stale":false,"bins":25,"density_birds_km3":37.592666666666666,"heading_deg":220.04873830055513,"speed_ms":5.429615350511624,"peak_altitude_m":600.0,"u_ms":-3.3754631222401534,"v_ms":-4.144795970845378}},{"type":"Feature","geometry":{"type":"Point","coordinates":[-85.5449,42.8939]},"properties":{"site":"KGRR","name":"Grand Rapids MI","scan_time":"2026-08-25T03:00:16Z","stale":false,"bins":25,"density_birds_km3":7.272,"heading_deg":190.02314120641392,"speed_ms":11.643586238532109,"peak_altitude_m":600.0,"u_ms":-2.1165477064220184,"v_ms":-11.308613761467889}},{"type":"Feature","geometry":{"type":"Point","coordinates":[-83.8217,39.4203]},"properties":{"site":"KILN","name":"Wilmington OH","scan_time":"2026-08-25T03:01:04Z","stale":false,"bins":25,"density_birds_km3":10.531333333333333,"heading_deg":155.26682124790523,"speed_ms":6.581540798885864,"peak_altitude_m":400.0,"u_ms":2.6735544723681715,"v_ms":-5.927398240172185}},{"type":"Feature","geometry":{"type":"Point","coordinates":[-81.7019,30.4846]},"properties":{"site":"KJAX","name":"Jacksonville FL","scan_time":"2026-08-25T02:58:26Z","stale":false,"bins":25,"density_birds_km3":10.133125,"heading_deg":126.9123553911657,"speed_ms":7.2623124255657,"peak_altitude_m":200.0,"u_ms":5.693938732301177,"v_ms":-4.376527722641259}},{"type":"Feature","geometry":{"type":"Point","coordinates":[-88.0847,41.6045]},"properties":{"site":"KLOT","name":"Chicago IL","scan_time":"2026-08-25T02:59:31Z","stale":false,"bins":25,"density_birds_km3":10.526,"heading_deg":249.42173809250733,"speed_ms":5.9585750587637385,"peak_altitude_m":200.0,"u_ms":-4.037889587700908,"v_ms":-1.2596410647354044}},{"type":"Feature","geometry":{"type":"Point","coordinates":[-78.4292,33.9892]},"properties":{"site":"KLTX","name":"Wilmington NC","scan_time":"2026-08-25T02:58:15Z","stale":false,"bins":25,"density_birds_km3":14.015625,"heading_deg":215.8857741020466,"speed_ms":9.446857181100254,"peak_altitude_m":600.0,"u_ms":-5.031099808147058,"v_ms":-7.706527461740953}},{"type":"Feature","geometry":{"type":"Point","coordinates":[-77.4778,38.9753]},"properties":{"site":"KLWX","name":"Sterling VA","scan_time":"2026-08-25T02:57:48Z","stale":false,"bins":25,"density_birds_km3":17.0,"heading_deg":182.4842398725816,"speed_ms":8.789184528842972,"peak_altitude_m":400.0,"u_ms":-0.43378322732453395,"v_ms":-8.609454391705578}},{"type":"Feature","geometry":{"type":"Point","coordinates":[-76.8762,34.7759]},"properties":{"site":"KMHX","name":"Morehead City NC","scan_time":"2026-08-25T03:01:11Z","stale":false,"bins":25,"density_birds_km3":4.946875,"heading_deg":154.49915957390402,"speed_ms":6.327348073278585,"peak_altitude_m":800.0,"u_ms":1.3554024005053695,"v_ms":-5.442670878079595}},{"type":"Feature","geometry":{"type":"Point","coordinates":[-80.6542,28.1133]},"properties":{"site":"KMLB","name":"Melbourne FL","scan_time":"2026-08-25T03:01:31Z","stale":false,"bins":25,"density_birds_km3":6.298125,"heading_deg":113.80985551653153,"speed_ms":2.945145843703335,"peak_altitude_m":0.0,"u_ms":2.5681732205077155,"v_ms":-1.1253499253359882}},{"type":"Feature","geometry":{"type":"Point","coordinates":[-86.5625,36.2472]},"properties":{"site":"KOHX","name":"Nashville TN","scan_time":"2026-08-25T02:58:12Z","stale":false,"bins":25,"density_birds_km3":28.411333333333335,"heading_deg":234.9972021391633,"speed_ms":7.304185418964263,"peak_altitude_m":400.0,"u_ms":-5.775392683670835,"v_ms":-3.9779616115634604}},{"type":"Feature","geometry":{"type":"Point","coordinates":[-72.8639,40.8655]},"properties":{"site":"KOKX","name":"Upton NY","scan_time":"2026-08-25T03:00:47Z","stale":false,"bins":25,"density_birds_km3":2.76875,"heading_deg":138.54043179584937,"speed_ms":6.966437118988485,"peak_altitude_m":0.0,"u_ms":4.609327161887559,"v_ms":-5.091350191916911}},{"type":"Feature","geometry":{"type":"Point","coordinates":[-80.2183,40.5317]},"properties":{"site":"KPBZ","name":"Pittsburgh PA","scan_time":"2026-08-25T03:03:22Z","stale":false,"bins":25,"density_birds_km3":3.4364285714285714,"heading_deg":144.08952039341415,"speed_ms":6.737147609147609,"peak_altitude_m":600.0,"u_ms":3.8113201663201663,"v_ms":-5.412700623700623}},{"type":"Feature","geometry":{"type":"Point","coordinates":[-78.4899,35.6655]},"properties":{"site":"KRAX","name":"Raleigh NC","scan_time":"2026-08-25T03:00:55Z","stale":false,"bins":25,"density_birds_km3":21.666249999999998,"heading_deg":190.34871170152738,"speed_ms":7.013131202400184,"peak_altitude_m":400.0,"u_ms":-1.141475594276483,"v_ms":-6.915947669051465}},{"type":"Feature","geometry":{"type":"Point","coordinates":[-82.4017,27.7055]},"properties":{"site":"KTBW","name":"Tampa FL","scan_time":"2026-08-25T02:58:34Z","stale":false,"bins":25,"density_birds_km3":6.341875,"heading_deg":153.01802241195787,"speed_ms":4.997111308291434,"peak_altitude_m":0.0,"u_ms":0.5239840283939663,"v_ms":-4.563831213644878}}]}