{"type":"FeatureCollection","frame":"2026-10-06T09","site_count":20,"fresh_count":19,"failures":{"KILN":"RuntimeError('no scan within 20 min of 2026-10-06T09:00Z')"},"features":[{"type":"Feature","geometry":{"type":"Point","coordinates":[-77.0073,36.984]},"properties":{"site":"KAKQ","name":"Wakefield VA","scan_time":"2026-10-06T09:00:11Z","stale":false,"bins":25,"density_birds_km3":18.76125,"heading_deg":210.12922470447174,"speed_ms":16.159610900126587,"peak_altitude_m":200.0,"u_ms":-8.162417216336866,"v_ms":-13.838123792391231}},{"type":"Feature","geometry":{"type":"Point","coordinates":[-71.1369,41.9558]},"properties":{"site":"KBOX","name":"Boston MA","scan_time":"2026-10-06T09:04:00Z","stale":false,"bins":25,"density_birds_km3":1.4024999999999999,"heading_deg":110.58174018057115,"speed_ms":6.78565953654189,"peak_altitude_m":0.0,"u_ms":6.253908199643494,"v_ms":-2.4625668449197864}},{"type":"Feature","geometry":{"type":"Point","coordinates":[-78.7369,42.9489]},"properties":{"site":"KBUF","name":"Buffalo NY","scan_time":"2026-10-06T09:00:08Z","stale":false,"bins":25,"density_birds_km3":3.868666666666667,"heading_deg":190.08173642109733,"speed_ms":10.237244528692056,"peak_altitude_m":200.0,"u_ms":-1.8523953127692572,"v_ms":-10.057229019472686}},{"type":"Feature","geometry":{"type":"Point","coordinates":[-81.8597,41.4131]},"properties":{"site":"KCLE","name":"Cleveland OH","scan_time":"2026-10-06T08:56:52Z","stale":false,"bins":25,"density_birds_km3":6.687333333333333,"heading_deg":238.65695551580387,"speed_ms":7.455264732276397,"peak_altitude_m":200.0,"u_ms":-5.885743344301526,"v_ms":-3.988854322464852}},{"type":"Feature","geometry":{"type":"Point","coordinates":[-81.0423,32.6555]},"properties":{"site":"KCLX","name":"Charleston SC","scan_time":"2026-10-06T08:59:42Z","stale":false,"bins":25,"density_birds_km3":163.170625,"heading_deg":213.04276180572862,"speed_ms":13.58922060113455,"peak_altitude_m":0.0,"u_ms":-7.819474284970105,"v_ms":-10.865396651511263}},{"type":"Feature","geometry":{"type":"Point","coordinates":[-74.4108,39.947]},"properties":{"site":"KDIX","name":"Philadelphia PA","scan_time":"2026-10-06T08:59:41Z","stale":false,"bins":25,"density_birds_km3":1.690625,"heading_deg":176.44503313916977,"speed_ms":10.521648798521259,"peak_altitude_m":0.0,"u_ms":0.7994269870609981,"v_ms":-10.454913123844733}},{"type":"Feature","geometry":{"type":"Point","coordinates":[-84.5658,33.3636]},"properties":{"site":"KFFC","name":"Atlanta GA","scan_time":"2026-10-06T09:00:39Z","stale":false,"bins":25,"density_birds_km3":222.814,"heading_deg":217.32171456181854,"speed_ms":10.477885470990751,"peak_altitude_m":200.0,"u_ms":-6.548014816543544,"v_ms":-7.863356701104957}},{"type":"Feature","geometry":{"type":"Point","coordinates":[-85.5449,42.8939]},"properties":{"site":"KGRR","name":"Grand Rapids MI","scan_time":"2026-10-06T09:00:28Z","stale":false,"bins":25,"density_birds_km3":13.967999999999998,"heading_deg":266.3795284580225,"speed_ms":9.745095933562428,"peak_altitude_m":200.0,"u_ms":-9.579595742649866,"v_ms":-0.42135166093928983}},{"type":"Feature","geometry":{"type":"Point","coordinates":[-81.7019,30.4846]},"properties":{"site":"KJAX","name":"Jacksonville FL","scan_time":"2026-10-06T09:00:13Z","stale":false,"bins":25,"density_birds_km3":154.965625,"heading_deg":197.46946438573184,"speed_ms":10.20164463016594,"peak_altitude_m":0.0,"u_ms":-3.1920886811174483,"v_ms":-9.611467921362365}},{"type":"Feature","geometry":{"type":"Point","coordinates":[-88.0847,41.6045]},"properties":{"site":"KLOT","name":"Chicago IL","scan_time":"2026-10-06T08:59:48Z","stale":false,"bins":25,"density_birds_km3":1.146,"heading_deg":335.15801113276177,"speed_ms":10.806777389277388,"peak_altitude_m":200.0,"u_ms":-4.324475524475524,"v_ms":9.40090909090909}},{"type":"Feature","geometry":{"type":"Point","coordinates":[-78.4292,33.9892]},"properties":{"site":"KLTX","name":"Wilmington NC","scan_time":"2026-10-06T09:01:42Z","stale":false,"bins":25,"density_birds_km3":145.35125,"heading_deg":227.05104067929895,"speed_ms":15.903368235020944,"peak_altitude_m":0.0,"u_ms":-11.652319034391422,"v_ms":-10.751754272052564}},{"type":"Feature","geometry":{"type":"Point","coordinates":[-77.4778,38.9753]},"properties":{"site":"KLWX","name":"Sterling VA","scan_time":"2026-10-06T09:02:10Z","stale":false,"bins":25,"density_birds_km3":17.386875,"heading_deg":205.16158750614957,"speed_ms":11.859836436839457,"peak_altitude_m":0.0,"u_ms":-4.518854338917247,"v_ms":-10.835594579049536}},{"type":"Feature","geometry":{"type":"Point","coordinates":[-76.8762,34.7759]},"properties":{"site":"KMHX","name":"Morehead City NC","scan_time":"2026-10-06T08:59:17Z","stale":false,"bins":25,"density_birds_km3":104.835625,"heading_deg":203.76200301375826,"speed_ms":13.086165742562452,"peak_altitude_m":0.0,"u_ms":-5.30272718058785,"v_ms":-11.940021999642282}},{"type":"Feature","geometry":{"type":"Point","coordinates":[-80.6542,28.1133]},"properties":{"site":"KMLB","name":"Melbourne FL","scan_time":"2026-10-06T08:59:03Z","stale":false,"bins":25,"density_birds_km3":20.78,"heading_deg":175.14749446390908,"speed_ms":7.9064020813908025,"peak_altitude_m":0.0,"u_ms":0.7112010106174993,"v_ms":-7.858971335759618}},{"type":"Feature","geometry":{"type":"Point","coordinates":[-86.5625,36.2472]},"properties":{"site":"KOHX","name":"Nashville TN","scan_time":"2026-10-06T09:01:54Z","stale":false,"bins":25,"density_birds_km3":23.954666666666665,"heading_deg":233.53888001614246,"speed_ms":10.14971195591673,"peak_altitude_m":200.0,"u_ms":-8.03898920182567,"v_ms":-5.615477847044417}},{"type":"Feature","geometry":{"type":"Point","coordinates":[-72.8639,40.8655]},"properties":{"site":"KOKX","name":"Upton NY","scan_time":"2026-10-06T09:02:09Z","stale":false,"bins":25,"density_birds_km3":0.8275,"heading_deg":155.57962754167988,"speed_ms":7.763954198473282,"peak_altitude_m":0.0,"u_ms":3.217129770992366,"v_ms":-7.068129770992366}},{"type":"Feature","geometry":{"type":"Point","coordinates":[-80.2183,40.5317]},"properties":{"site":"KPBZ","name":"Pittsburgh PA","scan_time":"2026-10-06T08:58:23Z","stale":false,"bins":25,"density_birds_km3":13.321428571428571,"heading_deg":216.9935996463733,"speed_ms":10.018050938337801,"peak_altitude_m":600.0,"u_ms":-5.903141554959785,"v_ms":-7.794201608579088}},{"type":"Feature","geometry":{"type":"Point","coordinates":[-78.4899,35.6655]},"properties":{"site":"KRAX","name":"Raleigh NC","scan_time":"2026-10-06T09:00:39Z","stale":false,"bins":25,"density_birds_km3":82.23375,"heading_deg":211.82235288741893,"speed_ms":13.524567676030648,"peak_altitude_m":200.0,"u_ms":-7.321567098382586,"v_ms":-11.02139380396449}},{"type":"Feature","geometry":{"type":"Point","coordinates":[-82.4017,27.7055]},"properties":{"site":"KTBW","name":"Tampa FL","scan_time":"2026-10-06T09:00:39Z","stale":false,"bins":25,"density_birds_km3":9.679375,"heading_deg":270.9396596230575,"speed_ms":4.4015206302059795,"peak_altitude_m":0.0,"u_ms":-4.206825079098598,"v_ms":-0.0400703816103829}}]}