{"type":"FeatureCollection","frame":"2026-08-14T07","site_count":20,"fresh_count":19,"failures":{"KJAX":"RuntimeError('no scan within 20 min of 2026-08-14T07:00Z')"},"features":[{"type":"Feature","geometry":{"type":"Point","coordinates":[-77.0073,36.984]},"properties":{"site":"KAKQ","name":"Wakefield VA","scan_time":"2026-08-14T06:59:12Z","stale":false,"bins":25,"density_birds_km3":1.146875,"heading_deg":32.58365307097106,"speed_ms":2.986468664850136,"peak_altitude_m":0.0,"u_ms":0.7618964577656674,"v_ms":1.7711444141689374}},{"type":"Feature","geometry":{"type":"Point","coordinates":[-71.1369,41.9558]},"properties":{"site":"KBOX","name":"Boston MA","scan_time":"2026-08-14T06:59:08Z","stale":false,"bins":25,"density_birds_km3":1.3275,"heading_deg":171.13822194786138,"speed_ms":7.219726801695713,"peak_altitude_m":0.0,"u_ms":1.0451907677814412,"v_ms":-6.869236928874234}},{"type":"Feature","geometry":{"type":"Point","coordinates":[-78.7369,42.9489]},"properties":{"site":"KBUF","name":"Buffalo NY","scan_time":"2026-08-14T06:57:22Z","stale":false,"bins":25,"density_birds_km3":5.1593333333333335,"heading_deg":218.072750843064,"speed_ms":7.268422276779946,"peak_altitude_m":600.0,"u_ms":-4.533504328724641,"v_ms":-5.471548003618039}},{"type":"Feature","geometry":{"type":"Point","coordinates":[-81.8597,41.4131]},"properties":{"site":"KCLE","name":"Cleveland OH","scan_time":"2026-08-14T06:58:28Z","stale":false,"bins":25,"density_birds_km3":8.094,"heading_deg":260.07830922609753,"speed_ms":6.25600823723229,"peak_altitude_m":400.0,"u_ms":-6.073560131795717,"v_ms":-1.0430955518945633}},{"type":"Feature","geometry":{"type":"Point","coordinates":[-81.0423,32.6555]},"properties":{"site":"KCLX","name":"Charleston SC","scan_time":"2026-08-14T06:56:14Z","stale":false,"bins":25,"density_birds_km3":4.689375,"heading_deg":153.9123590911521,"speed_ms":5.262373016931075,"peak_altitude_m":0.0,"u_ms":2.1192600986535126,"v_ms":-4.5223996800426605}},{"type":"Feature","geometry":{"type":"Point","coordinates":[-74.4108,39.947]},"properties":{"site":"KDIX","name":"Philadelphia PA","scan_time":"2026-08-14T07:00:32Z","stale":false,"bins":25,"density_birds_km3":5.20875,"heading_deg":200.53143966816316,"speed_ms":7.167524930914333,"peak_altitude_m":400.0,"u_ms":-2.5664051423765466,"v_ms":-6.483383395410308}},{"type":"Feature","geometry":{"type":"Point","coordinates":[-84.5658,33.3636]},"properties":{"site":"KFFC","name":"Atlanta GA","scan_time":"2026-08-14T06:58:19Z","stale":false,"bins":25,"density_birds_km3":7.504666666666666,"heading_deg":146.8364798629711,"speed_ms":4.519633972992182,"peak_altitude_m":400.0,"u_ms":2.0612482231698652,"v_ms":-1.9222983297796732}},{"type":"Feature","geometry":{"type":"Point","coordinates":[-85.5449,42.8939]},"properties":{"site":"KGRR","name":"Grand Rapids MI","scan_time":"2026-08-14T06:57:26Z","stale":false,"bins":25,"density_birds_km3":2.9113333333333333,"heading_deg":219.2585764606244,"speed_ms":6.928719945042363,"peak_altitude_m":400.0,"u_ms":-4.142807419280971,"v_ms":-5.322853217311656}},{"type":"Feature","geometry":{"type":"Point","coordinates":[-83.8217,39.4203]},"properties":{"site":"KILN","name":"Wilmington OH","scan_time":"2026-08-14T06:59:20Z","stale":false,"bins":25,"density_birds_km3":9.642666666666665,"heading_deg":239.26105297395236,"speed_ms":3.0743854078464574,"peak_altitude_m":400.0,"u_ms":-2.149377646062659,"v_ms":-1.3636184024837708}},{"type":"Feature","geometry":{"type":"Point","coordinates":[-88.0847,41.6045]},"properties":{"site":"KLOT","name":"Chicago IL","scan_time":"2026-08-14T07:01:49Z","stale":false,"bins":25,"density_birds_km3":1.1286666666666667,"heading_deg":null,"speed_ms":null,"peak_altitude_m":400.0,"u_ms":null,"v_ms":null}},{"type":"Feature","geometry":{"type":"Point","coordinates":[-78.4292,33.9892]},"properties":{"site":"KLTX","name":"Wilmington NC","scan_time":"2026-08-14T06:59:13Z","stale":false,"bins":25,"density_birds_km3":2.861875,"heading_deg":88.20030675563939,"speed_ms":3.534787919165001,"peak_altitude_m":0.0,"u_ms":2.925707306240284,"v_ms":-0.1936353542083056}},{"type":"Feature","geometry":{"type":"Point","coordinates":[-77.4778,38.9753]},"properties":{"site":"KLWX","name":"Sterling VA","scan_time":"2026-08-14T07:00:58Z","stale":false,"bins":25,"density_birds_km3":19.682,"heading_deg":234.99075956875194,"speed_ms":6.943428396510383,"peak_altitude_m":400.0,"u_ms":-5.5492985051783075,"v_ms":-4.081894291107597}},{"type":"Feature","geometry":{"type":"Point","coordinates":[-76.8762,34.7759]},"properties":{"site":"KMHX","name":"Morehead City NC","scan_time":"2026-08-14T07:00:09Z","stale":false,"bins":25,"density_birds_km3":2.71,"heading_deg":96.56551588326145,"speed_ms":4.101127767527676,"peak_altitude_m":0.0,"u_ms":3.8125876383763844,"v_ms":-0.2510401291512915}},{"type":"Feature","geometry":{"type":"Point","coordinates":[-80.6542,28.1133]},"properties":{"site":"KMLB","name":"Melbourne FL","scan_time":"2026-08-14T06:59:00Z","stale":false,"bins":25,"density_birds_km3":2.651875,"heading_deg":18.72860425526116,"speed_ms":6.490813103935894,"peak_altitude_m":0.0,"u_ms":1.9303228847513552,"v_ms":6.081539005420693}},{"type":"Feature","geometry":{"type":"Point","coordinates":[-86.5625,36.2472]},"properties":{"site":"KOHX","name":"Nashville TN","scan_time":"2026-08-14T07:01:02Z","stale":false,"bins":25,"density_birds_km3":7.600666666666667,"heading_deg":42.86299843807094,"speed_ms":7.015827558986054,"peak_altitude_m":200.0,"u_ms":4.809470221910359,"v_ms":4.849869309709674}},{"type":"Feature","geometry":{"type":"Point","coordinates":[-72.8639,40.8655]},"properties":{"site":"KOKX","name":"Upton NY","scan_time":"2026-08-14T07:03:42Z","stale":false,"bins":25,"density_birds_km3":2.123125,"heading_deg":190.11844315058184,"speed_ms":7.428298437039221,"peak_altitude_m":0.0,"u_ms":-1.291279858448835,"v_ms":-7.102270716602771}},{"type":"Feature","geometry":{"type":"Point","coordinates":[-80.2183,40.5317]},"properties":{"site":"KPBZ","name":"Pittsburgh PA","scan_time":"2026-08-14T07:02:04Z","stale":false,"bins":25,"density_birds_km3":13.617142857142857,"heading_deg":235.9636120345552,"speed_ms":5.135521314573709,"peak_altitude_m":800.0,"u_ms":-3.976404871902562,"v_ms":-2.397207055858883}},{"type":"Feature","geometry":{"type":"Point","coordinates":[-78.4899,35.6655]},"properties":{"site":"KRAX","name":"Raleigh NC","scan_time":"2026-08-14T07:01:21Z","stale":false,"bins":25,"density_birds_km3":2.453125,"heading_deg":109.0998372474957,"speed_ms":3.2035668789808915,"peak_altitude_m":200.0,"u_ms":2.802247133757962,"v_ms":-1.0290216560509553}},{"type":"Feature","geometry":{"type":"Point","coordinates":[-82.4017,27.7055]},"properties":{"site":"KTBW","name":"Tampa FL","scan_time":"2026-08-14T06:57:50Z","stale":false,"bins":25,"density_birds_km3":4.5443750000000005,"heading_deg":251.870111001126,"speed_ms":3.300408528198074,"peak_altitude_m":0.0,"u_ms":-2.8988431911966988,"v_ms":-1.1726671251719394}}]}