{"type":"FeatureCollection","frame":"2026-09-09T06","site_count":20,"fresh_count":20,"failures":{},"features":[{"type":"Feature","geometry":{"type":"Point","coordinates":[-77.0073,36.984]},"properties":{"site":"KAKQ","name":"Wakefield VA","scan_time":"2026-09-09T06:01:27Z","stale":false,"bins":25,"density_birds_km3":1.039375,"heading_deg":18.000297828214638,"speed_ms":8.956979542719615,"peak_altitude_m":0.0,"u_ms":0.9701865222623346,"v_ms":2.6372322503008423}},{"type":"Feature","geometry":{"type":"Point","coordinates":[-71.1369,41.9558]},"properties":{"site":"KBOX","name":"Boston MA","scan_time":"2026-09-09T05:57:30Z","stale":false,"bins":25,"density_birds_km3":5.460625,"heading_deg":209.4649434451842,"speed_ms":4.932520036638424,"peak_altitude_m":200.0,"u_ms":-2.2420254179070302,"v_ms":-3.8116830776276625}},{"type":"Feature","geometry":{"type":"Point","coordinates":[-78.7369,42.9489]},"properties":{"site":"KBUF","name":"Buffalo NY","scan_time":"2026-09-09T05:56:24Z","stale":false,"bins":25,"density_birds_km3":0.9953333333333333,"heading_deg":41.45275144920737,"speed_ms":9.819745308310992,"peak_altitude_m":200.0,"u_ms":6.383806970509384,"v_ms":7.068002680965148}},{"type":"Feature","geometry":{"type":"Point","coordinates":[-81.8597,41.4131]},"properties":{"site":"KCLE","name":"Cleveland OH","scan_time":"2026-09-09T06:00:18Z","stale":false,"bins":25,"density_birds_km3":2.074,"heading_deg":50.01067085610879,"speed_ms":11.16852708058124,"peak_altitude_m":200.0,"u_ms":8.66835204755614,"v_ms":6.753279392338176}},{"type":"Feature","geometry":{"type":"Point","coordinates":[-81.0423,32.6555]},"properties":{"site":"KCLX","name":"Charleston SC","scan_time":"2026-09-09T05:58:55Z","stale":false,"bins":25,"density_birds_km3":4.85125,"heading_deg":230.06365842935617,"speed_ms":11.026947599380486,"peak_altitude_m":0.0,"u_ms":-8.354545689210118,"v_ms":-6.832601961796592}},{"type":"Feature","geometry":{"type":"Point","coordinates":[-74.4108,39.947]},"properties":{"site":"KDIX","name":"Philadelphia PA","scan_time":"2026-09-09T06:00:53Z","stale":false,"bins":25,"density_birds_km3":3.734375,"heading_deg":81.7125529059918,"speed_ms":4.7566292887029284,"peak_altitude_m":0.0,"u_ms":3.347178242677824,"v_ms":1.2794560669456068}},{"type":"Feature","geometry":{"type":"Point","coordinates":[-84.5658,33.3636]},"properties":{"site":"KFFC","name":"Atlanta GA","scan_time":"2026-09-09T06:00:17Z","stale":false,"bins":25,"density_birds_km3":12.312000000000001,"heading_deg":267.9928297436478,"speed_ms":8.26412876326619,"peak_altitude_m":200.0,"u_ms":-7.179957764782326,"v_ms":0.15970435347628334}},{"type":"Feature","geometry":{"type":"Point","coordinates":[-85.5449,42.8939]},"properties":{"site":"KGRR","name":"Grand Rapids MI","scan_time":"2026-09-09T06:03:21Z","stale":false,"bins":25,"density_birds_km3":1.076,"heading_deg":33.05985263318285,"speed_ms":11.25977581521739,"peak_altitude_m":200.0,"u_ms":6.385652173913043,"v_ms":8.899735054347826}},{"type":"Feature","geometry":{"type":"Point","coordinates":[-83.8217,39.4203]},"properties":{"site":"KILN","name":"Wilmington OH","scan_time":"2026-09-09T05:58:41Z","stale":false,"bins":25,"density_birds_km3":3.622,"heading_deg":62.122969773744806,"speed_ms":13.193441928952696,"peak_altitude_m":200.0,"u_ms":10.622849254555495,"v_ms":5.481275538376588}},{"type":"Feature","geometry":{"type":"Point","coordinates":[-81.7019,30.4846]},"properties":{"site":"KJAX","name":"Jacksonville FL","scan_time":"2026-09-09T05:58:29Z","stale":false,"bins":25,"density_birds_km3":24.195625,"heading_deg":189.72147501581782,"speed_ms":9.428529913205207,"peak_altitude_m":0.0,"u_ms":-1.510604463732176,"v_ms":-9.23767152304195}},{"type":"Feature","geometry":{"type":"Point","coordinates":[-88.0847,41.6045]},"properties":{"site":"KLOT","name":"Chicago IL","scan_time":"2026-09-09T05:58:05Z","stale":false,"bins":25,"density_birds_km3":2.886,"heading_deg":55.686462740416445,"speed_ms":12.978929263565892,"peak_altitude_m":200.0,"u_ms":10.767194767441861,"v_ms":7.11672722868217}},{"type":"Feature","geometry":{"type":"Point","coordinates":[-78.4292,33.9892]},"properties":{"site":"KLTX","name":"Wilmington NC","scan_time":"2026-09-09T05:59:25Z","stale":false,"bins":25,"density_birds_km3":3.5012499999999998,"heading_deg":240.36777344954788,"speed_ms":9.962483485091948,"peak_altitude_m":0.0,"u_ms":-8.563988573469024,"v_ms":-4.886684520621317}},{"type":"Feature","geometry":{"type":"Point","coordinates":[-77.4778,38.9753]},"properties":{"site":"KLWX","name":"Sterling VA","scan_time":"2026-09-09T06:01:46Z","stale":false,"bins":25,"density_birds_km3":3.771875,"heading_deg":30.57691047405875,"speed_ms":8.598196721311474,"peak_altitude_m":0.0,"u_ms":4.245879668751056,"v_ms":6.717928004056109}},{"type":"Feature","geometry":{"type":"Point","coordinates":[-76.8762,34.7759]},"properties":{"site":"KMHX","name":"Morehead City NC","scan_time":"2026-09-09T06:02:18Z","stale":false,"bins":25,"density_birds_km3":1.075,"heading_deg":252.23333605425006,"speed_ms":5.647343023255814,"peak_altitude_m":0.0,"u_ms":-5.0071337209302325,"v_ms":-1.8266046511627905}},{"type":"Feature","geometry":{"type":"Point","coordinates":[-80.6542,28.1133]},"properties":{"site":"KMLB","name":"Melbourne FL","scan_time":"2026-09-09T05:58:04Z","stale":false,"bins":25,"density_birds_km3":6.495,"heading_deg":294.313794400201,"speed_ms":1.991964973056197,"peak_altitude_m":0.0,"u_ms":-0.8277492301770593,"v_ms":1.0177059276366434}},{"type":"Feature","geometry":{"type":"Point","coordinates":[-86.5625,36.2472]},"properties":{"site":"KOHX","name":"Nashville TN","scan_time":"2026-09-09T06:02:09Z","stale":false,"bins":25,"density_birds_km3":9.961333333333332,"heading_deg":15.386693581838536,"speed_ms":9.56004818632044,"peak_altitude_m":200.0,"u_ms":2.8008753848213095,"v_ms":8.446151117654933}},{"type":"Feature","geometry":{"type":"Point","coordinates":[-72.8639,40.8655]},"properties":{"site":"KOKX","name":"Upton NY","scan_time":"2026-09-09T06:03:03Z","stale":false,"bins":25,"density_birds_km3":1.960625,"heading_deg":47.951681653968414,"speed_ms":5.261281887755102,"peak_altitude_m":0.0,"u_ms":2.197114158163265,"v_ms":1.5440019132653062}},{"type":"Feature","geometry":{"type":"Point","coordinates":[-80.2183,40.5317]},"properties":{"site":"KPBZ","name":"Pittsburgh PA","scan_time":"2026-09-09T06:00:37Z","stale":false,"bins":25,"density_birds_km3":6.880714285714285,"heading_deg":57.49250947358768,"speed_ms":10.39260440473717,"peak_altitude_m":400.0,"u_ms":8.801526075212964,"v_ms":5.305429046332848}},{"type":"Feature","geometry":{"type":"Point","coordinates":[-78.4899,35.6655]},"properties":{"site":"KRAX","name":"Raleigh NC","scan_time":"2026-09-09T06:03:30Z","stale":false,"bins":25,"density_birds_km3":2.92625,"heading_deg":324.57338944839853,"speed_ms":6.809611277231952,"peak_altitude_m":0.0,"u_ms":-1.9299359248184536,"v_ms":1.6587313114053823}},{"type":"Feature","geometry":{"type":"Point","coordinates":[-82.4017,27.7055]},"properties":{"site":"KTBW","name":"Tampa FL","scan_time":"2026-09-09T05:59:16Z","stale":false,"bins":25,"density_birds_km3":10.780625,"heading_deg":210.46949664414447,"speed_ms":6.205002609149418,"peak_altitude_m":0.0,"u_ms":-3.0514501072650315,"v_ms":-5.325983069519337}}]}