{"type":"FeatureCollection","frame":"2026-08-17T02","site_count":20,"fresh_count":20,"failures":{},"features":[{"type":"Feature","geometry":{"type":"Point","coordinates":[-77.0073,36.984]},"properties":{"site":"KAKQ","name":"Wakefield VA","scan_time":"2026-08-17T01:58:33Z","stale":false,"bins":25,"density_birds_km3":4.0562499999999995,"heading_deg":37.26708906517706,"speed_ms":7.062405338299193,"peak_altitude_m":200.0,"u_ms":4.511440099317194,"v_ms":5.3896663563004354}},{"type":"Feature","geometry":{"type":"Point","coordinates":[-71.1369,41.9558]},"properties":{"site":"KBOX","name":"Boston MA","scan_time":"2026-08-17T02:02:20Z","stale":false,"bins":25,"density_birds_km3":0.656875,"heading_deg":4.909023821425899,"speed_ms":9.465371428571428,"peak_altitude_m":0.0,"u_ms":1.2563333333333333,"v_ms":8.959333333333333}},{"type":"Feature","geometry":{"type":"Point","coordinates":[-78.7369,42.9489]},"properties":{"site":"KBUF","name":"Buffalo NY","scan_time":"2026-08-17T01:57:20Z","stale":false,"bins":25,"density_birds_km3":1.7280000000000002,"heading_deg":80.20102787456923,"speed_ms":6.799564043209877,"peak_altitude_m":200.0,"u_ms":6.218530092592593,"v_ms":1.1420563271604938}},{"type":"Feature","geometry":{"type":"Point","coordinates":[-81.8597,41.4131]},"properties":{"site":"KCLE","name":"Cleveland OH","scan_time":"2026-08-17T01:59:15Z","stale":false,"bins":25,"density_birds_km3":5.192666666666667,"heading_deg":106.58717523773208,"speed_ms":7.336175186231697,"peak_altitude_m":200.0,"u_ms":6.519180580529155,"v_ms":-2.19774466992037}},{"type":"Feature","geometry":{"type":"Point","coordinates":[-81.0423,32.6555]},"properties":{"site":"KCLX","name":"Charleston SC","scan_time":"2026-08-17T01:58:46Z","stale":false,"bins":25,"density_birds_km3":6.7825,"heading_deg":143.25895796489968,"speed_ms":3.461027049013626,"peak_altitude_m":200.0,"u_ms":0.800700630465731,"v_ms":-2.010895871466341}},{"type":"Feature","geometry":{"type":"Point","coordinates":[-74.4108,39.947]},"properties":{"site":"KDIX","name":"Philadelphia PA","scan_time":"2026-08-17T02:00:08Z","stale":false,"bins":25,"density_birds_km3":0.295,"heading_deg":333.0010264903721,"speed_ms":11.828062953995158,"peak_altitude_m":200.0,"u_ms":-4.446295399515739,"v_ms":10.268256658595641}},{"type":"Feature","geometry":{"type":"Point","coordinates":[-84.5658,33.3636]},"properties":{"site":"KFFC","name":"Atlanta GA","scan_time":"2026-08-17T01:57:54Z","stale":false,"bins":25,"density_birds_km3":18.850666666666665,"heading_deg":164.90538249621164,"speed_ms":5.104962158721177,"peak_altitude_m":200.0,"u_ms":0.9323546470505023,"v_ms":-3.6093595275145}},{"type":"Feature","geometry":{"type":"Point","coordinates":[-85.5449,42.8939]},"properties":{"site":"KGRR","name":"Grand Rapids MI","scan_time":"2026-08-17T01:59:30Z","stale":false,"bins":25,"density_birds_km3":13.648,"heading_deg":140.69059797429819,"speed_ms":9.307223529411765,"peak_altitude_m":400.0,"u_ms":5.190758333333333,"v_ms":-7.113725490196079}},{"type":"Feature","geometry":{"type":"Point","coordinates":[-83.8217,39.4203]},"properties":{"site":"KILN","name":"Wilmington OH","scan_time":"2026-08-17T02:00:39Z","stale":false,"bins":25,"density_birds_km3":14.462,"heading_deg":102.55463228955468,"speed_ms":7.347580181683353,"peak_altitude_m":600.0,"u_ms":6.332223767148684,"v_ms":-1.452137560252132}},{"type":"Feature","geometry":{"type":"Point","coordinates":[-81.7019,30.4846]},"properties":{"site":"KJAX","name":"Jacksonville FL","scan_time":"2026-08-17T01:59:27Z","stale":false,"bins":25,"density_birds_km3":26.47,"heading_deg":186.1605551091738,"speed_ms":6.79336772761617,"peak_altitude_m":400.0,"u_ms":0.5758816584812996,"v_ms":-6.244639214204761}},{"type":"Feature","geometry":{"type":"Point","coordinates":[-88.0847,41.6045]},"properties":{"site":"KLOT","name":"Chicago IL","scan_time":"2026-08-17T02:01:23Z","stale":false,"bins":25,"density_birds_km3":14.106666666666666,"heading_deg":143.37319417936783,"speed_ms":8.723881408432897,"peak_altitude_m":200.0,"u_ms":5.19961185915671,"v_ms":-6.930640369176307}},{"type":"Feature","geometry":{"type":"Point","coordinates":[-78.4292,33.9892]},"properties":{"site":"KLTX","name":"Wilmington NC","scan_time":"2026-08-17T01:59:00Z","stale":false,"bins":25,"density_birds_km3":8.216875,"heading_deg":4.177406228332614,"speed_ms":4.424961421759861,"peak_altitude_m":200.0,"u_ms":0.3938725617685306,"v_ms":4.370983961855223}},{"type":"Feature","geometry":{"type":"Point","coordinates":[-77.4778,38.9753]},"properties":{"site":"KLWX","name":"Sterling VA","scan_time":"2026-08-17T01:59:25Z","stale":false,"bins":25,"density_birds_km3":3.468125,"heading_deg":54.17655157860695,"speed_ms":6.477993849493488,"peak_altitude_m":0.0,"u_ms":4.763292329956585,"v_ms":2.29953509406657}},{"type":"Feature","geometry":{"type":"Point","coordinates":[-76.8762,34.7759]},"properties":{"site":"KMHX","name":"Morehead City NC","scan_time":"2026-08-17T01:59:32Z","stale":false,"bins":25,"density_birds_km3":1.3656249999999999,"heading_deg":20.688449325425644,"speed_ms":6.736032036613273,"peak_altitude_m":0.0,"u_ms":2.1606453089244853,"v_ms":5.621469107551488}},{"type":"Feature","geometry":{"type":"Point","coordinates":[-80.6542,28.1133]},"properties":{"site":"KMLB","name":"Melbourne FL","scan_time":"2026-08-17T02:00:21Z","stale":false,"bins":25,"density_birds_km3":4.776875,"heading_deg":325.4140985749202,"speed_ms":5.436821989528796,"peak_altitude_m":200.0,"u_ms":-2.551301047120419,"v_ms":3.305998691099476}},{"type":"Feature","geometry":{"type":"Point","coordinates":[-86.5625,36.2472]},"properties":{"site":"KOHX","name":"Nashville TN","scan_time":"2026-08-17T02:01:32Z","stale":false,"bins":25,"density_birds_km3":15.312666666666667,"heading_deg":116.58914673353533,"speed_ms":5.854332796377727,"peak_altitude_m":200.0,"u_ms":4.362139405285385,"v_ms":-1.8896338543253952}},{"type":"Feature","geometry":{"type":"Point","coordinates":[-72.8639,40.8655]},"properties":{"site":"KOKX","name":"Upton NY","scan_time":"2026-08-17T01:58:03Z","stale":false,"bins":25,"density_birds_km3":1.7566666666666666,"heading_deg":14.600000000000001,"speed_ms":8.52,"peak_altitude_m":0.0,"u_ms":2.14,"v_ms":8.25}},{"type":"Feature","geometry":{"type":"Point","coordinates":[-80.2183,40.5317]},"properties":{"site":"KPBZ","name":"Pittsburgh PA","scan_time":"2026-08-17T01:59:04Z","stale":false,"bins":25,"density_birds_km3":1.6707142857142858,"heading_deg":95.55438109342164,"speed_ms":8.45005998286204,"peak_altitude_m":400.0,"u_ms":7.26461439588689,"v_ms":-1.3808140531276778}},{"type":"Feature","geometry":{"type":"Point","coordinates":[-78.4899,35.6655]},"properties":{"site":"KRAX","name":"Raleigh NC","scan_time":"2026-08-17T01:59:50Z","stale":false,"bins":25,"density_birds_km3":4.680625,"heading_deg":43.24093791466533,"speed_ms":7.683862626262626,"peak_altitude_m":400.0,"u_ms":5.241034343434344,"v_ms":5.429962289562289}},{"type":"Feature","geometry":{"type":"Point","coordinates":[-82.4017,27.7055]},"properties":{"site":"KTBW","name":"Tampa FL","scan_time":"2026-08-17T02:00:37Z","stale":false,"bins":25,"density_birds_km3":5.23875,"heading_deg":162.29274241995319,"speed_ms":6.050704141305646,"peak_altitude_m":0.0,"u_ms":1.8058933046902972,"v_ms":-5.6929538131041895}}]}