{"type":"FeatureCollection","frame":"2026-09-19T06","site_count":20,"fresh_count":20,"failures":{},"features":[{"type":"Feature","geometry":{"type":"Point","coordinates":[-77.0073,36.984]},"properties":{"site":"KAKQ","name":"Wakefield VA","scan_time":"2026-09-19T06:00:06Z","stale":false,"bins":25,"density_birds_km3":45.610625,"heading_deg":206.90198681100148,"speed_ms":8.629002192681924,"peak_altitude_m":0.0,"u_ms":-3.8285683157461974,"v_ms":-7.6205907907359185}},{"type":"Feature","geometry":{"type":"Point","coordinates":[-71.1369,41.9558]},"properties":{"site":"KBOX","name":"Boston MA","scan_time":"2026-09-19T05:58:27Z","stale":false,"bins":25,"density_birds_km3":7.183125,"heading_deg":208.51583709716826,"speed_ms":11.441521795875751,"peak_altitude_m":400.0,"u_ms":-5.610093100147916,"v_ms":-9.634115548594796}},{"type":"Feature","geometry":{"type":"Point","coordinates":[-78.7369,42.9489]},"properties":{"site":"KBUF","name":"Buffalo NY","scan_time":"2026-09-19T06:02:17Z","stale":false,"bins":25,"density_birds_km3":74.87266666666666,"heading_deg":235.76728567095654,"speed_ms":10.21390921475572,"peak_altitude_m":200.0,"u_ms":-8.410899749797435,"v_ms":-5.680459001504778}},{"type":"Feature","geometry":{"type":"Point","coordinates":[-81.8597,41.4131]},"properties":{"site":"KCLE","name":"Cleveland OH","scan_time":"2026-09-19T05:58:57Z","stale":false,"bins":25,"density_birds_km3":119.55866666666667,"heading_deg":241.8644006299748,"speed_ms":8.353854286319686,"peak_altitude_m":400.0,"u_ms":-7.23766825770333,"v_ms":-3.7766229689190243}},{"type":"Feature","geometry":{"type":"Point","coordinates":[-81.0423,32.6555]},"properties":{"site":"KCLX","name":"Charleston SC","scan_time":"2026-09-19T06:03:00Z","stale":false,"bins":25,"density_birds_km3":19.4425,"heading_deg":153.91389199236446,"speed_ms":7.643418091809181,"peak_altitude_m":0.0,"u_ms":1.8946261411855474,"v_ms":-6.260834190561913}},{"type":"Feature","geometry":{"type":"Point","coordinates":[-74.4108,39.947]},"properties":{"site":"KDIX","name":"Philadelphia PA","scan_time":"2026-09-19T06:02:17Z","stale":false,"bins":25,"density_birds_km3":57.37625,"heading_deg":222.78397451952517,"speed_ms":14.961236356506395,"peak_altitude_m":400.0,"u_ms":-10.073424326267402,"v_ms":-10.858694255027123}},{"type":"Feature","geometry":{"type":"Point","coordinates":[-84.5658,33.3636]},"properties":{"site":"KFFC","name":"Atlanta GA","scan_time":"2026-09-19T06:01:06Z","stale":false,"bins":25,"density_birds_km3":119.56,"heading_deg":161.67698337641676,"speed_ms":7.9829255046280805,"peak_altitude_m":600.0,"u_ms":0.5315952938552471,"v_ms":-6.355617319058771}},{"type":"Feature","geometry":{"type":"Point","coordinates":[-85.5449,42.8939]},"properties":{"site":"KGRR","name":"Grand Rapids MI","scan_time":"2026-09-19T05:56:51Z","stale":false,"bins":25,"density_birds_km3":16.172142857142855,"heading_deg":277.94576385741635,"speed_ms":13.033989841211731,"peak_altitude_m":400.0,"u_ms":-12.73830183498833,"v_ms":1.7255250995286688}},{"type":"Feature","geometry":{"type":"Point","coordinates":[-83.8217,39.4203]},"properties":{"site":"KILN","name":"Wilmington OH","scan_time":"2026-09-19T05:57:19Z","stale":false,"bins":25,"density_birds_km3":49.73666666666667,"heading_deg":250.9357573379699,"speed_ms":10.559706990148113,"peak_altitude_m":200.0,"u_ms":-8.517196434555325,"v_ms":-3.3498540312311507}},{"type":"Feature","geometry":{"type":"Point","coordinates":[-81.7019,30.4846]},"properties":{"site":"KJAX","name":"Jacksonville FL","scan_time":"2026-09-19T06:00:21Z","stale":false,"bins":25,"density_birds_km3":23.460625,"heading_deg":191.17267412013254,"speed_ms":9.896266491824337,"peak_altitude_m":200.0,"u_ms":-2.0245481307035615,"v_ms":-9.661573580967163}},{"type":"Feature","geometry":{"type":"Point","coordinates":[-88.0847,41.6045]},"properties":{"site":"KLOT","name":"Chicago IL","scan_time":"2026-09-19T06:01:56Z","stale":false,"bins":25,"density_birds_km3":23.157333333333334,"heading_deg":289.72532374791774,"speed_ms":12.932905815094992,"peak_altitude_m":200.0,"u_ms":-10.94039527631807,"v_ms":4.15256048969221}},{"type":"Feature","geometry":{"type":"Point","coordinates":[-78.4292,33.9892]},"properties":{"site":"KLTX","name":"Wilmington NC","scan_time":"2026-09-19T05:58:04Z","stale":false,"bins":25,"density_birds_km3":23.920625,"heading_deg":194.93435914944905,"speed_ms":8.050776579594828,"peak_altitude_m":400.0,"u_ms":-1.545285295503324,"v_ms":-7.8697448044809715}},{"type":"Feature","geometry":{"type":"Point","coordinates":[-77.4778,38.9753]},"properties":{"site":"KLWX","name":"Sterling VA","scan_time":"2026-09-19T06:02:02Z","stale":false,"bins":25,"density_birds_km3":182.38923076923078,"heading_deg":223.81646003183798,"speed_ms":11.758553367823172,"peak_altitude_m":400.0,"u_ms":-8.20489817620201,"v_ms":-8.059351500983214}},{"type":"Feature","geometry":{"type":"Point","coordinates":[-76.8762,34.7759]},"properties":{"site":"KMHX","name":"Morehead City NC","scan_time":"2026-09-19T06:00:14Z","stale":false,"bins":25,"density_birds_km3":11.60875,"heading_deg":187.29278026916745,"speed_ms":5.180354296790868,"peak_altitude_m":0.0,"u_ms":-0.3025802283006677,"v_ms":-4.621856558259746}},{"type":"Feature","geometry":{"type":"Point","coordinates":[-80.6542,28.1133]},"properties":{"site":"KMLB","name":"Melbourne FL","scan_time":"2026-09-19T06:02:20Z","stale":false,"bins":25,"density_birds_km3":5.325,"heading_deg":159.70606121087138,"speed_ms":6.360570422535211,"peak_altitude_m":0.0,"u_ms":2.2889659624413143,"v_ms":-5.8537406103286385}},{"type":"Feature","geometry":{"type":"Point","coordinates":[-86.5625,36.2472]},"properties":{"site":"KOHX","name":"Nashville TN","scan_time":"2026-09-19T06:00:41Z","stale":false,"bins":25,"density_birds_km3":121.41666666666667,"heading_deg":246.05546608691822,"speed_ms":5.173239258750857,"peak_altitude_m":200.0,"u_ms":-3.8758643239533286,"v_ms":-2.1818822237474262}},{"type":"Feature","geometry":{"type":"Point","coordinates":[-72.8639,40.8655]},"properties":{"site":"KOKX","name":"Upton NY","scan_time":"2026-09-19T05:57:12Z","stale":false,"bins":25,"density_birds_km3":13.215625,"heading_deg":235.12798969720495,"speed_ms":14.007904464031846,"peak_altitude_m":200.0,"u_ms":-11.506509809496732,"v_ms":-7.923321486115061}},{"type":"Feature","geometry":{"type":"Point","coordinates":[-80.2183,40.5317]},"properties":{"site":"KPBZ","name":"Pittsburgh PA","scan_time":"2026-09-19T05:57:58Z","stale":false,"bins":25,"density_birds_km3":149.18785714285715,"heading_deg":233.73308278873014,"speed_ms":10.081215294235934,"peak_altitude_m":600.0,"u_ms":-7.880005218731896,"v_ms":-5.394242733274922}},{"type":"Feature","geometry":{"type":"Point","coordinates":[-78.4899,35.6655]},"properties":{"site":"KRAX","name":"Raleigh NC","scan_time":"2026-09-19T05:58:12Z","stale":false,"bins":25,"density_birds_km3":51.749375,"heading_deg":213.60688229049995,"speed_ms":9.209329510045224,"peak_altitude_m":200.0,"u_ms":-4.741308970985851,"v_ms":-7.294009238939341}},{"type":"Feature","geometry":{"type":"Point","coordinates":[-82.4017,27.7055]},"properties":{"site":"KTBW","name":"Tampa FL","scan_time":"2026-09-19T05:59:22Z","stale":false,"bins":25,"density_birds_km3":8.024375,"heading_deg":205.30759684405243,"speed_ms":7.101576938059992,"peak_altitude_m":0.0,"u_ms":-2.9636969224776,"v_ms":-6.3782602259446834}}]}