{"type":"FeatureCollection","frame":"2026-09-17T00","site_count":20,"fresh_count":20,"failures":{},"features":[{"type":"Feature","geometry":{"type":"Point","coordinates":[-77.0073,36.984]},"properties":{"site":"KAKQ","name":"Wakefield VA","scan_time":"2026-09-17T00:03:04Z","stale":false,"bins":25,"density_birds_km3":3.448125,"heading_deg":341.4669479090827,"speed_ms":3.75367978042086,"peak_altitude_m":0.0,"u_ms":-1.3636376944190303,"v_ms":2.545857273559012}},{"type":"Feature","geometry":{"type":"Point","coordinates":[-71.1369,41.9558]},"properties":{"site":"KBOX","name":"Boston MA","scan_time":"2026-09-17T00:00:06Z","stale":false,"bins":25,"density_birds_km3":1.379375,"heading_deg":63.13642252387261,"speed_ms":7.816793752870924,"peak_altitude_m":0.0,"u_ms":6.67610473128158,"v_ms":3.2564216812126783}},{"type":"Feature","geometry":{"type":"Point","coordinates":[-78.7369,42.9489]},"properties":{"site":"KBUF","name":"Buffalo NY","scan_time":"2026-09-16T23:55:51Z","stale":false,"bins":25,"density_birds_km3":11.908,"heading_deg":209.22145760608709,"speed_ms":5.747430858806404,"peak_altitude_m":400.0,"u_ms":-2.793019818609338,"v_ms":-4.928692755570485}},{"type":"Feature","geometry":{"type":"Point","coordinates":[-81.8597,41.4131]},"properties":{"site":"KCLE","name":"Cleveland OH","scan_time":"2026-09-17T00:00:07Z","stale":false,"bins":25,"density_birds_km3":5.307333333333333,"heading_deg":217.7974110524924,"speed_ms":5.984042499685653,"peak_altitude_m":200.0,"u_ms":-3.5976738337734187,"v_ms":-4.705932352571356}},{"type":"Feature","geometry":{"type":"Point","coordinates":[-81.0423,32.6555]},"properties":{"site":"KCLX","name":"Charleston SC","scan_time":"2026-09-17T00:01:41Z","stale":false,"bins":25,"density_birds_km3":4.4075,"heading_deg":258.36769538662287,"speed_ms":6.343356451379859,"peak_altitude_m":0.0,"u_ms":-6.137494581707846,"v_ms":-1.359534749313683}},{"type":"Feature","geometry":{"type":"Point","coordinates":[-74.4108,39.947]},"properties":{"site":"KDIX","name":"Philadelphia PA","scan_time":"2026-09-16T23:57:40Z","stale":false,"bins":25,"density_birds_km3":3.49375,"heading_deg":26.729416978884526,"speed_ms":7.368585549964054,"peak_altitude_m":0.0,"u_ms":2.9147214234363767,"v_ms":6.20556793673616}},{"type":"Feature","geometry":{"type":"Point","coordinates":[-84.5658,33.3636]},"properties":{"site":"KFFC","name":"Atlanta GA","scan_time":"2026-09-17T00:03:00Z","stale":false,"bins":25,"density_birds_km3":4.751333333333333,"heading_deg":241.6541636482264,"speed_ms":3.5813726315789474,"peak_altitude_m":200.0,"u_ms":-3.1244898245614037,"v_ms":-1.578075789473684}},{"type":"Feature","geometry":{"type":"Point","coordinates":[-85.5449,42.8939]},"properties":{"site":"KGRR","name":"Grand Rapids MI","scan_time":"2026-09-16T23:59:18Z","stale":false,"bins":25,"density_birds_km3":1.8820000000000001,"heading_deg":269.0025850513891,"speed_ms":5.081360057265569,"peak_altitude_m":200.0,"u_ms":-5.068092340730136,"v_ms":-0.08171796707229778}},{"type":"Feature","geometry":{"type":"Point","coordinates":[-83.8217,39.4203]},"properties":{"site":"KILN","name":"Wilmington OH","scan_time":"2026-09-16T23:57:53Z","stale":false,"bins":25,"density_birds_km3":1.8186666666666667,"heading_deg":46.16644967783765,"speed_ms":5.105392228739003,"peak_altitude_m":200.0,"u_ms":3.615722140762463,"v_ms":3.5535153958944283}},{"type":"Feature","geometry":{"type":"Point","coordinates":[-81.7019,30.4846]},"properties":{"site":"KJAX","name":"Jacksonville FL","scan_time":"2026-09-17T00:01:30Z","stale":false,"bins":25,"density_birds_km3":11.933125,"heading_deg":217.25698387717273,"speed_ms":10.24095952023988,"peak_altitude_m":0.0,"u_ms":-6.189370314842578,"v_ms":-8.142697044334975}},{"type":"Feature","geometry":{"type":"Point","coordinates":[-88.0847,41.6045]},"properties":{"site":"KLOT","name":"Chicago IL","scan_time":"2026-09-17T00:01:26Z","stale":false,"bins":25,"density_birds_km3":0.3653333333333333,"heading_deg":231.87991855073798,"speed_ms":4.691350364963504,"peak_altitude_m":200.0,"u_ms":-3.4415693430656935,"v_ms":-2.74271897810219}},{"type":"Feature","geometry":{"type":"Point","coordinates":[-78.4292,33.9892]},"properties":{"site":"KLTX","name":"Wilmington NC","scan_time":"2026-09-16T23:59:57Z","stale":false,"bins":25,"density_birds_km3":4.38375,"heading_deg":254.47058409102792,"speed_ms":6.470878523393904,"peak_altitude_m":200.0,"u_ms":-5.885635999427671,"v_ms":-1.7017699241665474}},{"type":"Feature","geometry":{"type":"Point","coordinates":[-77.4778,38.9753]},"properties":{"site":"KLWX","name":"Sterling VA","scan_time":"2026-09-16T23:59:40Z","stale":false,"bins":25,"density_birds_km3":4.261875,"heading_deg":4.938936736299317,"speed_ms":7.612133433283359,"peak_altitude_m":0.0,"u_ms":0.6367001499250374,"v_ms":7.351179910044976}},{"type":"Feature","geometry":{"type":"Point","coordinates":[-76.8762,34.7759]},"properties":{"site":"KMHX","name":"Morehead City NC","scan_time":"2026-09-17T00:03:25Z","stale":false,"bins":25,"density_birds_km3":5.49,"heading_deg":250.82943547270895,"speed_ms":5.3555463142303745,"peak_altitude_m":200.0,"u_ms":-4.625309331206562,"v_ms":-1.43990999202461}},{"type":"Feature","geometry":{"type":"Point","coordinates":[-80.6542,28.1133]},"properties":{"site":"KMLB","name":"Melbourne FL","scan_time":"2026-09-17T00:01:29Z","stale":false,"bins":25,"density_birds_km3":16.13375,"heading_deg":194.1910091402082,"speed_ms":10.512714734028126,"peak_altitude_m":0.0,"u_ms":-2.578184494982759,"v_ms":-10.183176940064312}},{"type":"Feature","geometry":{"type":"Point","coordinates":[-86.5625,36.2472]},"properties":{"site":"KOHX","name":"Nashville TN","scan_time":"2026-09-17T00:01:42Z","stale":false,"bins":25,"density_birds_km3":0.28800000000000003,"heading_deg":270.34365985796774,"speed_ms":4.446418604651163,"peak_altitude_m":200.0,"u_ms":-4.429255813953488,"v_ms":-0.029534883720930247}},{"type":"Feature","geometry":{"type":"Point","coordinates":[-72.8639,40.8655]},"properties":{"site":"KOKX","name":"Upton NY","scan_time":"2026-09-16T23:58:43Z","stale":false,"bins":25,"density_birds_km3":0.54125,"heading_deg":43.077936090034314,"speed_ms":6.984871794871794,"peak_altitude_m":0.0,"u_ms":4.5265501165501165,"v_ms":4.9175291375291375}},{"type":"Feature","geometry":{"type":"Point","coordinates":[-80.2183,40.5317]},"properties":{"site":"KPBZ","name":"Pittsburgh PA","scan_time":"2026-09-16T23:59:43Z","stale":false,"bins":25,"density_birds_km3":1.5535714285714286,"heading_deg":91.28914516980767,"speed_ms":4.080197701149425,"peak_altitude_m":400.0,"u_ms":4.056331034482759,"v_ms":-0.0932413793103448}},{"type":"Feature","geometry":{"type":"Point","coordinates":[-78.4899,35.6655]},"properties":{"site":"KRAX","name":"Raleigh NC","scan_time":"2026-09-16T23:55:42Z","stale":false,"bins":25,"density_birds_km3":5.154375,"heading_deg":263.4628737629305,"speed_ms":2.8289097883925254,"peak_altitude_m":0.0,"u_ms":-2.6109714144289073,"v_ms":-0.3548904838510085}},{"type":"Feature","geometry":{"type":"Point","coordinates":[-82.4017,27.7055]},"properties":{"site":"KTBW","name":"Tampa FL","scan_time":"2026-09-16T23:57:56Z","stale":false,"bins":25,"density_birds_km3":43.028125,"heading_deg":234.84589097317058,"speed_ms":6.557588786404241,"peak_altitude_m":0.0,"u_ms":-5.34901837460963,"v_ms":-3.7764192025564673}}]}