{"type":"FeatureCollection","frame":"2026-08-22T02","site_count":20,"fresh_count":20,"failures":{},"features":[{"type":"Feature","geometry":{"type":"Point","coordinates":[-77.0073,36.984]},"properties":{"site":"KAKQ","name":"Wakefield VA","scan_time":"2026-08-22T01:59:08Z","stale":false,"bins":25,"density_birds_km3":13.637857142857143,"heading_deg":302.6049855904752,"speed_ms":1.4851041193052648,"peak_altitude_m":200.0,"u_ms":-1.3218104937710284,"v_ms":0.6381476766390833}},{"type":"Feature","geometry":{"type":"Point","coordinates":[-71.1369,41.9558]},"properties":{"site":"KBOX","name":"Boston MA","scan_time":"2026-08-22T01:58:58Z","stale":false,"bins":25,"density_birds_km3":1.95,"heading_deg":224.07169358784893,"speed_ms":9.86101156069364,"peak_altitude_m":0.0,"u_ms":-6.92965960179833,"v_ms":-6.810757867694283}},{"type":"Feature","geometry":{"type":"Point","coordinates":[-78.7369,42.9489]},"properties":{"site":"KBUF","name":"Buffalo NY","scan_time":"2026-08-22T01:57:07Z","stale":false,"bins":25,"density_birds_km3":3.5106666666666664,"heading_deg":275.13950636580967,"speed_ms":9.188433345993163,"peak_altitude_m":200.0,"u_ms":-8.893940372199014,"v_ms":0.548108621344474}},{"type":"Feature","geometry":{"type":"Point","coordinates":[-81.8597,41.4131]},"properties":{"site":"KCLE","name":"Cleveland OH","scan_time":"2026-08-22T02:00:34Z","stale":false,"bins":25,"density_birds_km3":3.7693333333333334,"heading_deg":284.10955033330004,"speed_ms":6.434192348565356,"peak_altitude_m":200.0,"u_ms":-5.7417304286220325,"v_ms":1.2862415869642225}},{"type":"Feature","geometry":{"type":"Point","coordinates":[-81.0423,32.6555]},"properties":{"site":"KCLX","name":"Charleston SC","scan_time":"2026-08-22T02:02:45Z","stale":false,"bins":25,"density_birds_km3":3.275625,"heading_deg":175.75778533005447,"speed_ms":1.2015750487329435,"peak_altitude_m":200.0,"u_ms":0.26252046783625727,"v_ms":-0.48962768031189086}},{"type":"Feature","geometry":{"type":"Point","coordinates":[-74.4108,39.947]},"properties":{"site":"KDIX","name":"Philadelphia PA","scan_time":"2026-08-22T02:00:05Z","stale":false,"bins":25,"density_birds_km3":14.560625,"heading_deg":223.52914746694725,"speed_ms":6.4235106245975535,"peak_altitude_m":400.0,"u_ms":-4.149266795449668,"v_ms":-3.9126172998497535}},{"type":"Feature","geometry":{"type":"Point","coordinates":[-84.5658,33.3636]},"properties":{"site":"KFFC","name":"Atlanta GA","scan_time":"2026-08-22T01:59:37Z","stale":false,"bins":25,"density_birds_km3":11.918000000000001,"heading_deg":323.699245862474,"speed_ms":4.92931416424256,"peak_altitude_m":400.0,"u_ms":-0.4525358021928843,"v_ms":2.0692576639069142}},{"type":"Feature","geometry":{"type":"Point","coordinates":[-85.5449,42.8939]},"properties":{"site":"KGRR","name":"Grand Rapids MI","scan_time":"2026-08-22T02:00:55Z","stale":false,"bins":25,"density_birds_km3":2.8346666666666662,"heading_deg":52.984076652207,"speed_ms":5.909734117647059,"peak_altitude_m":200.0,"u_ms":4.741235294117648,"v_ms":3.2616799999999997}},{"type":"Feature","geometry":{"type":"Point","coordinates":[-83.8217,39.4203]},"properties":{"site":"KILN","name":"Wilmington OH","scan_time":"2026-08-22T01:58:50Z","stale":false,"bins":25,"density_birds_km3":15.446666666666667,"heading_deg":282.02151076345115,"speed_ms":4.274440942842341,"peak_altitude_m":400.0,"u_ms":-2.728718701433259,"v_ms":0.8927914004489724}},{"type":"Feature","geometry":{"type":"Point","coordinates":[-81.7019,30.4846]},"properties":{"site":"KJAX","name":"Jacksonville FL","scan_time":"2026-08-22T01:59:37Z","stale":false,"bins":25,"density_birds_km3":11.655625,"heading_deg":194.19999999999996,"speed_ms":0.56,"peak_altitude_m":0.0,"u_ms":-0.14,"v_ms":-0.54}},{"type":"Feature","geometry":{"type":"Point","coordinates":[-88.0847,41.6045]},"properties":{"site":"KLOT","name":"Chicago IL","scan_time":"2026-08-22T02:00:44Z","stale":false,"bins":25,"density_birds_km3":1.652,"heading_deg":41.78623848158543,"speed_ms":9.1172800645682,"peak_altitude_m":200.0,"u_ms":5.8769814366424535,"v_ms":6.411436642453592}},{"type":"Feature","geometry":{"type":"Point","coordinates":[-78.4292,33.9892]},"properties":{"site":"KLTX","name":"Wilmington NC","scan_time":"2026-08-22T02:01:54Z","stale":false,"bins":25,"density_birds_km3":3.34875,"heading_deg":203.66694591770803,"speed_ms":7.872570669702144,"peak_altitude_m":200.0,"u_ms":-3.1304629102637067,"v_ms":-7.032069815974198}},{"type":"Feature","geometry":{"type":"Point","coordinates":[-77.4778,38.9753]},"properties":{"site":"KLWX","name":"Sterling VA","scan_time":"2026-08-22T02:01:08Z","stale":false,"bins":25,"density_birds_km3":20.52875,"heading_deg":282.1552142069295,"speed_ms":4.023139414276998,"peak_altitude_m":200.0,"u_ms":-3.7504136668700427,"v_ms":0.803613788895668}},{"type":"Feature","geometry":{"type":"Point","coordinates":[-76.8762,34.7759]},"properties":{"site":"KMHX","name":"Morehead City NC","scan_time":"2026-08-22T02:00:22Z","stale":false,"bins":25,"density_birds_km3":3.446875,"heading_deg":277.15341136353175,"speed_ms":3.1494106980961014,"peak_altitude_m":200.0,"u_ms":-2.67177153218495,"v_ms":0.019960108794197587}},{"type":"Feature","geometry":{"type":"Point","coordinates":[-80.6542,28.1133]},"properties":{"site":"KMLB","name":"Melbourne FL","scan_time":"2026-08-22T02:00:04Z","stale":false,"bins":25,"density_birds_km3":16.8525,"heading_deg":349.2366240700022,"speed_ms":3.826544434693021,"peak_altitude_m":0.0,"u_ms":-0.7150776510092723,"v_ms":3.6722104781165337}},{"type":"Feature","geometry":{"type":"Point","coordinates":[-86.5625,36.2472]},"properties":{"site":"KOHX","name":"Nashville TN","scan_time":"2026-08-22T01:59:27Z","stale":false,"bins":25,"density_birds_km3":76.36933333333333,"heading_deg":206.08490260676777,"speed_ms":7.77757991864099,"peak_altitude_m":400.0,"u_ms":-3.421751488381026,"v_ms":-6.95752439897341}},{"type":"Feature","geometry":{"type":"Point","coordinates":[-72.8639,40.8655]},"properties":{"site":"KOKX","name":"Upton NY","scan_time":"2026-08-22T02:02:33Z","stale":false,"bins":25,"density_birds_km3":7.616875,"heading_deg":227.16593930868402,"speed_ms":9.230225817047135,"peak_altitude_m":400.0,"u_ms":-6.659675644605025,"v_ms":-6.203409426835276}},{"type":"Feature","geometry":{"type":"Point","coordinates":[-80.2183,40.5317]},"properties":{"site":"KPBZ","name":"Pittsburgh PA","scan_time":"2026-08-22T01:59:46Z","stale":false,"bins":25,"density_birds_km3":10.957857142857142,"heading_deg":248.1838898346224,"speed_ms":6.814127584632444,"peak_altitude_m":600.0,"u_ms":-5.905290587698128,"v_ms":-1.813865370817298}},{"type":"Feature","geometry":{"type":"Point","coordinates":[-78.4899,35.6655]},"properties":{"site":"KRAX","name":"Raleigh NC","scan_time":"2026-08-22T02:01:39Z","stale":false,"bins":25,"density_birds_km3":32.36666666666667,"heading_deg":334.8,"speed_ms":3.2699999999999996,"peak_altitude_m":400.0,"u_ms":-1.39,"v_ms":2.96}},{"type":"Feature","geometry":{"type":"Point","coordinates":[-82.4017,27.7055]},"properties":{"site":"KTBW","name":"Tampa FL","scan_time":"2026-08-22T02:01:33Z","stale":false,"bins":25,"density_birds_km3":9.977500000000001,"heading_deg":127.73969821685945,"speed_ms":3.5654290563902684,"peak_altitude_m":0.0,"u_ms":2.1794593575155594,"v_ms":-2.5025007858175647}}]}