{"type":"FeatureCollection","frame":"2026-08-30T10","site_count":20,"fresh_count":20,"failures":{},"features":[{"type":"Feature","geometry":{"type":"Point","coordinates":[-77.0073,36.984]},"properties":{"site":"KAKQ","name":"Wakefield VA","scan_time":"2026-08-30T10:03:01Z","stale":false,"bins":25,"density_birds_km3":1.8425000000000002,"heading_deg":236.0512272320416,"speed_ms":7.516431478968792,"peak_altitude_m":0.0,"u_ms":-6.2320861601085475,"v_ms":-4.198303934871099}},{"type":"Feature","geometry":{"type":"Point","coordinates":[-71.1369,41.9558]},"properties":{"site":"KBOX","name":"Boston MA","scan_time":"2026-08-30T10:02:25Z","stale":false,"bins":25,"density_birds_km3":10.115,"heading_deg":83.28153567522543,"speed_ms":9.067982076637826,"peak_altitude_m":400.0,"u_ms":8.670349814585908,"v_ms":1.3574864029666254}},{"type":"Feature","geometry":{"type":"Point","coordinates":[-78.7369,42.9489]},"properties":{"site":"KBUF","name":"Buffalo NY","scan_time":"2026-08-30T09:58:19Z","stale":false,"bins":25,"density_birds_km3":0.9920000000000001,"heading_deg":51.616141708930684,"speed_ms":7.317983251919051,"peak_altitude_m":200.0,"u_ms":5.513558967201675,"v_ms":4.1580251221214235}},{"type":"Feature","geometry":{"type":"Point","coordinates":[-81.8597,41.4131]},"properties":{"site":"KCLE","name":"Cleveland OH","scan_time":"2026-08-30T10:02:32Z","stale":false,"bins":25,"density_birds_km3":0.4346666666666667,"heading_deg":45.08069409073892,"speed_ms":8.387824726134586,"peak_altitude_m":200.0,"u_ms":5.68129890453834,"v_ms":5.4092175273865415}},{"type":"Feature","geometry":{"type":"Point","coordinates":[-81.0423,32.6555]},"properties":{"site":"KCLX","name":"Charleston SC","scan_time":"2026-08-30T10:00:41Z","stale":false,"bins":25,"density_birds_km3":7.210624999999999,"heading_deg":223.83085486882,"speed_ms":11.39708676432348,"peak_altitude_m":0.0,"u_ms":-7.872582993845887,"v_ms":-8.229719164427495}},{"type":"Feature","geometry":{"type":"Point","coordinates":[-74.4108,39.947]},"properties":{"site":"KDIX","name":"Philadelphia PA","scan_time":"2026-08-30T09:59:25Z","stale":false,"bins":25,"density_birds_km3":0.27125,"heading_deg":50.70249372038937,"speed_ms":4.536581395348837,"peak_altitude_m":200.0,"u_ms":3.4410232558139535,"v_ms":2.8183488372093026}},{"type":"Feature","geometry":{"type":"Point","coordinates":[-84.5658,33.3636]},"properties":{"site":"KFFC","name":"Atlanta GA","scan_time":"2026-08-30T09:57:26Z","stale":false,"bins":25,"density_birds_km3":8.512666666666666,"heading_deg":238.9057887691514,"speed_ms":6.724464285714285,"peak_altitude_m":200.0,"u_ms":-5.7287523496240595,"v_ms":-3.4772368421052633}},{"type":"Feature","geometry":{"type":"Point","coordinates":[-85.5449,42.8939]},"properties":{"site":"KGRR","name":"Grand Rapids MI","scan_time":"2026-08-30T09:58:02Z","stale":false,"bins":25,"density_birds_km3":0.358,"heading_deg":null,"speed_ms":null,"peak_altitude_m":200.0,"u_ms":null,"v_ms":null}},{"type":"Feature","geometry":{"type":"Point","coordinates":[-83.8217,39.4203]},"properties":{"site":"KILN","name":"Wilmington OH","scan_time":"2026-08-30T10:01:02Z","stale":false,"bins":25,"density_birds_km3":0.4186666666666667,"heading_deg":37.73942352474764,"speed_ms":8.267761674718196,"peak_altitude_m":200.0,"u_ms":4.939082125603865,"v_ms":5.939339774557165}},{"type":"Feature","geometry":{"type":"Point","coordinates":[-81.7019,30.4846]},"properties":{"site":"KJAX","name":"Jacksonville FL","scan_time":"2026-08-30T10:01:34Z","stale":false,"bins":25,"density_birds_km3":12.27875,"heading_deg":202.1796815388938,"speed_ms":8.7129943445254,"peak_altitude_m":0.0,"u_ms":-3.2686355530646556,"v_ms":-7.988527538594793}},{"type":"Feature","geometry":{"type":"Point","coordinates":[-88.0847,41.6045]},"properties":{"site":"KLOT","name":"Chicago IL","scan_time":"2026-08-30T10:00:47Z","stale":false,"bins":25,"density_birds_km3":0.332,"heading_deg":38.050666495662995,"speed_ms":15.758252873563217,"peak_altitude_m":200.0,"u_ms":9.92696551724138,"v_ms":11.966344827586207}},{"type":"Feature","geometry":{"type":"Point","coordinates":[-78.4292,33.9892]},"properties":{"site":"KLTX","name":"Wilmington NC","scan_time":"2026-08-30T10:02:21Z","stale":false,"bins":25,"density_birds_km3":6.46875,"heading_deg":237.04819446572697,"speed_ms":8.223706280193236,"peak_altitude_m":0.0,"u_ms":-6.899485990338165,"v_ms":-4.457260869565218}},{"type":"Feature","geometry":{"type":"Point","coordinates":[-77.4778,38.9753]},"properties":{"site":"KLWX","name":"Sterling VA","scan_time":"2026-08-30T10:02:12Z","stale":false,"bins":25,"density_birds_km3":1.0106249999999999,"heading_deg":22.929059910394344,"speed_ms":6.743255667506297,"peak_altitude_m":200.0,"u_ms":2.7362405541561716,"v_ms":6.086618387909319}},{"type":"Feature","geometry":{"type":"Point","coordinates":[-76.8762,34.7759]},"properties":{"site":"KMHX","name":"Morehead City NC","scan_time":"2026-08-30T10:02:15Z","stale":false,"bins":25,"density_birds_km3":1.6881249999999999,"heading_deg":225.9529617690046,"speed_ms":5.410536838208071,"peak_altitude_m":0.0,"u_ms":-3.766364309514995,"v_ms":-3.822747130692336}},{"type":"Feature","geometry":{"type":"Point","coordinates":[-80.6542,28.1133]},"properties":{"site":"KMLB","name":"Melbourne FL","scan_time":"2026-08-30T10:00:37Z","stale":false,"bins":25,"density_birds_km3":0.950625,"heading_deg":219.6231628101288,"speed_ms":3.06965811965812,"peak_altitude_m":0.0,"u_ms":-1.933464825772518,"v_ms":-2.3119329388560153}},{"type":"Feature","geometry":{"type":"Point","coordinates":[-86.5625,36.2472]},"properties":{"site":"KOHX","name":"Nashville TN","scan_time":"2026-08-30T10:03:56Z","stale":false,"bins":25,"density_birds_km3":4.851333333333333,"heading_deg":7.820666140432237,"speed_ms":5.279844502545755,"peak_altitude_m":200.0,"u_ms":1.1203330122471447,"v_ms":4.858795926792349}},{"type":"Feature","geometry":{"type":"Point","coordinates":[-72.8639,40.8655]},"properties":{"site":"KOKX","name":"Upton NY","scan_time":"2026-08-30T10:02:45Z","stale":false,"bins":25,"density_birds_km3":5.315625,"heading_deg":80.24536596080584,"speed_ms":8.581620762711866,"peak_altitude_m":0.0,"u_ms":8.43512241054614,"v_ms":1.4490807438794728}},{"type":"Feature","geometry":{"type":"Point","coordinates":[-80.2183,40.5317]},"properties":{"site":"KPBZ","name":"Pittsburgh PA","scan_time":"2026-08-30T10:00:43Z","stale":false,"bins":25,"density_birds_km3":1.5492857142857144,"heading_deg":91.62201362147,"speed_ms":4.876348547717842,"peak_altitude_m":400.0,"u_ms":4.82969571230982,"v_ms":-0.30370677731673584}},{"type":"Feature","geometry":{"type":"Point","coordinates":[-78.4899,35.6655]},"properties":{"site":"KRAX","name":"Raleigh NC","scan_time":"2026-08-30T09:57:57Z","stale":false,"bins":25,"density_birds_km3":5.965,"heading_deg":215.66720997805058,"speed_ms":6.729615061883784,"peak_altitude_m":200.0,"u_ms":-3.9189689532200545,"v_ms":-5.461314243759177}},{"type":"Feature","geometry":{"type":"Point","coordinates":[-82.4017,27.7055]},"properties":{"site":"KTBW","name":"Tampa FL","scan_time":"2026-08-30T09:59:54Z","stale":false,"bins":25,"density_birds_km3":6.85,"heading_deg":237.98901693797666,"speed_ms":5.71420553071096,"peak_altitude_m":0.0,"u_ms":-4.682751665601898,"v_ms":-2.95996896960847}}]}