{"type":"FeatureCollection","frame":"2026-09-03T11","site_count":20,"fresh_count":20,"failures":{},"features":[{"type":"Feature","geometry":{"type":"Point","coordinates":[-77.0073,36.984]},"properties":{"site":"KAKQ","name":"Wakefield VA","scan_time":"2026-09-03T11:02:52Z","stale":false,"bins":25,"density_birds_km3":0.491875,"heading_deg":103.57696223757141,"speed_ms":3.4966666666666666,"peak_altitude_m":0.0,"u_ms":2.542455470737914,"v_ms":-1.4808651399491093}},{"type":"Feature","geometry":{"type":"Point","coordinates":[-71.1369,41.9558]},"properties":{"site":"KBOX","name":"Boston MA","scan_time":"2026-09-03T10:59:44Z","stale":false,"bins":25,"density_birds_km3":0.08875,"heading_deg":null,"speed_ms":null,"peak_altitude_m":0.0,"u_ms":null,"v_ms":null}},{"type":"Feature","geometry":{"type":"Point","coordinates":[-78.7369,42.9489]},"properties":{"site":"KBUF","name":"Buffalo NY","scan_time":"2026-09-03T11:02:33Z","stale":false,"bins":25,"density_birds_km3":4.022666666666667,"heading_deg":111.40459985942263,"speed_ms":7.621537951607557,"peak_altitude_m":200.0,"u_ms":7.040162412993039,"v_ms":-2.754295657938349}},{"type":"Feature","geometry":{"type":"Point","coordinates":[-81.8597,41.4131]},"properties":{"site":"KCLE","name":"Cleveland OH","scan_time":"2026-09-03T10:58:37Z","stale":false,"bins":25,"density_birds_km3":15.558666666666666,"heading_deg":102.68921184200923,"speed_ms":14.415311017395888,"peak_altitude_m":1000.0,"u_ms":12.192959497452117,"v_ms":-5.608675101036725}},{"type":"Feature","geometry":{"type":"Point","coordinates":[-81.0423,32.6555]},"properties":{"site":"KCLX","name":"Charleston SC","scan_time":"2026-09-03T11:01:07Z","stale":false,"bins":25,"density_birds_km3":3.5081249999999997,"heading_deg":216.80675260045035,"speed_ms":5.358689839572193,"peak_altitude_m":0.0,"u_ms":-3.2170641711229946,"v_ms":-4.191868092691623}},{"type":"Feature","geometry":{"type":"Point","coordinates":[-74.4108,39.947]},"properties":{"site":"KDIX","name":"Philadelphia PA","scan_time":"2026-09-03T11:01:26Z","stale":false,"bins":25,"density_birds_km3":0.476875,"heading_deg":109.7,"speed_ms":16.1,"peak_altitude_m":200.0,"u_ms":15.17,"v_ms":-5.42}},{"type":"Feature","geometry":{"type":"Point","coordinates":[-84.5658,33.3636]},"properties":{"site":"KFFC","name":"Atlanta GA","scan_time":"2026-09-03T11:03:00Z","stale":false,"bins":25,"density_birds_km3":14.264666666666667,"heading_deg":213.32467962376217,"speed_ms":3.948006543584949,"peak_altitude_m":200.0,"u_ms":-2.1649731245618136,"v_ms":-3.0920612292591727}},{"type":"Feature","geometry":{"type":"Point","coordinates":[-85.5449,42.8939]},"properties":{"site":"KGRR","name":"Grand Rapids MI","scan_time":"2026-09-03T10:58:19Z","stale":false,"bins":25,"density_birds_km3":2.0693333333333332,"heading_deg":73.49581851958737,"speed_ms":3.7231592520954226,"peak_altitude_m":600.0,"u_ms":3.0198871695680207,"v_ms":-0.27637330754352024}},{"type":"Feature","geometry":{"type":"Point","coordinates":[-83.8217,39.4203]},"properties":{"site":"KILN","name":"Wilmington OH","scan_time":"2026-09-03T10:59:55Z","stale":false,"bins":25,"density_birds_km3":10.686666666666667,"heading_deg":94.15508572864016,"speed_ms":11.350239016475287,"peak_altitude_m":200.0,"u_ms":11.067105591612581,"v_ms":-0.9510771342985522}},{"type":"Feature","geometry":{"type":"Point","coordinates":[-81.7019,30.4846]},"properties":{"site":"KJAX","name":"Jacksonville FL","scan_time":"2026-09-03T11:01:51Z","stale":false,"bins":25,"density_birds_km3":6.24125,"heading_deg":211.38986191145636,"speed_ms":7.903599118501453,"peak_altitude_m":0.0,"u_ms":-4.080194330361615,"v_ms":-6.745433236502054}},{"type":"Feature","geometry":{"type":"Point","coordinates":[-88.0847,41.6045]},"properties":{"site":"KLOT","name":"Chicago IL","scan_time":"2026-09-03T11:00:36Z","stale":false,"bins":25,"density_birds_km3":0.822,"heading_deg":73.60615170418762,"speed_ms":11.949063517915308,"peak_altitude_m":200.0,"u_ms":11.43887622149837,"v_ms":3.354991856677524}},{"type":"Feature","geometry":{"type":"Point","coordinates":[-78.4292,33.9892]},"properties":{"site":"KLTX","name":"Wilmington NC","scan_time":"2026-09-03T11:00:09Z","stale":false,"bins":25,"density_birds_km3":3.61375,"heading_deg":199.99388350353638,"speed_ms":4.992108996539793,"peak_altitude_m":800.0,"u_ms":-2.537259515570934,"v_ms":-3.7492283737024223}},{"type":"Feature","geometry":{"type":"Point","coordinates":[-77.4778,38.9753]},"properties":{"site":"KLWX","name":"Sterling VA","scan_time":"2026-09-03T11:01:54Z","stale":false,"bins":25,"density_birds_km3":1.240625,"heading_deg":195.49494303349346,"speed_ms":6.196215805471124,"peak_altitude_m":0.0,"u_ms":-1.4776443768996959,"v_ms":-5.7457902735562305}},{"type":"Feature","geometry":{"type":"Point","coordinates":[-76.8762,34.7759]},"properties":{"site":"KMHX","name":"Morehead City NC","scan_time":"2026-09-03T11:01:09Z","stale":false,"bins":25,"density_birds_km3":4.16375,"heading_deg":167.49670988216468,"speed_ms":5.094807865505854,"peak_altitude_m":600.0,"u_ms":0.46387571299909935,"v_ms":-3.9840843590513364}},{"type":"Feature","geometry":{"type":"Point","coordinates":[-80.6542,28.1133]},"properties":{"site":"KMLB","name":"Melbourne FL","scan_time":"2026-09-03T10:59:37Z","stale":false,"bins":25,"density_birds_km3":1.99375,"heading_deg":74.07623306281668,"speed_ms":1.4066457680250783,"peak_altitude_m":0.0,"u_ms":0.7471661442006269,"v_ms":0.3993542319749217}},{"type":"Feature","geometry":{"type":"Point","coordinates":[-86.5625,36.2472]},"properties":{"site":"KOHX","name":"Nashville TN","scan_time":"2026-09-03T10:59:30Z","stale":false,"bins":25,"density_birds_km3":1.912,"heading_deg":18.812860059711266,"speed_ms":2.493905160390516,"peak_altitude_m":400.0,"u_ms":0.6756311018131103,"v_ms":2.048566945606695}},{"type":"Feature","geometry":{"type":"Point","coordinates":[-72.8639,40.8655]},"properties":{"site":"KOKX","name":"Upton NY","scan_time":"2026-09-03T11:01:19Z","stale":false,"bins":25,"density_birds_km3":7.514374999999999,"heading_deg":null,"speed_ms":null,"peak_altitude_m":0.0,"u_ms":null,"v_ms":null}},{"type":"Feature","geometry":{"type":"Point","coordinates":[-80.2183,40.5317]},"properties":{"site":"KPBZ","name":"Pittsburgh PA","scan_time":"2026-09-03T10:58:13Z","stale":false,"bins":25,"density_birds_km3":1.125,"heading_deg":103.08801814172767,"speed_ms":10.788103448275862,"peak_altitude_m":400.0,"u_ms":10.106455938697318,"v_ms":-3.094636015325671}},{"type":"Feature","geometry":{"type":"Point","coordinates":[-78.4899,35.6655]},"properties":{"site":"KRAX","name":"Raleigh NC","scan_time":"2026-09-03T11:00:49Z","stale":false,"bins":25,"density_birds_km3":2.06875,"heading_deg":98.02243433614927,"speed_ms":5.53768921841211,"peak_altitude_m":0.0,"u_ms":4.068717948717949,"v_ms":-0.7283441458140254}},{"type":"Feature","geometry":{"type":"Point","coordinates":[-82.4017,27.7055]},"properties":{"site":"KTBW","name":"Tampa FL","scan_time":"2026-09-03T11:01:57Z","stale":false,"bins":25,"density_birds_km3":1.36875,"heading_deg":313.04081390715095,"speed_ms":3.9989680365296807,"peak_altitude_m":0.0,"u_ms":-2.8537260273972604,"v_ms":2.7483059360730593}}]}