{"type":"FeatureCollection","frame":"2026-09-11T01","site_count":20,"fresh_count":20,"failures":{},"features":[{"type":"Feature","geometry":{"type":"Point","coordinates":[-77.0073,36.984]},"properties":{"site":"KAKQ","name":"Wakefield VA","scan_time":"2026-09-11T01:00:09Z","stale":false,"bins":25,"density_birds_km3":9.418125,"heading_deg":63.641389508116134,"speed_ms":7.555912438077388,"peak_altitude_m":0.0,"u_ms":6.294290400321329,"v_ms":3.7430285178738787}},{"type":"Feature","geometry":{"type":"Point","coordinates":[-71.1369,41.9558]},"properties":{"site":"KBOX","name":"Boston MA","scan_time":"2026-09-11T01:00:38Z","stale":false,"bins":25,"density_birds_km3":3.03125,"heading_deg":113.56162721770659,"speed_ms":12.424273666455829,"peak_altitude_m":0.0,"u_ms":11.39076955513388,"v_ms":-4.927488931056294}},{"type":"Feature","geometry":{"type":"Point","coordinates":[-78.7369,42.9489]},"properties":{"site":"KBUF","name":"Buffalo NY","scan_time":"2026-09-11T00:57:05Z","stale":false,"bins":25,"density_birds_km3":33.787333333333336,"heading_deg":167.84640839086782,"speed_ms":9.953162723703162,"peak_altitude_m":400.0,"u_ms":2.084122452201022,"v_ms":-9.540442177541879}},{"type":"Feature","geometry":{"type":"Point","coordinates":[-81.8597,41.4131]},"properties":{"site":"KCLE","name":"Cleveland OH","scan_time":"2026-09-11T00:58:42Z","stale":false,"bins":25,"density_birds_km3":37.736666666666665,"heading_deg":133.57040179302135,"speed_ms":6.799968834688347,"peak_altitude_m":600.0,"u_ms":4.628077687443541,"v_ms":-4.729406052393857}},{"type":"Feature","geometry":{"type":"Point","coordinates":[-81.0423,32.6555]},"properties":{"site":"KCLX","name":"Charleston SC","scan_time":"2026-09-11T01:01:29Z","stale":false,"bins":25,"density_birds_km3":3.20125,"heading_deg":354.72327060385135,"speed_ms":7.854068448764682,"peak_altitude_m":0.0,"u_ms":-0.6544633454840015,"v_ms":6.972818955042526}},{"type":"Feature","geometry":{"type":"Point","coordinates":[-74.4108,39.947]},"properties":{"site":"KDIX","name":"Philadelphia PA","scan_time":"2026-09-11T00:58:47Z","stale":false,"bins":25,"density_birds_km3":11.26125,"heading_deg":139.4222388174951,"speed_ms":7.833932065821659,"peak_altitude_m":200.0,"u_ms":5.028809762063598,"v_ms":-5.899098287747387}},{"type":"Feature","geometry":{"type":"Point","coordinates":[-84.5658,33.3636]},"properties":{"site":"KFFC","name":"Atlanta GA","scan_time":"2026-09-11T00:59:17Z","stale":false,"bins":25,"density_birds_km3":19.894000000000002,"heading_deg":119.72777444064093,"speed_ms":2.6117231326027945,"peak_altitude_m":400.0,"u_ms":1.268667940082437,"v_ms":-0.5677909587480312}},{"type":"Feature","geometry":{"type":"Point","coordinates":[-85.5449,42.8939]},"properties":{"site":"KGRR","name":"Grand Rapids MI","scan_time":"2026-09-11T00:59:01Z","stale":false,"bins":25,"density_birds_km3":179.12733333333333,"heading_deg":167.6553513239617,"speed_ms":11.191329636177537,"peak_altitude_m":600.0,"u_ms":2.394681604168605,"v_ms":-10.933534605006049}},{"type":"Feature","geometry":{"type":"Point","coordinates":[-83.8217,39.4203]},"properties":{"site":"KILN","name":"Wilmington OH","scan_time":"2026-09-11T00:58:26Z","stale":false,"bins":25,"density_birds_km3":50.18666666666666,"heading_deg":177.45740873407044,"speed_ms":6.978061856602408,"peak_altitude_m":400.0,"u_ms":0.1600737034078406,"v_ms":-6.714027612401465}},{"type":"Feature","geometry":{"type":"Point","coordinates":[-81.7019,30.4846]},"properties":{"site":"KJAX","name":"Jacksonville FL","scan_time":"2026-09-11T00:58:01Z","stale":false,"bins":25,"density_birds_km3":6.117777777777778,"heading_deg":null,"speed_ms":null,"peak_altitude_m":0.0,"u_ms":null,"v_ms":null}},{"type":"Feature","geometry":{"type":"Point","coordinates":[-88.0847,41.6045]},"properties":{"site":"KLOT","name":"Chicago IL","scan_time":"2026-09-11T00:58:13Z","stale":false,"bins":25,"density_birds_km3":87.36,"heading_deg":199.91901287709973,"speed_ms":6.201921418980992,"peak_altitude_m":400.0,"u_ms":-1.9963688961910817,"v_ms":-4.868568210727157}},{"type":"Feature","geometry":{"type":"Point","coordinates":[-78.4292,33.9892]},"properties":{"site":"KLTX","name":"Wilmington NC","scan_time":"2026-09-11T00:59:59Z","stale":false,"bins":25,"density_birds_km3":3.905625,"heading_deg":29.99877854701005,"speed_ms":6.455655138821237,"peak_altitude_m":200.0,"u_ms":2.773723006981653,"v_ms":5.017075823997402}},{"type":"Feature","geometry":{"type":"Point","coordinates":[-77.4778,38.9753]},"properties":{"site":"KLWX","name":"Sterling VA","scan_time":"2026-09-11T01:02:08Z","stale":false,"bins":25,"density_birds_km3":43.72615384615385,"heading_deg":149.15751486329114,"speed_ms":9.466301537479385,"peak_altitude_m":400.0,"u_ms":4.764801652746006,"v_ms":-8.138216027380256}},{"type":"Feature","geometry":{"type":"Point","coordinates":[-76.8762,34.7759]},"properties":{"site":"KMHX","name":"Morehead City NC","scan_time":"2026-09-11T00:59:23Z","stale":false,"bins":25,"density_birds_km3":1.49,"heading_deg":33.95145963821266,"speed_ms":8.813925272879933,"peak_altitude_m":0.0,"u_ms":4.6987447523089845,"v_ms":7.23238455079765}},{"type":"Feature","geometry":{"type":"Point","coordinates":[-80.6542,28.1133]},"properties":{"site":"KMLB","name":"Melbourne FL","scan_time":"2026-09-11T01:00:40Z","stale":false,"bins":25,"density_birds_km3":12.065,"heading_deg":123.03002544766694,"speed_ms":2.37545223787816,"peak_altitude_m":0.0,"u_ms":1.4501113758806463,"v_ms":-0.7452626398673851}},{"type":"Feature","geometry":{"type":"Point","coordinates":[-86.5625,36.2472]},"properties":{"site":"KOHX","name":"Nashville TN","scan_time":"2026-09-11T01:02:20Z","stale":false,"bins":25,"density_birds_km3":30.82,"heading_deg":233.62899749930097,"speed_ms":4.110382868267359,"peak_altitude_m":200.0,"u_ms":-1.8193229504650659,"v_ms":-0.9643422020333116}},{"type":"Feature","geometry":{"type":"Point","coordinates":[-72.8639,40.8655]},"properties":{"site":"KOKX","name":"Upton NY","scan_time":"2026-09-11T01:01:02Z","stale":false,"bins":25,"density_birds_km3":5.605,"heading_deg":112.91808465157571,"speed_ms":7.924867058823529,"peak_altitude_m":0.0,"u_ms":6.312841176470588,"v_ms":-3.198932941176471}},{"type":"Feature","geometry":{"type":"Point","coordinates":[-80.2183,40.5317]},"properties":{"site":"KPBZ","name":"Pittsburgh PA","scan_time":"2026-09-11T00:58:51Z","stale":false,"bins":25,"density_birds_km3":46.419285714285714,"heading_deg":167.51415349913682,"speed_ms":8.282969869769593,"peak_altitude_m":600.0,"u_ms":1.7776872929028282,"v_ms":-7.988080758264622}},{"type":"Feature","geometry":{"type":"Point","coordinates":[-78.4899,35.6655]},"properties":{"site":"KRAX","name":"Raleigh NC","scan_time":"2026-09-11T00:59:54Z","stale":false,"bins":25,"density_birds_km3":8.163125,"heading_deg":38.00657743004973,"speed_ms":8.507894443929134,"peak_altitude_m":200.0,"u_ms":5.113275206381597,"v_ms":6.219326593080419}},{"type":"Feature","geometry":{"type":"Point","coordinates":[-82.4017,27.7055]},"properties":{"site":"KTBW","name":"Tampa FL","scan_time":"2026-09-11T00:57:46Z","stale":false,"bins":25,"density_birds_km3":19.52375,"heading_deg":217.9332016735722,"speed_ms":1.4381051923938792,"peak_altitude_m":0.0,"u_ms":-0.6684259555669377,"v_ms":-0.8473621870798386}}]}