{"type":"FeatureCollection","frame":"2026-08-22T10","site_count":20,"fresh_count":20,"failures":{},"features":[{"type":"Feature","geometry":{"type":"Point","coordinates":[-77.0073,36.984]},"properties":{"site":"KAKQ","name":"Wakefield VA","scan_time":"2026-08-22T10:00:40Z","stale":false,"bins":25,"density_birds_km3":0.36562500000000003,"heading_deg":304.434280051672,"speed_ms":3.774222222222222,"peak_altitude_m":0.0,"u_ms":-2.928324786324786,"v_ms":2.002222222222222}},{"type":"Feature","geometry":{"type":"Point","coordinates":[-71.1369,41.9558]},"properties":{"site":"KBOX","name":"Boston MA","scan_time":"2026-08-22T10:01:02Z","stale":false,"bins":25,"density_birds_km3":1.009375,"heading_deg":202.80349122088884,"speed_ms":5.273308411214953,"peak_altitude_m":0.0,"u_ms":-2.052442367601246,"v_ms":-4.83011214953271}},{"type":"Feature","geometry":{"type":"Point","coordinates":[-78.7369,42.9489]},"properties":{"site":"KBUF","name":"Buffalo NY","scan_time":"2026-08-22T10:01:58Z","stale":false,"bins":25,"density_birds_km3":0.31133333333333335,"heading_deg":5.383480235652404,"speed_ms":7.64843347639485,"peak_altitude_m":400.0,"u_ms":0.6683047210300429,"v_ms":7.5837553648068665}},{"type":"Feature","geometry":{"type":"Point","coordinates":[-81.8597,41.4131]},"properties":{"site":"KCLE","name":"Cleveland OH","scan_time":"2026-08-22T10:02:16Z","stale":false,"bins":25,"density_birds_km3":0.858,"heading_deg":305.01717826902683,"speed_ms":5.715687645687646,"peak_altitude_m":200.0,"u_ms":-3.3966045066045063,"v_ms":2.60975135975136}},{"type":"Feature","geometry":{"type":"Point","coordinates":[-81.0423,32.6555]},"properties":{"site":"KCLX","name":"Charleston SC","scan_time":"2026-08-22T10:01:41Z","stale":false,"bins":25,"density_birds_km3":2.201875,"heading_deg":178.54417863291062,"speed_ms":4.808463504686169,"peak_altitude_m":0.0,"u_ms":0.0931326327747799,"v_ms":-4.708037489349617}},{"type":"Feature","geometry":{"type":"Point","coordinates":[-74.4108,39.947]},"properties":{"site":"KDIX","name":"Philadelphia PA","scan_time":"2026-08-22T10:01:54Z","stale":false,"bins":25,"density_birds_km3":0.415,"heading_deg":null,"speed_ms":null,"peak_altitude_m":200.0,"u_ms":null,"v_ms":null}},{"type":"Feature","geometry":{"type":"Point","coordinates":[-84.5658,33.3636]},"properties":{"site":"KFFC","name":"Atlanta GA","scan_time":"2026-08-22T10:00:37Z","stale":false,"bins":25,"density_birds_km3":9.756,"heading_deg":178.86533129498486,"speed_ms":6.361682498462379,"peak_altitude_m":600.0,"u_ms":-0.6195817672384336,"v_ms":-5.71022415089182}},{"type":"Feature","geometry":{"type":"Point","coordinates":[-85.5449,42.8939]},"properties":{"site":"KGRR","name":"Grand Rapids MI","scan_time":"2026-08-22T10:02:19Z","stale":false,"bins":25,"density_birds_km3":0.8513333333333333,"heading_deg":92.52241165775122,"speed_ms":4.53868441660141,"peak_altitude_m":200.0,"u_ms":4.506123727486297,"v_ms":0.006029757243539524}},{"type":"Feature","geometry":{"type":"Point","coordinates":[-83.8217,39.4203]},"properties":{"site":"KILN","name":"Wilmington OH","scan_time":"2026-08-22T10:00:49Z","stale":false,"bins":25,"density_birds_km3":0.9513333333333333,"heading_deg":93.15111579297945,"speed_ms":5.8269662921348315,"peak_altitude_m":400.0,"u_ms":5.612577247191012,"v_ms":-0.42056179775280894}},{"type":"Feature","geometry":{"type":"Point","coordinates":[-81.7019,30.4846]},"properties":{"site":"KJAX","name":"Jacksonville FL","scan_time":"2026-08-22T10:00:25Z","stale":false,"bins":25,"density_birds_km3":4.633125000000001,"heading_deg":105.53027022451056,"speed_ms":3.349507555315704,"peak_altitude_m":0.0,"u_ms":2.971134646519158,"v_ms":-1.3012209929843495}},{"type":"Feature","geometry":{"type":"Point","coordinates":[-88.0847,41.6045]},"properties":{"site":"KLOT","name":"Chicago IL","scan_time":"2026-08-22T10:00:11Z","stale":false,"bins":25,"density_birds_km3":4.056,"heading_deg":157.62550012475265,"speed_ms":11.484050986842107,"peak_altitude_m":400.0,"u_ms":4.15546052631579,"v_ms":-10.53132072368421}},{"type":"Feature","geometry":{"type":"Point","coordinates":[-78.4292,33.9892]},"properties":{"site":"KLTX","name":"Wilmington NC","scan_time":"2026-08-22T09:58:10Z","stale":false,"bins":25,"density_birds_km3":0.1925,"heading_deg":344.6715255485361,"speed_ms":3.4493506493506496,"peak_altitude_m":0.0,"u_ms":-0.8879870129870129,"v_ms":3.2700324675324675}},{"type":"Feature","geometry":{"type":"Point","coordinates":[-77.4778,38.9753]},"properties":{"site":"KLWX","name":"Sterling VA","scan_time":"2026-08-22T09:59:23Z","stale":false,"bins":25,"density_birds_km3":1.2625,"heading_deg":326.3016311664168,"speed_ms":4.3092648539778455,"peak_altitude_m":200.0,"u_ms":-2.374088620342397,"v_ms":3.5272155085599195}},{"type":"Feature","geometry":{"type":"Point","coordinates":[-76.8762,34.7759]},"properties":{"site":"KMHX","name":"Morehead City NC","scan_time":"2026-08-22T10:01:21Z","stale":false,"bins":25,"density_birds_km3":0.12,"heading_deg":233.444834878321,"speed_ms":3.012239583333333,"peak_altitude_m":0.0,"u_ms":-0.6588541666666666,"v_ms":-0.9650520833333331}},{"type":"Feature","geometry":{"type":"Point","coordinates":[-80.6542,28.1133]},"properties":{"site":"KMLB","name":"Melbourne FL","scan_time":"2026-08-22T10:00:28Z","stale":false,"bins":25,"density_birds_km3":3.726875,"heading_deg":49.429317178344185,"speed_ms":3.164278047962435,"peak_altitude_m":0.0,"u_ms":2.401309743417743,"v_ms":2.0366292134831463}},{"type":"Feature","geometry":{"type":"Point","coordinates":[-86.5625,36.2472]},"properties":{"site":"KOHX","name":"Nashville TN","scan_time":"2026-08-22T10:01:26Z","stale":false,"bins":25,"density_birds_km3":7.884,"heading_deg":176.7072629633412,"speed_ms":6.0563791645526805,"peak_altitude_m":400.0,"u_ms":0.33098173515981727,"v_ms":-5.760790630813462}},{"type":"Feature","geometry":{"type":"Point","coordinates":[-72.8639,40.8655]},"properties":{"site":"KOKX","name":"Upton NY","scan_time":"2026-08-22T10:01:42Z","stale":false,"bins":25,"density_birds_km3":1.761875,"heading_deg":223.36400133289794,"speed_ms":6.11123175507298,"peak_altitude_m":0.0,"u_ms":-4.180469918120327,"v_ms":-4.440957636169456}},{"type":"Feature","geometry":{"type":"Point","coordinates":[-80.2183,40.5317]},"properties":{"site":"KPBZ","name":"Pittsburgh PA","scan_time":"2026-08-22T10:01:08Z","stale":false,"bins":25,"density_birds_km3":0.37071428571428566,"heading_deg":190.93533528228969,"speed_ms":2.647641129032258,"peak_altitude_m":400.0,"u_ms":0.06830645161290323,"v_ms":-1.640302419354839}},{"type":"Feature","geometry":{"type":"Point","coordinates":[-78.4899,35.6655]},"properties":{"site":"KRAX","name":"Raleigh NC","scan_time":"2026-08-22T10:02:30Z","stale":false,"bins":25,"density_birds_km3":0.559375,"heading_deg":253.17761553157732,"speed_ms":4.0843128491620115,"peak_altitude_m":0.0,"u_ms":-3.085553072625699,"v_ms":-0.952659217877095}},{"type":"Feature","geometry":{"type":"Point","coordinates":[-82.4017,27.7055]},"properties":{"site":"KTBW","name":"Tampa FL","scan_time":"2026-08-22T09:58:59Z","stale":false,"bins":25,"density_birds_km3":1.4462499999999998,"heading_deg":338.54126481275324,"speed_ms":3.914348202685145,"peak_altitude_m":0.0,"u_ms":-1.4258033780857513,"v_ms":3.4357210913815504}}]}