{"type":"FeatureCollection","frame":"2026-09-26T03","site_count":20,"fresh_count":20,"failures":{},"features":[{"type":"Feature","geometry":{"type":"Point","coordinates":[-77.0073,36.984]},"properties":{"site":"KAKQ","name":"Wakefield VA","scan_time":"2026-09-26T02:58:56Z","stale":false,"bins":25,"density_birds_km3":27.529375,"heading_deg":181.1482865430678,"speed_ms":20.655669428993075,"peak_altitude_m":400.0,"u_ms":-0.7636880463162675,"v_ms":-20.349351118174592}},{"type":"Feature","geometry":{"type":"Point","coordinates":[-71.1369,41.9558]},"properties":{"site":"KBOX","name":"Boston MA","scan_time":"2026-09-26T02:57:44Z","stale":false,"bins":25,"density_birds_km3":null,"heading_deg":null,"speed_ms":null,"peak_altitude_m":null,"u_ms":null,"v_ms":null}},{"type":"Feature","geometry":{"type":"Point","coordinates":[-78.7369,42.9489]},"properties":{"site":"KBUF","name":"Buffalo NY","scan_time":"2026-09-26T02:58:59Z","stale":false,"bins":25,"density_birds_km3":59.28066666666667,"heading_deg":188.64721619626613,"speed_ms":15.652922481753466,"peak_altitude_m":400.0,"u_ms":-2.4662323860505393,"v_ms":-15.135836866432001}},{"type":"Feature","geometry":{"type":"Point","coordinates":[-81.8597,41.4131]},"properties":{"site":"KCLE","name":"Cleveland OH","scan_time":"2026-09-26T03:03:04Z","stale":false,"bins":25,"density_birds_km3":39.885999999999996,"heading_deg":192.53670291752732,"speed_ms":12.232675959818817,"peak_altitude_m":400.0,"u_ms":-2.799811128382557,"v_ms":-11.778659680088252}},{"type":"Feature","geometry":{"type":"Point","coordinates":[-81.0423,32.6555]},"properties":{"site":"KCLX","name":"Charleston SC","scan_time":"2026-09-26T03:02:38Z","stale":false,"bins":25,"density_birds_km3":75.323125,"heading_deg":192.14257775680315,"speed_ms":14.250972062032742,"peak_altitude_m":200.0,"u_ms":-3.0560388161006333,"v_ms":-13.836535177609798}},{"type":"Feature","geometry":{"type":"Point","coordinates":[-74.4108,39.947]},"properties":{"site":"KDIX","name":"Philadelphia PA","scan_time":"2026-09-26T02:59:08Z","stale":false,"bins":25,"density_birds_km3":16.542307692307695,"heading_deg":null,"speed_ms":null,"peak_altitude_m":200.0,"u_ms":null,"v_ms":null}},{"type":"Feature","geometry":{"type":"Point","coordinates":[-84.5658,33.3636]},"properties":{"site":"KFFC","name":"Atlanta GA","scan_time":"2026-09-26T03:01:28Z","stale":false,"bins":25,"density_birds_km3":368.60333333333335,"heading_deg":184.99268083761544,"speed_ms":13.304830685199084,"peak_altitude_m":600.0,"u_ms":-1.2725292771814325,"v_ms":-13.175064920736833}},{"type":"Feature","geometry":{"type":"Point","coordinates":[-85.5449,42.8939]},"properties":{"site":"KGRR","name":"Grand Rapids MI","scan_time":"2026-09-26T03:02:51Z","stale":false,"bins":25,"density_birds_km3":85.72600000000001,"heading_deg":191.02701673474374,"speed_ms":9.88409342945353,"peak_altitude_m":200.0,"u_ms":-1.8227194394543857,"v_ms":-9.534341584427905}},{"type":"Feature","geometry":{"type":"Point","coordinates":[-83.8217,39.4203]},"properties":{"site":"KILN","name":"Wilmington OH","scan_time":"2026-09-26T02:58:47Z","stale":false,"bins":25,"density_birds_km3":94.82199999999999,"heading_deg":190.71575009717827,"speed_ms":11.022475530179447,"peak_altitude_m":200.0,"u_ms":-2.0174202621364685,"v_ms":-10.62203514372504}},{"type":"Feature","geometry":{"type":"Point","coordinates":[-81.7019,30.4846]},"properties":{"site":"KJAX","name":"Jacksonville FL","scan_time":"2026-09-26T02:58:39Z","stale":false,"bins":25,"density_birds_km3":190.285625,"heading_deg":184.19472143394538,"speed_ms":13.854333157063229,"peak_altitude_m":400.0,"u_ms":-0.8553219666488208,"v_ms":-13.767039779016413}},{"type":"Feature","geometry":{"type":"Point","coordinates":[-88.0847,41.6045]},"properties":{"site":"KLOT","name":"Chicago IL","scan_time":"2026-09-26T02:57:53Z","stale":false,"bins":25,"density_birds_km3":39.583999999999996,"heading_deg":192.66624609099864,"speed_ms":7.450031494206414,"peak_altitude_m":200.0,"u_ms":-1.306466754244139,"v_ms":-6.934211129075721}},{"type":"Feature","geometry":{"type":"Point","coordinates":[-78.4292,33.9892]},"properties":{"site":"KLTX","name":"Wilmington NC","scan_time":"2026-09-26T02:59:11Z","stale":false,"bins":25,"density_birds_km3":124.39937499999999,"heading_deg":199.20168682739327,"speed_ms":13.557999628211698,"peak_altitude_m":0.0,"u_ms":-4.5263536611099395,"v_ms":-12.771965303107951}},{"type":"Feature","geometry":{"type":"Point","coordinates":[-77.4778,38.9753]},"properties":{"site":"KLWX","name":"Sterling VA","scan_time":"2026-09-26T03:02:06Z","stale":false,"bins":25,"density_birds_km3":44.22625,"heading_deg":189.5570438375148,"speed_ms":21.447146249752624,"peak_altitude_m":600.0,"u_ms":-4.502315880240875,"v_ms":-20.22449054310028}},{"type":"Feature","geometry":{"type":"Point","coordinates":[-76.8762,34.7759]},"properties":{"site":"KMHX","name":"Morehead City NC","scan_time":"2026-09-26T02:58:59Z","stale":false,"bins":25,"density_birds_km3":70.278125,"heading_deg":172.38102226709256,"speed_ms":14.047657432522566,"peak_altitude_m":0.0,"u_ms":0.4411828004802347,"v_ms":-13.676740095157632}},{"type":"Feature","geometry":{"type":"Point","coordinates":[-80.6542,28.1133]},"properties":{"site":"KMLB","name":"Melbourne FL","scan_time":"2026-09-26T02:59:28Z","stale":false,"bins":25,"density_birds_km3":19.9275,"heading_deg":162.11668142951723,"speed_ms":14.968106260193201,"peak_altitude_m":200.0,"u_ms":4.510848701543093,"v_ms":-14.230962551750094}},{"type":"Feature","geometry":{"type":"Point","coordinates":[-86.5625,36.2472]},"properties":{"site":"KOHX","name":"Nashville TN","scan_time":"2026-09-26T02:58:50Z","stale":false,"bins":25,"density_birds_km3":125.898,"heading_deg":206.52864347098284,"speed_ms":12.160505329711352,"peak_altitude_m":400.0,"u_ms":-5.606257287645554,"v_ms":-10.465743061843714}},{"type":"Feature","geometry":{"type":"Point","coordinates":[-72.8639,40.8655]},"properties":{"site":"KOKX","name":"Upton NY","scan_time":"2026-09-26T03:01:40Z","stale":false,"bins":25,"density_birds_km3":2.5479999999999996,"heading_deg":null,"speed_ms":null,"peak_altitude_m":200.0,"u_ms":null,"v_ms":null}},{"type":"Feature","geometry":{"type":"Point","coordinates":[-80.2183,40.5317]},"properties":{"site":"KPBZ","name":"Pittsburgh PA","scan_time":"2026-09-26T03:00:07Z","stale":false,"bins":25,"density_birds_km3":88.87928571428571,"heading_deg":206.25353537620921,"speed_ms":15.802604746863421,"peak_altitude_m":600.0,"u_ms":-7.222497046271067,"v_ms":-13.597199221983779}},{"type":"Feature","geometry":{"type":"Point","coordinates":[-78.4899,35.6655]},"properties":{"site":"KRAX","name":"Raleigh NC","scan_time":"2026-09-26T02:59:50Z","stale":false,"bins":25,"density_birds_km3":62.758125,"heading_deg":191.32383681374435,"speed_ms":19.727568668459316,"peak_altitude_m":400.0,"u_ms":-4.345065132954884,"v_ms":-19.150040932178072}},{"type":"Feature","geometry":{"type":"Point","coordinates":[-82.4017,27.7055]},"properties":{"site":"KTBW","name":"Tampa FL","scan_time":"2026-09-26T03:00:41Z","stale":false,"bins":25,"density_birds_km3":15.45125,"heading_deg":194.28420453754316,"speed_ms":12.839714782749413,"peak_altitude_m":200.0,"u_ms":-3.356083825552229,"v_ms":-12.259256412331094}}]}