{"type":"FeatureCollection","frame":"2026-08-18T04","site_count":20,"fresh_count":20,"failures":{},"features":[{"type":"Feature","geometry":{"type":"Point","coordinates":[-77.0073,36.984]},"properties":{"site":"KAKQ","name":"Wakefield VA","scan_time":"2026-08-18T03:59:28Z","stale":false,"bins":25,"density_birds_km3":9.863125,"heading_deg":137.56585344947592,"speed_ms":5.631173932356114,"peak_altitude_m":200.0,"u_ms":3.8399314677327245,"v_ms":-3.9089510755758616}},{"type":"Feature","geometry":{"type":"Point","coordinates":[-71.1369,41.9558]},"properties":{"site":"KBOX","name":"Boston MA","scan_time":"2026-08-18T04:02:23Z","stale":false,"bins":25,"density_birds_km3":0.41000000000000003,"heading_deg":211.61908790515628,"speed_ms":3.875061162079511,"peak_altitude_m":0.0,"u_ms":-1.9497247706422018,"v_ms":-3.2784097859327224}},{"type":"Feature","geometry":{"type":"Point","coordinates":[-78.7369,42.9489]},"properties":{"site":"KBUF","name":"Buffalo NY","scan_time":"2026-08-18T03:59:37Z","stale":false,"bins":25,"density_birds_km3":25.614,"heading_deg":199.56715137443632,"speed_ms":10.235294500403425,"peak_altitude_m":400.0,"u_ms":-3.3880934905390276,"v_ms":-9.603545456911585}},{"type":"Feature","geometry":{"type":"Point","coordinates":[-81.8597,41.4131]},"properties":{"site":"KCLE","name":"Cleveland OH","scan_time":"2026-08-18T04:01:09Z","stale":false,"bins":25,"density_birds_km3":10.078666666666667,"heading_deg":205.57917700763358,"speed_ms":9.37018934127772,"peak_altitude_m":800.0,"u_ms":-4.038462760675272,"v_ms":-8.395512082092022}},{"type":"Feature","geometry":{"type":"Point","coordinates":[-81.0423,32.6555]},"properties":{"site":"KCLX","name":"Charleston SC","scan_time":"2026-08-18T04:00:27Z","stale":false,"bins":25,"density_birds_km3":4.355625,"heading_deg":91.66479547477974,"speed_ms":8.848346990230066,"peak_altitude_m":0.0,"u_ms":7.079179010400252,"v_ms":-0.6987125748502996}},{"type":"Feature","geometry":{"type":"Point","coordinates":[-74.4108,39.947]},"properties":{"site":"KDIX","name":"Philadelphia PA","scan_time":"2026-08-18T03:59:22Z","stale":false,"bins":25,"density_birds_km3":3.81875,"heading_deg":325.6025983728949,"speed_ms":3.50403172504957,"peak_altitude_m":200.0,"u_ms":-1.3351305353602114,"v_ms":0.6885905485789822}},{"type":"Feature","geometry":{"type":"Point","coordinates":[-84.5658,33.3636]},"properties":{"site":"KFFC","name":"Atlanta GA","scan_time":"2026-08-18T04:01:46Z","stale":false,"bins":25,"density_birds_km3":28.361,"heading_deg":163.0680599884262,"speed_ms":6.564672045666612,"peak_altitude_m":400.0,"u_ms":1.964570503320709,"v_ms":-6.246643064932213}},{"type":"Feature","geometry":{"type":"Point","coordinates":[-85.5449,42.8939]},"properties":{"site":"KGRR","name":"Grand Rapids MI","scan_time":"2026-08-18T04:03:54Z","stale":false,"bins":25,"density_birds_km3":12.514666666666667,"heading_deg":174.47878174257417,"speed_ms":8.22894896654592,"peak_altitude_m":400.0,"u_ms":0.6064681440443214,"v_ms":-8.134734711272108}},{"type":"Feature","geometry":{"type":"Point","coordinates":[-83.8217,39.4203]},"properties":{"site":"KILN","name":"Wilmington OH","scan_time":"2026-08-18T03:58:07Z","stale":false,"bins":25,"density_birds_km3":28.913333333333334,"heading_deg":198.82684212830856,"speed_ms":8.57001683229957,"peak_altitude_m":600.0,"u_ms":-2.8941520440867903,"v_ms":-7.929960570914709}},{"type":"Feature","geometry":{"type":"Point","coordinates":[-81.7019,30.4846]},"properties":{"site":"KJAX","name":"Jacksonville FL","scan_time":"2026-08-18T04:01:49Z","stale":false,"bins":25,"density_birds_km3":24.416875,"heading_deg":146.47820700071054,"speed_ms":5.7746318611987375,"peak_altitude_m":0.0,"u_ms":3.370191798107256,"v_ms":-4.026777287066246}},{"type":"Feature","geometry":{"type":"Point","coordinates":[-88.0847,41.6045]},"properties":{"site":"KLOT","name":"Chicago IL","scan_time":"2026-08-18T04:02:29Z","stale":false,"bins":25,"density_birds_km3":7.604,"heading_deg":101.17947223335615,"speed_ms":5.829124570219519,"peak_altitude_m":200.0,"u_ms":2.9654095036586443,"v_ms":-1.1733765317817157}},{"type":"Feature","geometry":{"type":"Point","coordinates":[-78.4292,33.9892]},"properties":{"site":"KLTX","name":"Wilmington NC","scan_time":"2026-08-18T04:01:20Z","stale":false,"bins":25,"density_birds_km3":2.60875,"heading_deg":41.59199505297173,"speed_ms":7.586736942980355,"peak_altitude_m":0.0,"u_ms":4.47190943938668,"v_ms":4.267448490656443}},{"type":"Feature","geometry":{"type":"Point","coordinates":[-77.4778,38.9753]},"properties":{"site":"KLWX","name":"Sterling VA","scan_time":"2026-08-18T04:01:29Z","stale":false,"bins":25,"density_birds_km3":12.059375000000001,"heading_deg":179.47641689457564,"speed_ms":6.489511512134412,"peak_altitude_m":800.0,"u_ms":-0.5148921385604647,"v_ms":-5.669221115951047}},{"type":"Feature","geometry":{"type":"Point","coordinates":[-76.8762,34.7759]},"properties":{"site":"KMHX","name":"Morehead City NC","scan_time":"2026-08-18T04:01:55Z","stale":false,"bins":25,"density_birds_km3":1.5925,"heading_deg":76.10568957376543,"speed_ms":9.364334511189636,"peak_altitude_m":0.0,"u_ms":8.469544562230075,"v_ms":2.210855908912446}},{"type":"Feature","geometry":{"type":"Point","coordinates":[-80.6542,28.1133]},"properties":{"site":"KMLB","name":"Melbourne FL","scan_time":"2026-08-18T04:03:20Z","stale":false,"bins":25,"density_birds_km3":3.540625,"heading_deg":133.5740628234191,"speed_ms":8.803521101889459,"peak_altitude_m":0.0,"u_ms":6.269597386544234,"v_ms":-6.117391841779975}},{"type":"Feature","geometry":{"type":"Point","coordinates":[-86.5625,36.2472]},"properties":{"site":"KOHX","name":"Nashville TN","scan_time":"2026-08-18T04:01:09Z","stale":false,"bins":25,"density_birds_km3":63.542,"heading_deg":183.70950251708408,"speed_ms":7.722734674178759,"peak_altitude_m":400.0,"u_ms":-0.16483491234144354,"v_ms":-7.244063768845803}},{"type":"Feature","geometry":{"type":"Point","coordinates":[-72.8639,40.8655]},"properties":{"site":"KOKX","name":"Upton NY","scan_time":"2026-08-18T04:00:25Z","stale":false,"bins":25,"density_birds_km3":1.5625,"heading_deg":221.15921160716726,"speed_ms":5.828557692307692,"peak_altitude_m":0.0,"u_ms":-3.5822836538461535,"v_ms":-4.431402243589743}},{"type":"Feature","geometry":{"type":"Point","coordinates":[-80.2183,40.5317]},"properties":{"site":"KPBZ","name":"Pittsburgh PA","scan_time":"2026-08-18T03:58:50Z","stale":false,"bins":25,"density_birds_km3":21.054285714285715,"heading_deg":202.4638788392902,"speed_ms":7.641088151465797,"peak_altitude_m":600.0,"u_ms":-2.902292345276873,"v_ms":-6.772772122692725}},{"type":"Feature","geometry":{"type":"Point","coordinates":[-78.4899,35.6655]},"properties":{"site":"KRAX","name":"Raleigh NC","scan_time":"2026-08-18T04:00:19Z","stale":false,"bins":25,"density_birds_km3":6.39625,"heading_deg":58.81422442119071,"speed_ms":3.0688684776236075,"peak_altitude_m":200.0,"u_ms":2.211891733437561,"v_ms":1.5821975767051006}},{"type":"Feature","geometry":{"type":"Point","coordinates":[-82.4017,27.7055]},"properties":{"site":"KTBW","name":"Tampa FL","scan_time":"2026-08-18T04:01:48Z","stale":false,"bins":25,"density_birds_km3":2.623125,"heading_deg":148.5440330702396,"speed_ms":5.325657769304099,"peak_altitude_m":0.0,"u_ms":2.0635247855100096,"v_ms":-4.670741182078169}}]}