{"type":"FeatureCollection","generated_at":"2026-09-12T21:53:22Z","source":{"id":"arbonet","name":"CDC NNDSS weekly arboviral disease cases (ArboNET)","url":"https://data.cdc.gov/NNDSS/NNDSS-Weekly-Data/x9gk-5huc","dataset":"data.cdc.gov x9gk-5huc","api":"https://data.cdc.gov/resource/x9gk-5huc.json","licence":"Public Domain U.S. Government (CDC; no licence field on x9gk-5huc, CDC Use of Agency Materials)","note":"Provisional counts as published each week; cases are back-filled into the year-to-date column, so a week's bin is the change in that column between reports, not onset dates. Reference to CDC data does not imply endorsement by CDC, HHS or the U.S. Government.","shapes":"Census 2021 cartographic boundary states 1:20m (U.S. Government work)","seed_note":"seed: geometry rounded to 0.01° with every fourth vertex of rings over 30 points kept and MultiPolygon islands under 8 vertices dropped; weekly bins truncated to the newest 6 per state (n/by/ytd are the full 26-week values); zero-case states included as grey features"},"diseases":{"wnv":{"name":"West Nile","vector":"mosquito","labels":["Arboviral diseases, West Nile virus disease"]},"eee":{"name":"Eastern equine encephalitis","vector":"mosquito","labels":["Arboviral diseases, Eastern equine encephalitis virus disease"]},"lac":{"name":"La Crosse","vector":"mosquito","labels":["Arboviral diseases, La Crosse virus disease"]},"sle":{"name":"St. Louis encephalitis","vector":"mosquito","labels":["Arboviral diseases, St. Louis encephalitis virus disease"]},"jcv":{"name":"Jamestown Canyon","vector":"mosquito","labels":["Arboviral diseases, Jamestown Canyon virus disease"]},"pow":{"name":"Powassan","vector":"tick","labels":["Arboviral diseases, Powassan virus disease"]},"den":{"name":"Dengue","vector":"mosquito","labels":["Dengue virus infections, Dengue","Dengue virus infections, Severe dengue"]}},"today":"2026-09-12","newest":"2026-09-05","weeks":["2026-09-12","2026-09-05","2026-08-29","2026-08-22","2026-08-15","2026-08-08","2026-08-01","2026-07-25","2026-07-18","2026-07-11","2026-07-04","2026-06-27","2026-06-20","2026-06-13","2026-06-06","2026-05-30","2026-05-23","2026-05-16","2026-05-09","2026-05-02","2026-04-25","2026-04-18","2026-04-11","2026-04-04","2026-03-28","2026-03-21"],"counts":{"unknown_label":3780,"aggregate_rows":2808,"rows":12312,"revised_down":12,"states":56,"raw":18900,"features":52,"missing_shape":1,"cases":1254},"features":[{"type":"Feature","geometry":{"type":"Polygon","coordinates":[[[-88.47,31.89],[-88.43,32.25],[-88.35,32.93],[-88.28,33.53],[-88.2,34.09],[-88.13,34.62],[-88.2,35.01],[-87.62,35.0],[-87.21,35.0],[-86.47,34.99],[-85.61,34.98],[-85.53,34.62],[-85.47,34.34],[-85.4,33.96],[-85.31,33.53],[-85.23,33.11],[-85.12,32.75],[-85.07,32.58],[-84.97,32.44],[-84.96,32.31],[-85.0,32.19],[-85.06,31.99],[-85.13,31.78],[-85.06,31.62],[-85.07,31.47],[-85.09,31.31],[-85.04,31.11],[-85.03,31.0],[-85.5,31.0],[-86.03,30.99],[-86.56,31.0],[-86.93,31.0],[-87.43,31.0],[-87.59,30.95],[-87.44,30.69],[-87.44,30.51],[-87.45,30.34],[-87.89,30.24],[-87.91,30.45],[-87.93,30.65],[-88.08,30.55],[-88.2,30.32],[-88.39,30.37],[-88.43,31.0],[-88.46,31.62],[-88.47,31.89]]]},"properties":{"fips":"01","name":"Alabama","st":"AL","n":8,"by":{"lac":1,"wnv":7},"ytd":{"eee":0,"jcv":0,"lac":1,"pow":0,"sle":0,"wnv":7,"den":0},"prev_ytd":{"eee":0,"jcv":0,"lac":0,"pow":0,"sle":0,"wnv":22,"den":3},"asof":"2026-09-05","weeks":[{"w":"2026-08-22","n":{"wnv":2}},{"w":"2026-08-15","n":{"wnv":2}},{"w":"2026-07-25","n":{"lac":1,"wnv":1}},{"w":"2026-07-11","n":{"wnv":2}}]}},{"type":"Feature","geometry":{"type":"MultiPolygon","coordinates":[[[[179.48,51.98],[179.58,52.02],[179.64,52.03],[179.77,51.97],[179.74,51.91],[179.65,51.87],[179.54,51.89],[179.49,51.92],[179.48,51.98]]],[[[178.6,51.66],[178.66,51.68],[178.93,51.62],[179.19,51.48],[179.3,51.42],[179.42,51.42],[179.48,51.36],[179.25,51.34],[179.03,51.45],[178.93,51.53],[178.87,51.56],[178.77,51.55],[178.6,51.62],[178.6,51.66]]],[[[177.21,51.92],[177.31,51.93],[177.37,51.97],[177.46,52.0],[177.52,52.06],[177.58,52.15],[177.65,52.13],[177.68,52.09],[177.61,52.03],[177.57,52.0],[177.61,51.95],[177.6,51.92],[177.5,51.92],[177.41,51.93],[177.37,51.9],[177.33,51.87],[177.31,51.83],[177.26,51.86],[177.18,51.88],[177.21,51.92]]],[[[173.44,52.47],[173.56,52.48],[173.64,52.52],[173.77,52.51],[173.7,52.44],[173.75,52.39],[173.73,52.36],[173.65,52.36],[173.54,52.39],[173.49,52.37],[173.32,52.41],[173.44,52.47]]],[[[172.46,52.95],[172.64,53.01],[172.79,53.01],[173.12,52.99],[173.25,52.94],[173.43,52.87],[173.42,52.83],[173.28,52.83],[173.21,52.85],[173.17,52.8],[173.1,52.79],[172.98,52.79],[172.9,52.76],[172.81,52.79],[172.76,52.82],[172.75,52.88],[172.67,52.91],[172.59,52.92],[172.47,52.89],[172.46,52.95]]],[[[-133.94,55.92],[-133.64,56.13],[-133.58,56.35],[-133.08,56.25],[-132.83,56.1],[-132.62,55.91],[-132.3,55.55],[-132.04,55.27],[-131.98,54.9],[-132.16,54.69],[-132.4,54.78],[-132.75,54.67],[-132.99,54.82],[-133.24,55.09],[-133.34,55.21],[-133.59,55.31],[-133.63,55.36],[-133.75,55.54],[-133.7,55.78],[-133.94,55.92]]],[[[-134.39,56.86],[-134.05,56.92],[-133.92,56.96],[-133.74,57.07],[-133.1,57.01],[-132.74,56.71],[-132.81,56.51],[-133.3,56.46],[-133.82,56.39],[-133.94,56.18],[-134.09,56.09],[-134.21,55.88],[-134.38,55.93],[-134.28,56.26],[-134.2,56.53],[-134.38,56.67],[-134.39,56.86]]],[[[-134.96,58.4],[-134.72,58.21],[-134.33,58.13],[-134.18,58.08],[-133.91,57.81],[-133.87,57.48],[-133.88,57.27],[-134.3,57.14],[-134.5,57.03],[-134.56,57.41],[-134.75,57.94],[-134.96,58.4]]],[[[-136.56,58.03],[-136.39,58.25],[-135.88,58.26],[-135.28,58.1],[-135.0,57.88],[-134.83,57.37],[-134.66,56.8],[-134.67,56.52],[-134.65,56.2],[-134.84,56.31],[-135.12,56.6],[-135.36,56.76],[-135.48,56.89],[-135.57,57.11],[-135.86,57.0],[-135.83,57.17],[-135.89,57.41],[-136.16,57.56],[-136.37,57.83],[-136.57,57.93],[-136.56,58.03]]],[[[-153.6,59.39],[-153.49,59.41],[-153.41,59.41],[-153.35,59.38],[-153.39,59.33],[-153.51,59.32],[-153.55,59.33],[-153.6,59.39]]],[[[-154.78,57.37],[-154.41,57.6],[-153.93,57.7],[-153.65,57.88],[-153.39,57.94],[-153.36,58.11],[-153.1,58.26],[-152.79,58.41],[-152.62,58.6],[-152.34,58.59],[-152.5,58.37],[-152.36,58.42],[-152.09,58.37],[-151.86,58.17],[-152.37,58.12],[-152.77,58.03],[-152.79,57.86],[-152.53,57.91],[-152.35,57.84],[-152.39,57.67],[-152.26,57.53],[-152.47,57.43],[-152.7,57.28],[-152.88,57.16],[-153.27,57.0],[-153.58,57.05],[-153.7,56.85],[-153.97,56.74],[-154.31,56.85],[-154.52,57.13],[-154.78,57.37]]],[[[-154.84,56.42],[-154.71,56.52],[-154.51,56.6],[-154.21,56.61],[-154.1,56.62],[-154.03,56.57],[-153.88,56.57],[-153.89,56.53],[-154.02,56.48],[-154.27,56.5],[-154.53,56.5],[-154.62,56.48],[-154.74,56.4],[-154.84,56.42]]],[[[-155.75,55.82],[-155.69,55.87],[-155.6,55.93],[-155.53,55.91],[-155.55,55.85],[-155.57,55.79],[-155.59,55.76],[-155.72,55.77],[-155.75,55.82]]],[[[-157.29,56.57],[-157.17,56.6],[-157.09,56.58],[-156.98,56.54],[-157.05,56.52],[-157.17,56.53],[-157.33,56.52],[-157.29,56.57]]],[[[-160.25,54.91],[-160.19,55.04],[-160.19,55.12],[-160.14,55.17],[-160.03,55.2],[-159.87,55.28],[-159.84,55.25],[-159.82,55.18],[-159.67,55.18],[-159.52,55.25],[-159.49,55.19],[-159.34,55.05],[-159.2,54.91],[-159.27,54.86],[-159.31,54.87],[-159.45,54.94],[-159.5,55.03],[-159.63,55.04],[-159.75,55.07],[-159.81,55.03],[-160.03,55.02],[-160.1,54.96],[-160.23,54.86],[-160.25,54.91]]],[[[-160.86,55.32],[-160.81,55.37],[-160.69,55.4],[-160.52,55.38],[-160.33,55.44],[-160.26,55.46],[-160.14,55.45],[-160.15,55.38],[-160.31,55.3],[-160.34,55.25],[-160.47,55.29],[-160.53,55.26],[-160.49,55.18],[-160.53,55.13],[-160.66,55.16],[-160.74,55.15],[-160.82,55.12],[-160.84,55.2],[-160.86,55.32]]],[[[-161.08,58.64],[-161.06,58.7],[-160.92,58.75],[-160.7,58.82],[-160.68,58.78],[-160.88,58.58],[-160.96,58.55],[-161.08,58.55],[-161.08,58.64]]],[[[-162.84,54.51],[-162.59,54.45],[-162.34,54.4],[-162.39,54.37],[-162.47,54.34],[-162.61,54.37],[-162.76,54.37],[-162.86,54.42],[-162.84,54.51]]],[[[-165.6,54.05],[-165.47,54.08],[-165.28,54.12],[-165.14,54.13],[-165.01,54.13],[-164.88,54.2],[-164.82,54.23],[-164.76,54.22],[-164.82,54.16],[-164.96,54.06],[-165.09,54.07],[-165.29,54.04],[-165.56,54.02],[-165.6,54.05]]],[[[-166.06,54.19],[-165.96,54.22],[-165.87,54.22],[-165.63,54.3],[-165.48,54.3],[-165.38,54.2],[-165.55,54.11],[-165.78,54.07],[-165.88,54.04],[-165.9,54.06],[-166.05,54.04],[-166.11,54.12],[-166.06,54.19]]],[[[-167.43,60.2],[-166.84,60.21],[-166.62,60.32],[-166.24,60.39],[-165.88,60.34],[-165.72,60.16],[-165.53,59.95],[-165.86,59.87],[-166.19,59.75],[-166.67,59.88],[-167.23,60.04],[-167.43,60.2]]],[[[-167.79,53.34],[-167.37,53.45],[-167.16,53.61],[-167.01,53.76],[-167.03,53.95],[-166.59,53.96],[-166.26,53.98],[-166.16,53.94],[-166.41,53.81],[-166.1,53.83],[-166.44,53.64],[-166.75,53.44],[-167.17,53.41],[-167.49,53.27],[-167.85,53.31],[-167.79,53.34]]],[[[-168.13,65.66],[-166.77,66.07],[-164.4,66.58],[-163.73,66.5],[-163.84,66.26],[-163.69,66.06],[-163.0,66.08],[-162.33,66.03],[-161.61,66.18],[-161.32,66.22],[-161.32,66.37],[-161.86,66.46],[-162.35,66.73],[-162.47,66.95],[-163.01,67.03],[-163.74,67.21],[-164.53,67.73],[-165.69,68.09],[-166.31,68.29],[-166.33,68.44],[-166.22,68.87],[-164.53,68.92],[-163.25,69.31],[-162.99,69.83],[-161.88,70.33],[-160.22,70.56],[-159.12,70.82],[-158.03,70.83],[-156.91,71.24],[-156.31,71.26],[-155.59,71.17],[-155.76,70.99],[-155.73,70.83],[-155.36,70.99],[-154.58,71.01],[-154.29,70.82],[-153.43,70.89],[-152.7,70.88],[-152.35,70.74],[-152.3,70.6],[-151.73,70.5],[-151.18,70.38],[-150.56,70.48],[-149.87,70.51],[-148.93,70.43],[-148.35,70.3],[-147.76,70.22],[-146.99,70.15],[-146.01,70.14],[-145.18,69.99],[-144.46,70.03],[-143.43,70.12],[-142.45,69.96],[-141.71,69.79],[-141.0,68.5],[-141.0,60.39],[-139.99,60.19],[-139.2,60.09],[-138.59,59.75],[-137.53,58.91],[-136.83,59.16],[-136.47,59.46],[-136.35,59.6],[-135.48,59.8],[-135.03,59.56],[-135.03,59.35],[-134.66,59.18],[-134.4,58.98],[-134.25,58.86],[-133.46,58.39],[-133.08,58.0],[-132.56,57.5],[-132.05,57.05],[-131.9,56.75],[-131.17,56.45],[-130.74,56.34],[-130.34,56.13],[-130.0,55.99],[-130.14,55.76],[-130.09,55.49],[-130.0,55.27],[-130.34,54.92],[-130.69,54.72],[-130.87,54.77],[-130.97,54.98],[-131.05,55.12],[-131.19,55.11],[-131.19,54.92],[-131.49,54.93],[-131.61,55.0],[-131.68,55.12],[-131.85,55.42],[-132.18,55.59],[-132.13,55.81],[-132.32,55.85],[-132.59,56.02],[-132.88,56.24],[-133.07,56.33],[-132.9,56.46],[-132.45,56.56],[-132.56,56.76],[-133.16,57.09],[-133.54,57.24],[-133.52,57.53],[-133.7,57.79],[-134.08,58.15],[-134.47,58.23],[-135.06,58.45],[-135.1,58.29],[-135.41,58.34],[-135.73,58.4],[-136.27,58.31],[-136.57,58.24],[-136.86,58.32],[-137.24,58.45],[-137.68,58.66],[-137.93,58.84],[-138.36,59.07],[-139.07,59.29],[-139.86,59.55],[-139.61,59.82],[-140.18,59.74],[-140.92,59.75],[-141.59,59.96],[-142.43,60.07],[-143.27,60.06],[-143.9,59.99],[-144.19,60.12],[-144.66,60.2],[-145.14,60.3],[-145.64,60.3],[-146.2,60.35],[-146.61,60.24],[-146.99,60.24],[-147.34,59.96],[-147.51,59.84],[-147.93,59.78],[-148.1,59.95],[-148.4,59.98],[-148.69,59.95],[-149.04,59.94],[-149.38,59.84],[-149.51,59.77],[-149.75,59.64],[-150.13,59.56],[-150.38,59.34],[-150.58,59.45],[-150.82,59.33],[-151.0,59.22],[-151.47,59.24],[-151.92,59.23],[-151.74,59.47],[-151.3,59.7],[-151.87,59.77],[-151.61,60.1],[-151.31,60.39],[-151.41,60.71],[-150.9,60.85],[-150.34,61.02],[-149.9,60.94],[-149.83,61.08],[-150.23,61.16],[-150.54,61.27],[-150.97,61.19],[-151.25,61.04],[-151.72,60.9],[-151.72,60.71],[-152.26,60.54],[-152.38,60.35],[-152.58,60.17],[-152.7,59.92],[-153.02,59.75],[-153.31,59.63],[-153.58,59.56],[-153.75,59.43],[-154.03,59.33],[-154.18,59.12],[-153.7,59.07],[-153.32,58.91],[-153.4,58.74],[-153.73,58.61],[-154.0,58.49],[-154.1,58.28],[-154.48,58.05],[-155.03,58.0],[-155.27,57.82],[-155.61,57.78],[-155.73,57.55],[-156.09,57.44],[-156.34,57.25],[-156.48,57.07],[-156.83,56.9],[-157.18,56.77],[-157.56,56.7],[-157.68,56.61],[-157.87,56.57],[-158.13,56.46],[-158.44,56.43],[-158.21,56.29],[-158.4,56.06],[-158.65,55.96],[-159.09,55.84],[-159.57,55.63],[-159.68,55.66],[-159.77,55.85],[-160.06,55.72],[-160.46,55.53],[-160.67,55.46],[-161.08,55.41],[-161.48,55.44],[-161.48,55.63],[-161.69,55.41],[-161.72,55.15],[-161.79,55.05],[-162.12,55.1],[-162.24,54.88],[-162.44,54.93],[-162.59,54.97],[-162.96,54.99],[-163.35,54.81],[-163.04,54.65],[-163.8,54.64],[-164.35,54.47],[-164.86,54.43],[-164.86,54.62],[-164.58,54.9],[-164.12,54.97],[-163.53,55.04],[-163.31,55.13],[-162.9,55.25],[-162.37,55.6],[-161.9,55.83],[-161.16,56.01],[-160.79,55.89],[-160.53,55.96],[-160.39,56.28],[-159.83,56.54],[-158.89,56.81],[-158.65,56.85],[-158.32,57.28],[-157.77,57.55],[-157.68,57.75],[-157.48,58.22],[-157.31,58.56],[-156.99,58.84],[-157.2,58.85],[-158.14,58.62],[-158.42,58.77],[-158.77,58.86],[-158.83,58.63],[-159.06,58.42],[-159.64,58.84],[-159.75,58.88],[-160.15,58.87],[-160.32,59.07],[-160.87,58.88],[-161.22,58.78],[-161.55,58.61],[-162.17,58.65],[-161.8,58.99],[-161.99,59.34],[-161.77,59.57],[-162.11,59.92],[-162.45,60.17],[-162.51,59.98],[-162.93,59.91],[-163.93,59.8],[-164.13,59.99],[-164.62,60.23],[-165.13,60.43],[-164.99,60.54],[-165.36,60.51],[-165.07,60.68],[-165.03,60.84],[-165.13,61.01],[-165.33,61.17],[-165.64,61.14],[-165.83,61.31],[-165.75,61.49],[-166.07,61.49],[-166.05,61.77],[-165.64,61.85],[-165.67,62.14],[-165.05,62.6],[-164.88,62.81],[-164.44,63.2],[-163.73,63.21],[-163.05,63.06],[-162.72,63.22],[-162.35,63.45],[-162.4,63.63],[-161.68,63.47],[-160.78,63.75],[-160.96,64.22],[-161.47,64.51],[-160.79,64.62],[-161.13,64.9],[-161.52,64.75],[-162.06,64.69],[-162.6,64.48],[-162.86,64.5],[-163.09,64.44],[-163.69,64.57],[-164.31,64.56],[-165.29,64.48],[-166.48,64.75],[-166.59,64.96],[-166.89,65.14],[-166.35,65.28],[-166.9,65.36],[-167.68,65.49],[-168.13,65.66]]],[[[-169.29,52.78],[-168.78,53.05],[-168.44,53.27],[-168.24,53.52],[-167.81,53.47],[-168.09,53.29],[-168.46,53.06],[-168.85,52.91],[-169.29,52.78]]],[[[-170.17,52.78],[-170.09,52.92],[-170.03,52.95],[-169.86,52.91],[-169.76,52.98],[-169.82,53.07],[-169.75,53.09],[-169.68,53.03],[-169.66,52.95],[-169.67,52.86],[-169.7,52.78],[-169.82,52.79],[-169.95,52.79],[-170.08,52.72],[-170.21,52.71],[-170.17,52.78]]],[[[-170.82,52.64],[-170.67,52.7],[-170.53,52.68],[-170.59,52.59],[-170.69,52.58],[-170.79,52.54],[-170.84,52.56],[-170.82,52.64]]],[[[-171.84,63.56],[-171.61,63.78],[-170.95,63.57],[-170.34,63.69],[-170.05,63.54],[-169.57,63.39],[-168.69,63.3],[-169.07,63.18],[-169.58,63.03],[-169.79,63.04],[-170.26,63.18],[-170.9,63.42],[-171.43,63.31],[-171.85,63.48],[-171.84,63.56]]],[[[-172.61,52.31],[-172.54,52.36],[-172.45,52.39],[-172.33,52.37],[-172.3,52.33],[-172.41,52.28],[-172.53,52.25],[-172.64,52.24],[-172.61,52.31]]],[[[-173.07,60.7],[-172.91,60.6],[-172.85,60.52],[-172.55,60.41],[-172.38,60.38],[-172.24,60.34],[-172.25,60.3],[-172.42,60.31],[-172.63,60.34],[-172.9,60.45],[-173.06,60.5],[-173.12,60.66],[-173.07,60.7]]],[[[-175.3,52.06],[-174.56,52.16],[-174.19,52.42],[-174.02,52.13],[-173.38,52.11],[-173.17,52.04],[-173.82,52.04],[-174.38,52.08],[-174.89,52.02],[-175.3,52.06]]],[[[-176.95,51.69],[-176.81,51.93],[-176.55,51.96],[-176.31,51.87],[-176.21,52.06],[-175.89,51.99],[-175.43,51.97],[-176.0,51.8],[-176.54,51.7],[-176.94,51.59],[-176.95,51.69]]],[[[-177.67,51.74],[-177.49,51.77],[-177.31,51.78],[-177.23,51.8],[-177.2,51.91],[-177.18,51.94],[-177.1,51.94],[-177.04,51.9],[-177.1,51.83],[-177.1,51.72],[-177.19,51.7],[-177.28,51.68],[-177.35,51.7],[-177.48,51.68],[-177.65,51.65],[-177.71,51.7],[-177.67,51.74]]],[[[-178.2,51.91],[-178.09,51.92],[-177.95,51.91],[-177.89,51.85],[-177.76,51.85],[-177.62,51.85],[-177.65,51.8],[-177.75,51.77],[-177.83,51.71],[-177.87,51.68],[-177.91,51.6],[-178.05,51.63],[-178.12,51.68],[-178.06,51.7],[-177.98,51.72],[-178.0,51.78],[-178.09,51.81],[-178.22,51.87],[-178.2,51.91]]]]},"properties":{"fips":"02","name":"Alaska","st":"AK","n":0,"by":{},"ytd":{},"prev_ytd":{},"asof":null,"weeks":[]}},{"type":"Feature","geometry":{"type":"Polygon","coordinates":[[[-114.8,32.59],[-114.71,32.74],[-114.53,32.78],[-114.48,32.97],[-114.63,33.03],[-114.68,33.23],[-114.71,33.38],[-114.63,33.43],[-114.53,33.66],[-114.52,33.83],[-114.51,33.96],[-114.43,34.09],[-114.23,34.19],[-114.14,34.31],[-114.38,34.45],[-114.49,34.73],[-114.63,35.0],[-114.57,35.14],[-114.66,35.52],[-114.7,35.81],[-114.74,36.01],[-114.67,36.12],[-114.49,36.13],[-114.34,36.11],[-114.15,36.02],[-114.05,36.27],[-114.05,37.0],[-112.83,37.0],[-111.41,37.0],[-110.75,37.0],[-109.05,37.0],[-109.05,35.88],[-109.05,34.96],[-109.05,33.88],[-109.05,33.21],[-109.05,32.08],[-110.46,31.33],[-113.33,32.04],[-114.8,32.55],[-114.8,32.59]]]},"properties":{"fips":"04","name":"Arizona","st":"AZ","n":1,"by":{"den":1},"ytd":{"eee":0,"jcv":0,"lac":0,"pow":0,"sle":0,"wnv":0,"den":5},"prev_ytd":{"eee":0,"jcv":0,"lac":0,"pow":0,"sle":2,"wnv":80,"den":19},"asof":"2026-09-05","weeks":[{"w":"2026-08-22","n":{"den":1}}]}},{"type":"Feature","geometry":{"type":"Polygon","coordinates":[[[-94.62,36.5],[-93.87,36.5],[-93.31,36.5],[-92.84,36.5],[-92.35,36.5],[-91.67,36.5],[-91.41,36.5],[-90.77,36.5],[-90.15,36.49],[-90.06,36.36],[-90.19,36.2],[-90.34,36.05],[-89.96,36.0],[-89.65,35.92],[-89.73,35.85],[-89.92,35.76],[-89.93,35.61],[-90.05,35.5],[-90.11,35.41],[-90.1,35.25],[-90.16,35.13],[-90.3,35.03],[-90.31,34.87],[-90.46,34.84],[-90.55,34.66],[-90.57,34.52],[-90.64,34.38],[-90.75,34.29],[-90.88,34.18],[-90.94,34.12],[-90.89,34.03],[-91.05,33.98],[-91.06,33.88],[-91.09,33.78],[-91.1,33.66],[-91.21,33.55],[-91.17,33.46],[-91.13,33.28],[-91.1,33.13],[-91.16,33.01],[-91.46,33.01],[-92.07,33.01],[-92.72,33.01],[-93.24,33.02],[-93.72,33.02],[-94.04,33.16],[-94.04,33.55],[-94.21,33.57],[-94.35,33.56],[-94.48,33.79],[-94.47,34.36],[-94.45,34.89],[-94.43,35.37],[-94.47,35.64],[-94.55,36.1],[-94.62,36.5]]]},"properties":{"fips":"05","name":"Arkansas","st":"AR","n":6,"by":{"wnv":5,"den":1},"ytd":{"eee":0,"jcv":0,"lac":0,"pow":0,"sle":0,"wnv":5,"den":1},"prev_ytd":{"eee":0,"jcv":0,"lac":0,"pow":0,"sle":1,"wnv":35,"den":11},"asof":"2026-09-05","weeks":[{"w":"2026-08-22","n":{"wnv":2}},{"w":"2026-08-08","n":{"wnv":1}},{"w":"2026-08-01","n":{"wnv":1}},{"w":"2026-06-06","n":{"wnv":1}},{"w":"2026-05-30","n":{"den":1}}]}},{"type":"Feature","geometry":{"type":"MultiPolygon","coordinates":[[[[-118.59,33.47],[-118.48,33.49],[-118.37,33.41],[-118.29,33.35],[-118.33,33.3],[-118.38,33.32],[-118.47,33.33],[-118.48,33.37],[-118.56,33.43],[-118.59,33.47]]],[[[-118.59,33.04],[-118.54,32.98],[-118.45,32.9],[-118.35,32.82],[-118.43,32.8],[-118.49,32.84],[-118.58,32.93],[-118.64,33.02],[-118.59,33.04]]],[[[-119.92,34.06],[-119.86,34.07],[-119.74,34.05],[-119.57,34.05],[-119.47,34.05],[-119.44,34.05],[-119.36,34.05],[-119.36,34.0],[-119.39,33.99],[-119.49,34.0],[-119.55,34.0],[-119.66,33.99],[-119.72,33.96],[-119.8,33.96],[-119.87,33.98],[-119.88,34.02],[-119.92,34.06]]],[[[-120.37,34.08],[-120.24,34.06],[-120.14,34.03],[-120.06,34.04],[-119.98,33.98],[-119.97,33.94],[-120.05,33.91],[-120.12,33.9],[-120.18,33.93],[-120.2,33.96],[-120.36,33.99],[-120.45,34.03],[-120.37,34.08]]],[[[-124.39,40.51],[-124.12,41.05],[-124.09,41.29],[-124.12,41.63],[-124.25,41.79],[-124.0,42.0],[-123.44,42.0],[-123.05,42.0],[-122.29,42.01],[-121.45,42.0],[-120.88,41.99],[-120.0,41.99],[-120.0,40.87],[-120.0,39.96],[-120.0,39.32],[-120.0,39.07],[-119.58,38.71],[-118.95,38.27],[-117.83,37.47],[-117.0,36.85],[-115.89,36.0],[-115.41,35.62],[-114.8,35.14],[-114.58,34.81],[-114.38,34.52],[-114.17,34.34],[-114.18,34.24],[-114.41,34.11],[-114.45,34.01],[-114.51,33.86],[-114.5,33.69],[-114.6,33.49],[-114.72,33.41],[-114.67,33.26],[-114.67,33.04],[-114.51,33.02],[-114.47,32.84],[-114.67,32.73],[-115.47,32.67],[-116.63,32.58],[-117.14,32.62],[-117.25,32.67],[-117.28,32.84],[-117.26,32.86],[-117.31,33.09],[-117.6,33.39],[-117.73,33.48],[-117.93,33.61],[-118.13,33.75],[-118.32,33.71],[-118.43,33.77],[-118.52,34.03],[-118.81,34.0],[-119.07,34.09],[-119.27,34.25],[-119.46,34.37],[-119.69,34.41],[-119.87,34.41],[-120.3,34.47],[-120.58,34.56],[-120.61,34.73],[-120.65,34.98],[-120.67,35.15],[-120.9,35.25],[-120.96,35.45],[-121.27,35.67],[-121.41,35.84],[-121.58,36.02],[-121.83,36.24],[-121.97,36.58],[-121.8,36.78],[-121.91,36.97],[-122.11,36.96],[-122.29,37.1],[-122.42,37.25],[-122.44,37.44],[-122.52,37.58],[-122.51,37.74],[-122.39,37.79],[-122.39,37.71],[-122.17,37.5],[-122.15,37.64],[-122.25,37.73],[-122.3,37.83],[-122.42,37.96],[-122.32,38.01],[-122.39,38.14],[-122.5,38.03],[-122.45,37.89],[-122.6,37.88],[-122.8,37.98],[-123.01,38.0],[-122.99,38.27],[-123.07,38.34],[-123.33,38.57],[-123.54,38.77],[-123.71,38.91],[-123.77,39.19],[-123.77,39.55],[-123.85,39.83],[-124.04,40.01],[-124.19,40.13],[-124.35,40.33],[-124.39,40.51]]]]},"properties":{"fips":"06","name":"California","st":"CA","n":85,"by":{"wnv":66,"den":19},"ytd":{"eee":0,"jcv":0,"lac":0,"pow":0,"sle":0,"wnv":66,"den":19},"prev_ytd":{"eee":0,"jcv":0,"lac":0,"pow":0,"sle":0,"wnv":57,"den":161},"asof":"2026-09-05","weeks":[{"w":"2026-08-29","n":{"wnv":20}},{"w":"2026-08-22","n":{"wnv":17}},{"w":"2026-08-15","n":{"wnv":11}},{"w":"2026-08-08","n":{"wnv":7,"den":5}},{"w":"2026-08-01","n":{"wnv":6}},{"w":"2026-07-25","n":{"wnv":3}}]}},{"type":"Feature","geometry":{"type":"Polygon","coordinates":[[[-109.06,38.5],[-109.05,39.66],[-109.05,40.65],[-108.25,41.0],[-106.86,41.0],[-105.28,41.0],[-104.5,41.0],[-103.38,41.0],[-102.56,41.0],[-102.05,40.7],[-102.05,40.0],[-102.05,39.37],[-102.05,38.62],[-102.04,38.11],[-102.04,37.39],[-102.04,36.99],[-103.0,37.0],[-104.34,36.99],[-105.22,37.0],[-105.72,37.0],[-106.34,36.99],[-107.42,37.0],[-108.62,37.0],[-109.04,38.15],[-109.06,38.5]]]},"properties":{"fips":"08","name":"Colorado","st":"CO","n":19,"by":{"wnv":14,"den":5},"ytd":{"eee":0,"jcv":0,"lac":0,"pow":0,"sle":0,"wnv":14,"den":7},"prev_ytd":{"eee":0,"jcv":0,"lac":0,"pow":0,"sle":0,"wnv":243,"den":14},"asof":"2026-09-05","weeks":[{"w":"2026-08-29","n":{"wnv":6,"den":2}},{"w":"2026-08-22","n":{"wnv":3}},{"w":"2026-08-15","n":{"wnv":1}},{"w":"2026-08-08","n":{"wnv":2,"den":3}},{"w":"2026-06-27","n":{"wnv":1}},{"w":"2026-06-06","n":{"wnv":1}}]}},{"type":"Feature","geometry":{"type":"Polygon","coordinates":[[[-73.7,41.12],[-73.54,41.38],[-73.53,41.53],[-73.49,42.05],[-73.01,42.04],[-72.78,42.0],[-72.53,42.03],[-72.2,42.03],[-71.89,42.02],[-71.79,41.73],[-71.79,41.6],[-71.84,41.35],[-72.02,41.32],[-72.24,41.3],[-72.39,41.26],[-72.55,41.25],[-72.69,41.25],[-72.9,41.25],[-72.99,41.23],[-73.11,41.15],[-73.26,41.12],[-73.37,41.1],[-73.47,41.05],[-73.66,40.98],[-73.73,41.1],[-73.7,41.12]]]},"properties":{"fips":"09","name":"Connecticut","st":"CT","n":8,"by":{"pow":1,"wnv":2,"den":5},"ytd":{"eee":0,"jcv":0,"lac":0,"pow":1,"sle":0,"wnv":2,"den":5},"prev_ytd":{"eee":0,"jcv":0,"lac":0,"pow":4,"sle":0,"wnv":6,"den":14},"asof":"2026-09-05","weeks":[{"w":"2026-08-29","n":{"wnv":2}},{"w":"2026-08-22","n":{"den":1}},{"w":"2026-08-15","n":{"den":1}},{"w":"2026-08-08","n":{"den":1}},{"w":"2026-07-25","n":{"pow":1}},{"w":"2026-07-04","n":{"den":1}}]}},{"type":"Feature","geometry":{"type":"Polygon","coordinates":[[[-75.77,39.72],[-75.59,39.84],[-75.48,39.83],[-75.51,39.69],[-75.51,39.58],[-75.57,39.44],[-75.41,39.27],[-75.34,39.02],[-75.23,38.84],[-75.07,38.7],[-75.34,38.45],[-75.7,38.56],[-75.75,39.14],[-75.77,39.38],[-75.77,39.72]]]},"properties":{"fips":"10","name":"Delaware","st":"DE","n":2,"by":{"wnv":2},"ytd":{"eee":0,"jcv":0,"lac":0,"pow":0,"sle":0,"wnv":2,"den":0},"prev_ytd":{"eee":0,"jcv":0,"lac":0,"pow":0,"sle":0,"wnv":2,"den":2},"asof":"2026-09-05","weeks":[{"w":"2026-08-22","n":{"wnv":1}},{"w":"2026-08-08","n":{"wnv":1}}]}},{"type":"Feature","geometry":{"type":"Polygon","coordinates":[[[-77.12,38.93],[-77.04,39.0],[-77.0,38.97],[-76.91,38.89],[-76.98,38.84],[-77.04,38.79],[-77.04,38.84],[-77.04,38.87],[-77.09,38.9],[-77.12,38.93]]]},"properties":{"fips":"11","name":"District of Columbia","st":"DC","n":7,"by":{"wnv":5,"den":2},"ytd":{"eee":0,"jcv":0,"lac":0,"pow":0,"sle":0,"wnv":5,"den":2},"prev_ytd":{"eee":0,"jcv":0,"lac":0,"pow":0,"sle":0,"wnv":2,"den":5},"asof":"2026-09-05","weeks":[{"w":"2026-08-29","n":{"wnv":2}},{"w":"2026-08-22","n":{"wnv":1}},{"w":"2026-08-08","n":{"wnv":2}},{"w":"2026-06-27","n":{"den":1}},{"w":"2026-04-25","n":{"den":1}}]}},{"type":"Feature","geometry":{"type":"MultiPolygon","coordinates":[[[[-81.81,24.57],[-81.75,24.65],[-81.67,24.7],[-81.58,24.74],[-81.57,24.76],[-81.44,24.81],[-81.31,24.75],[-81.24,24.67],[-81.34,24.64],[-81.4,24.62],[-81.44,24.64],[-81.52,24.62],[-81.59,24.59],[-81.69,24.56],[-81.81,24.55],[-81.81,24.57]]],[[[-87.59,30.95],[-87.43,31.0],[-86.93,31.0],[-86.56,31.0],[-86.03,30.99],[-85.5,31.0],[-85.03,31.0],[-84.94,30.88],[-84.86,30.71],[-84.29,30.68],[-83.82,30.66],[-83.36,30.64],[-82.88,30.61],[-82.46,30.58],[-82.2,30.47],[-82.09,30.36],[-82.03,30.45],[-82.04,30.69],[-81.91,30.82],[-81.76,30.77],[-81.56,30.72],[-81.43,30.7],[-81.43,30.5],[-81.29,29.91],[-81.21,29.67],[-80.97,29.15],[-80.65,28.68],[-80.61,28.34],[-80.45,27.86],[-80.25,27.38],[-80.12,27.07],[-80.03,26.78],[-80.03,26.61],[-80.08,26.32],[-80.11,26.02],[-80.11,25.87],[-80.16,25.66],[-80.3,25.61],[-80.31,25.39],[-80.23,25.34],[-80.65,24.87],[-81.04,24.77],[-80.5,25.16],[-80.71,25.15],[-80.88,25.17],[-81.14,25.18],[-81.21,25.5],[-81.38,25.78],[-81.64,25.88],[-81.81,26.15],[-81.96,26.45],[-82.18,26.48],[-82.28,26.79],[-82.52,27.21],[-82.69,27.44],[-82.58,27.6],[-82.43,27.77],[-82.55,27.85],[-82.62,27.73],[-82.74,27.68],[-82.84,27.94],[-82.86,28.17],[-82.7,28.42],[-82.67,28.62],[-82.71,28.8],[-82.76,29.0],[-82.8,29.11],[-83.02,29.12],[-83.11,29.27],[-83.2,29.39],[-83.4,29.52],[-83.48,29.7],[-83.68,29.92],[-84.0,30.1],[-84.18,30.07],[-84.34,29.97],[-84.42,29.9],[-84.56,29.81],[-84.88,29.66],[-85.26,29.68],[-85.39,29.92],[-85.57,30.03],[-86.0,30.27],[-86.4,30.38],[-86.85,30.38],[-87.27,30.32],[-87.45,30.34],[-87.44,30.51],[-87.44,30.69],[-87.59,30.95]]]]},"properties":{"fips":"12","name":"Florida","st":"FL","n":150,"by":{"wnv":2,"den":148},"ytd":{"eee":0,"jcv":0,"lac":0,"pow":0,"sle":0,"wnv":2,"den":161},"prev_ytd":{"eee":0,"jcv":0,"lac":0,"pow":0,"sle":0,"wnv":13,"den":278},"asof":"2026-09-05","weeks":[{"w":"2026-08-22","n":{"wnv":1,"den":53}},{"w":"2026-08-15","n":{"den":54}},{"w":"2026-08-01","n":{"den":6}},{"w":"2026-07-25","n":{"den":6}},{"w":"2026-07-18","n":{"den":5}},{"w":"2026-07-11","n":{"den":5}}]}},{"type":"Feature","geometry":{"type":"Polygon","coordinates":[[[-85.61,34.98],[-85.28,34.98],[-84.98,34.99],[-84.73,34.99],[-84.13,34.99],[-83.62,34.99],[-83.11,35.0],[-83.25,34.85],[-83.35,34.73],[-83.28,34.65],[-83.1,34.53],[-82.99,34.47],[-82.82,34.36],[-82.74,34.22],[-82.59,34.01],[-82.43,33.87],[-82.2,33.66],[-82.11,33.6],[-81.93,33.46],[-81.85,33.25],[-81.75,33.15],[-81.54,33.04],[-81.42,32.83],[-81.4,32.61],[-81.28,32.54],[-81.13,32.34],[-81.12,32.18],[-80.94,32.06],[-80.91,31.94],[-81.08,31.76],[-81.13,31.62],[-81.21,31.46],[-81.26,31.3],[-81.4,31.12],[-81.41,30.98],[-81.44,30.71],[-81.63,30.73],[-81.81,30.79],[-81.94,30.83],[-82.05,30.66],[-82.04,30.4],[-82.14,30.36],[-82.23,30.52],[-82.46,30.58],[-83.13,30.62],[-83.5,30.65],[-84.01,30.67],[-84.38,30.69],[-84.86,30.71],[-84.98,30.94],[-85.02,31.07],[-85.09,31.3],[-85.07,31.43],[-85.06,31.57],[-85.12,31.76],[-85.07,31.97],[-85.06,32.14],[-84.89,32.26],[-84.98,32.38],[-85.01,32.52],[-85.11,32.73],[-85.19,32.87],[-85.31,33.48],[-85.39,33.9],[-85.46,34.29],[-85.53,34.59],[-85.59,34.92],[-85.61,34.98]]]},"properties":{"fips":"13","name":"Georgia","st":"GA","n":9,"by":{"wnv":4,"den":5},"ytd":{"eee":0,"jcv":0,"lac":0,"pow":0,"sle":0,"wnv":4,"den":6},"prev_ytd":{"eee":0,"jcv":0,"lac":0,"pow":1,"sle":0,"wnv":12,"den":9},"asof":"2026-09-05","weeks":[{"w":"2026-08-22","n":{"wnv":2,"den":2}},{"w":"2026-08-15","n":{"wnv":1}},{"w":"2026-08-01","n":{"wnv":1}},{"w":"2026-05-16","n":{"den":1}},{"w":"2026-05-02","n":{"den":1}},{"w":"2026-04-18","n":{"den":1}}]}},{"type":"Feature","geometry":{"type":"MultiPolygon","coordinates":[[[[-156.05,19.78],[-155.92,19.89],[-155.82,20.03],[-155.89,20.25],[-155.7,20.19],[-155.5,20.11],[-155.12,19.9],[-155.04,19.74],[-154.95,19.61],[-154.88,19.43],[-155.16,19.27],[-155.36,19.21],[-155.56,19.07],[-155.67,18.92],[-155.91,19.1],[-155.89,19.35],[-155.97,19.56],[-156.03,19.67],[-156.05,19.78]]],[[[-156.7,20.92],[-156.52,20.95],[-156.24,20.94],[-156.0,20.8],[-156.13,20.63],[-156.43,20.6],[-156.47,20.79],[-156.63,20.82],[-156.7,20.92]]],[[[-156.67,20.56],[-156.61,20.59],[-156.57,20.61],[-156.54,20.58],[-156.54,20.53],[-156.59,20.51],[-156.67,20.5],[-156.7,20.53],[-156.67,20.56]]],[[[-157.06,20.91],[-157.01,20.93],[-156.94,20.93],[-156.87,20.89],[-156.84,20.86],[-156.81,20.82],[-156.84,20.77],[-156.89,20.75],[-156.91,20.74],[-156.97,20.73],[-156.99,20.78],[-156.99,20.83],[-157.01,20.85],[-157.06,20.89],[-157.06,20.91]]],[[[-157.28,21.16],[-157.25,21.18],[-157.26,21.23],[-157.2,21.22],[-157.13,21.2],[-157.04,21.19],[-157.01,21.2],[-156.98,21.21],[-156.96,21.21],[-156.92,21.17],[-156.92,21.17],[-156.84,21.17],[-156.74,21.18],[-156.71,21.16],[-156.74,21.11],[-156.8,21.07],[-156.88,21.05],[-156.95,21.07],[-157.03,21.09],[-157.08,21.1],[-157.17,21.09],[-157.25,21.09],[-157.31,21.1],[-157.28,21.16]]],[[[-158.23,21.58],[-157.99,21.71],[-157.84,21.53],[-157.72,21.46],[-157.66,21.31],[-157.78,21.27],[-157.95,21.31],[-158.1,21.3],[-158.18,21.4],[-158.28,21.58],[-158.23,21.58]]],[[[-159.78,22.07],[-159.75,22.1],[-159.73,22.14],[-159.71,22.16],[-159.61,22.2],[-159.58,22.22],[-159.54,22.22],[-159.51,22.2],[-159.49,22.23],[-159.43,22.22],[-159.4,22.23],[-159.36,22.21],[-159.31,22.18],[-159.29,22.12],[-159.32,22.06],[-159.33,22.04],[-159.33,22.0],[-159.34,21.95],[-159.38,21.91],[-159.44,21.87],[-159.53,21.88],[-159.57,21.89],[-159.6,21.89],[-159.65,21.93],[-159.71,21.96],[-159.75,21.98],[-159.79,22.02],[-159.78,22.07]]],[[[-160.25,21.82],[-160.23,21.89],[-160.19,21.92],[-160.14,21.95],[-160.12,21.96],[-160.11,22.0],[-160.07,22.0],[-160.06,22.0],[-160.05,21.98],[-160.07,21.96],[-160.09,21.93],[-160.08,21.9],[-160.12,21.88],[-160.16,21.87],[-160.18,21.85],[-160.19,21.82],[-160.21,21.78],[-160.23,21.79],[-160.25,21.82]]]]},"properties":{"fips":"15","name":"Hawaii","st":"HI","n":5,"by":{"wnv":1,"den":4},"ytd":{"eee":0,"jcv":0,"lac":0,"pow":0,"sle":0,"wnv":0,"den":7},"prev_ytd":{"eee":0,"jcv":0,"lac":0,"pow":0,"sle":0,"wnv":0,"den":13},"asof":"2026-09-05","weeks":[{"w":"2026-08-22","n":{"den":1}},{"w":"2026-07-18","n":{"den":1}},{"w":"2026-06-13","n":{"wnv":1}},{"w":"2026-04-11","n":{"den":1}},{"w":"2026-03-28","n":{"den":1}}]}},{"type":"Feature","geometry":{"type":"Polygon","coordinates":[[[-117.24,44.39],[-117.14,44.56],[-116.93,44.79],[-116.86,44.98],[-116.75,45.11],[-116.59,45.44],[-116.54,45.73],[-116.79,45.84],[-116.92,45.99],[-116.92,46.17],[-117.06,46.35],[-117.04,46.54],[-117.04,47.37],[-117.04,48.12],[-117.03,49.0],[-116.05,48.5],[-116.05,48.12],[-115.96,47.9],[-115.72,47.7],[-115.72,47.53],[-115.58,47.37],[-115.33,47.26],[-115.12,47.06],[-114.93,46.91],[-114.77,46.74],[-114.62,46.66],[-114.36,46.67],[-114.35,46.51],[-114.43,46.31],[-114.52,46.17],[-114.44,45.99],[-114.42,45.85],[-114.5,45.67],[-114.51,45.56],[-114.25,45.54],[-114.02,45.7],[-113.86,45.62],[-113.76,45.43],[-113.58,45.13],[-113.45,44.95],[-113.3,44.8],[-113.05,44.63],[-112.95,44.42],[-112.83,44.44],[-112.47,44.48],[-112.22,44.54],[-111.81,44.51],[-111.52,44.58],[-111.39,44.76],[-111.22,44.62],[-111.05,44.47],[-111.05,43.91],[-111.04,43.07],[-111.05,42.51],[-111.47,42.0],[-112.11,42.0],[-112.65,42.0],[-113.5,41.99],[-114.28,41.99],[-115.31,42.0],[-116.63,42.0],[-117.03,42.81],[-117.02,43.82],[-116.94,44.03],[-116.9,44.18],[-117.12,44.28],[-117.19,44.33],[-117.24,44.39]]]},"properties":{"fips":"16","name":"Idaho","st":"ID","n":2,"by":{"wnv":2},"ytd":{"eee":0,"jcv":0,"lac":0,"pow":0,"sle":0,"wnv":1,"den":1},"prev_ytd":{"eee":0,"jcv":0,"lac":0,"pow":0,"sle":0,"wnv":26,"den":6},"asof":"2026-09-05","weeks":[{"w":"2026-08-15","n":{"wnv":1}},{"w":"2026-07-25","n":{"wnv":1}}]}},{"type":"Feature","geometry":{"type":"Polygon","coordinates":[[[-91.51,40.2],[-91.42,40.38],[-91.39,40.53],[-91.19,40.64],[-91.12,40.73],[-90.98,40.91],[-90.95,41.07],[-91.08,41.21],[-91.07,41.34],[-90.92,41.42],[-90.62,41.48],[-90.42,41.56],[-90.31,41.7],[-90.24,41.78],[-90.16,41.93],[-90.16,42.04],[-90.31,42.19],[-90.42,42.32],[-90.56,42.44],[-90.44,42.51],[-89.93,42.51],[-89.37,42.5],[-88.78,42.49],[-88.31,42.5],[-87.8,42.49],[-87.83,42.3],[-87.74,42.13],[-87.68,42.08],[-87.62,41.9],[-87.61,41.84],[-87.53,41.75],[-87.53,41.47],[-87.53,41.02],[-87.53,40.53],[-87.53,40.15],[-87.53,39.61],[-87.58,39.34],[-87.58,39.21],[-87.57,39.06],[-87.53,38.91],[-87.5,38.76],[-87.65,38.57],[-87.74,38.44],[-87.91,38.27],[-87.93,38.15],[-88.02,37.96],[-88.03,37.8],[-88.13,37.58],[-88.06,37.49],[-88.36,37.41],[-88.49,37.34],[-88.44,37.1],[-88.53,37.07],[-88.75,37.16],[-88.93,37.23],[-89.17,37.07],[-89.19,36.99],[-89.38,37.1],[-89.52,37.28],[-89.43,37.41],[-89.5,37.57],[-89.59,37.72],[-89.78,37.85],[-89.97,37.92],[-90.13,38.05],[-90.25,38.13],[-90.37,38.32],[-90.29,38.44],[-90.25,38.55],[-90.19,38.69],[-90.12,38.81],[-90.28,38.92],[-90.47,38.96],[-90.66,38.92],[-90.68,39.1],[-90.84,39.34],[-91.06,39.49],[-91.18,39.6],[-91.36,39.76],[-91.43,39.91],[-91.5,40.08],[-91.51,40.2]]]},"properties":{"fips":"17","name":"Illinois","st":"IL","n":12,"by":{"pow":1,"wnv":6,"den":5},"ytd":{"eee":0,"jcv":0,"lac":0,"pow":1,"sle":0,"wnv":5,"den":5},"prev_ytd":{"eee":0,"jcv":0,"lac":1,"pow":1,"sle":0,"wnv":101,"den":25},"asof":"2026-09-05","weeks":[{"w":"2026-08-29","n":{"wnv":5,"den":2}},{"w":"2026-08-22","n":{"pow":1}},{"w":"2026-08-15","n":{"den":1}},{"w":"2026-08-08","n":{"den":1}},{"w":"2026-07-04","n":{"wnv":1}},{"w":"2026-04-25","n":{"den":1}}]}},{"type":"Feature","geometry":{"type":"Polygon","coordinates":[[[-88.06,37.87],[-87.99,38.06],[-87.97,38.23],[-87.78,38.37],[-87.65,38.51],[-87.62,38.64],[-87.53,38.85],[-87.53,38.97],[-87.64,39.16],[-87.59,39.26],[-87.53,39.47],[-87.53,39.88],[-87.53,40.48],[-87.53,40.9],[-87.53,41.3],[-87.52,41.71],[-87.26,41.62],[-86.93,41.72],[-86.64,41.76],[-86.23,41.76],[-85.66,41.76],[-84.83,41.76],[-84.8,41.43],[-84.8,41.12],[-84.8,40.73],[-84.8,40.35],[-84.81,40.01],[-84.82,39.57],[-84.82,39.3],[-84.9,39.05],[-84.88,38.92],[-84.8,38.86],[-84.96,38.78],[-85.19,38.69],[-85.33,38.73],[-85.44,38.66],[-85.43,38.52],[-85.59,38.45],[-85.68,38.3],[-85.84,38.24],[-85.92,38.03],[-86.03,37.97],[-86.32,38.15],[-86.43,38.09],[-86.53,37.97],[-86.65,37.87],[-86.81,38.0],[-86.98,37.93],[-87.11,37.77],[-87.27,37.88],[-87.45,37.93],[-87.63,37.85],[-87.81,37.88],[-87.94,37.87],[-88.03,37.8],[-88.06,37.87]]]},"properties":{"fips":"18","name":"Indiana","st":"IN","n":3,"by":{"wnv":2,"den":1},"ytd":{"eee":0,"jcv":0,"lac":0,"pow":0,"sle":0,"wnv":2,"den":1},"prev_ytd":{"eee":0,"jcv":0,"lac":0,"pow":0,"sle":0,"wnv":25,"den":5},"asof":"2026-09-05","weeks":[{"w":"2026-08-29","n":{"wnv":1}},{"w":"2026-08-22","n":{"wnv":1}},{"w":"2026-06-27","n":{"den":1}}]}},{"type":"Feature","geometry":{"type":"Polygon","coordinates":[[[-96.62,42.78],[-96.54,42.92],[-96.51,43.04],[-96.46,43.14],[-96.56,43.26],[-96.52,43.39],[-96.45,43.5],[-95.83,43.5],[-95.22,43.5],[-94.44,43.5],[-93.65,43.5],[-93.05,43.5],[-92.55,43.5],[-91.83,43.5],[-91.22,43.5],[-91.21,43.37],[-91.09,43.22],[-91.17,43.04],[-91.1,42.86],[-90.9,42.67],[-90.67,42.58],[-90.56,42.44],[-90.42,42.32],[-90.31,42.19],[-90.16,42.04],[-90.16,41.93],[-90.24,41.78],[-90.31,41.7],[-90.42,41.56],[-90.62,41.48],[-90.92,41.42],[-91.07,41.34],[-91.08,41.21],[-90.95,41.07],[-90.98,40.91],[-91.12,40.73],[-91.19,40.64],[-91.39,40.53],[-91.42,40.38],[-91.61,40.5],[-91.72,40.6],[-92.18,40.6],[-92.69,40.59],[-93.14,40.58],[-93.6,40.58],[-94.09,40.57],[-94.53,40.57],[-95.07,40.58],[-95.53,40.58],[-95.85,40.68],[-95.84,40.85],[-95.83,40.97],[-95.87,41.12],[-95.91,41.19],[-95.93,41.37],[-95.99,41.51],[-96.12,41.61],[-96.06,41.79],[-96.13,41.98],[-96.35,42.17],[-96.35,42.28],[-96.45,42.49],[-96.48,42.56],[-96.62,42.78]]]},"properties":{"fips":"19","name":"Iowa","st":"IA","n":3,"by":{"wnv":2,"den":1},"ytd":{"eee":0,"jcv":0,"lac":0,"pow":0,"sle":0,"wnv":2,"den":3},"prev_ytd":{"eee":0,"jcv":0,"lac":1,"pow":0,"sle":0,"wnv":28,"den":1},"asof":"2026-09-05","weeks":[{"w":"2026-08-22","n":{"wnv":1}},{"w":"2026-08-15","n":{"den":1}},{"w":"2026-08-08","n":{"wnv":1}}]}},{"type":"Feature","geometry":{"type":"Polygon","coordinates":[[[-102.05,40.0],[-101.32,40.0],[-100.74,40.0],[-99.81,40.0],[-99.18,40.0],[-98.61,40.0],[-97.93,40.0],[-97.37,40.0],[-96.81,40.0],[-96.24,40.0],[-95.79,40.0],[-95.23,39.94],[-94.99,39.9],[-94.88,39.82],[-94.97,39.72],[-95.05,39.59],[-95.05,39.49],[-94.89,39.39],[-94.8,39.21],[-94.62,39.16],[-94.61,39.04],[-94.61,38.74],[-94.61,38.39],[-94.61,37.99],[-94.62,37.41],[-94.62,37.06],[-95.01,37.0],[-95.52,37.0],[-95.96,37.0],[-96.53,37.0],[-97.39,37.0],[-98.05,37.0],[-98.55,37.0],[-99.41,37.0],[-100.0,37.0],[-100.63,37.0],[-101.21,37.0],[-102.03,36.99],[-102.04,37.26],[-102.04,37.74],[-102.05,38.38],[-102.05,39.13],[-102.05,39.82],[-102.05,40.0]]]},"properties":{"fips":"20","name":"Kansas","st":"KS","n":4,"by":{"wnv":4},"ytd":{"eee":0,"jcv":0,"lac":0,"pow":0,"sle":0,"wnv":4,"den":0},"prev_ytd":{"eee":0,"jcv":0,"lac":0,"pow":0,"sle":0,"wnv":27,"den":3},"asof":"2026-09-05","weeks":[{"w":"2026-08-29","n":{"wnv":2}},{"w":"2026-08-22","n":{"wnv":1}},{"w":"2026-07-25","n":{"wnv":1}}]}},{"type":"Feature","geometry":{"type":"Polygon","coordinates":[[[-89.54,36.58],[-89.33,36.62],[-89.2,36.63],[-89.16,36.76],[-89.12,36.89],[-89.13,37.02],[-89.06,37.19],[-88.93,37.23],[-88.61,37.11],[-88.48,37.07],[-88.47,37.22],[-88.42,37.42],[-88.28,37.45],[-88.07,37.53],[-88.13,37.7],[-87.94,37.79],[-87.92,37.91],[-87.71,37.88],[-87.55,37.92],[-87.33,37.91],[-87.18,37.84],[-87.04,37.88],[-86.88,37.97],[-86.72,37.89],[-86.6,37.91],[-86.49,38.04],[-86.39,38.12],[-86.21,38.02],[-85.98,38.0],[-85.9,38.18],[-85.8,38.28],[-85.63,38.38],[-85.47,38.5],[-85.43,38.59],[-85.4,38.74],[-85.24,38.72],[-85.07,38.74],[-84.81,38.79],[-84.83,38.9],[-84.85,39.0],[-84.82,39.1],[-84.62,39.08],[-84.5,39.1],[-84.44,39.11],[-84.32,39.02],[-84.23,38.88],[-84.14,38.79],[-83.93,38.77],[-83.78,38.7],[-83.65,38.64],[-83.44,38.67],[-83.26,38.61],[-83.11,38.67],[-82.94,38.74],[-82.87,38.68],[-82.72,38.56],[-82.59,38.42],[-82.58,38.25],[-82.55,38.06],[-82.42,37.87],[-82.32,37.75],[-82.06,37.55],[-82.31,37.3],[-82.56,37.2],[-82.75,37.02],[-82.88,36.9],[-83.11,36.8],[-83.44,36.67],[-83.67,36.6],[-83.99,36.59],[-84.26,36.59],[-84.78,36.6],[-85.28,36.63],[-85.49,36.62],[-85.98,36.63],[-86.51,36.65],[-86.76,36.65],[-87.34,36.64],[-87.85,36.63],[-88.06,36.63],[-88.13,36.5],[-88.82,36.5],[-89.21,36.51],[-89.57,36.54],[-89.54,36.58]]]},"properties":{"fips":"21","name":"Kentucky","st":"KY","n":10,"by":{"wnv":5,"den":5},"ytd":{"eee":0,"jcv":0,"lac":0,"pow":0,"sle":0,"wnv":5,"den":5},"prev_ytd":{"eee":0,"jcv":0,"lac":2,"pow":0,"sle":0,"wnv":11,"den":5},"asof":"2026-09-05","weeks":[{"w":"2026-08-22","n":{"wnv":1,"den":1}},{"w":"2026-08-08","n":{"wnv":1,"den":2}},{"w":"2026-08-01","n":{"wnv":1}},{"w":"2026-07-18","n":{"den":1}},{"w":"2026-07-11","n":{"wnv":2,"den":1}}]}},{"type":"Feature","geometry":{"type":"Polygon","coordinates":[[[-94.04,32.69],[-93.81,33.02],[-93.49,33.02],[-92.99,33.02],[-92.5,33.01],[-91.88,33.01],[-91.27,33.01],[-91.07,32.89],[-91.11,32.74],[-91.06,32.58],[-91.06,32.51],[-90.92,32.34],[-91.04,32.11],[-91.12,31.99],[-91.24,31.87],[-91.32,31.75],[-91.4,31.64],[-91.49,31.53],[-91.54,31.34],[-91.64,31.23],[-91.59,31.09],[-91.22,31.0],[-90.76,31.0],[-90.35,31.0],[-89.73,31.0],[-89.84,30.73],[-89.71,30.48],[-89.61,30.22],[-89.68,30.08],[-89.85,29.95],[-89.65,29.86],[-89.44,30.06],[-89.18,30.15],[-89.24,29.88],[-89.4,29.68],[-89.53,29.65],[-89.53,29.43],[-89.26,29.34],[-89.03,29.21],[-89.15,29.03],[-89.32,29.01],[-89.39,29.12],[-89.61,29.25],[-89.88,29.31],[-90.09,29.16],[-90.41,29.06],[-90.75,29.04],[-90.94,29.16],[-91.28,29.25],[-91.27,29.36],[-91.39,29.5],[-91.54,29.57],[-91.62,29.7],[-91.85,29.7],[-91.71,29.57],[-92.03,29.57],[-92.25,29.54],[-92.57,29.58],[-92.99,29.72],[-93.41,29.77],[-93.84,29.69],[-93.87,29.85],[-93.74,30.02],[-93.7,30.17],[-93.76,30.33],[-93.71,30.51],[-93.63,30.68],[-93.56,30.88],[-93.53,31.05],[-93.6,31.18],[-93.67,31.38],[-93.79,31.53],[-93.85,31.8],[-94.03,31.98],[-94.04,32.36],[-94.04,32.69]]]},"properties":{"fips":"22","name":"Louisiana","st":"LA","n":11,"by":{"lac":1,"wnv":9,"den":1},"ytd":{"eee":0,"jcv":0,"lac":1,"pow":0,"sle":0,"wnv":9,"den":1},"prev_ytd":{"eee":0,"jcv":0,"lac":3,"pow":0,"sle":10,"wnv":62,"den":20},"asof":"2026-09-05","weeks":[{"w":"2026-08-29","n":{"wnv":1}},{"w":"2026-08-22","n":{"wnv":3,"den":1}},{"w":"2026-08-15","n":{"wnv":2}},{"w":"2026-08-08","n":{"lac":1}},{"w":"2026-08-01","n":{"wnv":1}},{"w":"2026-07-18","n":{"wnv":2}}]}},{"type":"Feature","geometry":{"type":"MultiPolygon","coordinates":[[[[-71.08,45.3],[-70.91,45.3],[-70.83,45.29],[-70.83,45.4],[-70.68,45.39],[-70.72,45.51],[-70.55,45.67],[-70.42,45.79],[-70.25,45.93],[-70.32,46.02],[-70.29,46.19],[-70.21,46.33],[-70.05,46.43],[-69.57,47.12],[-69.11,47.44],[-68.97,47.21],[-68.61,47.25],[-68.38,47.29],[-68.2,47.34],[-67.95,47.2],[-67.79,46.6],[-67.75,45.92],[-67.78,45.73],[-67.67,45.63],[-67.42,45.57],[-67.43,45.37],[-67.39,45.15],[-67.2,45.17],[-67.08,45.03],[-66.95,44.82],[-67.17,44.66],[-67.4,44.6],[-67.5,44.48],[-67.71,44.5],[-67.9,44.39],[-68.01,44.39],[-68.19,44.37],[-68.17,44.23],[-68.44,44.12],[-68.62,44.01],[-68.87,44.02],[-68.94,44.2],[-69.06,44.17],[-69.04,44.01],[-69.21,43.92],[-69.36,43.92],[-69.44,43.91],[-69.65,43.8],[-69.81,43.73],[-69.89,43.77],[-70.06,43.71],[-70.17,43.67],[-70.25,43.54],[-70.39,43.49],[-70.42,43.36],[-70.53,43.33],[-70.58,43.22],[-70.7,43.06],[-70.83,43.18],[-70.92,43.33],[-70.95,43.51],[-70.98,43.7],[-71.01,44.26],[-71.02,44.44],[-71.08,45.3]]]]},"properties":{"fips":"23","name":"Maine","st":"ME","n":4,"by":{"pow":4},"ytd":{"eee":0,"jcv":0,"lac":0,"pow":4,"sle":0,"wnv":0,"den":0},"prev_ytd":{"eee":1,"jcv":1,"lac":0,"pow":1,"sle":1,"wnv":2,"den":3},"asof":"2026-09-05","weeks":[{"w":"2026-08-29","n":{"pow":1}},{"w":"2026-07-18","n":{"pow":2}},{"w":"2026-07-04","n":{"pow":1}}]}},{"type":"Feature","geometry":{"type":"MultiPolygon","coordinates":[[[[-79.48,39.34],[-79.05,39.72],[-78.38,39.72],[-78.08,39.72],[-77.46,39.72],[-76.99,39.72],[-76.42,39.72],[-76.14,39.72],[-75.76,39.3],[-75.71,38.63],[-75.69,38.46],[-75.05,38.45],[-75.18,38.13],[-75.67,37.95],[-75.89,37.92],[-75.86,38.1],[-75.88,38.22],[-76.04,38.26],[-76.05,38.09],[-76.22,38.31],[-76.34,38.49],[-76.23,38.61],[-76.17,38.67],[-76.32,38.68],[-76.38,38.79],[-76.19,38.83],[-76.25,38.93],[-76.36,38.94],[-76.23,39.02],[-76.24,39.21],[-76.11,39.37],[-76.01,39.45],[-76.22,39.35],[-76.4,39.23],[-76.5,39.2],[-76.42,39.04],[-76.45,38.94],[-76.52,38.85],[-76.53,38.72],[-76.52,38.54],[-76.39,38.36],[-76.39,38.24],[-76.32,38.04],[-76.54,38.15],[-76.81,38.25],[-76.97,38.35],[-77.12,38.41],[-77.18,38.6],[-77.09,38.7],[-77.04,38.75],[-76.91,38.89],[-77.12,38.93],[-77.25,39.03],[-77.36,39.06],[-77.52,39.16],[-77.5,39.25],[-77.68,39.32],[-77.8,39.48],[-77.93,39.61],[-78.22,39.66],[-78.44,39.56],[-78.66,39.54],[-78.85,39.55],[-79.07,39.47],[-79.28,39.31],[-79.48,39.34]]]]},"properties":{"fips":"24","name":"Maryland","st":"MD","n":14,"by":{"wnv":6,"den":8},"ytd":{"eee":0,"jcv":0,"lac":0,"pow":0,"sle":0,"wnv":4,"den":10},"prev_ytd":{"eee":0,"jcv":0,"lac":0,"pow":1,"sle":0,"wnv":28,"den":48},"asof":"2026-09-05","weeks":[{"w":"2026-08-29","n":{"den":1}},{"w":"2026-08-22","n":{"wnv":1,"den":2}},{"w":"2026-08-15","n":{"wnv":1}},{"w":"2026-08-08","n":{"wnv":2}},{"w":"2026-08-01","n":{"den":1}},{"w":"2026-06-06","n":{"den":1}}]}},{"type":"Feature","geometry":{"type":"MultiPolygon","coordinates":[[[[-70.28,41.31],[-70.19,41.31],[-70.08,41.32],[-70.05,41.39],[-69.98,41.36],[-69.96,41.27],[-70.02,41.24],[-70.1,41.24],[-70.21,41.25],[-70.28,41.31]]],[[[-70.83,41.35],[-70.76,41.37],[-70.69,41.44],[-70.6,41.48],[-70.55,41.45],[-70.5,41.42],[-70.46,41.42],[-70.45,41.35],[-70.58,41.35],[-70.69,41.34],[-70.77,41.3],[-70.82,41.25],[-70.83,41.32],[-70.83,41.35]]],[[[-73.51,42.09],[-73.27,42.75],[-72.95,42.74],[-72.81,42.74],[-72.41,42.73],[-72.11,42.72],[-71.81,42.71],[-71.54,42.7],[-71.26,42.74],[-71.19,42.79],[-71.12,42.81],[-70.97,42.87],[-70.81,42.78],[-70.68,42.66],[-70.66,42.58],[-70.85,42.54],[-70.91,42.44],[-70.98,42.42],[-70.98,42.34],[-70.95,42.28],[-70.84,42.27],[-70.69,42.13],[-70.64,42.05],[-70.58,41.95],[-70.54,41.81],[-70.27,41.72],[-70.0,41.81],[-70.08,42.01],[-70.19,42.08],[-69.99,42.0],[-69.93,41.69],[-70.01,41.62],[-70.27,41.62],[-70.48,41.56],[-70.73,41.49],[-70.94,41.45],[-70.69,41.6],[-70.8,41.6],[-70.91,41.58],[-71.02,41.5],[-71.14,41.6],[-71.21,41.69],[-71.34,41.83],[-71.38,41.98],[-71.56,42.01],[-71.8,42.02],[-72.14,42.03],[-72.51,42.03],[-72.77,42.0],[-73.0,42.04],[-73.23,42.05],[-73.51,42.09]]]]},"properties":{"fips":"25","name":"Massachusetts","st":"MA","n":22,"by":{"pow":12,"wnv":3,"den":7},"ytd":{"eee":0,"jcv":0,"lac":0,"pow":12,"sle":0,"wnv":3,"den":7},"prev_ytd":{"eee":0,"jcv":0,"lac":0,"pow":5,"sle":0,"wnv":7,"den":22},"asof":"2026-09-05","weeks":[{"w":"2026-08-29","n":{"wnv":1}},{"w":"2026-08-22","n":{"wnv":2,"den":2}},{"w":"2026-08-15","n":{"pow":1,"den":1}},{"w":"2026-08-01","n":{"pow":1}},{"w":"2026-07-18","n":{"pow":1}},{"w":"2026-07-11","n":{"pow":1}}]}},{"type":"Feature","geometry":{"type":"MultiPolygon","coordinates":[[[[-84.62,45.89],[-84.52,45.83],[-84.42,45.8],[-84.36,45.77],[-84.39,45.73],[-84.48,45.73],[-84.59,45.81],[-84.65,45.86],[-84.62,45.89]]],[[[-85.7,45.74],[-85.65,45.74],[-85.52,45.83],[-85.36,45.82],[-85.38,45.77],[-85.51,45.6],[-85.56,45.57],[-85.62,45.59],[-85.7,45.7],[-85.7,45.74]]],[[[-86.14,45.04],[-86.04,45.16],[-85.99,45.15],[-85.95,45.12],[-85.98,45.06],[-86.08,44.99],[-86.16,45.0],[-86.14,45.04]]],[[[-86.69,41.84],[-86.37,42.24],[-86.24,42.54],[-86.21,42.77],[-86.27,43.12],[-86.46,43.47],[-86.51,43.7],[-86.45,43.92],[-86.52,44.06],[-86.39,44.18],[-86.25,44.48],[-86.25,44.7],[-86.07,44.82],[-85.85,44.94],[-85.63,45.17],[-85.56,45.03],[-85.38,45.05],[-85.37,45.27],[-85.06,45.36],[-85.04,45.44],[-84.97,45.69],[-84.73,45.78],[-84.41,45.67],[-84.13,45.56],[-83.84,45.44],[-83.39,45.27],[-83.27,45.03],[-83.44,45.0],[-83.32,44.86],[-83.32,44.51],[-83.44,44.27],[-83.58,44.06],[-83.87,43.96],[-83.95,43.73],[-83.7,43.6],[-83.51,43.74],[-83.28,43.94],[-83.03,44.05],[-82.63,43.83],[-82.54,43.42],[-82.42,43.01],[-82.51,42.64],[-82.64,42.66],[-82.76,42.56],[-82.87,42.47],[-82.95,42.34],[-83.12,42.23],[-83.19,42.03],[-83.34,41.88],[-83.45,41.73],[-83.88,41.72],[-84.44,41.7],[-85.2,41.76],[-85.79,41.76],[-86.23,41.76],[-86.64,41.76],[-86.69,41.84]]],[[[-89.22,47.91],[-89.18,47.94],[-89.02,47.99],[-88.94,48.02],[-88.89,48.03],[-88.82,48.06],[-88.73,48.1],[-88.63,48.15],[-88.55,48.17],[-88.42,48.21],[-88.43,48.17],[-88.55,48.1],[-88.58,48.04],[-88.72,47.99],[-88.85,47.97],[-88.9,47.9],[-89.04,47.86],[-89.16,47.82],[-89.2,47.85],[-89.25,47.88],[-89.22,47.91]]],[[[-90.42,46.57],[-89.92,46.74],[-89.64,46.83],[-89.23,46.91],[-88.93,47.03],[-88.7,47.2],[-88.42,47.37],[-87.93,47.48],[-87.61,47.39],[-88.02,47.31],[-88.24,47.14],[-88.45,46.92],[-88.14,46.97],[-87.78,46.88],[-87.5,46.65],[-87.12,46.51],[-86.75,46.48],[-86.46,46.55],[-85.86,46.69],[-85.24,46.76],[-85.03,46.55],[-84.61,46.46],[-84.29,46.49],[-84.14,46.37],[-84.03,46.13],[-83.72,46.1],[-83.58,45.92],[-84.08,45.97],[-84.48,45.98],[-84.71,45.85],[-85.15,46.05],[-85.65,45.98],[-85.91,45.92],[-86.44,45.76],[-86.64,45.54],[-86.77,45.81],[-87.17,45.66],[-87.47,45.27],[-87.69,45.15],[-87.66,45.37],[-87.86,45.35],[-87.8,45.52],[-87.78,45.67],[-87.97,45.76],[-88.11,45.8],[-88.12,45.92],[-88.38,45.99],[-88.61,45.99],[-88.74,46.03],[-89.09,46.14],[-90.16,46.42],[-90.39,46.53],[-90.42,46.57]]]]},"properties":{"fips":"26","name":"Michigan","st":"MI","n":8,"by":{"eee":1,"wnv":5,"den":2},"ytd":{"eee":1,"jcv":0,"lac":0,"pow":0,"sle":0,"wnv":5,"den":3},"prev_ytd":{"eee":0,"jcv":8,"lac":0,"pow":0,"sle":0,"wnv":36,"den":4},"asof":"2026-09-05","weeks":[{"w":"2026-08-29","n":{"wnv":2}},{"w":"2026-08-22","n":{"eee":1,"wnv":1}},{"w":"2026-08-15","n":{"wnv":2}},{"w":"2026-04-11","n":{"den":1}},{"w":"2026-03-28","n":{"den":1}}]}},{"type":"Feature","geometry":{"type":"Polygon","coordinates":[[[-97.23,49.0],[-95.34,49.0],[-95.15,49.31],[-94.95,49.37],[-94.77,49.12],[-94.69,48.84],[-94.45,48.69],[-94.25,48.68],[-93.84,48.63],[-93.56,48.53],[-93.35,48.63],[-92.95,48.63],[-92.63,48.51],[-92.46,48.41],[-92.31,48.24],[-92.16,48.36],[-91.89,48.24],[-91.69,48.12],[-91.34,48.07],[-91.03,48.19],[-90.78,48.12],[-90.32,48.1],[-89.87,47.99],[-89.56,47.98],[-89.92,47.86],[-90.32,47.75],[-90.74,47.62],[-91.26,47.28],[-91.64,47.03],[-91.91,46.89],[-92.05,46.71],[-92.2,46.66],[-92.29,46.24],[-92.35,46.02],[-92.55,45.97],[-92.76,45.84],[-92.87,45.72],[-92.8,45.56],[-92.65,45.44],[-92.76,45.28],[-92.74,45.11],[-92.77,44.86],[-92.79,44.76],[-92.55,44.58],[-92.31,44.54],[-92.11,44.41],[-91.89,44.23],[-91.65,44.06],[-91.42,43.98],[-91.24,43.77],[-91.23,43.56],[-91.73,43.5],[-92.45,43.5],[-93.02,43.5],[-93.58,43.5],[-94.39,43.5],[-94.92,43.5],[-95.49,43.5],[-96.2,43.5],[-96.45,43.85],[-96.45,44.54],[-96.46,45.27],[-96.52,45.38],[-96.71,45.44],[-96.84,45.59],[-96.67,45.73],[-96.56,45.94],[-96.6,46.22],[-96.74,46.57],[-96.79,46.69],[-96.82,47.08],[-96.86,47.44],[-96.89,47.67],[-97.07,48.03],[-97.14,48.19],[-97.15,48.53],[-97.1,48.67],[-97.23,48.95],[-97.23,49.0]]]},"properties":{"fips":"27","name":"Minnesota","st":"MN","n":7,"by":{"pow":2,"wnv":4,"den":1},"ytd":{"eee":0,"jcv":0,"lac":0,"pow":2,"sle":0,"wnv":4,"den":1},"prev_ytd":{"eee":0,"jcv":4,"lac":1,"pow":9,"sle":0,"wnv":134,"den":16},"asof":"2026-09-05","weeks":[{"w":"2026-08-29","n":{"wnv":1}},{"w":"2026-08-22","n":{"wnv":1}},{"w":"2026-08-15","n":{"pow":1,"wnv":2}},{"w":"2026-08-08","n":{"den":1}},{"w":"2026-07-11","n":{"pow":1}}]}},{"type":"Feature","geometry":{"type":"Polygon","coordinates":[[[-91.62,31.27],[-91.53,31.39],[-91.44,31.55],[-91.38,31.73],[-91.36,31.8],[-91.23,31.88],[-91.08,32.02],[-91.11,32.21],[-90.99,32.35],[-91.01,32.52],[-91.08,32.6],[-91.16,32.78],[-91.07,32.94],[-91.12,33.05],[-91.08,33.18],[-91.14,33.35],[-91.19,33.49],[-91.19,33.58],[-91.08,33.71],[-91.03,33.76],[-91.03,33.91],[-91.0,33.98],[-90.88,34.07],[-90.94,34.12],[-90.89,34.22],[-90.77,34.34],[-90.58,34.41],[-90.55,34.57],[-90.55,34.7],[-90.41,34.84],[-90.25,34.91],[-89.76,34.99],[-89.35,34.99],[-88.82,34.99],[-88.36,35.0],[-88.1,34.89],[-88.17,34.32],[-88.25,33.7],[-88.34,32.99],[-88.42,32.31],[-88.47,31.93],[-88.46,31.62],[-88.43,31.0],[-88.39,30.37],[-88.52,30.34],[-88.7,30.34],[-88.89,30.39],[-89.29,30.31],[-89.45,30.2],[-89.63,30.31],[-89.79,30.55],[-89.79,30.82],[-89.84,31.0],[-90.35,31.0],[-90.83,31.0],[-91.64,31.0],[-91.62,31.14],[-91.62,31.27]]]},"properties":{"fips":"28","name":"Mississippi","st":"MS","n":13,"by":{"wnv":13},"ytd":{"eee":0,"jcv":0,"lac":0,"pow":0,"sle":0,"wnv":13,"den":0},"prev_ytd":{"eee":0,"jcv":0,"lac":0,"pow":0,"sle":0,"wnv":30,"den":2},"asof":"2026-09-05","weeks":[{"w":"2026-08-29","n":{"wnv":6}},{"w":"2026-08-08","n":{"wnv":4}},{"w":"2026-07-25","n":{"wnv":2}},{"w":"2026-07-04","n":{"wnv":1}}]}},{"type":"Feature","geometry":{"type":"Polygon","coordinates":[[[-95.77,40.59],[-95.2,40.58],[-94.63,40.57],[-94.23,40.57],[-93.77,40.58],[-93.34,40.58],[-92.72,40.59],[-92.35,40.6],[-91.73,40.61],[-91.62,40.54],[-91.5,40.4],[-91.5,40.25],[-91.48,40.02],[-91.44,39.85],[-91.37,39.73],[-91.17,39.59],[-91.04,39.45],[-90.73,39.26],[-90.71,39.05],[-90.59,38.88],[-90.45,38.96],[-90.23,38.91],[-90.17,38.77],[-90.18,38.66],[-90.25,38.53],[-90.34,38.39],[-90.36,38.24],[-90.25,38.13],[-90.08,38.02],[-89.93,37.88],[-89.7,37.81],[-89.52,37.7],[-89.5,37.56],[-89.43,37.36],[-89.48,37.26],[-89.36,37.04],[-89.13,36.98],[-89.15,36.85],[-89.2,36.72],[-89.23,36.57],[-89.38,36.62],[-89.57,36.54],[-89.51,36.38],[-89.61,36.31],[-89.69,36.23],[-89.64,36.1],[-89.9,36.0],[-90.37,36.0],[-90.22,36.19],[-90.06,36.3],[-90.14,36.46],[-90.58,36.5],[-91.13,36.5],[-91.64,36.5],[-92.15,36.5],[-92.77,36.5],[-93.29,36.5],[-93.7,36.5],[-94.36,36.5],[-94.62,36.77],[-94.62,37.34],[-94.62,37.67],[-94.61,38.06],[-94.61,38.48],[-94.61,38.85],[-94.59,39.16],[-94.74,39.17],[-94.86,39.27],[-94.97,39.42],[-95.11,39.55],[-95.04,39.65],[-94.86,39.75],[-94.93,39.88],[-95.08,39.86],[-95.35,40.03],[-95.43,40.14],[-95.55,40.26],[-95.65,40.32],[-95.69,40.49],[-95.77,40.59]]]},"properties":{"fips":"29","name":"Missouri","st":"MO","n":6,"by":{"wnv":2,"den":4},"ytd":{"eee":0,"jcv":0,"lac":0,"pow":0,"sle":0,"wnv":2,"den":4},"prev_ytd":{"eee":0,"jcv":0,"lac":1,"pow":0,"sle":0,"wnv":42,"den":3},"asof":"2026-09-05","weeks":[{"w":"2026-08-22","n":{"wnv":1}},{"w":"2026-08-15","n":{"wnv":1}},{"w":"2026-08-08","n":{"den":1}},{"w":"2026-07-25","n":{"den":1}},{"w":"2026-06-06","n":{"den":1}},{"w":"2026-03-28","n":{"den":1}}]}},{"type":"Feature","geometry":{"type":"Polygon","coordinates":[[[-116.05,49.0],[-114.68,49.0],[-113.91,49.0],[-112.19,49.0],[-111.27,49.0],[-110.44,49.0],[-109.25,49.0],[-107.7,49.0],[-106.62,49.0],[-105.78,49.0],[-104.88,49.0],[-104.05,48.63],[-104.04,48.0],[-104.04,47.6],[-104.05,47.13],[-104.05,46.54],[-104.05,45.95],[-104.04,45.56],[-104.04,45.12],[-105.04,45.0],[-106.26,44.99],[-107.91,45.0],[-108.62,45.0],[-109.8,45.0],[-110.78,45.0],[-111.06,44.73],[-111.12,44.49],[-111.27,44.67],[-111.44,44.72],[-111.56,44.55],[-111.87,44.56],[-112.29,44.57],[-112.6,44.49],[-112.82,44.41],[-113.01,44.47],[-113.1,44.71],[-113.38,44.84],[-113.44,45.01],[-113.65,45.23],[-113.76,45.48],[-113.9,45.64],[-114.02,45.65],[-114.28,45.48],[-114.52,45.59],[-114.5,45.72],[-114.39,45.88],[-114.48,46.03],[-114.45,46.17],[-114.42,46.39],[-114.33,46.58],[-114.45,46.65],[-114.63,46.71],[-114.79,46.78],[-114.96,46.93],[-115.19,47.13],[-115.37,47.27],[-115.71,47.42],[-115.72,47.58],[-115.83,47.76],[-116.03,47.97],[-116.05,48.22],[-116.05,49.0]]]},"properties":{"fips":"30","name":"Montana","st":"MT","n":0,"by":{},"ytd":{},"prev_ytd":{},"asof":null,"weeks":[]}},{"type":"Feature","geometry":{"type":"Polygon","coordinates":[[[-104.05,41.11],[-104.05,41.56],[-104.05,42.0],[-104.05,42.61],[-103.48,43.0],[-102.08,43.0],[-100.2,43.0],[-99.25,43.0],[-98.44,42.93],[-98.23,42.86],[-98.03,42.76],[-97.86,42.87],[-97.6,42.86],[-97.42,42.87],[-97.21,42.82],[-97.02,42.76],[-96.8,42.7],[-96.66,42.57],[-96.5,42.48],[-96.41,42.34],[-96.34,42.22],[-96.22,42.02],[-96.11,41.84],[-96.11,41.67],[-96.0,41.54],[-95.93,41.39],[-95.91,41.24],[-95.86,41.16],[-95.87,41.02],[-95.81,40.89],[-95.89,40.74],[-95.77,40.59],[-95.69,40.49],[-95.65,40.32],[-95.55,40.26],[-95.43,40.14],[-95.35,40.03],[-95.79,40.0],[-96.24,40.0],[-96.81,40.0],[-97.37,40.0],[-97.93,40.0],[-98.61,40.0],[-99.18,40.0],[-99.81,40.0],[-100.74,40.0],[-101.32,40.0],[-102.05,40.0],[-102.05,40.7],[-102.56,41.0],[-103.38,41.0],[-104.05,41.11]]]},"properties":{"fips":"31","name":"Nebraska","st":"NE","n":19,"by":{"wnv":17,"den":2},"ytd":{"eee":0,"jcv":0,"lac":0,"pow":0,"sle":0,"wnv":17,"den":2},"prev_ytd":{"eee":0,"jcv":0,"lac":0,"pow":0,"sle":0,"wnv":33,"den":0},"asof":"2026-09-05","weeks":[{"w":"2026-08-29","n":{"wnv":6}},{"w":"2026-08-22","n":{"wnv":1}},{"w":"2026-08-15","n":{"wnv":4,"den":1}},{"w":"2026-08-08","n":{"wnv":2,"den":1}},{"w":"2026-07-25","n":{"wnv":2}},{"w":"2026-07-18","n":{"wnv":1}}]}},{"type":"Feature","geometry":{"type":"Polygon","coordinates":[[[-120.0,39.32],[-120.0,39.96],[-120.0,40.87],[-120.0,41.99],[-119.21,41.99],[-118.2,42.0],[-117.4,42.0],[-116.63,42.0],[-115.31,42.0],[-114.28,41.99],[-114.04,41.49],[-114.04,40.73],[-114.05,40.1],[-114.05,39.5],[-114.05,38.57],[-114.05,38.15],[-114.05,37.6],[-114.05,37.0],[-114.05,36.27],[-114.15,36.02],[-114.34,36.11],[-114.49,36.13],[-114.67,36.12],[-114.74,36.01],[-114.7,35.81],[-114.66,35.52],[-114.57,35.14],[-114.63,35.0],[-115.3,35.54],[-115.85,35.96],[-116.49,36.46],[-117.68,37.35],[-118.5,37.95],[-119.33,38.54],[-120.0,39.0],[-120.0,39.29],[-120.0,39.32]]]},"properties":{"fips":"32","name":"Nevada","st":"NV","n":4,"by":{"wnv":1,"den":3},"ytd":{"eee":0,"jcv":0,"lac":0,"pow":0,"sle":0,"wnv":1,"den":3},"prev_ytd":{"eee":0,"jcv":0,"lac":0,"pow":0,"sle":0,"wnv":2,"den":8},"asof":"2026-09-05","weeks":[{"w":"2026-07-18","n":{"den":1}},{"w":"2026-07-04","n":{"wnv":1,"den":2}}]}},{"type":"Feature","geometry":{"type":"Polygon","coordinates":[[[-72.56,42.87],[-72.44,43.0],[-72.45,43.15],[-72.42,43.26],[-72.4,43.43],[-72.33,43.61],[-72.21,43.77],[-72.12,43.99],[-72.04,44.1],[-72.05,44.29],[-71.84,44.35],[-71.69,44.42],[-71.55,44.58],[-71.57,44.8],[-71.5,45.01],[-71.41,45.2],[-71.24,45.27],[-71.08,45.3],[-71.02,44.44],[-71.01,44.26],[-70.98,43.7],[-70.95,43.51],[-70.92,43.33],[-70.83,43.18],[-70.7,43.06],[-70.81,42.89],[-70.97,42.87],[-71.12,42.81],[-71.19,42.79],[-71.26,42.74],[-71.54,42.7],[-71.81,42.71],[-72.11,42.72],[-72.41,42.73],[-72.54,42.8],[-72.56,42.87]]]},"properties":{"fips":"33","name":"New Hampshire","st":"NH","n":2,"by":{"pow":2},"ytd":{"eee":0,"jcv":0,"lac":0,"pow":2,"sle":0,"wnv":0,"den":0},"prev_ytd":{"eee":0,"jcv":0,"lac":0,"pow":2,"sle":0,"wnv":0,"den":2},"asof":"2026-09-05","weeks":[{"w":"2026-08-01","n":{"pow":1}},{"w":"2026-06-20","n":{"pow":1}}]}},{"type":"Feature","geometry":{"type":"Polygon","coordinates":[[[-75.56,39.63],[-75.46,39.77],[-75.29,39.85],[-75.14,39.89],[-75.13,39.95],[-74.99,40.04],[-74.83,40.12],[-74.75,40.19],[-74.9,40.32],[-75.03,40.4],[-75.08,40.55],[-75.19,40.61],[-75.11,40.79],[-75.1,40.93],[-75.05,41.03],[-74.98,41.11],[-74.76,41.34],[-74.3,41.17],[-74.04,41.06],[-73.92,40.91],[-73.97,40.83],[-74.01,40.76],[-74.04,40.7],[-74.07,40.67],[-74.2,40.63],[-74.25,40.55],[-74.21,40.44],[-74.02,40.47],[-73.98,40.28],[-74.06,39.98],[-74.1,39.76],[-74.3,39.47],[-74.54,39.3],[-74.71,39.12],[-74.86,38.94],[-74.9,39.09],[-75.0,39.19],[-75.17,39.22],[-75.33,39.33],[-75.44,39.4],[-75.53,39.53],[-75.56,39.63]]]},"properties":{"fips":"34","name":"New Jersey","st":"NJ","n":11,"by":{"wnv":1,"den":10},"ytd":{"eee":0,"jcv":0,"lac":0,"pow":0,"sle":0,"wnv":1,"den":10},"prev_ytd":{"eee":0,"jcv":1,"lac":0,"pow":2,"sle":0,"wnv":16,"den":9},"asof":"2026-09-05","weeks":[{"w":"2026-08-29","n":{"den":2}},{"w":"2026-08-22","n":{"wnv":1,"den":1}},{"w":"2026-07-25","n":{"den":1}},{"w":"2026-07-04","n":{"den":1}},{"w":"2026-06-27","n":{"den":2}},{"w":"2026-06-20","n":{"den":1}}]}},{"type":"Feature","geometry":{"type":"Polygon","coordinates":[[[-109.05,31.8],[-109.05,32.78],[-109.05,33.78],[-109.05,34.96],[-109.05,35.61],[-109.05,36.88],[-108.0,37.0],[-106.87,36.99],[-106.0,36.99],[-105.42,37.0],[-105.12,36.99],[-103.73,37.0],[-103.0,36.67],[-103.04,36.05],[-103.04,35.15],[-103.04,34.38],[-103.04,34.08],[-103.06,33.39],[-103.06,32.59],[-103.06,32.0],[-104.03,32.0],[-105.15,32.0],[-106.38,32.0],[-106.64,31.87],[-106.99,31.78],[-108.21,31.5],[-109.05,31.33],[-109.05,31.8]]]},"properties":{"fips":"35","name":"New Mexico","st":"NM","n":7,"by":{"wnv":6,"den":1},"ytd":{"eee":0,"jcv":0,"lac":0,"pow":0,"sle":0,"wnv":6,"den":2},"prev_ytd":{"eee":0,"jcv":0,"lac":0,"pow":0,"sle":0,"wnv":38,"den":1},"asof":"2026-09-05","weeks":[{"w":"2026-08-29","n":{"wnv":2}},{"w":"2026-08-15","n":{"wnv":2}},{"w":"2026-07-25","n":{"wnv":2}},{"w":"2026-03-21","n":{"den":1}}]}},{"type":"Feature","geometry":{"type":"MultiPolygon","coordinates":[[[[-79.76,42.27],[-79.28,42.51],[-79.11,42.61],[-78.91,42.75],[-78.88,42.87],[-78.96,42.96],[-79.02,43.07],[-79.05,43.15],[-78.55,43.37],[-78.0,43.37],[-77.76,43.34],[-77.38,43.27],[-77.0,43.27],[-76.72,43.34],[-76.52,43.47],[-76.32,43.51],[-76.2,43.68],[-76.36,43.87],[-76.31,44.02],[-76.36,44.13],[-76.16,44.24],[-75.95,44.35],[-75.77,44.52],[-75.26,44.86],[-74.99,44.98],[-74.73,44.99],[-74.23,44.99],[-73.34,45.01],[-73.37,44.83],[-73.37,44.7],[-73.35,44.55],[-73.33,44.36],[-73.35,44.23],[-73.44,44.04],[-73.37,43.88],[-73.36,43.75],[-73.4,43.57],[-73.25,43.36],[-73.27,42.94],[-73.31,42.63],[-73.49,42.05],[-73.52,41.64],[-73.54,41.38],[-73.48,41.21],[-73.66,41.0],[-73.76,40.91],[-73.65,40.88],[-73.48,40.95],[-73.24,40.91],[-73.11,40.97],[-72.58,41.0],[-72.35,41.14],[-72.25,41.11],[-72.13,41.12],[-71.96,41.07],[-72.1,40.96],[-72.92,40.71],[-73.31,40.62],[-73.51,40.59],[-73.83,40.58],[-74.04,40.59],[-74.2,40.51],[-74.2,40.59],[-74.16,40.65],[-74.05,40.69],[-74.03,40.73],[-73.97,40.82],[-73.94,40.88],[-73.91,40.95],[-74.23,41.14],[-74.46,41.25],[-74.8,41.43],[-75.05,41.6],[-75.11,41.84],[-75.29,41.95],[-75.48,42.0],[-76.15,42.0],[-76.56,42.0],[-77.61,42.0],[-78.21,42.0],[-78.92,42.0],[-79.61,42.0],[-79.76,42.27]]]]},"properties":{"fips":"36","name":"New York","st":"NY","n":29,"by":{"pow":5,"wnv":8,"den":16},"ytd":{"eee":0,"jcv":0,"lac":0,"pow":5,"sle":0,"wnv":8,"den":23},"prev_ytd":{"eee":0,"jcv":0,"lac":0,"pow":5,"sle":0,"wnv":25,"den":61},"asof":"2026-09-05","weeks":[{"w":"2026-08-29","n":{"wnv":6,"den":1}},{"w":"2026-08-22","n":{"pow":1,"wnv":2,"den":1}},{"w":"2026-08-15","n":{"den":1}},{"w":"2026-08-01","n":{"den":1}},{"w":"2026-07-25","n":{"den":1}},{"w":"2026-07-18","n":{"pow":1}}]}},{"type":"Feature","geometry":{"type":"Polygon","coordinates":[[[-84.29,35.21],[-84.1,35.25],[-84.01,35.37],[-83.95,35.46],[-83.66,35.57],[-83.45,35.6],[-83.27,35.7],[-83.16,35.76],[-82.97,35.8],[-82.89,35.93],[-82.78,35.99],[-82.6,36.03],[-82.47,36.01],[-82.3,36.13],[-82.14,36.14],[-82.03,36.12],[-81.91,36.3],[-81.72,36.39],[-81.68,36.59],[-81.06,36.57],[-80.7,36.56],[-80.3,36.54],[-79.89,36.54],[-79.47,36.54],[-78.94,36.54],[-78.46,36.54],[-77.9,36.55],[-77.19,36.55],[-76.92,36.55],[-76.31,36.55],[-75.87,36.55],[-75.72,36.11],[-75.5,35.73],[-75.64,35.22],[-76.01,35.06],[-76.39,34.78],[-76.62,34.67],[-77.14,34.63],[-77.52,34.44],[-77.83,34.16],[-77.96,33.85],[-78.28,33.91],[-78.65,33.95],[-79.07,34.3],[-79.67,34.8],[-80.08,34.81],[-80.8,34.82],[-80.91,35.08],[-81.04,35.12],[-81.37,35.16],[-81.97,35.19],[-82.3,35.2],[-82.53,35.16],[-82.76,35.08],[-83.01,35.03],[-83.48,34.99],[-83.94,34.99],[-84.29,35.21]]]},"properties":{"fips":"37","name":"North Carolina","st":"NC","n":9,"by":{"lac":1,"wnv":5,"den":3},"ytd":{"eee":0,"jcv":0,"lac":1,"pow":0,"sle":0,"wnv":5,"den":7},"prev_ytd":{"eee":0,"jcv":0,"lac":7,"pow":0,"sle":0,"wnv":7,"den":14},"asof":"2026-09-05","weeks":[{"w":"2026-08-29","n":{"wnv":3}},{"w":"2026-08-22","n":{"wnv":1}},{"w":"2026-08-15","n":{"den":1}},{"w":"2026-08-08","n":{"wnv":1}},{"w":"2026-07-04","n":{"lac":1}},{"w":"2026-03-28","n":{"den":2}}]}},{"type":"Feature","geometry":{"type":"Polygon","coordinates":[[[-104.05,49.0],[-102.22,49.0],[-101.12,49.0],[-99.53,49.0],[-97.95,49.0],[-97.19,48.87],[-97.14,48.58],[-97.14,48.43],[-97.15,48.17],[-97.04,47.93],[-96.88,47.65],[-96.84,47.28],[-96.83,47.01],[-96.79,46.64],[-96.71,46.44],[-96.56,46.08],[-97.08,45.94],[-97.98,45.94],[-98.62,45.94],[-99.09,45.94],[-99.72,45.94],[-100.29,45.94],[-100.76,45.94],[-101.8,45.94],[-102.33,45.95],[-102.94,45.95],[-103.66,45.95],[-104.05,46.51],[-104.05,46.93],[-104.05,47.4],[-104.04,48.0],[-104.05,48.49],[-104.05,49.0]]]},"properties":{"fips":"38","name":"North Dakota","st":"ND","n":17,"by":{"wnv":17},"ytd":{"eee":0,"jcv":0,"lac":0,"pow":0,"sle":0,"wnv":17,"den":0},"prev_ytd":{"eee":0,"jcv":0,"lac":0,"pow":0,"sle":0,"wnv":84,"den":1},"asof":"2026-09-05","weeks":[{"w":"2026-08-29","n":{"wnv":11}},{"w":"2026-08-22","n":{"wnv":5}},{"w":"2026-08-08","n":{"wnv":1}}]}},{"type":"Feature","geometry":{"type":"MultiPolygon","coordinates":[[[[-84.82,39.23],[-84.82,39.52],[-84.81,39.92],[-84.8,40.35],[-84.8,40.57],[-84.8,40.99],[-84.8,41.41],[-84.44,41.7],[-83.88,41.72],[-83.45,41.73],[-83.16,41.62],[-82.86,41.58],[-82.69,41.49],[-82.36,41.43],[-82.07,41.5],[-81.94,41.49],[-81.74,41.49],[-81.39,41.71],[-81.0,41.85],[-80.52,41.98],[-80.52,41.49],[-80.52,41.12],[-80.52,40.85],[-80.67,40.58],[-80.63,40.38],[-80.7,40.16],[-80.74,39.97],[-80.82,39.85],[-80.83,39.71],[-81.08,39.51],[-81.25,39.39],[-81.41,39.4],[-81.56,39.28],[-81.72,39.21],[-81.75,39.1],[-81.83,38.95],[-82.04,39.02],[-82.16,38.83],[-82.17,38.61],[-82.29,38.56],[-82.45,38.43],[-82.62,38.48],[-82.8,38.56],[-82.87,38.72],[-83.01,38.73],[-83.13,38.64],[-83.29,38.6],[-83.53,38.7],[-83.68,38.63],[-83.83,38.72],[-83.98,38.79],[-84.21,38.81],[-84.23,38.88],[-84.33,39.03],[-84.46,39.12],[-84.51,39.1],[-84.68,39.1],[-84.82,39.23]]]]},"properties":{"fips":"39","name":"Ohio","st":"OH","n":5,"by":{"lac":5},"ytd":{"eee":0,"jcv":0,"lac":5,"pow":0,"sle":0,"wnv":0,"den":0},"prev_ytd":{"eee":0,"jcv":0,"lac":36,"pow":0,"sle":0,"wnv":37,"den":8},"asof":"2026-09-05","weeks":[{"w":"2026-08-22","n":{"lac":1}},{"w":"2026-08-15","n":{"lac":1}},{"w":"2026-08-08","n":{"lac":2}},{"w":"2026-07-25","n":{"lac":1}}]}},{"type":"Feature","geometry":{"type":"Polygon","coordinates":[[[-103.0,36.67],[-102.7,36.99],[-101.9,36.99],[-101.07,37.0],[-100.55,37.0],[-99.66,37.0],[-99.13,37.0],[-98.35,37.0],[-97.8,37.0],[-97.15,37.0],[-96.5,37.0],[-95.93,37.0],[-95.41,37.0],[-95.0,37.0],[-94.62,36.67],[-94.56,36.16],[-94.49,35.76],[-94.43,35.39],[-94.45,34.93],[-94.46,34.51],[-94.48,33.94],[-94.57,33.67],[-94.77,33.75],[-94.98,33.85],[-95.16,33.94],[-95.31,33.87],[-95.56,33.93],[-95.79,33.87],[-95.94,33.88],[-96.23,33.75],[-96.38,33.72],[-96.52,33.82],[-96.59,33.88],[-96.78,33.84],[-96.91,33.95],[-96.99,33.92],[-97.09,33.77],[-97.17,33.85],[-97.37,33.82],[-97.49,33.92],[-97.61,33.97],[-97.87,33.85],[-97.95,33.99],[-98.1,34.1],[-98.22,34.13],[-98.41,34.09],[-98.58,34.15],[-98.74,34.13],[-98.95,34.2],[-99.19,34.21],[-99.35,34.44],[-99.47,34.4],[-99.77,34.44],[-100.0,34.56],[-100.0,35.18],[-100.0,36.06],[-100.55,36.5],[-101.08,36.5],[-102.16,36.5],[-103.0,36.67]]]},"properties":{"fips":"40","name":"Oklahoma","st":"OK","n":4,"by":{"wnv":3,"den":1},"ytd":{"eee":0,"jcv":0,"lac":0,"pow":0,"sle":0,"wnv":3,"den":1},"prev_ytd":{"eee":0,"jcv":0,"lac":0,"pow":0,"sle":0,"wnv":40,"den":3},"asof":"2026-09-05","weeks":[{"w":"2026-08-08","n":{"wnv":1}},{"w":"2026-07-04","n":{"wnv":1}},{"w":"2026-05-02","n":{"wnv":1,"den":1}}]}},{"type":"Feature","geometry":{"type":"Polygon","coordinates":[[[-124.55,42.84],[-124.41,43.16],[-124.35,43.34],[-124.19,43.71],[-124.11,44.23],[-124.08,44.5],[-124.06,44.84],[-123.97,45.15],[-123.96,45.43],[-123.94,45.71],[-123.97,45.91],[-123.96,46.14],[-123.84,46.19],[-123.59,46.23],[-123.43,46.18],[-123.21,46.17],[-122.96,46.1],[-122.81,45.91],[-122.76,45.76],[-122.74,45.64],[-122.38,45.58],[-122.18,45.58],[-121.92,45.65],[-121.73,45.69],[-121.44,45.7],[-121.18,45.61],[-120.91,45.65],[-120.65,45.74],[-120.49,45.7],[-120.14,45.77],[-119.87,45.84],[-119.57,45.92],[-119.26,45.94],[-118.99,46.0],[-118.0,46.0],[-117.48,46.0],[-116.86,45.91],[-116.67,45.78],[-116.46,45.62],[-116.69,45.27],[-116.78,45.08],[-116.86,44.87],[-117.06,44.73],[-117.23,44.48],[-117.19,44.33],[-117.12,44.28],[-116.9,44.18],[-116.94,44.03],[-117.02,43.82],[-117.03,42.81],[-117.4,42.0],[-118.2,42.0],[-119.21,41.99],[-120.0,41.99],[-120.88,41.99],[-121.45,42.0],[-122.29,42.01],[-123.05,42.0],[-123.44,42.0],[-124.0,42.0],[-124.35,42.13],[-124.41,42.31],[-124.4,42.6],[-124.51,42.73],[-124.55,42.84]]]},"properties":{"fips":"41","name":"Oregon","st":"OR","n":5,"by":{"wnv":1,"den":4},"ytd":{"eee":0,"jcv":0,"lac":0,"pow":0,"sle":0,"wnv":1,"den":6},"prev_ytd":{"eee":0,"jcv":0,"lac":0,"pow":0,"sle":0,"wnv":7,"den":3},"asof":"2026-09-05","weeks":[{"w":"2026-08-08","n":{"wnv":1}},{"w":"2026-08-01","n":{"den":1}},{"w":"2026-06-27","n":{"den":1}},{"w":"2026-06-06","n":{"den":1}},{"w":"2026-03-28","n":{"den":1}}]}},{"type":"Feature","geometry":{"type":"Polygon","coordinates":[[[-80.52,40.91],[-80.52,41.23],[-80.52,41.67],[-80.15,42.12],[-79.92,42.21],[-79.76,42.0],[-78.98,42.0],[-78.27,42.0],[-77.75,42.0],[-76.93,42.0],[-76.46,42.0],[-75.55,42.0],[-75.34,41.99],[-75.14,41.85],[-75.05,41.64],[-74.89,41.45],[-74.69,41.36],[-74.91,41.16],[-75.02,41.06],[-75.12,40.97],[-75.11,40.79],[-75.19,40.64],[-75.14,40.58],[-75.06,40.42],[-74.93,40.34],[-74.76,40.2],[-74.77,40.13],[-74.97,40.05],[-75.12,39.97],[-75.13,39.9],[-75.22,39.86],[-75.42,39.8],[-75.59,39.84],[-75.75,39.76],[-76.23,39.72],[-76.57,39.72],[-77.0,39.72],[-77.47,39.72],[-78.1,39.72],[-78.72,39.72],[-79.39,39.72],[-80.08,39.72],[-80.52,40.02],[-80.52,40.48],[-80.52,40.91]]]},"properties":{"fips":"42","name":"Pennsylvania","st":"PA","n":7,"by":{"pow":2,"wnv":2,"den":3},"ytd":{"eee":0,"jcv":0,"lac":0,"pow":2,"sle":0,"wnv":2,"den":3},"prev_ytd":{"eee":0,"jcv":0,"lac":0,"pow":2,"sle":0,"wnv":65,"den":14},"asof":"2026-09-05","weeks":[{"w":"2026-08-22","n":{"pow":1,"wnv":1,"den":1}},{"w":"2026-08-15","n":{"den":1}},{"w":"2026-08-08","n":{"den":1}},{"w":"2026-06-27","n":{"pow":1}},{"w":"2026-03-28","n":{"wnv":1}}]}},{"type":"Feature","geometry":{"type":"MultiPolygon","coordinates":[[[[-65.58,18.1],[-65.51,18.15],[-65.4,18.16],[-65.29,18.15],[-65.29,18.1],[-65.37,18.11],[-65.45,18.09],[-65.54,18.08],[-65.58,18.1]]],[[[-67.24,18.37],[-67.17,18.47],[-66.96,18.49],[-66.8,18.49],[-66.59,18.49],[-66.42,18.49],[-66.26,18.48],[-66.13,18.47],[-65.99,18.46],[-65.77,18.41],[-65.62,18.39],[-65.62,18.31],[-65.64,18.2],[-65.76,18.16],[-65.83,18.02],[-65.98,17.97],[-66.07,17.95],[-66.24,17.91],[-66.39,17.94],[-66.54,17.98],[-66.7,17.98],[-66.78,17.98],[-66.86,17.95],[-66.98,17.96],[-67.09,17.95],[-67.21,17.99],[-67.18,18.17],[-67.22,18.3],[-67.24,18.37]]],[[[-67.94,18.13],[-67.9,18.14],[-67.85,18.13],[-67.82,18.09],[-67.85,18.05],[-67.89,18.04],[-67.96,18.07],[-67.94,18.13]]]]},"properties":{"fips":"72","name":"Puerto Rico","st":"PR","n":574,"by":{"den":574},"ytd":{"eee":0,"jcv":0,"lac":0,"pow":0,"sle":0,"wnv":0,"den":886},"prev_ytd":{"eee":0,"jcv":0,"lac":0,"pow":0,"sle":0,"wnv":0,"den":2504},"asof":"2026-09-05","weeks":[{"w":"2026-08-29","n":{"den":5}},{"w":"2026-08-22","n":{"den":13}},{"w":"2026-08-15","n":{"den":38}},{"w":"2026-07-18","n":{"den":18}},{"w":"2026-07-11","n":{"den":25}},{"w":"2026-07-04","n":{"den":20}}]}},{"type":"Feature","geometry":{"type":"MultiPolygon","coordinates":[[[[-71.86,41.32],[-71.8,41.42],[-71.79,41.73],[-71.61,42.01],[-71.46,42.02],[-71.38,41.89],[-71.32,41.78],[-71.2,41.67],[-71.14,41.49],[-71.25,41.48],[-71.39,41.46],[-71.48,41.37],[-71.73,41.33],[-71.86,41.32]]]]},"properties":{"fips":"44","name":"Rhode Island","st":"RI","n":2,"by":{"pow":1,"den":1},"ytd":{"eee":0,"jcv":0,"lac":0,"pow":1,"sle":0,"wnv":0,"den":2},"prev_ytd":{"eee":0,"jcv":0,"lac":0,"pow":0,"sle":0,"wnv":0,"den":2},"asof":"2026-09-05","weeks":[{"w":"2026-07-04","n":{"pow":1}},{"w":"2026-03-21","n":{"den":1}}]}},{"type":"Feature","geometry":{"type":"Polygon","coordinates":[[[-83.35,34.73],[-83.25,34.85],[-83.11,35.0],[-82.9,35.06],[-82.69,35.12],[-82.41,35.2],[-82.05,35.19],[-81.77,35.18],[-81.04,35.15],[-81.04,35.05],[-80.84,35.0],[-80.56,34.82],[-79.92,34.81],[-79.45,34.62],[-79.07,34.3],[-78.54,33.85],[-78.94,33.64],[-79.14,33.4],[-79.22,33.16],[-79.34,33.05],[-79.52,33.03],[-79.6,32.9],[-79.87,32.73],[-80.08,32.6],[-80.25,32.53],[-80.47,32.49],[-80.48,32.46],[-80.54,32.29],[-80.77,32.29],[-80.81,32.11],[-80.94,32.06],[-81.12,32.18],[-81.13,32.34],[-81.28,32.54],[-81.4,32.61],[-81.42,32.83],[-81.54,33.04],[-81.75,33.15],[-81.85,33.25],[-81.93,33.46],[-82.11,33.6],[-82.2,33.66],[-82.43,33.87],[-82.59,34.01],[-82.74,34.22],[-82.82,34.36],[-82.99,34.47],[-83.1,34.53],[-83.28,34.65],[-83.35,34.73]]]},"properties":{"fips":"45","name":"South Carolina","st":"SC","n":9,"by":{"lac":2,"wnv":5,"den":2},"ytd":{"eee":0,"jcv":0,"lac":1,"pow":0,"sle":0,"wnv":4,"den":2},"prev_ytd":{"eee":0,"jcv":0,"lac":1,"pow":0,"sle":0,"wnv":1,"den":5},"asof":"2026-09-05","weeks":[{"w":"2026-08-29","n":{"wnv":1}},{"w":"2026-08-22","n":{"wnv":3}},{"w":"2026-08-15","n":{"lac":1}},{"w":"2026-08-08","n":{"lac":1}},{"w":"2026-08-01","n":{"den":1}},{"w":"2026-07-04","n":{"den":1}}]}},{"type":"Feature","geometry":{"type":"Polygon","coordinates":[[[-104.06,45.0],[-104.04,45.34],[-104.04,45.87],[-103.44,45.95],[-102.88,45.95],[-102.09,45.95],[-101.56,45.94],[-100.51,45.94],[-100.15,45.94],[-99.61,45.94],[-99.01,45.94],[-98.42,45.94],[-97.78,45.94],[-96.56,45.94],[-96.67,45.73],[-96.84,45.59],[-96.71,45.44],[-96.52,45.38],[-96.46,45.27],[-96.45,44.54],[-96.45,43.85],[-96.6,43.5],[-96.52,43.35],[-96.55,43.25],[-96.44,43.11],[-96.49,43.01],[-96.54,42.91],[-96.62,42.73],[-96.48,42.56],[-96.5,42.48],[-96.66,42.57],[-96.8,42.7],[-97.02,42.76],[-97.21,42.82],[-97.42,42.87],[-97.6,42.86],[-97.86,42.87],[-98.03,42.76],[-98.23,42.86],[-98.44,42.93],[-99.25,43.0],[-100.2,43.0],[-102.08,43.0],[-103.48,43.0],[-104.06,43.48],[-104.06,44.14],[-104.06,44.69],[-104.06,45.0]]]},"properties":{"fips":"46","name":"South Dakota","st":"SD","n":6,"by":{"wnv":6},"ytd":{"eee":0,"jcv":0,"lac":0,"pow":0,"sle":0,"wnv":6,"den":0},"prev_ytd":{"eee":0,"jcv":0,"lac":0,"pow":0,"sle":0,"wnv":71,"den":1},"asof":"2026-09-05","weeks":[{"w":"2026-08-15","n":{"wnv":1}},{"w":"2026-08-08","n":{"wnv":2}},{"w":"2026-08-01","n":{"wnv":1}},{"w":"2026-07-11","n":{"wnv":1}},{"w":"2026-05-23","n":{"wnv":1}}]}},{"type":"Feature","geometry":{"type":"Polygon","coordinates":[[[-90.3,35.03],[-90.16,35.13],[-90.1,35.25],[-90.11,35.41],[-90.05,35.5],[-89.93,35.61],[-89.92,35.76],[-89.73,35.85],[-89.65,35.92],[-89.68,36.08],[-89.63,36.19],[-89.55,36.28],[-89.52,36.34],[-89.54,36.5],[-88.96,36.5],[-88.52,36.5],[-88.05,36.5],[-88.07,36.68],[-87.69,36.64],[-87.11,36.64],[-86.61,36.65],[-86.41,36.65],[-85.87,36.62],[-85.44,36.62],[-85.1,36.62],[-84.78,36.6],[-84.23,36.59],[-83.93,36.59],[-83.47,36.6],[-82.61,36.59],[-82.17,36.59],[-81.83,36.62],[-81.69,36.47],[-81.77,36.34],[-81.93,36.27],[-82.08,36.11],[-82.22,36.15],[-82.41,36.08],[-82.56,35.95],[-82.63,36.06],[-82.82,35.92],[-82.9,35.88],[-83.05,35.79],[-83.25,35.72],[-83.35,35.66],[-83.59,35.57],[-83.85,35.52],[-83.97,35.45],[-84.02,35.3],[-84.22,35.27],[-84.51,34.99],[-84.81,34.99],[-85.05,34.99],[-85.39,34.98],[-86.31,34.99],[-86.78,34.99],[-87.22,35.0],[-87.98,35.01],[-88.26,34.99],[-88.79,34.99],[-89.2,34.99],[-89.72,34.99],[-90.3,35.03]]]},"properties":{"fips":"47","name":"Tennessee","st":"TN","n":7,"by":{"lac":1,"wnv":3,"den":3},"ytd":{"eee":0,"jcv":0,"lac":1,"pow":0,"sle":0,"wnv":4,"den":3},"prev_ytd":{"eee":0,"jcv":0,"lac":10,"pow":0,"sle":0,"wnv":8,"den":1},"asof":"2026-09-05","weeks":[{"w":"2026-08-29","n":{"wnv":1}},{"w":"2026-07-25","n":{"den":1}},{"w":"2026-07-18","n":{"wnv":1}},{"w":"2026-06-27","n":{"lac":1}},{"w":"2026-04-25","n":{"wnv":1,"den":2}}]}},{"type":"Feature","geometry":{"type":"Polygon","coordinates":[[[-106.62,31.91],[-106.2,32.0],[-104.92,32.0],[-103.98,32.0],[-103.06,32.09],[-103.06,32.85],[-103.05,33.57],[-103.04,34.11],[-103.04,34.62],[-103.04,35.18],[-103.04,36.5],[-101.83,36.5],[-100.88,36.5],[-100.0,36.5],[-100.0,35.62],[-100.0,34.75],[-99.84,34.51],[-99.6,34.38],[-99.42,34.38],[-99.22,34.33],[-99.06,34.2],[-98.87,34.16],[-98.65,34.16],[-98.47,34.06],[-98.36,34.16],[-98.14,34.14],[-98.08,34.0],[-97.95,33.89],[-97.76,33.92],[-97.56,33.9],[-97.45,33.87],[-97.25,33.9],[-97.15,33.72],[-97.06,33.86],[-96.94,33.95],[-96.85,33.85],[-96.68,33.88],[-96.59,33.83],[-96.44,33.78],[-96.31,33.73],[-96.15,33.83],[-95.84,33.86],[-95.67,33.91],[-95.45,33.87],[-95.25,33.93],[-95.09,33.91],[-94.9,33.78],[-94.72,33.71],[-94.49,33.64],[-94.34,33.57],[-94.18,33.59],[-94.04,33.44],[-94.04,33.02],[-94.04,32.56],[-94.04,32.14],[-93.91,31.89],[-93.82,31.62],[-93.75,31.47],[-93.61,31.26],[-93.53,31.19],[-93.55,30.97],[-93.57,30.8],[-93.68,30.59],[-93.74,30.4],[-93.71,30.24],[-93.7,30.05],[-93.83,29.89],[-93.89,29.76],[-93.96,29.68],[-94.37,29.56],[-94.73,29.37],[-95.11,29.08],[-95.38,28.87],[-95.68,28.73],[-96.33,28.42],[-96.63,28.22],[-96.89,28.03],[-97.09,27.79],[-97.26,27.51],[-97.36,27.23],[-97.29,26.6],[-97.16,26.08],[-97.21,25.96],[-97.36,25.87],[-97.5,25.88],[-97.7,26.02],[-97.87,26.06],[-98.09,26.06],[-98.25,26.07],[-98.44,26.2],[-98.61,26.25],[-98.81,26.37],[-99.08,26.4],[-99.17,26.55],[-99.24,26.79],[-99.39,26.98],[-99.44,27.22],[-99.53,27.31],[-99.53,27.5],[-99.7,27.66],[-99.88,27.82],[-99.98,27.99],[-100.2,28.2],[-100.34,28.43],[-100.45,28.62],[-100.54,28.81],[-100.66,29.03],[-100.77,29.17],[-100.89,29.31],[-101.19,29.52],[-101.37,29.66],[-101.56,29.8],[-101.81,29.79],[-102.07,29.79],[-102.3,29.88],[-102.39,29.77],[-102.61,29.75],[-102.78,29.56],[-102.87,29.35],[-103.0,29.16],[-103.13,28.98],[-103.46,29.07],[-103.72,29.19],[-103.97,29.3],[-104.23,29.48],[-104.54,29.68],[-104.69,29.99],[-104.74,30.26],[-104.87,30.46],[-104.98,30.63],[-105.16,30.76],[-105.4,30.89],[-105.63,31.1],[-105.87,31.29],[-106.0,31.39],[-106.28,31.56],[-106.42,31.75],[-106.58,31.81],[-106.62,31.91]]]},"properties":{"fips":"48","name":"Texas","st":"TX","n":53,"by":{"wnv":48,"den":5},"ytd":{"eee":0,"jcv":0,"lac":0,"pow":0,"sle":0,"wnv":48,"den":8},"prev_ytd":{"eee":0,"jcv":0,"lac":0,"pow":0,"sle":0,"wnv":98,"den":57},"asof":"2026-09-05","weeks":[{"w":"2026-08-29","n":{"wnv":3}},{"w":"2026-08-22","n":{"wnv":14}},{"w":"2026-08-15","n":{"wnv":8,"den":2}},{"w":"2026-08-08","n":{"wnv":5}},{"w":"2026-08-01","n":{"wnv":6}},{"w":"2026-07-25","n":{"wnv":4}}]}},{"type":"Feature","geometry":{"type":"Polygon","coordinates":[[[-114.05,37.6],[-114.05,38.15],[-114.05,38.57],[-114.05,39.5],[-114.05,40.1],[-114.04,40.73],[-114.04,41.49],[-113.5,41.99],[-112.65,42.0],[-112.11,42.0],[-111.47,42.0],[-111.05,41.57],[-110.54,41.0],[-109.72,41.0],[-109.05,40.66],[-109.05,39.88],[-109.05,39.13],[-109.04,38.15],[-109.5,37.0],[-111.07,37.0],[-112.36,37.0],[-112.9,37.0],[-114.05,37.09],[-114.05,37.6]]]},"properties":{"fips":"49","name":"Utah","st":"UT","n":22,"by":{"wnv":17,"den":5},"ytd":{"eee":0,"jcv":0,"lac":0,"pow":0,"sle":0,"wnv":17,"den":5},"prev_ytd":{"eee":0,"jcv":0,"lac":0,"pow":0,"sle":0,"wnv":30,"den":4},"asof":"2026-09-05","weeks":[{"w":"2026-08-29","n":{"wnv":6,"den":1}},{"w":"2026-08-22","n":{"wnv":5}},{"w":"2026-08-15","n":{"wnv":1}},{"w":"2026-08-08","n":{"wnv":2,"den":1}},{"w":"2026-08-01","n":{"wnv":2}},{"w":"2026-07-04","n":{"wnv":1}}]}},{"type":"Feature","geometry":{"type":"Polygon","coordinates":[[[-73.42,44.1],[-73.32,44.26],[-73.32,44.38],[-73.36,44.56],[-73.36,44.75],[-73.38,44.86],[-73.19,45.01],[-72.58,45.01],[-72.02,45.01],[-71.61,45.01],[-71.52,44.88],[-71.55,44.63],[-71.65,44.47],[-71.82,44.35],[-72.0,44.33],[-72.05,44.16],[-72.08,44.03],[-72.18,43.81],[-72.33,43.61],[-72.4,43.43],[-72.4,43.32],[-72.45,43.16],[-72.45,43.02],[-72.53,42.9],[-72.48,42.76],[-72.86,42.74],[-73.02,42.74],[-73.29,42.8],[-73.27,43.04],[-73.29,43.59],[-73.42,43.66],[-73.38,43.81],[-73.41,43.98],[-73.42,44.1]]]},"properties":{"fips":"50","name":"Vermont","st":"VT","n":0,"by":{},"ytd":{},"prev_ytd":{},"asof":null,"weeks":[]}},{"type":"Feature","geometry":{"type":"MultiPolygon","coordinates":[[[[-76.02,37.29],[-75.94,37.56],[-75.82,37.79],[-75.67,37.95],[-75.38,37.85],[-75.59,37.66],[-75.67,37.47],[-75.78,37.3],[-75.94,37.09],[-76.02,37.29]]],[[[-83.61,36.63],[-83.39,36.69],[-83.08,36.85],[-82.86,36.92],[-82.72,37.06],[-82.55,37.2],[-82.31,37.3],[-81.98,37.45],[-81.85,37.28],[-81.68,37.2],[-81.43,37.27],[-81.0,37.3],[-80.88,37.38],[-80.84,37.42],[-80.47,37.43],[-80.28,37.59],[-80.29,37.69],[-80.13,37.89],[-79.96,38.06],[-79.8,38.27],[-79.69,38.43],[-79.54,38.55],[-79.3,38.42],[-79.15,38.61],[-79.02,38.8],[-78.77,38.89],[-78.53,39.05],[-78.41,39.24],[-78.35,39.47],[-78.03,39.27],[-77.81,39.17],[-77.67,39.32],[-77.46,39.22],[-77.52,39.12],[-77.33,39.06],[-77.25,38.99],[-77.12,38.93],[-77.04,38.79],[-77.05,38.71],[-77.13,38.63],[-77.3,38.55],[-77.28,38.35],[-77.05,38.36],[-76.99,38.27],[-76.84,38.16],[-76.6,38.11],[-76.43,37.98],[-76.31,37.8],[-76.28,37.62],[-76.27,37.49],[-76.37,37.37],[-76.39,37.31],[-76.35,37.19],[-76.27,37.09],[-76.28,36.98],[-76.09,36.91],[-75.92,36.69],[-76.12,36.55],[-76.54,36.55],[-76.92,36.55],[-77.75,36.55],[-78.13,36.54],[-78.73,36.54],[-79.22,36.54],[-79.51,36.54],[-80.03,36.54],[-80.44,36.55],[-80.9,36.56],[-81.35,36.58],[-81.83,36.62],[-82.17,36.59],[-82.61,36.59],[-83.47,36.6],[-83.61,36.63]]]]},"properties":{"fips":"51","name":"Virginia","st":"VA","n":18,"by":{"wnv":9,"den":9},"ytd":{"eee":0,"jcv":0,"lac":0,"pow":0,"sle":0,"wnv":9,"den":9},"prev_ytd":{"eee":0,"jcv":0,"lac":0,"pow":0,"sle":0,"wnv":12,"den":28},"asof":"2026-09-05","weeks":[{"w":"2026-08-29","n":{"wnv":2,"den":1}},{"w":"2026-08-22","n":{"wnv":3}},{"w":"2026-08-15","n":{"wnv":1,"den":2}},{"w":"2026-08-01","n":{"wnv":2,"den":1}},{"w":"2026-07-25","n":{"den":1}},{"w":"2026-07-18","n":{"wnv":1,"den":2}}]}},{"type":"Feature","geometry":{"type":"MultiPolygon","coordinates":[[[[-123.24,48.68],[-123.07,48.7],[-123.02,48.72],[-122.98,48.78],[-122.94,48.79],[-122.82,48.74],[-122.74,48.66],[-122.8,48.6],[-122.77,48.56],[-122.78,48.51],[-122.82,48.48],[-122.8,48.43],[-122.87,48.42],[-122.93,48.44],[-123.04,48.46],[-123.14,48.51],[-123.2,48.59],[-123.24,48.68]]],[[[-124.73,48.39],[-124.25,48.27],[-123.73,48.16],[-123.31,48.11],[-123.0,48.09],[-122.76,48.14],[-122.65,47.92],[-122.55,47.97],[-122.63,48.16],[-122.67,48.41],[-122.64,48.59],[-122.73,48.84],[-122.25,49.0],[-121.13,49.0],[-120.0,49.0],[-118.2,49.0],[-117.27,49.0],[-117.03,48.42],[-117.04,47.73],[-117.04,47.13],[-117.04,46.41],[-116.96,46.2],[-116.94,46.06],[-117.6,46.0],[-118.37,46.0],[-118.99,46.0],[-119.36,45.92],[-119.6,45.92],[-119.97,45.82],[-120.21,45.73],[-120.51,45.7],[-120.69,45.72],[-120.94,45.66],[-121.22,45.67],[-121.52,45.72],[-121.81,45.71],[-121.95,45.65],[-122.25,45.55],[-122.44,45.56],[-122.76,45.66],[-122.8,45.81],[-122.81,45.96],[-123.0,46.13],[-123.28,46.15],[-123.43,46.23],[-123.7,46.3],[-123.88,46.24],[-124.08,46.27],[-123.96,46.64],[-124.1,46.79],[-124.17,46.99],[-124.32,47.36],[-124.47,47.77],[-124.67,47.96],[-124.69,48.22],[-124.73,48.39]]]]},"properties":{"fips":"53","name":"Washington","st":"WA","n":12,"by":{"wnv":1,"den":11},"ytd":{"eee":0,"jcv":0,"lac":0,"pow":0,"sle":0,"wnv":1,"den":13},"prev_ytd":{"eee":0,"jcv":0,"lac":0,"pow":0,"sle":0,"wnv":0,"den":19},"asof":"2026-09-05","weeks":[{"w":"2026-08-29","n":{"den":1}},{"w":"2026-08-01","n":{"den":1}},{"w":"2026-07-11","n":{"wnv":1,"den":1}},{"w":"2026-07-04","n":{"den":2}},{"w":"2026-06-27","n":{"den":2}},{"w":"2026-05-16","n":{"den":1}}]}},{"type":"Feature","geometry":{"type":"Polygon","coordinates":[[[-82.6,38.2],[-82.6,38.34],[-82.51,38.41],[-82.3,38.5],[-82.22,38.59],[-82.21,38.8],[-82.09,38.98],[-81.9,38.93],[-81.81,39.08],[-81.75,39.19],[-81.61,39.27],[-81.46,39.41],[-81.35,39.35],[-81.12,39.46],[-80.87,39.66],[-80.83,39.8],[-80.76,39.95],[-80.71,40.15],[-80.61,40.3],[-80.62,40.52],[-80.52,40.64],[-80.52,40.16],[-80.42,39.72],[-79.48,39.72],[-79.42,39.23],[-79.17,39.4],[-78.96,39.44],[-78.74,39.61],[-78.47,39.53],[-78.33,39.63],[-78.03,39.62],[-77.82,39.53],[-77.75,39.35],[-77.83,39.13],[-78.03,39.27],[-78.34,39.41],[-78.43,39.19],[-78.56,39.01],[-78.82,38.83],[-79.06,38.76],[-79.2,38.53],[-79.31,38.42],[-79.65,38.59],[-79.73,38.36],[-79.85,38.23],[-79.97,38.04],[-80.2,37.83],[-80.29,37.68],[-80.29,37.54],[-80.55,37.48],[-80.86,37.42],[-80.83,37.34],[-81.11,37.28],[-81.48,37.25],[-81.74,37.24],[-81.9,37.33],[-81.93,37.51],[-82.23,37.65],[-82.37,37.8],[-82.48,37.94],[-82.6,38.2]]]},"properties":{"fips":"54","name":"West Virginia","st":"WV","n":0,"by":{},"ytd":{},"prev_ytd":{},"asof":null,"weeks":[]}},{"type":"Feature","geometry":{"type":"MultiPolygon","coordinates":[[[[-90.78,47.02],[-90.74,47.04],[-90.65,47.05],[-90.56,47.04],[-90.55,47.02],[-90.51,46.96],[-90.52,46.94],[-90.55,46.91],[-90.64,46.91],[-90.68,46.96],[-90.71,46.98],[-90.77,47.0],[-90.78,47.02]]],[[[-92.89,45.64],[-92.78,45.79],[-92.58,45.95],[-92.39,46.02],[-92.29,46.16],[-92.29,46.66],[-92.1,46.73],[-91.89,46.69],[-91.55,46.76],[-91.31,46.83],[-91.13,46.87],[-90.99,46.98],[-90.75,46.89],[-90.85,46.7],[-90.92,46.59],[-90.75,46.65],[-90.55,46.59],[-90.39,46.53],[-90.16,46.42],[-89.09,46.14],[-88.74,46.03],[-88.61,45.99],[-88.38,45.99],[-88.12,45.92],[-88.11,45.8],[-87.97,45.76],[-87.78,45.67],[-87.8,45.52],[-87.86,45.35],[-87.66,45.37],[-87.69,45.15],[-87.63,44.98],[-87.84,44.92],[-87.94,44.76],[-88.0,44.61],[-87.9,44.57],[-87.75,44.67],[-87.65,44.8],[-87.45,44.89],[-87.24,45.17],[-87.06,45.29],[-87.04,45.19],[-87.19,44.95],[-87.38,44.68],[-87.54,44.33],[-87.54,44.16],[-87.73,43.89],[-87.71,43.72],[-87.79,43.49],[-87.9,43.19],[-87.84,42.94],[-87.77,42.78],[-87.81,42.58],[-88.22,42.5],[-88.71,42.49],[-89.04,42.5],[-89.84,42.51],[-90.43,42.51],[-90.7,42.63],[-90.94,42.68],[-91.14,42.9],[-91.17,43.08],[-91.06,43.25],[-91.2,43.4],[-91.23,43.56],[-91.24,43.77],[-91.42,43.98],[-91.65,44.06],[-91.89,44.23],[-92.11,44.41],[-92.31,44.54],[-92.55,44.58],[-92.79,44.76],[-92.77,44.86],[-92.74,45.11],[-92.76,45.28],[-92.65,45.44],[-92.8,45.56],[-92.89,45.64]]]]},"properties":{"fips":"55","name":"Wisconsin","st":"WI","n":12,"by":{"jcv":1,"lac":1,"pow":6,"den":4},"ytd":{"eee":0,"jcv":1,"lac":0,"pow":6,"sle":0,"wnv":0,"den":3},"prev_ytd":{"eee":0,"jcv":6,"lac":0,"pow":17,"sle":0,"wnv":27,"den":17},"asof":"2026-09-05","weeks":[{"w":"2026-08-29","n":{"pow":1}},{"w":"2026-07-18","n":{"jcv":1,"pow":2}},{"w":"2026-07-11","n":{"den":1}},{"w":"2026-06-27","n":{"pow":1,"den":1}},{"w":"2026-06-20","n":{"pow":1}},{"w":"2026-06-06","n":{"lac":1}}]}},{"type":"Feature","geometry":{"type":"Polygon","coordinates":[[[-111.06,44.87],[-110.7,44.99],[-109.57,45.0],[-108.5,45.0],[-107.35,45.0],[-106.03,45.0],[-105.03,45.0],[-104.06,44.25],[-104.06,43.56],[-104.05,43.0],[-104.05,42.25],[-104.05,41.7],[-104.05,41.39],[-104.5,41.0],[-105.28,41.0],[-106.86,41.0],[-108.25,41.0],[-110.0,41.0],[-111.05,41.0],[-111.05,41.58],[-111.04,42.72],[-111.05,43.32],[-111.05,43.98],[-111.06,44.62],[-111.06,44.87]]]},"properties":{"fips":"56","name":"Wyoming","st":"WY","n":1,"by":{"wnv":1},"ytd":{"eee":0,"jcv":0,"lac":0,"pow":0,"sle":0,"wnv":1,"den":0},"prev_ytd":{"eee":0,"jcv":0,"lac":0,"pow":0,"sle":0,"wnv":14,"den":1},"asof":"2026-09-05","weeks":[{"w":"2026-07-18","n":{"wnv":1}}]}}]}