{"type":"FeatureCollection","generated_at":"2026-09-11T19:50:45Z","site_count":20,"fresh_count":20,"failures":{},"features":[{"type":"Feature","geometry":{"type":"Point","coordinates":[-77.0073,36.984]},"properties":{"site":"KAKQ","name":"Wakefield VA","scan_time":"2026-09-11T19:40:40Z","stale":false,"bins":25,"density_birds_km3":3.12875,"heading_deg":209.07490426579974,"speed_ms":6.384005596642014,"peak_altitude_m":0.0,"u_ms":-3.0657665400759537,"v_ms":-5.505910453727763}},{"type":"Feature","geometry":{"type":"Point","coordinates":[-71.1369,41.9558]},"properties":{"site":"KBOX","name":"Boston MA","scan_time":"2026-09-11T19:44:20Z","stale":false,"bins":25,"density_birds_km3":1.7933333333333332,"heading_deg":128.99265463496843,"speed_ms":4.807598806860552,"peak_altitude_m":0.0,"u_ms":3.733903803131991,"v_ms":-3.0213236390753164}},{"type":"Feature","geometry":{"type":"Point","coordinates":[-78.7369,42.9489]},"properties":{"site":"KBUF","name":"Buffalo NY","scan_time":"2026-09-11T19:37:13Z","stale":false,"bins":25,"density_birds_km3":1.1806666666666668,"heading_deg":124.87753436737609,"speed_ms":4.760604178430265,"peak_altitude_m":200.0,"u_ms":3.792659514398645,"v_ms":-2.6299717673630716}},{"type":"Feature","geometry":{"type":"Point","coordinates":[-81.8597,41.4131]},"properties":{"site":"KCLE","name":"Cleveland OH","scan_time":"2026-09-11T19:39:05Z","stale":false,"bins":25,"density_birds_km3":3.554666666666667,"heading_deg":218.72922272247783,"speed_ms":5.400981852913085,"peak_altitude_m":200.0,"u_ms":-3.184914995224451,"v_ms":-4.2109818529130845}},{"type":"Feature","geometry":{"type":"Point","coordinates":[-81.0423,32.6555]},"properties":{"site":"KCLX","name":"Charleston SC","scan_time":"2026-09-11T19:42:30Z","stale":false,"bins":25,"density_birds_km3":8.693125,"heading_deg":345.6575166198738,"speed_ms":4.411306528900869,"peak_altitude_m":0.0,"u_ms":-1.0916045223120696,"v_ms":4.251281820904462}},{"type":"Feature","geometry":{"type":"Point","coordinates":[-74.4108,39.947]},"properties":{"site":"KDIX","name":"Philadelphia PA","scan_time":"2026-09-11T19:36:27Z","stale":false,"bins":25,"density_birds_km3":2.274375,"heading_deg":149.34363220612465,"speed_ms":2.955633764091284,"peak_altitude_m":200.0,"u_ms":1.5624333241682706,"v_ms":-2.4445999450096236}},{"type":"Feature","geometry":{"type":"Point","coordinates":[-84.5658,33.3636]},"properties":{"site":"KFFC","name":"Atlanta GA","scan_time":"2026-09-11T19:40:18Z","stale":false,"bins":25,"density_birds_km3":2.676,"heading_deg":23.930085564933666,"speed_ms":9.366380568839666,"peak_altitude_m":200.0,"u_ms":3.7720412786307573,"v_ms":8.566508935313363}},{"type":"Feature","geometry":{"type":"Point","coordinates":[-85.5449,42.8939]},"properties":{"site":"KGRR","name":"Grand Rapids MI","scan_time":"2026-09-11T19:41:41Z","stale":false,"bins":25,"density_birds_km3":1.4746666666666668,"heading_deg":283.4067007516709,"speed_ms":3.684186732186732,"peak_altitude_m":200.0,"u_ms":-3.5566584766584763,"v_ms":0.8394594594594593}},{"type":"Feature","geometry":{"type":"Point","coordinates":[-83.8217,39.4203]},"properties":{"site":"KILN","name":"Wilmington OH","scan_time":"2026-09-11T19:46:08Z","stale":false,"bins":25,"density_birds_km3":1.8619999999999999,"heading_deg":263.4212046677014,"speed_ms":4.388646508279337,"peak_altitude_m":200.0,"u_ms":-4.261551475881929,"v_ms":-0.5060907127429806}},{"type":"Feature","geometry":{"type":"Point","coordinates":[-81.7019,30.4846]},"properties":{"site":"KJAX","name":"Jacksonville FL","scan_time":"2026-09-11T19:45:31Z","stale":false,"bins":25,"density_birds_km3":2.1575,"heading_deg":332.0191063604701,"speed_ms":2.986895718232044,"peak_altitude_m":0.0,"u_ms":-1.3003591160220995,"v_ms":2.5693370165745857}},{"type":"Feature","geometry":{"type":"Point","coordinates":[-88.0847,41.6045]},"properties":{"site":"KLOT","name":"Chicago IL","scan_time":"2026-09-11T19:43:06Z","stale":false,"bins":25,"density_birds_km3":2.732666666666667,"heading_deg":305.3615714864187,"speed_ms":4.714940141705351,"peak_altitude_m":200.0,"u_ms":-3.832169557781578,"v_ms":2.720901539213291}},{"type":"Feature","geometry":{"type":"Point","coordinates":[-78.4292,33.9892]},"properties":{"site":"KLTX","name":"Wilmington NC","scan_time":"2026-09-11T19:41:46Z","stale":false,"bins":25,"density_birds_km3":0.350625,"heading_deg":304.4972179167234,"speed_ms":4.477753303964758,"peak_altitude_m":200.0,"u_ms":-1.6433920704845812,"v_ms":1.708722466960353}},{"type":"Feature","geometry":{"type":"Point","coordinates":[-77.4778,38.9753]},"properties":{"site":"KLWX","name":"Sterling VA","scan_time":"2026-09-11T19:45:19Z","stale":false,"bins":25,"density_birds_km3":3.8837499999999996,"heading_deg":200.98154867805226,"speed_ms":4.624516285069332,"peak_altitude_m":0.0,"u_ms":-1.6561383424701708,"v_ms":-4.282694292163818}},{"type":"Feature","geometry":{"type":"Point","coordinates":[-76.8762,34.7759]},"properties":{"site":"KMHX","name":"Morehead City NC","scan_time":"2026-09-11T19:44:48Z","stale":false,"bins":25,"density_birds_km3":1.173125,"heading_deg":17.89906016485543,"speed_ms":4.206542354821524,"peak_altitude_m":200.0,"u_ms":1.1683324453915824,"v_ms":2.630015982951518}},{"type":"Feature","geometry":{"type":"Point","coordinates":[-80.6542,28.1133]},"properties":{"site":"KMLB","name":"Melbourne FL","scan_time":"2026-09-11T19:40:00Z","stale":false,"bins":25,"density_birds_km3":1.8225,"heading_deg":65.9766091101658,"speed_ms":0.8013465346534654,"peak_altitude_m":200.0,"u_ms":0.7403828382838283,"v_ms":0.33144554455445546}},{"type":"Feature","geometry":{"type":"Point","coordinates":[-86.5625,36.2472]},"properties":{"site":"KOHX","name":"Nashville TN","scan_time":"2026-09-11T19:46:18Z","stale":false,"bins":25,"density_birds_km3":3.662,"heading_deg":281.16164679964686,"speed_ms":3.025056548704852,"peak_altitude_m":200.0,"u_ms":-2.7697500912075883,"v_ms":0.5196515870120394}},{"type":"Feature","geometry":{"type":"Point","coordinates":[-72.8639,40.8655]},"properties":{"site":"KOKX","name":"Upton NY","scan_time":"2026-09-11T19:39:58Z","stale":false,"bins":25,"density_birds_km3":1.6256249999999999,"heading_deg":130.9664768790165,"speed_ms":4.800705329153605,"peak_altitude_m":0.0,"u_ms":3.550572100313479,"v_ms":-3.148687304075235}},{"type":"Feature","geometry":{"type":"Point","coordinates":[-80.2183,40.5317]},"properties":{"site":"KPBZ","name":"Pittsburgh PA","scan_time":"2026-09-11T19:39:40Z","stale":false,"bins":25,"density_birds_km3":11.684545454545455,"heading_deg":182.16855432133116,"speed_ms":2.7498052434456928,"peak_altitude_m":1600.0,"u_ms":-0.09663820224719102,"v_ms":-2.7387835205992506}},{"type":"Feature","geometry":{"type":"Point","coordinates":[-78.4899,35.6655]},"properties":{"site":"KRAX","name":"Raleigh NC","scan_time":"2026-09-11T19:44:08Z","stale":false,"bins":25,"density_birds_km3":2.065,"heading_deg":2.40855174869678,"speed_ms":2.084801964998465,"peak_altitude_m":0.0,"u_ms":0.2002855388394227,"v_ms":1.3316825299355235}},{"type":"Feature","geometry":{"type":"Point","coordinates":[-82.4017,27.7055]},"properties":{"site":"KTBW","name":"Tampa FL","scan_time":"2026-09-11T19:41:58Z","stale":false,"bins":25,"density_birds_km3":1.658125,"heading_deg":59.36079406380787,"speed_ms":3.451798642533937,"peak_altitude_m":0.0,"u_ms":2.820128205128205,"v_ms":1.5594607843137256}}]}