{"type":"FeatureCollection","generated_at":"2026-09-12T21:23:00Z","source":{"id":"cetaceans","name":"NOAA Passive Acoustic Cetacean Map","url":"https://passiveacoustics.fisheries.noaa.gov/pacm/","api":"https://passiveacoustics.fisheries.noaa.gov/pacm/data","licence":"Public Domain U.S. Government (NOAA Fisheries Copyright Policy); acknowledge NOAA","citation":"Passive Acoustic Cetacean Map (PACM). 2026. Woods Hole (MA): NOAA Northeast Fisheries Science Center v1.3.8. Accessed on 2026-09-12. https://passiveacoustics.fisheries.noaa.gov/pacm/","policy":"https://www.fisheries.noaa.gov/national/about-us/website-policies-and-disclaimers","note":"Counts are days with an acoustic detection at a recorder (not calls, not animals); 'possible' days are the analysts' uncertain class. Coverage follows where recorders were deployed and analysed; the public record lags months behind today.","seed":"Seed = the complete live run of 2026-09-12T21:23:00Z (24 stations, 26454 bytes): not subsampled, under the 100 KB seed cap."},"data_end":"2026-05-15","weeks":13,"since":"2025-08-08","species":["right whale","fin whale","humpback whale","sei whale","blue whale","sperm whale","dolphins"],"themes":{"narw":"right whale","fin":"fin whale","humpback":"humpback whale","sei":"sei whale","blue":"blue whale","sperm":"sperm whale","dolphin":"dolphins"},"organizations":{"RUTGERS":"Rutgers University","SBU":"Stony Brook University","SYRACUSE":"Syracuse University","UMD":"University of Maryland","UNB":"University of New Brunswick","WHOI":"Woods Hole Oceanographic Institution"},"counts":{"rows":19991,"no_deployment":0,"outside_monitoring":2145,"no_position":0,"outside_window":13911,"detection_days":732,"stations":24,"organizations":6,"data_end":"2026-05-15"},"features":[{"type":"Feature","geometry":{"type":"Point","coordinates":[-73.5586,39.8067]},"properties":{"station":"RUTGERS_NJ_202602_RU43","org":"RUTGERS","project":"RUTGERS_NJ","platform":"ELECTRIC_GLIDER","mobile":true,"qc":["REAL_TIME"],"species":{"fin whale":17,"humpback whale":12,"right whale":7,"sei whale":4},"possible":{"humpback whale":3,"sei whale":5,"right whale":1},"codes":{"right whale":["RIWH"],"fin whale":["FIWH"],"humpback whale":["HUWH"],"sei whale":["SEWH"]},"n":40,"e":27,"weeks":[{"w":"2026-03-27","n":{"fin whale":1,"humpback whale":3},"m":{},"e":5},{"w":"2026-03-20","n":{"right whale":4,"fin whale":7,"humpback whale":4,"sei whale":3},"m":{"humpback whale":2,"sei whale":1},"e":7},{"w":"2026-03-13","n":{"right whale":1,"fin whale":6,"humpback whale":3,"sei whale":1},"m":{"humpback whale":1,"sei whale":1},"e":7},{"w":"2026-03-06","n":{"right whale":2,"fin whale":3,"humpback whale":2},"m":{"right whale":1,"sei whale":3},"e":7},{"w":"2026-02-27","n":{},"m":{},"e":1}]}},{"type":"Feature","geometry":{"type":"Point","coordinates":[-73.7611,40.1089]},"properties":{"station":"RUTGERS_NJ_202605_RU43","org":"RUTGERS","project":"RUTGERS_NJ","platform":"ELECTRIC_GLIDER","mobile":true,"qc":["REAL_TIME"],"species":{"fin whale":3,"humpback whale":3},"possible":{"humpback whale":1},"codes":{"fin whale":["FIWH"],"humpback whale":["HUWH"]},"n":6,"e":9,"weeks":[{"w":"2026-05-15","n":{"fin whale":3,"humpback whale":3},"m":{"humpback whale":1},"e":7},{"w":"2026-05-08","n":{},"m":{},"e":2}]}},{"type":"Feature","geometry":{"type":"Point","coordinates":[-72.3167,40.4862]},"properties":{"station":"SBU_NY_202602_SBU01","org":"SBU","project":"SBU_NY","platform":"ELECTRIC_GLIDER","mobile":true,"qc":["REAL_TIME"],"species":{"fin whale":6,"humpback whale":4,"sei whale":3,"right whale":1},"possible":{"sei whale":1,"right whale":1},"codes":{"right whale":["RIWH"],"fin whale":["FIWH"],"humpback whale":["HUWH"],"sei whale":["SEWH"]},"n":14,"e":8,"weeks":[{"w":"2026-03-13","n":{"fin whale":1},"m":{"sei whale":1},"e":1},{"w":"2026-03-06","n":{"right whale":1,"fin whale":5,"humpback whale":4,"sei whale":3},"m":{"right whale":1},"e":7}]}},{"type":"Feature","geometry":{"type":"Point","coordinates":[-72.288,40.5893]},"properties":{"station":"SBU_NY_202605_SBU01","org":"SBU","project":"SBU_NY","platform":"ELECTRIC_GLIDER","mobile":true,"qc":["REAL_TIME"],"species":{"humpback whale":5,"fin whale":4},"possible":{},"codes":{"fin whale":["FIWH"],"humpback whale":["HUWH"]},"n":9,"e":7,"weeks":[{"w":"2026-05-15","n":{"fin whale":4,"humpback whale":5},"m":{},"e":6},{"w":"2026-05-08","n":{},"m":{},"e":1}]}},{"type":"Feature","geometry":{"type":"Point","coordinates":[-72.5853,40.5851]},"properties":{"station":"LI01","org":"SYRACUSE","project":"SYRACUSE_NYNJB_LI","platform":"BOTTOM_MOUNTED_MOORING","mobile":false,"qc":["POST_PROCESSED"],"species":{"right whale":6},"possible":{"right whale":2},"codes":{"right whale":["RIWH"]},"n":6,"e":32,"weeks":[{"w":"2026-03-20","n":{"right whale":1},"m":{},"e":4},{"w":"2026-03-13","n":{"right whale":1},"m":{},"e":7},{"w":"2026-03-06","n":{},"m":{"right whale":1},"e":7},{"w":"2026-02-27","n":{"right whale":3},"m":{},"e":7},{"w":"2026-02-20","n":{"right whale":1},"m":{"right whale":1},"e":7}]}},{"type":"Feature","geometry":{"type":"Point","coordinates":[-72.2793,40.2701]},"properties":{"station":"LI02","org":"SYRACUSE","project":"SYRACUSE_NYNJB_LI","platform":"BOTTOM_MOUNTED_MOORING","mobile":false,"qc":["POST_PROCESSED"],"species":{"right whale":7},"possible":{},"codes":{"right whale":["RIWH"]},"n":7,"e":32,"weeks":[{"w":"2026-03-20","n":{"right whale":1},"m":{},"e":4},{"w":"2026-03-13","n":{"right whale":3},"m":{},"e":7},{"w":"2026-03-06","n":{"right whale":3},"m":{},"e":7},{"w":"2026-02-27","n":{},"m":{},"e":7},{"w":"2026-02-20","n":{},"m":{},"e":7}]}},{"type":"Feature","geometry":{"type":"Point","coordinates":[-71.9354,39.9373]},"properties":{"station":"LI03","org":"SYRACUSE","project":"SYRACUSE_NYNJB_LI","platform":"BOTTOM_MOUNTED_MOORING","mobile":false,"qc":["POST_PROCESSED"],"species":{"right whale":2},"possible":{"right whale":2},"codes":{"right whale":["RIWH"]},"n":2,"e":32,"weeks":[{"w":"2026-03-20","n":{"right whale":1},"m":{"right whale":1},"e":4},{"w":"2026-03-13","n":{},"m":{},"e":7},{"w":"2026-03-06","n":{"right whale":1},"m":{},"e":7},{"w":"2026-02-27","n":{},"m":{},"e":7},{"w":"2026-02-20","n":{},"m":{"right whale":1},"e":7}]}},{"type":"Feature","geometry":{"type":"Point","coordinates":[-73.6648,38.9632]},"properties":{"station":"NJ01","org":"SYRACUSE","project":"SYRACUSE_NYNJB_NJ","platform":"BOTTOM_MOUNTED_MOORING","mobile":false,"qc":["POST_PROCESSED"],"species":{"right whale":7},"possible":{},"codes":{"right whale":["RIWH"]},"n":7,"e":33,"weeks":[{"w":"2026-03-20","n":{"right whale":3},"m":{},"e":5},{"w":"2026-03-13","n":{"right whale":2},"m":{},"e":7},{"w":"2026-03-06","n":{"right whale":1},"m":{},"e":7},{"w":"2026-02-27","n":{"right whale":1},"m":{},"e":7},{"w":"2026-02-20","n":{},"m":{},"e":7}]}},{"type":"Feature","geometry":{"type":"Point","coordinates":[-74.0602,38.7045]},"properties":{"station":"NJ02","org":"SYRACUSE","project":"SYRACUSE_NYNJB_NJ","platform":"BOTTOM_MOUNTED_MOORING","mobile":false,"qc":["POST_PROCESSED"],"species":{"right whale":7},"possible":{"right whale":3},"codes":{"right whale":["RIWH"]},"n":7,"e":33,"weeks":[{"w":"2026-03-20","n":{"right whale":2},"m":{"right whale":1},"e":5},{"w":"2026-03-13","n":{"right whale":2},"m":{},"e":7},{"w":"2026-03-06","n":{"right whale":2},"m":{"right whale":1},"e":7},{"w":"2026-02-27","n":{},"m":{"right whale":1},"e":7},{"w":"2026-02-20","n":{"right whale":1},"m":{},"e":7}]}},{"type":"Feature","geometry":{"type":"Point","coordinates":[-73.6072,38.6518]},"properties":{"station":"NJ03","org":"SYRACUSE","project":"SYRACUSE_NYNJB_NJ","platform":"BOTTOM_MOUNTED_MOORING","mobile":false,"qc":["POST_PROCESSED"],"species":{"right whale":5},"possible":{"right whale":2},"codes":{"right whale":["RIWH"]},"n":5,"e":33,"weeks":[{"w":"2026-03-20","n":{"right whale":3},"m":{"right whale":1},"e":5},{"w":"2026-03-13","n":{"right whale":2},"m":{"right whale":1},"e":7},{"w":"2026-03-06","n":{},"m":{},"e":7},{"w":"2026-02-27","n":{},"m":{},"e":7},{"w":"2026-02-20","n":{},"m":{},"e":7}]}},{"type":"Feature","geometry":{"type":"Point","coordinates":[-74.6427,38.307]},"properties":{"station":"MDOC","org":"UMD","project":"UMD_MD","platform":"MOORED_SURFACE_BUOY","mobile":false,"qc":["REAL_TIME"],"species":{"fin whale":44,"humpback whale":38,"right whale":3},"possible":{"fin whale":9,"right whale":12,"humpback whale":12,"sei whale":2},"codes":{"right whale":["RIWH"],"fin whale":["FIWH"],"humpback whale":["HUWH"]},"n":85,"e":91,"weeks":[{"w":"2026-05-15","n":{},"m":{"fin whale":2},"e":7},{"w":"2026-05-08","n":{"fin whale":1,"humpback whale":1},"m":{"right whale":2,"fin whale":3,"humpback whale":2},"e":7},{"w":"2026-05-01","n":{"humpback whale":3},"m":{"right whale":2,"fin whale":2,"humpback whale":3},"e":7},{"w":"2026-04-24","n":{"fin whale":1,"humpback whale":7},"m":{"right whale":2},"e":7},{"w":"2026-04-17","n":{"fin whale":5,"humpback whale":7},"m":{},"e":7},{"w":"2026-04-10","n":{"fin whale":2,"humpback whale":7},"m":{"right whale":2,"fin whale":1,"sei whale":1},"e":7},{"w":"2026-04-03","n":{"right whale":1,"fin whale":3,"humpback whale":2},"m":{},"e":7},{"w":"2026-03-27","n":{"fin whale":5,"humpback whale":2},"m":{"humpback whale":4},"e":7},{"w":"2026-03-20","n":{"fin whale":5,"humpback whale":4},"m":{"right whale":2,"humpback whale":3},"e":7},{"w":"2026-03-13","n":{"right whale":1,"fin whale":6,"humpback whale":5},"m":{"fin whale":1,"sei whale":1},"e":7},{"w":"2026-03-06","n":{"fin whale":4},"m":{"right whale":1},"e":7},{"w":"2026-02-27","n":{"fin whale":6},"m":{"right whale":1},"e":7},{"w":"2026-02-20","n":{"right whale":1,"fin whale":6},"m":{},"e":7}]}},{"type":"Feature","geometry":{"type":"Point","coordinates":[-64.1329,48.0159]},"properties":{"station":"UNB_GSL_202605_CABOT","org":"UNB","project":"UNB_GSL","platform":"ELECTRIC_GLIDER","mobile":true,"qc":["REAL_TIME"],"species":{},"possible":{},"codes":{},"n":0,"e":2,"weeks":[{"w":"2026-05-15","n":{},"m":{},"e":2}]}},{"type":"Feature","geometry":{"type":"Point","coordinates":[-119.7644,34.1082]},"properties":{"station":"CASB","org":"WHOI","project":"WHOI_CA","platform":"MOORED_SURFACE_BUOY","mobile":false,"qc":["REAL_TIME"],"species":{"humpback whale":39,"blue whale":10,"fin whale":6},"possible":{"humpback whale":7,"blue whale":6,"fin whale":6},"codes":{"fin whale":["FIWH"],"humpback whale":["HUWH"],"blue whale":["BLWH"]},"n":55,"e":50,"weeks":[{"w":"2026-04-10","n":{"fin whale":1,"humpback whale":1,"blue whale":1},"m":{},"e":1},{"w":"2026-04-03","n":{"fin whale":1,"humpback whale":2,"blue whale":2},"m":{"humpback whale":3,"blue whale":3},"e":7},{"w":"2026-03-27","n":{"humpback whale":5,"blue whale":6},"m":{"humpback whale":2,"blue whale":1},"e":7},{"w":"2026-03-20","n":{"fin whale":1,"humpback whale":7,"blue whale":1},"m":{"fin whale":1,"blue whale":1},"e":7},{"w":"2026-03-13","n":{"fin whale":1,"humpback whale":7},"m":{"blue whale":1},"e":7},{"w":"2026-03-06","n":{"fin whale":1,"humpback whale":7},"m":{"fin whale":1},"e":7},{"w":"2026-02-27","n":{"humpback whale":6},"m":{"fin whale":1,"humpback whale":1},"e":7},{"w":"2026-02-20","n":{"fin whale":1,"humpback whale":4},"m":{"fin whale":3,"humpback whale":1},"e":7}]}},{"type":"Feature","geometry":{"type":"Point","coordinates":[-80.3069,31.8212]},"properties":{"station":"GASV","org":"WHOI","project":"WHOI_GA","platform":"MOORED_SURFACE_BUOY","mobile":false,"qc":["REAL_TIME"],"species":{},"possible":{"right whale":3},"codes":{},"n":0,"e":91,"weeks":[{"w":"2026-05-15","n":{},"m":{},"e":7},{"w":"2026-05-08","n":{},"m":{},"e":7},{"w":"2026-05-01","n":{},"m":{},"e":7},{"w":"2026-04-24","n":{},"m":{},"e":7},{"w":"2026-04-17","n":{},"m":{},"e":7},{"w":"2026-04-10","n":{},"m":{},"e":7},{"w":"2026-04-03","n":{},"m":{},"e":7},{"w":"2026-03-27","n":{},"m":{},"e":7},{"w":"2026-03-20","n":{},"m":{},"e":7},{"w":"2026-03-13","n":{},"m":{"right whale":1},"e":7},{"w":"2026-03-06","n":{},"m":{},"e":7},{"w":"2026-02-27","n":{},"m":{"right whale":1},"e":7},{"w":"2026-02-20","n":{},"m":{"right whale":1},"e":7}]}},{"type":"Feature","geometry":{"type":"Point","coordinates":[-70.6968,42.4685]},"properties":{"station":"MACA","org":"WHOI","project":"WHOI_MA-BAY","platform":"MOORED_SURFACE_BUOY","mobile":false,"qc":["REAL_TIME"],"species":{"humpback whale":52,"sei whale":15,"right whale":11,"fin whale":10},"possible":{"humpback whale":4,"right whale":14,"sei whale":6,"fin whale":5},"codes":{"right whale":["RIWH"],"fin whale":["FIWH"],"humpback whale":["HUWH"],"sei whale":["SEWH"]},"n":88,"e":91,"weeks":[{"w":"2026-05-15","n":{"humpback whale":7},"m":{},"e":7},{"w":"2026-05-08","n":{"humpback whale":6},"m":{"humpback whale":1},"e":7},{"w":"2026-05-01","n":{"right whale":1,"humpback whale":7,"sei whale":3},"m":{"right whale":3,"sei whale":4},"e":7},{"w":"2026-04-24","n":{"fin whale":1,"humpback whale":7,"sei whale":7},"m":{"right whale":4},"e":7},{"w":"2026-04-17","n":{"right whale":1,"humpback whale":7,"sei whale":3},"m":{"sei whale":2},"e":7},{"w":"2026-04-10","n":{"right whale":2,"fin whale":3,"humpback whale":5,"sei whale":1},"m":{"right whale":3,"humpback whale":2},"e":7},{"w":"2026-04-03","n":{"right whale":1,"fin whale":1,"humpback whale":6},"m":{"right whale":2,"humpback whale":1},"e":7},{"w":"2026-03-27","n":{"right whale":2,"fin whale":2,"humpback whale":7,"sei whale":1},"m":{"fin whale":1},"e":7},{"w":"2026-03-20","n":{"fin whale":3},"m":{"fin whale":1},"e":7},{"w":"2026-03-13","n":{"right whale":1},"m":{"right whale":2,"fin whale":2},"e":7},{"w":"2026-03-06","n":{"right whale":3},"m":{},"e":7},{"w":"2026-02-27","n":{},"m":{"fin whale":1},"e":7},{"w":"2026-02-20","n":{},"m":{},"e":7}]}},{"type":"Feature","geometry":{"type":"Point","coordinates":[-70.332,41.9178]},"properties":{"station":"MACCB","org":"WHOI","project":"WHOI_CCB","platform":"MOORED_SURFACE_BUOY","mobile":false,"qc":["REAL_TIME"],"species":{"right whale":37,"humpback whale":33,"sei whale":9,"fin whale":4},"possible":{"humpback whale":11,"right whale":4,"sei whale":2},"codes":{"right whale":["RIWH"],"fin whale":["FIWH"],"humpback whale":["HUWH"],"sei whale":["SEWH"]},"n":83,"e":58,"weeks":[{"w":"2026-05-15","n":{"humpback whale":2},"m":{"humpback whale":4},"e":7},{"w":"2026-05-08","n":{"right whale":1},"m":{"humpback whale":1},"e":7},{"w":"2026-05-01","n":{"right whale":2,"humpback whale":7,"sei whale":2},"m":{"right whale":1},"e":7},{"w":"2026-04-24","n":{"right whale":5,"humpback whale":4,"sei whale":2},"m":{"right whale":2,"humpback whale":2},"e":7},{"w":"2026-04-17","n":{"right whale":6,"fin whale":2,"humpback whale":7,"sei whale":1},"m":{"right whale":1,"sei whale":2},"e":7},{"w":"2026-04-10","n":{"right whale":7,"humpback whale":5,"sei whale":2},"m":{"humpback whale":2},"e":7},{"w":"2026-04-03","n":{"right whale":7,"fin whale":1,"humpback whale":5,"sei whale":1},"m":{"humpback whale":2},"e":7},{"w":"2026-03-27","n":{"right whale":7,"fin whale":1,"humpback whale":3,"sei whale":1},"m":{},"e":7},{"w":"2026-03-20","n":{"right whale":2},"m":{},"e":2}]}},{"type":"Feature","geometry":{"type":"Point","coordinates":[-70.3296,40.9999]},"properties":{"station":"MAMV","org":"WHOI","project":"WHOI_MA-RI","platform":"MOORED_SURFACE_BUOY","mobile":false,"qc":["REAL_TIME"],"species":{"sei whale":29,"right whale":13,"fin whale":8,"humpback whale":4},"possible":{"right whale":10,"humpback whale":4,"sei whale":2,"fin whale":2},"codes":{"right whale":["RIWH"],"fin whale":["FIWH"],"humpback whale":["HUWH"],"sei whale":["SEWH"]},"n":54,"e":57,"weeks":[{"w":"2026-05-15","n":{},"m":{},"e":7},{"w":"2026-05-08","n":{"fin whale":1,"sei whale":1},"m":{},"e":7},{"w":"2026-05-01","n":{"right whale":1,"fin whale":4,"humpback whale":1,"sei whale":2},"m":{},"e":7},{"w":"2026-04-24","n":{"right whale":1,"fin whale":1,"humpback whale":1,"sei whale":5},"m":{"right whale":1,"humpback whale":2,"sei whale":1},"e":7},{"w":"2026-04-17","n":{"right whale":3,"humpback whale":1,"sei whale":7},"m":{"right whale":2,"humpback whale":2},"e":7},{"w":"2026-04-10","n":{"right whale":4,"fin whale":1,"humpback whale":1,"sei whale":7},"m":{"fin whale":1},"e":7},{"w":"2026-04-03","n":{"right whale":1,"sei whale":4},"m":{"right whale":5,"sei whale":1},"e":7},{"w":"2026-03-27","n":{"right whale":3,"fin whale":1,"sei whale":3},"m":{"right whale":2,"fin whale":1},"e":7},{"w":"2026-03-20","n":{},"m":{},"e":1}]}},{"type":"Feature","geometry":{"type":"Point","coordinates":[-74.1762,39.0729]},"properties":{"station":"NJATL","org":"WHOI","project":"WHOI_NJ","platform":"MOORED_SURFACE_BUOY","mobile":false,"qc":["REAL_TIME"],"species":{"fin whale":47,"humpback whale":40,"right whale":1},"possible":{"humpback whale":8,"fin whale":3,"right whale":2,"sei whale":1},"codes":{"right whale":["RIWH"],"fin whale":["FIWH"],"humpback whale":["HUWH"]},"n":88,"e":91,"weeks":[{"w":"2026-05-15","n":{},"m":{"humpback whale":1},"e":7},{"w":"2026-05-08","n":{"humpback whale":2},"m":{"fin whale":1,"humpback whale":2},"e":7},{"w":"2026-05-01","n":{"fin whale":1,"humpback whale":5},"m":{"fin whale":1,"humpback whale":1},"e":7},{"w":"2026-04-24","n":{"fin whale":1,"humpback whale":5},"m":{"fin whale":1,"humpback whale":1},"e":7},{"w":"2026-04-17","n":{"humpback whale":7},"m":{},"e":7},{"w":"2026-04-10","n":{"fin whale":3,"humpback whale":6},"m":{"right whale":2,"sei whale":1},"e":7},{"w":"2026-04-03","n":{"fin whale":2,"humpback whale":4},"m":{},"e":7},{"w":"2026-03-27","n":{"fin whale":5,"humpback whale":5},"m":{"humpback whale":2},"e":7},{"w":"2026-03-20","n":{"fin whale":7,"humpback whale":3},"m":{"humpback whale":1},"e":7},{"w":"2026-03-13","n":{"fin whale":7,"humpback whale":3},"m":{},"e":7},{"w":"2026-03-06","n":{"fin whale":7},"m":{},"e":7},{"w":"2026-02-27","n":{"fin whale":7},"m":{},"e":7},{"w":"2026-02-20","n":{"right whale":1,"fin whale":7},"m":{},"e":7}]}},{"type":"Feature","geometry":{"type":"Point","coordinates":[-73.4842,40.3461]},"properties":{"station":"NYBNW","org":"WHOI","project":"WHOI_NY","platform":"MOORED_SURFACE_BUOY","mobile":false,"qc":["REAL_TIME"],"species":{"fin whale":4},"possible":{"humpback whale":1},"codes":{"fin whale":["FIWH"]},"n":4,"e":44,"weeks":[{"w":"2026-04-03","n":{},"m":{},"e":2},{"w":"2026-03-27","n":{"fin whale":1},"m":{},"e":7},{"w":"2026-03-20","n":{},"m":{},"e":7},{"w":"2026-03-13","n":{"fin whale":2},"m":{},"e":7},{"w":"2026-03-06","n":{},"m":{"humpback whale":1},"e":7},{"w":"2026-02-27","n":{"fin whale":1},"m":{},"e":7},{"w":"2026-02-20","n":{},"m":{},"e":7}]}},{"type":"Feature","geometry":{"type":"Point","coordinates":[-73.2196,40.2606]},"properties":{"station":"NYBSE","org":"WHOI","project":"WHOI_NY","platform":"MOORED_SURFACE_BUOY","mobile":false,"qc":["REAL_TIME"],"species":{"fin whale":11,"humpback whale":2,"right whale":1},"possible":{"right whale":2,"fin whale":2},"codes":{"right whale":["RIWH"],"fin whale":["FIWH"],"humpback whale":["HUWH"]},"n":14,"e":28,"weeks":[{"w":"2026-03-13","n":{"fin whale":4},"m":{},"e":7},{"w":"2026-03-06","n":{"fin whale":1,"humpback whale":2},"m":{"right whale":1},"e":7},{"w":"2026-02-27","n":{"fin whale":4},"m":{"right whale":1},"e":7},{"w":"2026-02-20","n":{"right whale":1,"fin whale":2},"m":{"fin whale":2},"e":7}]}},{"type":"Feature","geometry":{"type":"Point","coordinates":[-75.2496,37.1613]},"properties":{"station":"VACC","org":"WHOI","project":"WHOI_VA","platform":"MOORED_SURFACE_BUOY","mobile":false,"qc":["REAL_TIME"],"species":{"humpback whale":39,"fin whale":15},"possible":{"sei whale":3,"humpback whale":7,"right whale":4,"fin whale":6},"codes":{"fin whale":["FIWH"],"humpback whale":["HUWH"]},"n":54,"e":91,"weeks":[{"w":"2026-05-15","n":{},"m":{"sei whale":1},"e":7},{"w":"2026-05-08","n":{"fin whale":1},"m":{"humpback whale":1},"e":7},{"w":"2026-05-01","n":{"humpback whale":3},"m":{},"e":7},{"w":"2026-04-24","n":{"humpback whale":6},"m":{"right whale":1,"humpback whale":1,"sei whale":1},"e":7},{"w":"2026-04-17","n":{"fin whale":2,"humpback whale":5},"m":{"humpback whale":1},"e":7},{"w":"2026-04-10","n":{"fin whale":1,"humpback whale":7},"m":{"right whale":1},"e":7},{"w":"2026-04-03","n":{"fin whale":4,"humpback whale":3},"m":{"right whale":2},"e":7},{"w":"2026-03-27","n":{"fin whale":2,"humpback whale":3},"m":{},"e":7},{"w":"2026-03-20","n":{"humpback whale":7},"m":{"fin whale":1,"sei whale":1},"e":7},{"w":"2026-03-13","n":{"fin whale":1,"humpback whale":3},"m":{"fin whale":1},"e":7},{"w":"2026-03-06","n":{"fin whale":1,"humpback whale":2},"m":{"fin whale":2,"humpback whale":4},"e":7},{"w":"2026-02-27","n":{"fin whale":3},"m":{"fin whale":2},"e":7},{"w":"2026-02-20","n":{},"m":{},"e":7}]}},{"type":"Feature","geometry":{"type":"Point","coordinates":[-75.4636,36.7127]},"properties":{"station":"VANF","org":"WHOI","project":"WHOI_SC","platform":"MOORED_SURFACE_BUOY","mobile":false,"qc":["REAL_TIME"],"species":{"fin whale":6,"humpback whale":5},"possible":{"humpback whale":3,"right whale":1,"sei whale":1},"codes":{"fin whale":["FIWH"],"humpback whale":["HUWH"]},"n":11,"e":91,"weeks":[{"w":"2026-05-15","n":{},"m":{},"e":7},{"w":"2026-05-08","n":{},"m":{},"e":7},{"w":"2026-05-01","n":{},"m":{},"e":7},{"w":"2026-04-24","n":{},"m":{},"e":7},{"w":"2026-04-17","n":{},"m":{"humpback whale":1},"e":7},{"w":"2026-04-10","n":{"fin whale":4,"humpback whale":3},"m":{},"e":7},{"w":"2026-04-03","n":{},"m":{},"e":7},{"w":"2026-03-27","n":{},"m":{},"e":7},{"w":"2026-03-20","n":{},"m":{"humpback whale":1},"e":7},{"w":"2026-03-13","n":{"humpback whale":2},"m":{"humpback whale":1},"e":7},{"w":"2026-03-06","n":{},"m":{},"e":7},{"w":"2026-02-27","n":{"fin whale":2},"m":{"right whale":1,"sei whale":1},"e":7},{"w":"2026-02-20","n":{},"m":{},"e":7}]}},{"type":"Feature","geometry":{"type":"Point","coordinates":[-67.6728,44.2236]},"properties":{"station":"WHOI_GOM_202512_WE14","org":"WHOI","project":"WHOI_GOM","platform":"ELECTRIC_GLIDER","mobile":true,"qc":["REAL_TIME"],"species":{"fin whale":39,"sei whale":1},"possible":{"sei whale":1},"codes":{"fin whale":["FIWH"],"sei whale":["SEWH"]},"n":40,"e":55,"weeks":[{"w":"2026-04-10","n":{},"m":{},"e":6},{"w":"2026-04-03","n":{},"m":{},"e":7},{"w":"2026-03-27","n":{"fin whale":4,"sei whale":1},"m":{},"e":7},{"w":"2026-03-20","n":{"fin whale":7},"m":{},"e":7},{"w":"2026-03-13","n":{"fin whale":7},"m":{"sei whale":1},"e":7},{"w":"2026-03-06","n":{"fin whale":7},"m":{},"e":7},{"w":"2026-02-27","n":{"fin whale":7},"m":{},"e":7},{"w":"2026-02-20","n":{"fin whale":7},"m":{},"e":7}]}},{"type":"Feature","geometry":{"type":"Point","coordinates":[-70.2871,43.0596]},"properties":{"station":"WHOI_JB_202512_WE03","org":"WHOI","project":"WHOI_JB","platform":"ELECTRIC_GLIDER","mobile":true,"qc":["REAL_TIME"],"species":{"fin whale":47,"humpback whale":5,"sei whale":1},"possible":{"right whale":8,"fin whale":3,"humpback whale":8,"sei whale":5},"codes":{"fin whale":["FIWH"],"humpback whale":["HUWH"],"sei whale":["SEWH"]},"n":53,"e":56,"weeks":[{"w":"2026-04-10","n":{"fin whale":2,"humpback whale":1},"m":{"right whale":1,"fin whale":1,"humpback whale":1},"e":7},{"w":"2026-04-03","n":{"fin whale":7,"humpback whale":1,"sei whale":1},"m":{"right whale":2,"humpback whale":4,"sei whale":1},"e":7},{"w":"2026-03-27","n":{"fin whale":7,"humpback whale":3},"m":{"right whale":1,"humpback whale":1,"sei whale":1},"e":7},{"w":"2026-03-20","n":{"fin whale":5},"m":{"right whale":2,"fin whale":1},"e":7},{"w":"2026-03-13","n":{"fin whale":6},"m":{"right whale":1,"fin whale":1},"e":7},{"w":"2026-03-06","n":{"fin whale":7},"m":{"sei whale":1},"e":7},{"w":"2026-02-27","n":{"fin whale":6},"m":{"humpback whale":1,"sei whale":1},"e":7},{"w":"2026-02-20","n":{"fin whale":7},"m":{"right whale":1,"humpback whale":1,"sei whale":1},"e":7}]}}]}