{"type":"FeatureCollection","generated_at":"2026-09-25T06:44:29Z","years":[1985,2025],"source":{"id":"gmw","name":"Global Mangrove Watch","version":"4.1.12","doi":"10.5281/zenodo.21346457","licence":"CC BY 4.0 (Global Mangrove Watch v4.1.12, Zenodo record licence)","url":"https://doi.org/10.5281/zenodo.21346457","shapes":"Natural Earth 50m admin-0 map units (public domain)","citation":"Bunting, P., Hilarides, L., Rosenqvist, A., et al. (2026). Global Mangrove Watch: Timeseries of Mangrove Extent, v4.1.12. Zenodo. doi:10.5281/zenodo.21346457","note":"Mangrove extent in hectares per country and year, corrected (\u00d70.9775) for the accuracy assessment, with 95% bounds. Global F1 0.93.","subsample":"seed: 20 of 125 countries with the most mangrove in 2025 (83.0% of 2025 extent), shapes simplified at 0.25 deg with parts under 0.1 square degrees dropped; run pipeline/run_gmw.sh for every country"},"missing":[{"iso":"ATF_EI","name":"Europa Island","ha_last":664.5},{"iso":"ATF_GI","name":"Glorioso Islands","ha_last":0.4},{"iso":"BES_B","name":"Bonaire","ha_last":238.4},{"iso":"MUS_CA","name":"Chagos Archipelago","ha_last":2.3}],"features":[{"type":"Feature","geometry":{"type":"MultiPolygon","coordinates":[[[[97.93,0.97],[97.82,0.56],[97.08,1.43],[97.93,0.97]]],[[[98.83,-1.61],[98.68,-0.97],[98.93,-0.95],[99.16,-1.78],[98.83,-1.61]]],[[[116.59,-8.89],[115.87,-8.83],[116.4,-8.2],[116.59,-8.89]]],[[[115.7,-8.41],[115.14,-8.85],[114.47,-8.17],[115.7,-8.41]]],[[[106.37,-2.46],[106.82,-2.57],[106.67,-3.07],[106.0,-2.82],[105.79,-2.18],[105.13,-2.04],[105.46,-1.57],[106.05,-1.67],[106.37,-2.46]]],[[[123.19,-5.33],[122.65,-5.66],[122.85,-4.62],[123.18,-4.55],[123.19,-5.33]]],[[[108.0,3.98],[108.25,4.22],[108.39,3.99],[108.32,3.69],[108.0,3.98]]],[[[107.61,-3.21],[107.67,-2.57],[108.22,-2.7],[107.61,-3.21]]],[[[135.89,-0.73],[136.38,-1.09],[135.92,-1.18],[135.38,-0.65],[135.89,-0.73]]],[[[136.2,-1.65],[136.89,-1.8],[136.23,-1.89],[135.47,-1.59],[136.2,-1.65]]],[[[128.22,2.3],[128.6,2.6],[128.69,2.47],[128.45,2.05],[128.22,2.3]]],[[[127.56,-1.73],[127.39,-1.64],[127.65,-1.33],[128.15,-1.66],[127.56,-1.73]]],[[[125.31,-1.88],[124.33,-1.86],[124.48,-1.64],[125.31,-1.88]]],[[[131.14,-7.68],[131.64,-7.11],[131.69,-7.44],[131.33,-8.0],[131.14,-7.68]]],[[[126.47,-7.95],[125.8,-7.98],[125.98,-7.66],[126.8,-7.67],[126.47,-7.95]]],[[[97.55,5.21],[100.52,2.19],[100.89,1.95],[101.05,2.26],[101.48,1.69],[102.1,1.36],[102.39,0.84],[103.03,0.58],[102.55,0.22],[103.67,0.29],[103.79,0.05],[103.43,-0.19],[103.44,-0.58],[104.38,-1.07],[104.85,-2.09],[104.65,-2.6],[105.4,-2.38],[106.06,-3.16],[105.75,-5.82],[104.64,-5.52],[104.6,-5.9],[101.58,-3.17],[100.29,-0.8],[99.16,0.35],[98.6,1.86],[97.7,2.36],[96.97,3.58],[95.49,4.76],[95.22,5.52],[97.55,5.21]]],[[[121.04,-8.94],[119.81,-8.7],[120.61,-8.24],[122.32,-8.63],[122.85,-8.09],[122.78,-8.61],[121.04,-8.94]]],[[[120.78,-9.96],[120.7,-10.21],[118.96,-9.52],[120.01,-9.37],[120.78,-9.96]]],[[[118.93,-8.3],[119.13,-8.67],[116.79,-9.01],[117.16,-8.37],[117.97,-8.73],[118.23,-8.59],[117.76,-8.15],[118.93,-8.3]]],[[[124.22,0.38],[120.19,0.27],[120.06,-0.56],[120.67,-1.37],[121.58,-0.83],[123.43,-0.78],[121.36,-1.88],[122.29,-2.91],[122.25,-3.62],[122.87,-4.39],[121.59,-4.76],[121.62,-4.09],[120.89,-3.52],[121.05,-2.75],[120.65,-2.67],[120.25,-3.05],[120.43,-5.59],[119.56,-5.61],[119.62,-4.03],[119.47,-3.51],[118.92,-3.48],[118.78,-2.72],[119.51,-0.91],[119.84,-0.86],[119.72,-0.09],[120.27,0.97],[121.08,1.33],[123.93,0.85],[125.11,1.69],[124.22,0.38]]],[[[108.78,-6.81],[110.43,-6.95],[110.83,-6.42],[112.54,-6.93],[113.01,-7.66],[114.41,-7.79],[114.39,-8.41],[114.6,-8.73],[107.92,-7.72],[105.26,-6.84],[106.08,-5.91],[107.37,-6.01],[108.78,-6.81]]],[[[110.51,0.86],[111.81,1.01],[112.48,1.56],[113.62,1.24],[114.51,1.45],[115.68,4.19],[117.1,4.34],[117.78,3.69],[117.06,3.62],[118.07,2.32],[117.79,2.03],[118.98,0.98],[117.91,1.1],[117.56,-0.77],[116.74,-1.04],[116.28,-1.78],[116.57,-2.3],[116.26,-3.13],[114.69,-4.17],[114.34,-3.24],[113.71,-3.46],[113.03,-2.93],[111.86,-3.55],[111.69,-2.89],[110.26,-2.97],[109.98,-1.27],[109.79,-1.01],[109.26,-0.81],[108.94,0.36],[109.08,1.5],[109.63,2.03],[110.51,0.86]]],[[[128.69,1.57],[128.26,0.73],[128.9,0.22],[127.89,0.3],[128.43,-0.89],[127.69,-0.24],[127.43,1.14],[128.04,2.2],[127.73,0.85],[128.69,1.57]]],[[[130.57,-3.13],[130.81,-3.86],[129.84,-3.33],[128.13,-3.16],[127.9,-3.5],[128.2,-2.87],[130.57,-3.13]]],[[[127.24,-3.47],[126.94,-3.76],[126.03,-3.36],[126.86,-3.09],[127.24,-3.47]]],[[[124.96,-9.67],[123.64,-10.31],[123.71,-9.61],[124.92,-8.94],[124.96,-9.67]]],[[[134.64,-6.37],[134.15,-6.06],[134.51,-5.44],[134.64,-6.37]]],[[[134.32,-6.85],[134.09,-6.83],[134.11,-6.19],[134.54,-6.44],[134.32,-6.85]]],[[[137.65,-8.39],[138.08,-7.57],[138.77,-7.39],[138.99,-7.7],[138.54,-8.27],[137.65,-8.39]]],[[[140.98,-9.12],[140.0,-8.2],[140.12,-7.92],[138.89,-8.24],[139.09,-7.59],[138.75,-7.25],[138.86,-7.2],[139.06,-7.23],[139.18,-7.19],[138.6,-6.94],[138.86,-6.86],[138.34,-5.68],[137.28,-4.95],[133.97,-3.82],[133.84,-3.05],[133.4,-3.9],[132.91,-4.06],[132.75,-3.29],[131.97,-2.79],[133.7,-2.62],[133.92,-2.1],[132.31,-2.24],[131.93,-1.56],[131.0,-1.38],[131.3,-0.83],[132.39,-0.36],[133.97,-0.74],[134.19,-2.31],[135.25,-3.37],[137.81,-1.48],[140.97,-2.61],[140.98,-9.12]]],[[[113.13,-7.22],[112.73,-7.07],[114.07,-6.96],[113.13,-7.22]]],[[[130.25,-2.05],[129.74,-1.87],[129.99,-1.76],[130.35,-1.69],[130.25,-2.05]]],[[[95.81,2.66],[95.72,2.83],[95.9,2.89],[96.46,2.36],[95.81,2.66]]],[[[123.51,-1.45],[122.89,-1.59],[122.83,-1.28],[123.51,-1.45]]],[[[123.55,-8.57],[123.23,-8.53],[123.39,-8.28],[123.92,-8.27],[123.55,-8.57]]]]},"properties":{"iso":"IDN","name":"Indonesia","ha":[3350915.5,3350867.1,3351195.6,3352812.1,3357868.9,3361214.4,3362569.9,3367246.9,3374755.1,3381593.8,3391813.9,3392300.7,3389747.2,3373193.1,3251224.7,3253709.0,3239997.0,3229183.8,3220668.7,3128692.4,3136451.8,3145115.2,3160704.0,3174257.6,3189707.9,3174200.6,3157941.9,3132011.4,3113361.8,3087121.3,3099548.8,3107585.5,3114162.4,3114729.5,3113823.9,3124109.4,3128774.4,3111741.3,3106086.9,3116978.3,3146543.5],"lo":[3125389.0,3125343.8,3125650.2,3127157.9,3131874.3,3134994.7,3136259.0,3140621.2,3147624.1,3154002.6,3163534.8,3163988.8,3161607.2,3146167.2,3032407.6,3034724.7,3021935.6,3011850.1,3003908.2,2918122.1,2925359.3,2933439.7,2947979.3,2960620.6,2975031.1,2960567.5,2945403.1,2921217.8,2903823.3,2879348.9,2890940.0,2898435.8,2904570.0,2905099.0,2904254.3,2913847.6,2918198.6,2902311.9,2897038.1,2907196.4,2934771.9],"hi":[3672593.1,3672539.9,3672900.0,3674671.7,3680213.9,3683880.6,3685366.2,3690492.1,3698721.1,3706216.4,3717417.6,3717951.1,3715152.4,3697009.2,3563332.2,3566055.0,3551026.7,3539175.4,3529842.9,3429037.2,3437541.5,3447036.6,3464121.8,3478976.5,3495909.9,3478914.0,3461094.6,3432674.8,3412234.9,3383475.4,3397095.9,3405904.0,3413112.3,3413733.9,3412741.3,3424014.3,3429127.1,3410458.8,3404261.7,3416198.6,3448602.0]}},{"type":"Feature","geometry":{"type":"MultiPolygon","coordinates":[[[[-65.47,0.69],[-63.43,2.16],[-64.05,2.5],[-64.22,3.59],[-64.79,4.28],[-62.86,3.59],[-62.71,4.02],[-61.0,4.54],[-60.65,5.22],[-59.99,5.08],[-60.15,4.53],[-59.55,3.93],[-60.0,2.77],[-59.76,1.9],[-58.86,1.2],[-57.12,2.01],[-55.96,1.86],[-55.98,2.52],[-52.96,2.18],[-51.46,4.31],[-50.71,2.13],[-50.46,1.83],[-49.96,1.66],[-49.9,1.16],[-51.28,-0.09],[-51.98,-1.37],[-52.66,-1.55],[-51.95,-1.59],[-50.89,-0.94],[-50.69,-1.76],[-50.4,-2.02],[-49.31,-1.73],[-49.64,-2.66],[-49.21,-1.92],[-48.35,-1.48],[-48.12,-0.74],[-47.27,-0.65],[-44.65,-1.75],[-44.76,-2.27],[-44.38,-2.37],[-44.59,-2.57],[-44.72,-3.2],[-44.44,-2.94],[-44.23,-2.47],[-44.19,-2.81],[-43.38,-2.38],[-41.48,-2.92],[-39.96,-2.86],[-37.17,-4.91],[-35.55,-5.13],[-35.24,-5.57],[-34.83,-7.02],[-34.97,-8.41],[-38.24,-12.84],[-38.85,-12.79],[-39.09,-13.59],[-39.15,-17.7],[-39.65,-18.25],[-39.78,-19.57],[-40.95,-21.24],[-41.0,-22.0],[-42.04,-22.95],[-43.09,-22.72],[-44.64,-23.06],[-48.2,-25.42],[-48.73,-25.37],[-48.4,-25.6],[-48.75,-26.27],[-48.8,-28.58],[-49.75,-29.36],[-50.92,-31.26],[-52.04,-32.11],[-50.58,-30.44],[-51.3,-30.03],[-51.28,-30.75],[-53.37,-33.74],[-53.53,-33.17],[-53.13,-32.74],[-53.76,-32.06],[-55.6,-30.85],[-56.0,-31.08],[-56.83,-30.11],[-57.61,-30.19],[-55.73,-28.2],[-53.84,-27.12],[-53.67,-26.23],[-54.01,-25.58],[-54.62,-25.58],[-54.24,-24.05],[-55.42,-23.95],[-55.8,-22.35],[-57.99,-22.05],[-57.83,-21.0],[-58.16,-20.16],[-57.86,-19.98],[-58.13,-19.74],[-57.5,-18.21],[-58.4,-17.23],[-58.35,-16.28],[-60.18,-16.27],[-60.51,-13.79],[-64.99,-11.98],[-65.39,-11.25],[-65.4,-9.71],[-66.58,-9.9],[-68.62,-11.11],[-70.64,-11.01],[-70.54,-9.44],[-71.24,-9.97],[-72.18,-10.0],[-72.38,-9.51],[-73.21,-9.41],[-72.97,-8.99],[-74.0,-7.56],[-73.14,-6.47],[-72.89,-5.12],[-70.8,-4.17],[-69.97,-4.3],[-69.4,-1.19],[-70.07,-0.14],[-70.05,0.58],[-69.15,0.66],[-69.31,1.05],[-69.85,1.06],[-69.85,1.71],[-67.88,1.76],[-67.4,2.12],[-66.88,1.22],[-65.47,0.69]]],[[[-48.39,-0.3],[-48.83,-1.39],[-50.51,-1.79],[-50.65,-0.27],[-48.39,-0.3]]],[[[-49.84,0.01],[-50.34,0.04],[-50.27,0.23],[-49.74,0.27],[-49.84,0.01]]],[[[-51.55,-0.65],[-51.25,-0.54],[-51.28,-1.02],[-51.83,-1.43],[-51.55,-0.65]]]]},"properties":{"iso":"BRA","name":"Brazil","ha":[1060555.2,1060346.7,1060484.4,1061362.4,1062916.9,1065418.4,1066437.1,1068955.4,1074175.0,1071836.7,1073830.4,1074056.1,1073637.7,1072218.7,1066529.9,1071286.9,1069614.4,1067642.3,1067329.6,1066893.2,1069345.7,1071625.5,1074199.0,1076822.7,1079461.9,1078894.5,1073654.9,1067025.9,1062776.4,1056769.9,1058669.5,1058462.5,1058018.6,1062184.4,1066924.3,1069803.8,1070073.0,1067604.7,1066899.6,1068232.4,1077056.8],"lo":[989176.7,988982.2,989110.6,989929.6,991379.4,993712.6,994662.7,997011.6,1001879.8,999698.9,1001558.5,1001769.0,1001378.7,1000055.2,994749.3,999186.1,997626.2,995786.8,995495.1,995088.1,997375.6,999501.9,1001902.2,1004349.3,1006810.9,1006281.7,1001394.7,995211.9,991248.4,985646.1,987417.9,987224.8,986810.8,990696.2,995117.1,997802.9,998053.9,995751.8,995094.1,996337.2,1004567.7],"hi":[1162365.3,1162136.7,1162287.6,1163249.9,1164953.6,1167695.3,1168811.8,1171571.8,1177292.5,1174729.7,1176914.8,1177162.2,1176703.6,1175148.4,1168913.5,1174127.1,1172294.0,1170132.7,1169789.9,1169311.6,1171999.6,1174498.2,1177318.7,1180194.3,1183086.9,1182465.0,1176722.4,1169457.0,1164799.6,1158216.5,1160298.5,1160071.6,1159585.1,1164150.8,1169345.7,1172501.7,1172796.7,1170091.5,1169318.6,1170779.4,1180450.9]}},{"type":"Feature","geometry":{"type":"MultiPolygon","coordinates":[[[[143.76,-14.35],[144.47,-14.23],[145.29,-14.94],[145.43,-16.41],[145.91,-16.91],[146.03,-18.27],[146.38,-18.98],[148.76,-20.29],[149.7,-22.44],[150.08,-22.16],[150.67,-22.42],[150.84,-23.46],[151.15,-23.78],[151.83,-24.12],[153.16,-25.96],[153.12,-27.19],[153.62,-28.67],[152.94,-31.43],[151.29,-33.58],[150.2,-35.83],[149.93,-37.53],[147.88,-37.93],[146.22,-38.73],[146.4,-39.15],[145.4,-38.54],[145.54,-38.39],[145.48,-38.24],[145.29,-38.24],[144.96,-38.5],[144.72,-38.34],[145.12,-38.09],[144.89,-37.9],[143.54,-38.82],[141.42,-38.36],[139.78,-37.25],[139.73,-36.37],[138.97,-35.58],[139.28,-35.38],[138.18,-35.61],[138.51,-35.02],[138.09,-34.17],[137.69,-35.14],[136.88,-35.24],[137.39,-34.91],[137.93,-33.58],[137.78,-32.58],[137.24,-33.63],[135.65,-34.94],[135.12,-34.59],[135.45,-34.58],[135.22,-33.96],[134.3,-33.17],[134.23,-32.55],[131.14,-31.5],[125.92,-32.3],[124.24,-33.02],[123.51,-33.92],[119.85,-33.97],[117.58,-35.1],[115.01,-34.26],[114.99,-33.52],[115.36,-33.64],[115.68,-33.19],[115.7,-31.69],[114.86,-29.14],[113.18,-26.18],[113.84,-26.5],[113.45,-25.6],[114.22,-26.29],[113.41,-24.25],[114.02,-21.88],[114.14,-22.48],[116.71,-20.65],[121.0,-19.6],[122.35,-18.11],[122.33,-17.06],[122.97,-16.44],[123.56,-17.52],[123.87,-16.92],[123.61,-16.22],[124.77,-16.4],[124.4,-16.3],[124.44,-15.49],[125.06,-15.44],[124.84,-15.16],[125.36,-15.12],[125.18,-14.71],[125.63,-14.26],[125.89,-14.62],[126.05,-13.98],[126.57,-14.16],[126.9,-13.74],[127.46,-14.03],[128.2,-14.75],[128.07,-15.33],[128.58,-14.77],[129.63,-15.14],[129.85,-14.83],[129.38,-14.39],[130.62,-12.43],[131.29,-12.07],[132.71,-12.12],[132.67,-11.65],[131.82,-11.3],[131.96,-11.18],[135.03,-12.19],[135.89,-11.82],[135.7,-12.21],[136.19,-12.44],[136.54,-11.96],[136.95,-12.35],[136.46,-13.23],[135.93,-13.3],[135.45,-14.92],[136.78,-15.89],[137.7,-16.23],[138.07,-16.62],[139.01,-16.9],[139.25,-17.33],[140.51,-17.62],[141.41,-16.07],[141.47,-13.8],[141.93,-12.74],[141.69,-12.35],[142.46,-10.71],[143.18,-11.95],[143.76,-14.35]]],[[[153.04,-25.19],[153.26,-24.73],[153.35,-25.06],[153.08,-25.75],[153.04,-25.19]]],[[[136.93,-14.25],[136.36,-14.23],[136.42,-13.86],[136.93,-14.25]]],[[[130.61,-11.82],[130.04,-11.79],[130.29,-11.34],[130.61,-11.82]]],[[[131.27,-11.19],[131.54,-11.44],[130.95,-11.93],[130.38,-11.19],[131.27,-11.19]]],[[[138.12,-35.85],[136.54,-35.89],[137.33,-35.59],[138.12,-35.85]]],[[[146.85,-41.17],[148.22,-40.85],[148.34,-42.22],[148.21,-41.97],[148.02,-42.26],[147.98,-43.16],[147.3,-42.79],[146.87,-43.61],[146.04,-43.55],[146.21,-43.32],[145.49,-42.93],[145.2,-42.23],[145.52,-42.35],[144.78,-41.42],[144.72,-40.67],[146.85,-41.17]]]]},"properties":{"iso":"AUS","name":"Australia","ha":[929445.7,929725.2,932088.7,935417.0,951616.7,953616.6,955458.1,957243.8,958996.0,962109.4,965635.4,969140.3,971087.2,972607.4,977853.3,981791.5,981025.6,979435.6,979202.4,982845.8,985739.5,991037.2,998075.8,1004049.8,1010898.3,1012190.2,1009834.0,1008792.4,1009535.0,1007989.2,1011034.1,1013202.6,1012547.6,1000950.1,1000968.7,1008293.1,1022815.0,1030539.5,1038490.1,1050207.1,1069095.7],"lo":[866891.2,867152.0,869356.4,872460.6,887570.1,889435.4,891152.9,892818.4,894452.7,897356.6,900645.3,903914.3,905730.2,907148.1,912040.9,915714.1,914999.7,913516.7,913299.2,916697.4,919396.3,924337.5,930902.4,936474.3,942861.8,944066.8,941869.2,940897.7,941590.3,940148.5,942988.5,945011.0,944400.1,933583.2,933600.6,940432.0,953976.5,961181.2,968596.6,979525.0,997142.4],"hi":[1018669.6,1018976.0,1021566.4,1025214.1,1042969.0,1045160.9,1047179.1,1049136.2,1051056.7,1054468.9,1058333.4,1062174.8,1064308.6,1065974.7,1071724.2,1076040.5,1075201.0,1073458.4,1073202.8,1077196.0,1080367.4,1086173.8,1093888.0,1100435.5,1107941.4,1109357.3,1106774.9,1105633.4,1106447.2,1104753.0,1108090.2,1110466.9,1109749.0,1097038.2,1097058.6,1105086.1,1121002.1,1129468.1,1138181.9,1151023.7,1171725.5]}},{"type":"Feature","geometry":{"type":"Polygon","coordinates":[[[14.62,12.15],[14.58,11.53],[13.7,10.87],[11.4,6.53],[10.14,7.0],[9.06,6.01],[8.29,4.56],[7.08,4.72],[6.92,4.39],[6.77,4.72],[6.86,4.37],[6.17,4.28],[5.59,4.65],[5.55,5.47],[5.2,5.53],[5.46,5.61],[4.43,6.35],[2.71,6.37],[2.77,9.05],[3.78,10.44],[3.65,12.53],[4.42,13.65],[5.49,13.87],[6.94,13.01],[7.83,13.34],[9.62,12.81],[10.48,13.33],[12.46,13.09],[13.61,13.7],[14.62,12.15]]]},"properties":{"iso":"NGA","name":"Nigeria","ha":[823756.3,823502.2,824391.3,826670.0,828824.4,831728.5,832418.4,832831.1,832910.4,823232.8,823712.5,824070.3,824698.0,828616.7,832813.3,841281.2,842265.1,843233.3,844875.4,842429.5,845582.9,847924.3,853372.3,858088.4,860528.4,855051.6,852827.8,848726.0,845717.5,835909.1,835632.4,833634.8,823895.6,818097.9,811185.8,803617.0,800645.4,798277.3,792240.5,792919.9,792543.5],"lo":[768315.0,768078.1,768907.3,771032.6,773042.1,775750.7,776394.2,776779.1,776853.1,767826.8,768274.2,768607.9,769193.4,772848.3,776762.5,784660.5,785578.2,786481.2,788012.8,785731.5,788672.7,790856.5,795937.8,800336.5,802612.3,797504.1,795429.9,791604.2,788798.2,779649.9,779391.9,777528.7,768445.0,763037.5,756590.6,749531.2,746759.6,744550.9,738920.4,739554.1,739202.9],"hi":[902834.3,902555.9,903530.3,906027.7,908389.0,911571.9,912328.0,912780.3,912867.2,902260.6,902786.3,903178.5,903866.5,908161.3,912760.8,922041.6,923119.9,924181.1,925980.8,923300.1,926756.3,929322.4,935293.4,940462.2,943136.5,937133.9,934696.6,930201.1,926903.8,916153.8,915850.5,913661.1,902987.0,896632.7,889057.1,880761.8,877504.8,874909.5,868293.1,869037.8,868625.2]}},{"type":"Feature","geometry":{"type":"Polygon","coordinates":[[[-114.72,32.72],[-111.04,31.32],[-108.21,31.33],[-108.21,31.78],[-106.45,31.77],[-104.98,30.65],[-104.4,29.57],[-103.26,29.0],[-102.61,29.75],[-101.44,29.78],[-99.51,27.55],[-99.11,26.45],[-97.15,25.96],[-97.86,22.62],[-97.31,21.56],[-97.41,21.27],[-97.75,22.03],[-97.64,21.6],[-95.92,18.82],[-94.55,18.17],[-92.44,18.68],[-91.53,18.46],[-90.74,19.35],[-90.35,21.01],[-87.13,21.62],[-86.77,21.15],[-87.69,19.64],[-87.42,19.58],[-87.8,18.36],[-88.03,18.84],[-89.16,17.81],[-90.99,17.82],[-90.99,17.25],[-91.41,17.26],[-90.45,16.07],[-91.74,16.07],[-92.24,14.55],[-93.17,15.45],[-93.92,16.05],[-94.37,16.28],[-94.0,16.02],[-94.9,16.42],[-96.51,15.65],[-103.44,18.33],[-105.48,19.98],[-105.67,20.39],[-105.26,20.58],[-105.51,20.81],[-105.21,21.49],[-105.79,22.63],[-108.05,25.07],[-109.03,25.48],[-108.89,25.73],[-109.3,25.63],[-109.28,26.53],[-112.16,29.02],[-113.05,31.18],[-114.93,31.9],[-114.55,30.02],[-111.57,26.71],[-110.66,24.34],[-109.42,23.48],[-109.82,22.92],[-112.07,24.84],[-112.17,25.91],[-113.16,26.95],[-113.6,26.72],[-114.99,27.74],[-114.07,27.68],[-114.05,28.43],[-115.67,29.76],[-117.13,32.53],[-114.72,32.72]]]},"properties":{"iso":"MEX","name":"Mexico","ha":[785601.1,784808.7,784955.1,786082.1,793665.8,800366.1,803707.9,806835.7,811244.8,816761.7,818807.4,817563.7,814472.9,811548.9,807796.3,806964.3,804542.2,802897.2,803597.1,803530.8,805827.2,807444.5,810542.9,813421.9,819542.3,819248.0,811940.4,805969.9,805918.9,811554.1,820118.1,824001.3,824777.4,827538.2,828677.9,827165.2,822912.0,807832.8,801713.0,802162.0,790147.5],"lo":[732727.8,731988.7,732125.3,733176.4,740249.7,746499.1,749616.0,752533.3,756645.7,761791.2,763699.2,762539.2,759656.4,756929.3,753429.2,752653.2,750394.1,748859.8,749512.7,749450.8,751592.7,753101.1,755991.0,758676.2,764384.6,764110.2,757294.4,751725.7,751678.1,756934.1,764921.7,768543.5,769267.4,771842.5,772905.4,771494.5,767527.6,753463.3,747755.3,748174.1,736968.2],"hi":[861016.4,860147.9,860308.4,861543.5,869855.2,877198.8,880861.4,884289.4,889121.8,895168.3,897410.4,896047.3,892659.7,889455.1,885342.2,884430.3,881775.8,879972.9,880740.0,880667.3,883184.1,884956.7,888352.5,891507.9,898215.8,897893.3,889884.2,883340.5,883284.6,889460.8,898846.9,903102.8,903953.5,906979.3,908228.4,906570.5,901909.0,885382.3,878675.0,879167.0,865999.2]}},{"type":"Feature","geometry":{"type":"MultiPolygon","coordinates":[[[[100.22,6.69],[101.05,6.24],[101.11,5.64],[102.27,6.2],[103.1,5.41],[103.44,2.93],[104.25,1.39],[103.98,1.62],[103.48,1.33],[101.3,2.89],[101.35,3.01],[101.3,3.25],[100.72,3.97],[100.22,6.69]]],[[[115.86,4.35],[114.51,1.45],[113.62,1.24],[112.48,1.56],[111.81,1.01],[110.51,0.86],[109.55,1.85],[111.22,1.4],[111.24,2.44],[111.35,2.36],[111.44,2.38],[111.62,2.82],[112.99,3.16],[114.01,4.58],[114.61,4.02],[115.03,4.9],[115.11,4.39],[115.33,4.38],[115.42,5.41],[116.78,6.99],[116.79,6.61],[117.13,6.97],[117.65,6.47],[117.5,5.88],[118.0,6.05],[117.97,5.71],[119.26,5.37],[118.26,4.99],[118.55,4.38],[117.7,4.34],[115.86,4.35]]]]},"properties":{"iso":"MYS","name":"Malaysia","ha":[598718.3,598716.7,598750.2,598823.7,598805.1,598921.9,599101.8,600048.8,601915.7,602976.6,603663.8,603785.9,603552.2,600905.4,588526.7,587723.8,585209.4,583088.9,581569.6,576755.6,577141.8,578256.4,580162.6,581752.5,582254.0,579552.3,576728.7,571780.9,567933.2,561714.4,562692.2,563043.9,563252.3,564607.7,564772.4,563389.9,562333.7,558955.6,558403.2,559142.8,559734.5],"lo":[558422.8,558421.3,558452.5,558521.1,558503.7,558612.7,558780.5,559663.7,561405.0,562394.4,563035.5,563149.3,562931.3,560462.7,548917.1,548168.3,545823.0,543845.3,542428.3,537938.2,538298.5,539338.0,541116.0,542598.8,543066.6,540546.7,537913.1,533298.3,529709.7,523909.3,524821.3,525149.3,525343.8,526607.9,526761.6,525472.1,524486.9,521336.2,520821.0,521510.8,522062.7],"hi":[656193.4,656191.6,656228.4,656308.9,656288.5,656416.6,656613.7,657651.6,659697.8,660860.4,661613.7,661747.5,661491.3,658590.4,645023.5,644143.5,641387.6,639063.6,637398.5,632122.3,632545.6,633767.2,635856.4,637598.9,638148.6,635187.5,632092.8,626670.1,622453.1,615637.2,616708.9,617094.3,617322.8,618808.3,618988.8,617473.6,616315.9,612613.6,612008.2,612818.8,613467.3]}},{"type":"Feature","geometry":{"type":"Polygon","coordinates":[[[98.05,19.77],[97.75,18.59],[97.37,18.52],[98.89,16.35],[98.2,14.98],[99.14,13.72],[99.61,11.78],[98.56,10.03],[98.88,11.72],[97.81,14.86],[97.73,16.57],[97.38,16.52],[96.85,17.4],[96.77,16.71],[96.19,16.77],[96.32,16.44],[95.39,15.72],[95.35,16.1],[94.66,15.9],[94.7,16.51],[94.22,16.02],[94.59,17.57],[94.04,19.29],[93.93,18.9],[93.49,19.37],[93.82,19.24],[94.0,19.44],[93.71,19.91],[93.25,20.07],[93.13,19.86],[92.18,21.29],[92.6,21.27],[92.57,21.98],[93.15,22.23],[93.33,24.06],[94.13,23.88],[95.13,26.6],[96.19,27.26],[97.1,27.12],[96.88,27.59],[97.54,28.51],[98.65,27.57],[98.74,26.79],[98.66,25.86],[97.58,24.77],[97.56,23.91],[98.84,24.12],[98.86,23.19],[99.51,22.96],[99.17,22.15],[99.92,22.03],[100.21,21.46],[101.13,21.74],[100.12,20.32],[98.05,19.77]]]},"properties":{"iso":"MMR","name":"Myanmar","ha":[704116.1,704115.0,705235.5,707160.7,709891.7,710990.3,710890.8,711605.5,711667.1,704616.3,704858.2,704526.7,699974.1,693838.9,673277.3,670553.9,662026.3,653923.0,647233.4,631518.8,629661.8,627775.8,625231.9,624723.8,620948.7,613895.0,599569.4,579654.1,565333.6,555719.9,560044.7,562205.5,564142.1,566447.0,565075.2,564653.7,567104.8,564128.8,558779.9,562620.9,558360.8],"lo":[656727.0,656725.9,657771.1,659566.7,662113.9,663138.6,663045.7,663712.3,663769.8,657193.5,657419.1,657109.9,652863.8,647141.5,627963.8,625423.6,617470.0,609912.1,603672.7,589015.7,587283.7,585524.6,583151.9,582678.0,579157.0,572578.0,559216.6,540641.7,527285.0,518318.3,522352.0,524367.4,526173.6,528323.4,527044.0,526650.8,528937.0,526161.3,521172.3,524754.8,520781.5],"hi":[771709.1,771707.8,772935.9,775046.0,778039.1,779243.2,779134.1,779917.4,779985.0,772257.3,772522.4,772159.0,767169.5,760445.3,737909.9,734925.0,725578.8,716697.6,709365.8,692142.7,690107.4,688040.3,685252.2,684695.3,680557.9,672827.0,657126.2,635299.1,619603.9,609067.3,613807.2,616175.5,618298.0,620824.1,619320.7,618858.7,621545.1,618283.4,612421.0,616630.8,611961.7]}},{"type":"Feature","geometry":{"type":"MultiPolygon","coordinates":[[[[152.28,-3.58],[150.75,-2.74],[150.83,-2.57],[152.03,-3.25],[153.02,-4.11],[152.97,-4.76],[152.28,-3.58]]],[[[152.41,-4.34],[152.08,-5.46],[150.43,-6.28],[148.34,-5.67],[149.83,-5.52],[150.09,-5.01],[150.18,-5.52],[150.9,-5.45],[151.67,-4.88],[151.59,-4.2],[152.41,-4.34]]],[[[141.1,-2.61],[144.48,-3.83],[145.77,-4.82],[145.75,-5.4],[147.52,-6.02],[147.85,-6.66],[146.95,-6.83],[147.19,-7.38],[148.13,-8.1],[148.58,-9.05],[149.2,-9.03],[149.26,-9.5],[150.01,-9.69],[149.87,-10.01],[150.85,-10.24],[150.32,-10.65],[147.77,-10.07],[146.08,-8.11],[143.65,-7.46],[143.94,-7.94],[143.61,-8.2],[142.52,-8.32],[142.35,-8.17],[142.21,-8.2],[142.47,-8.37],[143.11,-8.47],[143.37,-8.96],[142.65,-9.33],[140.98,-9.12],[141.1,-2.61]]],[[[155.34,-6.72],[154.73,-5.44],[155.09,-5.62],[155.96,-6.69],[155.34,-6.72]]]]},"properties":{"iso":"PNG","name":"Papua New Guinea","ha":[483993.5,483984.4,483988.6,484472.1,486743.7,487306.4,487249.2,487185.4,487499.9,487778.3,488390.9,487643.1,486742.7,485763.5,479034.4,480352.9,479215.9,478071.4,477699.7,479167.0,480893.1,482774.7,485239.0,487309.3,489646.5,488514.4,485705.8,482407.8,480457.8,479447.9,480821.9,481639.7,483196.3,484712.3,485497.1,486239.7,486990.2,485149.8,484386.8,485487.4,487766.3],"lo":[451419.3,451410.8,451414.7,451865.7,453984.4,454509.2,454455.9,454396.3,454689.7,454949.4,455520.8,454823.3,453983.5,453070.2,446793.9,448023.7,446963.3,445895.8,445549.1,446917.7,448527.6,450282.6,452581.0,454512.0,456691.9,455635.9,453016.4,449940.3,448121.6,447179.6,448461.2,449223.9,450675.8,452089.7,452821.7,453514.3,454214.3,452497.8,451786.1,452812.6,454938.2],"hi":[530455.4,530445.4,530450.0,530980.0,533469.6,534086.3,534023.6,533953.6,534298.3,534603.5,535275.0,534455.3,533468.5,532395.3,525020.2,526465.3,525219.2,523964.8,523557.4,525165.6,527057.4,529119.6,531820.5,534089.5,536651.1,535410.3,532332.1,528717.5,526580.3,525473.4,526979.3,527875.6,529581.7,531243.2,532103.3,532917.2,533739.7,531722.7,530886.4,532092.7,534590.3]}},{"type":"Feature","geometry":{"type":"MultiPolygon","coordinates":[[[[68.76,24.31],[71.04,24.4],[70.65,25.67],[70.1,25.91],[70.15,26.51],[69.48,26.77],[69.54,27.12],[70.4,28.03],[70.8,27.71],[71.87,27.96],[74.63,31.03],[74.56,31.82],[75.32,32.22],[74.0,33.19],[74.25,33.99],[73.9,34.08],[73.96,34.65],[75.71,34.5],[77.8,35.5],[78.98,34.26],[78.73,34.01],[79.22,32.5],[78.39,32.54],[78.74,31.32],[80.99,30.24],[80.07,28.83],[82.73,27.52],[84.09,27.49],[85.24,26.75],[88.0,26.38],[88.14,27.95],[88.8,28.01],[88.74,27.18],[89.15,26.82],[92.0,26.85],[91.63,27.76],[92.55,27.88],[94.62,29.31],[95.39,29.04],[96.04,29.45],[96.58,28.76],[96.28,28.41],[97.32,28.22],[96.88,27.59],[97.1,27.12],[96.19,27.26],[95.13,26.6],[94.13,23.88],[93.33,24.06],[92.91,21.99],[92.57,21.98],[92.25,23.68],[91.62,22.98],[91.17,23.58],[92.47,24.94],[89.83,25.29],[89.67,26.21],[89.47,25.98],[88.37,26.56],[88.08,25.89],[88.95,25.26],[88.02,24.63],[88.72,24.27],[89.05,21.65],[88.71,21.62],[88.64,22.12],[88.58,21.66],[88.12,21.64],[88.2,22.14],[87.94,22.37],[87.95,21.83],[86.86,21.24],[86.75,20.31],[85.25,19.76],[84.1,18.29],[82.36,17.1],[82.26,16.56],[80.29,15.71],[79.84,10.32],[79.31,10.26],[78.94,9.57],[79.41,9.19],[78.42,9.11],[77.52,8.08],[76.55,8.9],[73.34,16.46],[72.67,19.83],[72.89,20.67],[72.61,21.46],[73.11,21.75],[72.54,21.7],[72.81,22.23],[72.18,22.27],[72.02,21.16],[70.49,20.84],[68.97,22.29],[70.18,22.57],[70.49,23.09],[69.24,22.85],[68.42,23.57],[68.78,23.85],[68.23,23.6],[68.76,24.31]]],[[[92.79,12.23],[92.74,12.78],[93.06,13.55],[92.7,11.51],[92.79,12.23]]]]},"properties":{"iso":"IND","name":"India","ha":[349106.8,349099.5,349245.7,349510.6,349557.8,349923.3,349801.7,349983.1,350663.2,354558.9,357489.7,359111.9,360406.7,361739.3,360938.2,363233.1,363964.2,364210.3,365109.8,368721.7,372385.0,375136.9,377827.1,381175.2,385798.6,386247.8,386688.9,387831.6,390422.7,404395.8,410534.4,413289.9,416095.0,419486.5,426607.0,439477.7,446468.9,453036.4,458177.3,463086.0,467068.2],"lo":[325610.9,325604.1,325740.4,325987.5,326031.6,326372.4,326259.0,326428.2,327062.5,330696.0,333429.6,334942.6,336150.2,337393.2,336646.0,338786.4,339468.3,339697.8,340536.8,343905.6,347322.4,349889.1,352398.2,355521.0,359833.2,360252.2,360663.6,361729.4,364146.1,377178.8,382904.2,385474.2,388090.6,391253.8,397895.1,409899.5,416420.3,422545.7,427340.6,431918.9,435633.1],"hi":[382620.0,382612.0,382772.2,383062.5,383114.3,383514.9,383381.6,383580.4,384325.8,388595.5,391807.7,393585.5,395004.6,396465.2,395587.1,398102.3,398903.7,399173.3,400159.2,404117.8,408132.9,411148.9,414097.4,417766.9,422834.1,423326.4,423809.8,425062.2,427902.1,443216.6,449944.4,452964.4,456038.8,459755.9,467559.9,481666.2,489328.6,496526.5,502160.9,507540.8,511905.3]}},{"type":"Feature","geometry":{"type":"Polygon","coordinates":[[[88.72,24.27],[88.02,24.63],[88.95,25.26],[88.08,25.89],[88.42,26.57],[89.47,25.98],[89.67,26.21],[89.83,25.29],[92.49,24.9],[91.16,23.66],[91.62,22.98],[92.25,23.68],[92.63,21.35],[92.21,21.36],[92.32,20.79],[91.86,22.35],[91.48,22.88],[90.95,22.6],[90.6,23.59],[90.27,23.46],[90.62,22.36],[90.23,21.83],[89.99,22.47],[89.57,21.77],[89.48,22.28],[89.35,21.72],[88.72,24.27]]]},"properties":{"iso":"BGD","name":"Bangladesh","ha":[424001.9,424001.8,424000.8,423956.9,423944.5,423870.6,423716.8,423690.3,424332.9,426691.5,427807.1,428548.7,428474.8,428598.8,428319.7,428198.8,428206.1,428114.5,428215.2,428100.2,428217.5,427593.1,427054.0,427214.6,427420.4,427455.9,427174.8,427071.1,427307.8,427715.0,428861.9,429465.3,430229.7,431055.8,431669.9,431670.8,432055.4,431419.6,431079.3,431294.7,428101.4],"lo":[395465.3,395465.2,395464.3,395423.4,395411.8,395342.9,395199.4,395174.7,395774.0,397973.9,399014.4,399706.1,399637.2,399752.8,399492.5,399379.7,399386.5,399301.1,399395.0,399287.8,399397.2,398814.8,398312.0,398461.8,398653.7,398686.8,398424.6,398327.9,398548.7,398928.5,399998.2,400561.0,401273.9,402044.5,402617.3,402618.0,402976.8,402383.8,402066.4,402267.3,399288.9],"hi":[464704.8,464704.7,464703.5,464655.5,464641.8,464560.9,464392.3,464363.3,465067.5,467652.6,468875.3,469688.1,469607.1,469742.9,469437.1,469304.5,469312.5,469212.2,469322.5,469196.5,469325.0,468640.7,468049.9,468225.9,468451.4,468490.3,468182.2,468068.6,468328.0,468774.4,470031.3,470692.7,471530.4,472435.9,473108.9,473109.8,473531.4,472834.6,472461.6,472697.7,469197.8]}},{"type":"Feature","geometry":{"type":"MultiPolygon","coordinates":[[[[-79.82,22.89],[-79.28,22.41],[-74.15,20.17],[-77.72,19.86],[-77.23,20.64],[-78.12,20.76],[-78.73,21.59],[-81.85,22.21],[-81.9,22.68],[-84.89,21.86],[-84.04,22.67],[-81.84,23.16],[-79.82,22.89]]],[[[-82.96,21.44],[-83.18,21.62],[-82.99,21.94],[-82.56,21.57],[-82.96,21.44]]]]},"properties":{"iso":"CUB","name":"Cuba","ha":[410077.4,409883.4,409961.6,410790.5,414343.4,415934.3,416424.4,417181.2,419353.4,418534.7,419956.4,420045.9,419402.2,418364.1,416393.0,415815.8,414794.6,414718.4,414589.1,411491.2,412037.7,408514.3,406673.5,406633.3,408866.1,408055.1,404195.9,400702.4,398781.8,396765.4,400094.2,399974.1,392436.2,388270.5,386807.1,387747.6,388794.1,387502.3,386811.4,387531.6,382866.1],"lo":[382478.0,382297.0,382369.9,383143.1,386456.8,387940.7,388397.8,389103.7,391129.7,390366.1,391692.1,391775.6,391175.2,390207.0,388368.5,387830.2,386877.7,386806.6,386686.0,383796.6,384306.3,381020.1,379303.2,379265.6,381348.2,380591.7,376992.3,373733.9,371942.6,370061.9,373166.7,373054.6,366024.1,362138.8,360773.8,361651.0,362627.1,361422.2,360777.8,361449.5,357098.1],"hi":[449443.6,449230.9,449316.6,450225.1,454119.0,455862.7,456399.9,457229.3,459610.0,458712.7,460270.9,460369.0,459663.5,458525.8,456365.4,455732.8,454613.6,454530.0,454388.3,450993.1,451592.0,447730.4,445712.9,445668.8,448116.0,447227.1,442997.5,439168.5,437063.6,434853.7,438502.0,438370.4,430108.9,425543.3,423939.3,424970.1,426117.2,424701.3,423944.1,424733.4,419620.0]}},{"type":"Feature","geometry":{"type":"Polygon","coordinates":[[[32.43,-21.3],[32.99,-19.98],[32.7,-18.94],[32.95,-16.71],[30.44,-16.0],[30.23,-14.99],[33.2,-14.01],[33.64,-14.57],[34.38,-14.42],[34.25,-15.89],[35.27,-17.12],[35.89,-14.89],[34.56,-13.36],[34.36,-12.16],[34.62,-11.62],[37.54,-11.68],[40.46,-10.46],[40.84,-14.72],[40.56,-15.47],[39.84,-16.44],[37.51,-17.57],[36.4,-18.77],[34.65,-19.7],[35.54,-22.3],[35.49,-24.07],[34.99,-24.65],[32.79,-25.64],[32.89,-26.85],[32.11,-26.84],[31.99,-24.46],[31.29,-22.4],[32.43,-21.3]]]},"properties":{"iso":"MOZ","name":"Mozambique","ha":[308961.6,309134.1,309338.5,310228.8,314728.4,315736.4,316008.3,316234.8,316665.1,317556.5,318147.2,317385.1,316820.0,316317.0,315014.1,315532.9,314736.8,313919.4,313738.5,313233.5,313743.1,314032.2,314627.0,315189.3,315645.4,315229.0,312581.4,309609.9,308222.4,306245.0,306157.5,305722.1,304897.2,302603.4,301474.7,299921.7,299359.8,297232.1,297822.1,300553.9,304262.5],"lo":[288167.6,288328.5,288519.1,289349.4,293546.2,294486.4,294740.0,294951.3,295352.6,296184.0,296735.0,296024.2,295497.1,295027.9,293812.7,294296.6,293554.0,292791.7,292623.0,292151.9,292627.2,292896.9,293451.7,293976.1,294401.6,294013.2,291543.7,288772.3,287478.1,285633.8,285552.2,285146.1,284376.8,282237.3,281184.5,279736.1,279212.0,277227.5,277777.8,280325.8,283784.8],"hi":[338621.0,338810.0,339034.0,340009.8,344941.3,346046.1,346344.1,346592.4,347064.0,348040.9,348688.4,347853.1,347233.7,346682.4,345254.5,345823.1,344950.5,344054.7,343856.4,343302.9,343861.4,344178.3,344830.3,345446.5,345946.4,345490.1,342588.2,339331.5,337810.8,335643.6,335547.7,335070.4,334166.4,331652.4,330415.3,328713.2,328097.5,325765.4,326412.1,329406.2,333470.8]}},{"type":"Feature","geometry":{"type":"MultiPolygon","coordinates":[[[[122.27,18.46],[122.15,17.66],[122.52,17.12],[121.39,15.32],[121.77,14.17],[122.21,13.93],[122.63,14.32],[123.1,13.75],[123.32,14.06],[123.82,13.84],[123.55,13.65],[124.14,13.04],[124.06,12.57],[122.6,13.91],[122.6,13.19],[121.78,13.94],[120.64,13.8],[120.94,14.65],[120.58,14.88],[120.44,14.45],[120.08,14.85],[119.77,16.26],[120.37,16.11],[120.6,18.51],[122.27,18.46]]],[[[119.29,10.57],[119.5,11.35],[119.69,10.5],[117.31,8.44],[119.29,10.57]]],[[[123.16,11.54],[123.08,11.2],[121.95,10.44],[121.89,11.79],[123.16,11.54]]],[[[122.4,9.82],[123.26,10.99],[123.57,10.78],[123.13,9.06],[122.4,9.82]]],[[[125.03,11.21],[125.03,10.03],[124.33,11.54],[125.03,11.21]]],[[[125.54,12.19],[125.74,11.05],[125.03,11.34],[124.29,12.57],[125.54,12.19]]],[[[121.54,13.09],[121.24,12.22],[120.34,13.41],[121.54,13.09]]],[[[126.58,7.25],[126.19,6.31],[125.82,7.33],[125.69,7.26],[125.46,5.66],[125.23,6.07],[124.21,6.23],[124.21,7.4],[123.67,7.82],[123.39,7.41],[122.62,7.76],[121.96,6.97],[122.24,7.95],[123.43,8.7],[123.8,8.05],[124.87,8.97],[125.5,9.01],[125.47,9.76],[126.01,9.32],[126.58,7.25]]],[[[123.39,9.97],[124.04,11.27],[124.0,10.4],[123.37,9.45],[123.39,9.97]]],[[[124.12,9.6],[123.82,9.82],[124.34,10.16],[124.59,9.79],[124.12,9.6]]],[[[124.05,11.75],[123.47,12.22],[123.16,11.93],[123.24,12.58],[124.05,11.75]]]]},"properties":{"iso":"PHL","name":"Philippines","ha":[256434.7,256420.5,256370.5,256291.0,253607.6,253806.8,253564.8,253456.5,253972.5,257287.8,260419.4,263081.0,264870.9,265794.6,266636.8,268932.3,268312.7,267132.0,266688.9,268488.6,271055.4,273703.0,277425.3,281288.7,286382.3,288777.3,288271.4,285872.3,284452.4,284630.1,286627.4,287823.4,290257.9,289937.3,290375.8,291729.1,294187.7,296441.5,297589.6,298256.9,303777.9],"lo":[239175.9,239162.6,239116.0,239041.9,236539.1,236724.9,236499.1,236398.2,236879.4,239971.6,242892.4,245374.9,247044.3,247905.9,248691.4,250832.3,250254.4,249153.3,248739.9,250418.5,252812.6,255282.0,258753.8,262357.2,267107.9,269341.8,268869.9,266632.3,265307.9,265473.6,267336.6,268452.0,270722.7,270423.7,270832.7,272094.9,274388.0,276490.2,277560.9,278183.4,283332.7],"hi":[281051.7,281036.0,280981.3,280894.2,277953.2,278171.5,277906.2,277787.6,278353.1,281986.7,285418.9,288335.9,290297.7,291310.1,292233.1,294748.9,294069.9,292775.9,292290.2,294262.6,297075.9,299977.6,304057.3,308291.6,313874.1,316499.1,315944.6,313315.2,311758.9,311953.7,314142.8,315453.5,318121.7,317770.4,318251.0,319734.2,322428.8,324899.0,326157.2,326888.7,332939.6]}},{"type":"Feature","geometry":{"type":"Polygon","coordinates":[[[-72.69,10.84],[-73.37,9.19],[-72.8,9.11],[-72.47,7.52],[-72.01,7.03],[-70.1,6.94],[-69.43,6.12],[-67.48,6.18],[-67.86,4.51],[-67.31,3.42],[-67.86,2.79],[-67.21,2.39],[-66.88,1.36],[-67.08,1.19],[-67.4,2.12],[-67.88,1.76],[-69.85,1.71],[-69.85,1.06],[-69.31,1.05],[-69.15,0.66],[-70.05,0.58],[-70.07,-0.14],[-69.4,-1.19],[-69.97,-4.24],[-70.74,-3.78],[-70.1,-2.66],[-70.97,-2.21],[-72.94,-2.39],[-74.8,-0.2],[-76.31,0.45],[-77.4,0.39],[-79.03,1.62],[-78.58,1.77],[-78.59,2.36],[-78.07,2.51],[-77.81,2.72],[-77.08,3.91],[-77.52,4.21],[-77.37,6.58],[-77.9,7.23],[-77.2,7.97],[-77.45,8.57],[-76.79,7.93],[-76.89,8.62],[-75.64,9.45],[-75.71,10.14],[-74.84,11.11],[-74.4,10.77],[-74.14,11.32],[-73.31,11.3],[-71.71,12.42],[-71.26,12.34],[-71.32,11.86],[-72.69,10.84]]]},"properties":{"iso":"COL","name":"Colombia","ha":[282356.5,282354.7,282419.5,282745.7,283434.7,284321.2,284373.8,285135.6,287100.6,290896.4,291994.5,289711.1,288315.5,287698.8,281120.2,280954.8,280228.2,279892.5,279682.8,272352.9,273941.0,275074.1,277218.5,279808.2,282487.4,281709.6,280676.2,279123.1,277610.9,274158.9,274156.2,274570.3,275942.1,278582.7,280408.1,282175.1,285274.6,287056.4,289145.3,291365.1,292790.5],"lo":[263353.0,263351.4,263411.8,263716.1,264358.7,265185.6,265234.6,265945.1,267777.9,271318.3,272342.4,270212.7,268911.0,268335.8,262199.9,262045.7,261368.0,261055.0,260859.3,254022.7,255504.0,256560.8,258560.9,260976.2,263475.1,262749.7,261785.9,260337.3,258926.8,255707.2,255704.7,256090.9,257370.4,259833.2,261535.8,263183.9,266074.8,267736.7,269685.0,271755.4,273084.8],"hi":[309461.8,309459.9,309530.9,309888.4,310643.6,311615.2,311672.8,312507.7,314661.4,318821.6,320025.1,317522.5,315992.9,315317.0,308106.8,307925.6,307129.3,306761.4,306531.5,298497.9,300238.5,301480.3,303830.6,306668.9,309605.3,308752.9,307620.3,305918.0,304260.7,300477.3,300474.4,300928.2,302431.7,305325.7,307326.4,309263.1,312660.1,314612.9,316902.4,319335.2,320897.5]}},{"type":"Feature","geometry":{"type":"Polygon","coordinates":[[[-15.2,12.68],[-13.67,12.48],[-13.95,12.22],[-13.73,11.74],[-14.68,11.51],[-15.04,10.94],[-15.48,11.41],[-15.07,11.6],[-15.5,11.72],[-15.08,11.97],[-15.82,11.76],[-16.24,12.24],[-16.71,12.35],[-15.2,12.68]]]},"properties":{"iso":"GNB","name":"Guinea-Bissau","ha":[261441.5,261744.8,263577.0,265885.3,271842.2,273122.9,273256.8,273167.6,272632.3,271872.4,272596.3,271449.8,272032.7,273485.0,278991.3,280394.7,281162.8,281496.1,282093.6,283943.1,285518.2,286666.6,287443.7,288502.9,290525.3,291070.3,289852.6,289098.4,289172.6,291034.7,292202.1,292389.8,291857.8,291097.7,290241.0,290433.1,290279.6,290027.5,290315.4,289372.9,288472.9],"lo":[243845.7,244128.6,245837.5,247990.5,253546.4,254740.9,254865.8,254782.6,254283.3,253574.6,254249.8,253180.4,253724.1,255078.6,260214.4,261523.3,262239.7,262550.6,263107.8,264832.9,266301.9,267373.1,268097.9,269085.8,270972.1,271480.4,270344.7,269641.2,269710.4,271447.2,272536.0,272711.1,272214.9,271506.0,270706.9,270886.1,270742.9,270507.8,270776.3,269897.2,269057.8],"hi":[286539.1,286871.5,288879.5,291409.5,297938.2,299341.8,299488.6,299390.8,298804.2,297971.3,298764.7,297508.1,298147.0,299738.7,305773.6,307311.7,308153.6,308518.9,309173.7,311200.8,312927.0,314185.7,315037.4,316198.3,318414.9,319012.1,317677.6,316850.9,316932.3,318973.2,320252.6,320458.3,319875.2,319042.2,318103.2,318313.8,318145.5,317869.3,318184.7,317151.8,316165.4]}},{"type":"Feature","geometry":{"type":"Polygon","coordinates":[[[-59.85,8.25],[-60.72,7.54],[-60.35,7.0],[-61.15,6.69],[-61.39,5.94],[-60.63,4.89],[-62.71,4.02],[-62.86,3.59],[-64.79,4.28],[-64.22,3.59],[-64.05,2.5],[-63.39,2.22],[-65.56,0.69],[-66.88,1.22],[-67.21,2.39],[-67.86,2.79],[-67.31,3.42],[-67.86,4.51],[-67.48,6.18],[-69.43,6.12],[-70.1,6.94],[-72.01,7.03],[-72.47,7.52],[-72.8,9.11],[-73.37,9.19],[-72.69,10.84],[-71.96,11.67],[-71.32,11.86],[-71.96,11.57],[-71.59,10.66],[-72.11,9.82],[-71.69,9.07],[-71.24,9.16],[-71.05,9.71],[-71.47,10.96],[-69.8,11.47],[-70.29,11.89],[-70.0,12.18],[-69.63,11.48],[-68.4,11.16],[-68.14,10.49],[-66.25,10.63],[-65.13,10.07],[-63.73,10.5],[-64.3,10.64],[-61.88,10.74],[-62.91,10.53],[-62.32,9.78],[-61.59,9.89],[-60.79,9.36],[-61.62,8.6],[-60.02,8.55],[-59.85,8.25]]]},"properties":{"iso":"VEN","name":"Venezuela","ha":[271221.5,271123.9,271205.2,271401.1,271266.5,271966.6,272109.9,272685.7,273342.4,274928.7,277321.1,277291.3,277037.9,276784.6,275595.3,276576.9,276257.2,276027.3,276049.5,276507.1,278251.6,279154.9,280269.7,281289.6,282194.4,281934.3,279810.3,276924.8,274922.2,271842.2,272195.6,272476.2,272403.0,272129.5,272135.3,273243.4,275410.0,276091.8,277189.8,278699.8,279077.2],"lo":[252967.5,252876.4,252952.3,253135.0,253009.4,253662.4,253796.1,254333.2,254945.6,256425.1,258656.5,258628.7,258392.5,258156.1,257047.0,257962.4,257664.3,257449.9,257470.6,257897.4,259524.5,260366.9,261406.8,262358.0,263201.9,262959.2,260978.2,258286.9,256419.1,253546.4,253876.0,254137.7,254069.5,253814.4,253819.8,254853.3,256874.1,257510.0,258534.1,259942.5,260294.5],"hi":[297258.0,297150.9,297240.0,297454.7,297307.2,298074.6,298231.6,298862.7,299582.4,301321.0,303943.0,303910.4,303632.7,303355.0,302051.6,303127.4,302777.0,302525.1,302549.4,303050.9,304962.9,305952.9,307174.8,308292.5,309284.2,308999.1,306671.2,303508.7,301313.8,297938.2,298325.5,298633.0,298552.8,298253.1,298259.5,299474.0,301848.5,302595.7,303799.2,305454.1,305867.7]}},{"type":"Feature","geometry":{"type":"Polygon","coordinates":[[[50.48,-15.39],[50.21,-15.96],[49.66,-15.52],[49.77,-16.82],[47.18,-24.79],[45.21,-25.57],[44.04,-25.0],[43.26,-22.38],[44.4,-19.92],[43.98,-17.39],[44.44,-16.24],[46.4,-15.92],[47.35,-14.77],[47.48,-15.01],[47.96,-14.67],[47.9,-13.73],[48.8,-13.27],[48.8,-12.44],[49.21,-12.08],[50.48,-15.39]]]},"properties":{"iso":"MDG","name":"Madagascar","ha":[272718.6,272725.9,272945.1,273417.3,274969.4,275440.2,275647.0,275952.4,276523.6,279099.0,280236.8,280992.2,280951.4,280328.1,278924.4,279254.6,278055.0,276994.1,276754.1,276891.9,277199.0,277970.1,279150.7,280281.9,281732.3,280753.7,276763.1,272903.4,270539.8,268408.8,268852.2,268540.9,266061.4,262445.7,258865.9,255710.6,254564.1,254102.0,255586.8,258227.4,261480.3],"lo":[254363.9,254370.7,254575.0,255015.5,256463.1,256902.3,257095.1,257380.0,257912.7,260314.8,261376.0,262080.6,262042.5,261461.2,260152.0,260459.9,259341.1,258351.6,258127.8,258256.3,258542.7,259261.9,260363.0,261418.1,262770.9,261858.2,258136.2,254536.2,252331.7,250344.1,250757.7,250467.3,248154.6,244782.3,241443.5,238500.5,237431.2,237000.1,238385.1,240848.0,243881.9],"hi":[298898.8,298906.8,299146.9,299664.5,301365.6,301881.6,302108.2,302443.0,303069.0,305891.6,307138.6,307966.6,307921.9,307238.7,305700.3,306062.1,304747.5,303584.7,303321.7,303472.7,303809.3,304654.3,305948.3,307188.1,308777.7,307705.2,303331.5,299101.2,296510.8,294175.2,294661.2,294320.0,291602.4,287639.7,283716.2,280258.0,279001.5,278495.0,280122.4,283016.5,286581.6]}},{"type":"Feature","geometry":{"type":"Polygon","coordinates":[[[100.52,20.18],[100.51,19.55],[101.21,19.55],[100.91,17.58],[102.1,18.21],[102.68,17.82],[103.29,18.41],[103.95,18.32],[104.82,17.3],[104.82,16.47],[105.64,15.66],[105.48,14.53],[105.07,14.23],[103.55,14.42],[102.32,13.54],[102.91,11.7],[101.84,12.64],[100.9,12.65],[100.91,13.46],[100.02,13.35],[99.16,9.73],[99.25,9.27],[99.84,9.29],[100.42,7.19],[101.5,6.87],[102.1,6.24],[101.15,5.64],[101.05,6.24],[100.22,6.69],[100.12,6.44],[99.6,7.36],[98.24,8.42],[98.76,10.66],[99.61,11.78],[99.14,13.72],[98.2,14.98],[98.89,16.35],[97.37,18.52],[97.75,18.59],[98.05,19.77],[100.52,20.18]]]},"properties":{"iso":"THA","name":"Thailand","ha":[248245.1,248151.3,247892.5,247532.1,241694.2,241990.0,242229.8,242960.0,244283.7,245063.7,245908.2,246178.3,246316.3,244653.3,243522.1,244474.6,244048.2,243472.4,243413.9,244134.0,245604.7,247457.2,249397.6,251552.6,253970.4,254707.8,254046.2,252761.2,251828.0,252441.3,253729.6,254489.4,255866.2,257415.5,257763.6,258339.5,259082.7,258813.4,259027.4,259647.9,260828.4],"lo":[231537.5,231450.0,231208.6,230872.4,225427.5,225703.4,225927.1,226608.1,227842.7,228570.2,229357.8,229609.8,229738.5,228187.4,227132.3,228020.8,227623.0,227086.0,227031.4,227703.0,229074.7,230802.6,232612.4,234622.4,236877.5,237565.2,236948.1,235749.6,234879.2,235451.2,236652.9,237361.5,238645.6,240090.7,240415.4,240952.5,241645.7,241394.5,241594.1,242172.8,243273.9],"hi":[272075.8,271973.1,271689.5,271294.4,264896.1,265220.3,265483.2,266283.4,267734.2,268589.1,269514.6,269810.7,269961.9,268139.3,266899.4,267943.4,267476.1,266845.0,266780.9,267570.1,269182.0,271212.3,273339.0,275700.9,278350.8,279159.0,278433.9,277025.5,276002.7,276674.9,278086.9,278919.5,280428.5,282126.6,282508.1,283139.3,283953.9,283658.7,283893.3,284573.3,285867.1]}},{"type":"Feature","geometry":{"type":"MultiPolygon","coordinates":[[[[-170.43,63.7],[-168.72,63.31],[-169.68,62.96],[-171.79,63.42],[-170.43,63.7]]],[[[-165.59,59.91],[-167.44,60.21],[-166.84,60.22],[-166.14,60.38],[-165.59,59.91]]],[[[-152.22,57.58],[-152.94,57.5],[-152.68,57.35],[-153.27,57.23],[-153.73,57.05],[-153.97,56.77],[-153.8,57.0],[-154.34,56.92],[-154.71,57.34],[-154.12,57.65],[-153.69,57.31],[-153.81,57.88],[-153.49,57.73],[-153.22,57.8],[-153.16,57.97],[-152.22,57.58]]],[[[-130.04,55.3],[-130.58,54.77],[-131.05,55.16],[-130.75,55.3],[-131.03,56.09],[-131.78,55.88],[-132.12,55.57],[-131.55,56.21],[-132.82,57.06],[-133.47,57.17],[-133.65,57.64],[-133.12,57.57],[-133.54,57.83],[-133.19,57.88],[-134.03,58.07],[-133.88,58.52],[-134.21,58.23],[-134.78,58.45],[-135.36,59.42],[-135.09,58.25],[-135.9,58.4],[-136.15,59.05],[-136.19,58.77],[-136.99,59.03],[-136.06,58.45],[-136.61,58.24],[-139.8,59.55],[-139.51,59.95],[-139.29,59.61],[-138.99,59.84],[-139.43,60.01],[-140.42,59.71],[-141.41,60.12],[-144.15,60.02],[-144.9,60.34],[-144.69,60.67],[-145.25,60.38],[-146.57,60.73],[-146.38,61.14],[-148.34,61.06],[-148.56,60.8],[-148.28,60.61],[-148.64,60.49],[-147.96,60.48],[-148.47,59.97],[-149.4,60.11],[-150.96,59.24],[-151.95,59.27],[-151.05,59.77],[-151.85,59.78],[-151.36,60.72],[-149.08,60.88],[-150.05,61.17],[-149.43,61.5],[-153.03,60.3],[-152.63,60.04],[-154.18,59.16],[-153.44,58.75],[-158.41,56.44],[-158.5,56.06],[-161.18,55.39],[-161.52,55.62],[-163.34,54.84],[-161.7,55.91],[-160.29,55.81],[-160.3,56.31],[-157.46,57.51],[-157.61,58.05],[-157.19,58.19],[-157.52,58.42],[-156.81,59.13],[-158.19,58.61],[-158.48,58.94],[-158.08,58.98],[-158.81,58.97],[-158.95,58.4],[-160.36,59.05],[-162.14,58.64],[-161.64,59.11],[-161.98,59.15],[-161.83,59.59],[-162.42,60.28],[-161.96,60.7],[-162.68,60.27],[-162.57,59.99],[-163.91,59.81],[-165.35,60.54],[-164.81,60.89],[-163.73,60.59],[-163.42,60.76],[-163.91,60.85],[-163.59,60.9],[-165.11,60.93],[-164.87,61.11],[-165.57,61.1],[-166.17,61.65],[-164.78,62.48],[-164.41,63.22],[-163.29,63.05],[-160.93,63.66],[-160.99,64.25],[-161.49,64.43],[-160.89,64.8],[-162.81,64.37],[-163.2,64.65],[-166.14,64.58],[-166.93,65.16],[-166.16,65.29],[-168.09,65.66],[-164.46,66.59],[-163.73,66.62],[-163.64,66.57],[-164.03,66.22],[-163.7,66.08],[-161.03,66.19],[-161.83,66.37],[-162.61,66.89],[-162.36,66.95],[-161.59,66.46],[-160.23,66.42],[-161.86,66.7],[-161.72,67.02],[-163.53,67.1],[-164.13,67.61],[-166.79,68.36],[-166.21,68.89],[-163.54,69.17],[-161.88,70.33],[-162.07,70.16],[-160.05,70.59],[-159.87,70.28],[-159.39,70.52],[-160.08,70.63],[-159.68,70.79],[-157.91,70.86],[-156.47,71.41],[-155.58,71.12],[-155.97,70.84],[-155.17,71.1],[-152.3,70.85],[-152.47,70.65],[-151.94,70.45],[-143.22,70.12],[-141.0,69.65],[-141.0,60.3],[-139.08,60.34],[-139.19,60.08],[-137.44,58.9],[-135.48,59.79],[-133.4,58.41],[-131.82,56.59],[-130.03,55.89],[-130.04,55.3]]],[[[-163.34,54.78],[-163.08,54.67],[-164.9,54.54],[-163.34,54.78]]],[[[-132.37,55.94],[-132.7,56.2],[-132.38,56.5],[-132.11,56.11],[-132.37,55.94]]],[[[-131.19,55.21],[-131.45,55.41],[-131.81,55.22],[-131.27,55.96],[-131.19,55.21]]],[[[-132.95,56.88],[-133.0,56.62],[-133.33,56.83],[-133.21,56.46],[-133.98,57.01],[-132.95,56.88]]],[[[-147.18,60.36],[-146.96,60.29],[-147.5,59.89],[-147.74,59.81],[-147.18,60.36]]],[[[-134.63,56.76],[-134.68,56.22],[-135.45,57.25],[-135.81,57.01],[-135.49,57.52],[-134.63,56.76]]],[[[-134.24,58.14],[-133.82,57.63],[-134.31,58.03],[-133.91,57.35],[-134.52,57.04],[-134.92,58.35],[-134.24,58.14]]],[[[-134.95,58.02],[-135.34,57.77],[-134.93,57.48],[-135.56,57.67],[-135.91,57.45],[-136.57,57.97],[-134.95,58.02]]],[[[-132.17,55.48],[-132.53,55.59],[-132.63,55.47],[-131.98,55.21],[-132.02,54.73],[-133.68,55.79],[-133.24,55.92],[-133.74,55.96],[-133.57,56.34],[-132.17,55.48]]],[[[-133.74,56.65],[-134.19,56.08],[-134.37,56.84],[-133.74,56.65]]],[[[-151.98,58.24],[-153.38,58.09],[-152.84,58.42],[-151.98,58.24]]],[[[-168.51,53.04],[-169.09,52.83],[-168.29,53.5],[-167.96,53.35],[-168.51,53.04]]],[[[-166.23,53.93],[-166.77,53.48],[-167.81,53.32],[-166.23,53.93]]],[[[-175.3,52.02],[-174.02,52.33],[-174.12,52.14],[-175.3,52.02]]],[[[-156.05,19.75],[-155.83,20.28],[-154.8,19.52],[-155.58,19.01],[-156.05,19.75]]],[[[-70.87,45.27],[-69.24,47.46],[-67.81,47.08],[-67.8,45.73],[-66.99,44.83],[-68.45,44.51],[-68.53,44.26],[-68.76,44.57],[-69.14,44.04],[-70.18,43.77],[-71.05,42.33],[-70.43,41.76],[-70.0,41.83],[-70.11,42.08],[-69.98,41.96],[-69.95,41.68],[-71.17,41.49],[-71.15,41.75],[-71.39,41.8],[-71.52,41.38],[-72.92,41.29],[-73.99,40.75],[-73.87,41.06],[-73.97,41.25],[-74.26,40.53],[-74.24,40.46],[-73.97,40.4],[-74.08,39.79],[-74.79,39.0],[-75.52,39.49],[-75.07,39.98],[-75.59,39.64],[-75.04,38.43],[-75.93,37.15],[-75.66,37.95],[-76.34,38.71],[-75.87,39.51],[-76.57,39.27],[-76.34,38.09],[-77.0,38.45],[-77.23,38.41],[-77.02,38.78],[-77.03,38.89],[-77.26,38.6],[-77.27,38.35],[-76.26,37.89],[-76.49,37.68],[-76.94,38.1],[-77.11,38.17],[-76.55,37.67],[-76.31,37.57],[-76.45,37.27],[-76.76,37.48],[-76.28,37.05],[-76.4,36.99],[-76.63,37.22],[-77.25,37.33],[-76.49,36.9],[-76.0,36.91],[-75.53,35.82],[-75.95,36.66],[-75.82,36.11],[-76.73,36.23],[-75.74,35.77],[-76.17,35.35],[-77.04,35.53],[-76.51,35.27],[-76.97,35.03],[-76.44,34.84],[-77.41,34.73],[-77.93,33.94],[-80.8,32.45],[-81.46,31.13],[-81.52,30.8],[-81.25,29.79],[-80.05,26.81],[-80.48,25.23],[-81.11,25.14],[-81.72,25.98],[-81.83,26.69],[-82.71,27.5],[-82.41,27.86],[-82.84,27.85],[-82.65,28.89],[-83.69,29.93],[-85.32,29.68],[-85.6,30.29],[-87.2,30.34],[-87.0,30.57],[-87.28,30.34],[-88.01,30.23],[-88.01,30.69],[-88.14,30.37],[-90.33,30.28],[-89.4,30.05],[-89.72,29.62],[-89.02,29.2],[-89.38,28.98],[-90.16,29.54],[-90.21,29.1],[-91.0,29.19],[-91.89,29.84],[-92.26,29.56],[-93.84,29.98],[-94.76,29.38],[-94.53,29.55],[-95.02,29.7],[-95.27,28.96],[-96.23,28.49],[-96.01,28.63],[-96.64,28.71],[-96.42,28.46],[-97.16,28.14],[-97.44,27.33],[-97.77,27.46],[-97.49,27.24],[-97.44,26.49],[-97.14,26.03],[-97.38,25.87],[-99.11,26.45],[-99.51,27.55],[-101.44,29.78],[-102.61,29.75],[-103.26,29.0],[-104.4,29.57],[-104.98,30.65],[-106.45,31.77],[-108.21,31.78],[-108.21,31.33],[-111.04,31.32],[-114.72,32.72],[-117.13,32.53],[-117.47,33.3],[-118.51,34.02],[-120.64,34.58],[-120.63,35.08],[-122.5,37.54],[-122.45,37.8],[-122.07,37.48],[-122.31,38.01],[-121.53,38.06],[-123.0,37.99],[-124.36,40.37],[-124.07,41.46],[-124.54,42.81],[-123.99,46.22],[-123.22,46.15],[-124.07,46.28],[-123.84,46.96],[-124.14,46.95],[-124.71,48.38],[-122.78,48.14],[-123.14,47.36],[-122.53,47.92],[-122.68,47.61],[-122.58,47.29],[-122.83,47.34],[-123.03,47.14],[-122.7,47.11],[-122.35,47.37],[-122.24,48.01],[-122.79,48.99],[-95.16,48.99],[-94.94,49.35],[-94.62,48.74],[-91.52,48.06],[-88.38,48.3],[-84.13,46.53],[-83.98,46.08],[-82.55,45.35],[-82.14,43.57],[-83.15,42.14],[-82.69,41.68],[-79.04,42.8],[-79.17,43.47],[-78.85,43.58],[-76.82,43.63],[-74.71,45.0],[-70.87,45.27]]],[[[-71.9,41.06],[-74.03,40.64],[-72.27,41.15],[-72.51,40.99],[-71.9,41.06]]]]},"properties":{"iso":"USA","name":"United States of America","ha":[234710.6,234517.5,234490.2,234818.4,235541.3,235848.2,235932.7,236383.8,237822.1,240007.4,241019.6,240945.5,240425.1,239634.8,239769.1,239881.8,239950.3,240174.6,240394.3,241409.7,241525.2,241003.2,241890.5,242542.1,243970.2,244148.7,243124.5,242648.3,243080.9,244713.0,247496.8,248992.0,247239.9,238680.9,242769.7,248182.9,252607.0,253571.9,253934.8,254622.3,252545.3],"lo":[218913.9,218733.7,218708.3,219014.4,219688.7,219975.0,220053.7,220474.5,221815.9,223854.2,224798.2,224729.2,224243.8,223506.7,223631.9,223737.0,223800.9,224010.1,224215.1,225162.1,225269.9,224782.9,225610.6,226218.3,227550.3,227716.7,226761.5,226317.4,226720.8,228243.1,230839.5,232234.1,230599.9,222617.0,226430.5,231479.5,235605.8,236505.7,236844.2,237485.5,235548.3],"hi":[257242.1,257030.4,257000.5,257360.2,258152.5,258488.9,258581.5,259075.9,260652.2,263047.4,264156.7,264075.5,263505.2,262639.0,262786.2,262909.7,262984.7,263230.6,263471.4,264584.3,264710.9,264138.7,265111.3,265825.4,267390.6,267586.2,266463.7,265941.8,266415.9,268204.7,271255.7,272894.5,270974.2,261593.5,266074.8,272007.7,276856.5,277914.0,278311.7,279065.3,276788.9]}},{"type":"Feature","geometry":{"type":"Polygon","coordinates":[[[-10.71,8.34],[-10.68,9.29],[-11.21,9.98],[-12.43,9.9],[-13.29,9.05],[-13.69,9.93],[-15.05,10.83],[-14.68,11.51],[-13.73,11.74],[-13.73,12.67],[-11.46,12.42],[-10.71,11.9],[-9.04,12.4],[-8.4,11.37],[-8.67,11.01],[-7.97,10.23],[-8.14,9.5],[-7.68,8.41],[-8.24,8.46],[-8.23,7.56],[-8.66,7.69],[-9.12,7.22],[-9.46,7.42],[-9.52,8.35],[-10.71,8.34]]]},"properties":{"iso":"GIN","name":"Guinea","ha":[234596.8,234760.2,235723.8,236449.4,238871.6,239231.8,239199.9,238983.9,238742.6,232303.2,232668.4,232500.4,232520.7,232819.6,233725.7,234412.0,234208.7,233948.7,234120.7,234296.1,234881.7,234596.7,234732.9,234928.3,234519.3,232781.6,230766.3,228532.7,226394.1,222153.1,222095.6,222089.6,221104.9,220552.9,220829.6,221603.9,221929.6,220958.1,220723.4,220653.0,218557.0],"lo":[218807.7,218960.1,219858.9,220535.7,222794.9,223130.8,223101.0,222899.6,222674.6,216668.5,217009.2,216852.4,216871.3,217150.2,217995.3,218635.4,218445.8,218203.3,218363.7,218527.3,219073.5,218807.7,218934.7,219116.9,218735.5,217114.7,215235.1,213151.7,211157.1,207201.6,207147.9,207142.3,206223.9,205709.0,205967.1,206689.3,206993.1,206087.0,205868.0,205802.4,203847.5],"hi":[257117.3,257296.4,258352.6,259147.9,261802.6,262197.3,262162.3,261925.7,261661.2,254603.6,255003.9,254819.7,254841.9,255169.6,256162.7,256914.8,256692.0,256407.1,256595.6,256787.8,257429.6,257117.3,257266.5,257480.7,257032.5,255128.0,252919.2,250471.1,248127.2,243479.2,243416.1,243409.5,242330.3,241725.3,242028.6,242877.2,243234.2,242169.4,241912.1,241835.0,239537.8]}}]}