{"type":"FeatureCollection","generated_at":"2026-09-12T21:25:47Z","source":{"id":"h5n1","name":"Nextstrain avian-flu H5N1 (genome-focused, open NCBI data)","url":"https://nextstrain.org/avian-flu","charon":"https://nextstrain.org/charon/getAvailable","licence":"No licence is asserted over the build itself (nextstrain.org: source code AGPL-3.0/MIT, \"Screenshots may be used under a CC-BY-4.0 license\"); the underlying sequences and metadata are USDA/NVSL submissions to NCBI GenBank and the SRA, US Government work in the public domain","declined":{"requests":["avian-flu/h5n1/ha/2y","avian-flu/h5n1/ha/all-time"],"reason":"built from GISAID data; the EpiFlu Database Access Agreement bars redistributing Data or derivatives through a separate portal"},"note":"Counts are sequenced samples, not infections: they follow surveillance and sequencing effort (dairy-herd testing, poultry outbreak response, wild-bird surveillance) as much as where the virus is. Aggregated counts only \u2014 no sequences, accessions or per-sample metadata."},"data_end":"2026-07-12","weeks":26,"categories":["poultry","wild bird","cattle","human","other"],"clade_field":["genoflu"],"clades":["B3.13","D1.1"],"datasets":[{"request":"avian-flu/h5n1-cattle-outbreak/ha","url":"https://data.nextstrain.org/avian-flu_h5n1-cattle-outbreak_ha.json","title":"Ongoing influenza A/H5N1 cattle outbreak in North America (HA segment)","updated":"2026-09-07","build_url":"https://github.com/nextstrain/avian-flu","provenance":["USDA","Andersen Lab","GenBank"],"tips":5601,"imprecise_date":838},{"request":"avian-flu/h5n1-d1.1/genome","url":"https://data.nextstrain.org/avian-flu_h5n1-d1.1_genome.json","title":"Full genome analysis of the ongoing influenza A/H5N1 D1.1 outbreak in North America","updated":"2026-09-07","build_url":"https://github.com/nextstrain/avian-flu","provenance":["USDA","Andersen Lab","GenBank"],"tips":6845,"imprecise_date":1607}],"counts":{"samples":10001,"outside_window":8997,"in_window":1004,"locations":46,"data_end":"2026-07-12"},"features":[{"type":"Feature","geometry":{"type":"Point","coordinates":[-86.9023,32.3182]},"properties":{"loc":"Alabama","level":"division","country":"USA","region":"North America","n":2,"hosts":{"wild bird":2},"raw_hosts":{"Avian":2},"clades":{"D1.1":2},"weeks":[{"w":"2026-03-15","n":{"wild bird":1},"c":{"D1.1":1}},{"w":"2026-01-25","n":{"wild bird":1},"c":{"D1.1":1}}]}},{"type":"Feature","geometry":{"type":"Point","coordinates":[-152.21419,65.7977]},"properties":{"loc":"Alaska","level":"division","country":"USA","region":"North America","n":1,"hosts":{"cattle":1},"raw_hosts":{"Cattle":1},"clades":{"B3.13":1},"weeks":[{"w":"2026-06-28","n":{"cattle":1},"c":{"B3.13":1}}]}},{"type":"Feature","geometry":{"type":"Point","coordinates":[-119.69018,36.35704]},"properties":{"loc":"California","level":"division","country":"USA","region":"North America","n":22,"hosts":{"wild bird":22},"raw_hosts":{"Avian":22},"clades":{"D1.1":22},"weeks":[{"w":"2026-05-03","n":{"wild bird":1},"c":{"D1.1":1}},{"w":"2026-04-19","n":{"wild bird":1},"c":{"D1.1":1}},{"w":"2026-04-12","n":{"wild bird":2},"c":{"D1.1":2}},{"w":"2026-04-05","n":{"wild bird":1},"c":{"D1.1":1}},{"w":"2026-03-22","n":{"wild bird":6},"c":{"D1.1":6}},{"w":"2026-03-01","n":{"wild bird":1},"c":{"D1.1":1}},{"w":"2026-02-22","n":{"wild bird":3},"c":{"D1.1":3}},{"w":"2026-02-08","n":{"wild bird":1},"c":{"D1.1":1}},{"w":"2026-02-01","n":{"wild bird":1},"c":{"D1.1":1}},{"w":"2026-01-25","n":{"wild bird":3},"c":{"D1.1":3}},{"w":"2026-01-18","n":{"wild bird":2},"c":{"D1.1":2}}]}},{"type":"Feature","geometry":{"type":"Point","coordinates":[-105.7821,39.5501]},"properties":{"loc":"Colorado","level":"division","country":"USA","region":"North America","n":16,"hosts":{"poultry":2,"wild bird":10,"other":4},"raw_hosts":{"Avian":12,"Nonhuman Mammal":4},"clades":{"D1.1":16},"weeks":[{"w":"2026-04-26","n":{"wild bird":1},"c":{"D1.1":1}},{"w":"2026-03-15","n":{"other":3},"c":{"D1.1":3}},{"w":"2026-03-01","n":{"poultry":2,"wild bird":1},"c":{"D1.1":3}},{"w":"2026-02-22","n":{"other":1},"c":{"D1.1":1}},{"w":"2026-02-15","n":{"wild bird":2},"c":{"D1.1":2}},{"w":"2026-02-08","n":{"wild bird":5},"c":{"D1.1":5}},{"w":"2026-02-01","n":{"wild bird":1},"c":{"D1.1":1}}]}},{"type":"Feature","geometry":{"type":"Point","coordinates":[-72.66977,41.67812]},"properties":{"loc":"Connecticut","level":"division","country":"USA","region":"North America","n":8,"hosts":{"wild bird":7,"other":1},"raw_hosts":{"Avian":7,"Nonhuman Mammal":1},"clades":{"D1.1":8},"weeks":[{"w":"2026-04-19","n":{"wild bird":1},"c":{"D1.1":1}},{"w":"2026-04-12","n":{"wild bird":1},"c":{"D1.1":1}},{"w":"2026-02-22","n":{"wild bird":3},"c":{"D1.1":3}},{"w":"2026-02-08","n":{"other":1,"wild bird":1},"c":{"D1.1":2}},{"w":"2026-01-18","n":{"wild bird":1},"c":{"D1.1":1}}]}},{"type":"Feature","geometry":{"type":"Point","coordinates":[-75.40133,38.69205]},"properties":{"loc":"Delaware","level":"division","country":"USA","region":"North America","n":2,"hosts":{"poultry":2},"raw_hosts":{"Avian":2},"clades":{"D1.1":2},"weeks":[{"w":"2026-03-01","n":{"poultry":2},"c":{"D1.1":2}}]}},{"type":"Feature","geometry":{"type":"Point","coordinates":[-81.5158,27.6648]},"properties":{"loc":"Florida","level":"division","country":"USA","region":"North America","n":16,"hosts":{"poultry":7,"wild bird":9},"raw_hosts":{"Avian":16},"clades":{"D1.1":16},"weeks":[{"w":"2026-05-10","n":{"poultry":1,"wild bird":1},"c":{"D1.1":2}},{"w":"2026-02-15","n":{"poultry":1,"wild bird":1},"c":{"D1.1":2}},{"w":"2026-02-08","n":{"poultry":3},"c":{"D1.1":3}},{"w":"2026-02-01","n":{"wild bird":1},"c":{"D1.1":1}},{"w":"2026-01-25","n":{"wild bird":6,"poultry":2},"c":{"D1.1":8}}]}},{"type":"Feature","geometry":{"type":"Point","coordinates":[-82.9001,32.1656]},"properties":{"loc":"Georgia","level":"division","country":"USA","region":"North America","n":11,"hosts":{"poultry":9,"wild bird":2},"raw_hosts":{"Avian":11},"clades":{"D1.1":11},"weeks":[{"w":"2026-02-15","n":{"wild bird":2},"c":{"D1.1":2}},{"w":"2026-01-25","n":{"poultry":5},"c":{"D1.1":5}},{"w":"2026-01-18","n":{"poultry":4},"c":{"D1.1":4}}]}},{"type":"Feature","geometry":{"type":"Point","coordinates":[-114.35121,43.81042]},"properties":{"loc":"Idaho","level":"division","country":"USA","region":"North America","n":152,"hosts":{"poultry":7,"wild bird":2,"cattle":143},"raw_hosts":{"Cattle":143,"Avian":9},"clades":{"B3.13":150,"D1.1":2},"weeks":[{"w":"2026-07-12","n":{"cattle":22},"c":{"B3.13":22}},{"w":"2026-06-21","n":{"cattle":7,"poultry":5},"c":{"B3.13":12}},{"w":"2026-06-14","n":{"cattle":1},"c":{"B3.13":1}},{"w":"2026-06-07","n":{"cattle":14,"poultry":2},"c":{"B3.13":16}},{"w":"2026-05-31","n":{"cattle":2},"c":{"B3.13":2}},{"w":"2026-05-10","n":{"cattle":89},"c":{"B3.13":89}},{"w":"2026-04-26","n":{"cattle":2},"c":{"B3.13":2}},{"w":"2026-04-12","n":{"cattle":3},"c":{"B3.13":3}},{"w":"2026-03-08","n":{"cattle":1},"c":{"B3.13":1}},{"w":"2026-02-15","n":{"cattle":2},"c":{"B3.13":2}},{"w":"2026-02-08","n":{"wild bird":2},"c":{"D1.1":2}}]}},{"type":"Feature","geometry":{"type":"Point","coordinates":[-89.30188,40.08855]},"properties":{"loc":"Illinois","level":"division","country":"USA","region":"North America","n":7,"hosts":{"poultry":5,"wild bird":2},"raw_hosts":{"Avian":7},"clades":{"D1.1":7},"weeks":[{"w":"2026-03-01","n":{"wild bird":1},"c":{"D1.1":1}},{"w":"2026-02-15","n":{"wild bird":1},"c":{"D1.1":1}},{"w":"2026-01-18","n":{"poultry":5},"c":{"D1.1":5}}]}},{"type":"Feature","geometry":{"type":"Point","coordinates":[-86.1349,40.2672]},"properties":{"loc":"Indiana","level":"division","country":"USA","region":"North America","n":252,"hosts":{"poultry":34,"wild bird":218},"raw_hosts":{"Avian":252},"clades":{"D1.1":252},"weeks":[{"w":"2026-06-21","n":{"poultry":3,"wild bird":2},"c":{"D1.1":5}},{"w":"2026-06-07","n":{"poultry":2},"c":{"D1.1":2}},{"w":"2026-05-31","n":{"wild bird":15,"poultry":4},"c":{"D1.1":19}},{"w":"2026-05-24","n":{"wild bird":5},"c":{"D1.1":5}},{"w":"2026-05-17","n":{"wild bird":12},"c":{"D1.1":12}},{"w":"2026-05-10","n":{"wild bird":18},"c":{"D1.1":18}},{"w":"2026-04-05","n":{"poultry":4,"wild bird":9},"c":{"D1.1":13}},{"w":"2026-03-29","n":{"wild bird":15},"c":{"D1.1":15}},{"w":"2026-03-22","n":{"wild bird":55,"poultry":1},"c":{"D1.1":56}},{"w":"2026-03-15","n":{"wild bird":13,"poultry":1},"c":{"D1.1":14}},{"w":"2026-03-08","n":{"wild bird":40,"poultry":7},"c":{"D1.1":47}},{"w":"2026-03-01","n":{"wild bird":7,"poultry":5},"c":{"D1.1":12}},{"w":"2026-02-22","n":{"wild bird":7},"c":{"D1.1":7}},{"w":"2026-02-15","n":{"wild bird":15},"c":{"D1.1":15}},{"w":"2026-02-01","n":{"wild bird":1},"c":{"D1.1":1}},{"w":"2026-01-25","n":{"poultry":7,"wild bird":4},"c":{"D1.1":11}}]}},{"type":"Feature","geometry":{"type":"Point","coordinates":[-93.0977,41.878]},"properties":{"loc":"Iowa","level":"division","country":"USA","region":"North America","n":28,"hosts":{"poultry":11,"wild bird":17},"raw_hosts":{"Avian":28},"clades":{"D1.1":28},"weeks":[{"w":"2026-04-19","n":{"wild bird":1},"c":{"D1.1":1}},{"w":"2026-03-15","n":{"wild bird":1},"c":{"D1.1":1}},{"w":"2026-03-08","n":{"wild bird":4,"poultry":3},"c":{"D1.1":7}},{"w":"2026-03-01","n":{"poultry":3},"c":{"D1.1":3}},{"w":"2026-02-22","n":{"wild bird":1},"c":{"D1.1":1}},{"w":"2026-02-15","n":{"wild bird":1},"c":{"D1.1":1}},{"w":"2026-02-08","n":{"wild bird":5},"c":{"D1.1":5}},{"w":"2026-02-01","n":{"poultry":2},"c":{"D1.1":2}},{"w":"2026-01-25","n":{"poultry":3},"c":{"D1.1":3}},{"w":"2026-01-18","n":{"wild bird":4},"c":{"D1.1":4}}]}},{"type":"Feature","geometry":{"type":"Point","coordinates":[-98.4842,39.0119]},"properties":{"loc":"Kansas","level":"division","country":"USA","region":"North America","n":8,"hosts":{"poultry":3,"wild bird":5},"raw_hosts":{"Avian":8},"clades":{"D1.1":8},"weeks":[{"w":"2026-03-08","n":{"poultry":1},"c":{"D1.1":1}},{"w":"2026-02-22","n":{"poultry":2},"c":{"D1.1":2}},{"w":"2026-02-15","n":{"wild bird":2},"c":{"D1.1":2}},{"w":"2026-02-08","n":{"wild bird":1},"c":{"D1.1":1}},{"w":"2026-01-25","n":{"wild bird":2},"c":{"D1.1":2}}]}},{"type":"Feature","geometry":{"type":"Point","coordinates":[-85.45019,37.64954]},"properties":{"loc":"Kentucky","level":"division","country":"USA","region":"North America","n":3,"hosts":{"wild bird":3},"raw_hosts":{"Avian":3},"clades":{"D1.1":3},"weeks":[{"w":"2026-02-22","n":{"wild bird":1},"c":{"D1.1":1}},{"w":"2026-02-15","n":{"wild bird":2},"c":{"D1.1":2}}]}},{"type":"Feature","geometry":{"type":"Point","coordinates":[-91.9623,30.9843]},"properties":{"loc":"Louisiana","level":"division","country":"USA","region":"North America","n":3,"hosts":{"wild bird":3},"raw_hosts":{"Avian":3},"clades":{"D1.1":3},"weeks":[{"w":"2026-03-08","n":{"wild bird":1},"c":{"D1.1":1}},{"w":"2026-01-25","n":{"wild bird":1},"c":{"D1.1":1}},{"w":"2026-01-18","n":{"wild bird":1},"c":{"D1.1":1}}]}},{"type":"Feature","geometry":{"type":"Point","coordinates":[-68.85902,45.7091]},"properties":{"loc":"Maine","level":"division","country":"USA","region":"North America","n":8,"hosts":{"poultry":2,"wild bird":6},"raw_hosts":{"Avian":8},"clades":{"D1.1":8},"weeks":[{"w":"2026-03-08","n":{"wild bird":1},"c":{"D1.1":1}},{"w":"2026-02-22","n":{"wild bird":2},"c":{"D1.1":2}},{"w":"2026-02-15","n":{"wild bird":1},"c":{"D1.1":1}},{"w":"2026-02-08","n":{"poultry":2},"c":{"D1.1":2}},{"w":"2026-01-25","n":{"wild bird":2},"c":{"D1.1":2}}]}},{"type":"Feature","geometry":{"type":"Point","coordinates":[-76.6413,39.0458]},"properties":{"loc":"Maryland","level":"division","country":"USA","region":"North America","n":19,"hosts":{"poultry":10,"wild bird":9},"raw_hosts":{"Avian":19},"clades":{"D1.1":19},"weeks":[{"w":"2026-03-29","n":{"wild bird":2},"c":{"D1.1":2}},{"w":"2026-03-22","n":{"wild bird":1},"c":{"D1.1":1}},{"w":"2026-03-15","n":{"poultry":2},"c":{"D1.1":2}},{"w":"2026-03-01","n":{"poultry":4,"wild bird":3},"c":{"D1.1":7}},{"w":"2026-02-15","n":{"poultry":2},"c":{"D1.1":2}},{"w":"2026-02-08","n":{"wild bird":2},"c":{"D1.1":2}},{"w":"2026-02-01","n":{"poultry":2},"c":{"D1.1":2}},{"w":"2026-01-25","n":{"wild bird":1},"c":{"D1.1":1}}]}},{"type":"Feature","geometry":{"type":"Point","coordinates":[-71.99851,42.34074]},"properties":{"loc":"Massachusetts","level":"division","country":"USA","region":"North America","n":33,"hosts":{"wild bird":33},"raw_hosts":{"Avian":33},"clades":{"D1.1":33},"weeks":[{"w":"2026-03-22","n":{"wild bird":1},"c":{"D1.1":1}},{"w":"2026-03-15","n":{"wild bird":4},"c":{"D1.1":4}},{"w":"2026-03-08","n":{"wild bird":1},"c":{"D1.1":1}},{"w":"2026-03-01","n":{"wild bird":1},"c":{"D1.1":1}},{"w":"2026-02-22","n":{"wild bird":7},"c":{"D1.1":7}},{"w":"2026-02-15","n":{"wild bird":9},"c":{"D1.1":9}},{"w":"2026-02-08","n":{"wild bird":3},"c":{"D1.1":3}},{"w":"2026-02-01","n":{"wild bird":2},"c":{"D1.1":2}},{"w":"2026-01-25","n":{"wild bird":4},"c":{"D1.1":4}},{"w":"2026-01-18","n":{"wild bird":1},"c":{"D1.1":1}}]}},{"type":"Feature","geometry":{"type":"Point","coordinates":[-84.76227,45.0212]},"properties":{"loc":"Michigan","level":"division","country":"USA","region":"North America","n":7,"hosts":{"poultry":1,"wild bird":6},"raw_hosts":{"Avian":7},"clades":{"D1.1":7},"weeks":[{"w":"2026-03-15","n":{"wild bird":2},"c":{"D1.1":2}},{"w":"2026-02-08","n":{"wild bird":3},"c":{"D1.1":3}},{"w":"2026-01-25","n":{"poultry":1},"c":{"D1.1":1}},{"w":"2026-01-18","n":{"wild bird":1},"c":{"D1.1":1}}]}},{"type":"Feature","geometry":{"type":"Point","coordinates":[-94.61958,46.12604]},"properties":{"loc":"Minnesota","level":"division","country":"USA","region":"North America","n":35,"hosts":{"poultry":15,"wild bird":17,"other":3},"raw_hosts":{"Avian":32,"Nonhuman Mammal":3},"clades":{"D1.1":35},"weeks":[{"w":"2026-06-07","n":{"wild bird":1},"c":{"D1.1":1}},{"w":"2026-05-31","n":{"wild bird":2},"c":{"D1.1":2}},{"w":"2026-05-24","n":{"wild bird":1},"c":{"D1.1":1}},{"w":"2026-05-10","n":{"wild bird":2},"c":{"D1.1":2}},{"w":"2026-05-03","n":{"wild bird":2},"c":{"D1.1":2}},{"w":"2026-04-19","n":{"wild bird":1},"c":{"D1.1":1}},{"w":"2026-04-05","n":{"other":1},"c":{"D1.1":1}},{"w":"2026-03-29","n":{"wild bird":1},"c":{"D1.1":1}},{"w":"2026-03-08","n":{"other":1,"wild bird":1},"c":{"D1.1":2}},{"w":"2026-02-22","n":{"other":1},"c":{"D1.1":1}},{"w":"2026-02-08","n":{"wild bird":1},"c":{"D1.1":1}},{"w":"2026-01-25","n":{"wild bird":5},"c":{"D1.1":5}},{"w":"2026-01-18","n":{"poultry":15},"c":{"D1.1":15}}]}},{"type":"Feature","geometry":{"type":"Point","coordinates":[-89.73485,32.97156]},"properties":{"loc":"Mississippi","level":"division","country":"USA","region":"North America","n":9,"hosts":{"poultry":2,"wild bird":7},"raw_hosts":{"Avian":8,"Sialia":1},"clades":{"D1.1":9},"weeks":[{"w":"2026-02-08","n":{"wild bird":7,"poultry":2},"c":{"D1.1":9}}]}},{"type":"Feature","geometry":{"type":"Point","coordinates":[-91.8318,37.9643]},"properties":{"loc":"Missouri","level":"division","country":"USA","region":"North America","n":12,"hosts":{"wild bird":12},"raw_hosts":{"Avian":12},"clades":{"D1.1":12},"weeks":[{"w":"2026-02-15","n":{"wild bird":5},"c":{"D1.1":5}},{"w":"2026-02-08","n":{"wild bird":1},"c":{"D1.1":1}},{"w":"2026-01-18","n":{"wild bird":6},"c":{"D1.1":6}}]}},{"type":"Feature","geometry":{"type":"Point","coordinates":[-110.87253,46.9747]},"properties":{"loc":"Montana","level":"division","country":"USA","region":"North America","n":4,"hosts":{"poultry":4},"raw_hosts":{"Avian":4},"clades":{"D1.1":4},"weeks":[{"w":"2026-02-01","n":{"poultry":2},"c":{"D1.1":2}},{"w":"2026-01-25","n":{"poultry":2},"c":{"D1.1":2}}]}},{"type":"Feature","geometry":{"type":"Point","coordinates":[-99.9018,41.4925]},"properties":{"loc":"Nebraska","level":"division","country":"USA","region":"North America","n":6,"hosts":{"poultry":4,"wild bird":2},"raw_hosts":{"Avian":6},"clades":{"D1.1":6},"weeks":[{"w":"2026-02-15","n":{"wild bird":1},"c":{"D1.1":1}},{"w":"2026-01-25","n":{"poultry":4},"c":{"D1.1":4}},{"w":"2026-01-18","n":{"wild bird":1},"c":{"D1.1":1}}]}},{"type":"Feature","geometry":{"type":"Point","coordinates":[-116.4194,38.8026]},"properties":{"loc":"Nevada","level":"division","country":"USA","region":"North America","n":3,"hosts":{"wild bird":3},"raw_hosts":{"Avian":3},"clades":{"D1.1":3},"weeks":[{"w":"2026-03-08","n":{"wild bird":2},"c":{"D1.1":2}},{"w":"2026-01-18","n":{"wild bird":1},"c":{"D1.1":1}}]}},{"type":"Feature","geometry":{"type":"Point","coordinates":[-71.5724,43.1939]},"properties":{"loc":"New Hampshire","level":"division","country":"USA","region":"North America","n":9,"hosts":{"wild bird":9},"raw_hosts":{"Avian":9},"clades":{"D1.1":9},"weeks":[{"w":"2026-03-15","n":{"wild bird":2},"c":{"D1.1":2}},{"w":"2026-02-08","n":{"wild bird":3},"c":{"D1.1":3}},{"w":"2026-02-01","n":{"wild bird":4},"c":{"D1.1":4}}]}},{"type":"Feature","geometry":{"type":"Point","coordinates":[-74.4057,40.0583]},"properties":{"loc":"New Jersey","level":"division","country":"USA","region":"North America","n":27,"hosts":{"poultry":4,"wild bird":22,"other":1},"raw_hosts":{"Avian":26,"Nonhuman Mammal":1},"clades":{"D1.1":27},"weeks":[{"w":"2026-06-21","n":{"wild bird":1},"c":{"D1.1":1}},{"w":"2026-05-03","n":{"wild bird":2},"c":{"D1.1":2}},{"w":"2026-03-15","n":{"other":1},"c":{"D1.1":1}},{"w":"2026-03-01","n":{"poultry":1},"c":{"D1.1":1}},{"w":"2026-02-22","n":{"poultry":3,"wild bird":12},"c":{"D1.1":15}},{"w":"2026-02-15","n":{"wild bird":3},"c":{"D1.1":3}},{"w":"2026-02-08","n":{"wild bird":1},"c":{"D1.1":1}},{"w":"2026-01-25","n":{"wild bird":2},"c":{"D1.1":2}},{"w":"2026-01-18","n":{"wild bird":1},"c":{"D1.1":1}}]}},{"type":"Feature","geometry":{"type":"Point","coordinates":[-105.8701,34.5199]},"properties":{"loc":"New Mexico","level":"division","country":"USA","region":"North America","n":2,"hosts":{"wild bird":1,"other":1},"raw_hosts":{"Nonhuman Mammal":1,"Avian":1},"clades":{"D1.1":2},"weeks":[{"w":"2026-03-29","n":{"other":1},"c":{"D1.1":1}},{"w":"2026-02-22","n":{"wild bird":1},"c":{"D1.1":1}}]}},{"type":"Feature","geometry":{"type":"Point","coordinates":[-73.90419,40.7034]},"properties":{"loc":"New York","level":"division","country":"USA","region":"North America","n":106,"hosts":{"poultry":31,"wild bird":74,"other":1},"raw_hosts":{"Avian":105,"Nonhuman Mammal":1},"clades":{"D1.1":106},"weeks":[{"w":"2026-07-12","n":{"wild bird":3},"c":{"D1.1":3}},{"w":"2026-06-21","n":{"wild bird":1},"c":{"D1.1":1}},{"w":"2026-06-14","n":{"wild bird":1},"c":{"D1.1":1}},{"w":"2026-04-26","n":{"wild bird":2},"c":{"D1.1":2}},{"w":"2026-04-19","n":{"other":1,"wild bird":1},"c":{"D1.1":2}},{"w":"2026-04-12","n":{"wild bird":3},"c":{"D1.1":3}},{"w":"2026-04-05","n":{"wild bird":2},"c":{"D1.1":2}},{"w":"2026-03-29","n":{"poultry":5,"wild bird":4},"c":{"D1.1":9}},{"w":"2026-03-22","n":{"wild bird":5},"c":{"D1.1":5}},{"w":"2026-03-15","n":{"poultry":5,"wild bird":7},"c":{"D1.1":12}},{"w":"2026-03-08","n":{"poultry":10,"wild bird":1},"c":{"D1.1":11}},{"w":"2026-03-01","n":{"wild bird":3,"poultry":6},"c":{"D1.1":9}},{"w":"2026-02-22","n":{"wild bird":8},"c":{"D1.1":8}},{"w":"2026-02-15","n":{"wild bird":4,"poultry":2},"c":{"D1.1":6}},{"w":"2026-02-08","n":{"wild bird":8},"c":{"D1.1":8}},{"w":"2026-02-01","n":{"wild bird":8,"poultry":3},"c":{"D1.1":11}},{"w":"2026-01-25","n":{"wild bird":5},"c":{"D1.1":5}},{"w":"2026-01-18","n":{"wild bird":8},"c":{"D1.1":8}}]}},{"type":"Feature","geometry":{"type":"Point","coordinates":[-79.0193,35.7596]},"properties":{"loc":"North Carolina","level":"division","country":"USA","region":"North America","n":1,"hosts":{"wild bird":1},"raw_hosts":{"Avian":1},"clades":{"D1.1":1},"weeks":[{"w":"2026-03-08","n":{"wild bird":1},"c":{"D1.1":1}}]}},{"type":"Feature","geometry":{"type":"Point","coordinates":[-100.54074,47.62015]},"properties":{"loc":"North Dakota","level":"division","country":"USA","region":"North America","n":6,"hosts":{"poultry":2,"wild bird":4},"raw_hosts":{"Avian":6},"clades":{"D1.1":6},"weeks":[{"w":"2026-04-19","n":{"poultry":2},"c":{"D1.1":2}},{"w":"2026-02-15","n":{"wild bird":2},"c":{"D1.1":2}},{"w":"2026-01-18","n":{"wild bird":2},"c":{"D1.1":2}}]}},{"type":"Feature","geometry":{"type":"Point","coordinates":[-82.82564,40.19922]},"properties":{"loc":"Ohio","level":"division","country":"USA","region":"North America","n":10,"hosts":{"wild bird":10},"raw_hosts":{"Avian":10},"clades":{"D1.1":10},"weeks":[{"w":"2026-03-01","n":{"wild bird":5},"c":{"D1.1":5}},{"w":"2026-02-22","n":{"wild bird":4},"c":{"D1.1":4}},{"w":"2026-02-08","n":{"wild bird":1},"c":{"D1.1":1}}]}},{"type":"Feature","geometry":{"type":"Point","coordinates":[-97.1862,35.37061]},"properties":{"loc":"Oklahoma","level":"division","country":"USA","region":"North America","n":4,"hosts":{"wild bird":4},"raw_hosts":{"Avian":4},"clades":{"D1.1":4},"weeks":[{"w":"2026-02-15","n":{"wild bird":4},"c":{"D1.1":4}}]}},{"type":"Feature","geometry":{"type":"Point","coordinates":[-120.5542,43.8041]},"properties":{"loc":"Oregon","level":"division","country":"USA","region":"North America","n":3,"hosts":{"wild bird":2,"other":1},"raw_hosts":{"Avian":2,"Nonhuman Mammal":1},"clades":{"D1.1":3},"weeks":[{"w":"2026-02-15","n":{"wild bird":1},"c":{"D1.1":1}},{"w":"2026-01-18","n":{"other":1,"wild bird":1},"c":{"D1.1":2}}]}},{"type":"Feature","geometry":{"type":"Point","coordinates":[-77.1945,41.2033]},"properties":{"loc":"Pennsylvania","level":"division","country":"USA","region":"North America","n":35,"hosts":{"poultry":3,"wild bird":32},"raw_hosts":{"Avian":34,"Eastern Screech Owl":1},"clades":{"D1.1":35},"weeks":[{"w":"2026-03-29","n":{"poultry":1},"c":{"D1.1":1}},{"w":"2026-03-22","n":{"wild bird":4},"c":{"D1.1":4}},{"w":"2026-03-15","n":{"wild bird":2},"c":{"D1.1":2}},{"w":"2026-03-08","n":{"wild bird":4},"c":{"D1.1":4}},{"w":"2026-03-01","n":{"wild bird":4},"c":{"D1.1":4}},{"w":"2026-02-22","n":{"wild bird":6},"c":{"D1.1":6}},{"w":"2026-02-15","n":{"wild bird":3},"c":{"D1.1":3}},{"w":"2026-02-08","n":{"wild bird":1},"c":{"D1.1":1}},{"w":"2026-02-01","n":{"wild bird":3,"poultry":2},"c":{"D1.1":5}},{"w":"2026-01-25","n":{"wild bird":2},"c":{"D1.1":2}},{"w":"2026-01-18","n":{"wild bird":3},"c":{"D1.1":3}}]}},{"type":"Feature","geometry":{"type":"Point","coordinates":[-71.4774,41.5801]},"properties":{"loc":"Rhode Island","level":"division","country":"USA","region":"North America","n":24,"hosts":{"poultry":3,"wild bird":21},"raw_hosts":{"Avian":22,"Brant Goose":2},"clades":{"D1.1":24},"weeks":[{"w":"2026-06-14","n":{"poultry":3,"wild bird":1},"c":{"D1.1":4}},{"w":"2026-03-22","n":{"wild bird":1},"c":{"D1.1":1}},{"w":"2026-03-15","n":{"wild bird":3},"c":{"D1.1":3}},{"w":"2026-03-08","n":{"wild bird":8},"c":{"D1.1":8}},{"w":"2026-03-01","n":{"wild bird":3},"c":{"D1.1":3}},{"w":"2026-02-22","n":{"wild bird":2},"c":{"D1.1":2}},{"w":"2026-02-15","n":{"wild bird":2},"c":{"D1.1":2}},{"w":"2026-02-08","n":{"wild bird":1},"c":{"D1.1":1}}]}},{"type":"Feature","geometry":{"type":"Point","coordinates":[-81.1637,33.8361]},"properties":{"loc":"South Carolina","level":"division","country":"USA","region":"North America","n":8,"hosts":{"poultry":4,"wild bird":4},"raw_hosts":{"Avian":8},"clades":{"D1.1":8},"weeks":[{"w":"2026-03-15","n":{"wild bird":1},"c":{"D1.1":1}},{"w":"2026-02-22","n":{"poultry":4},"c":{"D1.1":4}},{"w":"2026-01-25","n":{"wild bird":3},"c":{"D1.1":3}}]}},{"type":"Feature","geometry":{"type":"Point","coordinates":[-100.34876,44.64718]},"properties":{"loc":"South Dakota","level":"division","country":"USA","region":"North America","n":11,"hosts":{"poultry":11},"raw_hosts":{"Avian":11},"clades":{"D1.1":11},"weeks":[{"w":"2026-04-12","n":{"poultry":3},"c":{"D1.1":3}},{"w":"2026-03-29","n":{"poultry":2},"c":{"D1.1":2}},{"w":"2026-02-15","n":{"poultry":3},"c":{"D1.1":3}},{"w":"2026-02-01","n":{"poultry":3},"c":{"D1.1":3}}]}},{"type":"Feature","geometry":{"type":"Point","coordinates":[-86.5804,35.5175]},"properties":{"loc":"Tennessee","level":"division","country":"USA","region":"North America","n":5,"hosts":{"poultry":1,"wild bird":4},"raw_hosts":{"Avian":5},"clades":{"D1.1":5},"weeks":[{"w":"2026-03-08","n":{"wild bird":2,"poultry":1},"c":{"D1.1":3}},{"w":"2026-02-15","n":{"wild bird":2},"c":{"D1.1":2}}]}},{"type":"Feature","geometry":{"type":"Point","coordinates":[-99.18876,31.14687]},"properties":{"loc":"Texas","level":"division","country":"USA","region":"North America","n":12,"hosts":{"wild bird":8,"cattle":4},"raw_hosts":{"Avian":8,"Cattle":4},"clades":{"D1.1":8,"B3.13":4},"weeks":[{"w":"2026-05-31","n":{"cattle":3},"c":{"B3.13":3}},{"w":"2026-05-17","n":{"cattle":1},"c":{"B3.13":1}},{"w":"2026-04-12","n":{"wild bird":1},"c":{"D1.1":1}},{"w":"2026-04-05","n":{"wild bird":1},"c":{"D1.1":1}},{"w":"2026-02-08","n":{"wild bird":3},"c":{"D1.1":3}},{"w":"2026-02-01","n":{"wild bird":2},"c":{"D1.1":2}},{"w":"2026-01-25","n":{"wild bird":1},"c":{"D1.1":1}}]}},{"type":"Feature","geometry":{"type":"Point","coordinates":[-111.71436,39.42252]},"properties":{"loc":"Utah","level":"division","country":"USA","region":"North America","n":29,"hosts":{"poultry":7,"wild bird":7,"cattle":15},"raw_hosts":{"Cattle":15,"Avian":14},"clades":{"B3.13":22,"D1.1":7},"weeks":[{"w":"2026-07-12","n":{"cattle":7,"poultry":2},"c":{"B3.13":9}},{"w":"2026-07-05","n":{"poultry":5},"c":{"B3.13":5}},{"w":"2026-06-28","n":{"cattle":3},"c":{"B3.13":3}},{"w":"2026-06-21","n":{"cattle":2},"c":{"B3.13":2}},{"w":"2026-06-14","n":{"cattle":1},"c":{"B3.13":1}},{"w":"2026-06-07","n":{"cattle":2},"c":{"B3.13":2}},{"w":"2026-03-15","n":{"wild bird":2},"c":{"D1.1":2}},{"w":"2026-01-18","n":{"wild bird":5},"c":{"D1.1":5}}]}},{"type":"Feature","geometry":{"type":"Point","coordinates":[-78.0249,37.92687]},"properties":{"loc":"Virginia","level":"division","country":"USA","region":"North America","n":16,"hosts":{"wild bird":16},"raw_hosts":{"Avian":16},"clades":{"D1.1":16},"weeks":[{"w":"2026-03-22","n":{"wild bird":1},"c":{"D1.1":1}},{"w":"2026-03-08","n":{"wild bird":2},"c":{"D1.1":2}},{"w":"2026-03-01","n":{"wild bird":1},"c":{"D1.1":1}},{"w":"2026-02-22","n":{"wild bird":4},"c":{"D1.1":4}},{"w":"2026-02-15","n":{"wild bird":4},"c":{"D1.1":4}},{"w":"2026-02-08","n":{"wild bird":1},"c":{"D1.1":1}},{"w":"2026-02-01","n":{"wild bird":1},"c":{"D1.1":1}},{"w":"2026-01-25","n":{"wild bird":1},"c":{"D1.1":1}},{"w":"2026-01-18","n":{"wild bird":1},"c":{"D1.1":1}}]}},{"type":"Feature","geometry":{"type":"Point","coordinates":[-119.95036,47.18395]},"properties":{"loc":"Washington","level":"division","country":"USA","region":"North America","n":7,"hosts":{"poultry":5,"wild bird":2},"raw_hosts":{"Avian":7},"clades":{"D1.1":7},"weeks":[{"w":"2026-03-15","n":{"poultry":2},"c":{"D1.1":2}},{"w":"2026-02-01","n":{"wild bird":1,"poultry":3},"c":{"D1.1":4}},{"w":"2026-01-18","n":{"wild bird":1},"c":{"D1.1":1}}]}},{"type":"Feature","geometry":{"type":"Point","coordinates":[-80.84084,38.47584]},"properties":{"loc":"West Virginia","level":"division","country":"USA","region":"North America","n":12,"hosts":{"poultry":9,"wild bird":3},"raw_hosts":{"Avian":12},"clades":{"D1.1":12},"weeks":[{"w":"2026-03-22","n":{"poultry":3,"wild bird":2},"c":{"D1.1":5}},{"w":"2026-01-18","n":{"poultry":6,"wild bird":1},"c":{"D1.1":7}}]}},{"type":"Feature","geometry":{"type":"Point","coordinates":[-89.52776,44.53514]},"properties":{"loc":"Wisconsin","level":"division","country":"USA","region":"North America","n":7,"hosts":{"wild bird":5,"other":2},"raw_hosts":{"Avian":5,"Nonhuman Mammal":2},"clades":{"D1.1":7},"weeks":[{"w":"2026-03-29","n":{"other":2},"c":{"D1.1":2}},{"w":"2026-03-08","n":{"wild bird":2},"c":{"D1.1":2}},{"w":"2026-03-01","n":{"wild bird":1},"c":{"D1.1":1}},{"w":"2026-02-01","n":{"wild bird":1},"c":{"D1.1":1}},{"w":"2026-01-18","n":{"wild bird":1},"c":{"D1.1":1}}]}},{"type":"Feature","geometry":{"type":"Point","coordinates":[-107.2903,43.076]},"properties":{"loc":"Wyoming","level":"division","country":"USA","region":"North America","n":3,"hosts":{"wild bird":3},"raw_hosts":{"Avian":3},"clades":{"D1.1":3},"weeks":[{"w":"2026-03-01","n":{"wild bird":1},"c":{"D1.1":1}},{"w":"2026-02-01","n":{"wild bird":1},"c":{"D1.1":1}},{"w":"2026-01-18","n":{"wild bird":1},"c":{"D1.1":1}}]}}],"seed_note":"seed = the full 2026-09-12 live run (no subsampling needed, <100 KB); cron replaces public/data/h5n1.geojson"}