{"type":"FeatureCollection","frame":"2026-08-27T02","site_count":20,"fresh_count":20,"failures":{},"features":[{"type":"Feature","geometry":{"type":"Point","coordinates":[-77.0073,36.984]},"properties":{"site":"KAKQ","name":"Wakefield VA","scan_time":"2026-08-27T01:59:34Z","stale":false,"bins":25,"density_birds_km3":8.4425,"heading_deg":321.34050476227566,"speed_ms":8.104358171104646,"peak_altitude_m":0.0,"u_ms":-4.7814917580368475,"v_ms":6.205185350936078}},{"type":"Feature","geometry":{"type":"Point","coordinates":[-71.1369,41.9558]},"properties":{"site":"KBOX","name":"Boston MA","scan_time":"2026-08-27T02:01:39Z","stale":false,"bins":25,"density_birds_km3":4.475,"heading_deg":4.772561300421412,"speed_ms":4.691790473490219,"peak_altitude_m":0.0,"u_ms":0.3364006237595691,"v_ms":2.730934221718174}},{"type":"Feature","geometry":{"type":"Point","coordinates":[-78.7369,42.9489]},"properties":{"site":"KBUF","name":"Buffalo NY","scan_time":"2026-08-27T01:57:42Z","stale":false,"bins":25,"density_birds_km3":12.824000000000002,"heading_deg":223.3962687149613,"speed_ms":3.2980765231856934,"peak_altitude_m":200.0,"u_ms":-1.1344234768143064,"v_ms":-1.4377328966521106}},{"type":"Feature","geometry":{"type":"Point","coordinates":[-81.8597,41.4131]},"properties":{"site":"KCLE","name":"Cleveland OH","scan_time":"2026-08-27T02:00:25Z","stale":false,"bins":25,"density_birds_km3":1.6179999999999999,"heading_deg":11.778869451934835,"speed_ms":10.48047795632468,"peak_altitude_m":200.0,"u_ms":2.228092295014421,"v_ms":9.80542233209724}},{"type":"Feature","geometry":{"type":"Point","coordinates":[-81.0423,32.6555]},"properties":{"site":"KCLX","name":"Charleston SC","scan_time":"2026-08-27T01:58:21Z","stale":false,"bins":25,"density_birds_km3":3.0237499999999997,"heading_deg":327.6000712491488,"speed_ms":6.102677279305354,"peak_altitude_m":0.0,"u_ms":-3.123843291296258,"v_ms":4.882458135207774}},{"type":"Feature","geometry":{"type":"Point","coordinates":[-74.4108,39.947]},"properties":{"site":"KDIX","name":"Philadelphia PA","scan_time":"2026-08-27T02:00:44Z","stale":false,"bins":25,"density_birds_km3":5.705,"heading_deg":354.9060755300994,"speed_ms":6.678499397128137,"peak_altitude_m":0.0,"u_ms":-0.49100734407541347,"v_ms":5.353448427052505}},{"type":"Feature","geometry":{"type":"Point","coordinates":[-84.5658,33.3636]},"properties":{"site":"KFFC","name":"Atlanta GA","scan_time":"2026-08-27T01:59:15Z","stale":false,"bins":25,"density_birds_km3":14.765333333333333,"heading_deg":207.17756391599372,"speed_ms":2.827909969297454,"peak_altitude_m":1400.0,"u_ms":-0.8355472277406538,"v_ms":-1.230066823189453}},{"type":"Feature","geometry":{"type":"Point","coordinates":[-85.5449,42.8939]},"properties":{"site":"KGRR","name":"Grand Rapids MI","scan_time":"2026-08-27T02:00:41Z","stale":false,"bins":25,"density_birds_km3":3.6353333333333335,"heading_deg":92.94980363490347,"speed_ms":7.6135498073747945,"peak_altitude_m":200.0,"u_ms":6.626795083470923,"v_ms":-1.249662447257384}},{"type":"Feature","geometry":{"type":"Point","coordinates":[-83.8217,39.4203]},"properties":{"site":"KILN","name":"Wilmington OH","scan_time":"2026-08-27T01:58:20Z","stale":false,"bins":25,"density_birds_km3":1.6733333333333333,"heading_deg":23.68393540795227,"speed_ms":10.765231075697212,"peak_altitude_m":400.0,"u_ms":4.121346613545816,"v_ms":9.540290836653385}},{"type":"Feature","geometry":{"type":"Point","coordinates":[-81.7019,30.4846]},"properties":{"site":"KJAX","name":"Jacksonville FL","scan_time":"2026-08-27T02:00:11Z","stale":false,"bins":25,"density_birds_km3":18.82875,"heading_deg":234.83743015545116,"speed_ms":3.3366900894323783,"peak_altitude_m":0.0,"u_ms":-1.9915801241102393,"v_ms":-1.8160088519802886}},{"type":"Feature","geometry":{"type":"Point","coordinates":[-88.0847,41.6045]},"properties":{"site":"KLOT","name":"Chicago IL","scan_time":"2026-08-27T01:58:42Z","stale":false,"bins":25,"density_birds_km3":11.938666666666666,"heading_deg":140.57469964543705,"speed_ms":10.17684145450458,"peak_altitude_m":400.0,"u_ms":6.394441072331816,"v_ms":-7.888257741808577}},{"type":"Feature","geometry":{"type":"Point","coordinates":[-78.4292,33.9892]},"properties":{"site":"KLTX","name":"Wilmington NC","scan_time":"2026-08-27T02:01:30Z","stale":false,"bins":25,"density_birds_km3":2.185,"heading_deg":310.1412240940827,"speed_ms":4.655900086132644,"peak_altitude_m":200.0,"u_ms":-3.3974964111398216,"v_ms":2.9103416594889464}},{"type":"Feature","geometry":{"type":"Point","coordinates":[-77.4778,38.9753]},"properties":{"site":"KLWX","name":"Sterling VA","scan_time":"2026-08-27T01:57:43Z","stale":false,"bins":25,"density_birds_km3":9.200625,"heading_deg":326.2983807633547,"speed_ms":8.867634671557639,"peak_altitude_m":200.0,"u_ms":-4.548610828068745,"v_ms":7.262408124448067}},{"type":"Feature","geometry":{"type":"Point","coordinates":[-76.8762,34.7759]},"properties":{"site":"KMHX","name":"Morehead City NC","scan_time":"2026-08-27T02:00:32Z","stale":false,"bins":25,"density_birds_km3":5.151875,"heading_deg":312.28702066135673,"speed_ms":4.49741331062173,"peak_altitude_m":200.0,"u_ms":-3.276203917751552,"v_ms":3.0289341769071667}},{"type":"Feature","geometry":{"type":"Point","coordinates":[-80.6542,28.1133]},"properties":{"site":"KMLB","name":"Melbourne FL","scan_time":"2026-08-27T01:57:03Z","stale":false,"bins":25,"density_birds_km3":10.823125000000001,"heading_deg":159.7,"speed_ms":5.99,"peak_altitude_m":0.0,"u_ms":2.08,"v_ms":-5.62}},{"type":"Feature","geometry":{"type":"Point","coordinates":[-86.5625,36.2472]},"properties":{"site":"KOHX","name":"Nashville TN","scan_time":"2026-08-27T01:57:38Z","stale":false,"bins":25,"density_birds_km3":13.258666666666667,"heading_deg":314.12183002906227,"speed_ms":2.926728177795656,"peak_altitude_m":200.0,"u_ms":-1.85117005229284,"v_ms":1.7129696299275947}},{"type":"Feature","geometry":{"type":"Point","coordinates":[-72.8639,40.8655]},"properties":{"site":"KOKX","name":"Upton NY","scan_time":"2026-08-27T02:00:43Z","stale":false,"bins":25,"density_birds_km3":6.23375,"heading_deg":286.77303080102877,"speed_ms":5.582146474878444,"peak_altitude_m":0.0,"u_ms":-3.887303484602917,"v_ms":1.3311112236628846}},{"type":"Feature","geometry":{"type":"Point","coordinates":[-80.2183,40.5317]},"properties":{"site":"KPBZ","name":"Pittsburgh PA","scan_time":"2026-08-27T01:59:04Z","stale":false,"bins":25,"density_birds_km3":4.062142857142858,"heading_deg":54.85642348633398,"speed_ms":5.260557411640584,"peak_altitude_m":400.0,"u_ms":3.953785827325479,"v_ms":2.6603991559697553}},{"type":"Feature","geometry":{"type":"Point","coordinates":[-78.4899,35.6655]},"properties":{"site":"KRAX","name":"Raleigh NC","scan_time":"2026-08-27T01:58:35Z","stale":false,"bins":25,"density_birds_km3":7.376875,"heading_deg":351.55557770989316,"speed_ms":8.480928766189502,"peak_altitude_m":200.0,"u_ms":-1.2232856169052488,"v_ms":8.333705691888207}},{"type":"Feature","geometry":{"type":"Point","coordinates":[-82.4017,27.7055]},"properties":{"site":"KTBW","name":"Tampa FL","scan_time":"2026-08-27T02:01:45Z","stale":false,"bins":25,"density_birds_km3":7.79375,"heading_deg":229.75109404316947,"speed_ms":3.664421364985164,"peak_altitude_m":0.0,"u_ms":-1.7619488331061033,"v_ms":-2.2135014836795253}}]}