{"type":"FeatureCollection","frame":"2026-10-08T06","site_count":20,"fresh_count":19,"failures":{"KILN":"RuntimeError('no scan within 20 min of 2026-10-08T06:00Z')"},"features":[{"type":"Feature","geometry":{"type":"Point","coordinates":[-77.0073,36.984]},"properties":{"site":"KAKQ","name":"Wakefield VA","scan_time":"2026-10-08T05:59:53Z","stale":false,"bins":25,"density_birds_km3":0.8093750000000001,"heading_deg":54.84701854482773,"speed_ms":12.913547140649149,"peak_altitude_m":0.0,"u_ms":10.278068006182378,"v_ms":7.146846986089644}},{"type":"Feature","geometry":{"type":"Point","coordinates":[-71.1369,41.9558]},"properties":{"site":"KBOX","name":"Boston MA","scan_time":"2026-10-08T05:58:05Z","stale":false,"bins":25,"density_birds_km3":0.423125,"heading_deg":35.80303593531877,"speed_ms":12.085243722304284,"peak_altitude_m":0.0,"u_ms":7.1839290989660265,"v_ms":9.63314623338257}},{"type":"Feature","geometry":{"type":"Point","coordinates":[-78.7369,42.9489]},"properties":{"site":"KBUF","name":"Buffalo NY","scan_time":"2026-10-08T05:58:35Z","stale":false,"bins":25,"density_birds_km3":4.227333333333333,"heading_deg":146.23643614032184,"speed_ms":9.948398295723528,"peak_altitude_m":200.0,"u_ms":5.300408710746409,"v_ms":-8.223992425437904}},{"type":"Feature","geometry":{"type":"Point","coordinates":[-81.8597,41.4131]},"properties":{"site":"KCLE","name":"Cleveland OH","scan_time":"2026-10-08T06:01:48Z","stale":false,"bins":25,"density_birds_km3":9.373333333333333,"heading_deg":142.46187375292612,"speed_ms":14.453674964438123,"peak_altitude_m":400.0,"u_ms":8.282005689900428,"v_ms":-11.705886913229019}},{"type":"Feature","geometry":{"type":"Point","coordinates":[-81.0423,32.6555]},"properties":{"site":"KCLX","name":"Charleston SC","scan_time":"2026-10-08T05:57:51Z","stale":false,"bins":25,"density_birds_km3":34.33625,"heading_deg":230.5736143665233,"speed_ms":5.977963522516291,"peak_altitude_m":0.0,"u_ms":-4.174889147766573,"v_ms":-3.0321784557137135}},{"type":"Feature","geometry":{"type":"Point","coordinates":[-74.4108,39.947]},"properties":{"site":"KDIX","name":"Philadelphia PA","scan_time":"2026-10-08T05:56:55Z","stale":false,"bins":25,"density_birds_km3":0.4325,"heading_deg":39.481493402937815,"speed_ms":15.033843930635838,"peak_altitude_m":200.0,"u_ms":9.606878612716764,"v_ms":11.299783236994221}},{"type":"Feature","geometry":{"type":"Point","coordinates":[-84.5658,33.3636]},"properties":{"site":"KFFC","name":"Atlanta GA","scan_time":"2026-10-08T06:01:36Z","stale":false,"bins":25,"density_birds_km3":52.632,"heading_deg":182.82016343017816,"speed_ms":5.995652961442976,"peak_altitude_m":400.0,"u_ms":-0.04134012261235242,"v_ms":-5.699552743578051}},{"type":"Feature","geometry":{"type":"Point","coordinates":[-85.5449,42.8939]},"properties":{"site":"KGRR","name":"Grand Rapids MI","scan_time":"2026-10-08T05:56:05Z","stale":false,"bins":25,"density_birds_km3":48.57000000000001,"heading_deg":179.78540593966585,"speed_ms":12.826519387825131,"peak_altitude_m":400.0,"u_ms":0.041385766248026847,"v_ms":-12.79517356392835}},{"type":"Feature","geometry":{"type":"Point","coordinates":[-81.7019,30.4846]},"properties":{"site":"KJAX","name":"Jacksonville FL","scan_time":"2026-10-08T06:00:57Z","stale":false,"bins":25,"density_birds_km3":209.646875,"heading_deg":194.4599300496106,"speed_ms":10.346285349687983,"peak_altitude_m":0.0,"u_ms":-2.734764176398856,"v_ms":-9.849787924233524}},{"type":"Feature","geometry":{"type":"Point","coordinates":[-88.0847,41.6045]},"properties":{"site":"KLOT","name":"Chicago IL","scan_time":"2026-10-08T06:00:59Z","stale":false,"bins":25,"density_birds_km3":76.41533333333334,"heading_deg":166.8955451316446,"speed_ms":16.991321724261272,"peak_altitude_m":400.0,"u_ms":3.861526482468615,"v_ms":-16.525208291529623}},{"type":"Feature","geometry":{"type":"Point","coordinates":[-78.4292,33.9892]},"properties":{"site":"KLTX","name":"Wilmington NC","scan_time":"2026-10-08T05:58:48Z","stale":false,"bins":25,"density_birds_km3":16.619374999999998,"heading_deg":116.72601228049784,"speed_ms":2.407692394493342,"peak_altitude_m":0.0,"u_ms":1.646433461220191,"v_ms":-0.4026826149101031}},{"type":"Feature","geometry":{"type":"Point","coordinates":[-77.4778,38.9753]},"properties":{"site":"KLWX","name":"Sterling VA","scan_time":"2026-10-08T06:00:19Z","stale":false,"bins":25,"density_birds_km3":2.5593749999999997,"heading_deg":29.805919648033612,"speed_ms":8.492596482657548,"peak_altitude_m":0.0,"u_ms":4.15462383976551,"v_ms":6.177967757694186}},{"type":"Feature","geometry":{"type":"Point","coordinates":[-76.8762,34.7759]},"properties":{"site":"KMHX","name":"Morehead City NC","scan_time":"2026-10-08T05:57:11Z","stale":false,"bins":25,"density_birds_km3":7.690625,"heading_deg":91.67959085000554,"speed_ms":4.12437357072852,"peak_altitude_m":0.0,"u_ms":3.990588859849722,"v_ms":-0.03542143090493304}},{"type":"Feature","geometry":{"type":"Point","coordinates":[-80.6542,28.1133]},"properties":{"site":"KMLB","name":"Melbourne FL","scan_time":"2026-10-08T06:00:22Z","stale":false,"bins":25,"density_birds_km3":36.21363636363636,"heading_deg":195.79646160996603,"speed_ms":3.808455232371561,"peak_altitude_m":0.0,"u_ms":-0.8868827493654636,"v_ms":-3.4553656971146838}},{"type":"Feature","geometry":{"type":"Point","coordinates":[-86.5625,36.2472]},"properties":{"site":"KOHX","name":"Nashville TN","scan_time":"2026-10-08T06:02:44Z","stale":false,"bins":25,"density_birds_km3":34.62133333333334,"heading_deg":126.93381599269324,"speed_ms":9.648690210274975,"peak_altitude_m":400.0,"u_ms":6.838520950473696,"v_ms":-5.763794962643456}},{"type":"Feature","geometry":{"type":"Point","coordinates":[-72.8639,40.8655]},"properties":{"site":"KOKX","name":"Upton NY","scan_time":"2026-10-08T05:58:56Z","stale":false,"bins":25,"density_birds_km3":0.159375,"heading_deg":44.963635683714415,"speed_ms":11.183169642857141,"peak_altitude_m":0.0,"u_ms":7.774464285714285,"v_ms":7.5555803571428575}},{"type":"Feature","geometry":{"type":"Point","coordinates":[-80.2183,40.5317]},"properties":{"site":"KPBZ","name":"Pittsburgh PA","scan_time":"2026-10-08T06:00:47Z","stale":false,"bins":25,"density_birds_km3":2.065,"heading_deg":127.10168764781831,"speed_ms":16.743276816608997,"peak_altitude_m":600.0,"u_ms":12.875903114186853,"v_ms":-10.242366782006922}},{"type":"Feature","geometry":{"type":"Point","coordinates":[-78.4899,35.6655]},"properties":{"site":"KRAX","name":"Raleigh NC","scan_time":"2026-10-08T05:59:53Z","stale":false,"bins":25,"density_birds_km3":1.9112500000000001,"heading_deg":67.83497780165621,"speed_ms":9.04299967288191,"peak_altitude_m":200.0,"u_ms":7.475178279358849,"v_ms":3.190379456983971}},{"type":"Feature","geometry":{"type":"Point","coordinates":[-82.4017,27.7055]},"properties":{"site":"KTBW","name":"Tampa FL","scan_time":"2026-10-08T05:57:47Z","stale":false,"bins":25,"density_birds_km3":18.214375,"heading_deg":228.22635272030482,"speed_ms":4.141174952692242,"peak_altitude_m":0.0,"u_ms":-2.940525718217788,"v_ms":-2.5472079821090663}}]}