{"type":"FeatureCollection","frame":"2026-09-25T03","site_count":20,"fresh_count":20,"failures":{},"features":[{"type":"Feature","geometry":{"type":"Point","coordinates":[-77.0073,36.984]},"properties":{"site":"KAKQ","name":"Wakefield VA","scan_time":"2026-09-25T02:58:51Z","stale":false,"bins":25,"density_birds_km3":47.324374999999996,"heading_deg":184.1621398700189,"speed_ms":16.75834660644241,"peak_altitude_m":200.0,"u_ms":-1.8033656906639195,"v_ms":-16.245142570360688}},{"type":"Feature","geometry":{"type":"Point","coordinates":[-71.1369,41.9558]},"properties":{"site":"KBOX","name":"Boston MA","scan_time":"2026-09-25T03:01:25Z","stale":false,"bins":25,"density_birds_km3":1.350625,"heading_deg":194.3665487769366,"speed_ms":11.228135175135668,"peak_altitude_m":0.0,"u_ms":-3.0227479033053775,"v_ms":-10.27444005920079}},{"type":"Feature","geometry":{"type":"Point","coordinates":[-78.7369,42.9489]},"properties":{"site":"KBUF","name":"Buffalo NY","scan_time":"2026-09-25T02:57:43Z","stale":false,"bins":25,"density_birds_km3":11.696666666666665,"heading_deg":223.64447662812918,"speed_ms":10.32434311769735,"peak_altitude_m":200.0,"u_ms":-7.097688800227986,"v_ms":-7.4807432316899405}},{"type":"Feature","geometry":{"type":"Point","coordinates":[-81.8597,41.4131]},"properties":{"site":"KCLE","name":"Cleveland OH","scan_time":"2026-09-25T03:01:42Z","stale":false,"bins":25,"density_birds_km3":27.334666666666667,"heading_deg":228.77893954609428,"speed_ms":10.839236097560976,"peak_altitude_m":400.0,"u_ms":-8.141376585365853,"v_ms":-7.093187804878048}},{"type":"Feature","geometry":{"type":"Point","coordinates":[-81.0423,32.6555]},"properties":{"site":"KCLX","name":"Charleston SC","scan_time":"2026-09-25T03:02:56Z","stale":false,"bins":25,"density_birds_km3":11.215,"heading_deg":200.03791000146316,"speed_ms":15.591854204982445,"peak_altitude_m":200.0,"u_ms":-5.783148302959371,"v_ms":-14.198980103661594}},{"type":"Feature","geometry":{"type":"Point","coordinates":[-74.4108,39.947]},"properties":{"site":"KDIX","name":"Philadelphia PA","scan_time":"2026-09-25T03:00:37Z","stale":false,"bins":25,"density_birds_km3":20.55,"heading_deg":212.73842455920627,"speed_ms":20.79286296577947,"peak_altitude_m":200.0,"u_ms":-11.722513764258556,"v_ms":-16.71255817490494}},{"type":"Feature","geometry":{"type":"Point","coordinates":[-84.5658,33.3636]},"properties":{"site":"KFFC","name":"Atlanta GA","scan_time":"2026-09-25T03:00:37Z","stale":false,"bins":25,"density_birds_km3":119.62333333333332,"heading_deg":196.7798540112415,"speed_ms":17.145327834591914,"peak_altitude_m":2000.0,"u_ms":-4.328398082871235,"v_ms":-16.35346482012985}},{"type":"Feature","geometry":{"type":"Point","coordinates":[-85.5449,42.8939]},"properties":{"site":"KGRR","name":"Grand Rapids MI","scan_time":"2026-09-25T02:56:49Z","stale":false,"bins":25,"density_birds_km3":16.931333333333335,"heading_deg":275.6251381924866,"speed_ms":5.689014844272945,"peak_altitude_m":200.0,"u_ms":-4.6297865889672005,"v_ms":0.82604323345277}},{"type":"Feature","geometry":{"type":"Point","coordinates":[-83.8217,39.4203]},"properties":{"site":"KILN","name":"Wilmington OH","scan_time":"2026-09-25T03:02:49Z","stale":false,"bins":25,"density_birds_km3":222.42333333333332,"heading_deg":209.08433723030325,"speed_ms":9.384500911755325,"peak_altitude_m":200.0,"u_ms":-4.545428585184427,"v_ms":-7.9476540204498}},{"type":"Feature","geometry":{"type":"Point","coordinates":[-81.7019,30.4846]},"properties":{"site":"KJAX","name":"Jacksonville FL","scan_time":"2026-09-25T03:02:07Z","stale":false,"bins":25,"density_birds_km3":15.25125,"heading_deg":175.10293668969553,"speed_ms":13.61404925825752,"peak_altitude_m":200.0,"u_ms":1.0153872633390706,"v_ms":-13.522981722809604}},{"type":"Feature","geometry":{"type":"Point","coordinates":[-88.0847,41.6045]},"properties":{"site":"KLOT","name":"Chicago IL","scan_time":"2026-09-25T02:57:23Z","stale":false,"bins":25,"density_birds_km3":28.565714285714286,"heading_deg":185.0535905114996,"speed_ms":10.492400230046007,"peak_altitude_m":400.0,"u_ms":-2.256050210042009,"v_ms":-4.559708191638327}},{"type":"Feature","geometry":{"type":"Point","coordinates":[-78.4292,33.9892]},"properties":{"site":"KLTX","name":"Wilmington NC","scan_time":"2026-09-25T02:59:54Z","stale":false,"bins":25,"density_birds_km3":12.307500000000001,"heading_deg":202.31300071302604,"speed_ms":19.67242788949827,"peak_altitude_m":400.0,"u_ms":-7.639470343286613,"v_ms":-18.071924639447488}},{"type":"Feature","geometry":{"type":"Point","coordinates":[-77.4778,38.9753]},"properties":{"site":"KLWX","name":"Sterling VA","scan_time":"2026-09-25T02:59:18Z","stale":false,"bins":25,"density_birds_km3":47.195625,"heading_deg":201.71333807124242,"speed_ms":13.632171218181337,"peak_altitude_m":200.0,"u_ms":-5.222845204354622,"v_ms":-12.433042407225916}},{"type":"Feature","geometry":{"type":"Point","coordinates":[-76.8762,34.7759]},"properties":{"site":"KMHX","name":"Morehead City NC","scan_time":"2026-09-25T03:00:41Z","stale":false,"bins":25,"density_birds_km3":19.07875,"heading_deg":186.81658279722714,"speed_ms":22.382665924130247,"peak_altitude_m":200.0,"u_ms":-2.7838691607154558,"v_ms":-22.17009663893075}},{"type":"Feature","geometry":{"type":"Point","coordinates":[-80.6542,28.1133]},"properties":{"site":"KMLB","name":"Melbourne FL","scan_time":"2026-09-25T02:59:03Z","stale":false,"bins":25,"density_birds_km3":13.72125,"heading_deg":161.22245345647622,"speed_ms":16.12604585471494,"peak_altitude_m":200.0,"u_ms":4.9687387599453885,"v_ms":-15.263000329551339}},{"type":"Feature","geometry":{"type":"Point","coordinates":[-86.5625,36.2472]},"properties":{"site":"KOHX","name":"Nashville TN","scan_time":"2026-09-25T03:00:06Z","stale":false,"bins":25,"density_birds_km3":119.27066666666666,"heading_deg":205.8737656153922,"speed_ms":11.159232613774833,"peak_altitude_m":400.0,"u_ms":-4.940125820263155,"v_ms":-9.431767240897454}},{"type":"Feature","geometry":{"type":"Point","coordinates":[-72.8639,40.8655]},"properties":{"site":"KOKX","name":"Upton NY","scan_time":"2026-09-25T02:58:46Z","stale":false,"bins":25,"density_birds_km3":5.983125,"heading_deg":231.62888037594325,"speed_ms":21.20182615963226,"peak_altitude_m":200.0,"u_ms":-16.716704972837444,"v_ms":-12.985503552026746}},{"type":"Feature","geometry":{"type":"Point","coordinates":[-80.2183,40.5317]},"properties":{"site":"KPBZ","name":"Pittsburgh PA","scan_time":"2026-09-25T03:00:25Z","stale":false,"bins":25,"density_birds_km3":105.99285714285715,"heading_deg":219.50712272730763,"speed_ms":11.413924445853086,"peak_altitude_m":400.0,"u_ms":-7.269664173820393,"v_ms":-8.782808734178069}},{"type":"Feature","geometry":{"type":"Point","coordinates":[-78.4899,35.6655]},"properties":{"site":"KRAX","name":"Raleigh NC","scan_time":"2026-09-25T02:58:16Z","stale":false,"bins":25,"density_birds_km3":60.473125,"heading_deg":200.62455475939876,"speed_ms":17.526922472688184,"peak_altitude_m":600.0,"u_ms":-6.636236912550516,"v_ms":-16.020369084162766}},{"type":"Feature","geometry":{"type":"Point","coordinates":[-82.4017,27.7055]},"properties":{"site":"KTBW","name":"Tampa FL","scan_time":"2026-09-25T02:59:43Z","stale":false,"bins":25,"density_birds_km3":8.122499999999999,"heading_deg":186.4168930958454,"speed_ms":13.731433848995612,"peak_altitude_m":200.0,"u_ms":-1.7214908027399372,"v_ms":-13.558342953898254}}]}