{"type":"FeatureCollection","frame":"2026-10-08T04","site_count":20,"fresh_count":19,"failures":{"KILN":"RuntimeError('no scan within 20 min of 2026-10-08T04:00Z')"},"features":[{"type":"Feature","geometry":{"type":"Point","coordinates":[-77.0073,36.984]},"properties":{"site":"KAKQ","name":"Wakefield VA","scan_time":"2026-10-08T03:59:43Z","stale":false,"bins":25,"density_birds_km3":1.75,"heading_deg":34.70163080564225,"speed_ms":11.262143112701253,"peak_altitude_m":0.0,"u_ms":5.874708407871199,"v_ms":8.311220035778176}},{"type":"Feature","geometry":{"type":"Point","coordinates":[-71.1369,41.9558]},"properties":{"site":"KBOX","name":"Boston MA","scan_time":"2026-10-08T03:57:53Z","stale":false,"bins":25,"density_birds_km3":0.9225,"heading_deg":36.56676541694744,"speed_ms":11.47539402173913,"peak_altitude_m":0.0,"u_ms":6.982934782608696,"v_ms":8.951005434782608}},{"type":"Feature","geometry":{"type":"Point","coordinates":[-78.7369,42.9489]},"properties":{"site":"KBUF","name":"Buffalo NY","scan_time":"2026-10-08T04:00:45Z","stale":false,"bins":25,"density_birds_km3":2.202,"heading_deg":115.59398445328017,"speed_ms":6.615982440205873,"peak_altitude_m":400.0,"u_ms":6.28156221616712,"v_ms":-1.61632455343627}},{"type":"Feature","geometry":{"type":"Point","coordinates":[-81.8597,41.4131]},"properties":{"site":"KCLE","name":"Cleveland OH","scan_time":"2026-10-08T04:01:58Z","stale":false,"bins":25,"density_birds_km3":6.903333333333333,"heading_deg":145.61078877187052,"speed_ms":14.28161757605022,"peak_altitude_m":200.0,"u_ms":7.935305649444714,"v_ms":-11.858530178657654}},{"type":"Feature","geometry":{"type":"Point","coordinates":[-81.0423,32.6555]},"properties":{"site":"KCLX","name":"Charleston SC","scan_time":"2026-10-08T04:01:51Z","stale":false,"bins":25,"density_birds_km3":34.39125,"heading_deg":223.67822088511323,"speed_ms":4.64176607421946,"peak_altitude_m":0.0,"u_ms":-2.5416944717042855,"v_ms":-2.323823101806419}},{"type":"Feature","geometry":{"type":"Point","coordinates":[-74.4108,39.947]},"properties":{"site":"KDIX","name":"Philadelphia PA","scan_time":"2026-10-08T03:59:03Z","stale":false,"bins":25,"density_birds_km3":0.898125,"heading_deg":33.00116880357344,"speed_ms":14.093416840640224,"peak_altitude_m":0.0,"u_ms":7.682602644398052,"v_ms":11.62453723034099}},{"type":"Feature","geometry":{"type":"Point","coordinates":[-84.5658,33.3636]},"properties":{"site":"KFFC","name":"Atlanta GA","scan_time":"2026-10-08T04:01:24Z","stale":false,"bins":25,"density_birds_km3":54.20933333333333,"heading_deg":190.13109420743478,"speed_ms":6.255016725287159,"peak_altitude_m":400.0,"u_ms":-0.579278721991293,"v_ms":-5.723674520992695}},{"type":"Feature","geometry":{"type":"Point","coordinates":[-85.5449,42.8939]},"properties":{"site":"KGRR","name":"Grand Rapids MI","scan_time":"2026-10-08T04:03:28Z","stale":false,"bins":25,"density_birds_km3":55.82333333333334,"heading_deg":158.32671806094362,"speed_ms":15.459521920917453,"peak_altitude_m":400.0,"u_ms":5.7461603153745076,"v_ms":-14.283514514394934}},{"type":"Feature","geometry":{"type":"Point","coordinates":[-81.7019,30.4846]},"properties":{"site":"KJAX","name":"Jacksonville FL","scan_time":"2026-10-08T03:59:34Z","stale":false,"bins":25,"density_birds_km3":236.465,"heading_deg":202.94901580681267,"speed_ms":9.60764551768261,"peak_altitude_m":0.0,"u_ms":-3.9516559815784675,"v_ms":-8.61379069035804}},{"type":"Feature","geometry":{"type":"Point","coordinates":[-88.0847,41.6045]},"properties":{"site":"KLOT","name":"Chicago IL","scan_time":"2026-10-08T03:59:38Z","stale":false,"bins":25,"density_birds_km3":57.862,"heading_deg":151.56904758625197,"speed_ms":16.98650044359438,"peak_altitude_m":400.0,"u_ms":8.040182046525562,"v_ms":-14.952531253240544}},{"type":"Feature","geometry":{"type":"Point","coordinates":[-78.4292,33.9892]},"properties":{"site":"KLTX","name":"Wilmington NC","scan_time":"2026-10-08T04:02:10Z","stale":false,"bins":25,"density_birds_km3":25.448125,"heading_deg":164.0443614424669,"speed_ms":2.8917252073744066,"peak_altitude_m":0.0,"u_ms":0.6918507396558939,"v_ms":-2.208562532306102}},{"type":"Feature","geometry":{"type":"Point","coordinates":[-77.4778,38.9753]},"properties":{"site":"KLWX","name":"Sterling VA","scan_time":"2026-10-08T03:59:17Z","stale":false,"bins":25,"density_birds_km3":5.108125,"heading_deg":14.040916910018728,"speed_ms":9.7233170194543,"peak_altitude_m":0.0,"u_ms":2.6813373302336965,"v_ms":7.965768995472899}},{"type":"Feature","geometry":{"type":"Point","coordinates":[-76.8762,34.7759]},"properties":{"site":"KMHX","name":"Morehead City NC","scan_time":"2026-10-08T04:02:56Z","stale":false,"bins":25,"density_birds_km3":7.541250000000001,"heading_deg":116.84976619224855,"speed_ms":3.7327158959058506,"peak_altitude_m":0.0,"u_ms":2.869731476877176,"v_ms":-1.2031510028178352}},{"type":"Feature","geometry":{"type":"Point","coordinates":[-80.6542,28.1133]},"properties":{"site":"KMLB","name":"Melbourne FL","scan_time":"2026-10-08T04:00:05Z","stale":false,"bins":25,"density_birds_km3":48.681,"heading_deg":241.43017328724204,"speed_ms":4.23592986309051,"peak_altitude_m":0.0,"u_ms":-3.723334189991122,"v_ms":-1.9838640717723475}},{"type":"Feature","geometry":{"type":"Point","coordinates":[-86.5625,36.2472]},"properties":{"site":"KOHX","name":"Nashville TN","scan_time":"2026-10-08T04:03:01Z","stale":false,"bins":25,"density_birds_km3":40.04333333333333,"heading_deg":121.49288867501194,"speed_ms":8.586752185132774,"peak_altitude_m":400.0,"u_ms":6.79164122200949,"v_ms":-4.525101306917507}},{"type":"Feature","geometry":{"type":"Point","coordinates":[-72.8639,40.8655]},"properties":{"site":"KOKX","name":"Upton NY","scan_time":"2026-10-08T03:59:22Z","stale":false,"bins":25,"density_birds_km3":0.333125,"heading_deg":43.34273284903608,"speed_ms":12.216367346938776,"peak_altitude_m":0.0,"u_ms":8.35304081632653,"v_ms":8.68616326530612}},{"type":"Feature","geometry":{"type":"Point","coordinates":[-80.2183,40.5317]},"properties":{"site":"KPBZ","name":"Pittsburgh PA","scan_time":"2026-10-08T04:01:26Z","stale":false,"bins":25,"density_birds_km3":1.295,"heading_deg":78.50989092198883,"speed_ms":19.521428571428572,"peak_altitude_m":400.0,"u_ms":18.808218422504137,"v_ms":2.942790954219526}},{"type":"Feature","geometry":{"type":"Point","coordinates":[-78.4899,35.6655]},"properties":{"site":"KRAX","name":"Raleigh NC","scan_time":"2026-10-08T03:57:20Z","stale":false,"bins":25,"density_birds_km3":2.926875,"heading_deg":70.41652404083592,"speed_ms":7.229517403373905,"peak_altitude_m":200.0,"u_ms":4.79026265214606,"v_ms":1.6563869314541961}},{"type":"Feature","geometry":{"type":"Point","coordinates":[-82.4017,27.7055]},"properties":{"site":"KTBW","name":"Tampa FL","scan_time":"2026-10-08T03:59:33Z","stale":false,"bins":25,"density_birds_km3":11.428749999999999,"heading_deg":222.78540228702107,"speed_ms":4.732830962800875,"peak_altitude_m":0.0,"u_ms":-2.2875820568927794,"v_ms":-2.699953501094092}}]}