{"type":"FeatureCollection","frame":"2026-10-09T04","site_count":20,"fresh_count":20,"failures":{},"features":[{"type":"Feature","geometry":{"type":"Point","coordinates":[-77.0073,36.984]},"properties":{"site":"KAKQ","name":"Wakefield VA","scan_time":"2026-10-09T04:00:18Z","stale":false,"bins":25,"density_birds_km3":45.289375,"heading_deg":212.7819534604569,"speed_ms":7.6416426314118935,"peak_altitude_m":0.0,"u_ms":-2.2896418862039942,"v_ms":-5.146849564605385}},{"type":"Feature","geometry":{"type":"Point","coordinates":[-71.1369,41.9558]},"properties":{"site":"KBOX","name":"Boston MA","scan_time":"2026-10-09T04:01:28Z","stale":false,"bins":25,"density_birds_km3":4.675625,"heading_deg":129.72826675487738,"speed_ms":8.465231982885413,"peak_altitude_m":0.0,"u_ms":6.452385345634443,"v_ms":-5.455412488300575}},{"type":"Feature","geometry":{"type":"Point","coordinates":[-78.7369,42.9489]},"properties":{"site":"KBUF","name":"Buffalo NY","scan_time":"2026-10-09T04:02:19Z","stale":false,"bins":25,"density_birds_km3":14.308666666666666,"heading_deg":152.74356212825245,"speed_ms":9.022312351488608,"peak_altitude_m":200.0,"u_ms":4.107802730280017,"v_ms":-8.022552299305783}},{"type":"Feature","geometry":{"type":"Point","coordinates":[-81.8597,41.4131]},"properties":{"site":"KCLE","name":"Cleveland OH","scan_time":"2026-10-09T04:01:35Z","stale":false,"bins":25,"density_birds_km3":19.666,"heading_deg":162.2424778612428,"speed_ms":10.11679662338543,"peak_altitude_m":400.0,"u_ms":2.988692748415093,"v_ms":-9.582700274604198}},{"type":"Feature","geometry":{"type":"Point","coordinates":[-81.0423,32.6555]},"properties":{"site":"KCLX","name":"Charleston SC","scan_time":"2026-10-09T04:02:21Z","stale":false,"bins":25,"density_birds_km3":14.67125,"heading_deg":225.40395440741491,"speed_ms":6.43521342762205,"peak_altitude_m":0.0,"u_ms":-4.111349578256795,"v_ms":-4.636270341654596}},{"type":"Feature","geometry":{"type":"Point","coordinates":[-74.4108,39.947]},"properties":{"site":"KDIX","name":"Philadelphia PA","scan_time":"2026-10-09T03:57:17Z","stale":false,"bins":25,"density_birds_km3":21.841875,"heading_deg":170.93516048263817,"speed_ms":11.278975019314961,"peak_altitude_m":0.0,"u_ms":1.7770014593527343,"v_ms":-11.131853664119951}},{"type":"Feature","geometry":{"type":"Point","coordinates":[-84.5658,33.3636]},"properties":{"site":"KFFC","name":"Atlanta GA","scan_time":"2026-10-09T03:58:59Z","stale":false,"bins":25,"density_birds_km3":222.21066666666667,"heading_deg":213.5914973407756,"speed_ms":8.520264823770836,"peak_altitude_m":800.0,"u_ms":-4.641108347634077,"v_ms":-6.977187443747075}},{"type":"Feature","geometry":{"type":"Point","coordinates":[-85.5449,42.8939]},"properties":{"site":"KGRR","name":"Grand Rapids MI","scan_time":"2026-10-09T04:03:51Z","stale":false,"bins":25,"density_birds_km3":17.674,"heading_deg":178.6859124438544,"speed_ms":8.296924847204405,"peak_altitude_m":800.0,"u_ms":-0.20280351618501474,"v_ms":-8.130272768429789}},{"type":"Feature","geometry":{"type":"Point","coordinates":[-83.8217,39.4203]},"properties":{"site":"KILN","name":"Wilmington OH","scan_time":"2026-10-09T04:01:30Z","stale":false,"bins":25,"density_birds_km3":50.76866666666667,"heading_deg":178.9021052555019,"speed_ms":6.4673247537754435,"peak_altitude_m":400.0,"u_ms":0.6900040709126721,"v_ms":-4.9023363099146415}},{"type":"Feature","geometry":{"type":"Point","coordinates":[-81.7019,30.4846]},"properties":{"site":"KJAX","name":"Jacksonville FL","scan_time":"2026-10-09T04:01:32Z","stale":false,"bins":25,"density_birds_km3":154.825,"heading_deg":214.01559708324854,"speed_ms":6.929229660609828,"peak_altitude_m":0.0,"u_ms":-3.6206942420339994,"v_ms":-5.176247653496643}},{"type":"Feature","geometry":{"type":"Point","coordinates":[-88.0847,41.6045]},"properties":{"site":"KLOT","name":"Chicago IL","scan_time":"2026-10-09T04:00:36Z","stale":false,"bins":25,"density_birds_km3":18.709999999999997,"heading_deg":195.05251351360562,"speed_ms":8.018897876282782,"peak_altitude_m":400.0,"u_ms":-0.5210860889395666,"v_ms":-5.922278363740023}},{"type":"Feature","geometry":{"type":"Point","coordinates":[-78.4292,33.9892]},"properties":{"site":"KLTX","name":"Wilmington NC","scan_time":"2026-10-09T03:59:33Z","stale":false,"bins":25,"density_birds_km3":11.185,"heading_deg":110.89578258865478,"speed_ms":3.4359899413243924,"peak_altitude_m":200.0,"u_ms":1.2866146968426935,"v_ms":-1.153829002514669}},{"type":"Feature","geometry":{"type":"Point","coordinates":[-77.4778,38.9753]},"properties":{"site":"KLWX","name":"Sterling VA","scan_time":"2026-10-09T04:00:48Z","stale":false,"bins":25,"density_birds_km3":59.10375,"heading_deg":198.18075288460477,"speed_ms":8.823435520541427,"peak_altitude_m":200.0,"u_ms":-2.601958970020621,"v_ms":-8.219085602495639}},{"type":"Feature","geometry":{"type":"Point","coordinates":[-76.8762,34.7759]},"properties":{"site":"KMHX","name":"Morehead City NC","scan_time":"2026-10-09T04:00:51Z","stale":false,"bins":25,"density_birds_km3":6.149375,"heading_deg":115.07155256018054,"speed_ms":5.7197712949786546,"peak_altitude_m":0.0,"u_ms":2.9192061394592392,"v_ms":-1.559954258995731}},{"type":"Feature","geometry":{"type":"Point","coordinates":[-80.6542,28.1133]},"properties":{"site":"KMLB","name":"Melbourne FL","scan_time":"2026-10-09T03:58:54Z","stale":false,"bins":25,"density_birds_km3":33.098749999999995,"heading_deg":171.76280272634312,"speed_ms":9.079407266135428,"peak_altitude_m":0.0,"u_ms":1.4053923864194269,"v_ms":-8.869470523811323}},{"type":"Feature","geometry":{"type":"Point","coordinates":[-86.5625,36.2472]},"properties":{"site":"KOHX","name":"Nashville TN","scan_time":"2026-10-09T04:00:01Z","stale":false,"bins":25,"density_birds_km3":60.052,"heading_deg":214.1898894856678,"speed_ms":10.019308710228913,"peak_altitude_m":200.0,"u_ms":-5.297857412464753,"v_ms":-8.112833211216946}},{"type":"Feature","geometry":{"type":"Point","coordinates":[-72.8639,40.8655]},"properties":{"site":"KOKX","name":"Upton NY","scan_time":"2026-10-09T04:02:58Z","stale":false,"bins":25,"density_birds_km3":16.541875,"heading_deg":177.64575563063357,"speed_ms":8.564812785733176,"peak_altitude_m":0.0,"u_ms":0.3719518645860883,"v_ms":-8.4664264933691}},{"type":"Feature","geometry":{"type":"Point","coordinates":[-80.2183,40.5317]},"properties":{"site":"KPBZ","name":"Pittsburgh PA","scan_time":"2026-10-09T04:01:01Z","stale":false,"bins":25,"density_birds_km3":28.927142857142858,"heading_deg":191.44952875602885,"speed_ms":7.649725171613412,"peak_altitude_m":600.0,"u_ms":-1.1616348955503975,"v_ms":-6.9939137735196795}},{"type":"Feature","geometry":{"type":"Point","coordinates":[-78.4899,35.6655]},"properties":{"site":"KRAX","name":"Raleigh NC","scan_time":"2026-10-09T04:01:56Z","stale":false,"bins":25,"density_birds_km3":92.15375,"heading_deg":138.6187747433006,"speed_ms":8.475611977753662,"peak_altitude_m":200.0,"u_ms":5.311745930548019,"v_ms":-6.164672612588172}},{"type":"Feature","geometry":{"type":"Point","coordinates":[-82.4017,27.7055]},"properties":{"site":"KTBW","name":"Tampa FL","scan_time":"2026-10-09T03:59:47Z","stale":false,"bins":25,"density_birds_km3":19.158125,"heading_deg":230.25316902007032,"speed_ms":6.301916677541434,"peak_altitude_m":0.0,"u_ms":-4.610270129192222,"v_ms":-3.70821903954065}}]}