{"type":"FeatureCollection","frame":"2026-08-28T09","site_count":20,"fresh_count":20,"failures":{},"features":[{"type":"Feature","geometry":{"type":"Point","coordinates":[-77.0073,36.984]},"properties":{"site":"KAKQ","name":"Wakefield VA","scan_time":"2026-08-28T09:01:54Z","stale":false,"bins":25,"density_birds_km3":2.395,"heading_deg":124.58329600514969,"speed_ms":4.249814718162839,"peak_altitude_m":400.0,"u_ms":3.153134133611691,"v_ms":-1.8997729645093946}},{"type":"Feature","geometry":{"type":"Point","coordinates":[-71.1369,41.9558]},"properties":{"site":"KBOX","name":"Boston MA","scan_time":"2026-08-28T09:00:04Z","stale":false,"bins":25,"density_birds_km3":0.38875,"heading_deg":10.354319674585973,"speed_ms":4.502135922330098,"peak_altitude_m":0.0,"u_ms":0.7965857605177994,"v_ms":4.230938511326861}},{"type":"Feature","geometry":{"type":"Point","coordinates":[-78.7369,42.9489]},"properties":{"site":"KBUF","name":"Buffalo NY","scan_time":"2026-08-28T08:57:44Z","stale":false,"bins":25,"density_birds_km3":3.539333333333333,"heading_deg":166.1198874924691,"speed_ms":9.052422301751744,"peak_altitude_m":400.0,"u_ms":2.011352420418158,"v_ms":-8.648788849124129}},{"type":"Feature","geometry":{"type":"Point","coordinates":[-81.8597,41.4131]},"properties":{"site":"KCLE","name":"Cleveland OH","scan_time":"2026-08-28T08:58:29Z","stale":false,"bins":25,"density_birds_km3":7.897333333333333,"heading_deg":217.65358104035923,"speed_ms":9.467935140613124,"peak_altitude_m":400.0,"u_ms":-5.8282374799425725,"v_ms":-7.448953635672662}},{"type":"Feature","geometry":{"type":"Point","coordinates":[-81.0423,32.6555]},"properties":{"site":"KCLX","name":"Charleston SC","scan_time":"2026-08-28T09:01:01Z","stale":false,"bins":25,"density_birds_km3":0.7025,"heading_deg":77.46240958293416,"speed_ms":5.887250453720508,"peak_altitude_m":0.0,"u_ms":5.727032667876588,"v_ms":1.1416152450090744}},{"type":"Feature","geometry":{"type":"Point","coordinates":[-74.4108,39.947]},"properties":{"site":"KDIX","name":"Philadelphia PA","scan_time":"2026-08-28T09:02:16Z","stale":false,"bins":25,"density_birds_km3":1.485625,"heading_deg":9.260241155433972,"speed_ms":2.9176367713004483,"peak_altitude_m":200.0,"u_ms":0.2548026905829597,"v_ms":1.293}},{"type":"Feature","geometry":{"type":"Point","coordinates":[-84.5658,33.3636]},"properties":{"site":"KFFC","name":"Atlanta GA","scan_time":"2026-08-28T09:00:05Z","stale":false,"bins":25,"density_birds_km3":18.444666666666667,"heading_deg":154.46601647604973,"speed_ms":5.056833773087071,"peak_altitude_m":400.0,"u_ms":2.4319828676762927,"v_ms":-4.029409404705968}},{"type":"Feature","geometry":{"type":"Point","coordinates":[-85.5449,42.8939]},"properties":{"site":"KGRR","name":"Grand Rapids MI","scan_time":"2026-08-28T09:03:23Z","stale":false,"bins":25,"density_birds_km3":37.18066666666667,"heading_deg":238.76898664460043,"speed_ms":11.200354312354312,"peak_altitude_m":200.0,"u_ms":-9.503614488076025,"v_ms":-5.801675632060247}},{"type":"Feature","geometry":{"type":"Point","coordinates":[-83.8217,39.4203]},"properties":{"site":"KILN","name":"Wilmington OH","scan_time":"2026-08-28T09:01:19Z","stale":false,"bins":25,"density_birds_km3":37.873333333333335,"heading_deg":202.60335360710158,"speed_ms":7.835731159892268,"peak_altitude_m":400.0,"u_ms":-2.872621331878114,"v_ms":-7.048260425651769}},{"type":"Feature","geometry":{"type":"Point","coordinates":[-81.7019,30.4846]},"properties":{"site":"KJAX","name":"Jacksonville FL","scan_time":"2026-08-28T08:58:24Z","stale":false,"bins":25,"density_birds_km3":9.416875000000001,"heading_deg":161.96948933377485,"speed_ms":4.737168746680829,"peak_altitude_m":0.0,"u_ms":1.291465746149761,"v_ms":-4.274514737121614}},{"type":"Feature","geometry":{"type":"Point","coordinates":[-88.0847,41.6045]},"properties":{"site":"KLOT","name":"Chicago IL","scan_time":"2026-08-28T09:00:54Z","stale":false,"bins":25,"density_birds_km3":9.258000000000001,"heading_deg":233.22533162077298,"speed_ms":7.356276373586808,"peak_altitude_m":400.0,"u_ms":-3.0282047958522362,"v_ms":-3.199457046158277}},{"type":"Feature","geometry":{"type":"Point","coordinates":[-78.4292,33.9892]},"properties":{"site":"KLTX","name":"Wilmington NC","scan_time":"2026-08-28T08:58:12Z","stale":false,"bins":25,"density_birds_km3":1.445,"heading_deg":103.70781118518815,"speed_ms":4.331242603550296,"peak_altitude_m":200.0,"u_ms":3.9720611439842206,"v_ms":-0.8899999999999999}},{"type":"Feature","geometry":{"type":"Point","coordinates":[-77.4778,38.9753]},"properties":{"site":"KLWX","name":"Sterling VA","scan_time":"2026-08-28T08:59:27Z","stale":false,"bins":25,"density_birds_km3":8.706875,"heading_deg":202.41320627305842,"speed_ms":5.283347460670928,"peak_altitude_m":200.0,"u_ms":-2.054389052510595,"v_ms":-4.7418339199770125}},{"type":"Feature","geometry":{"type":"Point","coordinates":[-76.8762,34.7759]},"properties":{"site":"KMHX","name":"Morehead City NC","scan_time":"2026-08-28T08:58:16Z","stale":false,"bins":25,"density_birds_km3":0.3875,"heading_deg":61.44376475714983,"speed_ms":6.042903225806452,"peak_altitude_m":200.0,"u_ms":5.313154121863799,"v_ms":2.836344086021505}},{"type":"Feature","geometry":{"type":"Point","coordinates":[-80.6542,28.1133]},"properties":{"site":"KMLB","name":"Melbourne FL","scan_time":"2026-08-28T08:58:01Z","stale":false,"bins":25,"density_birds_km3":3.025,"heading_deg":24.36042836891688,"speed_ms":1.3612975206611573,"peak_altitude_m":0.0,"u_ms":0.5329793388429753,"v_ms":1.2005495867768596}},{"type":"Feature","geometry":{"type":"Point","coordinates":[-86.5625,36.2472]},"properties":{"site":"KOHX","name":"Nashville TN","scan_time":"2026-08-28T09:00:16Z","stale":false,"bins":25,"density_birds_km3":29.796666666666667,"heading_deg":202.42817204135815,"speed_ms":6.650948287441236,"peak_altitude_m":400.0,"u_ms":-2.6630555182449074,"v_ms":-5.857855383926573}},{"type":"Feature","geometry":{"type":"Point","coordinates":[-72.8639,40.8655]},"properties":{"site":"KOKX","name":"Upton NY","scan_time":"2026-08-28T09:01:36Z","stale":false,"bins":25,"density_birds_km3":0.595,"heading_deg":299.5369624901657,"speed_ms":3.7452380952380953,"peak_altitude_m":0.0,"u_ms":-3.176147186147186,"v_ms":1.789642857142857}},{"type":"Feature","geometry":{"type":"Point","coordinates":[-80.2183,40.5317]},"properties":{"site":"KPBZ","name":"Pittsburgh PA","scan_time":"2026-08-28T08:57:59Z","stale":false,"bins":25,"density_birds_km3":21.511428571428574,"heading_deg":214.68131867940423,"speed_ms":8.111102721043178,"peak_altitude_m":600.0,"u_ms":-4.7369366642272634,"v_ms":-6.420861220145034}},{"type":"Feature","geometry":{"type":"Point","coordinates":[-78.4899,35.6655]},"properties":{"site":"KRAX","name":"Raleigh NC","scan_time":"2026-08-28T08:58:03Z","stale":false,"bins":25,"density_birds_km3":1.1125,"heading_deg":123.32378019896703,"speed_ms":3.235984251968504,"peak_altitude_m":0.0,"u_ms":2.5160011248593923,"v_ms":-1.900320584926884}},{"type":"Feature","geometry":{"type":"Point","coordinates":[-82.4017,27.7055]},"properties":{"site":"KTBW","name":"Tampa FL","scan_time":"2026-08-28T09:00:54Z","stale":false,"bins":25,"density_birds_km3":1.61375,"heading_deg":327.7867525806082,"speed_ms":5.417640667442763,"peak_altitude_m":0.0,"u_ms":-2.912223515715949,"v_ms":4.454881645324019}}]}