{"type":"FeatureCollection","frame":"2026-09-17T03","site_count":20,"fresh_count":20,"failures":{},"features":[{"type":"Feature","geometry":{"type":"Point","coordinates":[-77.0073,36.984]},"properties":{"site":"KAKQ","name":"Wakefield VA","scan_time":"2026-09-17T02:59:17Z","stale":false,"bins":25,"density_birds_km3":5.1125,"heading_deg":7.648894193319547,"speed_ms":6.201716637994593,"peak_altitude_m":0.0,"u_ms":-0.0658503317768493,"v_ms":3.8511956254608015}},{"type":"Feature","geometry":{"type":"Point","coordinates":[-71.1369,41.9558]},"properties":{"site":"KBOX","name":"Boston MA","scan_time":"2026-09-17T03:03:16Z","stale":false,"bins":25,"density_birds_km3":2.870625,"heading_deg":121.17158306307797,"speed_ms":7.111716027874564,"peak_altitude_m":0.0,"u_ms":5.836489547038327,"v_ms":-3.6384451219512197}},{"type":"Feature","geometry":{"type":"Point","coordinates":[-78.7369,42.9489]},"properties":{"site":"KBUF","name":"Buffalo NY","scan_time":"2026-09-17T02:59:23Z","stale":false,"bins":25,"density_birds_km3":64.41466666666666,"heading_deg":217.23047524587113,"speed_ms":7.374350251495518,"peak_altitude_m":400.0,"u_ms":-4.3251324750056925,"v_ms":-5.727093001593841}},{"type":"Feature","geometry":{"type":"Point","coordinates":[-81.8597,41.4131]},"properties":{"site":"KCLE","name":"Cleveland OH","scan_time":"2026-09-17T02:58:14Z","stale":false,"bins":25,"density_birds_km3":43.806666666666665,"heading_deg":268.2112062124481,"speed_ms":7.14471659024784,"peak_altitude_m":600.0,"u_ms":-5.81488765670937,"v_ms":-0.471422151811964}},{"type":"Feature","geometry":{"type":"Point","coordinates":[-81.0423,32.6555]},"properties":{"site":"KCLX","name":"Charleston SC","scan_time":"2026-09-17T02:58:55Z","stale":false,"bins":25,"density_birds_km3":28.585,"heading_deg":223.4289175576365,"speed_ms":10.56239350868356,"peak_altitude_m":0.0,"u_ms":-6.725396509055868,"v_ms":-7.624825124285494}},{"type":"Feature","geometry":{"type":"Point","coordinates":[-74.4108,39.947]},"properties":{"site":"KDIX","name":"Philadelphia PA","scan_time":"2026-09-17T02:58:24Z","stale":false,"bins":25,"density_birds_km3":1.765,"heading_deg":50.70632846891191,"speed_ms":7.728214413768376,"peak_altitude_m":200.0,"u_ms":5.50373610613123,"v_ms":4.827307278594478}},{"type":"Feature","geometry":{"type":"Point","coordinates":[-84.5658,33.3636]},"properties":{"site":"KFFC","name":"Atlanta GA","scan_time":"2026-09-17T02:58:51Z","stale":false,"bins":25,"density_birds_km3":36.77733333333333,"heading_deg":241.50522994087453,"speed_ms":9.583895334082587,"peak_altitude_m":400.0,"u_ms":-7.596783344813835,"v_ms":-4.838118406264728}},{"type":"Feature","geometry":{"type":"Point","coordinates":[-85.5449,42.8939]},"properties":{"site":"KGRR","name":"Grand Rapids MI","scan_time":"2026-09-17T02:59:15Z","stale":false,"bins":25,"density_birds_km3":48.426,"heading_deg":257.1496770523873,"speed_ms":8.47528241890837,"peak_altitude_m":400.0,"u_ms":-7.318624458797644,"v_ms":-1.3194492157001916}},{"type":"Feature","geometry":{"type":"Point","coordinates":[-83.8217,39.4203]},"properties":{"site":"KILN","name":"Wilmington OH","scan_time":"2026-09-17T03:00:46Z","stale":false,"bins":25,"density_birds_km3":32.10933333333333,"heading_deg":119.3495355332265,"speed_ms":7.02424238020098,"peak_altitude_m":200.0,"u_ms":5.812314176563409,"v_ms":-2.0539371729922764}},{"type":"Feature","geometry":{"type":"Point","coordinates":[-81.7019,30.4846]},"properties":{"site":"KJAX","name":"Jacksonville FL","scan_time":"2026-09-17T02:59:40Z","stale":false,"bins":25,"density_birds_km3":110.496875,"heading_deg":190.4300572376781,"speed_ms":11.354413197457141,"peak_altitude_m":0.0,"u_ms":-2.1050017296426726,"v_ms":-11.128001950810097}},{"type":"Feature","geometry":{"type":"Point","coordinates":[-88.0847,41.6045]},"properties":{"site":"KLOT","name":"Chicago IL","scan_time":"2026-09-17T03:00:46Z","stale":false,"bins":25,"density_birds_km3":20.507333333333335,"heading_deg":205.84940834488367,"speed_ms":6.0118302943005855,"peak_altitude_m":200.0,"u_ms":-1.3051049202867713,"v_ms":-2.8950148950797123}},{"type":"Feature","geometry":{"type":"Point","coordinates":[-78.4292,33.9892]},"properties":{"site":"KLTX","name":"Wilmington NC","scan_time":"2026-09-17T02:57:35Z","stale":false,"bins":25,"density_birds_km3":6.429375,"heading_deg":241.05098707928846,"speed_ms":7.540298245614036,"peak_altitude_m":0.0,"u_ms":-5.48041812865497,"v_ms":-3.5785740740740737}},{"type":"Feature","geometry":{"type":"Point","coordinates":[-77.4778,38.9753]},"properties":{"site":"KLWX","name":"Sterling VA","scan_time":"2026-09-17T03:00:57Z","stale":false,"bins":25,"density_birds_km3":7.003125,"heading_deg":35.34065144698033,"speed_ms":8.203390835579516,"peak_altitude_m":200.0,"u_ms":3.271061994609165,"v_ms":5.00897124887691}},{"type":"Feature","geometry":{"type":"Point","coordinates":[-76.8762,34.7759]},"properties":{"site":"KMHX","name":"Morehead City NC","scan_time":"2026-09-17T02:56:46Z","stale":false,"bins":25,"density_birds_km3":4.738125,"heading_deg":231.4398222179261,"speed_ms":4.306731301939058,"peak_altitude_m":0.0,"u_ms":-2.7720353515367364,"v_ms":-2.1511317768104474}},{"type":"Feature","geometry":{"type":"Point","coordinates":[-80.6542,28.1133]},"properties":{"site":"KMLB","name":"Melbourne FL","scan_time":"2026-09-17T02:58:37Z","stale":false,"bins":25,"density_birds_km3":13.34,"heading_deg":192.2987816446939,"speed_ms":7.280588097469541,"peak_altitude_m":0.0,"u_ms":-1.5725271790065605,"v_ms":-7.032067478912841}},{"type":"Feature","geometry":{"type":"Point","coordinates":[-86.5625,36.2472]},"properties":{"site":"KOHX","name":"Nashville TN","scan_time":"2026-09-17T03:01:10Z","stale":false,"bins":25,"density_birds_km3":21.447333333333333,"heading_deg":308.9536412252916,"speed_ms":5.620689440800722,"peak_altitude_m":200.0,"u_ms":-3.8975334928973298,"v_ms":2.613297379627615}},{"type":"Feature","geometry":{"type":"Point","coordinates":[-72.8639,40.8655]},"properties":{"site":"KOKX","name":"Upton NY","scan_time":"2026-09-17T02:59:43Z","stale":false,"bins":25,"density_birds_km3":0.381875,"heading_deg":70.4942774690226,"speed_ms":6.954828150572831,"peak_altitude_m":200.0,"u_ms":5.479885433715221,"v_ms":2.004009819967267}},{"type":"Feature","geometry":{"type":"Point","coordinates":[-80.2183,40.5317]},"properties":{"site":"KPBZ","name":"Pittsburgh PA","scan_time":"2026-09-17T03:01:26Z","stale":false,"bins":25,"density_birds_km3":30.970714285714283,"heading_deg":133.28314620983366,"speed_ms":4.487861113033049,"peak_altitude_m":600.0,"u_ms":2.8688581378721834,"v_ms":-2.3869032957402156}},{"type":"Feature","geometry":{"type":"Point","coordinates":[-78.4899,35.6655]},"properties":{"site":"KRAX","name":"Raleigh NC","scan_time":"2026-09-17T02:59:34Z","stale":false,"bins":25,"density_birds_km3":16.131875,"heading_deg":266.36804903083504,"speed_ms":4.294232746105858,"peak_altitude_m":0.0,"u_ms":-1.9985137521089182,"v_ms":-0.5002361988464707}},{"type":"Feature","geometry":{"type":"Point","coordinates":[-82.4017,27.7055]},"properties":{"site":"KTBW","name":"Tampa FL","scan_time":"2026-09-17T03:00:48Z","stale":false,"bins":25,"density_birds_km3":35.25875,"heading_deg":194.8982492282211,"speed_ms":11.249107136526396,"peak_altitude_m":0.0,"u_ms":-3.133690041479066,"v_ms":-10.452662282412168}}]}