{"type":"FeatureCollection","frame":"2026-09-04T11","site_count":20,"fresh_count":20,"failures":{},"features":[{"type":"Feature","geometry":{"type":"Point","coordinates":[-77.0073,36.984]},"properties":{"site":"KAKQ","name":"Wakefield VA","scan_time":"2026-09-04T11:04:20Z","stale":false,"bins":25,"density_birds_km3":0.41125,"heading_deg":87.4604034558817,"speed_ms":9.229555895865236,"peak_altitude_m":0.0,"u_ms":8.01050535987749,"v_ms":-1.4385451761102601}},{"type":"Feature","geometry":{"type":"Point","coordinates":[-71.1369,41.9558]},"properties":{"site":"KBOX","name":"Boston MA","scan_time":"2026-09-04T10:59:48Z","stale":false,"bins":25,"density_birds_km3":7.491875,"heading_deg":159.68914282975342,"speed_ms":6.733392291006174,"peak_altitude_m":0.0,"u_ms":2.419799766394126,"v_ms":-6.246122976806274}},{"type":"Feature","geometry":{"type":"Point","coordinates":[-78.7369,42.9489]},"properties":{"site":"KBUF","name":"Buffalo NY","scan_time":"2026-09-04T11:03:07Z","stale":false,"bins":25,"density_birds_km3":10.513333333333332,"heading_deg":168.9866562638663,"speed_ms":7.168788839568802,"peak_altitude_m":400.0,"u_ms":1.2794762206721624,"v_ms":-6.911058972733038}},{"type":"Feature","geometry":{"type":"Point","coordinates":[-81.8597,41.4131]},"properties":{"site":"KCLE","name":"Cleveland OH","scan_time":"2026-09-04T10:57:44Z","stale":false,"bins":25,"density_birds_km3":9.438666666666666,"heading_deg":106.29068697518686,"speed_ms":4.683139567735556,"peak_altitude_m":200.0,"u_ms":2.578583839525357,"v_ms":-3.3270327729905356}},{"type":"Feature","geometry":{"type":"Point","coordinates":[-81.0423,32.6555]},"properties":{"site":"KCLX","name":"Charleston SC","scan_time":"2026-09-04T10:58:11Z","stale":false,"bins":25,"density_birds_km3":2.4881249999999997,"heading_deg":223.36364439577304,"speed_ms":2.2280578616352202,"peak_altitude_m":0.0,"u_ms":-1.0722591194968552,"v_ms":-1.5054339622641508}},{"type":"Feature","geometry":{"type":"Point","coordinates":[-74.4108,39.947]},"properties":{"site":"KDIX","name":"Philadelphia PA","scan_time":"2026-09-04T10:59:57Z","stale":false,"bins":25,"density_birds_km3":8.334999999999999,"heading_deg":158.74446193812065,"speed_ms":13.31383802024747,"peak_altitude_m":600.0,"u_ms":4.6656685414323205,"v_ms":-12.374329208848895}},{"type":"Feature","geometry":{"type":"Point","coordinates":[-84.5658,33.3636]},"properties":{"site":"KFFC","name":"Atlanta GA","scan_time":"2026-09-04T11:01:54Z","stale":false,"bins":25,"density_birds_km3":10.527333333333333,"heading_deg":260.02078320518825,"speed_ms":4.777010322335508,"peak_altitude_m":200.0,"u_ms":-4.651595845734913,"v_ms":-0.8660965106706352}},{"type":"Feature","geometry":{"type":"Point","coordinates":[-85.5449,42.8939]},"properties":{"site":"KGRR","name":"Grand Rapids MI","scan_time":"2026-09-04T11:02:06Z","stale":false,"bins":25,"density_birds_km3":null,"heading_deg":null,"speed_ms":null,"peak_altitude_m":null,"u_ms":null,"v_ms":null}},{"type":"Feature","geometry":{"type":"Point","coordinates":[-83.8217,39.4203]},"properties":{"site":"KILN","name":"Wilmington OH","scan_time":"2026-09-04T11:01:04Z","stale":false,"bins":25,"density_birds_km3":7.393333333333333,"heading_deg":99.65350207528708,"speed_ms":8.574801118426986,"peak_altitude_m":200.0,"u_ms":8.364789392982772,"v_ms":-1.5520573644809235}},{"type":"Feature","geometry":{"type":"Point","coordinates":[-81.7019,30.4846]},"properties":{"site":"KJAX","name":"Jacksonville FL","scan_time":"2026-09-04T10:59:13Z","stale":false,"bins":25,"density_birds_km3":1.09375,"heading_deg":270.80177952819406,"speed_ms":1.8125885714285714,"peak_altitude_m":0.0,"u_ms":-0.7448228571428571,"v_ms":-0.4798800000000001}},{"type":"Feature","geometry":{"type":"Point","coordinates":[-88.0847,41.6045]},"properties":{"site":"KLOT","name":"Chicago IL","scan_time":"2026-09-04T10:59:30Z","stale":false,"bins":25,"density_birds_km3":0.6706666666666667,"heading_deg":68.86407478095197,"speed_ms":12.555464535464536,"peak_altitude_m":200.0,"u_ms":11.711458541458542,"v_ms":4.4527972027972025}},{"type":"Feature","geometry":{"type":"Point","coordinates":[-78.4292,33.9892]},"properties":{"site":"KLTX","name":"Wilmington NC","scan_time":"2026-09-04T11:01:20Z","stale":false,"bins":25,"density_birds_km3":1.069375,"heading_deg":93.04424920208818,"speed_ms":1.917323151125402,"peak_altitude_m":0.0,"u_ms":1.3576527331189714,"v_ms":0.12482315112540199}},{"type":"Feature","geometry":{"type":"Point","coordinates":[-77.4778,38.9753]},"properties":{"site":"KLWX","name":"Sterling VA","scan_time":"2026-09-04T10:58:51Z","stale":false,"bins":25,"density_birds_km3":6.16375,"heading_deg":158.95415371847457,"speed_ms":9.285110029408782,"peak_altitude_m":0.0,"u_ms":4.951332522056586,"v_ms":-7.24664131426833}},{"type":"Feature","geometry":{"type":"Point","coordinates":[-76.8762,34.7759]},"properties":{"site":"KMHX","name":"Morehead City NC","scan_time":"2026-09-04T11:03:05Z","stale":false,"bins":25,"density_birds_km3":1.3125,"heading_deg":125.81598347287121,"speed_ms":5.579098712446353,"peak_altitude_m":0.0,"u_ms":3.271964711492609,"v_ms":-1.7135288507391515}},{"type":"Feature","geometry":{"type":"Point","coordinates":[-80.6542,28.1133]},"properties":{"site":"KMLB","name":"Melbourne FL","scan_time":"2026-09-04T11:00:43Z","stale":false,"bins":25,"density_birds_km3":2.645625,"heading_deg":13.604081589121051,"speed_ms":5.141424521615876,"peak_altitude_m":0.0,"u_ms":1.2142452161587527,"v_ms":4.985388613276636}},{"type":"Feature","geometry":{"type":"Point","coordinates":[-86.5625,36.2472]},"properties":{"site":"KOHX","name":"Nashville TN","scan_time":"2026-09-04T11:01:05Z","stale":false,"bins":25,"density_birds_km3":1.6306666666666667,"heading_deg":46.595428900771054,"speed_ms":2.4888206388206386,"peak_altitude_m":400.0,"u_ms":1.715004095004095,"v_ms":1.5919492219492222}},{"type":"Feature","geometry":{"type":"Point","coordinates":[-72.8639,40.8655]},"properties":{"site":"KOKX","name":"Upton NY","scan_time":"2026-09-04T11:00:12Z","stale":false,"bins":25,"density_birds_km3":6.141875,"heading_deg":153.03540066962267,"speed_ms":7.097807187213681,"peak_altitude_m":0.0,"u_ms":3.0866792222335335,"v_ms":-6.348652142929859}},{"type":"Feature","geometry":{"type":"Point","coordinates":[-80.2183,40.5317]},"properties":{"site":"KPBZ","name":"Pittsburgh PA","scan_time":"2026-09-04T10:57:55Z","stale":false,"bins":25,"density_birds_km3":5.642857142857143,"heading_deg":140.13656484737896,"speed_ms":7.229517721518987,"peak_altitude_m":400.0,"u_ms":4.781044303797469,"v_ms":-5.188311392405064}},{"type":"Feature","geometry":{"type":"Point","coordinates":[-78.4899,35.6655]},"properties":{"site":"KRAX","name":"Raleigh NC","scan_time":"2026-09-04T11:00:53Z","stale":false,"bins":25,"density_birds_km3":1.32125,"heading_deg":89.55877860886358,"speed_ms":5.770719356365357,"peak_altitude_m":0.0,"u_ms":5.614718409843824,"v_ms":0.0012494084240416176}},{"type":"Feature","geometry":{"type":"Point","coordinates":[-82.4017,27.7055]},"properties":{"site":"KTBW","name":"Tampa FL","scan_time":"2026-09-04T11:00:08Z","stale":false,"bins":25,"density_birds_km3":1.3712499999999999,"heading_deg":0.4284322601460265,"speed_ms":5.949826800364632,"peak_altitude_m":0.0,"u_ms":0.07931175934366456,"v_ms":5.906494986326345}}]}