{"type":"FeatureCollection","frame":"2026-10-03T08","site_count":20,"fresh_count":18,"failures":{"KLWX":"RuntimeError('no scan within 20 min of 2026-10-03T08:00Z')","KILN":"RuntimeError('no scan within 20 min of 2026-10-03T08:00Z')"},"features":[{"type":"Feature","geometry":{"type":"Point","coordinates":[-77.0073,36.984]},"properties":{"site":"KAKQ","name":"Wakefield VA","scan_time":"2026-10-03T08:01:17Z","stale":false,"bins":25,"density_birds_km3":42.15125,"heading_deg":194.23782433808614,"speed_ms":10.928711021485446,"peak_altitude_m":200.0,"u_ms":-2.628274195222491,"v_ms":-10.203974288637475}},{"type":"Feature","geometry":{"type":"Point","coordinates":[-71.1369,41.9558]},"properties":{"site":"KBOX","name":"Boston MA","scan_time":"2026-10-03T07:59:00Z","stale":false,"bins":25,"density_birds_km3":29.774375,"heading_deg":190.8132894342651,"speed_ms":15.795446338595902,"peak_altitude_m":400.0,"u_ms":-3.1130926687940876,"v_ms":-15.418135917030567}},{"type":"Feature","geometry":{"type":"Point","coordinates":[-78.7369,42.9489]},"properties":{"site":"KBUF","name":"Buffalo NY","scan_time":"2026-10-03T07:56:03Z","stale":false,"bins":25,"density_birds_km3":57.63733333333333,"heading_deg":213.31912947567596,"speed_ms":12.17827507633941,"peak_altitude_m":200.0,"u_ms":-6.720942444711761,"v_ms":-10.071095354862589}},{"type":"Feature","geometry":{"type":"Point","coordinates":[-81.8597,41.4131]},"properties":{"site":"KCLE","name":"Cleveland OH","scan_time":"2026-10-03T07:57:52Z","stale":false,"bins":25,"density_birds_km3":50.39533333333333,"heading_deg":212.35525686323288,"speed_ms":13.802939277682233,"peak_altitude_m":200.0,"u_ms":-7.427407593597037,"v_ms":-11.621266172774178}},{"type":"Feature","geometry":{"type":"Point","coordinates":[-81.0423,32.6555]},"properties":{"site":"KCLX","name":"Charleston SC","scan_time":"2026-10-03T08:00:12Z","stale":false,"bins":25,"density_birds_km3":4.14375,"heading_deg":134.3968975622546,"speed_ms":2.7456071805702216,"peak_altitude_m":0.0,"u_ms":1.29419671141952,"v_ms":-1.01745662995927}},{"type":"Feature","geometry":{"type":"Point","coordinates":[-74.4108,39.947]},"properties":{"site":"KDIX","name":"Philadelphia PA","scan_time":"2026-10-03T08:00:16Z","stale":false,"bins":25,"density_birds_km3":68.33,"heading_deg":198.01698076455665,"speed_ms":12.865403360093142,"peak_altitude_m":400.0,"u_ms":-3.849114218798652,"v_ms":-11.702444528679925}},{"type":"Feature","geometry":{"type":"Point","coordinates":[-84.5658,33.3636]},"properties":{"site":"KFFC","name":"Atlanta GA","scan_time":"2026-10-03T07:58:44Z","stale":false,"bins":25,"density_birds_km3":20.247333333333334,"heading_deg":120.87564827369226,"speed_ms":5.029690473838453,"peak_altitude_m":400.0,"u_ms":3.198473114030755,"v_ms":-2.082720537390102}},{"type":"Feature","geometry":{"type":"Point","coordinates":[-85.5449,42.8939]},"properties":{"site":"KGRR","name":"Grand Rapids MI","scan_time":"2026-10-03T07:59:39Z","stale":false,"bins":25,"density_birds_km3":28.562666666666665,"heading_deg":236.95078820848585,"speed_ms":13.374755146818542,"peak_altitude_m":200.0,"u_ms":-11.161283553522244,"v_ms":-7.133187526259278}},{"type":"Feature","geometry":{"type":"Point","coordinates":[-81.7019,30.4846]},"properties":{"site":"KJAX","name":"Jacksonville FL","scan_time":"2026-10-03T07:59:48Z","stale":false,"bins":25,"density_birds_km3":1.87375,"heading_deg":268.23679130084525,"speed_ms":4.494010677344011,"peak_altitude_m":0.0,"u_ms":-4.332809476142809,"v_ms":-0.04779446112779444}},{"type":"Feature","geometry":{"type":"Point","coordinates":[-88.0847,41.6045]},"properties":{"site":"KLOT","name":"Chicago IL","scan_time":"2026-10-03T07:58:59Z","stale":false,"bins":25,"density_birds_km3":38.406666666666666,"heading_deg":224.97271331711022,"speed_ms":12.363656136087485,"peak_altitude_m":200.0,"u_ms":-8.607908869987849,"v_ms":-8.544907134178093}},{"type":"Feature","geometry":{"type":"Point","coordinates":[-78.4292,33.9892]},"properties":{"site":"KLTX","name":"Wilmington NC","scan_time":"2026-10-03T08:01:59Z","stale":false,"bins":25,"density_birds_km3":3.296875,"heading_deg":110.884104276715,"speed_ms":7.161240045506257,"peak_altitude_m":0.0,"u_ms":6.40242131209708,"v_ms":-2.4530697762609024}},{"type":"Feature","geometry":{"type":"Point","coordinates":[-76.8762,34.7759]},"properties":{"site":"KMHX","name":"Morehead City NC","scan_time":"2026-10-03T07:59:33Z","stale":false,"bins":25,"density_birds_km3":5.629375,"heading_deg":119.40825135085849,"speed_ms":10.512291875069467,"peak_altitude_m":0.0,"u_ms":7.861315994220296,"v_ms":-5.4904001333777925}},{"type":"Feature","geometry":{"type":"Point","coordinates":[-80.6542,28.1133]},"properties":{"site":"KMLB","name":"Melbourne FL","scan_time":"2026-10-03T07:59:52Z","stale":false,"bins":25,"density_birds_km3":1.888125,"heading_deg":null,"speed_ms":null,"peak_altitude_m":200.0,"u_ms":null,"v_ms":null}},{"type":"Feature","geometry":{"type":"Point","coordinates":[-86.5625,36.2472]},"properties":{"site":"KOHX","name":"Nashville TN","scan_time":"2026-10-03T07:58:54Z","stale":false,"bins":25,"density_birds_km3":116.24666666666667,"heading_deg":181.01483966759275,"speed_ms":9.857748752652405,"peak_altitude_m":600.0,"u_ms":0.02511389573894585,"v_ms":-9.33417147445088}},{"type":"Feature","geometry":{"type":"Point","coordinates":[-72.8639,40.8655]},"properties":{"site":"KOKX","name":"Upton NY","scan_time":"2026-10-03T08:00:01Z","stale":false,"bins":25,"density_birds_km3":31.47375,"heading_deg":206.36092797020115,"speed_ms":13.532091297685296,"peak_altitude_m":0.0,"u_ms":-6.184378578917655,"v_ms":-11.65180740382289}},{"type":"Feature","geometry":{"type":"Point","coordinates":[-80.2183,40.5317]},"properties":{"site":"KPBZ","name":"Pittsburgh PA","scan_time":"2026-10-03T07:59:20Z","stale":false,"bins":25,"density_birds_km3":92.62142857142858,"heading_deg":214.66654930667093,"speed_ms":16.413720212848,"peak_altitude_m":600.0,"u_ms":-9.430857792858795,"v_ms":-13.330506208066629}},{"type":"Feature","geometry":{"type":"Point","coordinates":[-78.4899,35.6655]},"properties":{"site":"KRAX","name":"Raleigh NC","scan_time":"2026-10-03T08:01:38Z","stale":false,"bins":25,"density_birds_km3":13.898125,"heading_deg":103.93042634079319,"speed_ms":8.201611873172926,"peak_altitude_m":0.0,"u_ms":7.928264897683832,"v_ms":-1.8037841241286263}},{"type":"Feature","geometry":{"type":"Point","coordinates":[-82.4017,27.7055]},"properties":{"site":"KTBW","name":"Tampa FL","scan_time":"2026-10-03T07:57:37Z","stale":false,"bins":25,"density_birds_km3":4.559375,"heading_deg":290.4889528577654,"speed_ms":7.243531669865644,"peak_altitude_m":0.0,"u_ms":-6.525793803125857,"v_ms":2.845309843707157}}]}