{"type":"FeatureCollection","frame":"2026-08-23T00","site_count":20,"fresh_count":20,"failures":{},"features":[{"type":"Feature","geometry":{"type":"Point","coordinates":[-77.0073,36.984]},"properties":{"site":"KAKQ","name":"Wakefield VA","scan_time":"2026-08-22T23:58:51Z","stale":false,"bins":25,"density_birds_km3":8.051874999999999,"heading_deg":326.7177260946563,"speed_ms":2.9002430501630685,"peak_altitude_m":0.0,"u_ms":-1.572738002795465,"v_ms":2.4117440596365896}},{"type":"Feature","geometry":{"type":"Point","coordinates":[-71.1369,41.9558]},"properties":{"site":"KBOX","name":"Boston MA","scan_time":"2026-08-23T00:00:45Z","stale":false,"bins":25,"density_birds_km3":0.745,"heading_deg":229.4875756596678,"speed_ms":5.05649727767695,"peak_altitude_m":0.0,"u_ms":-3.8073321234119777,"v_ms":-3.2304174228675135}},{"type":"Feature","geometry":{"type":"Point","coordinates":[-78.7369,42.9489]},"properties":{"site":"KBUF","name":"Buffalo NY","scan_time":"2026-08-23T00:00:16Z","stale":false,"bins":25,"density_birds_km3":0.778,"heading_deg":190.57613826758245,"speed_ms":3.7223691460055095,"peak_altitude_m":200.0,"u_ms":-0.7526629935720844,"v_ms":-3.3287878787878786}},{"type":"Feature","geometry":{"type":"Point","coordinates":[-81.8597,41.4131]},"properties":{"site":"KCLE","name":"Cleveland OH","scan_time":"2026-08-22T23:58:12Z","stale":false,"bins":25,"density_birds_km3":1.32,"heading_deg":92.47831581474732,"speed_ms":5.2111363636363635,"peak_altitude_m":200.0,"u_ms":4.940237373737373,"v_ms":-0.428590909090909}},{"type":"Feature","geometry":{"type":"Point","coordinates":[-81.0423,32.6555]},"properties":{"site":"KCLX","name":"Charleston SC","scan_time":"2026-08-22T23:57:55Z","stale":false,"bins":25,"density_birds_km3":1.768125,"heading_deg":146.73937549727083,"speed_ms":5.544127266263774,"peak_altitude_m":0.0,"u_ms":2.7512477781727696,"v_ms":-4.518229648062567}},{"type":"Feature","geometry":{"type":"Point","coordinates":[-74.4108,39.947]},"properties":{"site":"KDIX","name":"Philadelphia PA","scan_time":"2026-08-23T00:00:31Z","stale":false,"bins":25,"density_birds_km3":5.19125,"heading_deg":323.6306616693992,"speed_ms":5.333527570431014,"peak_altitude_m":200.0,"u_ms":-3.135060197447628,"v_ms":4.309553334938599}},{"type":"Feature","geometry":{"type":"Point","coordinates":[-84.5658,33.3636]},"properties":{"site":"KFFC","name":"Atlanta GA","scan_time":"2026-08-22T23:59:18Z","stale":false,"bins":25,"density_birds_km3":1.2293333333333334,"heading_deg":149.84774522703944,"speed_ms":6.606887201735357,"peak_altitude_m":200.0,"u_ms":3.073275488069414,"v_ms":-5.626382863340564}},{"type":"Feature","geometry":{"type":"Point","coordinates":[-85.5449,42.8939]},"properties":{"site":"KGRR","name":"Grand Rapids MI","scan_time":"2026-08-22T23:58:39Z","stale":false,"bins":25,"density_birds_km3":0.7646666666666666,"heading_deg":131.98456532510298,"speed_ms":8.724864864864864,"peak_altitude_m":200.0,"u_ms":6.407567567567568,"v_ms":-5.879145597210113}},{"type":"Feature","geometry":{"type":"Point","coordinates":[-83.8217,39.4203]},"properties":{"site":"KILN","name":"Wilmington OH","scan_time":"2026-08-23T00:00:17Z","stale":false,"bins":25,"density_birds_km3":2.318,"heading_deg":132.27412304753034,"speed_ms":11.922815577439572,"peak_altitude_m":600.0,"u_ms":8.604104744852284,"v_ms":-8.16683527305282}},{"type":"Feature","geometry":{"type":"Point","coordinates":[-81.7019,30.4846]},"properties":{"site":"KJAX","name":"Jacksonville FL","scan_time":"2026-08-23T00:00:42Z","stale":false,"bins":25,"density_birds_km3":1.435,"heading_deg":18.819881714687714,"speed_ms":5.793897861195984,"peak_altitude_m":200.0,"u_ms":1.858398079441292,"v_ms":5.476320384111742}},{"type":"Feature","geometry":{"type":"Point","coordinates":[-88.0847,41.6045]},"properties":{"site":"KLOT","name":"Chicago IL","scan_time":"2026-08-22T23:58:53Z","stale":false,"bins":25,"density_birds_km3":3.822666666666666,"heading_deg":148.16074200051463,"speed_ms":10.776085956844712,"peak_altitude_m":400.0,"u_ms":5.67440749911567,"v_ms":-9.157967810399716}},{"type":"Feature","geometry":{"type":"Point","coordinates":[-78.4292,33.9892]},"properties":{"site":"KLTX","name":"Wilmington NC","scan_time":"2026-08-22T23:58:13Z","stale":false,"bins":25,"density_birds_km3":0.591875,"heading_deg":null,"speed_ms":null,"peak_altitude_m":0.0,"u_ms":null,"v_ms":null}},{"type":"Feature","geometry":{"type":"Point","coordinates":[-77.4778,38.9753]},"properties":{"site":"KLWX","name":"Sterling VA","scan_time":"2026-08-22T23:58:19Z","stale":false,"bins":25,"density_birds_km3":3.185,"heading_deg":299.65037142486443,"speed_ms":7.16907770800628,"peak_altitude_m":400.0,"u_ms":-6.213565541601256,"v_ms":3.561236263736264}},{"type":"Feature","geometry":{"type":"Point","coordinates":[-76.8762,34.7759]},"properties":{"site":"KMHX","name":"Morehead City NC","scan_time":"2026-08-22T23:58:35Z","stale":false,"bins":25,"density_birds_km3":2.1875,"heading_deg":26.62189257802822,"speed_ms":6.915082951945079,"peak_altitude_m":0.0,"u_ms":3.0588186498855836,"v_ms":6.187171052631579}},{"type":"Feature","geometry":{"type":"Point","coordinates":[-80.6542,28.1133]},"properties":{"site":"KMLB","name":"Melbourne FL","scan_time":"2026-08-23T00:01:05Z","stale":false,"bins":25,"density_birds_km3":3.139375,"heading_deg":null,"speed_ms":null,"peak_altitude_m":0.0,"u_ms":null,"v_ms":null}},{"type":"Feature","geometry":{"type":"Point","coordinates":[-86.5625,36.2472]},"properties":{"site":"KOHX","name":"Nashville TN","scan_time":"2026-08-22T23:57:25Z","stale":false,"bins":25,"density_birds_km3":2.191333333333333,"heading_deg":142.43509335693514,"speed_ms":7.518262073208243,"peak_altitude_m":200.0,"u_ms":4.569144878498924,"v_ms":-5.965376807136265}},{"type":"Feature","geometry":{"type":"Point","coordinates":[-72.8639,40.8655]},"properties":{"site":"KOKX","name":"Upton NY","scan_time":"2026-08-23T00:00:49Z","stale":false,"bins":25,"density_birds_km3":4.204375,"heading_deg":278.0251337921664,"speed_ms":3.060025278810409,"peak_altitude_m":0.0,"u_ms":-3.007211895910781,"v_ms":0.4857293680297398}},{"type":"Feature","geometry":{"type":"Point","coordinates":[-80.2183,40.5317]},"properties":{"site":"KPBZ","name":"Pittsburgh PA","scan_time":"2026-08-23T00:01:35Z","stale":false,"bins":25,"density_birds_km3":0.292,"heading_deg":null,"speed_ms":null,"peak_altitude_m":400.0,"u_ms":null,"v_ms":null}},{"type":"Feature","geometry":{"type":"Point","coordinates":[-78.4899,35.6655]},"properties":{"site":"KRAX","name":"Raleigh NC","scan_time":"2026-08-23T00:01:08Z","stale":false,"bins":25,"density_birds_km3":4.124375,"heading_deg":56.87825352991539,"speed_ms":3.6145808700924658,"peak_altitude_m":0.0,"u_ms":3.013638017280582,"v_ms":1.9800060633621346}},{"type":"Feature","geometry":{"type":"Point","coordinates":[-82.4017,27.7055]},"properties":{"site":"KTBW","name":"Tampa FL","scan_time":"2026-08-22T23:59:28Z","stale":false,"bins":25,"density_birds_km3":0.924375,"heading_deg":80.29843950451281,"speed_ms":4.953646820027064,"peak_altitude_m":0.0,"u_ms":4.875778078484438,"v_ms":0.8364411366711773}}]}