{"type":"FeatureCollection","frame":"2026-09-01T02","site_count":20,"fresh_count":20,"failures":{},"features":[{"type":"Feature","geometry":{"type":"Point","coordinates":[-77.0073,36.984]},"properties":{"site":"KAKQ","name":"Wakefield VA","scan_time":"2026-09-01T02:00:05Z","stale":false,"bins":25,"density_birds_km3":12.469375,"heading_deg":266.25947345718424,"speed_ms":3.9534960653601323,"peak_altitude_m":200.0,"u_ms":-2.1426875845822266,"v_ms":-0.7256523482532204}},{"type":"Feature","geometry":{"type":"Point","coordinates":[-71.1369,41.9558]},"properties":{"site":"KBOX","name":"Boston MA","scan_time":"2026-09-01T02:00:15Z","stale":false,"bins":25,"density_birds_km3":4.654375,"heading_deg":3.6188724087166095,"speed_ms":5.727859540754666,"peak_altitude_m":200.0,"u_ms":0.11180341076943744,"v_ms":3.2997838055592856}},{"type":"Feature","geometry":{"type":"Point","coordinates":[-78.7369,42.9489]},"properties":{"site":"KBUF","name":"Buffalo NY","scan_time":"2026-09-01T01:57:05Z","stale":false,"bins":25,"density_birds_km3":2.4106666666666663,"heading_deg":50.2114793488967,"speed_ms":5.398180309734514,"peak_altitude_m":200.0,"u_ms":4.0563495575221244,"v_ms":2.2066178097345133}},{"type":"Feature","geometry":{"type":"Point","coordinates":[-81.8597,41.4131]},"properties":{"site":"KCLE","name":"Cleveland OH","scan_time":"2026-09-01T01:59:46Z","stale":false,"bins":25,"density_birds_km3":3.7939999999999996,"heading_deg":54.8894687467919,"speed_ms":7.725615884730275,"peak_altitude_m":200.0,"u_ms":6.241611316113162,"v_ms":3.804568617114743}},{"type":"Feature","geometry":{"type":"Point","coordinates":[-81.0423,32.6555]},"properties":{"site":"KCLX","name":"Charleston SC","scan_time":"2026-09-01T02:01:58Z","stale":false,"bins":25,"density_birds_km3":9.1275,"heading_deg":240.69521181817333,"speed_ms":9.859200112462219,"peak_altitude_m":0.0,"u_ms":-5.810307865326492,"v_ms":-5.624247557461165}},{"type":"Feature","geometry":{"type":"Point","coordinates":[-74.4108,39.947]},"properties":{"site":"KDIX","name":"Philadelphia PA","scan_time":"2026-09-01T01:59:14Z","stale":false,"bins":25,"density_birds_km3":7.72,"heading_deg":351.77019652280086,"speed_ms":3.2553253895508707,"peak_altitude_m":200.0,"u_ms":-0.7252970585784518,"v_ms":1.3883634697108573}},{"type":"Feature","geometry":{"type":"Point","coordinates":[-84.5658,33.3636]},"properties":{"site":"KFFC","name":"Atlanta GA","scan_time":"2026-09-01T02:01:45Z","stale":false,"bins":25,"density_birds_km3":57.94133333333333,"heading_deg":238.06970149751936,"speed_ms":5.920368073453608,"peak_altitude_m":600.0,"u_ms":-4.896795034057438,"v_ms":-3.1245762380338733}},{"type":"Feature","geometry":{"type":"Point","coordinates":[-85.5449,42.8939]},"properties":{"site":"KGRR","name":"Grand Rapids MI","scan_time":"2026-09-01T02:01:29Z","stale":false,"bins":25,"density_birds_km3":5.145333333333332,"heading_deg":59.718274024877935,"speed_ms":10.452146148782093,"peak_altitude_m":200.0,"u_ms":9.164738643844634,"v_ms":4.5474549045424615}},{"type":"Feature","geometry":{"type":"Point","coordinates":[-83.8217,39.4203]},"properties":{"site":"KILN","name":"Wilmington OH","scan_time":"2026-09-01T01:58:32Z","stale":false,"bins":25,"density_birds_km3":5.745333333333334,"heading_deg":85.45991204034495,"speed_ms":5.8694592712926426,"peak_altitude_m":600.0,"u_ms":5.600374796936643,"v_ms":-0.07702831283360408}},{"type":"Feature","geometry":{"type":"Point","coordinates":[-81.7019,30.4846]},"properties":{"site":"KJAX","name":"Jacksonville FL","scan_time":"2026-09-01T01:59:00Z","stale":false,"bins":25,"density_birds_km3":31.49125,"heading_deg":189.7557061291555,"speed_ms":9.438854153795461,"peak_altitude_m":0.0,"u_ms":-1.6095537295605256,"v_ms":-9.287474154619218}},{"type":"Feature","geometry":{"type":"Point","coordinates":[-88.0847,41.6045]},"properties":{"site":"KLOT","name":"Chicago IL","scan_time":"2026-09-01T02:00:53Z","stale":false,"bins":25,"density_birds_km3":5.402,"heading_deg":45.429772700202356,"speed_ms":11.711825623217166,"peak_altitude_m":200.0,"u_ms":8.115702592087313,"v_ms":7.142387448840383}},{"type":"Feature","geometry":{"type":"Point","coordinates":[-78.4292,33.9892]},"properties":{"site":"KLTX","name":"Wilmington NC","scan_time":"2026-09-01T02:01:40Z","stale":false,"bins":25,"density_birds_km3":10.845,"heading_deg":228.07406602510454,"speed_ms":9.225922083909635,"peak_altitude_m":1200.0,"u_ms":-4.9519865145228215,"v_ms":-6.666156062701705}},{"type":"Feature","geometry":{"type":"Point","coordinates":[-77.4778,38.9753]},"properties":{"site":"KLWX","name":"Sterling VA","scan_time":"2026-09-01T01:59:41Z","stale":false,"bins":25,"density_birds_km3":18.64875,"heading_deg":152.34848267976182,"speed_ms":5.525582527554264,"peak_altitude_m":200.0,"u_ms":1.0775532490364461,"v_ms":-3.322269930353641}},{"type":"Feature","geometry":{"type":"Point","coordinates":[-76.8762,34.7759]},"properties":{"site":"KMHX","name":"Morehead City NC","scan_time":"2026-09-01T01:57:48Z","stale":false,"bins":25,"density_birds_km3":10.320625,"heading_deg":246.42466836875388,"speed_ms":6.506177610855343,"peak_altitude_m":0.0,"u_ms":-3.711983280833535,"v_ms":-3.297546038284468}},{"type":"Feature","geometry":{"type":"Point","coordinates":[-80.6542,28.1133]},"properties":{"site":"KMLB","name":"Melbourne FL","scan_time":"2026-09-01T02:00:25Z","stale":false,"bins":25,"density_birds_km3":11.835625,"heading_deg":174.2932086747355,"speed_ms":9.207946348418439,"peak_altitude_m":0.0,"u_ms":0.9436230659555367,"v_ms":-9.09219200506944}},{"type":"Feature","geometry":{"type":"Point","coordinates":[-86.5625,36.2472]},"properties":{"site":"KOHX","name":"Nashville TN","scan_time":"2026-09-01T01:59:22Z","stale":false,"bins":25,"density_birds_km3":16.378666666666664,"heading_deg":341.30333692994924,"speed_ms":2.2084577499185936,"peak_altitude_m":200.0,"u_ms":-0.7011958645392381,"v_ms":1.865434711820254}},{"type":"Feature","geometry":{"type":"Point","coordinates":[-72.8639,40.8655]},"properties":{"site":"KOKX","name":"Upton NY","scan_time":"2026-09-01T02:01:01Z","stale":false,"bins":25,"density_birds_km3":9.666428571428572,"heading_deg":280.6828234558162,"speed_ms":5.5721385632702125,"peak_altitude_m":0.0,"u_ms":-5.12507965133754,"v_ms":1.1813938984069732}},{"type":"Feature","geometry":{"type":"Point","coordinates":[-80.2183,40.5317]},"properties":{"site":"KPBZ","name":"Pittsburgh PA","scan_time":"2026-09-01T01:57:47Z","stale":false,"bins":25,"density_birds_km3":5.550714285714285,"heading_deg":84.98046822858626,"speed_ms":6.944477381105813,"peak_altitude_m":600.0,"u_ms":6.728543626756024,"v_ms":0.29376981569789923}},{"type":"Feature","geometry":{"type":"Point","coordinates":[-78.4899,35.6655]},"properties":{"site":"KRAX","name":"Raleigh NC","scan_time":"2026-09-01T01:59:14Z","stale":false,"bins":25,"density_birds_km3":9.43125,"heading_deg":33.971203622573235,"speed_ms":5.888534128561961,"peak_altitude_m":200.0,"u_ms":0.39860636182902587,"v_ms":0.08755864811133197}},{"type":"Feature","geometry":{"type":"Point","coordinates":[-82.4017,27.7055]},"properties":{"site":"KTBW","name":"Tampa FL","scan_time":"2026-09-01T01:59:02Z","stale":false,"bins":25,"density_birds_km3":18.849375000000002,"heading_deg":212.68954883876248,"speed_ms":6.4496169408331125,"peak_altitude_m":0.0,"u_ms":-3.3801897054921732,"v_ms":-5.3963873043247546}}]}