{"type":"FeatureCollection","frame":"2026-09-23T12","site_count":20,"fresh_count":20,"failures":{},"features":[{"type":"Feature","geometry":{"type":"Point","coordinates":[-77.0073,36.984]},"properties":{"site":"KAKQ","name":"Wakefield VA","scan_time":"2026-09-23T11:59:35Z","stale":false,"bins":25,"density_birds_km3":0.0008333333333333334,"heading_deg":null,"speed_ms":null,"peak_altitude_m":800.0,"u_ms":null,"v_ms":null}},{"type":"Feature","geometry":{"type":"Point","coordinates":[-71.1369,41.9558]},"properties":{"site":"KBOX","name":"Boston MA","scan_time":"2026-09-23T11:59:53Z","stale":false,"bins":25,"density_birds_km3":1.3724999999999998,"heading_deg":232.19320907525992,"speed_ms":5.5909785093735715,"peak_altitude_m":0.0,"u_ms":-4.460123456790124,"v_ms":-3.33549154092364}},{"type":"Feature","geometry":{"type":"Point","coordinates":[-78.7369,42.9489]},"properties":{"site":"KBUF","name":"Buffalo NY","scan_time":"2026-09-23T12:00:12Z","stale":false,"bins":25,"density_birds_km3":0.97,"heading_deg":285.0712563700036,"speed_ms":4.5992371134020615,"peak_altitude_m":200.0,"u_ms":-4.445051546391753,"v_ms":1.1769965635738833}},{"type":"Feature","geometry":{"type":"Point","coordinates":[-81.8597,41.4131]},"properties":{"site":"KCLE","name":"Cleveland OH","scan_time":"2026-09-23T11:59:39Z","stale":false,"bins":25,"density_birds_km3":15.876666666666667,"heading_deg":null,"speed_ms":null,"peak_altitude_m":200.0,"u_ms":null,"v_ms":null}},{"type":"Feature","geometry":{"type":"Point","coordinates":[-81.0423,32.6555]},"properties":{"site":"KCLX","name":"Charleston SC","scan_time":"2026-09-23T11:59:04Z","stale":false,"bins":25,"density_birds_km3":0.886875,"heading_deg":210.82487729483677,"speed_ms":9.674050632911394,"peak_altitude_m":200.0,"u_ms":-5.034371308016878,"v_ms":-8.236430379746837}},{"type":"Feature","geometry":{"type":"Point","coordinates":[-74.4108,39.947]},"properties":{"site":"KDIX","name":"Philadelphia PA","scan_time":"2026-09-23T11:59:36Z","stale":false,"bins":25,"density_birds_km3":0.09625,"heading_deg":225.00420743841713,"speed_ms":8.324040404040405,"peak_altitude_m":200.0,"u_ms":-5.904545454545455,"v_ms":-5.851515151515152}},{"type":"Feature","geometry":{"type":"Point","coordinates":[-84.5658,33.3636]},"properties":{"site":"KFFC","name":"Atlanta GA","scan_time":"2026-09-23T12:01:14Z","stale":false,"bins":25,"density_birds_km3":2.1846666666666663,"heading_deg":249.00460173044644,"speed_ms":6.588444515715202,"peak_altitude_m":400.0,"u_ms":-5.143300192431045,"v_ms":-2.187517639512508}},{"type":"Feature","geometry":{"type":"Point","coordinates":[-85.5449,42.8939]},"properties":{"site":"KGRR","name":"Grand Rapids MI","scan_time":"2026-09-23T11:59:37Z","stale":false,"bins":25,"density_birds_km3":1.2206666666666666,"heading_deg":260.30157994747805,"speed_ms":5.273342435827417,"peak_altitude_m":200.0,"u_ms":-5.185516111414528,"v_ms":-0.9436428181321682}},{"type":"Feature","geometry":{"type":"Point","coordinates":[-83.8217,39.4203]},"properties":{"site":"KILN","name":"Wilmington OH","scan_time":"2026-09-23T11:56:57Z","stale":false,"bins":25,"density_birds_km3":2.0023076923076926,"heading_deg":26.0,"speed_ms":22.69,"peak_altitude_m":200.0,"u_ms":9.95,"v_ms":20.39}},{"type":"Feature","geometry":{"type":"Point","coordinates":[-81.7019,30.4846]},"properties":{"site":"KJAX","name":"Jacksonville FL","scan_time":"2026-09-23T12:01:56Z","stale":false,"bins":25,"density_birds_km3":1.3725,"heading_deg":190.25222642154637,"speed_ms":9.458078324225864,"peak_altitude_m":0.0,"u_ms":-1.731771402550091,"v_ms":-9.280341530054644}},{"type":"Feature","geometry":{"type":"Point","coordinates":[-88.0847,41.6045]},"properties":{"site":"KLOT","name":"Chicago IL","scan_time":"2026-09-23T11:58:25Z","stale":false,"bins":25,"density_birds_km3":2.9413333333333336,"heading_deg":221.22295394073979,"speed_ms":6.538349206349206,"peak_altitude_m":200.0,"u_ms":-4.421115646258503,"v_ms":-4.732024943310657}},{"type":"Feature","geometry":{"type":"Point","coordinates":[-78.4292,33.9892]},"properties":{"site":"KLTX","name":"Wilmington NC","scan_time":"2026-09-23T11:59:49Z","stale":false,"bins":25,"density_birds_km3":0.068125,"heading_deg":197.11888449920036,"speed_ms":11.915045871559633,"peak_altitude_m":200.0,"u_ms":-3.8016513761467894,"v_ms":-11.14}},{"type":"Feature","geometry":{"type":"Point","coordinates":[-77.4778,38.9753]},"properties":{"site":"KLWX","name":"Sterling VA","scan_time":"2026-09-23T11:58:24Z","stale":false,"bins":25,"density_birds_km3":2.316875,"heading_deg":199.1,"speed_ms":3.67,"peak_altitude_m":200.0,"u_ms":-1.2,"v_ms":-3.47}},{"type":"Feature","geometry":{"type":"Point","coordinates":[-76.8762,34.7759]},"properties":{"site":"KMHX","name":"Morehead City NC","scan_time":"2026-09-23T11:59:08Z","stale":false,"bins":25,"density_birds_km3":0.0225,"heading_deg":229.6859674246005,"speed_ms":13.774285714285712,"peak_altitude_m":0.0,"u_ms":-10.487142857142857,"v_ms":-8.905714285714284}},{"type":"Feature","geometry":{"type":"Point","coordinates":[-80.6542,28.1133]},"properties":{"site":"KMLB","name":"Melbourne FL","scan_time":"2026-09-23T11:58:51Z","stale":false,"bins":25,"density_birds_km3":2.914375,"heading_deg":121.32335981493917,"speed_ms":3.5366781042247477,"peak_altitude_m":0.0,"u_ms":2.7023032382586316,"v_ms":-1.8605018228608188}},{"type":"Feature","geometry":{"type":"Point","coordinates":[-86.5625,36.2472]},"properties":{"site":"KOHX","name":"Nashville TN","scan_time":"2026-09-23T11:58:51Z","stale":false,"bins":25,"density_birds_km3":2.424,"heading_deg":213.83530031300492,"speed_ms":2.152637322662786,"peak_altitude_m":200.0,"u_ms":-1.0833066569661693,"v_ms":-1.6839832666424153}},{"type":"Feature","geometry":{"type":"Point","coordinates":[-72.8639,40.8655]},"properties":{"site":"KOKX","name":"Upton NY","scan_time":"2026-09-23T11:57:47Z","stale":false,"bins":25,"density_birds_km3":0.368125,"heading_deg":236.05291596209383,"speed_ms":8.823802083333334,"peak_altitude_m":0.0,"u_ms":-7.334184027777778,"v_ms":-4.885729166666667}},{"type":"Feature","geometry":{"type":"Point","coordinates":[-80.2183,40.5317]},"properties":{"site":"KPBZ","name":"Pittsburgh PA","scan_time":"2026-09-23T12:00:16Z","stale":false,"bins":25,"density_birds_km3":1.9942857142857144,"heading_deg":261.9731995593513,"speed_ms":10.04304799426934,"peak_altitude_m":600.0,"u_ms":-9.88535458452722,"v_ms":-1.3495666189111748}},{"type":"Feature","geometry":{"type":"Point","coordinates":[-78.4899,35.6655]},"properties":{"site":"KRAX","name":"Raleigh NC","scan_time":"2026-09-23T11:58:37Z","stale":false,"bins":25,"density_birds_km3":0.04875,"heading_deg":null,"speed_ms":null,"peak_altitude_m":0.0,"u_ms":null,"v_ms":null}},{"type":"Feature","geometry":{"type":"Point","coordinates":[-82.4017,27.7055]},"properties":{"site":"KTBW","name":"Tampa FL","scan_time":"2026-09-23T11:59:19Z","stale":false,"bins":25,"density_birds_km3":1.91375,"heading_deg":260.92139049707606,"speed_ms":2.582341606792946,"peak_altitude_m":0.0,"u_ms":-1.7701306335728284,"v_ms":-0.6582756368386675}}]}