{"type":"FeatureCollection","frame":"2026-09-15T10","site_count":20,"fresh_count":18,"failures":{"KDIX":"RuntimeError('no scan within 20 min of 2026-09-15T10:00Z')","KBUF":"RuntimeError('no scan within 20 min of 2026-09-15T10:00Z')"},"features":[{"type":"Feature","geometry":{"type":"Point","coordinates":[-77.0073,36.984]},"properties":{"site":"KAKQ","name":"Wakefield VA","scan_time":"2026-09-15T10:00:57Z","stale":false,"bins":25,"density_birds_km3":19.9025,"heading_deg":203.00687279560947,"speed_ms":12.624311693206446,"peak_altitude_m":0.0,"u_ms":-4.67120889475172,"v_ms":-11.558895693960237}},{"type":"Feature","geometry":{"type":"Point","coordinates":[-71.1369,41.9558]},"properties":{"site":"KBOX","name":"Boston MA","scan_time":"2026-09-15T09:59:37Z","stale":false,"bins":25,"density_birds_km3":0.23500000000000001,"heading_deg":199.73720173678888,"speed_ms":7.508101604278075,"peak_altitude_m":0.0,"u_ms":-2.466657754010695,"v_ms":-6.888663101604278}},{"type":"Feature","geometry":{"type":"Point","coordinates":[-81.8597,41.4131]},"properties":{"site":"KCLE","name":"Cleveland OH","scan_time":"2026-09-15T09:59:35Z","stale":false,"bins":25,"density_birds_km3":1.482,"heading_deg":329.9359142744509,"speed_ms":9.338325832583259,"peak_altitude_m":200.0,"u_ms":-4.29537803780378,"v_ms":7.872362736273628}},{"type":"Feature","geometry":{"type":"Point","coordinates":[-81.0423,32.6555]},"properties":{"site":"KCLX","name":"Charleston SC","scan_time":"2026-09-15T09:59:13Z","stale":false,"bins":25,"density_birds_km3":44.715,"heading_deg":221.49889306778567,"speed_ms":11.234685276562436,"peak_altitude_m":0.0,"u_ms":-7.415847300074086,"v_ms":-8.411813835809838}},{"type":"Feature","geometry":{"type":"Point","coordinates":[-84.5658,33.3636]},"properties":{"site":"KFFC","name":"Atlanta GA","scan_time":"2026-09-15T10:01:55Z","stale":false,"bins":25,"density_birds_km3":43.52333333333333,"heading_deg":248.76209261544298,"speed_ms":7.566489699012024,"peak_altitude_m":200.0,"u_ms":-6.488188864210769,"v_ms":-3.026853794899288}},{"type":"Feature","geometry":{"type":"Point","coordinates":[-85.5449,42.8939]},"properties":{"site":"KGRR","name":"Grand Rapids MI","scan_time":"2026-09-15T09:57:33Z","stale":false,"bins":25,"density_birds_km3":0.66,"heading_deg":116.84180143441505,"speed_ms":7.200888157894737,"peak_altitude_m":200.0,"u_ms":5.387346491228071,"v_ms":-1.246019736842105}},{"type":"Feature","geometry":{"type":"Point","coordinates":[-83.8217,39.4203]},"properties":{"site":"KILN","name":"Wilmington OH","scan_time":"2026-09-15T09:57:11Z","stale":false,"bins":25,"density_birds_km3":3.6053333333333333,"heading_deg":294.07998467265696,"speed_ms":9.145375508694043,"peak_altitude_m":200.0,"u_ms":-7.762980022197558,"v_ms":3.556761006289308}},{"type":"Feature","geometry":{"type":"Point","coordinates":[-81.7019,30.4846]},"properties":{"site":"KJAX","name":"Jacksonville FL","scan_time":"2026-09-15T10:01:52Z","stale":false,"bins":25,"density_birds_km3":70.92875,"heading_deg":200.77715363442934,"speed_ms":9.415829419384401,"peak_altitude_m":0.0,"u_ms":-3.3451677343743116,"v_ms":-8.758467700007932}},{"type":"Feature","geometry":{"type":"Point","coordinates":[-88.0847,41.6045]},"properties":{"site":"KLOT","name":"Chicago IL","scan_time":"2026-09-15T09:58:56Z","stale":false,"bins":25,"density_birds_km3":0.6586666666666667,"heading_deg":33.38295861310653,"speed_ms":14.974341252699787,"peak_altitude_m":200.0,"u_ms":8.587278617710583,"v_ms":11.806544276457885}},{"type":"Feature","geometry":{"type":"Point","coordinates":[-78.4292,33.9892]},"properties":{"site":"KLTX","name":"Wilmington NC","scan_time":"2026-09-15T10:00:43Z","stale":false,"bins":25,"density_birds_km3":61.968125,"heading_deg":223.1479771681904,"speed_ms":12.477762749132575,"peak_altitude_m":0.0,"u_ms":-8.576780844024851,"v_ms":-8.960140603566531}},{"type":"Feature","geometry":{"type":"Point","coordinates":[-77.4778,38.9753]},"properties":{"site":"KLWX","name":"Sterling VA","scan_time":"2026-09-15T09:59:12Z","stale":false,"bins":25,"density_birds_km3":45.881875,"heading_deg":243.1260497832858,"speed_ms":11.376212633646086,"peak_altitude_m":200.0,"u_ms":-10.088367335806241,"v_ms":-4.967174067204888}},{"type":"Feature","geometry":{"type":"Point","coordinates":[-76.8762,34.7759]},"properties":{"site":"KMHX","name":"Morehead City NC","scan_time":"2026-09-15T09:58:21Z","stale":false,"bins":25,"density_birds_km3":23.288125,"heading_deg":199.1618442378349,"speed_ms":9.800855432681983,"peak_altitude_m":0.0,"u_ms":-3.3619089542624008,"v_ms":-9.035230030062271}},{"type":"Feature","geometry":{"type":"Point","coordinates":[-80.6542,28.1133]},"properties":{"site":"KMLB","name":"Melbourne FL","scan_time":"2026-09-15T09:58:02Z","stale":false,"bins":25,"density_birds_km3":2.8775,"heading_deg":178.82912994082972,"speed_ms":5.251139130434782,"peak_altitude_m":0.0,"u_ms":0.2812347826086957,"v_ms":-5.047682608695652}},{"type":"Feature","geometry":{"type":"Point","coordinates":[-86.5625,36.2472]},"properties":{"site":"KOHX","name":"Nashville TN","scan_time":"2026-09-15T09:59:02Z","stale":false,"bins":25,"density_birds_km3":46.949333333333335,"heading_deg":330.576884838346,"speed_ms":7.059806316028627,"peak_altitude_m":200.0,"u_ms":-1.9725292513915713,"v_ms":5.410344910825855}},{"type":"Feature","geometry":{"type":"Point","coordinates":[-72.8639,40.8655]},"properties":{"site":"KOKX","name":"Upton NY","scan_time":"2026-09-15T09:59:57Z","stale":false,"bins":25,"density_birds_km3":0.41125,"heading_deg":239.90115546962926,"speed_ms":9.210263565891472,"peak_altitude_m":400.0,"u_ms":-7.930976744186046,"v_ms":-4.478697674418605}},{"type":"Feature","geometry":{"type":"Point","coordinates":[-80.2183,40.5317]},"properties":{"site":"KPBZ","name":"Pittsburgh PA","scan_time":"2026-09-15T09:57:54Z","stale":false,"bins":25,"density_birds_km3":16.342142857142857,"heading_deg":288.2379775521429,"speed_ms":9.322115317363174,"peak_altitude_m":400.0,"u_ms":-8.621998164014688,"v_ms":2.502682724252492}},{"type":"Feature","geometry":{"type":"Point","coordinates":[-78.4899,35.6655]},"properties":{"site":"KRAX","name":"Raleigh NC","scan_time":"2026-09-15T09:56:59Z","stale":false,"bins":25,"density_birds_km3":62.18,"heading_deg":216.39375613310827,"speed_ms":13.15039737812372,"peak_altitude_m":200.0,"u_ms":-7.737789529874741,"v_ms":-10.315999279977156}},{"type":"Feature","geometry":{"type":"Point","coordinates":[-82.4017,27.7055]},"properties":{"site":"KTBW","name":"Tampa FL","scan_time":"2026-09-15T10:02:24Z","stale":false,"bins":25,"density_birds_km3":19.55875,"heading_deg":229.59684712812853,"speed_ms":4.242311207695503,"peak_altitude_m":0.0,"u_ms":-2.9252593397462534,"v_ms":-2.771527915375028}}]}