{"type":"FeatureCollection","frame":"2026-08-19T11","site_count":20,"fresh_count":20,"failures":{},"features":[{"type":"Feature","geometry":{"type":"Point","coordinates":[-77.0073,36.984]},"properties":{"site":"KAKQ","name":"Wakefield VA","scan_time":"2026-08-19T11:00:50Z","stale":false,"bins":25,"density_birds_km3":3.07875,"heading_deg":204.3459139760209,"speed_ms":7.912155347702318,"peak_altitude_m":200.0,"u_ms":-3.2442049613664095,"v_ms":-7.171167141114274}},{"type":"Feature","geometry":{"type":"Point","coordinates":[-71.1369,41.9558]},"properties":{"site":"KBOX","name":"Boston MA","scan_time":"2026-08-19T10:58:12Z","stale":false,"bins":25,"density_birds_km3":5.454375,"heading_deg":67.19885880039145,"speed_ms":3.8510679500401053,"peak_altitude_m":0.0,"u_ms":3.484091898705168,"v_ms":1.529137160536267}},{"type":"Feature","geometry":{"type":"Point","coordinates":[-78.7369,42.9489]},"properties":{"site":"KBUF","name":"Buffalo NY","scan_time":"2026-08-19T10:58:16Z","stale":false,"bins":25,"density_birds_km3":5.653076923076923,"heading_deg":null,"speed_ms":null,"peak_altitude_m":200.0,"u_ms":null,"v_ms":null}},{"type":"Feature","geometry":{"type":"Point","coordinates":[-81.8597,41.4131]},"properties":{"site":"KCLE","name":"Cleveland OH","scan_time":"2026-08-19T10:58:42Z","stale":false,"bins":25,"density_birds_km3":5.304,"heading_deg":61.40640838606624,"speed_ms":8.049561136814276,"peak_altitude_m":200.0,"u_ms":6.9172504957039,"v_ms":3.6808896232650365}},{"type":"Feature","geometry":{"type":"Point","coordinates":[-81.0423,32.6555]},"properties":{"site":"KCLX","name":"Charleston SC","scan_time":"2026-08-19T10:57:22Z","stale":false,"bins":25,"density_birds_km3":3.399375,"heading_deg":191.48832756124088,"speed_ms":6.416933259790403,"peak_altitude_m":0.0,"u_ms":-1.3052528038242324,"v_ms":-6.24864129435558}},{"type":"Feature","geometry":{"type":"Point","coordinates":[-74.4108,39.947]},"properties":{"site":"KDIX","name":"Philadelphia PA","scan_time":"2026-08-19T10:58:30Z","stale":false,"bins":25,"density_birds_km3":9.73,"heading_deg":203.2301996989552,"speed_ms":5.834897225077081,"peak_altitude_m":200.0,"u_ms":-2.173260534429599,"v_ms":-5.030830549845837}},{"type":"Feature","geometry":{"type":"Point","coordinates":[-84.5658,33.3636]},"properties":{"site":"KFFC","name":"Atlanta GA","scan_time":"2026-08-19T11:00:33Z","stale":false,"bins":25,"density_birds_km3":5.668,"heading_deg":167.32252394571827,"speed_ms":9.02640630514057,"peak_altitude_m":400.0,"u_ms":2.125151158687213,"v_ms":-8.565492295024114}},{"type":"Feature","geometry":{"type":"Point","coordinates":[-85.5449,42.8939]},"properties":{"site":"KGRR","name":"Grand Rapids MI","scan_time":"2026-08-19T10:57:14Z","stale":false,"bins":25,"density_birds_km3":1.5713333333333332,"heading_deg":92.66025456209294,"speed_ms":2.269375531011045,"peak_altitude_m":200.0,"u_ms":2.1283687340696686,"v_ms":-0.3102039082412914}},{"type":"Feature","geometry":{"type":"Point","coordinates":[-83.8217,39.4203]},"properties":{"site":"KILN","name":"Wilmington OH","scan_time":"2026-08-19T11:00:58Z","stale":false,"bins":25,"density_birds_km3":2.1406666666666667,"heading_deg":107.62399071742328,"speed_ms":8.420467440361058,"peak_altitude_m":200.0,"u_ms":7.487501611863315,"v_ms":-2.911995486782721}},{"type":"Feature","geometry":{"type":"Point","coordinates":[-81.7019,30.4846]},"properties":{"site":"KJAX","name":"Jacksonville FL","scan_time":"2026-08-19T10:59:13Z","stale":false,"bins":25,"density_birds_km3":8.715,"heading_deg":182.34585483785762,"speed_ms":10.599526610242432,"peak_altitude_m":200.0,"u_ms":-0.45063118634342264,"v_ms":-10.467166116769473}},{"type":"Feature","geometry":{"type":"Point","coordinates":[-88.0847,41.6045]},"properties":{"site":"KLOT","name":"Chicago IL","scan_time":"2026-08-19T10:58:49Z","stale":false,"bins":25,"density_birds_km3":1.3833333333333333,"heading_deg":168.65235085333313,"speed_ms":3.7931662650602407,"peak_altitude_m":200.0,"u_ms":0.7884963855421687,"v_ms":-3.673190361445783}},{"type":"Feature","geometry":{"type":"Point","coordinates":[-78.4292,33.9892]},"properties":{"site":"KLTX","name":"Wilmington NC","scan_time":"2026-08-19T11:01:49Z","stale":false,"bins":25,"density_birds_km3":8.483125,"heading_deg":225.57728699304042,"speed_ms":5.997484341610787,"peak_altitude_m":0.0,"u_ms":-4.185210375064476,"v_ms":-3.9415326799793675}},{"type":"Feature","geometry":{"type":"Point","coordinates":[-77.4778,38.9753]},"properties":{"site":"KLWX","name":"Sterling VA","scan_time":"2026-08-19T10:58:09Z","stale":false,"bins":25,"density_birds_km3":11.046875,"heading_deg":164.40897578172886,"speed_ms":6.70392470987829,"peak_altitude_m":400.0,"u_ms":1.8588700820832156,"v_ms":-6.3690444381545435}},{"type":"Feature","geometry":{"type":"Point","coordinates":[-76.8762,34.7759]},"properties":{"site":"KMHX","name":"Morehead City NC","scan_time":"2026-08-19T10:59:10Z","stale":false,"bins":25,"density_birds_km3":9.331875,"heading_deg":218.0428316299436,"speed_ms":7.2737887616368635,"peak_altitude_m":0.0,"u_ms":-4.45562721853861,"v_ms":-5.231735315785949}},{"type":"Feature","geometry":{"type":"Point","coordinates":[-80.6542,28.1133]},"properties":{"site":"KMLB","name":"Melbourne FL","scan_time":"2026-08-19T11:00:17Z","stale":false,"bins":25,"density_birds_km3":3.56125,"heading_deg":155.71392530034123,"speed_ms":7.4032678132678145,"peak_altitude_m":0.0,"u_ms":2.9812337662337662,"v_ms":-6.696849771849772}},{"type":"Feature","geometry":{"type":"Point","coordinates":[-86.5625,36.2472]},"properties":{"site":"KOHX","name":"Nashville TN","scan_time":"2026-08-19T10:57:56Z","stale":false,"bins":25,"density_birds_km3":13.859333333333332,"heading_deg":72.98518547393348,"speed_ms":3.7165857073877353,"peak_altitude_m":200.0,"u_ms":1.6995610816030904,"v_ms":-2.2453703524867215}},{"type":"Feature","geometry":{"type":"Point","coordinates":[-72.8639,40.8655]},"properties":{"site":"KOKX","name":"Upton NY","scan_time":"2026-08-19T10:59:20Z","stale":false,"bins":25,"density_birds_km3":2.495,"heading_deg":153.66945157553215,"speed_ms":5.74193127664911,"peak_altitude_m":0.0,"u_ms":2.626315525457738,"v_ms":-4.543496363180336}},{"type":"Feature","geometry":{"type":"Point","coordinates":[-80.2183,40.5317]},"properties":{"site":"KPBZ","name":"Pittsburgh PA","scan_time":"2026-08-19T10:58:19Z","stale":false,"bins":25,"density_birds_km3":0.8592857142857142,"heading_deg":85.19047930441933,"speed_ms":5.488194444444444,"peak_altitude_m":400.0,"u_ms":5.375312500000001,"v_ms":0.567421875}},{"type":"Feature","geometry":{"type":"Point","coordinates":[-78.4899,35.6655]},"properties":{"site":"KRAX","name":"Raleigh NC","scan_time":"2026-08-19T11:01:01Z","stale":false,"bins":25,"density_birds_km3":8.908125,"heading_deg":212.11220823819903,"speed_ms":6.679015146178232,"peak_altitude_m":200.0,"u_ms":-3.2927284255019376,"v_ms":-5.333802042972878}},{"type":"Feature","geometry":{"type":"Point","coordinates":[-82.4017,27.7055]},"properties":{"site":"KTBW","name":"Tampa FL","scan_time":"2026-08-19T10:58:05Z","stale":false,"bins":25,"density_birds_km3":4.530625000000001,"heading_deg":104.31938871428778,"speed_ms":3.3785262867393406,"peak_altitude_m":0.0,"u_ms":3.241971850420864,"v_ms":-0.8806775217331311}}]}