{"type":"FeatureCollection","frame":"2026-09-18T11","site_count":20,"fresh_count":20,"failures":{},"features":[{"type":"Feature","geometry":{"type":"Point","coordinates":[-77.0073,36.984]},"properties":{"site":"KAKQ","name":"Wakefield VA","scan_time":"2026-09-18T11:00:51Z","stale":false,"bins":25,"density_birds_km3":0.6331249999999999,"heading_deg":181.4246141858936,"speed_ms":10.03471865745311,"peak_altitude_m":200.0,"u_ms":-0.7194965449160908,"v_ms":-9.826209279368214}},{"type":"Feature","geometry":{"type":"Point","coordinates":[-71.1369,41.9558]},"properties":{"site":"KBOX","name":"Boston MA","scan_time":"2026-09-18T10:58:38Z","stale":false,"bins":25,"density_birds_km3":5.985,"heading_deg":185.89308129808444,"speed_ms":7.3378569190600516,"peak_altitude_m":0.0,"u_ms":-0.6378485639686684,"v_ms":-7.268312271540469}},{"type":"Feature","geometry":{"type":"Point","coordinates":[-78.7369,42.9489]},"properties":{"site":"KBUF","name":"Buffalo NY","scan_time":"2026-09-18T10:59:12Z","stale":false,"bins":25,"density_birds_km3":3.2113333333333336,"heading_deg":182.71057012248204,"speed_ms":7.129954328420179,"peak_altitude_m":200.0,"u_ms":-0.6245650820012455,"v_ms":-6.997614697944779}},{"type":"Feature","geometry":{"type":"Point","coordinates":[-81.8597,41.4131]},"properties":{"site":"KCLE","name":"Cleveland OH","scan_time":"2026-09-18T10:59:15Z","stale":false,"bins":25,"density_birds_km3":2.508666666666666,"heading_deg":196.43903423968075,"speed_ms":9.911846930640447,"peak_altitude_m":600.0,"u_ms":-2.821142705288334,"v_ms":-9.460534148285943}},{"type":"Feature","geometry":{"type":"Point","coordinates":[-81.0423,32.6555]},"properties":{"site":"KCLX","name":"Charleston SC","scan_time":"2026-09-18T10:59:07Z","stale":false,"bins":25,"density_birds_km3":3.56875,"heading_deg":141.6771732462602,"speed_ms":4.704139078647749,"peak_altitude_m":0.0,"u_ms":2.7446470485198806,"v_ms":-3.3757418111753372}},{"type":"Feature","geometry":{"type":"Point","coordinates":[-74.4108,39.947]},"properties":{"site":"KDIX","name":"Philadelphia PA","scan_time":"2026-09-18T10:58:36Z","stale":false,"bins":25,"density_birds_km3":3.07625,"heading_deg":192.64855800093414,"speed_ms":12.042177976432345,"peak_altitude_m":400.0,"u_ms":-2.656111336854937,"v_ms":-11.725264120276309}},{"type":"Feature","geometry":{"type":"Point","coordinates":[-84.5658,33.3636]},"properties":{"site":"KFFC","name":"Atlanta GA","scan_time":"2026-09-18T11:03:02Z","stale":false,"bins":25,"density_birds_km3":7.425333333333333,"heading_deg":173.53079618054463,"speed_ms":7.95849703717005,"peak_altitude_m":200.0,"u_ms":-0.23605853833722407,"v_ms":-7.056358412641408}},{"type":"Feature","geometry":{"type":"Point","coordinates":[-85.5449,42.8939]},"properties":{"site":"KGRR","name":"Grand Rapids MI","scan_time":"2026-09-18T11:01:51Z","stale":false,"bins":25,"density_birds_km3":0.194,"heading_deg":250.9448084734017,"speed_ms":6.618413793103449,"peak_altitude_m":200.0,"u_ms":-6.200310344827587,"v_ms":-2.150689655172414}},{"type":"Feature","geometry":{"type":"Point","coordinates":[-83.8217,39.4203]},"properties":{"site":"KILN","name":"Wilmington OH","scan_time":"2026-09-18T11:01:02Z","stale":false,"bins":25,"density_birds_km3":1.9840000000000002,"heading_deg":147.37564793261976,"speed_ms":4.759954986149585,"peak_altitude_m":600.0,"u_ms":2.1069217451523548,"v_ms":-2.567669667590028}},{"type":"Feature","geometry":{"type":"Point","coordinates":[-81.7019,30.4846]},"properties":{"site":"KJAX","name":"Jacksonville FL","scan_time":"2026-09-18T11:00:07Z","stale":false,"bins":25,"density_birds_km3":3.40625,"heading_deg":186.8339057279226,"speed_ms":8.50502293998899,"peak_altitude_m":0.0,"u_ms":-0.9684217287575703,"v_ms":-8.303407964764176}},{"type":"Feature","geometry":{"type":"Point","coordinates":[-88.0847,41.6045]},"properties":{"site":"KLOT","name":"Chicago IL","scan_time":"2026-09-18T10:59:54Z","stale":false,"bins":25,"density_birds_km3":5.731333333333334,"heading_deg":226.01428087774516,"speed_ms":13.228015355979524,"peak_altitude_m":400.0,"u_ms":-9.540393206142394,"v_ms":-8.828145649139135}},{"type":"Feature","geometry":{"type":"Point","coordinates":[-78.4292,33.9892]},"properties":{"site":"KLTX","name":"Wilmington NC","scan_time":"2026-09-18T11:00:29Z","stale":false,"bins":25,"density_birds_km3":2.0506249999999997,"heading_deg":108.95284996610023,"speed_ms":6.708790003047852,"peak_altitude_m":0.0,"u_ms":5.903377019201463,"v_ms":-1.8726241999390432}},{"type":"Feature","geometry":{"type":"Point","coordinates":[-77.4778,38.9753]},"properties":{"site":"KLWX","name":"Sterling VA","scan_time":"2026-09-18T11:01:29Z","stale":false,"bins":25,"density_birds_km3":3.708125,"heading_deg":159.01660185958266,"speed_ms":7.031845609303893,"peak_altitude_m":0.0,"u_ms":2.08565986853194,"v_ms":-6.655435698634755}},{"type":"Feature","geometry":{"type":"Point","coordinates":[-76.8762,34.7759]},"properties":{"site":"KMHX","name":"Morehead City NC","scan_time":"2026-09-18T10:59:07Z","stale":false,"bins":25,"density_birds_km3":1.091875,"heading_deg":86.47080833218078,"speed_ms":8.380778477389812,"peak_altitude_m":200.0,"u_ms":8.20877504293074,"v_ms":0.6584831139095593}},{"type":"Feature","geometry":{"type":"Point","coordinates":[-80.6542,28.1133]},"properties":{"site":"KMLB","name":"Melbourne FL","scan_time":"2026-09-18T11:00:34Z","stale":false,"bins":25,"density_birds_km3":2.013125,"heading_deg":240.20042534014448,"speed_ms":4.074483079788886,"peak_altitude_m":200.0,"u_ms":-3.492772430922074,"v_ms":-1.992654455138156}},{"type":"Feature","geometry":{"type":"Point","coordinates":[-86.5625,36.2472]},"properties":{"site":"KOHX","name":"Nashville TN","scan_time":"2026-09-18T10:59:24Z","stale":false,"bins":25,"density_birds_km3":39.39933333333333,"heading_deg":150.76959310514903,"speed_ms":6.555756950202204,"peak_altitude_m":400.0,"u_ms":3.3138824684004806,"v_ms":-5.617689470211002}},{"type":"Feature","geometry":{"type":"Point","coordinates":[-72.8639,40.8655]},"properties":{"site":"KOKX","name":"Upton NY","scan_time":"2026-09-18T11:01:23Z","stale":false,"bins":25,"density_birds_km3":7.805625,"heading_deg":190.8117377807589,"speed_ms":6.240851217168482,"peak_altitude_m":0.0,"u_ms":-1.1424071108263933,"v_ms":-6.123886130685459}},{"type":"Feature","geometry":{"type":"Point","coordinates":[-80.2183,40.5317]},"properties":{"site":"KPBZ","name":"Pittsburgh PA","scan_time":"2026-09-18T11:01:56Z","stale":false,"bins":25,"density_birds_km3":0.3071428571428571,"heading_deg":173.4540173022178,"speed_ms":5.876813953488372,"peak_altitude_m":400.0,"u_ms":0.6664651162790698,"v_ms":-5.820720930232559}},{"type":"Feature","geometry":{"type":"Point","coordinates":[-78.4899,35.6655]},"properties":{"site":"KRAX","name":"Raleigh NC","scan_time":"2026-09-18T11:01:46Z","stale":false,"bins":25,"density_birds_km3":1.456875,"heading_deg":105.6552712825737,"speed_ms":7.026283261802574,"peak_altitude_m":0.0,"u_ms":6.59263948497854,"v_ms":-1.9252918454935621}},{"type":"Feature","geometry":{"type":"Point","coordinates":[-82.4017,27.7055]},"properties":{"site":"KTBW","name":"Tampa FL","scan_time":"2026-09-18T10:57:42Z","stale":false,"bins":25,"density_birds_km3":9.37875,"heading_deg":205.34514198555286,"speed_ms":6.057148283905366,"peak_altitude_m":0.0,"u_ms":-2.565248250583139,"v_ms":-5.332795734755082}}]}