{"type":"FeatureCollection","frame":"2026-08-22T11","site_count":20,"fresh_count":20,"failures":{},"features":[{"type":"Feature","geometry":{"type":"Point","coordinates":[-77.0073,36.984]},"properties":{"site":"KAKQ","name":"Wakefield VA","scan_time":"2026-08-22T11:00:36Z","stale":false,"bins":25,"density_birds_km3":0.13625,"heading_deg":312.97453933706987,"speed_ms":4.173073394495413,"peak_altitude_m":0.0,"u_ms":-3.061605504587156,"v_ms":2.7223853211009175}},{"type":"Feature","geometry":{"type":"Point","coordinates":[-71.1369,41.9558]},"properties":{"site":"KBOX","name":"Boston MA","scan_time":"2026-08-22T10:59:21Z","stale":false,"bins":25,"density_birds_km3":1.31375,"heading_deg":207.14236776257982,"speed_ms":4.24344630071599,"peak_altitude_m":0.0,"u_ms":-1.9590883054892603,"v_ms":-3.737479713603819}},{"type":"Feature","geometry":{"type":"Point","coordinates":[-78.7369,42.9489]},"properties":{"site":"KBUF","name":"Buffalo NY","scan_time":"2026-08-22T10:57:46Z","stale":false,"bins":25,"density_birds_km3":1.6099999999999999,"heading_deg":21.822784817761555,"speed_ms":6.886505175983437,"peak_altitude_m":200.0,"u_ms":2.4547080745341616,"v_ms":6.294703933747412}},{"type":"Feature","geometry":{"type":"Point","coordinates":[-81.8597,41.4131]},"properties":{"site":"KCLE","name":"Cleveland OH","scan_time":"2026-08-22T10:59:35Z","stale":false,"bins":25,"density_birds_km3":4.136,"heading_deg":326.5469024668768,"speed_ms":6.887238878143133,"peak_altitude_m":200.0,"u_ms":-1.4657607994842037,"v_ms":3.2667246937459704}},{"type":"Feature","geometry":{"type":"Point","coordinates":[-81.0423,32.6555]},"properties":{"site":"KCLX","name":"Charleston SC","scan_time":"2026-08-22T11:02:07Z","stale":false,"bins":25,"density_birds_km3":1.40875,"heading_deg":188.09141582828613,"speed_ms":2.8715702846975084,"peak_altitude_m":0.0,"u_ms":-0.25915480427046267,"v_ms":-2.5516948398576513}},{"type":"Feature","geometry":{"type":"Point","coordinates":[-74.4108,39.947]},"properties":{"site":"KDIX","name":"Philadelphia PA","scan_time":"2026-08-22T11:01:23Z","stale":false,"bins":25,"density_birds_km3":0.5549999999999999,"heading_deg":null,"speed_ms":null,"peak_altitude_m":200.0,"u_ms":null,"v_ms":null}},{"type":"Feature","geometry":{"type":"Point","coordinates":[-84.5658,33.3636]},"properties":{"site":"KFFC","name":"Atlanta GA","scan_time":"2026-08-22T10:57:06Z","stale":false,"bins":25,"density_birds_km3":1.8986666666666667,"heading_deg":123.74578690435231,"speed_ms":3.885758426966292,"peak_altitude_m":200.0,"u_ms":1.9934585674157301,"v_ms":-2.320108848314607}},{"type":"Feature","geometry":{"type":"Point","coordinates":[-85.5449,42.8939]},"properties":{"site":"KGRR","name":"Grand Rapids MI","scan_time":"2026-08-22T11:01:42Z","stale":false,"bins":25,"density_birds_km3":0.4266666666666667,"heading_deg":26.42270033275477,"speed_ms":3.7762343749999996,"peak_altitude_m":200.0,"u_ms":1.634390625,"v_ms":2.830984375}},{"type":"Feature","geometry":{"type":"Point","coordinates":[-83.8217,39.4203]},"properties":{"site":"KILN","name":"Wilmington OH","scan_time":"2026-08-22T11:00:27Z","stale":false,"bins":25,"density_birds_km3":2.1126666666666667,"heading_deg":119.66914057082597,"speed_ms":6.00144724258846,"peak_altitude_m":200.0,"u_ms":5.122601211348422,"v_ms":-2.1807746254383167}},{"type":"Feature","geometry":{"type":"Point","coordinates":[-81.7019,30.4846]},"properties":{"site":"KJAX","name":"Jacksonville FL","scan_time":"2026-08-22T10:59:38Z","stale":false,"bins":25,"density_birds_km3":0.586875,"heading_deg":68.73424352871857,"speed_ms":6.3083067092651754,"peak_altitude_m":0.0,"u_ms":5.83675186368477,"v_ms":2.0243343982960593}},{"type":"Feature","geometry":{"type":"Point","coordinates":[-88.0847,41.6045]},"properties":{"site":"KLOT","name":"Chicago IL","scan_time":"2026-08-22T11:01:11Z","stale":false,"bins":25,"density_birds_km3":1.5666666666666667,"heading_deg":164.8696838304169,"speed_ms":11.14620497427101,"peak_altitude_m":200.0,"u_ms":2.7180445969125215,"v_ms":-10.755428816466553}},{"type":"Feature","geometry":{"type":"Point","coordinates":[-78.4292,33.9892]},"properties":{"site":"KLTX","name":"Wilmington NC","scan_time":"2026-08-22T11:01:03Z","stale":false,"bins":25,"density_birds_km3":1.34125,"heading_deg":293.65236534703376,"speed_ms":2.256722933643772,"peak_altitude_m":200.0,"u_ms":-2.0190861466821888,"v_ms":0.9409953434225844}},{"type":"Feature","geometry":{"type":"Point","coordinates":[-77.4778,38.9753]},"properties":{"site":"KLWX","name":"Sterling VA","scan_time":"2026-08-22T10:57:56Z","stale":false,"bins":25,"density_birds_km3":2.0425,"heading_deg":315.0112862209094,"speed_ms":4.9315024479804155,"peak_altitude_m":0.0,"u_ms":-3.5047307221542225,"v_ms":3.377022643818849}},{"type":"Feature","geometry":{"type":"Point","coordinates":[-76.8762,34.7759]},"properties":{"site":"KMHX","name":"Morehead City NC","scan_time":"2026-08-22T10:59:38Z","stale":false,"bins":25,"density_birds_km3":1.465,"heading_deg":216.66144593805095,"speed_ms":6.594155290102389,"peak_altitude_m":0.0,"u_ms":-3.606147610921502,"v_ms":-5.185529010238907}},{"type":"Feature","geometry":{"type":"Point","coordinates":[-80.6542,28.1133]},"properties":{"site":"KMLB","name":"Melbourne FL","scan_time":"2026-08-22T11:00:21Z","stale":false,"bins":25,"density_birds_km3":5.44875,"heading_deg":61.701377200152045,"speed_ms":2.317034189995411,"peak_altitude_m":0.0,"u_ms":1.978645020651675,"v_ms":1.1006493804497475}},{"type":"Feature","geometry":{"type":"Point","coordinates":[-86.5625,36.2472]},"properties":{"site":"KOHX","name":"Nashville TN","scan_time":"2026-08-22T11:02:05Z","stale":false,"bins":25,"density_birds_km3":17.022666666666666,"heading_deg":161.42436494241554,"speed_ms":7.206854557561988,"peak_altitude_m":200.0,"u_ms":2.3468110775980255,"v_ms":-6.766737827568647}},{"type":"Feature","geometry":{"type":"Point","coordinates":[-72.8639,40.8655]},"properties":{"site":"KOKX","name":"Upton NY","scan_time":"2026-08-22T11:02:00Z","stale":false,"bins":25,"density_birds_km3":2.33125,"heading_deg":233.11461679879955,"speed_ms":5.67636534334764,"peak_altitude_m":200.0,"u_ms":-4.500544527896995,"v_ms":-3.434538626609442}},{"type":"Feature","geometry":{"type":"Point","coordinates":[-80.2183,40.5317]},"properties":{"site":"KPBZ","name":"Pittsburgh PA","scan_time":"2026-08-22T11:01:49Z","stale":false,"bins":25,"density_birds_km3":1.1607142857142858,"heading_deg":343.9105244868702,"speed_ms":2.8139692307692306,"peak_altitude_m":400.0,"u_ms":-0.7510707692307693,"v_ms":2.075883076923077}},{"type":"Feature","geometry":{"type":"Point","coordinates":[-78.4899,35.6655]},"properties":{"site":"KRAX","name":"Raleigh NC","scan_time":"2026-08-22T10:58:13Z","stale":false,"bins":25,"density_birds_km3":5.67375,"heading_deg":184.8169040704189,"speed_ms":4.692224793388429,"peak_altitude_m":400.0,"u_ms":-0.4542258953168045,"v_ms":-4.330721763085399}},{"type":"Feature","geometry":{"type":"Point","coordinates":[-82.4017,27.7055]},"properties":{"site":"KTBW","name":"Tampa FL","scan_time":"2026-08-22T10:58:35Z","stale":false,"bins":25,"density_birds_km3":1.4200000000000002,"heading_deg":9.515374057632753,"speed_ms":5.1358377425044095,"peak_altitude_m":0.0,"u_ms":0.8775970017636684,"v_ms":5.016097883597884}}]}