{"type":"FeatureCollection","frame":"2026-10-01T02","site_count":20,"fresh_count":20,"failures":{},"features":[{"type":"Feature","geometry":{"type":"Point","coordinates":[-77.0073,36.984]},"properties":{"site":"KAKQ","name":"Wakefield VA","scan_time":"2026-10-01T02:02:28Z","stale":false,"bins":25,"density_birds_km3":22.41625,"heading_deg":289.7512540247871,"speed_ms":6.191077622260637,"peak_altitude_m":0.0,"u_ms":-3.089737355712931,"v_ms":1.521718898120783}},{"type":"Feature","geometry":{"type":"Point","coordinates":[-71.1369,41.9558]},"properties":{"site":"KBOX","name":"Boston MA","scan_time":"2026-10-01T01:58:01Z","stale":false,"bins":25,"density_birds_km3":8.409375,"heading_deg":98.60699927610897,"speed_ms":6.048955700906794,"peak_altitude_m":0.0,"u_ms":5.729043407165157,"v_ms":-0.8102036569050097}},{"type":"Feature","geometry":{"type":"Point","coordinates":[-78.7369,42.9489]},"properties":{"site":"KBUF","name":"Buffalo NY","scan_time":"2026-10-01T01:57:37Z","stale":false,"bins":25,"density_birds_km3":1.0966666666666667,"heading_deg":40.3081732486985,"speed_ms":8.223246200607903,"peak_altitude_m":200.0,"u_ms":5.3132826747720365,"v_ms":6.166480243161095}},{"type":"Feature","geometry":{"type":"Point","coordinates":[-81.8597,41.4131]},"properties":{"site":"KCLE","name":"Cleveland OH","scan_time":"2026-10-01T01:57:30Z","stale":false,"bins":25,"density_birds_km3":3.4939999999999998,"heading_deg":13.166008429311646,"speed_ms":10.407682926829267,"peak_altitude_m":200.0,"u_ms":2.464163763066202,"v_ms":10.051202090592334}},{"type":"Feature","geometry":{"type":"Point","coordinates":[-81.0423,32.6555]},"properties":{"site":"KCLX","name":"Charleston SC","scan_time":"2026-10-01T02:00:11Z","stale":false,"bins":25,"density_birds_km3":10.29375,"heading_deg":265.3732020692554,"speed_ms":6.954491061656331,"peak_altitude_m":0.0,"u_ms":-6.165249300741822,"v_ms":-0.5725404353642224}},{"type":"Feature","geometry":{"type":"Point","coordinates":[-74.4108,39.947]},"properties":{"site":"KDIX","name":"Philadelphia PA","scan_time":"2026-10-01T01:57:50Z","stale":false,"bins":25,"density_birds_km3":15.68875,"heading_deg":75.58462674391964,"speed_ms":5.4228778038965695,"peak_altitude_m":200.0,"u_ms":2.04163791386111,"v_ms":1.3213183792182954}},{"type":"Feature","geometry":{"type":"Point","coordinates":[-84.5658,33.3636]},"properties":{"site":"KFFC","name":"Atlanta GA","scan_time":"2026-10-01T01:59:16Z","stale":false,"bins":25,"density_birds_km3":18.968,"heading_deg":298.1048768586458,"speed_ms":9.043426121186561,"peak_altitude_m":400.0,"u_ms":-7.734371221706734,"v_ms":3.892665893434557}},{"type":"Feature","geometry":{"type":"Point","coordinates":[-85.5449,42.8939]},"properties":{"site":"KGRR","name":"Grand Rapids MI","scan_time":"2026-10-01T02:02:33Z","stale":false,"bins":25,"density_birds_km3":0.36357142857142855,"heading_deg":null,"speed_ms":null,"peak_altitude_m":200.0,"u_ms":null,"v_ms":null}},{"type":"Feature","geometry":{"type":"Point","coordinates":[-83.8217,39.4203]},"properties":{"site":"KILN","name":"Wilmington OH","scan_time":"2026-10-01T01:59:43Z","stale":false,"bins":25,"density_birds_km3":9.456666666666667,"heading_deg":39.8093911926818,"speed_ms":10.318130419457173,"peak_altitude_m":600.0,"u_ms":6.262155093408531,"v_ms":6.833233697567854}},{"type":"Feature","geometry":{"type":"Point","coordinates":[-81.7019,30.4846]},"properties":{"site":"KJAX","name":"Jacksonville FL","scan_time":"2026-10-01T02:02:17Z","stale":false,"bins":25,"density_birds_km3":37.468125,"heading_deg":229.64218945662918,"speed_ms":7.227753532522562,"peak_altitude_m":0.0,"u_ms":-4.832818677743856,"v_ms":-3.9897078891613695}},{"type":"Feature","geometry":{"type":"Point","coordinates":[-88.0847,41.6045]},"properties":{"site":"KLOT","name":"Chicago IL","scan_time":"2026-10-01T01:59:11Z","stale":false,"bins":25,"density_birds_km3":0.32466666666666666,"heading_deg":25.131674331710947,"speed_ms":10.706296296296296,"peak_altitude_m":200.0,"u_ms":4.592942386831275,"v_ms":8.953127572016461}},{"type":"Feature","geometry":{"type":"Point","coordinates":[-78.4292,33.9892]},"properties":{"site":"KLTX","name":"Wilmington NC","scan_time":"2026-10-01T02:00:14Z","stale":false,"bins":25,"density_birds_km3":15.188125000000001,"heading_deg":264.381595943549,"speed_ms":8.318794557935655,"peak_altitude_m":0.0,"u_ms":-7.620906045819206,"v_ms":-0.8176569349102639}},{"type":"Feature","geometry":{"type":"Point","coordinates":[-77.4778,38.9753]},"properties":{"site":"KLWX","name":"Sterling VA","scan_time":"2026-10-01T01:59:45Z","stale":false,"bins":25,"density_birds_km3":24.43375,"heading_deg":9.337732263890043,"speed_ms":9.393767882277672,"peak_altitude_m":200.0,"u_ms":1.045294177863084,"v_ms":7.558654894433782}},{"type":"Feature","geometry":{"type":"Point","coordinates":[-76.8762,34.7759]},"properties":{"site":"KMHX","name":"Morehead City NC","scan_time":"2026-10-01T02:01:15Z","stale":false,"bins":25,"density_birds_km3":6.40625,"heading_deg":290.13421386844027,"speed_ms":6.161657560975609,"peak_altitude_m":0.0,"u_ms":-4.2010029268292675,"v_ms":1.1419814634146341}},{"type":"Feature","geometry":{"type":"Point","coordinates":[-80.6542,28.1133]},"properties":{"site":"KMLB","name":"Melbourne FL","scan_time":"2026-10-01T01:59:07Z","stale":false,"bins":25,"density_birds_km3":8.189375,"heading_deg":229.9200664587852,"speed_ms":4.70799144646403,"peak_altitude_m":0.0,"u_ms":-3.208216740491828,"v_ms":-2.4717236902398048}},{"type":"Feature","geometry":{"type":"Point","coordinates":[-86.5625,36.2472]},"properties":{"site":"KOHX","name":"Nashville TN","scan_time":"2026-10-01T02:00:09Z","stale":false,"bins":25,"density_birds_km3":10.770666666666667,"heading_deg":8.612073915467125,"speed_ms":9.694621193364693,"peak_altitude_m":400.0,"u_ms":1.3394138400594207,"v_ms":9.419912725922257}},{"type":"Feature","geometry":{"type":"Point","coordinates":[-72.8639,40.8655]},"properties":{"site":"KOKX","name":"Upton NY","scan_time":"2026-10-01T02:01:34Z","stale":false,"bins":25,"density_birds_km3":13.2375,"heading_deg":48.43752142761708,"speed_ms":4.495027861730261,"peak_altitude_m":0.0,"u_ms":0.8337882508500188,"v_ms":1.2586890819795997}},{"type":"Feature","geometry":{"type":"Point","coordinates":[-80.2183,40.5317]},"properties":{"site":"KPBZ","name":"Pittsburgh PA","scan_time":"2026-10-01T02:02:27Z","stale":false,"bins":25,"density_birds_km3":7.127142857142857,"heading_deg":41.28733447955026,"speed_ms":9.260558228101823,"peak_altitude_m":600.0,"u_ms":6.160702545600321,"v_ms":6.61410503106835}},{"type":"Feature","geometry":{"type":"Point","coordinates":[-78.4899,35.6655]},"properties":{"site":"KRAX","name":"Raleigh NC","scan_time":"2026-10-01T01:57:10Z","stale":false,"bins":25,"density_birds_km3":21.92125,"heading_deg":33.84570074144326,"speed_ms":2.8531765848641544,"peak_altitude_m":200.0,"u_ms":1.0373170871068194,"v_ms":1.7914253064023082}},{"type":"Feature","geometry":{"type":"Point","coordinates":[-82.4017,27.7055]},"properties":{"site":"KTBW","name":"Tampa FL","scan_time":"2026-10-01T01:57:22Z","stale":false,"bins":25,"density_birds_km3":20.35125,"heading_deg":350.36020033234445,"speed_ms":3.7029008714932408,"peak_altitude_m":0.0,"u_ms":-0.7008659501739908,"v_ms":1.7014618298278572}}]}