{"type":"FeatureCollection","frame":"2026-09-22T08","site_count":20,"fresh_count":20,"failures":{},"features":[{"type":"Feature","geometry":{"type":"Point","coordinates":[-77.0073,36.984]},"properties":{"site":"KAKQ","name":"Wakefield VA","scan_time":"2026-09-22T08:02:03Z","stale":false,"bins":25,"density_birds_km3":3.288125,"heading_deg":251.19996927511542,"speed_ms":6.882204260174972,"peak_altitude_m":0.0,"u_ms":-5.869256371243819,"v_ms":-1.9957987828071513}},{"type":"Feature","geometry":{"type":"Point","coordinates":[-71.1369,41.9558]},"properties":{"site":"KBOX","name":"Boston MA","scan_time":"2026-09-22T08:00:55Z","stale":false,"bins":25,"density_birds_km3":5.746875,"heading_deg":181.77139959525383,"speed_ms":12.7663106373722,"peak_altitude_m":0.0,"u_ms":-0.35038720904938003,"v_ms":-12.347934522514684}},{"type":"Feature","geometry":{"type":"Point","coordinates":[-78.7369,42.9489]},"properties":{"site":"KBUF","name":"Buffalo NY","scan_time":"2026-09-22T07:56:49Z","stale":false,"bins":25,"density_birds_km3":11.591333333333333,"heading_deg":236.6246287133328,"speed_ms":16.510806395950766,"peak_altitude_m":400.0,"u_ms":-13.710220292189115,"v_ms":-8.973023122052226}},{"type":"Feature","geometry":{"type":"Point","coordinates":[-81.8597,41.4131]},"properties":{"site":"KCLE","name":"Cleveland OH","scan_time":"2026-09-22T08:00:55Z","stale":false,"bins":25,"density_birds_km3":16.307333333333336,"heading_deg":229.7140134445546,"speed_ms":13.908812804055435,"peak_altitude_m":400.0,"u_ms":-10.680438657454724,"v_ms":-8.521813907853318}},{"type":"Feature","geometry":{"type":"Point","coordinates":[-81.0423,32.6555]},"properties":{"site":"KCLX","name":"Charleston SC","scan_time":"2026-09-22T07:59:41Z","stale":false,"bins":25,"density_birds_km3":6.601875,"heading_deg":192.05313416013973,"speed_ms":2.958701950388184,"peak_altitude_m":0.0,"u_ms":-0.2923423594016285,"v_ms":-2.573093164173452}},{"type":"Feature","geometry":{"type":"Point","coordinates":[-74.4108,39.947]},"properties":{"site":"KDIX","name":"Philadelphia PA","scan_time":"2026-09-22T08:02:18Z","stale":false,"bins":25,"density_birds_km3":3.856875,"heading_deg":215.453008885283,"speed_ms":11.685920679886687,"peak_altitude_m":200.0,"u_ms":-6.753682719546743,"v_ms":-9.457903682719547}},{"type":"Feature","geometry":{"type":"Point","coordinates":[-84.5658,33.3636]},"properties":{"site":"KFFC","name":"Atlanta GA","scan_time":"2026-09-22T08:02:04Z","stale":false,"bins":25,"density_birds_km3":24.315333333333335,"heading_deg":212.76880449867238,"speed_ms":4.154777232473337,"peak_altitude_m":200.0,"u_ms":-1.5500967839223534,"v_ms":-2.8519935294601484}},{"type":"Feature","geometry":{"type":"Point","coordinates":[-85.5449,42.8939]},"properties":{"site":"KGRR","name":"Grand Rapids MI","scan_time":"2026-09-22T07:56:36Z","stale":false,"bins":25,"density_birds_km3":3.496666666666667,"heading_deg":244.9292127578883,"speed_ms":13.65650142993327,"peak_altitude_m":200.0,"u_ms":-12.438745471877981,"v_ms":-5.039857006673022}},{"type":"Feature","geometry":{"type":"Point","coordinates":[-83.8217,39.4203]},"properties":{"site":"KILN","name":"Wilmington OH","scan_time":"2026-09-22T08:01:18Z","stale":false,"bins":25,"density_birds_km3":24.698666666666668,"heading_deg":171.6277297564461,"speed_ms":9.53432843878212,"peak_altitude_m":200.0,"u_ms":1.3691400345497733,"v_ms":-9.254301446771754}},{"type":"Feature","geometry":{"type":"Point","coordinates":[-81.7019,30.4846]},"properties":{"site":"KJAX","name":"Jacksonville FL","scan_time":"2026-09-22T07:59:23Z","stale":false,"bins":25,"density_birds_km3":17.945,"heading_deg":165.72652252949308,"speed_ms":7.617885204792422,"peak_altitude_m":0.0,"u_ms":1.857604834215659,"v_ms":-7.384551755363611}},{"type":"Feature","geometry":{"type":"Point","coordinates":[-88.0847,41.6045]},"properties":{"site":"KLOT","name":"Chicago IL","scan_time":"2026-09-22T08:01:40Z","stale":false,"bins":25,"density_birds_km3":12.260666666666667,"heading_deg":235.1510738541081,"speed_ms":8.066522543101103,"peak_altitude_m":400.0,"u_ms":-6.273870669494751,"v_ms":-3.5023271876869524}},{"type":"Feature","geometry":{"type":"Point","coordinates":[-78.4292,33.9892]},"properties":{"site":"KLTX","name":"Wilmington NC","scan_time":"2026-09-22T07:59:27Z","stale":false,"bins":25,"density_birds_km3":7.599375,"heading_deg":221.1582984998041,"speed_ms":5.391302738712065,"peak_altitude_m":0.0,"u_ms":-3.7693256024344106,"v_ms":-3.6854988074677193}},{"type":"Feature","geometry":{"type":"Point","coordinates":[-77.4778,38.9753]},"properties":{"site":"KLWX","name":"Sterling VA","scan_time":"2026-09-22T08:00:04Z","stale":false,"bins":25,"density_birds_km3":17.22153846153846,"heading_deg":null,"speed_ms":null,"peak_altitude_m":600.0,"u_ms":null,"v_ms":null}},{"type":"Feature","geometry":{"type":"Point","coordinates":[-76.8762,34.7759]},"properties":{"site":"KMHX","name":"Morehead City NC","scan_time":"2026-09-22T07:58:39Z","stale":false,"bins":25,"density_birds_km3":1.4,"heading_deg":248.76259919380252,"speed_ms":4.911620535714286,"peak_altitude_m":0.0,"u_ms":-4.31215625,"v_ms":-1.7846026785714286}},{"type":"Feature","geometry":{"type":"Point","coordinates":[-80.6542,28.1133]},"properties":{"site":"KMLB","name":"Melbourne FL","scan_time":"2026-09-22T08:02:15Z","stale":false,"bins":25,"density_birds_km3":4.3500000000000005,"heading_deg":36.454453822357266,"speed_ms":3.1733625899280575,"peak_altitude_m":0.0,"u_ms":1.3912187050359714,"v_ms":2.6017525179856116}},{"type":"Feature","geometry":{"type":"Point","coordinates":[-86.5625,36.2472]},"properties":{"site":"KOHX","name":"Nashville TN","scan_time":"2026-09-22T07:59:41Z","stale":false,"bins":25,"density_birds_km3":129.63266666666667,"heading_deg":195.52592497546857,"speed_ms":8.546391594581529,"peak_altitude_m":400.0,"u_ms":-1.8311524536375137,"v_ms":-7.4389632597224935}},{"type":"Feature","geometry":{"type":"Point","coordinates":[-72.8639,40.8655]},"properties":{"site":"KOKX","name":"Upton NY","scan_time":"2026-09-22T08:02:02Z","stale":false,"bins":25,"density_birds_km3":6.241538461538462,"heading_deg":239.36303915705304,"speed_ms":13.492712871287129,"peak_altitude_m":200.0,"u_ms":-11.609951732673267,"v_ms":-6.798287128712872}},{"type":"Feature","geometry":{"type":"Point","coordinates":[-80.2183,40.5317]},"properties":{"site":"KPBZ","name":"Pittsburgh PA","scan_time":"2026-09-22T07:59:52Z","stale":false,"bins":25,"density_birds_km3":2.612142857142857,"heading_deg":252.32519561579164,"speed_ms":9.960341419586703,"peak_altitude_m":400.0,"u_ms":-8.995783168613357,"v_ms":-2.7464510332434857}},{"type":"Feature","geometry":{"type":"Point","coordinates":[-78.4899,35.6655]},"properties":{"site":"KRAX","name":"Raleigh NC","scan_time":"2026-09-22T07:58:12Z","stale":false,"bins":25,"density_birds_km3":25.528750000000002,"heading_deg":219.14238141017773,"speed_ms":6.579644964618887,"peak_altitude_m":200.0,"u_ms":-3.2629303885801035,"v_ms":-5.127199138121006}},{"type":"Feature","geometry":{"type":"Point","coordinates":[-82.4017,27.7055]},"properties":{"site":"KTBW","name":"Tampa FL","scan_time":"2026-09-22T07:57:18Z","stale":false,"bins":25,"density_birds_km3":13.703125,"heading_deg":207.5237955837205,"speed_ms":2.8683351578179166,"peak_altitude_m":0.0,"u_ms":-1.007012406495165,"v_ms":-2.4255053822295203}}]}