{"type":"FeatureCollection","frame":"2026-10-03T02","site_count":20,"fresh_count":19,"failures":{"KILN":"RuntimeError('no scan within 20 min of 2026-10-03T02:00Z')"},"features":[{"type":"Feature","geometry":{"type":"Point","coordinates":[-77.0073,36.984]},"properties":{"site":"KAKQ","name":"Wakefield VA","scan_time":"2026-10-03T01:59:25Z","stale":false,"bins":25,"density_birds_km3":3.841875,"heading_deg":82.65494190888353,"speed_ms":11.982789978851471,"peak_altitude_m":0.0,"u_ms":8.633780706035466,"v_ms":0.42776639010899614}},{"type":"Feature","geometry":{"type":"Point","coordinates":[-71.1369,41.9558]},"properties":{"site":"KBOX","name":"Boston MA","scan_time":"2026-10-03T02:00:29Z","stale":false,"bins":25,"density_birds_km3":28.928125,"heading_deg":185.7213796592398,"speed_ms":11.104845131308766,"peak_altitude_m":200.0,"u_ms":-1.0207033394574732,"v_ms":-11.012284880579273}},{"type":"Feature","geometry":{"type":"Point","coordinates":[-78.7369,42.9489]},"properties":{"site":"KBUF","name":"Buffalo NY","scan_time":"2026-10-03T02:01:37Z","stale":false,"bins":25,"density_birds_km3":105.14,"heading_deg":178.1785038611441,"speed_ms":15.664966267199292,"peak_altitude_m":400.0,"u_ms":0.49039109758417354,"v_ms":-15.629685752330229}},{"type":"Feature","geometry":{"type":"Point","coordinates":[-81.8597,41.4131]},"properties":{"site":"KCLE","name":"Cleveland OH","scan_time":"2026-10-03T02:02:53Z","stale":false,"bins":25,"density_birds_km3":42.094,"heading_deg":192.54529453044287,"speed_ms":14.724579030725373,"peak_altitude_m":400.0,"u_ms":-3.217618466898955,"v_ms":-14.290643332277478}},{"type":"Feature","geometry":{"type":"Point","coordinates":[-81.0423,32.6555]},"properties":{"site":"KCLX","name":"Charleston SC","scan_time":"2026-10-03T02:02:11Z","stale":false,"bins":25,"density_birds_km3":4.481333333333334,"heading_deg":15.410228951238514,"speed_ms":4.874452687358063,"peak_altitude_m":0.0,"u_ms":1.2883694171082514,"v_ms":4.692761544284632}},{"type":"Feature","geometry":{"type":"Point","coordinates":[-74.4108,39.947]},"properties":{"site":"KDIX","name":"Philadelphia PA","scan_time":"2026-10-03T02:01:20Z","stale":false,"bins":25,"density_birds_km3":46.67125,"heading_deg":169.7692590004834,"speed_ms":6.784103169387181,"peak_altitude_m":0.0,"u_ms":1.125480773099776,"v_ms":-6.579487908580012}},{"type":"Feature","geometry":{"type":"Point","coordinates":[-84.5658,33.3636]},"properties":{"site":"KFFC","name":"Atlanta GA","scan_time":"2026-10-03T02:00:59Z","stale":false,"bins":25,"density_birds_km3":19.604666666666667,"heading_deg":335.92678268975305,"speed_ms":3.755476247152039,"peak_altitude_m":400.0,"u_ms":-1.3371282347740336,"v_ms":2.439798007277179}},{"type":"Feature","geometry":{"type":"Point","coordinates":[-85.5449,42.8939]},"properties":{"site":"KGRR","name":"Grand Rapids MI","scan_time":"2026-10-03T01:55:47Z","stale":false,"bins":25,"density_birds_km3":182.96200000000002,"heading_deg":187.86084192181937,"speed_ms":13.533632229643313,"peak_altitude_m":400.0,"u_ms":-1.7772691597162251,"v_ms":-13.238400797251158}},{"type":"Feature","geometry":{"type":"Point","coordinates":[-81.7019,30.4846]},"properties":{"site":"KJAX","name":"Jacksonville FL","scan_time":"2026-10-03T01:59:46Z","stale":false,"bins":25,"density_birds_km3":12.62375,"heading_deg":211.72008578465775,"speed_ms":5.133973607038123,"peak_altitude_m":200.0,"u_ms":-2.692463343108504,"v_ms":-4.3639736070381225}},{"type":"Feature","geometry":{"type":"Point","coordinates":[-88.0847,41.6045]},"properties":{"site":"KLOT","name":"Chicago IL","scan_time":"2026-10-03T01:56:39Z","stale":false,"bins":25,"density_birds_km3":146.20733333333334,"heading_deg":173.0482671907242,"speed_ms":11.139246139044554,"peak_altitude_m":800.0,"u_ms":1.8429655603230115,"v_ms":-10.69668306651285}},{"type":"Feature","geometry":{"type":"Point","coordinates":[-78.4292,33.9892]},"properties":{"site":"KLTX","name":"Wilmington NC","scan_time":"2026-10-03T02:01:20Z","stale":false,"bins":25,"density_birds_km3":5.106875,"heading_deg":54.22314315078403,"speed_ms":8.411206030150753,"peak_altitude_m":0.0,"u_ms":5.707954406177228,"v_ms":4.605504351023409}},{"type":"Feature","geometry":{"type":"Point","coordinates":[-77.4778,38.9753]},"properties":{"site":"KLWX","name":"Sterling VA","scan_time":"2026-10-03T02:00:08Z","stale":false,"bins":25,"density_birds_km3":73.895625,"heading_deg":182.94242287037537,"speed_ms":11.400572344438524,"peak_altitude_m":400.0,"u_ms":-0.6594850845364661,"v_ms":-11.119880743954734}},{"type":"Feature","geometry":{"type":"Point","coordinates":[-76.8762,34.7759]},"properties":{"site":"KMHX","name":"Morehead City NC","scan_time":"2026-10-03T02:01:10Z","stale":false,"bins":25,"density_birds_km3":4.24,"heading_deg":76.45165394775628,"speed_ms":9.094208431603773,"peak_altitude_m":0.0,"u_ms":7.337940742924528,"v_ms":2.9876149764150948}},{"type":"Feature","geometry":{"type":"Point","coordinates":[-80.6542,28.1133]},"properties":{"site":"KMLB","name":"Melbourne FL","scan_time":"2026-10-03T02:01:40Z","stale":false,"bins":25,"density_birds_km3":2.58,"heading_deg":281.71825945872286,"speed_ms":5.811827460510329,"peak_altitude_m":0.0,"u_ms":-5.659363304981774,"v_ms":1.2214289185905225}},{"type":"Feature","geometry":{"type":"Point","coordinates":[-86.5625,36.2472]},"properties":{"site":"KOHX","name":"Nashville TN","scan_time":"2026-10-03T01:59:58Z","stale":false,"bins":25,"density_birds_km3":48.46133333333333,"heading_deg":208.8567545177498,"speed_ms":6.856486497669158,"peak_altitude_m":400.0,"u_ms":-3.3205491959286126,"v_ms":-5.953182495241772}},{"type":"Feature","geometry":{"type":"Point","coordinates":[-72.8639,40.8655]},"properties":{"site":"KOKX","name":"Upton NY","scan_time":"2026-10-03T02:00:50Z","stale":false,"bins":25,"density_birds_km3":22.993125,"heading_deg":194.85118612237946,"speed_ms":11.304053212020957,"peak_altitude_m":0.0,"u_ms":-2.7697637165701683,"v_ms":-10.428005789909017}},{"type":"Feature","geometry":{"type":"Point","coordinates":[-80.2183,40.5317]},"properties":{"site":"KPBZ","name":"Pittsburgh PA","scan_time":"2026-10-03T01:57:57Z","stale":false,"bins":25,"density_birds_km3":123.495,"heading_deg":209.47662407187795,"speed_ms":13.6197617601638,"peak_altitude_m":600.0,"u_ms":-6.611366741279288,"v_ms":-11.896322002625901}},{"type":"Feature","geometry":{"type":"Point","coordinates":[-78.4899,35.6655]},"properties":{"site":"KRAX","name":"Raleigh NC","scan_time":"2026-10-03T02:03:01Z","stale":false,"bins":25,"density_birds_km3":6.3825,"heading_deg":48.49717925357453,"speed_ms":8.328995299647474,"peak_altitude_m":0.0,"u_ms":5.385907755581669,"v_ms":4.843428319623972}},{"type":"Feature","geometry":{"type":"Point","coordinates":[-82.4017,27.7055]},"properties":{"site":"KTBW","name":"Tampa FL","scan_time":"2026-10-03T01:59:28Z","stale":false,"bins":25,"density_birds_km3":10.334375,"heading_deg":254.40778975228025,"speed_ms":6.75059040590406,"peak_altitude_m":0.0,"u_ms":-6.102399733833404,"v_ms":-1.488271731897647}}]}