{"type":"FeatureCollection","frame":"2026-09-11T11","site_count":20,"fresh_count":20,"failures":{},"features":[{"type":"Feature","geometry":{"type":"Point","coordinates":[-77.0073,36.984]},"properties":{"site":"KAKQ","name":"Wakefield VA","scan_time":"2026-09-11T10:59:40Z","stale":false,"bins":25,"density_birds_km3":3.67875,"heading_deg":123.0721018316015,"speed_ms":9.418302400817302,"peak_altitude_m":200.0,"u_ms":7.844280606163801,"v_ms":-5.142526817640048}},{"type":"Feature","geometry":{"type":"Point","coordinates":[-71.1369,41.9558]},"properties":{"site":"KBOX","name":"Boston MA","scan_time":"2026-09-11T11:00:56Z","stale":false,"bins":25,"density_birds_km3":5.099375,"heading_deg":161.6050665537149,"speed_ms":9.944000490256158,"peak_altitude_m":400.0,"u_ms":3.1308064713812964,"v_ms":-9.433674469910528}},{"type":"Feature","geometry":{"type":"Point","coordinates":[-78.7369,42.9489]},"properties":{"site":"KBUF","name":"Buffalo NY","scan_time":"2026-09-11T11:03:42Z","stale":false,"bins":25,"density_birds_km3":2.291333333333333,"heading_deg":153.208495480707,"speed_ms":7.914396275821939,"peak_altitude_m":200.0,"u_ms":3.531344195519349,"v_ms":-7.0442537096304925}},{"type":"Feature","geometry":{"type":"Point","coordinates":[-81.8597,41.4131]},"properties":{"site":"KCLE","name":"Cleveland OH","scan_time":"2026-09-11T11:02:06Z","stale":false,"bins":25,"density_birds_km3":15.283999999999999,"heading_deg":216.58744071277323,"speed_ms":8.081284523757581,"peak_altitude_m":200.0,"u_ms":-4.5692486583184255,"v_ms":-6.404476198787032}},{"type":"Feature","geometry":{"type":"Point","coordinates":[-81.0423,32.6555]},"properties":{"site":"KCLX","name":"Charleston SC","scan_time":"2026-09-11T11:03:06Z","stale":false,"bins":25,"density_birds_km3":6.948125,"heading_deg":108.78161289208481,"speed_ms":7.210533417288837,"peak_altitude_m":200.0,"u_ms":6.7581802644598366,"v_ms":-2.369155347665737}},{"type":"Feature","geometry":{"type":"Point","coordinates":[-74.4108,39.947]},"properties":{"site":"KDIX","name":"Philadelphia PA","scan_time":"2026-09-11T11:01:40Z","stale":false,"bins":25,"density_birds_km3":3.271875,"heading_deg":209.6,"speed_ms":8.84,"peak_altitude_m":200.0,"u_ms":-4.36,"v_ms":-7.6899999999999995}},{"type":"Feature","geometry":{"type":"Point","coordinates":[-84.5658,33.3636]},"properties":{"site":"KFFC","name":"Atlanta GA","scan_time":"2026-09-11T10:57:30Z","stale":false,"bins":25,"density_birds_km3":1.184,"heading_deg":115.15947001311235,"speed_ms":5.677342342342343,"peak_altitude_m":400.0,"u_ms":4.989408783783785,"v_ms":-1.8761993243243247}},{"type":"Feature","geometry":{"type":"Point","coordinates":[-85.5449,42.8939]},"properties":{"site":"KGRR","name":"Grand Rapids MI","scan_time":"2026-09-11T10:56:04Z","stale":false,"bins":25,"density_birds_km3":0.664,"heading_deg":270.2813181928314,"speed_ms":4.4189859437751,"peak_altitude_m":400.0,"u_ms":-4.167369477911646,"v_ms":-0.047710843373493905}},{"type":"Feature","geometry":{"type":"Point","coordinates":[-83.8217,39.4203]},"properties":{"site":"KILN","name":"Wilmington OH","scan_time":"2026-09-11T10:58:40Z","stale":false,"bins":25,"density_birds_km3":9.177333333333333,"heading_deg":192.6658279924317,"speed_ms":9.839970928119776,"peak_altitude_m":600.0,"u_ms":-2.1565179155461878,"v_ms":-9.571170869976013}},{"type":"Feature","geometry":{"type":"Point","coordinates":[-81.7019,30.4846]},"properties":{"site":"KJAX","name":"Jacksonville FL","scan_time":"2026-09-11T10:59:18Z","stale":false,"bins":25,"density_birds_km3":1.6775,"heading_deg":90.59610960008321,"speed_ms":2.974261744966443,"peak_altitude_m":200.0,"u_ms":2.950693512304251,"v_ms":0.011405667412378823}},{"type":"Feature","geometry":{"type":"Point","coordinates":[-88.0847,41.6045]},"properties":{"site":"KLOT","name":"Chicago IL","scan_time":"2026-09-11T10:59:49Z","stale":false,"bins":25,"density_birds_km3":1.8046666666666666,"heading_deg":279.1234999249166,"speed_ms":8.117627494456764,"peak_altitude_m":400.0,"u_ms":-7.537239467849225,"v_ms":1.4207612712490765}},{"type":"Feature","geometry":{"type":"Point","coordinates":[-78.4292,33.9892]},"properties":{"site":"KLTX","name":"Wilmington NC","scan_time":"2026-09-11T11:00:34Z","stale":false,"bins":25,"density_birds_km3":3.85,"heading_deg":85.32219680408816,"speed_ms":7.9506518904823995,"peak_altitude_m":600.0,"u_ms":7.895368318122556,"v_ms":0.5561945893089961}},{"type":"Feature","geometry":{"type":"Point","coordinates":[-77.4778,38.9753]},"properties":{"site":"KLWX","name":"Sterling VA","scan_time":"2026-09-11T10:57:50Z","stale":false,"bins":25,"density_birds_km3":1.171875,"heading_deg":216.63220718320665,"speed_ms":2.9097416762342134,"peak_altitude_m":400.0,"u_ms":-1.1101549942594717,"v_ms":-2.0733467278989663}},{"type":"Feature","geometry":{"type":"Point","coordinates":[-76.8762,34.7759]},"properties":{"site":"KMHX","name":"Morehead City NC","scan_time":"2026-09-11T10:58:08Z","stale":false,"bins":25,"density_birds_km3":2.20125,"heading_deg":113.52438769118076,"speed_ms":9.764946022727273,"peak_altitude_m":200.0,"u_ms":8.90422443181818,"v_ms":-3.9010710227272725}},{"type":"Feature","geometry":{"type":"Point","coordinates":[-80.6542,28.1133]},"properties":{"site":"KMLB","name":"Melbourne FL","scan_time":"2026-09-11T11:01:19Z","stale":false,"bins":25,"density_birds_km3":3.0187500000000003,"heading_deg":328.8216438741353,"speed_ms":2.944809523809524,"peak_altitude_m":200.0,"u_ms":-0.39252587991718424,"v_ms":2.4784844720496895}},{"type":"Feature","geometry":{"type":"Point","coordinates":[-86.5625,36.2472]},"properties":{"site":"KOHX","name":"Nashville TN","scan_time":"2026-09-11T10:58:18Z","stale":false,"bins":25,"density_birds_km3":15.22,"heading_deg":181.0574412758473,"speed_ms":5.437629665323287,"peak_altitude_m":400.0,"u_ms":0.44727396180129647,"v_ms":-1.3400346066234448}},{"type":"Feature","geometry":{"type":"Point","coordinates":[-72.8639,40.8655]},"properties":{"site":"KOKX","name":"Upton NY","scan_time":"2026-09-11T10:59:07Z","stale":false,"bins":25,"density_birds_km3":4.77375,"heading_deg":168.24669315364497,"speed_ms":6.43207776904949,"peak_altitude_m":0.0,"u_ms":1.626614296936371,"v_ms":-6.103256087981147}},{"type":"Feature","geometry":{"type":"Point","coordinates":[-80.2183,40.5317]},"properties":{"site":"KPBZ","name":"Pittsburgh PA","scan_time":"2026-09-11T10:58:41Z","stale":false,"bins":25,"density_birds_km3":11.439285714285715,"heading_deg":193.31791301929314,"speed_ms":7.3880344762975465,"peak_altitude_m":400.0,"u_ms":-1.2847354943476361,"v_ms":-6.700460933108489}},{"type":"Feature","geometry":{"type":"Point","coordinates":[-78.4899,35.6655]},"properties":{"site":"KRAX","name":"Raleigh NC","scan_time":"2026-09-11T11:01:16Z","stale":false,"bins":25,"density_birds_km3":3.28875,"heading_deg":117.03692730913036,"speed_ms":9.854766283524903,"peak_altitude_m":0.0,"u_ms":8.702429118773948,"v_ms":-4.56689846743295}},{"type":"Feature","geometry":{"type":"Point","coordinates":[-82.4017,27.7055]},"properties":{"site":"KTBW","name":"Tampa FL","scan_time":"2026-09-11T11:00:17Z","stale":false,"bins":25,"density_birds_km3":2.8275,"heading_deg":334.00977054542636,"speed_ms":5.243086966142952,"peak_altitude_m":200.0,"u_ms":-2.173839344987829,"v_ms":4.65736667404293}}]}