{"type":"FeatureCollection","frame":"2026-09-08T04","site_count":20,"fresh_count":19,"failures":{"KOKX":"RuntimeError('no scan within 20 min of 2026-09-08T04:00Z')"},"features":[{"type":"Feature","geometry":{"type":"Point","coordinates":[-77.0073,36.984]},"properties":{"site":"KAKQ","name":"Wakefield VA","scan_time":"2026-09-08T04:01:28Z","stale":false,"bins":25,"density_birds_km3":9.475,"heading_deg":227.82353979525635,"speed_ms":7.717867273566859,"peak_altitude_m":1000.0,"u_ms":-3.32225212744904,"v_ms":-4.69743320799525}},{"type":"Feature","geometry":{"type":"Point","coordinates":[-71.1369,41.9558]},"properties":{"site":"KBOX","name":"Boston MA","scan_time":"2026-09-08T03:56:58Z","stale":false,"bins":25,"density_birds_km3":1.9893750000000001,"heading_deg":168.09852508671338,"speed_ms":9.415523749606795,"peak_altitude_m":0.0,"u_ms":1.2100692041522494,"v_ms":-8.65371185907518}},{"type":"Feature","geometry":{"type":"Point","coordinates":[-78.7369,42.9489]},"properties":{"site":"KBUF","name":"Buffalo NY","scan_time":"2026-09-08T03:59:40Z","stale":false,"bins":25,"density_birds_km3":8.363333333333333,"heading_deg":181.42296149444746,"speed_ms":7.923387803905938,"peak_altitude_m":800.0,"u_ms":-1.3334037465125548,"v_ms":-7.589500199282583}},{"type":"Feature","geometry":{"type":"Point","coordinates":[-81.8597,41.4131]},"properties":{"site":"KCLE","name":"Cleveland OH","scan_time":"2026-09-08T03:59:43Z","stale":false,"bins":25,"density_birds_km3":10.918000000000001,"heading_deg":266.8299654079471,"speed_ms":8.768304515182992,"peak_altitude_m":400.0,"u_ms":-8.52597910429523,"v_ms":-0.5564874442475714}},{"type":"Feature","geometry":{"type":"Point","coordinates":[-81.0423,32.6555]},"properties":{"site":"KCLX","name":"Charleston SC","scan_time":"2026-09-08T04:00:27Z","stale":false,"bins":25,"density_birds_km3":14.8025,"heading_deg":226.6635477269466,"speed_ms":13.14411079209593,"peak_altitude_m":0.0,"u_ms":-9.543327985137646,"v_ms":-8.656865816585034}},{"type":"Feature","geometry":{"type":"Point","coordinates":[-74.4108,39.947]},"properties":{"site":"KDIX","name":"Philadelphia PA","scan_time":"2026-09-08T04:03:01Z","stale":false,"bins":25,"density_birds_km3":13.483125,"heading_deg":195.82601492614359,"speed_ms":7.793843229963381,"peak_altitude_m":1200.0,"u_ms":-3.035818384091225,"v_ms":-6.149336670838548}},{"type":"Feature","geometry":{"type":"Point","coordinates":[-84.5658,33.3636]},"properties":{"site":"KFFC","name":"Atlanta GA","scan_time":"2026-09-08T03:57:31Z","stale":false,"bins":25,"density_birds_km3":26.523333333333333,"heading_deg":258.620285665486,"speed_ms":10.903792635415357,"peak_altitude_m":600.0,"u_ms":-10.027923337941434,"v_ms":-1.3586044991831092}},{"type":"Feature","geometry":{"type":"Point","coordinates":[-85.5449,42.8939]},"properties":{"site":"KGRR","name":"Grand Rapids MI","scan_time":"2026-09-08T03:58:09Z","stale":false,"bins":25,"density_birds_km3":11.544,"heading_deg":355.8411375896867,"speed_ms":4.653464425964426,"peak_altitude_m":200.0,"u_ms":-0.3599064449064449,"v_ms":4.543112150612151}},{"type":"Feature","geometry":{"type":"Point","coordinates":[-83.8217,39.4203]},"properties":{"site":"KILN","name":"Wilmington OH","scan_time":"2026-09-08T04:00:55Z","stale":false,"bins":25,"density_birds_km3":7.594666666666667,"heading_deg":264.06166956513084,"speed_ms":9.855133426966292,"peak_altitude_m":200.0,"u_ms":-8.316761762640448,"v_ms":-0.7037535112359549}},{"type":"Feature","geometry":{"type":"Point","coordinates":[-81.7019,30.4846]},"properties":{"site":"KJAX","name":"Jacksonville FL","scan_time":"2026-09-08T03:58:35Z","stale":false,"bins":25,"density_birds_km3":73.22937499999999,"heading_deg":190.81191304441973,"speed_ms":10.807418490321261,"peak_altitude_m":0.0,"u_ms":-2.049038527192653,"v_ms":-10.519833225222765}},{"type":"Feature","geometry":{"type":"Point","coordinates":[-88.0847,41.6045]},"properties":{"site":"KLOT","name":"Chicago IL","scan_time":"2026-09-08T04:00:39Z","stale":false,"bins":25,"density_birds_km3":5.939333333333334,"heading_deg":295.3925218507423,"speed_ms":8.927170277247727,"peak_altitude_m":200.0,"u_ms":-7.080072959928163,"v_ms":3.5993343809630707}},{"type":"Feature","geometry":{"type":"Point","coordinates":[-78.4292,33.9892]},"properties":{"site":"KLTX","name":"Wilmington NC","scan_time":"2026-09-08T03:58:59Z","stale":false,"bins":25,"density_birds_km3":20.45,"heading_deg":225.91434104099037,"speed_ms":12.725553551778948,"peak_altitude_m":0.0,"u_ms":-9.18566114439418,"v_ms":-8.671209805599705}},{"type":"Feature","geometry":{"type":"Point","coordinates":[-77.4778,38.9753]},"properties":{"site":"KLWX","name":"Sterling VA","scan_time":"2026-09-08T03:58:10Z","stale":false,"bins":25,"density_birds_km3":22.32375,"heading_deg":240.17557081247975,"speed_ms":6.436415374695114,"peak_altitude_m":400.0,"u_ms":-5.157503995065744,"v_ms":-2.9397810423617146}},{"type":"Feature","geometry":{"type":"Point","coordinates":[-76.8762,34.7759]},"properties":{"site":"KMHX","name":"Morehead City NC","scan_time":"2026-09-08T03:58:21Z","stale":false,"bins":25,"density_birds_km3":3.326875,"heading_deg":231.57126667636757,"speed_ms":9.659622393387188,"peak_altitude_m":0.0,"u_ms":-7.493109148976141,"v_ms":-5.722477925981589}},{"type":"Feature","geometry":{"type":"Point","coordinates":[-80.6542,28.1133]},"properties":{"site":"KMLB","name":"Melbourne FL","scan_time":"2026-09-08T03:58:43Z","stale":false,"bins":25,"density_birds_km3":18.163125,"heading_deg":162.09347399826402,"speed_ms":6.21238980076391,"peak_altitude_m":0.0,"u_ms":1.937809435325694,"v_ms":-5.883381851966554}},{"type":"Feature","geometry":{"type":"Point","coordinates":[-86.5625,36.2472]},"properties":{"site":"KOHX","name":"Nashville TN","scan_time":"2026-09-08T04:01:41Z","stale":false,"bins":25,"density_birds_km3":58.992666666666665,"heading_deg":315.2262518721765,"speed_ms":6.160768796121551,"peak_altitude_m":200.0,"u_ms":-4.064345172846343,"v_ms":4.296977703443366}},{"type":"Feature","geometry":{"type":"Point","coordinates":[-80.2183,40.5317]},"properties":{"site":"KPBZ","name":"Pittsburgh PA","scan_time":"2026-09-08T04:01:21Z","stale":false,"bins":25,"density_birds_km3":20.673571428571428,"heading_deg":246.7526487770835,"speed_ms":7.941670524824654,"peak_altitude_m":600.0,"u_ms":-6.551582420619839,"v_ms":-3.267763189717721}},{"type":"Feature","geometry":{"type":"Point","coordinates":[-78.4899,35.6655]},"properties":{"site":"KRAX","name":"Raleigh NC","scan_time":"2026-09-08T03:59:52Z","stale":false,"bins":25,"density_birds_km3":20.228125,"heading_deg":243.7075834296624,"speed_ms":8.045459011834502,"peak_altitude_m":0.0,"u_ms":-6.638473565491457,"v_ms":-3.433009609739517}},{"type":"Feature","geometry":{"type":"Point","coordinates":[-82.4017,27.7055]},"properties":{"site":"KTBW","name":"Tampa FL","scan_time":"2026-09-08T03:59:03Z","stale":false,"bins":25,"density_birds_km3":10.73,"heading_deg":216.11224345973002,"speed_ms":4.47189072693383,"peak_altitude_m":0.0,"u_ms":-1.706092730661696,"v_ms":-2.7479520037278657}}]}