{"type":"FeatureCollection","frame":"2026-09-17T08","site_count":20,"fresh_count":20,"failures":{},"features":[{"type":"Feature","geometry":{"type":"Point","coordinates":[-77.0073,36.984]},"properties":{"site":"KAKQ","name":"Wakefield VA","scan_time":"2026-09-17T08:02:26Z","stale":false,"bins":25,"density_birds_km3":1.308125,"heading_deg":44.86193218359697,"speed_ms":6.912553802008609,"peak_altitude_m":0.0,"u_ms":2.9050932568149213,"v_ms":4.013620277379244}},{"type":"Feature","geometry":{"type":"Point","coordinates":[-71.1369,41.9558]},"properties":{"site":"KBOX","name":"Boston MA","scan_time":"2026-09-17T07:58:37Z","stale":false,"bins":25,"density_birds_km3":5.0125,"heading_deg":153.06292523889357,"speed_ms":5.815705911698679,"peak_altitude_m":200.0,"u_ms":1.7240883013220254,"v_ms":-4.563458468445997}},{"type":"Feature","geometry":{"type":"Point","coordinates":[-78.7369,42.9489]},"properties":{"site":"KBUF","name":"Buffalo NY","scan_time":"2026-09-17T07:59:15Z","stale":false,"bins":25,"density_birds_km3":64.54266666666666,"heading_deg":237.87112579625872,"speed_ms":8.125259363315223,"peak_altitude_m":400.0,"u_ms":-6.418318734893714,"v_ms":-4.28154616067924}},{"type":"Feature","geometry":{"type":"Point","coordinates":[-81.8597,41.4131]},"properties":{"site":"KCLE","name":"Cleveland OH","scan_time":"2026-09-17T08:01:20Z","stale":false,"bins":25,"density_birds_km3":39.318,"heading_deg":240.08106756496775,"speed_ms":5.515526556776557,"peak_altitude_m":200.0,"u_ms":-3.1488995726495728,"v_ms":-2.767790835707503}},{"type":"Feature","geometry":{"type":"Point","coordinates":[-81.0423,32.6555]},"properties":{"site":"KCLX","name":"Charleston SC","scan_time":"2026-09-17T07:59:02Z","stale":false,"bins":25,"density_birds_km3":8.463750000000001,"heading_deg":228.39756221220884,"speed_ms":9.301730911239106,"peak_altitude_m":0.0,"u_ms":-6.876651897799438,"v_ms":-6.124260079751882}},{"type":"Feature","geometry":{"type":"Point","coordinates":[-74.4108,39.947]},"properties":{"site":"KDIX","name":"Philadelphia PA","scan_time":"2026-09-17T07:59:37Z","stale":false,"bins":25,"density_birds_km3":1.310625,"heading_deg":100.00351306926419,"speed_ms":5.893770883054893,"peak_altitude_m":0.0,"u_ms":5.102582338902148,"v_ms":-0.37606682577565625}},{"type":"Feature","geometry":{"type":"Point","coordinates":[-84.5658,33.3636]},"properties":{"site":"KFFC","name":"Atlanta GA","scan_time":"2026-09-17T07:56:54Z","stale":false,"bins":25,"density_birds_km3":18.766666666666666,"heading_deg":250.789989307386,"speed_ms":7.582637875173567,"peak_altitude_m":200.0,"u_ms":-6.040123188663794,"v_ms":-3.1563730551500693}},{"type":"Feature","geometry":{"type":"Point","coordinates":[-85.5449,42.8939]},"properties":{"site":"KGRR","name":"Grand Rapids MI","scan_time":"2026-09-17T08:00:57Z","stale":false,"bins":25,"density_birds_km3":5.6066666666666665,"heading_deg":278.4114370705777,"speed_ms":7.091257929383603,"peak_altitude_m":400.0,"u_ms":-4.623024536205865,"v_ms":0.4085134649910233}},{"type":"Feature","geometry":{"type":"Point","coordinates":[-83.8217,39.4203]},"properties":{"site":"KILN","name":"Wilmington OH","scan_time":"2026-09-17T08:00:10Z","stale":false,"bins":25,"density_birds_km3":11.265333333333334,"heading_deg":93.87624753123025,"speed_ms":10.183640075748608,"peak_altitude_m":200.0,"u_ms":9.954494022961297,"v_ms":-1.0332376612616876}},{"type":"Feature","geometry":{"type":"Point","coordinates":[-81.7019,30.4846]},"properties":{"site":"KJAX","name":"Jacksonville FL","scan_time":"2026-09-17T08:01:50Z","stale":false,"bins":25,"density_birds_km3":85.604375,"heading_deg":193.48897129651334,"speed_ms":9.935169757949275,"peak_altitude_m":0.0,"u_ms":-2.4153215251467475,"v_ms":-9.541917572311098}},{"type":"Feature","geometry":{"type":"Point","coordinates":[-88.0847,41.6045]},"properties":{"site":"KLOT","name":"Chicago IL","scan_time":"2026-09-17T08:02:25Z","stale":false,"bins":25,"density_birds_km3":9.231333333333334,"heading_deg":109.30122963955199,"speed_ms":4.881869719072723,"peak_altitude_m":400.0,"u_ms":3.9951166317613924,"v_ms":-0.4076478659637467}},{"type":"Feature","geometry":{"type":"Point","coordinates":[-78.4292,33.9892]},"properties":{"site":"KLTX","name":"Wilmington NC","scan_time":"2026-09-17T08:03:18Z","stale":false,"bins":25,"density_birds_km3":3.30875,"heading_deg":242.5124305155672,"speed_ms":6.348559818559818,"peak_altitude_m":0.0,"u_ms":-5.497042147042148,"v_ms":-2.8639255339255345}},{"type":"Feature","geometry":{"type":"Point","coordinates":[-77.4778,38.9753]},"properties":{"site":"KLWX","name":"Sterling VA","scan_time":"2026-09-17T08:02:29Z","stale":false,"bins":25,"density_birds_km3":6.57875,"heading_deg":73.98389006255157,"speed_ms":3.4554793467819405,"peak_altitude_m":200.0,"u_ms":1.8842997118155618,"v_ms":-0.26602305475504323}},{"type":"Feature","geometry":{"type":"Point","coordinates":[-76.8762,34.7759]},"properties":{"site":"KMHX","name":"Morehead City NC","scan_time":"2026-09-17T08:00:56Z","stale":false,"bins":25,"density_birds_km3":1.1925000000000001,"heading_deg":242.46273332859312,"speed_ms":3.7225471698113206,"peak_altitude_m":0.0,"u_ms":-3.149025157232704,"v_ms":-1.750482180293501}},{"type":"Feature","geometry":{"type":"Point","coordinates":[-80.6542,28.1133]},"properties":{"site":"KMLB","name":"Melbourne FL","scan_time":"2026-09-17T07:58:57Z","stale":false,"bins":25,"density_birds_km3":2.16125,"heading_deg":238.91193414424453,"speed_ms":3.745270622286541,"peak_altitude_m":0.0,"u_ms":-3.1155224312590444,"v_ms":-1.9282778581765554}},{"type":"Feature","geometry":{"type":"Point","coordinates":[-86.5625,36.2472]},"properties":{"site":"KOHX","name":"Nashville TN","scan_time":"2026-09-17T08:01:43Z","stale":false,"bins":25,"density_birds_km3":22.566666666666666,"heading_deg":32.71365939673189,"speed_ms":7.160420974889218,"peak_altitude_m":200.0,"u_ms":2.748964844903988,"v_ms":4.26418788774003}},{"type":"Feature","geometry":{"type":"Point","coordinates":[-72.8639,40.8655]},"properties":{"site":"KOKX","name":"Upton NY","scan_time":"2026-09-17T08:02:53Z","stale":false,"bins":25,"density_birds_km3":0.70625,"heading_deg":75.5483216659543,"speed_ms":4.622326820603908,"peak_altitude_m":0.0,"u_ms":3.6315275310834814,"v_ms":1.0562877442273535}},{"type":"Feature","geometry":{"type":"Point","coordinates":[-80.2183,40.5317]},"properties":{"site":"KPBZ","name":"Pittsburgh PA","scan_time":"2026-09-17T07:59:57Z","stale":false,"bins":25,"density_birds_km3":14.953571428571427,"heading_deg":140.88882936638964,"speed_ms":8.124246954860283,"peak_altitude_m":600.0,"u_ms":5.207070456173872,"v_ms":-5.514252686887986}},{"type":"Feature","geometry":{"type":"Point","coordinates":[-78.4899,35.6655]},"properties":{"site":"KRAX","name":"Raleigh NC","scan_time":"2026-09-17T07:58:30Z","stale":false,"bins":25,"density_birds_km3":3.42125,"heading_deg":90.53625549484988,"speed_ms":5.906947599853427,"peak_altitude_m":200.0,"u_ms":2.94197691462074,"v_ms":0.17251740564309276}},{"type":"Feature","geometry":{"type":"Point","coordinates":[-82.4017,27.7055]},"properties":{"site":"KTBW","name":"Tampa FL","scan_time":"2026-09-17T07:58:36Z","stale":false,"bins":25,"density_birds_km3":9.26375,"heading_deg":190.22019757368304,"speed_ms":9.365627825382902,"peak_altitude_m":0.0,"u_ms":-1.6156919236218878,"v_ms":-8.985345118413063}}]}