{"type":"FeatureCollection","frame":"2026-09-05T10","site_count":20,"fresh_count":20,"failures":{},"features":[{"type":"Feature","geometry":{"type":"Point","coordinates":[-77.0073,36.984]},"properties":{"site":"KAKQ","name":"Wakefield VA","scan_time":"2026-09-05T09:57:48Z","stale":false,"bins":25,"density_birds_km3":32.241875,"heading_deg":187.4604395041971,"speed_ms":8.853820684307454,"peak_altitude_m":0.0,"u_ms":-1.0275025685761363,"v_ms":-8.598554618590674}},{"type":"Feature","geometry":{"type":"Point","coordinates":[-71.1369,41.9558]},"properties":{"site":"KBOX","name":"Boston MA","scan_time":"2026-09-05T09:56:41Z","stale":false,"bins":25,"density_birds_km3":3.6437500000000003,"heading_deg":181.1611478454278,"speed_ms":11.955889443774755,"peak_altitude_m":400.0,"u_ms":-0.1974944033063543,"v_ms":-11.890377131048734}},{"type":"Feature","geometry":{"type":"Point","coordinates":[-78.7369,42.9489]},"properties":{"site":"KBUF","name":"Buffalo NY","scan_time":"2026-09-05T09:58:40Z","stale":false,"bins":25,"density_birds_km3":4.0680000000000005,"heading_deg":207.91071537360662,"speed_ms":8.253287446738774,"peak_altitude_m":400.0,"u_ms":-3.8059718125204847,"v_ms":-7.16466404457555}},{"type":"Feature","geometry":{"type":"Point","coordinates":[-81.8597,41.4131]},"properties":{"site":"KCLE","name":"Cleveland OH","scan_time":"2026-09-05T09:59:44Z","stale":false,"bins":25,"density_birds_km3":4.284000000000001,"heading_deg":206.74160009701282,"speed_ms":4.840160286336757,"peak_altitude_m":200.0,"u_ms":-2.1140040460628695,"v_ms":-3.96036570183629}},{"type":"Feature","geometry":{"type":"Point","coordinates":[-81.0423,32.6555]},"properties":{"site":"KCLX","name":"Charleston SC","scan_time":"2026-09-05T09:59:57Z","stale":false,"bins":25,"density_birds_km3":3.3425,"heading_deg":150.27246694067446,"speed_ms":4.42834673648775,"peak_altitude_m":0.0,"u_ms":1.9233439311763607,"v_ms":-3.855249672713671}},{"type":"Feature","geometry":{"type":"Point","coordinates":[-74.4108,39.947]},"properties":{"site":"KDIX","name":"Philadelphia PA","scan_time":"2026-09-05T09:58:07Z","stale":false,"bins":25,"density_birds_km3":18.21625,"heading_deg":203.52220248980225,"speed_ms":11.425074626865673,"peak_altitude_m":400.0,"u_ms":-4.589483616400755,"v_ms":-10.425601990049753}},{"type":"Feature","geometry":{"type":"Point","coordinates":[-84.5658,33.3636]},"properties":{"site":"KFFC","name":"Atlanta GA","scan_time":"2026-09-05T09:59:57Z","stale":false,"bins":25,"density_birds_km3":26.061333333333334,"heading_deg":177.77165535916168,"speed_ms":7.89718693238507,"peak_altitude_m":400.0,"u_ms":-1.3397636163626596,"v_ms":-5.4662298856455775}},{"type":"Feature","geometry":{"type":"Point","coordinates":[-85.5449,42.8939]},"properties":{"site":"KGRR","name":"Grand Rapids MI","scan_time":"2026-09-05T10:00:45Z","stale":false,"bins":25,"density_birds_km3":2.784666666666667,"heading_deg":258.3776709059167,"speed_ms":7.149453933124851,"peak_altitude_m":400.0,"u_ms":-6.874604281934087,"v_ms":-1.3504498436372385}},{"type":"Feature","geometry":{"type":"Point","coordinates":[-83.8217,39.4203]},"properties":{"site":"KILN","name":"Wilmington OH","scan_time":"2026-09-05T09:58:37Z","stale":false,"bins":25,"density_birds_km3":19.955384615384617,"heading_deg":null,"speed_ms":null,"peak_altitude_m":400.0,"u_ms":null,"v_ms":null}},{"type":"Feature","geometry":{"type":"Point","coordinates":[-81.7019,30.4846]},"properties":{"site":"KJAX","name":"Jacksonville FL","scan_time":"2026-09-05T10:00:20Z","stale":false,"bins":25,"density_birds_km3":4.934375,"heading_deg":149.12712848648076,"speed_ms":3.6521773274224185,"peak_altitude_m":0.0,"u_ms":1.914929702343255,"v_ms":-3.021176694110196}},{"type":"Feature","geometry":{"type":"Point","coordinates":[-88.0847,41.6045]},"properties":{"site":"KLOT","name":"Chicago IL","scan_time":"2026-09-05T09:58:23Z","stale":false,"bins":25,"density_birds_km3":42.35066666666667,"heading_deg":142.64894157083916,"speed_ms":13.948932563045055,"peak_altitude_m":400.0,"u_ms":8.41624689103674,"v_ms":-11.083972704089666}},{"type":"Feature","geometry":{"type":"Point","coordinates":[-78.4292,33.9892]},"properties":{"site":"KLTX","name":"Wilmington NC","scan_time":"2026-09-05T09:57:46Z","stale":false,"bins":25,"density_birds_km3":4.211875,"heading_deg":91.8750608777272,"speed_ms":4.733866839462174,"peak_altitude_m":0.0,"u_ms":3.8170225174145473,"v_ms":-1.0442523894378744}},{"type":"Feature","geometry":{"type":"Point","coordinates":[-77.4778,38.9753]},"properties":{"site":"KLWX","name":"Sterling VA","scan_time":"2026-09-05T10:00:54Z","stale":false,"bins":25,"density_birds_km3":49.269375000000004,"heading_deg":225.17695794706768,"speed_ms":9.221127985957414,"peak_altitude_m":200.0,"u_ms":-5.749968455061181,"v_ms":-6.408442723040525}},{"type":"Feature","geometry":{"type":"Point","coordinates":[-76.8762,34.7759]},"properties":{"site":"KMHX","name":"Morehead City NC","scan_time":"2026-09-05T09:57:57Z","stale":false,"bins":25,"density_birds_km3":2.794375,"heading_deg":106.72912530972762,"speed_ms":9.084068934646375,"peak_altitude_m":0.0,"u_ms":6.976013876454789,"v_ms":-2.5740017905102954}},{"type":"Feature","geometry":{"type":"Point","coordinates":[-80.6542,28.1133]},"properties":{"site":"KMLB","name":"Melbourne FL","scan_time":"2026-09-05T09:59:08Z","stale":false,"bins":25,"density_birds_km3":2.419375,"heading_deg":44.1739277292833,"speed_ms":4.717385688452596,"peak_altitude_m":0.0,"u_ms":3.253831051407905,"v_ms":3.3922552312064065}},{"type":"Feature","geometry":{"type":"Point","coordinates":[-86.5625,36.2472]},"properties":{"site":"KOHX","name":"Nashville TN","scan_time":"2026-09-05T09:58:55Z","stale":false,"bins":25,"density_birds_km3":61.26199999999999,"heading_deg":182.01737788274934,"speed_ms":7.2054046554144495,"peak_altitude_m":400.0,"u_ms":-0.37844460405036295,"v_ms":-7.142789331069832}},{"type":"Feature","geometry":{"type":"Point","coordinates":[-72.8639,40.8655]},"properties":{"site":"KOKX","name":"Upton NY","scan_time":"2026-09-05T09:58:39Z","stale":false,"bins":25,"density_birds_km3":6.9818750000000005,"heading_deg":219.88964112097358,"speed_ms":8.2687632667746,"peak_altitude_m":200.0,"u_ms":-5.325865263536608,"v_ms":-6.024262457276489}},{"type":"Feature","geometry":{"type":"Point","coordinates":[-80.2183,40.5317]},"properties":{"site":"KPBZ","name":"Pittsburgh PA","scan_time":"2026-09-05T09:59:33Z","stale":false,"bins":25,"density_birds_km3":24.29714285714286,"heading_deg":192.1434245090054,"speed_ms":9.056769755409219,"peak_altitude_m":600.0,"u_ms":-1.6955779633113826,"v_ms":-8.21498030338664}},{"type":"Feature","geometry":{"type":"Point","coordinates":[-78.4899,35.6655]},"properties":{"site":"KRAX","name":"Raleigh NC","scan_time":"2026-09-05T09:55:55Z","stale":false,"bins":25,"density_birds_km3":5.9425,"heading_deg":130.5055190494208,"speed_ms":7.249465778059875,"peak_altitude_m":0.0,"u_ms":3.6035533693007515,"v_ms":-4.832743044536126}},{"type":"Feature","geometry":{"type":"Point","coordinates":[-82.4017,27.7055]},"properties":{"site":"KTBW","name":"Tampa FL","scan_time":"2026-09-05T09:58:04Z","stale":false,"bins":25,"density_birds_km3":2.570625,"heading_deg":327.3155469969962,"speed_ms":4.485215171407732,"peak_altitude_m":0.0,"u_ms":-2.4286117189399463,"v_ms":3.543508388037928}}]}