{"type":"FeatureCollection","frame":"2026-08-17T07","site_count":20,"fresh_count":19,"failures":{"KGRR":"RuntimeError('no scan within 20 min of 2026-08-17T07:00Z')"},"features":[{"type":"Feature","geometry":{"type":"Point","coordinates":[-77.0073,36.984]},"properties":{"site":"KAKQ","name":"Wakefield VA","scan_time":"2026-08-17T07:01:50Z","stale":false,"bins":25,"density_birds_km3":0.9824999999999999,"heading_deg":null,"speed_ms":null,"peak_altitude_m":200.0,"u_ms":null,"v_ms":null}},{"type":"Feature","geometry":{"type":"Point","coordinates":[-71.1369,41.9558]},"properties":{"site":"KBOX","name":"Boston MA","scan_time":"2026-08-17T06:59:01Z","stale":false,"bins":25,"density_birds_km3":4.77,"heading_deg":null,"speed_ms":null,"peak_altitude_m":0.0,"u_ms":null,"v_ms":null}},{"type":"Feature","geometry":{"type":"Point","coordinates":[-78.7369,42.9489]},"properties":{"site":"KBUF","name":"Buffalo NY","scan_time":"2026-08-17T06:57:17Z","stale":false,"bins":25,"density_birds_km3":0.6193333333333334,"heading_deg":106.8301242455628,"speed_ms":5.922475780409041,"peak_altitude_m":200.0,"u_ms":5.5656727664155,"v_ms":-1.6378686759956942}},{"type":"Feature","geometry":{"type":"Point","coordinates":[-81.8597,41.4131]},"properties":{"site":"KCLE","name":"Cleveland OH","scan_time":"2026-08-17T07:00:37Z","stale":false,"bins":25,"density_birds_km3":1.792,"heading_deg":115.47423092245096,"speed_ms":7.445296310100632,"peak_altitude_m":200.0,"u_ms":6.500346626910175,"v_ms":-3.163984345881476}},{"type":"Feature","geometry":{"type":"Point","coordinates":[-81.0423,32.6555]},"properties":{"site":"KCLX","name":"Charleston SC","scan_time":"2026-08-17T07:00:13Z","stale":false,"bins":25,"density_birds_km3":3.61625,"heading_deg":128.42990712194756,"speed_ms":6.147131246757739,"peak_altitude_m":0.0,"u_ms":4.132432993256095,"v_ms":-3.748097873076258}},{"type":"Feature","geometry":{"type":"Point","coordinates":[-74.4108,39.947]},"properties":{"site":"KDIX","name":"Philadelphia PA","scan_time":"2026-08-17T06:58:34Z","stale":false,"bins":25,"density_birds_km3":0.22125,"heading_deg":5.508538959491115,"speed_ms":12.883956834532375,"peak_altitude_m":400.0,"u_ms":1.688093525179856,"v_ms":11.710503597122301}},{"type":"Feature","geometry":{"type":"Point","coordinates":[-84.5658,33.3636]},"properties":{"site":"KFFC","name":"Atlanta GA","scan_time":"2026-08-17T07:01:04Z","stale":false,"bins":25,"density_birds_km3":12.168666666666667,"heading_deg":167.05476175105704,"speed_ms":6.071245274749357,"peak_altitude_m":2000.0,"u_ms":0.8871763545718512,"v_ms":-4.941855585383224}},{"type":"Feature","geometry":{"type":"Point","coordinates":[-83.8217,39.4203]},"properties":{"site":"KILN","name":"Wilmington OH","scan_time":"2026-08-17T06:58:51Z","stale":false,"bins":25,"density_birds_km3":7.996666666666667,"heading_deg":139.04551810813663,"speed_ms":7.098020677005169,"peak_altitude_m":600.0,"u_ms":4.554214607303653,"v_ms":-5.218716024679007}},{"type":"Feature","geometry":{"type":"Point","coordinates":[-81.7019,30.4846]},"properties":{"site":"KJAX","name":"Jacksonville FL","scan_time":"2026-08-17T07:00:35Z","stale":false,"bins":25,"density_birds_km3":13.026875,"heading_deg":123.06417283474524,"speed_ms":7.334221029683045,"peak_altitude_m":0.0,"u_ms":5.978187154117054,"v_ms":-3.957327966907038}},{"type":"Feature","geometry":{"type":"Point","coordinates":[-88.0847,41.6045]},"properties":{"site":"KLOT","name":"Chicago IL","scan_time":"2026-08-17T06:58:44Z","stale":false,"bins":25,"density_birds_km3":17.372666666666664,"heading_deg":174.05957042029704,"speed_ms":8.824754595341341,"peak_altitude_m":400.0,"u_ms":0.6734794121033041,"v_ms":-8.477639587090833}},{"type":"Feature","geometry":{"type":"Point","coordinates":[-78.4292,33.9892]},"properties":{"site":"KLTX","name":"Wilmington NC","scan_time":"2026-08-17T07:01:40Z","stale":false,"bins":25,"density_birds_km3":2.6950000000000003,"heading_deg":61.12749584568632,"speed_ms":3.8236966604823746,"peak_altitude_m":0.0,"u_ms":3.2810389610389605,"v_ms":1.3407026901669759}},{"type":"Feature","geometry":{"type":"Point","coordinates":[-77.4778,38.9753]},"properties":{"site":"KLWX","name":"Sterling VA","scan_time":"2026-08-17T06:59:04Z","stale":false,"bins":25,"density_birds_km3":1.0106249999999999,"heading_deg":55.82281427977652,"speed_ms":7.029213135068154,"peak_altitude_m":0.0,"u_ms":5.143283767038414,"v_ms":2.418351920693928}},{"type":"Feature","geometry":{"type":"Point","coordinates":[-76.8762,34.7759]},"properties":{"site":"KMHX","name":"Morehead City NC","scan_time":"2026-08-17T07:00:42Z","stale":false,"bins":25,"density_birds_km3":0.66375,"heading_deg":72.19784480077017,"speed_ms":7.877219604147031,"peak_altitude_m":200.0,"u_ms":7.426145146088595,"v_ms":2.31497643732328}},{"type":"Feature","geometry":{"type":"Point","coordinates":[-80.6542,28.1133]},"properties":{"site":"KMLB","name":"Melbourne FL","scan_time":"2026-08-17T07:00:42Z","stale":false,"bins":25,"density_birds_km3":4.565625,"heading_deg":64.42150996117145,"speed_ms":5.248881281665069,"peak_altitude_m":0.0,"u_ms":4.52953033000137,"v_ms":2.060042448308914}},{"type":"Feature","geometry":{"type":"Point","coordinates":[-86.5625,36.2472]},"properties":{"site":"KOHX","name":"Nashville TN","scan_time":"2026-08-17T06:57:24Z","stale":false,"bins":25,"density_birds_km3":9.492666666666668,"heading_deg":65.07406945959885,"speed_ms":5.357118477421167,"peak_altitude_m":200.0,"u_ms":3.3881122269822312,"v_ms":1.5228443008638246}},{"type":"Feature","geometry":{"type":"Point","coordinates":[-72.8639,40.8655]},"properties":{"site":"KOKX","name":"Upton NY","scan_time":"2026-08-17T07:02:09Z","stale":false,"bins":25,"density_birds_km3":0.40125000000000005,"heading_deg":null,"speed_ms":null,"peak_altitude_m":0.0,"u_ms":null,"v_ms":null}},{"type":"Feature","geometry":{"type":"Point","coordinates":[-80.2183,40.5317]},"properties":{"site":"KPBZ","name":"Pittsburgh PA","scan_time":"2026-08-17T06:58:36Z","stale":false,"bins":25,"density_birds_km3":0.49571428571428566,"heading_deg":110.15844248901088,"speed_ms":7.668782608695651,"peak_altitude_m":400.0,"u_ms":6.870304347826087,"v_ms":-2.8318985507246373}},{"type":"Feature","geometry":{"type":"Point","coordinates":[-78.4899,35.6655]},"properties":{"site":"KRAX","name":"Raleigh NC","scan_time":"2026-08-17T06:58:50Z","stale":false,"bins":25,"density_birds_km3":1.08125,"heading_deg":59.40479460608638,"speed_ms":8.167093225246091,"peak_altitude_m":0.0,"u_ms":7.092605674580197,"v_ms":3.295558772437753}},{"type":"Feature","geometry":{"type":"Point","coordinates":[-82.4017,27.7055]},"properties":{"site":"KTBW","name":"Tampa FL","scan_time":"2026-08-17T06:58:16Z","stale":false,"bins":25,"density_birds_km3":4.036875,"heading_deg":187.4619981965628,"speed_ms":4.834130401115069,"peak_altitude_m":0.0,"u_ms":-0.5148939135821589,"v_ms":-4.757898404831965}}]}