{"type":"FeatureCollection","frame":"2026-08-25T06","site_count":20,"fresh_count":20,"failures":{},"features":[{"type":"Feature","geometry":{"type":"Point","coordinates":[-77.0073,36.984]},"properties":{"site":"KAKQ","name":"Wakefield VA","scan_time":"2026-08-25T05:58:39Z","stale":false,"bins":25,"density_birds_km3":33.405625,"heading_deg":188.2704681723451,"speed_ms":8.046573737978521,"peak_altitude_m":200.0,"u_ms":-1.2708827601691426,"v_ms":-7.927708528234104}},{"type":"Feature","geometry":{"type":"Point","coordinates":[-71.1369,41.9558]},"properties":{"site":"KBOX","name":"Boston MA","scan_time":"2026-08-25T06:00:44Z","stale":false,"bins":25,"density_birds_km3":1.685625,"heading_deg":81.95379764002746,"speed_ms":5.769020408163265,"peak_altitude_m":0.0,"u_ms":5.664849721706864,"v_ms":0.7744230055658627}},{"type":"Feature","geometry":{"type":"Point","coordinates":[-78.7369,42.9489]},"properties":{"site":"KBUF","name":"Buffalo NY","scan_time":"2026-08-25T06:01:44Z","stale":false,"bins":25,"density_birds_km3":4.784000000000001,"heading_deg":166.18199218301285,"speed_ms":9.147158188153309,"peak_altitude_m":600.0,"u_ms":1.922072473867596,"v_ms":-8.822068292682927}},{"type":"Feature","geometry":{"type":"Point","coordinates":[-81.8597,41.4131]},"properties":{"site":"KCLE","name":"Cleveland OH","scan_time":"2026-08-25T06:00:31Z","stale":false,"bins":25,"density_birds_km3":1.0306666666666666,"heading_deg":130.67355080268425,"speed_ms":6.315320803629294,"peak_altitude_m":200.0,"u_ms":4.334452365521711,"v_ms":-4.020602721970188}},{"type":"Feature","geometry":{"type":"Point","coordinates":[-81.0423,32.6555]},"properties":{"site":"KCLX","name":"Charleston SC","scan_time":"2026-08-25T06:00:24Z","stale":false,"bins":25,"density_birds_km3":21.305625,"heading_deg":196.90902625889063,"speed_ms":5.79631864585778,"peak_altitude_m":0.0,"u_ms":-1.7306357075803804,"v_ms":-5.237887819760619}},{"type":"Feature","geometry":{"type":"Point","coordinates":[-74.4108,39.947]},"properties":{"site":"KDIX","name":"Philadelphia PA","scan_time":"2026-08-25T06:00:33Z","stale":false,"bins":25,"density_birds_km3":3.7275,"heading_deg":184.61930859489055,"speed_ms":10.144195171026158,"peak_altitude_m":0.0,"u_ms":-0.8537307176391683,"v_ms":-10.025670690811536}},{"type":"Feature","geometry":{"type":"Point","coordinates":[-84.5658,33.3636]},"properties":{"site":"KFFC","name":"Atlanta GA","scan_time":"2026-08-25T06:00:00Z","stale":false,"bins":25,"density_birds_km3":26.011333333333333,"heading_deg":218.7381907489184,"speed_ms":6.57818463746572,"peak_altitude_m":600.0,"u_ms":-4.082812363841402,"v_ms":-4.982332829279545}},{"type":"Feature","geometry":{"type":"Point","coordinates":[-85.5449,42.8939]},"properties":{"site":"KGRR","name":"Grand Rapids MI","scan_time":"2026-08-25T06:01:55Z","stale":false,"bins":25,"density_birds_km3":12.544,"heading_deg":206.9410200752453,"speed_ms":12.314166356630347,"peak_altitude_m":400.0,"u_ms":-5.570138719107096,"v_ms":-10.967186819027372}},{"type":"Feature","geometry":{"type":"Point","coordinates":[-83.8217,39.4203]},"properties":{"site":"KILN","name":"Wilmington OH","scan_time":"2026-08-25T06:03:08Z","stale":false,"bins":25,"density_birds_km3":6.269333333333334,"heading_deg":176.39821434078362,"speed_ms":4.741272340425532,"peak_altitude_m":400.0,"u_ms":0.3408840425531915,"v_ms":-4.515782978723404}},{"type":"Feature","geometry":{"type":"Point","coordinates":[-81.7019,30.4846]},"properties":{"site":"KJAX","name":"Jacksonville FL","scan_time":"2026-08-25T05:59:50Z","stale":false,"bins":25,"density_birds_km3":42.175000000000004,"heading_deg":169.568997207429,"speed_ms":8.786103260606255,"peak_altitude_m":200.0,"u_ms":1.9682816814973918,"v_ms":-8.306214046930766}},{"type":"Feature","geometry":{"type":"Point","coordinates":[-88.0847,41.6045]},"properties":{"site":"KLOT","name":"Chicago IL","scan_time":"2026-08-25T05:57:33Z","stale":false,"bins":25,"density_birds_km3":2.94,"heading_deg":261.59459483569356,"speed_ms":5.0470907029478465,"peak_altitude_m":400.0,"u_ms":-3.256281179138322,"v_ms":-0.5046167800453515}},{"type":"Feature","geometry":{"type":"Point","coordinates":[-78.4292,33.9892]},"properties":{"site":"KLTX","name":"Wilmington NC","scan_time":"2026-08-25T06:01:58Z","stale":false,"bins":25,"density_birds_km3":12.8225,"heading_deg":224.3662658489351,"speed_ms":7.042230292984936,"peak_altitude_m":400.0,"u_ms":-4.45559937600546,"v_ms":-4.952318042217131}},{"type":"Feature","geometry":{"type":"Point","coordinates":[-77.4778,38.9753]},"properties":{"site":"KLWX","name":"Sterling VA","scan_time":"2026-08-25T06:00:39Z","stale":false,"bins":25,"density_birds_km3":7.413125,"heading_deg":188.27863732151786,"speed_ms":8.286448566610455,"peak_altitude_m":200.0,"u_ms":-0.9421922428330524,"v_ms":-8.096363406408095}},{"type":"Feature","geometry":{"type":"Point","coordinates":[-76.8762,34.7759]},"properties":{"site":"KMHX","name":"Morehead City NC","scan_time":"2026-08-25T06:02:14Z","stale":false,"bins":25,"density_birds_km3":3.56,"heading_deg":143.17204341630168,"speed_ms":6.27833538191396,"peak_altitude_m":0.0,"u_ms":3.091257243195786,"v_ms":-4.446616330114135}},{"type":"Feature","geometry":{"type":"Point","coordinates":[-80.6542,28.1133]},"properties":{"site":"KMLB","name":"Melbourne FL","scan_time":"2026-08-25T05:59:08Z","stale":false,"bins":25,"density_birds_km3":5.119375,"heading_deg":140.89830458858046,"speed_ms":6.042628815628817,"peak_altitude_m":200.0,"u_ms":3.2084517704517705,"v_ms":-4.9066813186813185}},{"type":"Feature","geometry":{"type":"Point","coordinates":[-86.5625,36.2472]},"properties":{"site":"KOHX","name":"Nashville TN","scan_time":"2026-08-25T06:01:17Z","stale":false,"bins":25,"density_birds_km3":24.88533333333333,"heading_deg":247.56327710934562,"speed_ms":8.179801757393912,"peak_altitude_m":400.0,"u_ms":-7.317292916845265,"v_ms":-2.7401253750535792}},{"type":"Feature","geometry":{"type":"Point","coordinates":[-72.8639,40.8655]},"properties":{"site":"KOKX","name":"Upton NY","scan_time":"2026-08-25T06:01:37Z","stale":false,"bins":25,"density_birds_km3":1.063125,"heading_deg":127.28018336265558,"speed_ms":5.558054085831864,"peak_altitude_m":0.0,"u_ms":4.410823045267489,"v_ms":-3.3171898883009994}},{"type":"Feature","geometry":{"type":"Point","coordinates":[-80.2183,40.5317]},"properties":{"site":"KPBZ","name":"Pittsburgh PA","scan_time":"2026-08-25T05:59:21Z","stale":false,"bins":25,"density_birds_km3":1.1464285714285716,"heading_deg":120.39682631697376,"speed_ms":7.2037196261682235,"peak_altitude_m":600.0,"u_ms":5.7339003115264795,"v_ms":-3.4766043613707165}},{"type":"Feature","geometry":{"type":"Point","coordinates":[-78.4899,35.6655]},"properties":{"site":"KRAX","name":"Raleigh NC","scan_time":"2026-08-25T05:58:59Z","stale":false,"bins":25,"density_birds_km3":19.731875,"heading_deg":192.56361967842614,"speed_ms":10.690150785605677,"peak_altitude_m":400.0,"u_ms":-2.2409680689305627,"v_ms":-10.425665547389762}},{"type":"Feature","geometry":{"type":"Point","coordinates":[-82.4017,27.7055]},"properties":{"site":"KTBW","name":"Tampa FL","scan_time":"2026-08-25T06:00:30Z","stale":false,"bins":25,"density_birds_km3":5.5493749999999995,"heading_deg":219.1279692829722,"speed_ms":4.177904043248113,"peak_altitude_m":0.0,"u_ms":-1.0982768329766868,"v_ms":-2.7842617411870707}}]}