{"type":"FeatureCollection","frame":"2026-09-26T09","site_count":20,"fresh_count":20,"failures":{},"features":[{"type":"Feature","geometry":{"type":"Point","coordinates":[-77.0073,36.984]},"properties":{"site":"KAKQ","name":"Wakefield VA","scan_time":"2026-09-26T08:57:59Z","stale":false,"bins":25,"density_birds_km3":5.101875,"heading_deg":174.50941516327708,"speed_ms":17.792262549212598,"peak_altitude_m":400.0,"u_ms":1.4076636318897635,"v_ms":-17.652336368110234}},{"type":"Feature","geometry":{"type":"Point","coordinates":[-71.1369,41.9558]},"properties":{"site":"KBOX","name":"Boston MA","scan_time":"2026-09-26T09:00:43Z","stale":false,"bins":25,"density_birds_km3":0.0033333333333333335,"heading_deg":null,"speed_ms":null,"peak_altitude_m":2800.0,"u_ms":null,"v_ms":null}},{"type":"Feature","geometry":{"type":"Point","coordinates":[-78.7369,42.9489]},"properties":{"site":"KBUF","name":"Buffalo NY","scan_time":"2026-09-26T08:58:09Z","stale":false,"bins":25,"density_birds_km3":6.122,"heading_deg":210.76540224700602,"speed_ms":15.117729500163348,"peak_altitude_m":400.0,"u_ms":-7.805243384514864,"v_ms":-12.783185233583797}},{"type":"Feature","geometry":{"type":"Point","coordinates":[-81.8597,41.4131]},"properties":{"site":"KCLE","name":"Cleveland OH","scan_time":"2026-09-26T08:58:11Z","stale":false,"bins":25,"density_birds_km3":13.222000000000001,"heading_deg":197.3513044006248,"speed_ms":12.36975697070539,"peak_altitude_m":200.0,"u_ms":-3.793010134624111,"v_ms":-11.691934150153784}},{"type":"Feature","geometry":{"type":"Point","coordinates":[-81.0423,32.6555]},"properties":{"site":"KCLX","name":"Charleston SC","scan_time":"2026-09-26T08:57:20Z","stale":false,"bins":25,"density_birds_km3":58.683749999999996,"heading_deg":188.64154380885796,"speed_ms":11.513251432466399,"peak_altitude_m":0.0,"u_ms":-1.7200937227085862,"v_ms":-11.179554178115747}},{"type":"Feature","geometry":{"type":"Point","coordinates":[-74.4108,39.947]},"properties":{"site":"KDIX","name":"Philadelphia PA","scan_time":"2026-09-26T09:00:02Z","stale":false,"bins":25,"density_birds_km3":0.0125,"heading_deg":null,"speed_ms":null,"peak_altitude_m":2400.0,"u_ms":null,"v_ms":null}},{"type":"Feature","geometry":{"type":"Point","coordinates":[-84.5658,33.3636]},"properties":{"site":"KFFC","name":"Atlanta GA","scan_time":"2026-09-26T08:57:10Z","stale":false,"bins":25,"density_birds_km3":140.75,"heading_deg":210.17461638593474,"speed_ms":9.83839692125518,"peak_altitude_m":200.0,"u_ms":-4.659914410894021,"v_ms":-8.391285399644762}},{"type":"Feature","geometry":{"type":"Point","coordinates":[-85.5449,42.8939]},"properties":{"site":"KGRR","name":"Grand Rapids MI","scan_time":"2026-09-26T08:57:54Z","stale":false,"bins":25,"density_birds_km3":8.695333333333334,"heading_deg":230.33012035540975,"speed_ms":11.274310146483627,"peak_altitude_m":200.0,"u_ms":-8.698728430094334,"v_ms":-7.113578495283381}},{"type":"Feature","geometry":{"type":"Point","coordinates":[-83.8217,39.4203]},"properties":{"site":"KILN","name":"Wilmington OH","scan_time":"2026-09-26T08:57:51Z","stale":false,"bins":25,"density_birds_km3":45.504,"heading_deg":192.02943100139007,"speed_ms":11.993101412330052,"peak_altitude_m":200.0,"u_ms":-2.55423391350211,"v_ms":-11.329740975152369}},{"type":"Feature","geometry":{"type":"Point","coordinates":[-81.7019,30.4846]},"properties":{"site":"KJAX","name":"Jacksonville FL","scan_time":"2026-09-26T09:01:56Z","stale":false,"bins":25,"density_birds_km3":179.240625,"heading_deg":186.1503113372205,"speed_ms":13.199991805708109,"peak_altitude_m":0.0,"u_ms":-1.3962233031713656,"v_ms":-13.09164157818575}},{"type":"Feature","geometry":{"type":"Point","coordinates":[-88.0847,41.6045]},"properties":{"site":"KLOT","name":"Chicago IL","scan_time":"2026-09-26T08:59:59Z","stale":false,"bins":25,"density_birds_km3":7.480666666666666,"heading_deg":206.61575085434112,"speed_ms":7.552062444246208,"peak_altitude_m":200.0,"u_ms":-3.186605709188225,"v_ms":-5.829093666369313}},{"type":"Feature","geometry":{"type":"Point","coordinates":[-78.4292,33.9892]},"properties":{"site":"KLTX","name":"Wilmington NC","scan_time":"2026-09-26T08:59:50Z","stale":false,"bins":25,"density_birds_km3":46.065,"heading_deg":188.77717147529964,"speed_ms":11.341443883642679,"peak_altitude_m":0.0,"u_ms":-2.190105421686747,"v_ms":-10.980220069467057}},{"type":"Feature","geometry":{"type":"Point","coordinates":[-77.4778,38.9753]},"properties":{"site":"KLWX","name":"Sterling VA","scan_time":"2026-09-26T09:00:52Z","stale":false,"bins":25,"density_birds_km3":5.976875,"heading_deg":186.13776676449834,"speed_ms":22.38823621717753,"peak_altitude_m":800.0,"u_ms":-3.6012051469819015,"v_ms":-21.391880949890158}},{"type":"Feature","geometry":{"type":"Point","coordinates":[-76.8762,34.7759]},"properties":{"site":"KMHX","name":"Morehead City NC","scan_time":"2026-09-26T08:58:04Z","stale":false,"bins":25,"density_birds_km3":21.413125,"heading_deg":160.53192754809794,"speed_ms":8.610963278650242,"peak_altitude_m":0.0,"u_ms":2.2119154650008754,"v_ms":-8.22059051900286}},{"type":"Feature","geometry":{"type":"Point","coordinates":[-80.6542,28.1133]},"properties":{"site":"KMLB","name":"Melbourne FL","scan_time":"2026-09-26T08:59:14Z","stale":false,"bins":25,"density_birds_km3":67.850625,"heading_deg":169.4712447841993,"speed_ms":15.91429882092852,"peak_altitude_m":200.0,"u_ms":2.8769860906411204,"v_ms":-15.635108971997052}},{"type":"Feature","geometry":{"type":"Point","coordinates":[-86.5625,36.2472]},"properties":{"site":"KOHX","name":"Nashville TN","scan_time":"2026-09-26T08:57:47Z","stale":false,"bins":25,"density_birds_km3":44.788,"heading_deg":208.0460134074666,"speed_ms":8.094417701169956,"peak_altitude_m":200.0,"u_ms":-3.5432318180465003,"v_ms":-6.582560804977525}},{"type":"Feature","geometry":{"type":"Point","coordinates":[-72.8639,40.8655]},"properties":{"site":"KOKX","name":"Upton NY","scan_time":"2026-09-26T08:57:02Z","stale":false,"bins":25,"density_birds_km3":0.0,"heading_deg":null,"speed_ms":null,"peak_altitude_m":2000.0,"u_ms":null,"v_ms":null}},{"type":"Feature","geometry":{"type":"Point","coordinates":[-80.2183,40.5317]},"properties":{"site":"KPBZ","name":"Pittsburgh PA","scan_time":"2026-09-26T08:59:41Z","stale":false,"bins":25,"density_birds_km3":31.515714285714285,"heading_deg":204.60048952309472,"speed_ms":18.111045307223318,"peak_altitude_m":600.0,"u_ms":-7.940134403118697,"v_ms":-15.775099385780013}},{"type":"Feature","geometry":{"type":"Point","coordinates":[-78.4899,35.6655]},"properties":{"site":"KRAX","name":"Raleigh NC","scan_time":"2026-09-26T09:00:15Z","stale":false,"bins":25,"density_birds_km3":13.138125,"heading_deg":183.21679072623664,"speed_ms":20.739504305218592,"peak_altitude_m":200.0,"u_ms":-1.583340469054755,"v_ms":-20.452364778079065}},{"type":"Feature","geometry":{"type":"Point","coordinates":[-82.4017,27.7055]},"properties":{"site":"KTBW","name":"Tampa FL","scan_time":"2026-09-26T09:00:23Z","stale":false,"bins":25,"density_birds_km3":61.769375000000004,"heading_deg":191.24575658506296,"speed_ms":15.973387635333399,"peak_altitude_m":400.0,"u_ms":-3.2495490235758373,"v_ms":-15.605429019528481}}]}