{"type":"FeatureCollection","frame":"2026-09-03T09","site_count":20,"fresh_count":20,"failures":{},"features":[{"type":"Feature","geometry":{"type":"Point","coordinates":[-77.0073,36.984]},"properties":{"site":"KAKQ","name":"Wakefield VA","scan_time":"2026-09-03T09:02:05Z","stale":false,"bins":25,"density_birds_km3":2.794375,"heading_deg":30.689920331865306,"speed_ms":2.216988140523607,"peak_altitude_m":200.0,"u_ms":0.8544103826359363,"v_ms":0.7705773103602597}},{"type":"Feature","geometry":{"type":"Point","coordinates":[-71.1369,41.9558]},"properties":{"site":"KBOX","name":"Boston MA","scan_time":"2026-09-03T09:01:16Z","stale":false,"bins":25,"density_birds_km3":0.4716666666666667,"heading_deg":null,"speed_ms":null,"peak_altitude_m":0.0,"u_ms":null,"v_ms":null}},{"type":"Feature","geometry":{"type":"Point","coordinates":[-78.7369,42.9489]},"properties":{"site":"KBUF","name":"Buffalo NY","scan_time":"2026-09-03T09:00:10Z","stale":false,"bins":25,"density_birds_km3":20.759333333333334,"heading_deg":146.7206686442132,"speed_ms":9.426952053694723,"peak_altitude_m":600.0,"u_ms":4.996430200070651,"v_ms":-7.780170525707313}},{"type":"Feature","geometry":{"type":"Point","coordinates":[-81.8597,41.4131]},"properties":{"site":"KCLE","name":"Cleveland OH","scan_time":"2026-09-03T08:57:47Z","stale":false,"bins":25,"density_birds_km3":11.155333333333333,"heading_deg":108.29888427332868,"speed_ms":13.605224587706145,"peak_altitude_m":400.0,"u_ms":12.552797601199401,"v_ms":-4.8888155922038985}},{"type":"Feature","geometry":{"type":"Point","coordinates":[-81.0423,32.6555]},"properties":{"site":"KCLX","name":"Charleston SC","scan_time":"2026-09-03T08:59:41Z","stale":false,"bins":25,"density_birds_km3":3.943125,"heading_deg":217.11055328527036,"speed_ms":4.893024021059559,"peak_altitude_m":0.0,"u_ms":-2.9984369858506086,"v_ms":-3.715358670615334}},{"type":"Feature","geometry":{"type":"Point","coordinates":[-74.4108,39.947]},"properties":{"site":"KDIX","name":"Philadelphia PA","scan_time":"2026-09-03T09:01:51Z","stale":false,"bins":25,"density_birds_km3":4.01,"heading_deg":null,"speed_ms":null,"peak_altitude_m":0.0,"u_ms":null,"v_ms":null}},{"type":"Feature","geometry":{"type":"Point","coordinates":[-84.5658,33.3636]},"properties":{"site":"KFFC","name":"Atlanta GA","scan_time":"2026-09-03T08:58:28Z","stale":false,"bins":25,"density_birds_km3":10.902,"heading_deg":97.77511083423857,"speed_ms":5.0660364548290415,"peak_altitude_m":200.0,"u_ms":0.5489748608477579,"v_ms":-0.5144173955593614}},{"type":"Feature","geometry":{"type":"Point","coordinates":[-85.5449,42.8939]},"properties":{"site":"KGRR","name":"Grand Rapids MI","scan_time":"2026-09-03T09:00:37Z","stale":false,"bins":25,"density_birds_km3":48.74666666666667,"heading_deg":174.20915973743914,"speed_ms":7.087373291474165,"peak_altitude_m":400.0,"u_ms":1.364773453244314,"v_ms":-6.536490958693775}},{"type":"Feature","geometry":{"type":"Point","coordinates":[-83.8217,39.4203]},"properties":{"site":"KILN","name":"Wilmington OH","scan_time":"2026-09-03T09:01:04Z","stale":false,"bins":25,"density_birds_km3":6.881333333333333,"heading_deg":116.93227960085808,"speed_ms":10.969715171478397,"peak_altitude_m":800.0,"u_ms":9.40555318736679,"v_ms":-4.784651230381709}},{"type":"Feature","geometry":{"type":"Point","coordinates":[-81.7019,30.4846]},"properties":{"site":"KJAX","name":"Jacksonville FL","scan_time":"2026-09-03T08:57:23Z","stale":false,"bins":25,"density_birds_km3":8.57625,"heading_deg":192.07209471817907,"speed_ms":9.808014137880775,"peak_altitude_m":0.0,"u_ms":-2.048437545547296,"v_ms":-9.57656099693922}},{"type":"Feature","geometry":{"type":"Point","coordinates":[-88.0847,41.6045]},"properties":{"site":"KLOT","name":"Chicago IL","scan_time":"2026-09-03T09:03:22Z","stale":false,"bins":25,"density_birds_km3":10.25,"heading_deg":105.72682743438624,"speed_ms":10.949327821469382,"peak_altitude_m":200.0,"u_ms":9.037429589298918,"v_ms":-2.4533561874033745}},{"type":"Feature","geometry":{"type":"Point","coordinates":[-78.4292,33.9892]},"properties":{"site":"KLTX","name":"Wilmington NC","scan_time":"2026-09-03T08:57:55Z","stale":false,"bins":25,"density_birds_km3":5.568125,"heading_deg":134.3640952231116,"speed_ms":4.330791334605455,"peak_altitude_m":0.0,"u_ms":-1.587327421708385,"v_ms":-2.2294511168481312}},{"type":"Feature","geometry":{"type":"Point","coordinates":[-77.4778,38.9753]},"properties":{"site":"KLWX","name":"Sterling VA","scan_time":"2026-09-03T09:00:05Z","stale":false,"bins":25,"density_birds_km3":4.0981250000000005,"heading_deg":280.3743146366702,"speed_ms":4.998642714570858,"peak_altitude_m":200.0,"u_ms":0.06797405189620732,"v_ms":-1.2315968063872256}},{"type":"Feature","geometry":{"type":"Point","coordinates":[-76.8762,34.7759]},"properties":{"site":"KMHX","name":"Morehead City NC","scan_time":"2026-09-03T09:01:25Z","stale":false,"bins":25,"density_birds_km3":2.55125,"heading_deg":69.70073458373217,"speed_ms":4.477449154618966,"peak_altitude_m":0.0,"u_ms":3.5804092134280814,"v_ms":1.3910806174957118}},{"type":"Feature","geometry":{"type":"Point","coordinates":[-80.6542,28.1133]},"properties":{"site":"KMLB","name":"Melbourne FL","scan_time":"2026-09-03T09:02:11Z","stale":false,"bins":25,"density_birds_km3":2.774375,"heading_deg":25.181305757113353,"speed_ms":1.7198783509799505,"peak_altitude_m":0.0,"u_ms":0.6365172336111736,"v_ms":1.5268371254787116}},{"type":"Feature","geometry":{"type":"Point","coordinates":[-86.5625,36.2472]},"properties":{"site":"KOHX","name":"Nashville TN","scan_time":"2026-09-03T08:59:54Z","stale":false,"bins":25,"density_birds_km3":9.132666666666667,"heading_deg":16.111711530152792,"speed_ms":2.0348850281042408,"peak_altitude_m":200.0,"u_ms":0.7328053142565151,"v_ms":1.42706474925177}},{"type":"Feature","geometry":{"type":"Point","coordinates":[-72.8639,40.8655]},"properties":{"site":"KOKX","name":"Upton NY","scan_time":"2026-09-03T08:57:35Z","stale":false,"bins":25,"density_birds_km3":0.294375,"heading_deg":41.787193735130444,"speed_ms":8.308033573141486,"peak_altitude_m":0.0,"u_ms":5.563884892086331,"v_ms":5.629520383693046}},{"type":"Feature","geometry":{"type":"Point","coordinates":[-80.2183,40.5317]},"properties":{"site":"KPBZ","name":"Pittsburgh PA","scan_time":"2026-09-03T08:59:48Z","stale":false,"bins":25,"density_birds_km3":14.876428571428573,"heading_deg":142.37108344074977,"speed_ms":11.29065787573993,"peak_altitude_m":600.0,"u_ms":7.11139948986958,"v_ms":-8.493973723470813}},{"type":"Feature","geometry":{"type":"Point","coordinates":[-78.4899,35.6655]},"properties":{"site":"KRAX","name":"Raleigh NC","scan_time":"2026-09-03T08:58:14Z","stale":false,"bins":25,"density_birds_km3":6.305,"heading_deg":119.29177307637417,"speed_ms":6.369310310608316,"peak_altitude_m":200.0,"u_ms":3.3668135357745363,"v_ms":-1.6373662796467203}},{"type":"Feature","geometry":{"type":"Point","coordinates":[-82.4017,27.7055]},"properties":{"site":"KTBW","name":"Tampa FL","scan_time":"2026-09-03T08:58:29Z","stale":false,"bins":25,"density_birds_km3":5.9262500000000005,"heading_deg":263.75327682824303,"speed_ms":3.5595875962451213,"peak_altitude_m":0.0,"u_ms":-3.1354909819639274,"v_ms":-0.09820166649087649}}]}