{"type":"FeatureCollection","frame":"2026-08-28T08","site_count":20,"fresh_count":20,"failures":{},"features":[{"type":"Feature","geometry":{"type":"Point","coordinates":[-77.0073,36.984]},"properties":{"site":"KAKQ","name":"Wakefield VA","scan_time":"2026-08-28T07:58:28Z","stale":false,"bins":25,"density_birds_km3":2.744375,"heading_deg":106.19978820744905,"speed_ms":5.190357630979499,"peak_altitude_m":200.0,"u_ms":4.715560364464693,"v_ms":-1.418865603644647}},{"type":"Feature","geometry":{"type":"Point","coordinates":[-71.1369,41.9558]},"properties":{"site":"KBOX","name":"Boston MA","scan_time":"2026-08-28T07:59:40Z","stale":false,"bins":25,"density_birds_km3":0.35875,"heading_deg":9.412317975075345,"speed_ms":5.658021015761823,"peak_altitude_m":0.0,"u_ms":0.9487040280210158,"v_ms":5.291961471103328}},{"type":"Feature","geometry":{"type":"Point","coordinates":[-78.7369,42.9489]},"properties":{"site":"KBUF","name":"Buffalo NY","scan_time":"2026-08-28T07:57:46Z","stale":false,"bins":25,"density_birds_km3":6.536666666666666,"heading_deg":166.2488905146278,"speed_ms":9.243681795002551,"peak_altitude_m":400.0,"u_ms":1.9584926058133607,"v_ms":-8.91096277409485}},{"type":"Feature","geometry":{"type":"Point","coordinates":[-81.8597,41.4131]},"properties":{"site":"KCLE","name":"Cleveland OH","scan_time":"2026-08-28T08:01:06Z","stale":false,"bins":25,"density_birds_km3":9.010666666666667,"heading_deg":216.79463582635242,"speed_ms":7.837105730786316,"peak_altitude_m":400.0,"u_ms":-4.703422923145268,"v_ms":-6.256508218569524}},{"type":"Feature","geometry":{"type":"Point","coordinates":[-81.0423,32.6555]},"properties":{"site":"KCLX","name":"Charleston SC","scan_time":"2026-08-28T07:58:23Z","stale":false,"bins":25,"density_birds_km3":1.08125,"heading_deg":85.72400146670023,"speed_ms":4.047017857142857,"peak_altitude_m":0.0,"u_ms":3.8819464285714287,"v_ms":0.540345238095238}},{"type":"Feature","geometry":{"type":"Point","coordinates":[-74.4108,39.947]},"properties":{"site":"KDIX","name":"Philadelphia PA","scan_time":"2026-08-28T08:01:49Z","stale":false,"bins":25,"density_birds_km3":2.6725,"heading_deg":286.9367593559089,"speed_ms":3.153626479826045,"peak_altitude_m":0.0,"u_ms":-2.2524909398405413,"v_ms":0.4930490456632036}},{"type":"Feature","geometry":{"type":"Point","coordinates":[-84.5658,33.3636]},"properties":{"site":"KFFC","name":"Atlanta GA","scan_time":"2026-08-28T07:57:53Z","stale":false,"bins":25,"density_birds_km3":16.952,"heading_deg":162.35988922160018,"speed_ms":4.690149441560485,"peak_altitude_m":1200.0,"u_ms":1.6376289916627338,"v_ms":-3.506181768129621}},{"type":"Feature","geometry":{"type":"Point","coordinates":[-85.5449,42.8939]},"properties":{"site":"KGRR","name":"Grand Rapids MI","scan_time":"2026-08-28T08:02:43Z","stale":false,"bins":25,"density_birds_km3":27.851333333333336,"heading_deg":236.15933864319277,"speed_ms":10.994927709689776,"peak_altitude_m":200.0,"u_ms":-9.027033464189966,"v_ms":-6.058210695135963}},{"type":"Feature","geometry":{"type":"Point","coordinates":[-83.8217,39.4203]},"properties":{"site":"KILN","name":"Wilmington OH","scan_time":"2026-08-28T07:56:59Z","stale":false,"bins":25,"density_birds_km3":48.06933333333333,"heading_deg":201.3506664671451,"speed_ms":8.366768560768922,"peak_altitude_m":400.0,"u_ms":-3.003928655635844,"v_ms":-7.642760710669754}},{"type":"Feature","geometry":{"type":"Point","coordinates":[-81.7019,30.4846]},"properties":{"site":"KJAX","name":"Jacksonville FL","scan_time":"2026-08-28T08:02:03Z","stale":false,"bins":25,"density_birds_km3":12.13,"heading_deg":160.0531808995409,"speed_ms":4.482143041170711,"peak_altitude_m":0.0,"u_ms":1.3605673210697171,"v_ms":-3.9771577265934974}},{"type":"Feature","geometry":{"type":"Point","coordinates":[-88.0847,41.6045]},"properties":{"site":"KLOT","name":"Chicago IL","scan_time":"2026-08-28T07:58:13Z","stale":false,"bins":25,"density_birds_km3":13.687999999999999,"heading_deg":231.15764336372322,"speed_ms":7.932595460744204,"peak_altitude_m":400.0,"u_ms":-4.225877167348529,"v_ms":-3.675303915838691}},{"type":"Feature","geometry":{"type":"Point","coordinates":[-78.4292,33.9892]},"properties":{"site":"KLTX","name":"Wilmington NC","scan_time":"2026-08-28T08:00:59Z","stale":false,"bins":25,"density_birds_km3":1.46125,"heading_deg":138.2030445602017,"speed_ms":4.907726887192536,"peak_altitude_m":0.0,"u_ms":3.0429431721798132,"v_ms":-3.4683715012722645}},{"type":"Feature","geometry":{"type":"Point","coordinates":[-77.4778,38.9753]},"properties":{"site":"KLWX","name":"Sterling VA","scan_time":"2026-08-28T07:58:41Z","stale":false,"bins":25,"density_birds_km3":10.846874999999999,"heading_deg":202.03195139941036,"speed_ms":5.580408706452949,"peak_altitude_m":200.0,"u_ms":-2.104325427337789,"v_ms":-4.971332584136748}},{"type":"Feature","geometry":{"type":"Point","coordinates":[-76.8762,34.7759]},"properties":{"site":"KMHX","name":"Morehead City NC","scan_time":"2026-08-28T08:00:02Z","stale":false,"bins":25,"density_birds_km3":0.36625,"heading_deg":70.28735797361435,"speed_ms":6.971382252559728,"peak_altitude_m":0.0,"u_ms":6.568293515358362,"v_ms":2.331552901023891}},{"type":"Feature","geometry":{"type":"Point","coordinates":[-80.6542,28.1133]},"properties":{"site":"KMLB","name":"Melbourne FL","scan_time":"2026-08-28T07:59:05Z","stale":false,"bins":25,"density_birds_km3":3.47125,"heading_deg":37.02879908300908,"speed_ms":1.1256157724162765,"peak_altitude_m":200.0,"u_ms":0.3537162405473533,"v_ms":0.6806517824990997}},{"type":"Feature","geometry":{"type":"Point","coordinates":[-86.5625,36.2472]},"properties":{"site":"KOHX","name":"Nashville TN","scan_time":"2026-08-28T07:59:12Z","stale":false,"bins":25,"density_birds_km3":36.126666666666665,"heading_deg":197.4969891337891,"speed_ms":6.710731869348589,"peak_altitude_m":400.0,"u_ms":-2.122171433843883,"v_ms":-6.210643845727994}},{"type":"Feature","geometry":{"type":"Point","coordinates":[-72.8639,40.8655]},"properties":{"site":"KOKX","name":"Upton NY","scan_time":"2026-08-28T07:59:12Z","stale":false,"bins":25,"density_birds_km3":0.508125,"heading_deg":323.41205113873485,"speed_ms":4.125677321156773,"peak_altitude_m":0.0,"u_ms":-2.41337899543379,"v_ms":3.243987823439878}},{"type":"Feature","geometry":{"type":"Point","coordinates":[-80.2183,40.5317]},"properties":{"site":"KPBZ","name":"Pittsburgh PA","scan_time":"2026-08-28T07:58:25Z","stale":false,"bins":25,"density_birds_km3":20.740714285714287,"heading_deg":219.77647331217108,"speed_ms":8.35795604849821,"peak_altitude_m":600.0,"u_ms":-5.448506475613117,"v_ms":-6.244751308900524}},{"type":"Feature","geometry":{"type":"Point","coordinates":[-78.4899,35.6655]},"properties":{"site":"KRAX","name":"Raleigh NC","scan_time":"2026-08-28T08:02:09Z","stale":false,"bins":25,"density_birds_km3":1.36,"heading_deg":142.60851325503486,"speed_ms":3.2824767953102105,"peak_altitude_m":200.0,"u_ms":2.2367073766487544,"v_ms":-1.7727357107962873}},{"type":"Feature","geometry":{"type":"Point","coordinates":[-82.4017,27.7055]},"properties":{"site":"KTBW","name":"Tampa FL","scan_time":"2026-08-28T07:58:57Z","stale":false,"bins":25,"density_birds_km3":1.9762499999999998,"heading_deg":341.210823062442,"speed_ms":3.538118466898955,"peak_altitude_m":200.0,"u_ms":-1.2177351916376307,"v_ms":3.1104117833386127}}]}