{"type":"FeatureCollection","frame":"2026-09-11T12","site_count":20,"fresh_count":20,"failures":{},"features":[{"type":"Feature","geometry":{"type":"Point","coordinates":[-77.0073,36.984]},"properties":{"site":"KAKQ","name":"Wakefield VA","scan_time":"2026-09-11T11:58:28Z","stale":false,"bins":25,"density_birds_km3":2.174375,"heading_deg":134.21991047645517,"speed_ms":8.51075086306099,"peak_altitude_m":200.0,"u_ms":6.041303222094362,"v_ms":-5.954634637514384}},{"type":"Feature","geometry":{"type":"Point","coordinates":[-71.1369,41.9558]},"properties":{"site":"KBOX","name":"Boston MA","scan_time":"2026-09-11T11:56:49Z","stale":false,"bins":25,"density_birds_km3":3.5368749999999998,"heading_deg":186.2467029714182,"speed_ms":8.649432761972081,"peak_altitude_m":200.0,"u_ms":-0.953829298462626,"v_ms":-8.58017847676268}},{"type":"Feature","geometry":{"type":"Point","coordinates":[-78.7369,42.9489]},"properties":{"site":"KBUF","name":"Buffalo NY","scan_time":"2026-09-11T11:55:58Z","stale":false,"bins":25,"density_birds_km3":1.1946666666666665,"heading_deg":152.06234418970274,"speed_ms":6.009637276785714,"peak_altitude_m":200.0,"u_ms":2.8102566964285716,"v_ms":-5.272879464285714}},{"type":"Feature","geometry":{"type":"Point","coordinates":[-81.8597,41.4131]},"properties":{"site":"KCLE","name":"Cleveland OH","scan_time":"2026-09-11T11:58:28Z","stale":false,"bins":25,"density_birds_km3":5.526666666666667,"heading_deg":227.4994614417174,"speed_ms":7.4543032935215345,"peak_altitude_m":400.0,"u_ms":-5.440366751115937,"v_ms":-4.950580287127519}},{"type":"Feature","geometry":{"type":"Point","coordinates":[-81.0423,32.6555]},"properties":{"site":"KCLX","name":"Charleston SC","scan_time":"2026-09-11T12:01:02Z","stale":false,"bins":25,"density_birds_km3":7.046875,"heading_deg":114.36637588800879,"speed_ms":7.376181203876589,"peak_altitude_m":400.0,"u_ms":6.569054859073531,"v_ms":-3.093943273761892}},{"type":"Feature","geometry":{"type":"Point","coordinates":[-74.4108,39.947]},"properties":{"site":"KDIX","name":"Philadelphia PA","scan_time":"2026-09-11T12:01:08Z","stale":false,"bins":25,"density_birds_km3":2.66375,"heading_deg":204.11672785689868,"speed_ms":9.082122708039492,"peak_altitude_m":200.0,"u_ms":-3.718366243535496,"v_ms":-8.210037611659615}},{"type":"Feature","geometry":{"type":"Point","coordinates":[-84.5658,33.3636]},"properties":{"site":"KFFC","name":"Atlanta GA","scan_time":"2026-09-11T11:59:26Z","stale":false,"bins":25,"density_birds_km3":8.897333333333332,"heading_deg":147.22421105090908,"speed_ms":6.124401139259482,"peak_altitude_m":400.0,"u_ms":3.4519419877079898,"v_ms":-5.005607854894318}},{"type":"Feature","geometry":{"type":"Point","coordinates":[-85.5449,42.8939]},"properties":{"site":"KGRR","name":"Grand Rapids MI","scan_time":"2026-09-11T11:56:47Z","stale":false,"bins":25,"density_birds_km3":4.0713333333333335,"heading_deg":273.2985148014975,"speed_ms":4.777019736842105,"peak_altitude_m":200.0,"u_ms":-4.56091447368421,"v_ms":0.19586184210526314}},{"type":"Feature","geometry":{"type":"Point","coordinates":[-83.8217,39.4203]},"properties":{"site":"KILN","name":"Wilmington OH","scan_time":"2026-09-11T12:01:42Z","stale":false,"bins":25,"density_birds_km3":5.815333333333333,"heading_deg":205.82203677513087,"speed_ms":9.203820998278829,"peak_altitude_m":200.0,"u_ms":-4.007384968445209,"v_ms":-8.267099254159495}},{"type":"Feature","geometry":{"type":"Point","coordinates":[-81.7019,30.4846]},"properties":{"site":"KJAX","name":"Jacksonville FL","scan_time":"2026-09-11T11:57:54Z","stale":false,"bins":25,"density_birds_km3":1.9775,"heading_deg":126.34556881051786,"speed_ms":3.9144592451633367,"peak_altitude_m":0.0,"u_ms":3.1390707262924193,"v_ms":-2.3147510307643513}},{"type":"Feature","geometry":{"type":"Point","coordinates":[-88.0847,41.6045]},"properties":{"site":"KLOT","name":"Chicago IL","scan_time":"2026-09-11T12:00:12Z","stale":false,"bins":25,"density_birds_km3":1.8206666666666669,"heading_deg":279.01467573764324,"speed_ms":6.046693518857561,"peak_altitude_m":200.0,"u_ms":-5.400205053094105,"v_ms":1.1166752105455877}},{"type":"Feature","geometry":{"type":"Point","coordinates":[-78.4292,33.9892]},"properties":{"site":"KLTX","name":"Wilmington NC","scan_time":"2026-09-11T12:02:17Z","stale":false,"bins":25,"density_birds_km3":1.556875,"heading_deg":87.01836633798894,"speed_ms":7.737163149350649,"peak_altitude_m":600.0,"u_ms":7.673551136363637,"v_ms":0.39236201298701295}},{"type":"Feature","geometry":{"type":"Point","coordinates":[-77.4778,38.9753]},"properties":{"site":"KLWX","name":"Sterling VA","scan_time":"2026-09-11T11:59:52Z","stale":false,"bins":25,"density_birds_km3":3.115625,"heading_deg":226.51363254882096,"speed_ms":5.883870255071299,"peak_altitude_m":200.0,"u_ms":-4.109682667202249,"v_ms":-4.090056236192007}},{"type":"Feature","geometry":{"type":"Point","coordinates":[-76.8762,34.7759]},"properties":{"site":"KMHX","name":"Morehead City NC","scan_time":"2026-09-11T12:01:24Z","stale":false,"bins":25,"density_birds_km3":1.408125,"heading_deg":117.01389770356747,"speed_ms":7.884955357142856,"peak_altitude_m":200.0,"u_ms":6.875245535714286,"v_ms":-3.2944642857142856}},{"type":"Feature","geometry":{"type":"Point","coordinates":[-80.6542,28.1133]},"properties":{"site":"KMLB","name":"Melbourne FL","scan_time":"2026-09-11T12:01:20Z","stale":false,"bins":25,"density_birds_km3":0.770625,"heading_deg":140.03120116819983,"speed_ms":1.2379724249797242,"peak_altitude_m":0.0,"u_ms":-0.264176804541768,"v_ms":-0.461111111111111}},{"type":"Feature","geometry":{"type":"Point","coordinates":[-86.5625,36.2472]},"properties":{"site":"KOHX","name":"Nashville TN","scan_time":"2026-09-11T11:59:40Z","stale":false,"bins":25,"density_birds_km3":8.048666666666668,"heading_deg":271.64219660253025,"speed_ms":6.127672299536116,"peak_altitude_m":200.0,"u_ms":-5.085948475811795,"v_ms":-0.21619781312127234}},{"type":"Feature","geometry":{"type":"Point","coordinates":[-72.8639,40.8655]},"properties":{"site":"KOKX","name":"Upton NY","scan_time":"2026-09-11T11:58:25Z","stale":false,"bins":25,"density_birds_km3":7.503125,"heading_deg":180.90600616823312,"speed_ms":8.446484798000833,"peak_altitude_m":400.0,"u_ms":-0.054704706372344855,"v_ms":-8.42457309454394}},{"type":"Feature","geometry":{"type":"Point","coordinates":[-80.2183,40.5317]},"properties":{"site":"KPBZ","name":"Pittsburgh PA","scan_time":"2026-09-11T11:58:19Z","stale":false,"bins":25,"density_birds_km3":8.459999999999999,"heading_deg":209.69636879141032,"speed_ms":7.372527017899358,"peak_altitude_m":400.0,"u_ms":-3.566241979061128,"v_ms":-6.22548463356974}},{"type":"Feature","geometry":{"type":"Point","coordinates":[-78.4899,35.6655]},"properties":{"site":"KRAX","name":"Raleigh NC","scan_time":"2026-09-11T12:01:41Z","stale":false,"bins":25,"density_birds_km3":1.5918750000000002,"heading_deg":120.69364270759749,"speed_ms":8.178436018957346,"peak_altitude_m":0.0,"u_ms":6.963234597156398,"v_ms":-4.239976303317536}},{"type":"Feature","geometry":{"type":"Point","coordinates":[-82.4017,27.7055]},"properties":{"site":"KTBW","name":"Tampa FL","scan_time":"2026-09-11T11:58:30Z","stale":false,"bins":25,"density_birds_km3":1.5931250000000001,"heading_deg":298.0867204444739,"speed_ms":3.3145972495088407,"peak_altitude_m":0.0,"u_ms":-2.8049783889980358,"v_ms":1.4679449901768173}}]}