{"type":"FeatureCollection","frame":"2026-08-11T03","site_count":20,"fresh_count":20,"failures":{},"features":[{"type":"Feature","geometry":{"type":"Point","coordinates":[-77.0073,36.984]},"properties":{"site":"KAKQ","name":"Wakefield VA","scan_time":"2026-08-11T02:59:14Z","stale":false,"bins":25,"density_birds_km3":8.301875,"heading_deg":177.00597055574949,"speed_ms":3.293493222891566,"peak_altitude_m":200.0,"u_ms":0.7561317771084336,"v_ms":-2.5325444277108433}},{"type":"Feature","geometry":{"type":"Point","coordinates":[-71.1369,41.9558]},"properties":{"site":"KBOX","name":"Boston MA","scan_time":"2026-08-11T03:02:12Z","stale":false,"bins":25,"density_birds_km3":1.4275,"heading_deg":30.96573608370337,"speed_ms":7.23880858519492,"peak_altitude_m":0.0,"u_ms":3.8688129653964087,"v_ms":5.657087166009637}},{"type":"Feature","geometry":{"type":"Point","coordinates":[-78.7369,42.9489]},"properties":{"site":"KBUF","name":"Buffalo NY","scan_time":"2026-08-11T02:57:56Z","stale":false,"bins":25,"density_birds_km3":1.0113333333333334,"heading_deg":100.11820816145597,"speed_ms":7.405036255767963,"peak_altitude_m":200.0,"u_ms":6.540303230059327,"v_ms":-1.3956690837178642}},{"type":"Feature","geometry":{"type":"Point","coordinates":[-81.8597,41.4131]},"properties":{"site":"KCLE","name":"Cleveland OH","scan_time":"2026-08-11T03:00:47Z","stale":false,"bins":25,"density_birds_km3":4.324666666666667,"heading_deg":232.0320101549691,"speed_ms":2.3144196084476647,"peak_altitude_m":600.0,"u_ms":-0.6784584553722829,"v_ms":-0.8060798520117156}},{"type":"Feature","geometry":{"type":"Point","coordinates":[-81.0423,32.6555]},"properties":{"site":"KCLX","name":"Charleston SC","scan_time":"2026-08-11T02:57:35Z","stale":false,"bins":25,"density_birds_km3":1.4075,"heading_deg":46.67478568831007,"speed_ms":5.785242114615727,"peak_altitude_m":0.0,"u_ms":3.0735228787205684,"v_ms":2.58471346068414}},{"type":"Feature","geometry":{"type":"Point","coordinates":[-74.4108,39.947]},"properties":{"site":"KDIX","name":"Philadelphia PA","scan_time":"2026-08-11T03:00:44Z","stale":false,"bins":25,"density_birds_km3":1.43,"heading_deg":87.22996447867783,"speed_ms":8.749317585301837,"peak_altitude_m":0.0,"u_ms":8.71465879265092,"v_ms":0.5187357830271216}},{"type":"Feature","geometry":{"type":"Point","coordinates":[-84.5658,33.3636]},"properties":{"site":"KFFC","name":"Atlanta GA","scan_time":"2026-08-11T02:59:30Z","stale":false,"bins":25,"density_birds_km3":6.61,"heading_deg":98.19249788406434,"speed_ms":3.081072112960161,"peak_altitude_m":200.0,"u_ms":2.063578416540595,"v_ms":0.44446898638426624}},{"type":"Feature","geometry":{"type":"Point","coordinates":[-85.5449,42.8939]},"properties":{"site":"KGRR","name":"Grand Rapids MI","scan_time":"2026-08-11T03:02:12Z","stale":false,"bins":25,"density_birds_km3":8.857333333333333,"heading_deg":180.82610669352042,"speed_ms":4.718520566623741,"peak_altitude_m":400.0,"u_ms":0.03791076433603516,"v_ms":-4.468378153170215}},{"type":"Feature","geometry":{"type":"Point","coordinates":[-83.8217,39.4203]},"properties":{"site":"KILN","name":"Wilmington OH","scan_time":"2026-08-11T02:58:35Z","stale":false,"bins":25,"density_birds_km3":2.280666666666667,"heading_deg":88.55440226133796,"speed_ms":12.976460283902144,"peak_altitude_m":200.0,"u_ms":12.626704922983993,"v_ms":-0.2146994865599517}},{"type":"Feature","geometry":{"type":"Point","coordinates":[-81.7019,30.4846]},"properties":{"site":"KJAX","name":"Jacksonville FL","scan_time":"2026-08-11T02:59:48Z","stale":false,"bins":25,"density_birds_km3":5.830625,"heading_deg":5.498590590223301,"speed_ms":3.644599635545074,"peak_altitude_m":0.0,"u_ms":0.243942544752921,"v_ms":2.5488155214921213}},{"type":"Feature","geometry":{"type":"Point","coordinates":[-88.0847,41.6045]},"properties":{"site":"KLOT","name":"Chicago IL","scan_time":"2026-08-11T02:59:20Z","stale":false,"bins":25,"density_birds_km3":16.190666666666665,"heading_deg":273.64702291869503,"speed_ms":3.4341454139627166,"peak_altitude_m":200.0,"u_ms":-0.7909668085809942,"v_ms":-0.04546232381267313}},{"type":"Feature","geometry":{"type":"Point","coordinates":[-78.4292,33.9892]},"properties":{"site":"KLTX","name":"Wilmington NC","scan_time":"2026-08-11T02:58:19Z","stale":false,"bins":25,"density_birds_km3":2.675625,"heading_deg":60.93989789354625,"speed_ms":4.488332153809861,"peak_altitude_m":0.0,"u_ms":3.7448053786270354,"v_ms":0.8541519226232602}},{"type":"Feature","geometry":{"type":"Point","coordinates":[-77.4778,38.9753]},"properties":{"site":"KLWX","name":"Sterling VA","scan_time":"2026-08-11T03:02:39Z","stale":false,"bins":25,"density_birds_km3":3.736875,"heading_deg":68.49287852649003,"speed_ms":5.253028268551236,"peak_altitude_m":0.0,"u_ms":2.8953233215547702,"v_ms":1.0114434628975264}},{"type":"Feature","geometry":{"type":"Point","coordinates":[-76.8762,34.7759]},"properties":{"site":"KMHX","name":"Morehead City NC","scan_time":"2026-08-11T03:00:32Z","stale":false,"bins":25,"density_birds_km3":1.5375,"heading_deg":96.91038672341249,"speed_ms":6.368219512195123,"peak_altitude_m":0.0,"u_ms":5.7770975609756094,"v_ms":-1.040991869918699}},{"type":"Feature","geometry":{"type":"Point","coordinates":[-80.6542,28.1133]},"properties":{"site":"KMLB","name":"Melbourne FL","scan_time":"2026-08-11T03:02:10Z","stale":false,"bins":25,"density_birds_km3":1.726875,"heading_deg":277.48143734506533,"speed_ms":4.305117710974285,"peak_altitude_m":0.0,"u_ms":-2.8574248460702645,"v_ms":0.017388627308945966}},{"type":"Feature","geometry":{"type":"Point","coordinates":[-86.5625,36.2472]},"properties":{"site":"KOHX","name":"Nashville TN","scan_time":"2026-08-11T02:57:47Z","stale":false,"bins":25,"density_birds_km3":4.072666666666667,"heading_deg":48.23594458640251,"speed_ms":8.342003601244066,"peak_altitude_m":200.0,"u_ms":5.909250286462597,"v_ms":5.4260173514486825}},{"type":"Feature","geometry":{"type":"Point","coordinates":[-72.8639,40.8655]},"properties":{"site":"KOKX","name":"Upton NY","scan_time":"2026-08-11T03:00:54Z","stale":false,"bins":25,"density_birds_km3":0.706875,"heading_deg":92.02653580658735,"speed_ms":9.415186170212767,"peak_altitude_m":0.0,"u_ms":9.383395390070923,"v_ms":-0.23556737588652488}},{"type":"Feature","geometry":{"type":"Point","coordinates":[-80.2183,40.5317]},"properties":{"site":"KPBZ","name":"Pittsburgh PA","scan_time":"2026-08-11T03:02:00Z","stale":false,"bins":25,"density_birds_km3":1.5400000000000003,"heading_deg":23.218627826043576,"speed_ms":5.565809149040826,"peak_altitude_m":400.0,"u_ms":2.2267634038366944,"v_ms":2.827653713723561}},{"type":"Feature","geometry":{"type":"Point","coordinates":[-78.4899,35.6655]},"properties":{"site":"KRAX","name":"Raleigh NC","scan_time":"2026-08-11T02:58:49Z","stale":false,"bins":25,"density_birds_km3":2.4699999999999998,"heading_deg":93.06197326800613,"speed_ms":6.301896684656901,"peak_altitude_m":0.0,"u_ms":4.9573425854536115,"v_ms":-0.5529915188897456}},{"type":"Feature","geometry":{"type":"Point","coordinates":[-82.4017,27.7055]},"properties":{"site":"KTBW","name":"Tampa FL","scan_time":"2026-08-11T02:58:25Z","stale":false,"bins":25,"density_birds_km3":20.3475,"heading_deg":222.15319042047813,"speed_ms":4.775157267477577,"peak_altitude_m":0.0,"u_ms":-2.794679321784003,"v_ms":-3.591628271286399}}]}