{"type":"FeatureCollection","frame":"2026-09-06T07","site_count":20,"fresh_count":20,"failures":{},"features":[{"type":"Feature","geometry":{"type":"Point","coordinates":[-77.0073,36.984]},"properties":{"site":"KAKQ","name":"Wakefield VA","scan_time":"2026-09-06T06:58:42Z","stale":false,"bins":25,"density_birds_km3":65.41625,"heading_deg":205.49689954610204,"speed_ms":10.151124253570915,"peak_altitude_m":0.0,"u_ms":-4.24588534849281,"v_ms":-8.936031911336165}},{"type":"Feature","geometry":{"type":"Point","coordinates":[-71.1369,41.9558]},"properties":{"site":"KBOX","name":"Boston MA","scan_time":"2026-09-06T06:59:17Z","stale":false,"bins":25,"density_birds_km3":10.375,"heading_deg":182.7253669927459,"speed_ms":11.953764763180326,"peak_altitude_m":200.0,"u_ms":-0.5207725557043712,"v_ms":-11.828888956532328}},{"type":"Feature","geometry":{"type":"Point","coordinates":[-78.7369,42.9489]},"properties":{"site":"KBUF","name":"Buffalo NY","scan_time":"2026-09-06T06:57:19Z","stale":false,"bins":25,"density_birds_km3":8.645999999999999,"heading_deg":217.63847087779408,"speed_ms":7.735406739147198,"peak_altitude_m":200.0,"u_ms":-4.71185210887501,"v_ms":-6.111778857275041}},{"type":"Feature","geometry":{"type":"Point","coordinates":[-81.8597,41.4131]},"properties":{"site":"KCLE","name":"Cleveland OH","scan_time":"2026-09-06T07:01:34Z","stale":false,"bins":25,"density_birds_km3":24.948,"heading_deg":220.6338462661042,"speed_ms":9.401064347175458,"peak_altitude_m":200.0,"u_ms":-6.118455454011009,"v_ms":-7.022631607076051}},{"type":"Feature","geometry":{"type":"Point","coordinates":[-81.0423,32.6555]},"properties":{"site":"KCLX","name":"Charleston SC","scan_time":"2026-09-06T07:00:03Z","stale":false,"bins":25,"density_birds_km3":23.900624999999998,"heading_deg":182.30462121389533,"speed_ms":8.5318520358796,"peak_altitude_m":0.0,"u_ms":-0.5764651272261304,"v_ms":-7.856370982504772}},{"type":"Feature","geometry":{"type":"Point","coordinates":[-74.4108,39.947]},"properties":{"site":"KDIX","name":"Philadelphia PA","scan_time":"2026-09-06T06:58:59Z","stale":false,"bins":25,"density_birds_km3":22.936875,"heading_deg":201.6561737336159,"speed_ms":10.29437913839614,"peak_altitude_m":200.0,"u_ms":-3.8570974685958745,"v_ms":-9.477570506008338}},{"type":"Feature","geometry":{"type":"Point","coordinates":[-84.5658,33.3636]},"properties":{"site":"KFFC","name":"Atlanta GA","scan_time":"2026-09-06T06:58:02Z","stale":false,"bins":25,"density_birds_km3":64.256,"heading_deg":183.50266099221588,"speed_ms":7.439898945883134,"peak_altitude_m":600.0,"u_ms":-1.1412171107237716,"v_ms":-6.843768156540504}},{"type":"Feature","geometry":{"type":"Point","coordinates":[-85.5449,42.8939]},"properties":{"site":"KGRR","name":"Grand Rapids MI","scan_time":"2026-09-06T07:03:24Z","stale":false,"bins":25,"density_birds_km3":46.336,"heading_deg":216.86727937444766,"speed_ms":8.904583764963169,"peak_altitude_m":200.0,"u_ms":-5.262281595303867,"v_ms":-6.9568603245856355}},{"type":"Feature","geometry":{"type":"Point","coordinates":[-83.8217,39.4203]},"properties":{"site":"KILN","name":"Wilmington OH","scan_time":"2026-09-06T06:59:21Z","stale":false,"bins":25,"density_birds_km3":53.48133333333333,"heading_deg":217.34760578074145,"speed_ms":12.01494191119643,"peak_altitude_m":200.0,"u_ms":-6.708853930343298,"v_ms":-8.778647378524594}},{"type":"Feature","geometry":{"type":"Point","coordinates":[-81.7019,30.4846]},"properties":{"site":"KJAX","name":"Jacksonville FL","scan_time":"2026-09-06T06:58:36Z","stale":false,"bins":25,"density_birds_km3":28.407500000000002,"heading_deg":150.71231504571253,"speed_ms":8.691356897008209,"peak_altitude_m":0.0,"u_ms":4.116391977760127,"v_ms":-7.35527446827288}},{"type":"Feature","geometry":{"type":"Point","coordinates":[-88.0847,41.6045]},"properties":{"site":"KLOT","name":"Chicago IL","scan_time":"2026-09-06T07:02:43Z","stale":false,"bins":25,"density_birds_km3":132.11,"heading_deg":200.0007033347266,"speed_ms":11.101567229329095,"peak_altitude_m":400.0,"u_ms":-2.409344838896879,"v_ms":-9.704801705649333}},{"type":"Feature","geometry":{"type":"Point","coordinates":[-78.4292,33.9892]},"properties":{"site":"KLTX","name":"Wilmington NC","scan_time":"2026-09-06T07:00:34Z","stale":false,"bins":25,"density_birds_km3":53.190625,"heading_deg":191.45202075374087,"speed_ms":7.177118681912731,"peak_altitude_m":0.0,"u_ms":-1.9622101700492403,"v_ms":-6.613602411479205}},{"type":"Feature","geometry":{"type":"Point","coordinates":[-77.4778,38.9753]},"properties":{"site":"KLWX","name":"Sterling VA","scan_time":"2026-09-06T07:00:35Z","stale":false,"bins":25,"density_birds_km3":73.79125,"heading_deg":224.3519466401981,"speed_ms":10.223994680310371,"peak_altitude_m":200.0,"u_ms":-7.20659378917765,"v_ms":-7.055986006166774}},{"type":"Feature","geometry":{"type":"Point","coordinates":[-76.8762,34.7759]},"properties":{"site":"KMHX","name":"Morehead City NC","scan_time":"2026-09-06T06:58:00Z","stale":false,"bins":25,"density_birds_km3":23.760625,"heading_deg":184.59269259047093,"speed_ms":8.430961012311903,"peak_altitude_m":0.0,"u_ms":-0.4490245185730822,"v_ms":-7.987838051141746}},{"type":"Feature","geometry":{"type":"Point","coordinates":[-80.6542,28.1133]},"properties":{"site":"KMLB","name":"Melbourne FL","scan_time":"2026-09-06T07:01:36Z","stale":false,"bins":25,"density_birds_km3":7.211250000000001,"heading_deg":97.82827185567959,"speed_ms":5.039101152812689,"peak_altitude_m":0.0,"u_ms":4.304246337869464,"v_ms":-0.8274863482707809}},{"type":"Feature","geometry":{"type":"Point","coordinates":[-86.5625,36.2472]},"properties":{"site":"KOHX","name":"Nashville TN","scan_time":"2026-09-06T06:57:27Z","stale":false,"bins":25,"density_birds_km3":81.894,"heading_deg":183.20976618330056,"speed_ms":9.892809322620296,"peak_altitude_m":1600.0,"u_ms":-0.7108595664314031,"v_ms":-7.53176463884208}},{"type":"Feature","geometry":{"type":"Point","coordinates":[-72.8639,40.8655]},"properties":{"site":"KOKX","name":"Upton NY","scan_time":"2026-09-06T07:01:57Z","stale":false,"bins":25,"density_birds_km3":3.2366666666666664,"heading_deg":253.93702454466086,"speed_ms":5.707880503144654,"peak_altitude_m":200.0,"u_ms":-5.404310272536688,"v_ms":-1.551159329140461}},{"type":"Feature","geometry":{"type":"Point","coordinates":[-80.2183,40.5317]},"properties":{"site":"KPBZ","name":"Pittsburgh PA","scan_time":"2026-09-06T06:58:27Z","stale":false,"bins":25,"density_birds_km3":46.839285714285715,"heading_deg":244.17292073965092,"speed_ms":11.056522760198247,"peak_altitude_m":400.0,"u_ms":-9.433356614563477,"v_ms":-4.13006267632482}},{"type":"Feature","geometry":{"type":"Point","coordinates":[-78.4899,35.6655]},"properties":{"site":"KRAX","name":"Raleigh NC","scan_time":"2026-09-06T07:01:18Z","stale":false,"bins":25,"density_birds_km3":41.848125,"heading_deg":207.89842578796217,"speed_ms":8.201475056824979,"peak_altitude_m":200.0,"u_ms":-3.899666377557124,"v_ms":-7.1706177473381985}},{"type":"Feature","geometry":{"type":"Point","coordinates":[-82.4017,27.7055]},"properties":{"site":"KTBW","name":"Tampa FL","scan_time":"2026-09-06T07:03:26Z","stale":false,"bins":25,"density_birds_km3":11.606875,"heading_deg":180.10422291710287,"speed_ms":6.703140918636584,"peak_altitude_m":0.0,"u_ms":0.3642835603898552,"v_ms":-6.650115771902428}}]}