{"type":"FeatureCollection","frame":"2026-09-05T12","site_count":20,"fresh_count":20,"failures":{},"features":[{"type":"Feature","geometry":{"type":"Point","coordinates":[-77.0073,36.984]},"properties":{"site":"KAKQ","name":"Wakefield VA","scan_time":"2026-09-05T12:01:05Z","stale":false,"bins":25,"density_birds_km3":7.105,"heading_deg":199.98625542877045,"speed_ms":12.213186416820621,"peak_altitude_m":400.0,"u_ms":-4.192305797483945,"v_ms":-11.444995161432217}},{"type":"Feature","geometry":{"type":"Point","coordinates":[-71.1369,41.9558]},"properties":{"site":"KBOX","name":"Boston MA","scan_time":"2026-09-05T11:57:27Z","stale":false,"bins":25,"density_birds_km3":5.328749999999999,"heading_deg":199.52449076906598,"speed_ms":11.285399694799858,"peak_altitude_m":400.0,"u_ms":-3.8357107641741983,"v_ms":-10.513513323159994}},{"type":"Feature","geometry":{"type":"Point","coordinates":[-78.7369,42.9489]},"properties":{"site":"KBUF","name":"Buffalo NY","scan_time":"2026-09-05T12:02:37Z","stale":false,"bins":25,"density_birds_km3":1.2853333333333334,"heading_deg":198.43072925774533,"speed_ms":6.415575726141078,"peak_altitude_m":200.0,"u_ms":-1.8579201244813277,"v_ms":-6.0157883817427384}},{"type":"Feature","geometry":{"type":"Point","coordinates":[-81.8597,41.4131]},"properties":{"site":"KCLE","name":"Cleveland OH","scan_time":"2026-09-05T12:00:40Z","stale":false,"bins":25,"density_birds_km3":3.7113333333333336,"heading_deg":176.3863260052008,"speed_ms":5.404434860736748,"peak_altitude_m":200.0,"u_ms":0.3704743935309973,"v_ms":-5.305536388140161}},{"type":"Feature","geometry":{"type":"Point","coordinates":[-81.0423,32.6555]},"properties":{"site":"KCLX","name":"Charleston SC","scan_time":"2026-09-05T11:58:11Z","stale":false,"bins":25,"density_birds_km3":2.105,"heading_deg":137.5849930817032,"speed_ms":4.997016344725111,"peak_altitude_m":0.0,"u_ms":3.357046062407132,"v_ms":-3.6931411589895986}},{"type":"Feature","geometry":{"type":"Point","coordinates":[-74.4108,39.947]},"properties":{"site":"KDIX","name":"Philadelphia PA","scan_time":"2026-09-05T12:00:53Z","stale":false,"bins":25,"density_birds_km3":9.773125,"heading_deg":200.6861110983088,"speed_ms":10.740865894992647,"peak_altitude_m":400.0,"u_ms":-3.801828355822728,"v_ms":-10.037931828355822}},{"type":"Feature","geometry":{"type":"Point","coordinates":[-84.5658,33.3636]},"properties":{"site":"KFFC","name":"Atlanta GA","scan_time":"2026-09-05T12:01:06Z","stale":false,"bins":25,"density_birds_km3":9.583333333333334,"heading_deg":169.06043694669535,"speed_ms":6.7355778195227165,"peak_altitude_m":200.0,"u_ms":1.035851248869408,"v_ms":-6.204195366311835}},{"type":"Feature","geometry":{"type":"Point","coordinates":[-85.5449,42.8939]},"properties":{"site":"KGRR","name":"Grand Rapids MI","scan_time":"2026-09-05T11:59:41Z","stale":false,"bins":25,"density_birds_km3":2.664,"heading_deg":247.71508520352268,"speed_ms":7.508292377131394,"peak_altitude_m":200.0,"u_ms":-6.855147943831494,"v_ms":-2.6465722166499495}},{"type":"Feature","geometry":{"type":"Point","coordinates":[-83.8217,39.4203]},"properties":{"site":"KILN","name":"Wilmington OH","scan_time":"2026-09-05T11:57:34Z","stale":false,"bins":25,"density_birds_km3":0.40399999999999997,"heading_deg":202.72941517675554,"speed_ms":19.0867032967033,"peak_altitude_m":400.0,"u_ms":-7.465824175824176,"v_ms":-17.46802197802198}},{"type":"Feature","geometry":{"type":"Point","coordinates":[-81.7019,30.4846]},"properties":{"site":"KJAX","name":"Jacksonville FL","scan_time":"2026-09-05T12:01:36Z","stale":false,"bins":25,"density_birds_km3":1.38125,"heading_deg":126.31475899505591,"speed_ms":4.613242753623188,"peak_altitude_m":0.0,"u_ms":3.630711050724637,"v_ms":-2.46325634057971}},{"type":"Feature","geometry":{"type":"Point","coordinates":[-88.0847,41.6045]},"properties":{"site":"KLOT","name":"Chicago IL","scan_time":"2026-09-05T11:58:40Z","stale":false,"bins":25,"density_birds_km3":6.661333333333333,"heading_deg":163.17892277134595,"speed_ms":7.987223001402524,"peak_altitude_m":200.0,"u_ms":2.5790062111801237,"v_ms":-7.181541775195351}},{"type":"Feature","geometry":{"type":"Point","coordinates":[-78.4292,33.9892]},"properties":{"site":"KLTX","name":"Wilmington NC","scan_time":"2026-09-05T11:59:58Z","stale":false,"bins":25,"density_birds_km3":3.208125,"heading_deg":107.84324302580538,"speed_ms":8.310057273768614,"peak_altitude_m":200.0,"u_ms":7.875048682703323,"v_ms":-2.566583619702176}},{"type":"Feature","geometry":{"type":"Point","coordinates":[-77.4778,38.9753]},"properties":{"site":"KLWX","name":"Sterling VA","scan_time":"2026-09-05T12:01:14Z","stale":false,"bins":25,"density_birds_km3":11.4225,"heading_deg":203.63254201216964,"speed_ms":9.602108471846783,"peak_altitude_m":0.0,"u_ms":-2.152979812503595,"v_ms":-8.117937539541035}},{"type":"Feature","geometry":{"type":"Point","coordinates":[-76.8762,34.7759]},"properties":{"site":"KMHX","name":"Morehead City NC","scan_time":"2026-09-05T12:00:12Z","stale":false,"bins":25,"density_birds_km3":3.525,"heading_deg":151.3608058535325,"speed_ms":9.14087765957447,"peak_altitude_m":1200.0,"u_ms":4.0512304964539005,"v_ms":-6.628817375886525}},{"type":"Feature","geometry":{"type":"Point","coordinates":[-80.6542,28.1133]},"properties":{"site":"KMLB","name":"Melbourne FL","scan_time":"2026-09-05T11:57:37Z","stale":false,"bins":25,"density_birds_km3":0.73875,"heading_deg":51.63376063278886,"speed_ms":5.365228426395939,"peak_altitude_m":0.0,"u_ms":4.207377326565143,"v_ms":3.285710659898477}},{"type":"Feature","geometry":{"type":"Point","coordinates":[-86.5625,36.2472]},"properties":{"site":"KOHX","name":"Nashville TN","scan_time":"2026-09-05T12:00:34Z","stale":false,"bins":25,"density_birds_km3":11.638,"heading_deg":187.76765218243239,"speed_ms":8.412088012835206,"peak_altitude_m":400.0,"u_ms":-1.149310107724043,"v_ms":-8.328927916571166}},{"type":"Feature","geometry":{"type":"Point","coordinates":[-72.8639,40.8655]},"properties":{"site":"KOKX","name":"Upton NY","scan_time":"2026-09-05T11:58:15Z","stale":false,"bins":25,"density_birds_km3":12.407499999999999,"heading_deg":202.63301197657003,"speed_ms":7.780263542454018,"peak_altitude_m":200.0,"u_ms":-3.096284706475183,"v_ms":-7.11162358276644}},{"type":"Feature","geometry":{"type":"Point","coordinates":[-80.2183,40.5317]},"properties":{"site":"KPBZ","name":"Pittsburgh PA","scan_time":"2026-09-05T11:58:59Z","stale":false,"bins":25,"density_birds_km3":9.31357142857143,"heading_deg":148.19576487388755,"speed_ms":9.793059753010661,"peak_altitude_m":600.0,"u_ms":5.476338114596916,"v_ms":-7.581007900590627}},{"type":"Feature","geometry":{"type":"Point","coordinates":[-78.4899,35.6655]},"properties":{"site":"KRAX","name":"Raleigh NC","scan_time":"2026-09-05T12:04:05Z","stale":false,"bins":25,"density_birds_km3":4.45,"heading_deg":134.8885854183027,"speed_ms":7.129405444126074,"peak_altitude_m":0.0,"u_ms":4.071755014326648,"v_ms":-5.155281757402101}},{"type":"Feature","geometry":{"type":"Point","coordinates":[-82.4017,27.7055]},"properties":{"site":"KTBW","name":"Tampa FL","scan_time":"2026-09-05T12:00:51Z","stale":false,"bins":25,"density_birds_km3":0.6124999999999999,"heading_deg":26.053818839048493,"speed_ms":3.0272307692307687,"peak_altitude_m":0.0,"u_ms":1.1721948717948718,"v_ms":2.348184615384615}}]}