{"type":"FeatureCollection","frame":"2026-10-02T07","site_count":20,"fresh_count":20,"failures":{},"features":[{"type":"Feature","geometry":{"type":"Point","coordinates":[-77.0073,36.984]},"properties":{"site":"KAKQ","name":"Wakefield VA","scan_time":"2026-10-02T06:59:01Z","stale":false,"bins":25,"density_birds_km3":1.7425,"heading_deg":73.2694792589426,"speed_ms":12.041076040172166,"peak_altitude_m":0.0,"u_ms":11.183819942611192,"v_ms":2.833877331420373}},{"type":"Feature","geometry":{"type":"Point","coordinates":[-71.1369,41.9558]},"properties":{"site":"KBOX","name":"Boston MA","scan_time":"2026-10-02T07:00:05Z","stale":false,"bins":25,"density_birds_km3":1.353125,"heading_deg":60.508762291828646,"speed_ms":12.295685912240188,"peak_altitude_m":0.0,"u_ms":10.884023094688223,"v_ms":5.305334872979215}},{"type":"Feature","geometry":{"type":"Point","coordinates":[-78.7369,42.9489]},"properties":{"site":"KBUF","name":"Buffalo NY","scan_time":"2026-10-02T07:00:33Z","stale":false,"bins":25,"density_birds_km3":1.3086666666666666,"heading_deg":64.53967177826529,"speed_ms":10.683910944206009,"peak_altitude_m":400.0,"u_ms":9.667714592274677,"v_ms":4.482580472103004}},{"type":"Feature","geometry":{"type":"Point","coordinates":[-81.8597,41.4131]},"properties":{"site":"KCLE","name":"Cleveland OH","scan_time":"2026-10-02T07:00:19Z","stale":false,"bins":25,"density_birds_km3":2.4066666666666667,"heading_deg":50.4669122719931,"speed_ms":13.884159046827378,"peak_altitude_m":200.0,"u_ms":10.984835134386257,"v_ms":8.229886395123303}},{"type":"Feature","geometry":{"type":"Point","coordinates":[-81.0423,32.6555]},"properties":{"site":"KCLX","name":"Charleston SC","scan_time":"2026-10-02T06:57:41Z","stale":false,"bins":25,"density_birds_km3":7.241875,"heading_deg":260.63470158145617,"speed_ms":6.7538639502762425,"peak_altitude_m":0.0,"u_ms":-6.442925587016575,"v_ms":-1.313434046961326}},{"type":"Feature","geometry":{"type":"Point","coordinates":[-74.4108,39.947]},"properties":{"site":"KDIX","name":"Philadelphia PA","scan_time":"2026-10-02T06:59:17Z","stale":false,"bins":25,"density_birds_km3":1.9025,"heading_deg":60.67661399706029,"speed_ms":11.26265111695138,"peak_altitude_m":0.0,"u_ms":9.905568331143233,"v_ms":5.006704993429698}},{"type":"Feature","geometry":{"type":"Point","coordinates":[-84.5658,33.3636]},"properties":{"site":"KFFC","name":"Atlanta GA","scan_time":"2026-10-02T06:57:34Z","stale":false,"bins":25,"density_birds_km3":3.2333333333333334,"heading_deg":351.83203315288847,"speed_ms":8.381705154639175,"peak_altitude_m":400.0,"u_ms":-0.49432989690721646,"v_ms":8.089872164948453}},{"type":"Feature","geometry":{"type":"Point","coordinates":[-85.5449,42.8939]},"properties":{"site":"KGRR","name":"Grand Rapids MI","scan_time":"2026-10-02T06:57:40Z","stale":false,"bins":25,"density_birds_km3":93.50733333333334,"heading_deg":200.9700409091565,"speed_ms":8.811411943530588,"peak_altitude_m":200.0,"u_ms":-3.1760598425852664,"v_ms":-8.214404905676092}},{"type":"Feature","geometry":{"type":"Point","coordinates":[-83.8217,39.4203]},"properties":{"site":"KILN","name":"Wilmington OH","scan_time":"2026-10-02T07:00:34Z","stale":false,"bins":25,"density_birds_km3":2.0186666666666664,"heading_deg":56.7194957478157,"speed_ms":18.815467459530886,"peak_altitude_m":600.0,"u_ms":16.034093161546085,"v_ms":9.490482325735051}},{"type":"Feature","geometry":{"type":"Point","coordinates":[-81.7019,30.4846]},"properties":{"site":"KJAX","name":"Jacksonville FL","scan_time":"2026-10-02T07:02:03Z","stale":false,"bins":25,"density_birds_km3":7.9887500000000005,"heading_deg":231.48389569317473,"speed_ms":4.391303224796492,"peak_altitude_m":0.0,"u_ms":-3.0168010331872264,"v_ms":-2.1164621164683783}},{"type":"Feature","geometry":{"type":"Point","coordinates":[-88.0847,41.6045]},"properties":{"site":"KLOT","name":"Chicago IL","scan_time":"2026-10-02T06:58:13Z","stale":false,"bins":25,"density_birds_km3":211.096,"heading_deg":144.3947549423031,"speed_ms":12.014557957832771,"peak_altitude_m":200.0,"u_ms":6.162122920377459,"v_ms":-9.665815995250187}},{"type":"Feature","geometry":{"type":"Point","coordinates":[-78.4292,33.9892]},"properties":{"site":"KLTX","name":"Wilmington NC","scan_time":"2026-10-02T07:01:26Z","stale":false,"bins":25,"density_birds_km3":2.2525,"heading_deg":352.802588975948,"speed_ms":2.9271404775124927,"peak_altitude_m":0.0,"u_ms":-0.3630871737923376,"v_ms":2.6264519711271515}},{"type":"Feature","geometry":{"type":"Point","coordinates":[-77.4778,38.9753]},"properties":{"site":"KLWX","name":"Sterling VA","scan_time":"2026-10-02T06:57:40Z","stale":false,"bins":25,"density_birds_km3":6.310625,"heading_deg":52.15323039879474,"speed_ms":6.61065775136206,"peak_altitude_m":0.0,"u_ms":5.4698583457157,"v_ms":2.679103516592373}},{"type":"Feature","geometry":{"type":"Point","coordinates":[-76.8762,34.7759]},"properties":{"site":"KMHX","name":"Morehead City NC","scan_time":"2026-10-02T07:02:11Z","stale":false,"bins":25,"density_birds_km3":0.805625,"heading_deg":47.082554213188615,"speed_ms":6.999658650116369,"peak_altitude_m":0.0,"u_ms":4.901861908456167,"v_ms":4.879674166020171}},{"type":"Feature","geometry":{"type":"Point","coordinates":[-80.6542,28.1133]},"properties":{"site":"KMLB","name":"Melbourne FL","scan_time":"2026-10-02T07:01:24Z","stale":false,"bins":25,"density_birds_km3":1.7925,"heading_deg":296.00704117735603,"speed_ms":5.249026178010472,"peak_altitude_m":200.0,"u_ms":-4.724129144851657,"v_ms":2.2846003490401396}},{"type":"Feature","geometry":{"type":"Point","coordinates":[-86.5625,36.2472]},"properties":{"site":"KOHX","name":"Nashville TN","scan_time":"2026-10-02T07:00:55Z","stale":false,"bins":25,"density_birds_km3":3.8973333333333335,"heading_deg":27.426515027094073,"speed_ms":14.111641153435388,"peak_altitude_m":200.0,"u_ms":6.728625845496619,"v_ms":12.08369170523318}},{"type":"Feature","geometry":{"type":"Point","coordinates":[-72.8639,40.8655]},"properties":{"site":"KOKX","name":"Upton NY","scan_time":"2026-10-02T07:03:54Z","stale":false,"bins":25,"density_birds_km3":0.716875,"heading_deg":63.0589332692437,"speed_ms":14.325274629468177,"peak_altitude_m":0.0,"u_ms":12.759459459459459,"v_ms":6.208718395815169}},{"type":"Feature","geometry":{"type":"Point","coordinates":[-80.2183,40.5317]},"properties":{"site":"KPBZ","name":"Pittsburgh PA","scan_time":"2026-10-02T06:59:14Z","stale":false,"bins":25,"density_birds_km3":1.3478571428571426,"heading_deg":59.60564389105857,"speed_ms":15.82272390037096,"peak_altitude_m":400.0,"u_ms":13.762294647588767,"v_ms":7.700842607313196}},{"type":"Feature","geometry":{"type":"Point","coordinates":[-78.4899,35.6655]},"properties":{"site":"KRAX","name":"Raleigh NC","scan_time":"2026-10-02T06:56:05Z","stale":false,"bins":25,"density_birds_km3":2.628125,"heading_deg":57.936482415838825,"speed_ms":8.533794005708849,"peak_altitude_m":0.0,"u_ms":6.744039010466223,"v_ms":4.367098001902949}},{"type":"Feature","geometry":{"type":"Point","coordinates":[-82.4017,27.7055]},"properties":{"site":"KTBW","name":"Tampa FL","scan_time":"2026-10-02T06:59:28Z","stale":false,"bins":25,"density_birds_km3":2.58,"heading_deg":269.7369899685242,"speed_ms":7.315737824085292,"peak_altitude_m":0.0,"u_ms":-7.165810516113399,"v_ms":0.31293918100315}}]}