{"type":"FeatureCollection","frame":"2026-09-24T00","site_count":20,"fresh_count":20,"failures":{},"features":[{"type":"Feature","geometry":{"type":"Point","coordinates":[-77.0073,36.984]},"properties":{"site":"KAKQ","name":"Wakefield VA","scan_time":"2026-09-24T00:00:10Z","stale":false,"bins":25,"density_birds_km3":8.442307692307692,"heading_deg":222.2473165559205,"speed_ms":10.094100368324126,"peak_altitude_m":200.0,"u_ms":-6.874219152854511,"v_ms":-7.103374769797421}},{"type":"Feature","geometry":{"type":"Point","coordinates":[-71.1369,41.9558]},"properties":{"site":"KBOX","name":"Boston MA","scan_time":"2026-09-24T00:04:15Z","stale":false,"bins":25,"density_birds_km3":2.2449999999999997,"heading_deg":224.29998892286574,"speed_ms":13.787019015659956,"peak_altitude_m":200.0,"u_ms":-9.75462807606264,"v_ms":-9.691744966442954}},{"type":"Feature","geometry":{"type":"Point","coordinates":[-78.7369,42.9489]},"properties":{"site":"KBUF","name":"Buffalo NY","scan_time":"2026-09-24T00:01:09Z","stale":false,"bins":25,"density_birds_km3":6.585333333333334,"heading_deg":246.65377833086697,"speed_ms":12.309757035837215,"peak_altitude_m":400.0,"u_ms":-11.10011743267868,"v_ms":-4.790395829115205}},{"type":"Feature","geometry":{"type":"Point","coordinates":[-81.8597,41.4131]},"properties":{"site":"KCLE","name":"Cleveland OH","scan_time":"2026-09-23T23:59:05Z","stale":false,"bins":25,"density_birds_km3":18.298000000000002,"heading_deg":264.5412814663564,"speed_ms":10.525990818668706,"peak_altitude_m":400.0,"u_ms":-10.449257113710058,"v_ms":-0.8498185594053994}},{"type":"Feature","geometry":{"type":"Point","coordinates":[-81.0423,32.6555]},"properties":{"site":"KCLX","name":"Charleston SC","scan_time":"2026-09-24T00:01:00Z","stale":false,"bins":25,"density_birds_km3":10.4,"heading_deg":200.1678161967514,"speed_ms":10.767483173076922,"peak_altitude_m":200.0,"u_ms":-3.884275240384615,"v_ms":-9.964204927884614}},{"type":"Feature","geometry":{"type":"Point","coordinates":[-74.4108,39.947]},"properties":{"site":"KDIX","name":"Philadelphia PA","scan_time":"2026-09-24T00:03:09Z","stale":false,"bins":25,"density_birds_km3":14.35,"heading_deg":221.52242020908673,"speed_ms":15.844817710743037,"peak_altitude_m":200.0,"u_ms":-10.583458869251412,"v_ms":-11.727459516979735}},{"type":"Feature","geometry":{"type":"Point","coordinates":[-84.5658,33.3636]},"properties":{"site":"KFFC","name":"Atlanta GA","scan_time":"2026-09-23T23:59:41Z","stale":false,"bins":25,"density_birds_km3":15.244666666666665,"heading_deg":247.57303391627696,"speed_ms":6.775852975904141,"peak_altitude_m":400.0,"u_ms":-6.25044911881751,"v_ms":-2.5103830847946824}},{"type":"Feature","geometry":{"type":"Point","coordinates":[-85.5449,42.8939]},"properties":{"site":"KGRR","name":"Grand Rapids MI","scan_time":"2026-09-23T23:58:17Z","stale":false,"bins":25,"density_birds_km3":1.4173333333333333,"heading_deg":262.91588719401307,"speed_ms":7.182836312323613,"peak_altitude_m":200.0,"u_ms":-7.107126058325493,"v_ms":-0.9278033866415805}},{"type":"Feature","geometry":{"type":"Point","coordinates":[-83.8217,39.4203]},"properties":{"site":"KILN","name":"Wilmington OH","scan_time":"2026-09-23T23:59:25Z","stale":false,"bins":25,"density_birds_km3":5.069999999999999,"heading_deg":245.54515285714893,"speed_ms":7.775271531886917,"peak_altitude_m":200.0,"u_ms":-7.033268902038133,"v_ms":-3.054844181459566}},{"type":"Feature","geometry":{"type":"Point","coordinates":[-81.7019,30.4846]},"properties":{"site":"KJAX","name":"Jacksonville FL","scan_time":"2026-09-23T23:58:01Z","stale":false,"bins":25,"density_birds_km3":12.94625,"heading_deg":197.98287000853466,"speed_ms":10.272171414775471,"peak_altitude_m":0.0,"u_ms":-3.1731844519555774,"v_ms":-9.755324963785611}},{"type":"Feature","geometry":{"type":"Point","coordinates":[-88.0847,41.6045]},"properties":{"site":"KLOT","name":"Chicago IL","scan_time":"2026-09-23T23:55:56Z","stale":false,"bins":25,"density_birds_km3":0.656,"heading_deg":235.83127587995818,"speed_ms":7.468761384335155,"peak_altitude_m":200.0,"u_ms":-6.218724954462659,"v_ms":-4.117176684881603}},{"type":"Feature","geometry":{"type":"Point","coordinates":[-78.4292,33.9892]},"properties":{"site":"KLTX","name":"Wilmington NC","scan_time":"2026-09-24T00:00:58Z","stale":false,"bins":25,"density_birds_km3":10.349375,"heading_deg":198.2629106130196,"speed_ms":15.469265061698524,"peak_altitude_m":200.0,"u_ms":-5.329301959835471,"v_ms":-14.181480764577788}},{"type":"Feature","geometry":{"type":"Point","coordinates":[-77.4778,38.9753]},"properties":{"site":"KLWX","name":"Sterling VA","scan_time":"2026-09-24T00:00:38Z","stale":false,"bins":25,"density_birds_km3":28.608125,"heading_deg":222.25463087089338,"speed_ms":11.20488031158374,"peak_altitude_m":400.0,"u_ms":-7.549712922848015,"v_ms":-7.776402564439192}},{"type":"Feature","geometry":{"type":"Point","coordinates":[-76.8762,34.7759]},"properties":{"site":"KMHX","name":"Morehead City NC","scan_time":"2026-09-23T23:58:30Z","stale":false,"bins":25,"density_birds_km3":3.54625,"heading_deg":212.23553844872873,"speed_ms":14.870548114205144,"peak_altitude_m":0.0,"u_ms":-8.06612618963694,"v_ms":-12.408054282692985}},{"type":"Feature","geometry":{"type":"Point","coordinates":[-80.6542,28.1133]},"properties":{"site":"KMLB","name":"Melbourne FL","scan_time":"2026-09-24T00:00:45Z","stale":false,"bins":25,"density_birds_km3":20.7075,"heading_deg":181.95275832705002,"speed_ms":9.3519615477484,"peak_altitude_m":0.0,"u_ms":-0.05541047929494139,"v_ms":-9.189372509960158}},{"type":"Feature","geometry":{"type":"Point","coordinates":[-86.5625,36.2472]},"properties":{"site":"KOHX","name":"Nashville TN","scan_time":"2026-09-23T23:59:09Z","stale":false,"bins":25,"density_birds_km3":8.755333333333335,"heading_deg":184.85921110693147,"speed_ms":5.473711544319221,"peak_altitude_m":400.0,"u_ms":-0.45102345415778256,"v_ms":-5.4210699055741705}},{"type":"Feature","geometry":{"type":"Point","coordinates":[-72.8639,40.8655]},"properties":{"site":"KOKX","name":"Upton NY","scan_time":"2026-09-23T23:56:55Z","stale":false,"bins":25,"density_birds_km3":2.384375,"heading_deg":227.8176945776676,"speed_ms":16.702118491921006,"peak_altitude_m":200.0,"u_ms":-12.371573907839617,"v_ms":-11.211804308797126}},{"type":"Feature","geometry":{"type":"Point","coordinates":[-80.2183,40.5317]},"properties":{"site":"KPBZ","name":"Pittsburgh PA","scan_time":"2026-09-23T23:58:10Z","stale":false,"bins":25,"density_birds_km3":19.98,"heading_deg":260.92276074418794,"speed_ms":10.01159731159731,"peak_altitude_m":400.0,"u_ms":-9.873706563706563,"v_ms":-1.5479679679679677}},{"type":"Feature","geometry":{"type":"Point","coordinates":[-78.4899,35.6655]},"properties":{"site":"KRAX","name":"Raleigh NC","scan_time":"2026-09-23T23:59:49Z","stale":false,"bins":25,"density_birds_km3":7.195,"heading_deg":206.93350681715893,"speed_ms":9.451722275459536,"peak_altitude_m":200.0,"u_ms":-4.4495931701367715,"v_ms":-8.245604146702673}},{"type":"Feature","geometry":{"type":"Point","coordinates":[-82.4017,27.7055]},"properties":{"site":"KTBW","name":"Tampa FL","scan_time":"2026-09-23T23:58:26Z","stale":false,"bins":25,"density_birds_km3":11.430625,"heading_deg":227.71337641927045,"speed_ms":5.643072885340915,"peak_altitude_m":0.0,"u_ms":-4.098184154409755,"v_ms":-3.8383711520586146}}]}