{"type":"FeatureCollection","frame":"2026-09-15T05","site_count":20,"fresh_count":19,"failures":{"KBUF":"RuntimeError('no scan within 20 min of 2026-09-15T05:00Z')"},"features":[{"type":"Feature","geometry":{"type":"Point","coordinates":[-77.0073,36.984]},"properties":{"site":"KAKQ","name":"Wakefield VA","scan_time":"2026-09-15T05:01:01Z","stale":false,"bins":25,"density_birds_km3":75.813125,"heading_deg":203.64077471709908,"speed_ms":13.4010249556573,"peak_altitude_m":0.0,"u_ms":-5.368983046652642,"v_ms":-11.864412985191601}},{"type":"Feature","geometry":{"type":"Point","coordinates":[-71.1369,41.9558]},"properties":{"site":"KBOX","name":"Boston MA","scan_time":"2026-09-15T04:59:40Z","stale":false,"bins":25,"density_birds_km3":5.43375,"heading_deg":207.30359555046334,"speed_ms":12.678660991602436,"peak_altitude_m":0.0,"u_ms":-5.84040377315081,"v_ms":-10.746473024272403}},{"type":"Feature","geometry":{"type":"Point","coordinates":[-81.8597,41.4131]},"properties":{"site":"KCLE","name":"Cleveland OH","scan_time":"2026-09-15T05:01:05Z","stale":false,"bins":25,"density_birds_km3":19.931333333333335,"heading_deg":275.746798346766,"speed_ms":11.375970466268837,"peak_altitude_m":200.0,"u_ms":-10.943807693604397,"v_ms":0.8933191733252418}},{"type":"Feature","geometry":{"type":"Point","coordinates":[-81.0423,32.6555]},"properties":{"site":"KCLX","name":"Charleston SC","scan_time":"2026-09-15T04:59:40Z","stale":false,"bins":25,"density_birds_km3":58.50642857142857,"heading_deg":218.93588582949332,"speed_ms":6.733183011564153,"peak_altitude_m":0.0,"u_ms":-4.22685264558987,"v_ms":-5.186149027365645}},{"type":"Feature","geometry":{"type":"Point","coordinates":[-74.4108,39.947]},"properties":{"site":"KDIX","name":"Philadelphia PA","scan_time":"2026-09-15T05:02:57Z","stale":false,"bins":25,"density_birds_km3":67.125625,"heading_deg":226.02502245220995,"speed_ms":14.988856488037566,"peak_altitude_m":400.0,"u_ms":-10.630225926063948,"v_ms":-10.326641387791607}},{"type":"Feature","geometry":{"type":"Point","coordinates":[-84.5658,33.3636]},"properties":{"site":"KFFC","name":"Atlanta GA","scan_time":"2026-09-15T04:56:53Z","stale":false,"bins":25,"density_birds_km3":80.26133333333334,"heading_deg":238.53336166216212,"speed_ms":7.434211990829955,"peak_altitude_m":400.0,"u_ms":-6.142346501428666,"v_ms":-3.95876578177952}},{"type":"Feature","geometry":{"type":"Point","coordinates":[-85.5449,42.8939]},"properties":{"site":"KGRR","name":"Grand Rapids MI","scan_time":"2026-09-15T05:03:01Z","stale":false,"bins":25,"density_birds_km3":3.29,"heading_deg":312.3362749673279,"speed_ms":11.470381347150258,"peak_altitude_m":200.0,"u_ms":-6.518246632124352,"v_ms":7.99542797927461}},{"type":"Feature","geometry":{"type":"Point","coordinates":[-83.8217,39.4203]},"properties":{"site":"KILN","name":"Wilmington OH","scan_time":"2026-09-15T04:59:18Z","stale":false,"bins":25,"density_birds_km3":12.514666666666667,"heading_deg":272.9401165927774,"speed_ms":10.656313125932238,"peak_altitude_m":200.0,"u_ms":-10.061190070317494,"v_ms":0.40010227999147663}},{"type":"Feature","geometry":{"type":"Point","coordinates":[-81.7019,30.4846]},"properties":{"site":"KJAX","name":"Jacksonville FL","scan_time":"2026-09-15T04:58:07Z","stale":false,"bins":25,"density_birds_km3":87.580625,"heading_deg":197.58768272297252,"speed_ms":10.005863610397029,"peak_altitude_m":0.0,"u_ms":-3.2083154812910597,"v_ms":-9.44236746643816}},{"type":"Feature","geometry":{"type":"Point","coordinates":[-88.0847,41.6045]},"properties":{"site":"KLOT","name":"Chicago IL","scan_time":"2026-09-15T04:59:16Z","stale":false,"bins":25,"density_birds_km3":1.3726666666666667,"heading_deg":356.9638103357263,"speed_ms":19.478297982410762,"peak_altitude_m":200.0,"u_ms":-0.46143300569063633,"v_ms":18.96892912571133}},{"type":"Feature","geometry":{"type":"Point","coordinates":[-78.4292,33.9892]},"properties":{"site":"KLTX","name":"Wilmington NC","scan_time":"2026-09-15T04:58:14Z","stale":false,"bins":25,"density_birds_km3":95.9125,"heading_deg":228.41679127285047,"speed_ms":12.376990835628778,"peak_altitude_m":0.0,"u_ms":-9.24791079750917,"v_ms":-7.988803605697054}},{"type":"Feature","geometry":{"type":"Point","coordinates":[-77.4778,38.9753]},"properties":{"site":"KLWX","name":"Sterling VA","scan_time":"2026-09-15T05:03:23Z","stale":false,"bins":25,"density_birds_km3":125.43500000000002,"heading_deg":227.13329081833587,"speed_ms":11.722052088496886,"peak_altitude_m":200.0,"u_ms":-8.594590021024562,"v_ms":-7.644137451640656}},{"type":"Feature","geometry":{"type":"Point","coordinates":[-76.8762,34.7759]},"properties":{"site":"KMHX","name":"Morehead City NC","scan_time":"2026-09-15T05:01:43Z","stale":false,"bins":25,"density_birds_km3":34.546875,"heading_deg":204.93148392308072,"speed_ms":11.712771234735413,"peak_altitude_m":0.0,"u_ms":-4.934560289461782,"v_ms":-10.356983265490728}},{"type":"Feature","geometry":{"type":"Point","coordinates":[-80.6542,28.1133]},"properties":{"site":"KMLB","name":"Melbourne FL","scan_time":"2026-09-15T04:58:16Z","stale":false,"bins":25,"density_birds_km3":6.5131250000000005,"heading_deg":173.9367264983628,"speed_ms":3.0548603780827173,"peak_altitude_m":0.0,"u_ms":0.5743537088571155,"v_ms":-2.661905767200844}},{"type":"Feature","geometry":{"type":"Point","coordinates":[-86.5625,36.2472]},"properties":{"site":"KOHX","name":"Nashville TN","scan_time":"2026-09-15T04:59:01Z","stale":false,"bins":25,"density_birds_km3":117.61999999999999,"heading_deg":265.9632267062894,"speed_ms":8.259977271439098,"peak_altitude_m":200.0,"u_ms":-6.665448789888341,"v_ms":-0.387478036615088}},{"type":"Feature","geometry":{"type":"Point","coordinates":[-72.8639,40.8655]},"properties":{"site":"KOKX","name":"Upton NY","scan_time":"2026-09-15T04:58:12Z","stale":false,"bins":25,"density_birds_km3":23.359375,"heading_deg":232.5206686206438,"speed_ms":13.484862518089725,"peak_altitude_m":200.0,"u_ms":-10.705021171678192,"v_ms":-8.176897679155276}},{"type":"Feature","geometry":{"type":"Point","coordinates":[-80.2183,40.5317]},"properties":{"site":"KPBZ","name":"Pittsburgh PA","scan_time":"2026-09-15T05:00:55Z","stale":false,"bins":25,"density_birds_km3":92.01214285714286,"heading_deg":252.48018171713153,"speed_ms":9.128568667179021,"peak_altitude_m":400.0,"u_ms":-8.528589238997958,"v_ms":-2.603495734258677}},{"type":"Feature","geometry":{"type":"Point","coordinates":[-78.4899,35.6655]},"properties":{"site":"KRAX","name":"Raleigh NC","scan_time":"2026-09-15T05:02:09Z","stale":false,"bins":25,"density_birds_km3":92.84375,"heading_deg":213.17585210896615,"speed_ms":11.020334238562775,"peak_altitude_m":200.0,"u_ms":-5.874234586952567,"v_ms":-8.81824336071484}},{"type":"Feature","geometry":{"type":"Point","coordinates":[-82.4017,27.7055]},"properties":{"site":"KTBW","name":"Tampa FL","scan_time":"2026-09-15T05:01:21Z","stale":false,"bins":25,"density_birds_km3":69.895,"heading_deg":206.08849109652456,"speed_ms":8.977834966735818,"peak_altitude_m":200.0,"u_ms":-3.6730997388940554,"v_ms":-8.066330120180272}}]}