{"type":"FeatureCollection","frame":"2026-10-08T11","site_count":20,"fresh_count":19,"failures":{"KILN":"RuntimeError('no scan within 20 min of 2026-10-08T11:00Z')"},"features":[{"type":"Feature","geometry":{"type":"Point","coordinates":[-77.0073,36.984]},"properties":{"site":"KAKQ","name":"Wakefield VA","scan_time":"2026-10-08T10:56:41Z","stale":false,"bins":25,"density_birds_km3":0.018125,"heading_deg":84.749672513839,"speed_ms":9.23655172413793,"peak_altitude_m":200.0,"u_ms":8.775172413793104,"v_ms":0.8596551724137932}},{"type":"Feature","geometry":{"type":"Point","coordinates":[-71.1369,41.9558]},"properties":{"site":"KBOX","name":"Boston MA","scan_time":"2026-10-08T11:02:24Z","stale":false,"bins":25,"density_birds_km3":1.5375,"heading_deg":20.758940105687774,"speed_ms":4.999012195121951,"peak_altitude_m":0.0,"u_ms":1.8641056910569105,"v_ms":4.616288617886179}},{"type":"Feature","geometry":{"type":"Point","coordinates":[-78.7369,42.9489]},"properties":{"site":"KBUF","name":"Buffalo NY","scan_time":"2026-10-08T10:57:52Z","stale":false,"bins":25,"density_birds_km3":0.314,"heading_deg":100.8685589937882,"speed_ms":7.329660297239915,"peak_altitude_m":200.0,"u_ms":7.141252653927814,"v_ms":-1.328895966029724}},{"type":"Feature","geometry":{"type":"Point","coordinates":[-81.8597,41.4131]},"properties":{"site":"KCLE","name":"Cleveland OH","scan_time":"2026-10-08T10:59:49Z","stale":false,"bins":25,"density_birds_km3":1.3246666666666667,"heading_deg":113.21698742484848,"speed_ms":8.596821158690176,"peak_altitude_m":200.0,"u_ms":7.504287153652393,"v_ms":-3.5789773299748107}},{"type":"Feature","geometry":{"type":"Point","coordinates":[-81.0423,32.6555]},"properties":{"site":"KCLX","name":"Charleston SC","scan_time":"2026-10-08T11:02:25Z","stale":false,"bins":25,"density_birds_km3":0.6475,"heading_deg":206.50902086461934,"speed_ms":5.42807915057915,"peak_altitude_m":200.0,"u_ms":-2.146689189189189,"v_ms":-4.572316602316603}},{"type":"Feature","geometry":{"type":"Point","coordinates":[-74.4108,39.947]},"properties":{"site":"KDIX","name":"Philadelphia PA","scan_time":"2026-10-08T11:01:05Z","stale":false,"bins":25,"density_birds_km3":0.5081249999999999,"heading_deg":58.59342338890546,"speed_ms":7.407765042979942,"peak_altitude_m":0.0,"u_ms":6.3256446991404,"v_ms":3.518968481375358}},{"type":"Feature","geometry":{"type":"Point","coordinates":[-84.5658,33.3636]},"properties":{"site":"KFFC","name":"Atlanta GA","scan_time":"2026-10-08T10:59:58Z","stale":false,"bins":25,"density_birds_km3":25.086666666666666,"heading_deg":171.2746719371555,"speed_ms":9.04151160009567,"peak_altitude_m":400.0,"u_ms":1.3635135135135135,"v_ms":-8.93281750777326}},{"type":"Feature","geometry":{"type":"Point","coordinates":[-85.5449,42.8939]},"properties":{"site":"KGRR","name":"Grand Rapids MI","scan_time":"2026-10-08T10:58:56Z","stale":false,"bins":25,"density_birds_km3":2.622666666666667,"heading_deg":118.805138274518,"speed_ms":8.912171370455123,"peak_altitude_m":400.0,"u_ms":7.600455123315536,"v_ms":-4.4529112636664125}},{"type":"Feature","geometry":{"type":"Point","coordinates":[-81.7019,30.4846]},"properties":{"site":"KJAX","name":"Jacksonville FL","scan_time":"2026-10-08T11:00:42Z","stale":false,"bins":25,"density_birds_km3":7.9731250000000005,"heading_deg":214.36296472357594,"speed_ms":8.942569972559781,"peak_altitude_m":0.0,"u_ms":-5.083227753822031,"v_ms":-7.203633085064681}},{"type":"Feature","geometry":{"type":"Point","coordinates":[-88.0847,41.6045]},"properties":{"site":"KLOT","name":"Chicago IL","scan_time":"2026-10-08T11:01:29Z","stale":false,"bins":25,"density_birds_km3":5.418,"heading_deg":171.6130652462601,"speed_ms":10.555738370662072,"peak_altitude_m":400.0,"u_ms":1.6324575436869309,"v_ms":-10.372815653458035}},{"type":"Feature","geometry":{"type":"Point","coordinates":[-78.4292,33.9892]},"properties":{"site":"KLTX","name":"Wilmington NC","scan_time":"2026-10-08T11:01:52Z","stale":false,"bins":25,"density_birds_km3":1.735625,"heading_deg":178.4241757646565,"speed_ms":5.37641339575081,"peak_altitude_m":200.0,"u_ms":-0.07629096146921142,"v_ms":-5.253186892329852}},{"type":"Feature","geometry":{"type":"Point","coordinates":[-77.4778,38.9753]},"properties":{"site":"KLWX","name":"Sterling VA","scan_time":"2026-10-08T11:03:31Z","stale":false,"bins":25,"density_birds_km3":2.6056250000000003,"heading_deg":94.38742828019231,"speed_ms":5.608318138195777,"peak_altitude_m":0.0,"u_ms":5.56331094049904,"v_ms":-0.5081597888675623}},{"type":"Feature","geometry":{"type":"Point","coordinates":[-76.8762,34.7759]},"properties":{"site":"KMHX","name":"Morehead City NC","scan_time":"2026-10-08T11:00:40Z","stale":false,"bins":25,"density_birds_km3":1.8925,"heading_deg":103.55661689711177,"speed_ms":4.819138216771628,"peak_altitude_m":0.0,"u_ms":4.602817368246603,"v_ms":-1.0125820351342394}},{"type":"Feature","geometry":{"type":"Point","coordinates":[-80.6542,28.1133]},"properties":{"site":"KMLB","name":"Melbourne FL","scan_time":"2026-10-08T10:59:37Z","stale":false,"bins":25,"density_birds_km3":4.216875,"heading_deg":215.6476814466331,"speed_ms":1.1173487544483987,"peak_altitude_m":0.0,"u_ms":-0.7171100237247924,"v_ms":-0.7665094899169632}},{"type":"Feature","geometry":{"type":"Point","coordinates":[-86.5625,36.2472]},"properties":{"site":"KOHX","name":"Nashville TN","scan_time":"2026-10-08T10:59:00Z","stale":false,"bins":25,"density_birds_km3":32.29266666666667,"heading_deg":148.91337647459292,"speed_ms":11.899631701727948,"peak_altitude_m":400.0,"u_ms":6.061824769297467,"v_ms":-10.21265096306695}},{"type":"Feature","geometry":{"type":"Point","coordinates":[-72.8639,40.8655]},"properties":{"site":"KOKX","name":"Upton NY","scan_time":"2026-10-08T11:01:40Z","stale":false,"bins":25,"density_birds_km3":2.1237500000000002,"heading_deg":53.649337210069405,"speed_ms":6.808216597998823,"peak_altitude_m":0.0,"u_ms":5.467145379635079,"v_ms":4.039970570924073}},{"type":"Feature","geometry":{"type":"Point","coordinates":[-80.2183,40.5317]},"properties":{"site":"KPBZ","name":"Pittsburgh PA","scan_time":"2026-10-08T10:56:48Z","stale":false,"bins":25,"density_birds_km3":0.13357142857142856,"heading_deg":120.52762277579635,"speed_ms":10.722032085561498,"peak_altitude_m":400.0,"u_ms":9.106310160427808,"v_ms":-5.480374331550803}},{"type":"Feature","geometry":{"type":"Point","coordinates":[-78.4899,35.6655]},"properties":{"site":"KRAX","name":"Raleigh NC","scan_time":"2026-10-08T10:58:42Z","stale":false,"bins":25,"density_birds_km3":0.15,"heading_deg":78.8578610539325,"speed_ms":7.523250000000001,"peak_altitude_m":0.0,"u_ms":7.228916666666667,"v_ms":1.4732083333333332}},{"type":"Feature","geometry":{"type":"Point","coordinates":[-82.4017,27.7055]},"properties":{"site":"KTBW","name":"Tampa FL","scan_time":"2026-10-08T11:00:30Z","stale":false,"bins":25,"density_birds_km3":3.676875,"heading_deg":279.7330215862292,"speed_ms":2.302617712051674,"peak_altitude_m":0.0,"u_ms":-2.059355770865205,"v_ms":0.35058473567907533}}]}