{"type":"FeatureCollection","frame":"2026-09-25T10","site_count":20,"fresh_count":19,"failures":{"KDIX":"RuntimeError(\"vol2bird failed rc=139 on KDIX20260925_095536_V06: Warning: no user configuration file 'options.conf' found. Using default settings ...\\nWarning: load_wsr88d_m31_into_radar: Unexpected end of file.\\nCurrent sweep index: 2\\nLast ray read: 567\\nReading RSL polar volume with nominal time 20260925-095536, source: RAD:KDIX,PLC:PHILADELPHIA,state:PA,radar_name:KDIX\\n\")"},"features":[{"type":"Feature","geometry":{"type":"Point","coordinates":[-77.0073,36.984]},"properties":{"site":"KAKQ","name":"Wakefield VA","scan_time":"2026-09-25T10:01:29Z","stale":false,"bins":25,"density_birds_km3":2.623125,"heading_deg":182.9264715207669,"speed_ms":18.07922325470574,"peak_altitude_m":200.0,"u_ms":-1.0999737908029545,"v_ms":-17.969949964260184}},{"type":"Feature","geometry":{"type":"Point","coordinates":[-71.1369,41.9558]},"properties":{"site":"KBOX","name":"Boston MA","scan_time":"2026-09-25T10:00:47Z","stale":false,"bins":25,"density_birds_km3":0.146875,"heading_deg":203.7522686651476,"speed_ms":11.871021276595744,"peak_altitude_m":0.0,"u_ms":-4.902,"v_ms":-10.633531914893616}},{"type":"Feature","geometry":{"type":"Point","coordinates":[-78.7369,42.9489]},"properties":{"site":"KBUF","name":"Buffalo NY","scan_time":"2026-09-25T10:02:08Z","stale":false,"bins":25,"density_birds_km3":2.136666666666667,"heading_deg":213.9370513801633,"speed_ms":8.91754446177847,"peak_altitude_m":200.0,"u_ms":-4.888546021840874,"v_ms":-7.326171606864274}},{"type":"Feature","geometry":{"type":"Point","coordinates":[-81.8597,41.4131]},"properties":{"site":"KCLE","name":"Cleveland OH","scan_time":"2026-09-25T09:58:13Z","stale":false,"bins":25,"density_birds_km3":1.5566666666666669,"heading_deg":279.14781805413287,"speed_ms":6.696446635233605,"peak_altitude_m":200.0,"u_ms":-6.3014830690098576,"v_ms":0.9911873124732102}},{"type":"Feature","geometry":{"type":"Point","coordinates":[-81.0423,32.6555]},"properties":{"site":"KCLX","name":"Charleston SC","scan_time":"2026-09-25T09:58:07Z","stale":false,"bins":25,"density_birds_km3":48.211875,"heading_deg":198.02836680305822,"speed_ms":13.879408988967967,"peak_altitude_m":0.0,"u_ms":-4.432992390360259,"v_ms":-13.042685800956715}},{"type":"Feature","geometry":{"type":"Point","coordinates":[-84.5658,33.3636]},"properties":{"site":"KFFC","name":"Atlanta GA","scan_time":"2026-09-25T09:59:05Z","stale":false,"bins":25,"density_birds_km3":76.49933333333334,"heading_deg":232.28141231294973,"speed_ms":13.58178477506224,"peak_altitude_m":600.0,"u_ms":-9.412393229075352,"v_ms":-8.582534801360497}},{"type":"Feature","geometry":{"type":"Point","coordinates":[-85.5449,42.8939]},"properties":{"site":"KGRR","name":"Grand Rapids MI","scan_time":"2026-09-25T09:58:22Z","stale":false,"bins":25,"density_birds_km3":2.3886666666666665,"heading_deg":278.6195939280401,"speed_ms":4.514509913432002,"peak_altitude_m":200.0,"u_ms":-4.345171739737503,"v_ms":0.7056967327562133}},{"type":"Feature","geometry":{"type":"Point","coordinates":[-83.8217,39.4203]},"properties":{"site":"KILN","name":"Wilmington OH","scan_time":"2026-09-25T09:59:21Z","stale":false,"bins":25,"density_birds_km3":7.22,"heading_deg":211.91891412780842,"speed_ms":10.32294685094147,"peak_altitude_m":200.0,"u_ms":-5.300152119469437,"v_ms":-8.553715796308321}},{"type":"Feature","geometry":{"type":"Point","coordinates":[-81.7019,30.4846]},"properties":{"site":"KJAX","name":"Jacksonville FL","scan_time":"2026-09-25T09:58:58Z","stale":false,"bins":25,"density_birds_km3":55.585,"heading_deg":184.98965368643655,"speed_ms":14.130803724026267,"peak_altitude_m":200.0,"u_ms":-1.3676899118467212,"v_ms":-13.967630768192858}},{"type":"Feature","geometry":{"type":"Point","coordinates":[-88.0847,41.6045]},"properties":{"site":"KLOT","name":"Chicago IL","scan_time":"2026-09-25T10:01:48Z","stale":false,"bins":25,"density_birds_km3":2.6413333333333333,"heading_deg":226.0595126733452,"speed_ms":3.865040128410915,"peak_altitude_m":400.0,"u_ms":-1.9528303905831992,"v_ms":-2.0090048154093094}},{"type":"Feature","geometry":{"type":"Point","coordinates":[-78.4292,33.9892]},"properties":{"site":"KLTX","name":"Wilmington NC","scan_time":"2026-09-25T10:02:01Z","stale":false,"bins":25,"density_birds_km3":29.249375,"heading_deg":216.3262826233448,"speed_ms":8.403904012992008,"peak_altitude_m":0.0,"u_ms":-4.077503098423009,"v_ms":-7.02203833497158}},{"type":"Feature","geometry":{"type":"Point","coordinates":[-77.4778,38.9753]},"properties":{"site":"KLWX","name":"Sterling VA","scan_time":"2026-09-25T09:59:02Z","stale":false,"bins":25,"density_birds_km3":2.693125,"heading_deg":202.33026900740856,"speed_ms":18.201281213535587,"peak_altitude_m":400.0,"u_ms":-7.376105017502917,"v_ms":-16.321600933488916}},{"type":"Feature","geometry":{"type":"Point","coordinates":[-76.8762,34.7759]},"properties":{"site":"KMHX","name":"Morehead City NC","scan_time":"2026-09-25T10:01:28Z","stale":false,"bins":25,"density_birds_km3":3.02,"heading_deg":174.07360598609776,"speed_ms":5.971548013245034,"peak_altitude_m":0.0,"u_ms":0.6107636589403973,"v_ms":-5.9238389900662245}},{"type":"Feature","geometry":{"type":"Point","coordinates":[-80.6542,28.1133]},"properties":{"site":"KMLB","name":"Melbourne FL","scan_time":"2026-09-25T09:59:10Z","stale":false,"bins":25,"density_birds_km3":1.3331250000000001,"heading_deg":166.48332506732575,"speed_ms":13.115333333333334,"peak_altitude_m":0.0,"u_ms":2.8963661971830987,"v_ms":-12.73301408450704}},{"type":"Feature","geometry":{"type":"Point","coordinates":[-86.5625,36.2472]},"properties":{"site":"KOHX","name":"Nashville TN","scan_time":"2026-09-25T10:00:38Z","stale":false,"bins":25,"density_birds_km3":103.248,"heading_deg":220.51876879459675,"speed_ms":10.6433513974383,"peak_altitude_m":200.0,"u_ms":-6.667577945859358,"v_ms":-7.515988541458089}},{"type":"Feature","geometry":{"type":"Point","coordinates":[-72.8639,40.8655]},"properties":{"site":"KOKX","name":"Upton NY","scan_time":"2026-09-25T09:59:20Z","stale":false,"bins":25,"density_birds_km3":0.11666666666666667,"heading_deg":216.46963554697854,"speed_ms":11.987532467532468,"peak_altitude_m":200.0,"u_ms":-7.414025974025974,"v_ms":-9.201428571428572}},{"type":"Feature","geometry":{"type":"Point","coordinates":[-80.2183,40.5317]},"properties":{"site":"KPBZ","name":"Pittsburgh PA","scan_time":"2026-09-25T09:59:40Z","stale":false,"bins":25,"density_birds_km3":8.26,"heading_deg":228.207541460257,"speed_ms":12.243256035303277,"peak_altitude_m":400.0,"u_ms":-9.103448991952927,"v_ms":-8.086202301635371}},{"type":"Feature","geometry":{"type":"Point","coordinates":[-78.4899,35.6655]},"properties":{"site":"KRAX","name":"Raleigh NC","scan_time":"2026-09-25T10:05:01Z","stale":false,"bins":25,"density_birds_km3":12.14875,"heading_deg":193.61572427806374,"speed_ms":17.9371726267044,"peak_altitude_m":200.0,"u_ms":-4.699803447388732,"v_ms":-17.206863905325445}},{"type":"Feature","geometry":{"type":"Point","coordinates":[-82.4017,27.7055]},"properties":{"site":"KTBW","name":"Tampa FL","scan_time":"2026-09-25T09:57:54Z","stale":false,"bins":25,"density_birds_km3":0.8612500000000001,"heading_deg":204.07262815138017,"speed_ms":7.789039301310043,"peak_altitude_m":0.0,"u_ms":-3.077838427947598,"v_ms":-7.039010189228529}}]}