{"type":"FeatureCollection","frame":"2026-08-26T04","site_count":20,"fresh_count":20,"failures":{},"features":[{"type":"Feature","geometry":{"type":"Point","coordinates":[-77.0073,36.984]},"properties":{"site":"KAKQ","name":"Wakefield VA","scan_time":"2026-08-26T04:01:01Z","stale":false,"bins":25,"density_birds_km3":9.075000000000001,"heading_deg":244.19536515490907,"speed_ms":3.809424123441482,"peak_altitude_m":200.0,"u_ms":-1.9303685334435488,"v_ms":-0.782510160501481}},{"type":"Feature","geometry":{"type":"Point","coordinates":[-71.1369,41.9558]},"properties":{"site":"KBOX","name":"Boston MA","scan_time":"2026-08-26T03:57:36Z","stale":false,"bins":25,"density_birds_km3":9.113125,"heading_deg":172.40527725886432,"speed_ms":9.1665242145699,"peak_altitude_m":400.0,"u_ms":1.1672931815063796,"v_ms":-8.980585128275484}},{"type":"Feature","geometry":{"type":"Point","coordinates":[-78.7369,42.9489]},"properties":{"site":"KBUF","name":"Buffalo NY","scan_time":"2026-08-26T03:58:14Z","stale":false,"bins":25,"density_birds_km3":28.342,"heading_deg":149.89226794416336,"speed_ms":6.17601980570649,"peak_altitude_m":800.0,"u_ms":2.301108366852492,"v_ms":-5.1651257262484425}},{"type":"Feature","geometry":{"type":"Point","coordinates":[-81.8597,41.4131]},"properties":{"site":"KCLE","name":"Cleveland OH","scan_time":"2026-08-26T03:58:17Z","stale":false,"bins":25,"density_birds_km3":6.757333333333333,"heading_deg":262.52967075020723,"speed_ms":4.533165844027641,"peak_altitude_m":400.0,"u_ms":-4.00663672260612,"v_ms":-0.3169466929911155}},{"type":"Feature","geometry":{"type":"Point","coordinates":[-81.0423,32.6555]},"properties":{"site":"KCLX","name":"Charleston SC","scan_time":"2026-08-26T04:00:14Z","stale":false,"bins":25,"density_birds_km3":11.885,"heading_deg":221.6495864156058,"speed_ms":5.574280972206593,"peak_altitude_m":0.0,"u_ms":-3.4296725554180263,"v_ms":-3.838037582986384}},{"type":"Feature","geometry":{"type":"Point","coordinates":[-74.4108,39.947]},"properties":{"site":"KDIX","name":"Philadelphia PA","scan_time":"2026-08-26T03:58:45Z","stale":false,"bins":25,"density_birds_km3":13.287333333333333,"heading_deg":186.48606365989644,"speed_ms":9.695979614380398,"peak_altitude_m":600.0,"u_ms":-1.247680257079735,"v_ms":-9.388569993974695}},{"type":"Feature","geometry":{"type":"Point","coordinates":[-84.5658,33.3636]},"properties":{"site":"KFFC","name":"Atlanta GA","scan_time":"2026-08-26T03:58:22Z","stale":false,"bins":25,"density_birds_km3":38.064,"heading_deg":277.4181816917431,"speed_ms":6.012575927417942,"peak_altitude_m":400.0,"u_ms":-5.723211370721966,"v_ms":0.6645218411742039}},{"type":"Feature","geometry":{"type":"Point","coordinates":[-85.5449,42.8939]},"properties":{"site":"KGRR","name":"Grand Rapids MI","scan_time":"2026-08-26T03:56:59Z","stale":false,"bins":25,"density_birds_km3":3.429333333333333,"heading_deg":1.609711647839285,"speed_ms":3.9997024504084013,"peak_altitude_m":200.0,"u_ms":0.21842862699338783,"v_ms":3.8881446907817967}},{"type":"Feature","geometry":{"type":"Point","coordinates":[-83.8217,39.4203]},"properties":{"site":"KILN","name":"Wilmington OH","scan_time":"2026-08-26T04:00:51Z","stale":false,"bins":25,"density_birds_km3":5.043333333333334,"heading_deg":264.5584384970433,"speed_ms":3.835804574904139,"peak_altitude_m":200.0,"u_ms":-2.501468993785535,"v_ms":-0.18986513288377632}},{"type":"Feature","geometry":{"type":"Point","coordinates":[-81.7019,30.4846]},"properties":{"site":"KJAX","name":"Jacksonville FL","scan_time":"2026-08-26T04:01:35Z","stale":false,"bins":25,"density_birds_km3":67.983125,"heading_deg":191.39917137361226,"speed_ms":8.327115906197532,"peak_altitude_m":200.0,"u_ms":-1.7081287477628737,"v_ms":-8.092233159283381}},{"type":"Feature","geometry":{"type":"Point","coordinates":[-88.0847,41.6045]},"properties":{"site":"KLOT","name":"Chicago IL","scan_time":"2026-08-26T04:01:49Z","stale":false,"bins":25,"density_birds_km3":0.7733333333333333,"heading_deg":2.9764069424505304,"speed_ms":7.676582048957389,"peak_altitude_m":200.0,"u_ms":0.27875793291024487,"v_ms":7.00558476881233}},{"type":"Feature","geometry":{"type":"Point","coordinates":[-78.4292,33.9892]},"properties":{"site":"KLTX","name":"Wilmington NC","scan_time":"2026-08-26T03:57:47Z","stale":false,"bins":25,"density_birds_km3":17.795625,"heading_deg":230.44568442076977,"speed_ms":8.35150879780845,"peak_altitude_m":600.0,"u_ms":-6.05840304850209,"v_ms":-5.233001791170582}},{"type":"Feature","geometry":{"type":"Point","coordinates":[-77.4778,38.9753]},"properties":{"site":"KLWX","name":"Sterling VA","scan_time":"2026-08-26T03:57:30Z","stale":false,"bins":25,"density_birds_km3":10.150714285714285,"heading_deg":236.81465015682173,"speed_ms":5.2481244719797235,"peak_altitude_m":600.0,"u_ms":-3.170852576738947,"v_ms":-2.9966157420444945}},{"type":"Feature","geometry":{"type":"Point","coordinates":[-76.8762,34.7759]},"properties":{"site":"KMHX","name":"Morehead City NC","scan_time":"2026-08-26T03:57:42Z","stale":false,"bins":25,"density_birds_km3":9.0675,"heading_deg":222.56358373794694,"speed_ms":4.743609655172413,"peak_altitude_m":200.0,"u_ms":-2.595095172413793,"v_ms":-3.7581179310344828}},{"type":"Feature","geometry":{"type":"Point","coordinates":[-80.6542,28.1133]},"properties":{"site":"KMLB","name":"Melbourne FL","scan_time":"2026-08-26T04:01:43Z","stale":false,"bins":25,"density_birds_km3":13.668750000000001,"heading_deg":174.0630264445594,"speed_ms":4.797053040695016,"peak_altitude_m":0.0,"u_ms":0.39500457247370824,"v_ms":-3.8280032007315956}},{"type":"Feature","geometry":{"type":"Point","coordinates":[-86.5625,36.2472]},"properties":{"site":"KOHX","name":"Nashville TN","scan_time":"2026-08-26T04:01:38Z","stale":false,"bins":25,"density_birds_km3":22.523333333333333,"heading_deg":245.2362212918972,"speed_ms":6.716821370430664,"peak_altitude_m":400.0,"u_ms":-5.296702086724878,"v_ms":-2.150316412609146}},{"type":"Feature","geometry":{"type":"Point","coordinates":[-72.8639,40.8655]},"properties":{"site":"KOKX","name":"Upton NY","scan_time":"2026-08-26T04:00:58Z","stale":false,"bins":25,"density_birds_km3":12.914375,"heading_deg":183.7375323784493,"speed_ms":7.4544090724166,"peak_altitude_m":200.0,"u_ms":-0.6749471114727421,"v_ms":-7.181938059397885}},{"type":"Feature","geometry":{"type":"Point","coordinates":[-80.2183,40.5317]},"properties":{"site":"KPBZ","name":"Pittsburgh PA","scan_time":"2026-08-26T04:02:55Z","stale":false,"bins":25,"density_birds_km3":32.29071428571429,"heading_deg":232.03684839300084,"speed_ms":5.896180469441984,"peak_altitude_m":600.0,"u_ms":-4.67549402125775,"v_ms":-3.4120555801594334}},{"type":"Feature","geometry":{"type":"Point","coordinates":[-78.4899,35.6655]},"properties":{"site":"KRAX","name":"Raleigh NC","scan_time":"2026-08-26T04:03:21Z","stale":false,"bins":25,"density_birds_km3":27.229375,"heading_deg":236.107339664057,"speed_ms":4.679785514168925,"peak_altitude_m":0.0,"u_ms":-3.8627315941762737,"v_ms":-2.5669508106370276}},{"type":"Feature","geometry":{"type":"Point","coordinates":[-82.4017,27.7055]},"properties":{"site":"KTBW","name":"Tampa FL","scan_time":"2026-08-26T03:58:20Z","stale":false,"bins":25,"density_birds_km3":9.04375,"heading_deg":207.78433028746542,"speed_ms":7.762008431819753,"peak_altitude_m":400.0,"u_ms":-3.2967191927569286,"v_ms":-6.8771649733913875}}]}