{"type":"FeatureCollection","frame":"2026-10-03T06","site_count":20,"fresh_count":17,"failures":{"KLWX":"RuntimeError(\"vol2bird failed rc=139 on KLWX20261003_055644_V06: Warning: no user configuration file 'options.conf' found. Using default settings ...\\nWarning: load_wsr88d_m31_into_radar: Unexpected end of file.\\nCurrent sweep index: 2\\nLast ray read: 236\\nReading RSL polar volume with nominal time 20261003-055645, source: RAD:KLWX,PLC:STERLING,state:VA,radar_name:KLWX\\n\")","KILN":"RuntimeError('no scan within 20 min of 2026-10-03T06:00Z')","KOHX":"IndexError('index 0 is out of bounds for axis 0 with size 0')"},"features":[{"type":"Feature","geometry":{"type":"Point","coordinates":[-77.0073,36.984]},"properties":{"site":"KAKQ","name":"Wakefield VA","scan_time":"2026-10-03T06:01:06Z","stale":false,"bins":25,"density_birds_km3":88.21875,"heading_deg":142.48418945013887,"speed_ms":11.31133857263328,"peak_altitude_m":0.0,"u_ms":7.166021769787334,"v_ms":-8.100011409296096}},{"type":"Feature","geometry":{"type":"Point","coordinates":[-71.1369,41.9558]},"properties":{"site":"KBOX","name":"Boston MA","scan_time":"2026-10-03T05:59:30Z","stale":false,"bins":25,"density_birds_km3":20.635625,"heading_deg":188.0380225437875,"speed_ms":15.65646048005819,"peak_altitude_m":400.0,"u_ms":-2.186955085464905,"v_ms":-15.458342829433871}},{"type":"Feature","geometry":{"type":"Point","coordinates":[-78.7369,42.9489]},"properties":{"site":"KBUF","name":"Buffalo NY","scan_time":"2026-10-03T06:02:29Z","stale":false,"bins":25,"density_birds_km3":119.514,"heading_deg":200.1330532437862,"speed_ms":13.37140892838217,"peak_altitude_m":400.0,"u_ms":-4.783639852513792,"v_ms":-12.377052562879662}},{"type":"Feature","geometry":{"type":"Point","coordinates":[-81.8597,41.4131]},"properties":{"site":"KCLE","name":"Cleveland OH","scan_time":"2026-10-03T06:00:34Z","stale":false,"bins":25,"density_birds_km3":57.47866666666666,"heading_deg":203.62484208681883,"speed_ms":13.815996845169746,"peak_altitude_m":200.0,"u_ms":-5.661480102531984,"v_ms":-12.507947968498092}},{"type":"Feature","geometry":{"type":"Point","coordinates":[-81.0423,32.6555]},"properties":{"site":"KCLX","name":"Charleston SC","scan_time":"2026-10-03T06:00:00Z","stale":false,"bins":25,"density_birds_km3":3.991875,"heading_deg":64.12130988165534,"speed_ms":1.486917920209287,"peak_altitude_m":0.0,"u_ms":0.7541595814257684,"v_ms":0.9828515369522564}},{"type":"Feature","geometry":{"type":"Point","coordinates":[-74.4108,39.947]},"properties":{"site":"KDIX","name":"Philadelphia PA","scan_time":"2026-10-03T06:00:49Z","stale":false,"bins":25,"density_birds_km3":26.794999999999998,"heading_deg":210.31417862324258,"speed_ms":11.287651596002716,"peak_altitude_m":600.0,"u_ms":-5.528376346172505,"v_ms":-9.481303483069759}},{"type":"Feature","geometry":{"type":"Point","coordinates":[-84.5658,33.3636]},"properties":{"site":"KFFC","name":"Atlanta GA","scan_time":"2026-10-03T05:58:38Z","stale":false,"bins":25,"density_birds_km3":18.401999999999997,"heading_deg":100.2054592370873,"speed_ms":5.787946580654514,"peak_altitude_m":400.0,"u_ms":2.494828036096111,"v_ms":-1.3449755372739465}},{"type":"Feature","geometry":{"type":"Point","coordinates":[-85.5449,42.8939]},"properties":{"site":"KGRR","name":"Grand Rapids MI","scan_time":"2026-10-03T05:58:20Z","stale":false,"bins":25,"density_birds_km3":82.09066666666666,"heading_deg":216.61572999220243,"speed_ms":13.037935646820918,"peak_altitude_m":200.0,"u_ms":-7.803172423314628,"v_ms":-10.339138979802328}},{"type":"Feature","geometry":{"type":"Point","coordinates":[-81.7019,30.4846]},"properties":{"site":"KJAX","name":"Jacksonville FL","scan_time":"2026-10-03T05:58:27Z","stale":false,"bins":25,"density_birds_km3":4.406874999999999,"heading_deg":228.31612128842232,"speed_ms":4.40252695800227,"peak_altitude_m":0.0,"u_ms":-3.0985825766174804,"v_ms":-2.861723893303065}},{"type":"Feature","geometry":{"type":"Point","coordinates":[-88.0847,41.6045]},"properties":{"site":"KLOT","name":"Chicago IL","scan_time":"2026-10-03T05:58:34Z","stale":false,"bins":25,"density_birds_km3":75.05466666666666,"heading_deg":208.17861199440608,"speed_ms":11.247616048746693,"peak_altitude_m":200.0,"u_ms":-4.9942789255831315,"v_ms":-9.650710504343502}},{"type":"Feature","geometry":{"type":"Point","coordinates":[-78.4292,33.9892]},"properties":{"site":"KLTX","name":"Wilmington NC","scan_time":"2026-10-03T05:59:42Z","stale":false,"bins":25,"density_birds_km3":2.72375,"heading_deg":75.2101559426961,"speed_ms":8.215046554934823,"peak_altitude_m":0.0,"u_ms":7.624329608938547,"v_ms":2.040286312849162}},{"type":"Feature","geometry":{"type":"Point","coordinates":[-76.8762,34.7759]},"properties":{"site":"KMHX","name":"Morehead City NC","scan_time":"2026-10-03T05:59:26Z","stale":false,"bins":25,"density_birds_km3":3.28375,"heading_deg":87.95760496299575,"speed_ms":9.386068978658537,"peak_altitude_m":0.0,"u_ms":8.390342987804878,"v_ms":0.5339767530487806}},{"type":"Feature","geometry":{"type":"Point","coordinates":[-80.6542,28.1133]},"properties":{"site":"KMLB","name":"Melbourne FL","scan_time":"2026-10-03T06:01:03Z","stale":false,"bins":25,"density_birds_km3":4.336875,"heading_deg":302.5,"speed_ms":6.34,"peak_altitude_m":200.0,"u_ms":-5.35,"v_ms":3.4}},{"type":"Feature","geometry":{"type":"Point","coordinates":[-72.8639,40.8655]},"properties":{"site":"KOKX","name":"Upton NY","scan_time":"2026-10-03T06:01:12Z","stale":false,"bins":25,"density_birds_km3":24.362000000000002,"heading_deg":216.4841944740148,"speed_ms":11.598772235112142,"peak_altitude_m":0.0,"u_ms":-6.946790962324605,"v_ms":-9.246132471550105}},{"type":"Feature","geometry":{"type":"Point","coordinates":[-80.2183,40.5317]},"properties":{"site":"KPBZ","name":"Pittsburgh PA","scan_time":"2026-10-03T06:00:13Z","stale":false,"bins":25,"density_birds_km3":108.61214285714286,"heading_deg":205.25796946138905,"speed_ms":15.777577355859975,"peak_altitude_m":600.0,"u_ms":-6.74530103842638,"v_ms":-14.057325016276792}},{"type":"Feature","geometry":{"type":"Point","coordinates":[-78.4899,35.6655]},"properties":{"site":"KRAX","name":"Raleigh NC","scan_time":"2026-10-03T05:58:12Z","stale":false,"bins":25,"density_birds_km3":7.079375,"heading_deg":92.78326601659329,"speed_ms":10.005613740727657,"peak_altitude_m":0.0,"u_ms":8.598041328152597,"v_ms":-0.8182329565524549}},{"type":"Feature","geometry":{"type":"Point","coordinates":[-82.4017,27.7055]},"properties":{"site":"KTBW","name":"Tampa FL","scan_time":"2026-10-03T05:59:49Z","stale":false,"bins":25,"density_birds_km3":4.585625,"heading_deg":279.85435933297265,"speed_ms":6.785418484187568,"peak_altitude_m":0.0,"u_ms":-6.383589149400218,"v_ms":1.5766303162486368}}]}