{"type":"FeatureCollection","frame":"2026-10-07T05","site_count":20,"fresh_count":19,"failures":{"KILN":"RuntimeError('no scan within 20 min of 2026-10-07T05:00Z')"},"features":[{"type":"Feature","geometry":{"type":"Point","coordinates":[-77.0073,36.984]},"properties":{"site":"KAKQ","name":"Wakefield VA","scan_time":"2026-10-07T05:00:05Z","stale":false,"bins":25,"density_birds_km3":18.2975,"heading_deg":225.15337919490293,"speed_ms":7.942878761999113,"peak_altitude_m":200.0,"u_ms":-4.6547542103645,"v_ms":-5.433581115703891}},{"type":"Feature","geometry":{"type":"Point","coordinates":[-71.1369,41.9558]},"properties":{"site":"KBOX","name":"Boston MA","scan_time":"2026-10-07T04:58:16Z","stale":false,"bins":25,"density_birds_km3":6.49125,"heading_deg":175.8896415427054,"speed_ms":8.934647602541885,"peak_altitude_m":0.0,"u_ms":0.6688580781821684,"v_ms":-8.755633545156941}},{"type":"Feature","geometry":{"type":"Point","coordinates":[-78.7369,42.9489]},"properties":{"site":"KBUF","name":"Buffalo NY","scan_time":"2026-10-07T05:01:22Z","stale":false,"bins":25,"density_birds_km3":0.45266666666666666,"heading_deg":31.53803534620579,"speed_ms":9.343681885125184,"peak_altitude_m":200.0,"u_ms":4.760117820324005,"v_ms":7.840220913107512}},{"type":"Feature","geometry":{"type":"Point","coordinates":[-81.8597,41.4131]},"properties":{"site":"KCLE","name":"Cleveland OH","scan_time":"2026-10-07T05:03:22Z","stale":false,"bins":25,"density_birds_km3":0.7493333333333333,"heading_deg":21.770228482383345,"speed_ms":11.187827248441675,"peak_altitude_m":200.0,"u_ms":4.1509439002671416,"v_ms":10.181317898486197}},{"type":"Feature","geometry":{"type":"Point","coordinates":[-81.0423,32.6555]},"properties":{"site":"KCLX","name":"Charleston SC","scan_time":"2026-10-07T05:00:22Z","stale":false,"bins":25,"density_birds_km3":103.494375,"heading_deg":212.9758591174396,"speed_ms":14.44801003677736,"peak_altitude_m":0.0,"u_ms":-7.986801516990657,"v_ms":-11.790966719205755}},{"type":"Feature","geometry":{"type":"Point","coordinates":[-74.4108,39.947]},"properties":{"site":"KDIX","name":"Philadelphia PA","scan_time":"2026-10-07T05:02:51Z","stale":false,"bins":25,"density_birds_km3":36.6275,"heading_deg":208.14910823642032,"speed_ms":8.086630944864423,"peak_altitude_m":200.0,"u_ms":-3.7966773604546002,"v_ms":-7.10876964556919}},{"type":"Feature","geometry":{"type":"Point","coordinates":[-84.5658,33.3636]},"properties":{"site":"KFFC","name":"Atlanta GA","scan_time":"2026-10-07T04:56:55Z","stale":false,"bins":25,"density_birds_km3":105.132,"heading_deg":225.55566832959315,"speed_ms":11.412695722203198,"peak_altitude_m":200.0,"u_ms":-8.12774023766947,"v_ms":-7.598902395718398}},{"type":"Feature","geometry":{"type":"Point","coordinates":[-85.5449,42.8939]},"properties":{"site":"KGRR","name":"Grand Rapids MI","scan_time":"2026-10-07T05:03:25Z","stale":false,"bins":25,"density_birds_km3":0.3453333333333333,"heading_deg":45.559013351907076,"speed_ms":13.569787644787645,"peak_altitude_m":200.0,"u_ms":9.933667953667955,"v_ms":8.871602316602317}},{"type":"Feature","geometry":{"type":"Point","coordinates":[-81.7019,30.4846]},"properties":{"site":"KJAX","name":"Jacksonville FL","scan_time":"2026-10-07T05:01:08Z","stale":false,"bins":25,"density_birds_km3":270.895625,"heading_deg":188.3440647520805,"speed_ms":11.92584096548069,"peak_altitude_m":200.0,"u_ms":-2.037524486305495,"v_ms":-11.483798545034086}},{"type":"Feature","geometry":{"type":"Point","coordinates":[-88.0847,41.6045]},"properties":{"site":"KLOT","name":"Chicago IL","scan_time":"2026-10-07T04:57:47Z","stale":false,"bins":25,"density_birds_km3":0.47333333333333333,"heading_deg":57.02664829795649,"speed_ms":16.49261299435028,"peak_altitude_m":200.0,"u_ms":13.662853107344633,"v_ms":8.608813559322034}},{"type":"Feature","geometry":{"type":"Point","coordinates":[-78.4292,33.9892]},"properties":{"site":"KLTX","name":"Wilmington NC","scan_time":"2026-10-07T05:00:17Z","stale":false,"bins":25,"density_birds_km3":59.129375,"heading_deg":225.11687374190777,"speed_ms":12.967685095137421,"peak_altitude_m":0.0,"u_ms":-9.183919027484144,"v_ms":-9.11201109936575}},{"type":"Feature","geometry":{"type":"Point","coordinates":[-77.4778,38.9753]},"properties":{"site":"KLWX","name":"Sterling VA","scan_time":"2026-10-07T05:00:50Z","stale":false,"bins":25,"density_birds_km3":32.454375,"heading_deg":263.41895685473924,"speed_ms":5.409810666615304,"peak_altitude_m":200.0,"u_ms":-4.296958338951058,"v_ms":-0.7690566074076927}},{"type":"Feature","geometry":{"type":"Point","coordinates":[-76.8762,34.7759]},"properties":{"site":"KMHX","name":"Morehead City NC","scan_time":"2026-10-07T04:58:34Z","stale":false,"bins":25,"density_birds_km3":14.692499999999999,"heading_deg":205.61375172258482,"speed_ms":12.102118878441049,"peak_altitude_m":0.0,"u_ms":-5.161030081266221,"v_ms":-10.633611028379356}},{"type":"Feature","geometry":{"type":"Point","coordinates":[-80.6542,28.1133]},"properties":{"site":"KMLB","name":"Melbourne FL","scan_time":"2026-10-07T04:58:48Z","stale":false,"bins":25,"density_birds_km3":81.835625,"heading_deg":170.7804854582217,"speed_ms":5.409412103436627,"peak_altitude_m":0.0,"u_ms":0.8365035625441478,"v_ms":-5.32987968735604}},{"type":"Feature","geometry":{"type":"Point","coordinates":[-86.5625,36.2472]},"properties":{"site":"KOHX","name":"Nashville TN","scan_time":"2026-10-07T05:00:32Z","stale":false,"bins":25,"density_birds_km3":30.362666666666666,"heading_deg":338.53289750198695,"speed_ms":5.867859652204462,"peak_altitude_m":200.0,"u_ms":0.08800961707359929,"v_ms":2.85054343052872}},{"type":"Feature","geometry":{"type":"Point","coordinates":[-72.8639,40.8655]},"properties":{"site":"KOKX","name":"Upton NY","scan_time":"2026-10-07T04:58:25Z","stale":false,"bins":25,"density_birds_km3":11.43875,"heading_deg":230.67197488886498,"speed_ms":8.201682329800022,"peak_altitude_m":0.0,"u_ms":-6.328959676538083,"v_ms":-4.988749317014534}},{"type":"Feature","geometry":{"type":"Point","coordinates":[-80.2183,40.5317]},"properties":{"site":"KPBZ","name":"Pittsburgh PA","scan_time":"2026-10-07T05:01:45Z","stale":false,"bins":25,"density_birds_km3":4.216428571428572,"heading_deg":314.23518162174184,"speed_ms":5.7996458827516095,"peak_altitude_m":400.0,"u_ms":-4.169456116570654,"v_ms":3.327202643171806}},{"type":"Feature","geometry":{"type":"Point","coordinates":[-78.4899,35.6655]},"properties":{"site":"KRAX","name":"Raleigh NC","scan_time":"2026-10-07T05:00:42Z","stale":false,"bins":25,"density_birds_km3":42.1575,"heading_deg":224.3988083846949,"speed_ms":9.013096254781603,"peak_altitude_m":0.0,"u_ms":-6.132408741808262,"v_ms":-6.089219968567447}},{"type":"Feature","geometry":{"type":"Point","coordinates":[-82.4017,27.7055]},"properties":{"site":"KTBW","name":"Tampa FL","scan_time":"2026-10-07T04:59:47Z","stale":false,"bins":25,"density_birds_km3":13.239374999999999,"heading_deg":256.5917140932328,"speed_ms":4.865186706321107,"peak_altitude_m":0.0,"u_ms":-4.08298777321437,"v_ms":-1.3585606382476514}}]}