{"type":"FeatureCollection","frame":"2026-09-10T07","site_count":20,"fresh_count":20,"failures":{},"features":[{"type":"Feature","geometry":{"type":"Point","coordinates":[-77.0073,36.984]},"properties":{"site":"KAKQ","name":"Wakefield VA","scan_time":"2026-09-10T06:57:59Z","stale":false,"bins":25,"density_birds_km3":1.013125,"heading_deg":50.73980481455584,"speed_ms":14.203241895261845,"peak_altitude_m":0.0,"u_ms":10.874738154613468,"v_ms":8.327980049875311}},{"type":"Feature","geometry":{"type":"Point","coordinates":[-71.1369,41.9558]},"properties":{"site":"KBOX","name":"Boston MA","scan_time":"2026-09-10T07:01:10Z","stale":false,"bins":25,"density_birds_km3":0.288125,"heading_deg":40.95173966785161,"speed_ms":12.885828220858896,"peak_altitude_m":0.0,"u_ms":8.589110429447853,"v_ms":9.324110429447853}},{"type":"Feature","geometry":{"type":"Point","coordinates":[-78.7369,42.9489]},"properties":{"site":"KBUF","name":"Buffalo NY","scan_time":"2026-09-10T06:59:20Z","stale":false,"bins":25,"density_birds_km3":5.962000000000001,"heading_deg":112.14081326900848,"speed_ms":13.264109359275409,"peak_altitude_m":600.0,"u_ms":11.815331544224533,"v_ms":-4.943290841999329}},{"type":"Feature","geometry":{"type":"Point","coordinates":[-81.8597,41.4131]},"properties":{"site":"KCLE","name":"Cleveland OH","scan_time":"2026-09-10T07:01:16Z","stale":false,"bins":25,"density_birds_km3":26.233999999999998,"heading_deg":158.2112196011812,"speed_ms":13.923915529465578,"peak_altitude_m":800.0,"u_ms":4.922515819165969,"v_ms":-12.75930090721964}},{"type":"Feature","geometry":{"type":"Point","coordinates":[-81.0423,32.6555]},"properties":{"site":"KCLX","name":"Charleston SC","scan_time":"2026-09-10T06:57:51Z","stale":false,"bins":25,"density_birds_km3":2.14,"heading_deg":269.0877280918022,"speed_ms":7.045166471962616,"peak_altitude_m":0.0,"u_ms":-6.798641939252336,"v_ms":-0.07549357476635507}},{"type":"Feature","geometry":{"type":"Point","coordinates":[-74.4108,39.947]},"properties":{"site":"KDIX","name":"Philadelphia PA","scan_time":"2026-09-10T07:00:57Z","stale":false,"bins":25,"density_birds_km3":0.35375,"heading_deg":51.40772075899457,"speed_ms":17.47588126159555,"peak_altitude_m":0.0,"u_ms":13.984805194805196,"v_ms":9.79482374768089}},{"type":"Feature","geometry":{"type":"Point","coordinates":[-84.5658,33.3636]},"properties":{"site":"KFFC","name":"Atlanta GA","scan_time":"2026-09-10T07:00:56Z","stale":false,"bins":25,"density_birds_km3":13.916,"heading_deg":255.5442239612516,"speed_ms":4.453037271246526,"peak_altitude_m":200.0,"u_ms":-2.382260707099741,"v_ms":-0.6202649228705566}},{"type":"Feature","geometry":{"type":"Point","coordinates":[-85.5449,42.8939]},"properties":{"site":"KGRR","name":"Grand Rapids MI","scan_time":"2026-09-10T07:00:43Z","stale":false,"bins":25,"density_birds_km3":106.87266666666666,"heading_deg":156.23127455012053,"speed_ms":13.617688772898118,"peak_altitude_m":600.0,"u_ms":5.210844623702908,"v_ms":-12.444187842613287}},{"type":"Feature","geometry":{"type":"Point","coordinates":[-83.8217,39.4203]},"properties":{"site":"KILN","name":"Wilmington OH","scan_time":"2026-09-10T06:58:47Z","stale":false,"bins":25,"density_birds_km3":48.74,"heading_deg":175.27962874674603,"speed_ms":8.38204042600033,"peak_altitude_m":600.0,"u_ms":1.5024872034784522,"v_ms":-7.852992322087072}},{"type":"Feature","geometry":{"type":"Point","coordinates":[-81.7019,30.4846]},"properties":{"site":"KJAX","name":"Jacksonville FL","scan_time":"2026-09-10T06:58:15Z","stale":false,"bins":25,"density_birds_km3":15.61,"heading_deg":194.1815166808944,"speed_ms":5.502545243433697,"peak_altitude_m":0.0,"u_ms":-1.4428695547725818,"v_ms":-5.27099135169763}},{"type":"Feature","geometry":{"type":"Point","coordinates":[-88.0847,41.6045]},"properties":{"site":"KLOT","name":"Chicago IL","scan_time":"2026-09-10T07:01:53Z","stale":false,"bins":25,"density_birds_km3":286.15999999999997,"heading_deg":156.33227949568445,"speed_ms":11.607703473604243,"peak_altitude_m":400.0,"u_ms":4.213734672191125,"v_ms":-10.382987518700975}},{"type":"Feature","geometry":{"type":"Point","coordinates":[-78.4292,33.9892]},"properties":{"site":"KLTX","name":"Wilmington NC","scan_time":"2026-09-10T07:00:59Z","stale":false,"bins":25,"density_birds_km3":1.206875,"heading_deg":29.15758618725261,"speed_ms":5.047379596064215,"peak_altitude_m":0.0,"u_ms":2.2508441222164683,"v_ms":3.8944018643190064}},{"type":"Feature","geometry":{"type":"Point","coordinates":[-77.4778,38.9753]},"properties":{"site":"KLWX","name":"Sterling VA","scan_time":"2026-09-10T07:01:25Z","stale":false,"bins":25,"density_birds_km3":1.6143750000000001,"heading_deg":29.959360425907626,"speed_ms":10.73780269058296,"peak_altitude_m":0.0,"u_ms":5.580273134936811,"v_ms":7.781659192825113}},{"type":"Feature","geometry":{"type":"Point","coordinates":[-76.8762,34.7759]},"properties":{"site":"KMHX","name":"Morehead City NC","scan_time":"2026-09-10T07:03:24Z","stale":false,"bins":25,"density_birds_km3":0.44375,"heading_deg":58.50249881917199,"speed_ms":7.654646892655368,"peak_altitude_m":0.0,"u_ms":6.388742937853108,"v_ms":3.7975000000000003}},{"type":"Feature","geometry":{"type":"Point","coordinates":[-80.6542,28.1133]},"properties":{"site":"KMLB","name":"Melbourne FL","scan_time":"2026-09-10T06:58:18Z","stale":false,"bins":25,"density_birds_km3":3.533125,"heading_deg":235.98397188649506,"speed_ms":2.112516368784286,"peak_altitude_m":0.0,"u_ms":-1.1512369492125287,"v_ms":-0.5930419394797383}},{"type":"Feature","geometry":{"type":"Point","coordinates":[-86.5625,36.2472]},"properties":{"site":"KOHX","name":"Nashville TN","scan_time":"2026-09-10T07:00:57Z","stale":false,"bins":25,"density_birds_km3":9.007333333333333,"heading_deg":58.26253572415864,"speed_ms":10.351637924653984,"peak_altitude_m":400.0,"u_ms":8.236970616534673,"v_ms":5.4346739693582995}},{"type":"Feature","geometry":{"type":"Point","coordinates":[-72.8639,40.8655]},"properties":{"site":"KOKX","name":"Upton NY","scan_time":"2026-09-10T07:01:33Z","stale":false,"bins":25,"density_birds_km3":0.34500000000000003,"heading_deg":54.25059654525999,"speed_ms":20.3526,"peak_altitude_m":0.0,"u_ms":16.601545454545455,"v_ms":10.949854545454546}},{"type":"Feature","geometry":{"type":"Point","coordinates":[-80.2183,40.5317]},"properties":{"site":"KPBZ","name":"Pittsburgh PA","scan_time":"2026-09-10T07:00:45Z","stale":false,"bins":25,"density_birds_km3":6.18,"heading_deg":119.57455407017042,"speed_ms":10.328932038834953,"peak_altitude_m":600.0,"u_ms":8.37331715210356,"v_ms":-5.323984049930652}},{"type":"Feature","geometry":{"type":"Point","coordinates":[-78.4899,35.6655]},"properties":{"site":"KRAX","name":"Raleigh NC","scan_time":"2026-09-10T06:59:34Z","stale":false,"bins":25,"density_birds_km3":2.8831249999999997,"heading_deg":58.61165911641414,"speed_ms":9.447374890254608,"peak_altitude_m":0.0,"u_ms":7.6946268656716414,"v_ms":4.620897717295874}},{"type":"Feature","geometry":{"type":"Point","coordinates":[-82.4017,27.7055]},"properties":{"site":"KTBW","name":"Tampa FL","scan_time":"2026-09-10T06:58:17Z","stale":false,"bins":25,"density_birds_km3":2.45125,"heading_deg":296.5010096819133,"speed_ms":5.447716254146466,"peak_altitude_m":0.0,"u_ms":-4.522564429701455,"v_ms":2.3216662413881095}}]}