{"type":"FeatureCollection","frame":"2026-10-03T03","site_count":20,"fresh_count":19,"failures":{"KILN":"RuntimeError('no scan within 20 min of 2026-10-03T03:00Z')"},"features":[{"type":"Feature","geometry":{"type":"Point","coordinates":[-77.0073,36.984]},"properties":{"site":"KAKQ","name":"Wakefield VA","scan_time":"2026-10-03T02:59:43Z","stale":false,"bins":25,"density_birds_km3":3.205,"heading_deg":83.07787334150126,"speed_ms":11.724669663799842,"peak_altitude_m":0.0,"u_ms":9.084337372947616,"v_ms":1.2923006254886633}},{"type":"Feature","geometry":{"type":"Point","coordinates":[-71.1369,41.9558]},"properties":{"site":"KBOX","name":"Boston MA","scan_time":"2026-10-03T02:58:00Z","stale":false,"bins":25,"density_birds_km3":24.069375,"heading_deg":186.8874327894299,"speed_ms":11.415829632515258,"peak_altitude_m":200.0,"u_ms":-1.2879540319439033,"v_ms":-11.2994291650435}},{"type":"Feature","geometry":{"type":"Point","coordinates":[-78.7369,42.9489]},"properties":{"site":"KBUF","name":"Buffalo NY","scan_time":"2026-10-03T03:02:40Z","stale":false,"bins":25,"density_birds_km3":173.35199999999998,"heading_deg":183.53532119191428,"speed_ms":15.85768224960389,"peak_altitude_m":400.0,"u_ms":-0.9889850323811282,"v_ms":-15.77878559232083}},{"type":"Feature","geometry":{"type":"Point","coordinates":[-81.8597,41.4131]},"properties":{"site":"KCLE","name":"Cleveland OH","scan_time":"2026-10-03T02:59:42Z","stale":false,"bins":25,"density_birds_km3":49.29866666666667,"heading_deg":196.29648985136484,"speed_ms":14.058574268673674,"peak_altitude_m":400.0,"u_ms":-3.9598011928429426,"v_ms":-13.348723847391838}},{"type":"Feature","geometry":{"type":"Point","coordinates":[-81.0423,32.6555]},"properties":{"site":"KCLX","name":"Charleston SC","scan_time":"2026-10-03T03:01:19Z","stale":false,"bins":25,"density_birds_km3":4.482857142857143,"heading_deg":15.320901835298722,"speed_ms":4.058124890676928,"peak_altitude_m":0.0,"u_ms":0.8828458981983558,"v_ms":3.9045268497463703}},{"type":"Feature","geometry":{"type":"Point","coordinates":[-74.4108,39.947]},"properties":{"site":"KDIX","name":"Philadelphia PA","scan_time":"2026-10-03T03:00:52Z","stale":false,"bins":25,"density_birds_km3":42.378750000000004,"heading_deg":190.41254142214535,"speed_ms":10.284124240457789,"peak_altitude_m":600.0,"u_ms":-2.13302061825261,"v_ms":-9.852668279157571}},{"type":"Feature","geometry":{"type":"Point","coordinates":[-84.5658,33.3636]},"properties":{"site":"KFFC","name":"Atlanta GA","scan_time":"2026-10-03T02:59:02Z","stale":false,"bins":25,"density_birds_km3":14.860000000000001,"heading_deg":323.7626021824442,"speed_ms":5.498906869816084,"peak_altitude_m":400.0,"u_ms":-1.6471641723764876,"v_ms":1.9097741615578794}},{"type":"Feature","geometry":{"type":"Point","coordinates":[-85.5449,42.8939]},"properties":{"site":"KGRR","name":"Grand Rapids MI","scan_time":"2026-10-03T02:56:25Z","stale":false,"bins":25,"density_birds_km3":155.85333333333332,"heading_deg":195.7712054827428,"speed_ms":13.975883993498162,"peak_altitude_m":400.0,"u_ms":-3.76999328428437,"v_ms":-13.241075498331767}},{"type":"Feature","geometry":{"type":"Point","coordinates":[-81.7019,30.4846]},"properties":{"site":"KJAX","name":"Jacksonville FL","scan_time":"2026-10-03T02:59:09Z","stale":false,"bins":25,"density_birds_km3":12.25,"heading_deg":214.47610283904083,"speed_ms":4.121809340545039,"peak_altitude_m":0.0,"u_ms":-2.06944976076555,"v_ms":-3.3953853754940715}},{"type":"Feature","geometry":{"type":"Point","coordinates":[-88.0847,41.6045]},"properties":{"site":"KLOT","name":"Chicago IL","scan_time":"2026-10-03T03:00:22Z","stale":false,"bins":25,"density_birds_km3":121.89200000000001,"heading_deg":181.63540512172798,"speed_ms":10.886086754394599,"peak_altitude_m":1000.0,"u_ms":0.20674318248941684,"v_ms":-10.610812358481278}},{"type":"Feature","geometry":{"type":"Point","coordinates":[-78.4292,33.9892]},"properties":{"site":"KLTX","name":"Wilmington NC","scan_time":"2026-10-03T02:57:48Z","stale":false,"bins":25,"density_birds_km3":4.27125,"heading_deg":47.62078875578948,"speed_ms":9.224128481581312,"peak_altitude_m":0.0,"u_ms":6.344773884396526,"v_ms":5.909669062593591}},{"type":"Feature","geometry":{"type":"Point","coordinates":[-77.4778,38.9753]},"properties":{"site":"KLWX","name":"Sterling VA","scan_time":"2026-10-03T03:02:09Z","stale":false,"bins":25,"density_birds_km3":102.669375,"heading_deg":199.45662808620924,"speed_ms":11.34097814440521,"peak_altitude_m":400.0,"u_ms":-3.8652252526482402,"v_ms":-10.495201875076098}},{"type":"Feature","geometry":{"type":"Point","coordinates":[-76.8762,34.7759]},"properties":{"site":"KMHX","name":"Morehead City NC","scan_time":"2026-10-03T03:01:41Z","stale":false,"bins":25,"density_birds_km3":3.3075,"heading_deg":69.72504037773543,"speed_ms":9.494888468809075,"peak_altitude_m":0.0,"u_ms":7.923561436672967,"v_ms":4.006185255198488}},{"type":"Feature","geometry":{"type":"Point","coordinates":[-80.6542,28.1133]},"properties":{"site":"KMLB","name":"Melbourne FL","scan_time":"2026-10-03T03:02:31Z","stale":false,"bins":25,"density_birds_km3":1.938125,"heading_deg":280.6744789682265,"speed_ms":5.382979683972912,"peak_altitude_m":0.0,"u_ms":-5.270651402773299,"v_ms":1.020051596259271}},{"type":"Feature","geometry":{"type":"Point","coordinates":[-86.5625,36.2472]},"properties":{"site":"KOHX","name":"Nashville TN","scan_time":"2026-10-03T02:57:28Z","stale":false,"bins":25,"density_birds_km3":23.156,"heading_deg":212.94427958732072,"speed_ms":6.2355815627339215,"peak_altitude_m":400.0,"u_ms":-3.370286174929464,"v_ms":-4.996113318362411}},{"type":"Feature","geometry":{"type":"Point","coordinates":[-72.8639,40.8655]},"properties":{"site":"KOKX","name":"Upton NY","scan_time":"2026-10-03T02:57:03Z","stale":false,"bins":25,"density_birds_km3":37.195,"heading_deg":200.89388970450005,"speed_ms":11.79159684841487,"peak_altitude_m":0.0,"u_ms":-3.9894642644886322,"v_ms":-10.995072082321578}},{"type":"Feature","geometry":{"type":"Point","coordinates":[-80.2183,40.5317]},"properties":{"site":"KPBZ","name":"Pittsburgh PA","scan_time":"2026-10-03T02:58:37Z","stale":false,"bins":25,"density_birds_km3":124.85857142857142,"heading_deg":211.9292173356561,"speed_ms":13.015407832862323,"peak_altitude_m":600.0,"u_ms":-6.754430898959966,"v_ms":-11.099225008867174}},{"type":"Feature","geometry":{"type":"Point","coordinates":[-78.4899,35.6655]},"properties":{"site":"KRAX","name":"Raleigh NC","scan_time":"2026-10-03T02:59:34Z","stale":false,"bins":25,"density_birds_km3":4.973125,"heading_deg":46.22927330279332,"speed_ms":9.086582882996105,"peak_altitude_m":200.0,"u_ms":5.618127434962926,"v_ms":5.3612429307527965}},{"type":"Feature","geometry":{"type":"Point","coordinates":[-82.4017,27.7055]},"properties":{"site":"KTBW","name":"Tampa FL","scan_time":"2026-10-03T03:02:12Z","stale":false,"bins":25,"density_birds_km3":7.328125,"heading_deg":258.86167042877014,"speed_ms":7.344924087342204,"peak_altitude_m":0.0,"u_ms":-6.662488058683044,"v_ms":-0.9542596383486865}}]}