{"type":"FeatureCollection","frame":"2026-09-05T01","site_count":20,"fresh_count":20,"failures":{},"features":[{"type":"Feature","geometry":{"type":"Point","coordinates":[-77.0073,36.984]},"properties":{"site":"KAKQ","name":"Wakefield VA","scan_time":"2026-09-05T00:58:19Z","stale":false,"bins":25,"density_birds_km3":11.163125,"heading_deg":21.88687024518971,"speed_ms":4.980960326919803,"peak_altitude_m":200.0,"u_ms":0.9226318179238323,"v_ms":-0.09189284295362947}},{"type":"Feature","geometry":{"type":"Point","coordinates":[-71.1369,41.9558]},"properties":{"site":"KBOX","name":"Boston MA","scan_time":"2026-09-05T01:00:54Z","stale":false,"bins":25,"density_birds_km3":12.461875000000001,"heading_deg":171.93761387558274,"speed_ms":10.170744520410215,"peak_altitude_m":400.0,"u_ms":1.2025552986125074,"v_ms":-10.046173838729137}},{"type":"Feature","geometry":{"type":"Point","coordinates":[-78.7369,42.9489]},"properties":{"site":"KBUF","name":"Buffalo NY","scan_time":"2026-09-05T00:56:32Z","stale":false,"bins":25,"density_birds_km3":48.748666666666665,"heading_deg":185.92989353803154,"speed_ms":7.591670609794456,"peak_altitude_m":400.0,"u_ms":-1.044784130848023,"v_ms":-7.293805642547488}},{"type":"Feature","geometry":{"type":"Point","coordinates":[-81.8597,41.4131]},"properties":{"site":"KCLE","name":"Cleveland OH","scan_time":"2026-09-05T00:56:41Z","stale":false,"bins":25,"density_birds_km3":21.980666666666664,"heading_deg":149.22999600962908,"speed_ms":7.269575229831003,"peak_altitude_m":200.0,"u_ms":3.687702296792985,"v_ms":-6.085425832094421}},{"type":"Feature","geometry":{"type":"Point","coordinates":[-81.0423,32.6555]},"properties":{"site":"KCLX","name":"Charleston SC","scan_time":"2026-09-05T00:59:24Z","stale":false,"bins":25,"density_birds_km3":3.06,"heading_deg":11.03029998626766,"speed_ms":6.234036854510392,"peak_altitude_m":0.0,"u_ms":1.134791086350975,"v_ms":5.990966359545746}},{"type":"Feature","geometry":{"type":"Point","coordinates":[-74.4108,39.947]},"properties":{"site":"KDIX","name":"Philadelphia PA","scan_time":"2026-09-05T01:00:20Z","stale":false,"bins":25,"density_birds_km3":58.31875,"heading_deg":185.82021569219344,"speed_ms":8.682649207235853,"peak_altitude_m":400.0,"u_ms":-0.8432908305762041,"v_ms":-8.540615090448158}},{"type":"Feature","geometry":{"type":"Point","coordinates":[-84.5658,33.3636]},"properties":{"site":"KFFC","name":"Atlanta GA","scan_time":"2026-09-05T00:58:47Z","stale":false,"bins":25,"density_birds_km3":11.96,"heading_deg":241.5546819639528,"speed_ms":5.30524358974359,"peak_altitude_m":200.0,"u_ms":-4.3704085841694535,"v_ms":-2.5417190635451505}},{"type":"Feature","geometry":{"type":"Point","coordinates":[-85.5449,42.8939]},"properties":{"site":"KGRR","name":"Grand Rapids MI","scan_time":"2026-09-05T00:59:48Z","stale":false,"bins":25,"density_birds_km3":21.525384615384613,"heading_deg":218.0152575737136,"speed_ms":6.907603043525296,"peak_altitude_m":600.0,"u_ms":-3.784367314557715,"v_ms":-4.639780750784321}},{"type":"Feature","geometry":{"type":"Point","coordinates":[-83.8217,39.4203]},"properties":{"site":"KILN","name":"Wilmington OH","scan_time":"2026-09-05T00:58:55Z","stale":false,"bins":25,"density_birds_km3":20.783333333333335,"heading_deg":144.56555245338544,"speed_ms":7.900518684843624,"peak_altitude_m":600.0,"u_ms":4.926754450681636,"v_ms":-6.056513873295911}},{"type":"Feature","geometry":{"type":"Point","coordinates":[-81.7019,30.4846]},"properties":{"site":"KJAX","name":"Jacksonville FL","scan_time":"2026-09-05T00:58:01Z","stale":false,"bins":25,"density_birds_km3":8.479375,"heading_deg":205.8341268591568,"speed_ms":1.6209928502985185,"peak_altitude_m":0.0,"u_ms":-0.4952797228569323,"v_ms":-1.3496439890911773}},{"type":"Feature","geometry":{"type":"Point","coordinates":[-88.0847,41.6045]},"properties":{"site":"KLOT","name":"Chicago IL","scan_time":"2026-09-05T01:00:58Z","stale":false,"bins":25,"density_birds_km3":16.151333333333334,"heading_deg":98.2714247451303,"speed_ms":5.905421616922631,"peak_altitude_m":200.0,"u_ms":5.784488554042307,"v_ms":-0.9895169102123609}},{"type":"Feature","geometry":{"type":"Point","coordinates":[-78.4292,33.9892]},"properties":{"site":"KLTX","name":"Wilmington NC","scan_time":"2026-09-05T01:02:08Z","stale":false,"bins":25,"density_birds_km3":3.831875,"heading_deg":46.024322537155086,"speed_ms":7.351959176552687,"peak_altitude_m":200.0,"u_ms":4.174548150732728,"v_ms":4.599940683879972}},{"type":"Feature","geometry":{"type":"Point","coordinates":[-77.4778,38.9753]},"properties":{"site":"KLWX","name":"Sterling VA","scan_time":"2026-09-05T00:59:45Z","stale":false,"bins":25,"density_birds_km3":27.01375,"heading_deg":164.69170545330482,"speed_ms":9.876936317898071,"peak_altitude_m":400.0,"u_ms":1.9333417963290784,"v_ms":-9.344638731016492}},{"type":"Feature","geometry":{"type":"Point","coordinates":[-76.8762,34.7759]},"properties":{"site":"KMHX","name":"Morehead City NC","scan_time":"2026-09-05T00:59:05Z","stale":false,"bins":25,"density_birds_km3":2.35625,"heading_deg":101.04763477698314,"speed_ms":7.2356459330143545,"peak_altitude_m":0.0,"u_ms":4.855536948431686,"v_ms":0.3528787878787878}},{"type":"Feature","geometry":{"type":"Point","coordinates":[-80.6542,28.1133]},"properties":{"site":"KMLB","name":"Melbourne FL","scan_time":"2026-09-05T01:02:09Z","stale":false,"bins":25,"density_birds_km3":16.75375,"heading_deg":95.52917913387766,"speed_ms":1.6001398940535703,"peak_altitude_m":0.0,"u_ms":1.342541968216071,"v_ms":-0.06580243229127807}},{"type":"Feature","geometry":{"type":"Point","coordinates":[-86.5625,36.2472]},"properties":{"site":"KOHX","name":"Nashville TN","scan_time":"2026-09-05T00:57:37Z","stale":false,"bins":25,"density_birds_km3":14.593333333333334,"heading_deg":288.913408130005,"speed_ms":3.3586633165829145,"peak_altitude_m":200.0,"u_ms":-1.6600872544540883,"v_ms":0.016116491548652426}},{"type":"Feature","geometry":{"type":"Point","coordinates":[-72.8639,40.8655]},"properties":{"site":"KOKX","name":"Upton NY","scan_time":"2026-09-05T00:56:20Z","stale":false,"bins":25,"density_birds_km3":41.176875,"heading_deg":190.7275532581746,"speed_ms":9.125347417913469,"peak_altitude_m":200.0,"u_ms":-1.575417010477807,"v_ms":-8.80000544908222}},{"type":"Feature","geometry":{"type":"Point","coordinates":[-80.2183,40.5317]},"properties":{"site":"KPBZ","name":"Pittsburgh PA","scan_time":"2026-09-05T00:59:19Z","stale":false,"bins":25,"density_birds_km3":36.47,"heading_deg":160.90967663831975,"speed_ms":8.783102011127056,"peak_altitude_m":400.0,"u_ms":3.0521851101893174,"v_ms":-8.153394931881179}},{"type":"Feature","geometry":{"type":"Point","coordinates":[-78.4899,35.6655]},"properties":{"site":"KRAX","name":"Raleigh NC","scan_time":"2026-09-05T01:00:47Z","stale":false,"bins":25,"density_birds_km3":23.800625,"heading_deg":91.95326031872256,"speed_ms":5.205691541990227,"peak_altitude_m":200.0,"u_ms":3.7497889245345246,"v_ms":-0.14533055497256633}},{"type":"Feature","geometry":{"type":"Point","coordinates":[-82.4017,27.7055]},"properties":{"site":"KTBW","name":"Tampa FL","scan_time":"2026-09-05T01:01:14Z","stale":false,"bins":25,"density_birds_km3":21.869999999999997,"heading_deg":112.77658090425211,"speed_ms":5.386994455875629,"peak_altitude_m":0.0,"u_ms":4.872673182441702,"v_ms":-2.0885225194330133}}]}