{"type":"FeatureCollection","frame":"2026-09-01T10","site_count":20,"fresh_count":20,"failures":{},"features":[{"type":"Feature","geometry":{"type":"Point","coordinates":[-77.0073,36.984]},"properties":{"site":"KAKQ","name":"Wakefield VA","scan_time":"2026-09-01T09:58:27Z","stale":false,"bins":25,"density_birds_km3":1.303125,"heading_deg":108.64737178450804,"speed_ms":5.846024038461538,"peak_altitude_m":0.0,"u_ms":4.496846153846154,"v_ms":-1.6833413461538462}},{"type":"Feature","geometry":{"type":"Point","coordinates":[-71.1369,41.9558]},"properties":{"site":"KBOX","name":"Boston MA","scan_time":"2026-09-01T10:01:04Z","stale":false,"bins":25,"density_birds_km3":2.5825,"heading_deg":355.81834387103714,"speed_ms":1.8750543746910528,"peak_altitude_m":0.0,"u_ms":-0.061831438457736025,"v_ms":1.8474666337123087}},{"type":"Feature","geometry":{"type":"Point","coordinates":[-78.7369,42.9489]},"properties":{"site":"KBUF","name":"Buffalo NY","scan_time":"2026-09-01T09:59:10Z","stale":false,"bins":25,"density_birds_km3":1.1513333333333333,"heading_deg":74.17403080365422,"speed_ms":12.915533527696795,"peak_altitude_m":200.0,"u_ms":12.310052478134113,"v_ms":3.1958833819241983}},{"type":"Feature","geometry":{"type":"Point","coordinates":[-81.8597,41.4131]},"properties":{"site":"KCLE","name":"Cleveland OH","scan_time":"2026-09-01T10:01:45Z","stale":false,"bins":25,"density_birds_km3":2.1406666666666667,"heading_deg":96.80443021375895,"speed_ms":15.20633125,"peak_altitude_m":200.0,"u_ms":14.430803125,"v_ms":-2.7343156250000002}},{"type":"Feature","geometry":{"type":"Point","coordinates":[-81.0423,32.6555]},"properties":{"site":"KCLX","name":"Charleston SC","scan_time":"2026-09-01T10:01:46Z","stale":false,"bins":25,"density_birds_km3":10.095625,"heading_deg":197.3278986940538,"speed_ms":7.6386071228789865,"peak_altitude_m":0.0,"u_ms":-2.268624526073715,"v_ms":-7.264010193299771}},{"type":"Feature","geometry":{"type":"Point","coordinates":[-74.4108,39.947]},"properties":{"site":"KDIX","name":"Philadelphia PA","scan_time":"2026-09-01T09:58:32Z","stale":false,"bins":25,"density_birds_km3":0.095625,"heading_deg":78.28741417683636,"speed_ms":8.421644736842106,"peak_altitude_m":0.0,"u_ms":7.762631578947369,"v_ms":1.224671052631579}},{"type":"Feature","geometry":{"type":"Point","coordinates":[-84.5658,33.3636]},"properties":{"site":"KFFC","name":"Atlanta GA","scan_time":"2026-09-01T10:02:54Z","stale":false,"bins":25,"density_birds_km3":6.906666666666666,"heading_deg":208.61909731480245,"speed_ms":5.477784535186794,"peak_altitude_m":200.0,"u_ms":-2.428771116903176,"v_ms":-1.7983270585963893}},{"type":"Feature","geometry":{"type":"Point","coordinates":[-85.5449,42.8939]},"properties":{"site":"KGRR","name":"Grand Rapids MI","scan_time":"2026-09-01T10:00:02Z","stale":false,"bins":25,"density_birds_km3":10.161333333333333,"heading_deg":126.69591290694157,"speed_ms":11.228491370824859,"peak_altitude_m":400.0,"u_ms":8.807142200931821,"v_ms":-6.782942450292014}},{"type":"Feature","geometry":{"type":"Point","coordinates":[-83.8217,39.4203]},"properties":{"site":"KILN","name":"Wilmington OH","scan_time":"2026-09-01T10:01:37Z","stale":false,"bins":25,"density_birds_km3":2.6386666666666665,"heading_deg":100.38790820154927,"speed_ms":12.740949074074072,"peak_altitude_m":600.0,"u_ms":12.05079989711934,"v_ms":-2.3498199588477364}},{"type":"Feature","geometry":{"type":"Point","coordinates":[-81.7019,30.4846]},"properties":{"site":"KJAX","name":"Jacksonville FL","scan_time":"2026-09-01T09:59:00Z","stale":false,"bins":25,"density_birds_km3":21.7,"heading_deg":198.02837646181158,"speed_ms":12.35019038566779,"peak_altitude_m":0.0,"u_ms":-3.8092413375961294,"v_ms":-11.739563927532476}},{"type":"Feature","geometry":{"type":"Point","coordinates":[-88.0847,41.6045]},"properties":{"site":"KLOT","name":"Chicago IL","scan_time":"2026-09-01T10:00:39Z","stale":false,"bins":25,"density_birds_km3":40.82266666666666,"heading_deg":126.0655436009033,"speed_ms":13.119393720253612,"peak_altitude_m":400.0,"u_ms":10.432759455777736,"v_ms":-7.765171793276266}},{"type":"Feature","geometry":{"type":"Point","coordinates":[-78.4292,33.9892]},"properties":{"site":"KLTX","name":"Wilmington NC","scan_time":"2026-09-01T09:57:41Z","stale":false,"bins":25,"density_birds_km3":3.616875,"heading_deg":170.91212182740784,"speed_ms":4.302118952661695,"peak_altitude_m":0.0,"u_ms":0.3763984740766429,"v_ms":-4.085129183284203}},{"type":"Feature","geometry":{"type":"Point","coordinates":[-77.4778,38.9753]},"properties":{"site":"KLWX","name":"Sterling VA","scan_time":"2026-09-01T09:59:26Z","stale":false,"bins":25,"density_birds_km3":1.485625,"heading_deg":94.05726966167383,"speed_ms":6.065235507246378,"peak_altitude_m":0.0,"u_ms":5.198423913043478,"v_ms":-0.9260688405797101}},{"type":"Feature","geometry":{"type":"Point","coordinates":[-76.8762,34.7759]},"properties":{"site":"KMHX","name":"Morehead City NC","scan_time":"2026-09-01T09:59:35Z","stale":false,"bins":25,"density_birds_km3":1.04,"heading_deg":105.83452077433739,"speed_ms":3.902960288808664,"peak_altitude_m":0.0,"u_ms":3.5072081829121537,"v_ms":-0.8043501805054151}},{"type":"Feature","geometry":{"type":"Point","coordinates":[-80.6542,28.1133]},"properties":{"site":"KMLB","name":"Melbourne FL","scan_time":"2026-09-01T09:58:02Z","stale":false,"bins":25,"density_birds_km3":1.153125,"heading_deg":182.2426527121622,"speed_ms":3.2043329718004343,"peak_altitude_m":0.0,"u_ms":-0.1170065075921909,"v_ms":-3.1479284164859003}},{"type":"Feature","geometry":{"type":"Point","coordinates":[-86.5625,36.2472]},"properties":{"site":"KOHX","name":"Nashville TN","scan_time":"2026-09-01T10:01:47Z","stale":false,"bins":25,"density_birds_km3":5.996666666666667,"heading_deg":89.58172229983445,"speed_ms":5.1275364253142035,"peak_altitude_m":200.0,"u_ms":4.983649204760316,"v_ms":0.17050494939383828}},{"type":"Feature","geometry":{"type":"Point","coordinates":[-72.8639,40.8655]},"properties":{"site":"KOKX","name":"Upton NY","scan_time":"2026-09-01T10:01:29Z","stale":false,"bins":25,"density_birds_km3":0.39125,"heading_deg":18.220830801109837,"speed_ms":4.214173441734418,"peak_altitude_m":0.0,"u_ms":1.7491056910569105,"v_ms":3.525447154471544}},{"type":"Feature","geometry":{"type":"Point","coordinates":[-80.2183,40.5317]},"properties":{"site":"KPBZ","name":"Pittsburgh PA","scan_time":"2026-09-01T10:00:15Z","stale":false,"bins":25,"density_birds_km3":1.7785714285714285,"heading_deg":102.0330615228209,"speed_ms":11.827430639324488,"peak_altitude_m":400.0,"u_ms":10.471246481704863,"v_ms":-2.586694813027744}},{"type":"Feature","geometry":{"type":"Point","coordinates":[-78.4899,35.6655]},"properties":{"site":"KRAX","name":"Raleigh NC","scan_time":"2026-09-01T09:56:56Z","stale":false,"bins":25,"density_birds_km3":4.331875,"heading_deg":115.50624596959169,"speed_ms":6.456361626878869,"peak_altitude_m":200.0,"u_ms":4.647866195107575,"v_ms":-2.1242145593869735}},{"type":"Feature","geometry":{"type":"Point","coordinates":[-82.4017,27.7055]},"properties":{"site":"KTBW","name":"Tampa FL","scan_time":"2026-09-01T09:58:18Z","stale":false,"bins":25,"density_birds_km3":7.78,"heading_deg":209.5979274785257,"speed_ms":4.854035989717223,"peak_altitude_m":0.0,"u_ms":-2.37091661311054,"v_ms":-4.195042577120822}}]}