{"type":"FeatureCollection","frame":"2026-10-06T12","site_count":20,"fresh_count":19,"failures":{"KILN":"RuntimeError('no scan within 20 min of 2026-10-06T12:00Z')"},"features":[{"type":"Feature","geometry":{"type":"Point","coordinates":[-77.0073,36.984]},"properties":{"site":"KAKQ","name":"Wakefield VA","scan_time":"2026-10-06T12:00:06Z","stale":false,"bins":25,"density_birds_km3":6.26,"heading_deg":207.74818857729088,"speed_ms":14.281975838658148,"peak_altitude_m":200.0,"u_ms":-6.663373602236422,"v_ms":-12.554576677316295}},{"type":"Feature","geometry":{"type":"Point","coordinates":[-71.1369,41.9558]},"properties":{"site":"KBOX","name":"Boston MA","scan_time":"2026-10-06T11:55:58Z","stale":false,"bins":25,"density_birds_km3":1.813125,"heading_deg":146.1112374062889,"speed_ms":5.598376421923474,"peak_altitude_m":0.0,"u_ms":3.294850051706308,"v_ms":-4.48398483281627}},{"type":"Feature","geometry":{"type":"Point","coordinates":[-78.7369,42.9489]},"properties":{"site":"KBUF","name":"Buffalo NY","scan_time":"2026-10-06T11:58:22Z","stale":false,"bins":25,"density_birds_km3":1.244,"heading_deg":194.96133727976607,"speed_ms":3.808670953912111,"peak_altitude_m":200.0,"u_ms":-1.0615380493033226,"v_ms":-3.644147909967846}},{"type":"Feature","geometry":{"type":"Point","coordinates":[-81.8597,41.4131]},"properties":{"site":"KCLE","name":"Cleveland OH","scan_time":"2026-10-06T12:03:06Z","stale":false,"bins":25,"density_birds_km3":2.6693333333333333,"heading_deg":298.8714932023353,"speed_ms":2.462366316841579,"peak_altitude_m":200.0,"u_ms":-1.7743628185907043,"v_ms":0.3574587706146926}},{"type":"Feature","geometry":{"type":"Point","coordinates":[-81.0423,32.6555]},"properties":{"site":"KCLX","name":"Charleston SC","scan_time":"2026-10-06T12:02:03Z","stale":false,"bins":25,"density_birds_km3":8.42,"heading_deg":217.86676490496887,"speed_ms":11.987524309306991,"peak_altitude_m":0.0,"u_ms":-7.384248340793332,"v_ms":-8.952696403766012}},{"type":"Feature","geometry":{"type":"Point","coordinates":[-74.4108,39.947]},"properties":{"site":"KDIX","name":"Philadelphia PA","scan_time":"2026-10-06T12:00:14Z","stale":false,"bins":25,"density_birds_km3":1.199375,"heading_deg":167.32096787637838,"speed_ms":4.686935904116727,"peak_altitude_m":0.0,"u_ms":0.9471599791558102,"v_ms":-4.585523710265763}},{"type":"Feature","geometry":{"type":"Point","coordinates":[-84.5658,33.3636]},"properties":{"site":"KFFC","name":"Atlanta GA","scan_time":"2026-10-06T12:03:18Z","stale":false,"bins":25,"density_birds_km3":12.124666666666666,"heading_deg":227.9993833381593,"speed_ms":10.307721999230218,"peak_altitude_m":200.0,"u_ms":-7.859714081486777,"v_ms":-5.723221531863419}},{"type":"Feature","geometry":{"type":"Point","coordinates":[-85.5449,42.8939]},"properties":{"site":"KGRR","name":"Grand Rapids MI","scan_time":"2026-10-06T11:59:52Z","stale":false,"bins":25,"density_birds_km3":5.8340000000000005,"heading_deg":307.6517120656995,"speed_ms":3.034678322477431,"peak_altitude_m":200.0,"u_ms":-2.425392526568392,"v_ms":1.8110341675237118}},{"type":"Feature","geometry":{"type":"Point","coordinates":[-81.7019,30.4846]},"properties":{"site":"KJAX","name":"Jacksonville FL","scan_time":"2026-10-06T11:59:12Z","stale":false,"bins":25,"density_birds_km3":3.683125,"heading_deg":209.40315096455788,"speed_ms":14.44567816091954,"peak_altitude_m":0.0,"u_ms":-7.122318555008211,"v_ms":-12.520275862068965}},{"type":"Feature","geometry":{"type":"Point","coordinates":[-88.0847,41.6045]},"properties":{"site":"KLOT","name":"Chicago IL","scan_time":"2026-10-06T11:57:03Z","stale":false,"bins":25,"density_birds_km3":3.9473333333333334,"heading_deg":349.5469760987639,"speed_ms":6.046681303833813,"peak_altitude_m":200.0,"u_ms":-1.0713376118898834,"v_ms":5.918545853740923}},{"type":"Feature","geometry":{"type":"Point","coordinates":[-78.4292,33.9892]},"properties":{"site":"KLTX","name":"Wilmington NC","scan_time":"2026-10-06T12:00:53Z","stale":false,"bins":25,"density_birds_km3":12.490625,"heading_deg":236.22640474400674,"speed_ms":14.908271611125032,"peak_altitude_m":0.0,"u_ms":-12.40227211225257,"v_ms":-8.272128789776998}},{"type":"Feature","geometry":{"type":"Point","coordinates":[-77.4778,38.9753]},"properties":{"site":"KLWX","name":"Sterling VA","scan_time":"2026-10-06T12:01:03Z","stale":false,"bins":25,"density_birds_km3":2.414375,"heading_deg":210.27743996575217,"speed_ms":4.6124540512555,"peak_altitude_m":0.0,"u_ms":-2.0014755371472943,"v_ms":-4.082956251617913}},{"type":"Feature","geometry":{"type":"Point","coordinates":[-76.8762,34.7759]},"properties":{"site":"KMHX","name":"Morehead City NC","scan_time":"2026-10-06T11:59:58Z","stale":false,"bins":25,"density_birds_km3":6.265,"heading_deg":231.19683284455658,"speed_ms":10.513360933758978,"peak_altitude_m":0.0,"u_ms":-8.12314245810056,"v_ms":-6.609094173982443}},{"type":"Feature","geometry":{"type":"Point","coordinates":[-80.6542,28.1133]},"properties":{"site":"KMLB","name":"Melbourne FL","scan_time":"2026-10-06T11:58:17Z","stale":false,"bins":25,"density_birds_km3":1.30125,"heading_deg":193.91991232381528,"speed_ms":4.537915465898175,"peak_altitude_m":0.0,"u_ms":-0.8820220941402497,"v_ms":-4.2905715658021135}},{"type":"Feature","geometry":{"type":"Point","coordinates":[-86.5625,36.2472]},"properties":{"site":"KOHX","name":"Nashville TN","scan_time":"2026-10-06T11:58:03Z","stale":false,"bins":25,"density_birds_km3":2.76,"heading_deg":238.96213841834162,"speed_ms":5.089915377176015,"peak_altitude_m":200.0,"u_ms":-4.169760638297873,"v_ms":-2.4146735976789167}},{"type":"Feature","geometry":{"type":"Point","coordinates":[-72.8639,40.8655]},"properties":{"site":"KOKX","name":"Upton NY","scan_time":"2026-10-06T12:02:14Z","stale":false,"bins":25,"density_birds_km3":0.85125,"heading_deg":161.15420983746952,"speed_ms":5.022383763837637,"peak_altitude_m":0.0,"u_ms":1.6349963099630995,"v_ms":-4.745077490774907}},{"type":"Feature","geometry":{"type":"Point","coordinates":[-80.2183,40.5317]},"properties":{"site":"KPBZ","name":"Pittsburgh PA","scan_time":"2026-10-06T12:01:17Z","stale":false,"bins":25,"density_birds_km3":0.7078571428571429,"heading_deg":227.75405163380265,"speed_ms":4.969223007063572,"peak_altitude_m":400.0,"u_ms":-3.670232088799193,"v_ms":-3.2357416750756807}},{"type":"Feature","geometry":{"type":"Point","coordinates":[-78.4899,35.6655]},"properties":{"site":"KRAX","name":"Raleigh NC","scan_time":"2026-10-06T11:55:42Z","stale":false,"bins":25,"density_birds_km3":6.671875,"heading_deg":229.07363614103207,"speed_ms":16.518161124121782,"peak_altitude_m":200.0,"u_ms":-12.486290398126464,"v_ms":-10.746125526932085}},{"type":"Feature","geometry":{"type":"Point","coordinates":[-82.4017,27.7055]},"properties":{"site":"KTBW","name":"Tampa FL","scan_time":"2026-10-06T11:57:30Z","stale":false,"bins":25,"density_birds_km3":0.954375,"heading_deg":282.47907851783475,"speed_ms":5.62602883355177,"peak_altitude_m":0.0,"u_ms":-5.3247378768020965,"v_ms":1.0910288335517695}}]}