{"type":"FeatureCollection","frame":"2026-08-18T06","site_count":20,"fresh_count":20,"failures":{},"features":[{"type":"Feature","geometry":{"type":"Point","coordinates":[-77.0073,36.984]},"properties":{"site":"KAKQ","name":"Wakefield VA","scan_time":"2026-08-18T05:59:50Z","stale":false,"bins":25,"density_birds_km3":9.31875,"heading_deg":188.0740407358567,"speed_ms":5.384386612113488,"peak_altitude_m":0.0,"u_ms":-0.3817486082232209,"v_ms":-4.943679656583272}},{"type":"Feature","geometry":{"type":"Point","coordinates":[-71.1369,41.9558]},"properties":{"site":"KBOX","name":"Boston MA","scan_time":"2026-08-18T06:03:56Z","stale":false,"bins":25,"density_birds_km3":0.335,"heading_deg":198.5309899783447,"speed_ms":5.1943714821763605,"peak_altitude_m":0.0,"u_ms":-1.6849155722326454,"v_ms":-4.853264540337712}},{"type":"Feature","geometry":{"type":"Point","coordinates":[-78.7369,42.9489]},"properties":{"site":"KBUF","name":"Buffalo NY","scan_time":"2026-08-18T06:01:26Z","stale":false,"bins":25,"density_birds_km3":11.695333333333334,"heading_deg":193.724955375848,"speed_ms":7.666673887020464,"peak_altitude_m":400.0,"u_ms":-1.8439736647095706,"v_ms":-7.34626004674229}},{"type":"Feature","geometry":{"type":"Point","coordinates":[-81.8597,41.4131]},"properties":{"site":"KCLE","name":"Cleveland OH","scan_time":"2026-08-18T06:01:49Z","stale":false,"bins":25,"density_birds_km3":6.406000000000001,"heading_deg":208.7485638274786,"speed_ms":7.180686704237111,"peak_altitude_m":600.0,"u_ms":-3.2845731580045916,"v_ms":-6.062287622625756}},{"type":"Feature","geometry":{"type":"Point","coordinates":[-81.0423,32.6555]},"properties":{"site":"KCLX","name":"Charleston SC","scan_time":"2026-08-18T06:01:45Z","stale":false,"bins":25,"density_birds_km3":1.6868750000000001,"heading_deg":94.50516258438564,"speed_ms":10.016065999258435,"peak_altitude_m":0.0,"u_ms":9.026692621431218,"v_ms":-0.6959399332591768}},{"type":"Feature","geometry":{"type":"Point","coordinates":[-74.4108,39.947]},"properties":{"site":"KDIX","name":"Philadelphia PA","scan_time":"2026-08-18T06:00:07Z","stale":false,"bins":25,"density_birds_km3":1.6456250000000001,"heading_deg":292.904417129044,"speed_ms":3.7771492842535785,"peak_altitude_m":200.0,"u_ms":-3.4491492842535787,"v_ms":1.2115746421267894}},{"type":"Feature","geometry":{"type":"Point","coordinates":[-84.5658,33.3636]},"properties":{"site":"KFFC","name":"Atlanta GA","scan_time":"2026-08-18T05:59:53Z","stale":false,"bins":25,"density_birds_km3":5.913333333333333,"heading_deg":90.14828302086666,"speed_ms":3.689965050732807,"peak_altitude_m":200.0,"u_ms":2.929976324689966,"v_ms":-0.4348680947012401}},{"type":"Feature","geometry":{"type":"Point","coordinates":[-85.5449,42.8939]},"properties":{"site":"KGRR","name":"Grand Rapids MI","scan_time":"2026-08-18T05:56:24Z","stale":false,"bins":25,"density_birds_km3":8.094666666666667,"heading_deg":151.11058964292639,"speed_ms":6.9411209949757025,"peak_altitude_m":400.0,"u_ms":3.0705263157894738,"v_ms":-5.975677456552178}},{"type":"Feature","geometry":{"type":"Point","coordinates":[-83.8217,39.4203]},"properties":{"site":"KILN","name":"Wilmington OH","scan_time":"2026-08-18T06:02:00Z","stale":false,"bins":25,"density_birds_km3":33.669333333333334,"heading_deg":210.80755365856268,"speed_ms":9.551745975167826,"peak_altitude_m":400.0,"u_ms":-4.978473237093804,"v_ms":-7.963007980356047}},{"type":"Feature","geometry":{"type":"Point","coordinates":[-81.7019,30.4846]},"properties":{"site":"KJAX","name":"Jacksonville FL","scan_time":"2026-08-18T06:01:30Z","stale":false,"bins":25,"density_birds_km3":23.19875,"heading_deg":144.78582449496855,"speed_ms":7.339310014644587,"peak_altitude_m":0.0,"u_ms":4.259222992001803,"v_ms":-5.464941703278134}},{"type":"Feature","geometry":{"type":"Point","coordinates":[-88.0847,41.6045]},"properties":{"site":"KLOT","name":"Chicago IL","scan_time":"2026-08-18T05:56:48Z","stale":false,"bins":25,"density_birds_km3":5.464666666666667,"heading_deg":89.20521590532553,"speed_ms":6.530946788990826,"peak_altitude_m":400.0,"u_ms":4.865518042813456,"v_ms":0.3254238532110094}},{"type":"Feature","geometry":{"type":"Point","coordinates":[-78.4292,33.9892]},"properties":{"site":"KLTX","name":"Wilmington NC","scan_time":"2026-08-18T05:59:31Z","stale":false,"bins":25,"density_birds_km3":2.595625,"heading_deg":50.00719035687584,"speed_ms":6.5593087668593455,"peak_altitude_m":0.0,"u_ms":5.126033236994219,"v_ms":3.4649951830443158}},{"type":"Feature","geometry":{"type":"Point","coordinates":[-77.4778,38.9753]},"properties":{"site":"KLWX","name":"Sterling VA","scan_time":"2026-08-18T05:59:34Z","stale":false,"bins":25,"density_birds_km3":7.554374999999999,"heading_deg":190.0695995841533,"speed_ms":7.693333057509309,"peak_altitude_m":600.0,"u_ms":-1.5737972693421598,"v_ms":-6.869387670666115}},{"type":"Feature","geometry":{"type":"Point","coordinates":[-76.8762,34.7759]},"properties":{"site":"KMHX","name":"Morehead City NC","scan_time":"2026-08-18T06:00:18Z","stale":false,"bins":25,"density_birds_km3":1.435,"heading_deg":68.33268847353021,"speed_ms":9.587394335511984,"peak_altitude_m":0.0,"u_ms":8.83439651416122,"v_ms":3.466226579520697}},{"type":"Feature","geometry":{"type":"Point","coordinates":[-80.6542,28.1133]},"properties":{"site":"KMLB","name":"Melbourne FL","scan_time":"2026-08-18T05:56:58Z","stale":false,"bins":25,"density_birds_km3":2.871875,"heading_deg":137.5959260815973,"speed_ms":9.649984655852695,"peak_altitude_m":0.0,"u_ms":6.397761946514686,"v_ms":-7.187658921525646}},{"type":"Feature","geometry":{"type":"Point","coordinates":[-86.5625,36.2472]},"properties":{"site":"KOHX","name":"Nashville TN","scan_time":"2026-08-18T05:57:29Z","stale":false,"bins":25,"density_birds_km3":51.79,"heading_deg":185.65093903173891,"speed_ms":7.998435991504151,"peak_altitude_m":400.0,"u_ms":-1.0384251786059084,"v_ms":-7.358454914076075}},{"type":"Feature","geometry":{"type":"Point","coordinates":[-72.8639,40.8655]},"properties":{"site":"KOKX","name":"Upton NY","scan_time":"2026-08-18T05:57:36Z","stale":false,"bins":25,"density_birds_km3":1.17875,"heading_deg":207.59767335220104,"speed_ms":4.470398089171974,"peak_altitude_m":0.0,"u_ms":-2.0144214437367305,"v_ms":-3.9574893842887473}},{"type":"Feature","geometry":{"type":"Point","coordinates":[-80.2183,40.5317]},"properties":{"site":"KPBZ","name":"Pittsburgh PA","scan_time":"2026-08-18T06:02:56Z","stale":false,"bins":25,"density_birds_km3":15.058571428571428,"heading_deg":207.29508887831918,"speed_ms":7.235784872671989,"peak_altitude_m":600.0,"u_ms":-3.1292825921702776,"v_ms":-6.093776605853288}},{"type":"Feature","geometry":{"type":"Point","coordinates":[-78.4899,35.6655]},"properties":{"site":"KRAX","name":"Raleigh NC","scan_time":"2026-08-18T06:00:33Z","stale":false,"bins":25,"density_birds_km3":8.73,"heading_deg":149.03644003475108,"speed_ms":4.4588674112256586,"peak_altitude_m":0.0,"u_ms":2.3254166666666665,"v_ms":-3.373203035509736}},{"type":"Feature","geometry":{"type":"Point","coordinates":[-82.4017,27.7055]},"properties":{"site":"KTBW","name":"Tampa FL","scan_time":"2026-08-18T06:03:50Z","stale":false,"bins":25,"density_birds_km3":2.273125,"heading_deg":154.255158211623,"speed_ms":7.07219592735278,"peak_altitude_m":0.0,"u_ms":2.2754512933406716,"v_ms":-6.4841689598238865}}]}