{"type":"FeatureCollection","frame":"2026-09-05T09","site_count":20,"fresh_count":20,"failures":{},"features":[{"type":"Feature","geometry":{"type":"Point","coordinates":[-77.0073,36.984]},"properties":{"site":"KAKQ","name":"Wakefield VA","scan_time":"2026-09-05T08:56:54Z","stale":false,"bins":25,"density_birds_km3":19.91375,"heading_deg":178.48011559498894,"speed_ms":8.602478087399076,"peak_altitude_m":0.0,"u_ms":0.5408837296974647,"v_ms":-7.943279821557601}},{"type":"Feature","geometry":{"type":"Point","coordinates":[-71.1369,41.9558]},"properties":{"site":"KBOX","name":"Boston MA","scan_time":"2026-09-05T08:59:38Z","stale":false,"bins":25,"density_birds_km3":3.545625,"heading_deg":187.9328115153983,"speed_ms":10.243186813186812,"peak_altitude_m":400.0,"u_ms":-1.443757532789791,"v_ms":-10.012685218007798}},{"type":"Feature","geometry":{"type":"Point","coordinates":[-78.7369,42.9489]},"properties":{"site":"KBUF","name":"Buffalo NY","scan_time":"2026-09-05T08:56:36Z","stale":false,"bins":25,"density_birds_km3":8.862666666666666,"heading_deg":218.5255352293655,"speed_ms":9.435200090266285,"peak_altitude_m":400.0,"u_ms":-5.87602151346472,"v_ms":-7.1310658943884455}},{"type":"Feature","geometry":{"type":"Point","coordinates":[-81.8597,41.4131]},"properties":{"site":"KCLE","name":"Cleveland OH","scan_time":"2026-09-05T08:59:07Z","stale":false,"bins":25,"density_birds_km3":12.82,"heading_deg":231.85237574145302,"speed_ms":8.341841913676546,"peak_altitude_m":400.0,"u_ms":-6.49114404576183,"v_ms":-5.015651066042641}},{"type":"Feature","geometry":{"type":"Point","coordinates":[-81.0423,32.6555]},"properties":{"site":"KCLX","name":"Charleston SC","scan_time":"2026-09-05T08:56:28Z","stale":false,"bins":25,"density_birds_km3":3.844375,"heading_deg":129.37561897783328,"speed_ms":4.11380859375,"peak_altitude_m":0.0,"u_ms":3.032454427083333,"v_ms":-2.495615234375}},{"type":"Feature","geometry":{"type":"Point","coordinates":[-74.4108,39.947]},"properties":{"site":"KDIX","name":"Philadelphia PA","scan_time":"2026-09-05T08:58:50Z","stale":false,"bins":25,"density_birds_km3":46.79625,"heading_deg":205.82798488670224,"speed_ms":9.34173684773025,"peak_altitude_m":400.0,"u_ms":-4.1254755924867075,"v_ms":-8.23569361690758}},{"type":"Feature","geometry":{"type":"Point","coordinates":[-84.5658,33.3636]},"properties":{"site":"KFFC","name":"Atlanta GA","scan_time":"2026-09-05T08:59:29Z","stale":false,"bins":25,"density_birds_km3":27.134,"heading_deg":172.5826356573605,"speed_ms":8.24334389818432,"peak_altitude_m":400.0,"u_ms":-0.9355949485270634,"v_ms":-5.436316798113069}},{"type":"Feature","geometry":{"type":"Point","coordinates":[-85.5449,42.8939]},"properties":{"site":"KGRR","name":"Grand Rapids MI","scan_time":"2026-09-05T09:01:28Z","stale":false,"bins":25,"density_birds_km3":2.801333333333333,"heading_deg":262.47944842790423,"speed_ms":7.489821514712975,"peak_altitude_m":400.0,"u_ms":-7.298984563434636,"v_ms":-1.0007091172214182}},{"type":"Feature","geometry":{"type":"Point","coordinates":[-83.8217,39.4203]},"properties":{"site":"KILN","name":"Wilmington OH","scan_time":"2026-09-05T09:02:10Z","stale":false,"bins":25,"density_birds_km3":10.172,"heading_deg":120.61582148037029,"speed_ms":11.502952293457577,"peak_altitude_m":600.0,"u_ms":9.439661395104665,"v_ms":-6.120920007874532}},{"type":"Feature","geometry":{"type":"Point","coordinates":[-81.7019,30.4846]},"properties":{"site":"KJAX","name":"Jacksonville FL","scan_time":"2026-09-05T08:59:23Z","stale":false,"bins":25,"density_birds_km3":8.19,"heading_deg":149.35578408815147,"speed_ms":4.0684118140883765,"peak_altitude_m":0.0,"u_ms":2.1173715942913836,"v_ms":-3.4307028924673735}},{"type":"Feature","geometry":{"type":"Point","coordinates":[-88.0847,41.6045]},"properties":{"site":"KLOT","name":"Chicago IL","scan_time":"2026-09-05T08:59:25Z","stale":false,"bins":25,"density_birds_km3":50.324,"heading_deg":138.8183716733263,"speed_ms":14.561719789099966,"peak_altitude_m":400.0,"u_ms":9.431400392125692,"v_ms":-11.00078531118353}},{"type":"Feature","geometry":{"type":"Point","coordinates":[-78.4292,33.9892]},"properties":{"site":"KLTX","name":"Wilmington NC","scan_time":"2026-09-05T09:01:52Z","stale":false,"bins":25,"density_birds_km3":8.8775,"heading_deg":94.72197425132157,"speed_ms":4.3927263765666815,"peak_altitude_m":0.0,"u_ms":1.7963089705675261,"v_ms":-2.7974855654133224}},{"type":"Feature","geometry":{"type":"Point","coordinates":[-77.4778,38.9753]},"properties":{"site":"KLWX","name":"Sterling VA","scan_time":"2026-09-05T09:00:51Z","stale":false,"bins":25,"density_birds_km3":72.768125,"heading_deg":216.28967804101967,"speed_ms":9.232006932947018,"peak_altitude_m":0.0,"u_ms":-4.85841637348234,"v_ms":-7.18193139486755}},{"type":"Feature","geometry":{"type":"Point","coordinates":[-76.8762,34.7759]},"properties":{"site":"KMHX","name":"Morehead City NC","scan_time":"2026-09-05T09:01:13Z","stale":false,"bins":25,"density_birds_km3":6.44625,"heading_deg":114.22449123262383,"speed_ms":8.780124103160752,"peak_altitude_m":0.0,"u_ms":5.749430870661238,"v_ms":-4.045959860383944}},{"type":"Feature","geometry":{"type":"Point","coordinates":[-80.6542,28.1133]},"properties":{"site":"KMLB","name":"Melbourne FL","scan_time":"2026-09-05T09:00:06Z","stale":false,"bins":25,"density_birds_km3":3.635,"heading_deg":39.10571811738988,"speed_ms":4.300534731774416,"peak_altitude_m":0.0,"u_ms":2.637849037138927,"v_ms":3.3741454607977994}},{"type":"Feature","geometry":{"type":"Point","coordinates":[-86.5625,36.2472]},"properties":{"site":"KOHX","name":"Nashville TN","scan_time":"2026-09-05T08:58:34Z","stale":false,"bins":25,"density_birds_km3":70.04199999999999,"heading_deg":176.0471953285109,"speed_ms":6.658669274625701,"peak_altitude_m":400.0,"u_ms":0.2774144084977585,"v_ms":-6.521879729305274}},{"type":"Feature","geometry":{"type":"Point","coordinates":[-72.8639,40.8655]},"properties":{"site":"KOKX","name":"Upton NY","scan_time":"2026-09-05T08:59:07Z","stale":false,"bins":25,"density_birds_km3":24.108125,"heading_deg":223.2192862770592,"speed_ms":9.683151601608092,"peak_altitude_m":0.0,"u_ms":-6.549690053170795,"v_ms":-7.105248605887693}},{"type":"Feature","geometry":{"type":"Point","coordinates":[-80.2183,40.5317]},"properties":{"site":"KPBZ","name":"Pittsburgh PA","scan_time":"2026-09-05T09:00:02Z","stale":false,"bins":25,"density_birds_km3":33.00714285714286,"heading_deg":193.55144581251085,"speed_ms":8.87563707232568,"peak_altitude_m":400.0,"u_ms":-1.9789090515374619,"v_ms":-8.06244651364227}},{"type":"Feature","geometry":{"type":"Point","coordinates":[-78.4899,35.6655]},"properties":{"site":"KRAX","name":"Raleigh NC","scan_time":"2026-09-05T09:03:52Z","stale":false,"bins":25,"density_birds_km3":8.713125,"heading_deg":124.04892483205768,"speed_ms":6.83497974537037,"peak_altitude_m":0.0,"u_ms":4.242432725694444,"v_ms":-4.255544704861111}},{"type":"Feature","geometry":{"type":"Point","coordinates":[-82.4017,27.7055]},"properties":{"site":"KTBW","name":"Tampa FL","scan_time":"2026-09-05T08:58:00Z","stale":false,"bins":25,"density_birds_km3":2.901875,"heading_deg":326.30262604065035,"speed_ms":4.293022854678741,"peak_altitude_m":0.0,"u_ms":-2.398042259594653,"v_ms":3.456658042259595}}]}