{"type":"FeatureCollection","frame":"2026-08-13T02","site_count":20,"fresh_count":20,"failures":{},"features":[{"type":"Feature","geometry":{"type":"Point","coordinates":[-77.0073,36.984]},"properties":{"site":"KAKQ","name":"Wakefield VA","scan_time":"2026-08-13T02:00:10Z","stale":false,"bins":25,"density_birds_km3":8.114375,"heading_deg":201.8539203275798,"speed_ms":2.8323196076905117,"peak_altitude_m":0.0,"u_ms":-0.814442282244882,"v_ms":-2.2330668638592672}},{"type":"Feature","geometry":{"type":"Point","coordinates":[-71.1369,41.9558]},"properties":{"site":"KBOX","name":"Boston MA","scan_time":"2026-08-13T02:02:19Z","stale":false,"bins":25,"density_birds_km3":2.4324999999999997,"heading_deg":54.09376167868636,"speed_ms":4.225778920308484,"peak_altitude_m":0.0,"u_ms":3.0158431876606686,"v_ms":1.6768637532133674}},{"type":"Feature","geometry":{"type":"Point","coordinates":[-78.7369,42.9489]},"properties":{"site":"KBUF","name":"Buffalo NY","scan_time":"2026-08-13T01:58:33Z","stale":false,"bins":25,"density_birds_km3":1.4026666666666665,"heading_deg":89.02843528814904,"speed_ms":6.698583650190114,"peak_altitude_m":200.0,"u_ms":5.938940114068441,"v_ms":0.08962452471482889}},{"type":"Feature","geometry":{"type":"Point","coordinates":[-81.8597,41.4131]},"properties":{"site":"KCLE","name":"Cleveland OH","scan_time":"2026-08-13T01:59:44Z","stale":false,"bins":25,"density_birds_km3":1.314,"heading_deg":94.25070189121317,"speed_ms":9.30129393785023,"peak_altitude_m":200.0,"u_ms":8.971370351502802,"v_ms":-1.0911003565970454}},{"type":"Feature","geometry":{"type":"Point","coordinates":[-81.0423,32.6555]},"properties":{"site":"KCLX","name":"Charleston SC","scan_time":"2026-08-13T02:00:23Z","stale":false,"bins":25,"density_birds_km3":8.065625,"heading_deg":125.33128150927415,"speed_ms":6.25093730553827,"peak_altitude_m":200.0,"u_ms":2.231783602986932,"v_ms":-3.268911792159303}},{"type":"Feature","geometry":{"type":"Point","coordinates":[-74.4108,39.947]},"properties":{"site":"KDIX","name":"Philadelphia PA","scan_time":"2026-08-13T02:00:18Z","stale":false,"bins":25,"density_birds_km3":3.591875,"heading_deg":59.60799462956672,"speed_ms":5.638303848258253,"peak_altitude_m":0.0,"u_ms":2.342753966806493,"v_ms":2.0071821995258072}},{"type":"Feature","geometry":{"type":"Point","coordinates":[-84.5658,33.3636]},"properties":{"site":"KFFC","name":"Atlanta GA","scan_time":"2026-08-13T01:59:17Z","stale":false,"bins":25,"density_birds_km3":13.173333333333334,"heading_deg":122.93405965557889,"speed_ms":3.8223102226720647,"peak_altitude_m":200.0,"u_ms":2.7144392712550607,"v_ms":-2.0257024291497974}},{"type":"Feature","geometry":{"type":"Point","coordinates":[-85.5449,42.8939]},"properties":{"site":"KGRR","name":"Grand Rapids MI","scan_time":"2026-08-13T02:03:31Z","stale":false,"bins":25,"density_birds_km3":6.490666666666667,"heading_deg":171.917510809787,"speed_ms":6.184196143137053,"peak_altitude_m":200.0,"u_ms":0.2686923790863155,"v_ms":-5.689016190574405}},{"type":"Feature","geometry":{"type":"Point","coordinates":[-83.8217,39.4203]},"properties":{"site":"KILN","name":"Wilmington OH","scan_time":"2026-08-13T02:01:28Z","stale":false,"bins":25,"density_birds_km3":4.074,"heading_deg":97.46025466060473,"speed_ms":7.651262119113574,"peak_altitude_m":200.0,"u_ms":5.211518351800554,"v_ms":-2.4062119113573406}},{"type":"Feature","geometry":{"type":"Point","coordinates":[-81.7019,30.4846]},"properties":{"site":"KJAX","name":"Jacksonville FL","scan_time":"2026-08-13T01:59:13Z","stale":false,"bins":25,"density_birds_km3":15.703125,"heading_deg":133.63012238282593,"speed_ms":7.5579445456385335,"peak_altitude_m":0.0,"u_ms":5.230388180530257,"v_ms":-4.994515685083991}},{"type":"Feature","geometry":{"type":"Point","coordinates":[-88.0847,41.6045]},"properties":{"site":"KLOT","name":"Chicago IL","scan_time":"2026-08-13T02:02:41Z","stale":false,"bins":25,"density_birds_km3":7.389230769230769,"heading_deg":91.36007355226342,"speed_ms":4.931056974903912,"peak_altitude_m":200.0,"u_ms":2.2641453764413297,"v_ms":-0.45761813248926064}},{"type":"Feature","geometry":{"type":"Point","coordinates":[-78.4292,33.9892]},"properties":{"site":"KLTX","name":"Wilmington NC","scan_time":"2026-08-13T02:02:11Z","stale":false,"bins":25,"density_birds_km3":16.7225,"heading_deg":157.0158239013506,"speed_ms":6.317605762286671,"peak_altitude_m":0.0,"u_ms":0.2865152609373219,"v_ms":-5.400950245163253}},{"type":"Feature","geometry":{"type":"Point","coordinates":[-77.4778,38.9753]},"properties":{"site":"KLWX","name":"Sterling VA","scan_time":"2026-08-13T02:00:42Z","stale":false,"bins":25,"density_birds_km3":7.0675,"heading_deg":100.56797158498564,"speed_ms":4.749356735566644,"peak_altitude_m":0.0,"u_ms":2.1344226657163223,"v_ms":-0.9188818602993585}},{"type":"Feature","geometry":{"type":"Point","coordinates":[-76.8762,34.7759]},"properties":{"site":"KMHX","name":"Morehead City NC","scan_time":"2026-08-13T01:59:04Z","stale":false,"bins":25,"density_birds_km3":14.120625,"heading_deg":174.33728376865227,"speed_ms":4.110982605231709,"peak_altitude_m":0.0,"u_ms":0.3868406143495773,"v_ms":-3.818223786128447}},{"type":"Feature","geometry":{"type":"Point","coordinates":[-80.6542,28.1133]},"properties":{"site":"KMLB","name":"Melbourne FL","scan_time":"2026-08-13T01:58:14Z","stale":false,"bins":25,"density_birds_km3":13.068125,"heading_deg":96.97887803472167,"speed_ms":4.462750433983457,"peak_altitude_m":0.0,"u_ms":2.2459511896252424,"v_ms":-1.3160047993464719}},{"type":"Feature","geometry":{"type":"Point","coordinates":[-86.5625,36.2472]},"properties":{"site":"KOHX","name":"Nashville TN","scan_time":"2026-08-13T01:59:16Z","stale":false,"bins":25,"density_birds_km3":14.563333333333333,"heading_deg":77.7409889542941,"speed_ms":5.482136415655757,"peak_altitude_m":200.0,"u_ms":4.587529869535363,"v_ms":0.7292002746623942}},{"type":"Feature","geometry":{"type":"Point","coordinates":[-72.8639,40.8655]},"properties":{"site":"KOKX","name":"Upton NY","scan_time":"2026-08-13T02:01:33Z","stale":false,"bins":25,"density_birds_km3":2.594375,"heading_deg":5.669220830923812,"speed_ms":4.682996188800938,"peak_altitude_m":0.0,"u_ms":0.7632571093520962,"v_ms":1.8691410143652887}},{"type":"Feature","geometry":{"type":"Point","coordinates":[-80.2183,40.5317]},"properties":{"site":"KPBZ","name":"Pittsburgh PA","scan_time":"2026-08-13T01:59:18Z","stale":false,"bins":25,"density_birds_km3":3.632857142857143,"heading_deg":136.45300408140596,"speed_ms":10.419730633110499,"peak_altitude_m":600.0,"u_ms":7.066185607550138,"v_ms":-7.6095064883995285}},{"type":"Feature","geometry":{"type":"Point","coordinates":[-78.4899,35.6655]},"properties":{"site":"KRAX","name":"Raleigh NC","scan_time":"2026-08-13T01:58:05Z","stale":false,"bins":25,"density_birds_km3":8.481875,"heading_deg":19.091628867229925,"speed_ms":4.070671624626236,"peak_altitude_m":0.0,"u_ms":0.7007084259756192,"v_ms":0.8767361803266119}},{"type":"Feature","geometry":{"type":"Point","coordinates":[-82.4017,27.7055]},"properties":{"site":"KTBW","name":"Tampa FL","scan_time":"2026-08-13T02:02:31Z","stale":false,"bins":25,"density_birds_km3":5.25875,"heading_deg":160.0898841529842,"speed_ms":7.182772230147409,"peak_altitude_m":0.0,"u_ms":1.8101961483594866,"v_ms":-6.677433428435568}}]}