{"type":"FeatureCollection","frame":"2026-09-19T07","site_count":20,"fresh_count":20,"failures":{},"features":[{"type":"Feature","geometry":{"type":"Point","coordinates":[-77.0073,36.984]},"properties":{"site":"KAKQ","name":"Wakefield VA","scan_time":"2026-09-19T07:01:31Z","stale":false,"bins":25,"density_birds_km3":44.94,"heading_deg":206.24641923734274,"speed_ms":8.766371133733868,"peak_altitude_m":0.0,"u_ms":-3.7748392300845577,"v_ms":-7.81346392412105}},{"type":"Feature","geometry":{"type":"Point","coordinates":[-71.1369,41.9558]},"properties":{"site":"KBOX","name":"Boston MA","scan_time":"2026-09-19T06:57:25Z","stale":false,"bins":25,"density_birds_km3":7.7562500000000005,"heading_deg":212.13704612579707,"speed_ms":10.816369863013698,"peak_altitude_m":200.0,"u_ms":-5.83819258662369,"v_ms":-8.890365834004834}},{"type":"Feature","geometry":{"type":"Point","coordinates":[-78.7369,42.9489]},"properties":{"site":"KBUF","name":"Buffalo NY","scan_time":"2026-09-19T06:55:45Z","stale":false,"bins":25,"density_birds_km3":48.52333333333333,"heading_deg":243.98244388279215,"speed_ms":11.388229442879714,"peak_altitude_m":200.0,"u_ms":-10.139085251081953,"v_ms":-4.808999519131689}},{"type":"Feature","geometry":{"type":"Point","coordinates":[-81.8597,41.4131]},"properties":{"site":"KCLE","name":"Cleveland OH","scan_time":"2026-09-19T07:01:18Z","stale":false,"bins":25,"density_birds_km3":70.204,"heading_deg":247.7433992887431,"speed_ms":9.130424801934305,"peak_altitude_m":400.0,"u_ms":-8.269575389202672,"v_ms":-3.284574003459579}},{"type":"Feature","geometry":{"type":"Point","coordinates":[-81.0423,32.6555]},"properties":{"site":"KCLX","name":"Charleston SC","scan_time":"2026-09-19T06:57:19Z","stale":false,"bins":25,"density_birds_km3":23.063125,"heading_deg":166.95160302368004,"speed_ms":7.715787648031219,"peak_altitude_m":0.0,"u_ms":0.8779415192000215,"v_ms":-7.1385108804639446}},{"type":"Feature","geometry":{"type":"Point","coordinates":[-74.4108,39.947]},"properties":{"site":"KDIX","name":"Philadelphia PA","scan_time":"2026-09-19T06:57:26Z","stale":false,"bins":25,"density_birds_km3":29.094375,"heading_deg":223.72558845265243,"speed_ms":14.555088397671371,"peak_altitude_m":400.0,"u_ms":-9.708522051083758,"v_ms":-10.537191467422826}},{"type":"Feature","geometry":{"type":"Point","coordinates":[-84.5658,33.3636]},"properties":{"site":"KFFC","name":"Atlanta GA","scan_time":"2026-09-19T07:00:57Z","stale":false,"bins":25,"density_birds_km3":131.52533333333335,"heading_deg":168.48769434402885,"speed_ms":8.622681866104374,"peak_altitude_m":800.0,"u_ms":0.4179010380763148,"v_ms":-7.615501703093954}},{"type":"Feature","geometry":{"type":"Point","coordinates":[-85.5449,42.8939]},"properties":{"site":"KGRR","name":"Grand Rapids MI","scan_time":"2026-09-19T06:59:03Z","stale":false,"bins":25,"density_birds_km3":18.703333333333333,"heading_deg":279.89530934083524,"speed_ms":13.752985704412353,"peak_altitude_m":400.0,"u_ms":-13.303435306100178,"v_ms":2.5954174093339635}},{"type":"Feature","geometry":{"type":"Point","coordinates":[-83.8217,39.4203]},"properties":{"site":"KILN","name":"Wilmington OH","scan_time":"2026-09-19T06:57:56Z","stale":false,"bins":25,"density_birds_km3":65.428,"heading_deg":250.31383761559513,"speed_ms":9.767392961219459,"peak_altitude_m":200.0,"u_ms":-7.833831998532738,"v_ms":-3.0967257647082804}},{"type":"Feature","geometry":{"type":"Point","coordinates":[-81.7019,30.4846]},"properties":{"site":"KJAX","name":"Jacksonville FL","scan_time":"2026-09-19T06:58:14Z","stale":false,"bins":25,"density_birds_km3":21.285625,"heading_deg":192.16525693707916,"speed_ms":9.584856261929232,"peak_altitude_m":0.0,"u_ms":-2.1580857436499783,"v_ms":-9.298346204668919}},{"type":"Feature","geometry":{"type":"Point","coordinates":[-88.0847,41.6045]},"properties":{"site":"KLOT","name":"Chicago IL","scan_time":"2026-09-19T06:58:42Z","stale":false,"bins":25,"density_birds_km3":13.78,"heading_deg":295.58713509078973,"speed_ms":12.669761566707466,"peak_altitude_m":200.0,"u_ms":-9.99056842105263,"v_ms":5.175226438188495}},{"type":"Feature","geometry":{"type":"Point","coordinates":[-78.4292,33.9892]},"properties":{"site":"KLTX","name":"Wilmington NC","scan_time":"2026-09-19T06:58:29Z","stale":false,"bins":25,"density_birds_km3":33.8325,"heading_deg":178.89254325690672,"speed_ms":8.444771315536494,"peak_altitude_m":400.0,"u_ms":-0.33363011166161355,"v_ms":-8.365686792871404}},{"type":"Feature","geometry":{"type":"Point","coordinates":[-77.4778,38.9753]},"properties":{"site":"KLWX","name":"Sterling VA","scan_time":"2026-09-19T06:58:25Z","stale":false,"bins":25,"density_birds_km3":191.63250000000002,"heading_deg":224.87949387311804,"speed_ms":12.155907474703515,"peak_altitude_m":400.0,"u_ms":-8.660606201719073,"v_ms":-8.00053382656947}},{"type":"Feature","geometry":{"type":"Point","coordinates":[-76.8762,34.7759]},"properties":{"site":"KMHX","name":"Morehead City NC","scan_time":"2026-09-19T06:58:22Z","stale":false,"bins":25,"density_birds_km3":9.288125,"heading_deg":210.995218222668,"speed_ms":6.421278357455401,"peak_altitude_m":0.0,"u_ms":-2.5437697744867047,"v_ms":-5.435594749242679}},{"type":"Feature","geometry":{"type":"Point","coordinates":[-80.6542,28.1133]},"properties":{"site":"KMLB","name":"Melbourne FL","scan_time":"2026-09-19T06:59:30Z","stale":false,"bins":25,"density_birds_km3":3.985625,"heading_deg":164.69600401032693,"speed_ms":6.101328210757409,"peak_altitude_m":0.0,"u_ms":1.7397349851027126,"v_ms":-5.776474831425435}},{"type":"Feature","geometry":{"type":"Point","coordinates":[-86.5625,36.2472]},"properties":{"site":"KOHX","name":"Nashville TN","scan_time":"2026-09-19T06:58:45Z","stale":false,"bins":25,"density_birds_km3":97.69800000000001,"heading_deg":269.79410158691377,"speed_ms":5.339121578742656,"peak_altitude_m":200.0,"u_ms":-3.1360331497744753,"v_ms":-1.2013890424232498}},{"type":"Feature","geometry":{"type":"Point","coordinates":[-72.8639,40.8655]},"properties":{"site":"KOKX","name":"Upton NY","scan_time":"2026-09-19T06:57:33Z","stale":false,"bins":25,"density_birds_km3":6.283125,"heading_deg":241.67418205983375,"speed_ms":11.270715783168615,"peak_altitude_m":200.0,"u_ms":-9.900874513327343,"v_ms":-5.372022561645203}},{"type":"Feature","geometry":{"type":"Point","coordinates":[-80.2183,40.5317]},"properties":{"site":"KPBZ","name":"Pittsburgh PA","scan_time":"2026-09-19T06:58:41Z","stale":false,"bins":25,"density_birds_km3":85.65785714285714,"heading_deg":253.12165441532827,"speed_ms":9.128815053243384,"peak_altitude_m":400.0,"u_ms":-8.194244377548552,"v_ms":-2.0072867137532207}},{"type":"Feature","geometry":{"type":"Point","coordinates":[-78.4899,35.6655]},"properties":{"site":"KRAX","name":"Raleigh NC","scan_time":"2026-09-19T06:59:10Z","stale":false,"bins":25,"density_birds_km3":44.496874999999996,"heading_deg":212.2857948966256,"speed_ms":9.471192672159267,"peak_altitude_m":200.0,"u_ms":-4.848179428057251,"v_ms":-7.733222590895032}},{"type":"Feature","geometry":{"type":"Point","coordinates":[-82.4017,27.7055]},"properties":{"site":"KTBW","name":"Tampa FL","scan_time":"2026-09-19T06:58:46Z","stale":false,"bins":25,"density_birds_km3":6.375,"heading_deg":212.6735348395193,"speed_ms":6.130234359678368,"peak_altitude_m":0.0,"u_ms":-3.215352029809767,"v_ms":-5.143913512453422}}]}