{"type":"FeatureCollection","frame":"2026-08-29T11","site_count":20,"fresh_count":20,"failures":{},"features":[{"type":"Feature","geometry":{"type":"Point","coordinates":[-77.0073,36.984]},"properties":{"site":"KAKQ","name":"Wakefield VA","scan_time":"2026-08-29T10:59:25Z","stale":false,"bins":25,"density_birds_km3":7.600625,"heading_deg":216.9297467266395,"speed_ms":12.145397126816379,"peak_altitude_m":200.0,"u_ms":-7.329392338177014,"v_ms":-9.627763375165125}},{"type":"Feature","geometry":{"type":"Point","coordinates":[-71.1369,41.9558]},"properties":{"site":"KBOX","name":"Boston MA","scan_time":"2026-08-29T10:59:39Z","stale":false,"bins":25,"density_birds_km3":10.760625,"heading_deg":184.64936816193006,"speed_ms":13.37992739733984,"peak_altitude_m":200.0,"u_ms":-1.0178887146425046,"v_ms":-13.316599291398036}},{"type":"Feature","geometry":{"type":"Point","coordinates":[-78.7369,42.9489]},"properties":{"site":"KBUF","name":"Buffalo NY","scan_time":"2026-08-29T11:04:05Z","stale":false,"bins":25,"density_birds_km3":0.984,"heading_deg":46.42201906065877,"speed_ms":2.6719444444444442,"peak_altitude_m":200.0,"u_ms":1.5360840108401084,"v_ms":0.5965785907859078}},{"type":"Feature","geometry":{"type":"Point","coordinates":[-81.8597,41.4131]},"properties":{"site":"KCLE","name":"Cleveland OH","scan_time":"2026-08-29T11:00:27Z","stale":false,"bins":25,"density_birds_km3":3.232,"heading_deg":348.786726092847,"speed_ms":7.260464108910891,"peak_altitude_m":200.0,"u_ms":-0.8116295379537954,"v_ms":5.095468234323432}},{"type":"Feature","geometry":{"type":"Point","coordinates":[-81.0423,32.6555]},"properties":{"site":"KCLX","name":"Charleston SC","scan_time":"2026-08-29T10:57:42Z","stale":false,"bins":25,"density_birds_km3":2.7523076923076926,"heading_deg":244.7,"speed_ms":5.1,"peak_altitude_m":200.0,"u_ms":-4.61,"v_ms":-2.18}},{"type":"Feature","geometry":{"type":"Point","coordinates":[-74.4108,39.947]},"properties":{"site":"KDIX","name":"Philadelphia PA","scan_time":"2026-08-29T10:59:16Z","stale":false,"bins":25,"density_birds_km3":33.24,"heading_deg":199.06907781250754,"speed_ms":12.133566805884788,"peak_altitude_m":0.0,"u_ms":-4.023722391541559,"v_ms":-11.378914474921926}},{"type":"Feature","geometry":{"type":"Point","coordinates":[-84.5658,33.3636]},"properties":{"site":"KFFC","name":"Atlanta GA","scan_time":"2026-08-29T11:03:04Z","stale":false,"bins":25,"density_birds_km3":3.0140000000000002,"heading_deg":246.80525495659202,"speed_ms":4.013353982300885,"peak_altitude_m":200.0,"u_ms":-3.6907323008849557,"v_ms":-1.5486703539823008}},{"type":"Feature","geometry":{"type":"Point","coordinates":[-85.5449,42.8939]},"properties":{"site":"KGRR","name":"Grand Rapids MI","scan_time":"2026-08-29T10:58:09Z","stale":false,"bins":25,"density_birds_km3":1.0566666666666669,"heading_deg":36.58112402996563,"speed_ms":9.740100946372237,"peak_altitude_m":200.0,"u_ms":5.941110410094637,"v_ms":7.5237476340694}},{"type":"Feature","geometry":{"type":"Point","coordinates":[-83.8217,39.4203]},"properties":{"site":"KILN","name":"Wilmington OH","scan_time":"2026-08-29T11:00:43Z","stale":false,"bins":25,"density_birds_km3":6.606,"heading_deg":256.00098154815385,"speed_ms":7.947881390179835,"peak_altitude_m":200.0,"u_ms":-6.928056172964236,"v_ms":-1.86697918771469}},{"type":"Feature","geometry":{"type":"Point","coordinates":[-81.7019,30.4846]},"properties":{"site":"KJAX","name":"Jacksonville FL","scan_time":"2026-08-29T11:00:50Z","stale":false,"bins":25,"density_birds_km3":3.026875,"heading_deg":170.64699920414267,"speed_ms":5.331558951063391,"peak_altitude_m":200.0,"u_ms":0.7734131736526947,"v_ms":-5.236518686764402}},{"type":"Feature","geometry":{"type":"Point","coordinates":[-88.0847,41.6045]},"properties":{"site":"KLOT","name":"Chicago IL","scan_time":"2026-08-29T10:58:30Z","stale":false,"bins":25,"density_birds_km3":0.8513333333333333,"heading_deg":22.177985325742092,"speed_ms":7.658883647798742,"peak_altitude_m":200.0,"u_ms":2.84315251572327,"v_ms":7.056014150943397}},{"type":"Feature","geometry":{"type":"Point","coordinates":[-78.4292,33.9892]},"properties":{"site":"KLTX","name":"Wilmington NC","scan_time":"2026-08-29T11:02:16Z","stale":false,"bins":25,"density_birds_km3":0.2775,"heading_deg":208.10000000000002,"speed_ms":3.08,"peak_altitude_m":200.0,"u_ms":-1.4500000000000002,"v_ms":-2.71}},{"type":"Feature","geometry":{"type":"Point","coordinates":[-77.4778,38.9753]},"properties":{"site":"KLWX","name":"Sterling VA","scan_time":"2026-08-29T11:02:42Z","stale":false,"bins":25,"density_birds_km3":21.560624999999998,"heading_deg":220.48298407312095,"speed_ms":11.466335403726706,"peak_altitude_m":400.0,"u_ms":-7.435116387066812,"v_ms":-8.666338015905264}},{"type":"Feature","geometry":{"type":"Point","coordinates":[-76.8762,34.7759]},"properties":{"site":"KMHX","name":"Morehead City NC","scan_time":"2026-08-29T10:58:08Z","stale":false,"bins":25,"density_birds_km3":0.9581818181818181,"heading_deg":null,"speed_ms":null,"peak_altitude_m":0.0,"u_ms":null,"v_ms":null}},{"type":"Feature","geometry":{"type":"Point","coordinates":[-80.6542,28.1133]},"properties":{"site":"KMLB","name":"Melbourne FL","scan_time":"2026-08-29T11:01:17Z","stale":false,"bins":25,"density_birds_km3":6.929375,"heading_deg":217.98273526463038,"speed_ms":4.806026878325967,"peak_altitude_m":0.0,"u_ms":-2.59888788671417,"v_ms":-3.6992432578695778}},{"type":"Feature","geometry":{"type":"Point","coordinates":[-86.5625,36.2472]},"properties":{"site":"KOHX","name":"Nashville TN","scan_time":"2026-08-29T11:00:22Z","stale":false,"bins":25,"density_birds_km3":7.077333333333333,"heading_deg":244.03408806317563,"speed_ms":5.303256252949504,"peak_altitude_m":200.0,"u_ms":-4.77103161868806,"v_ms":-2.176632373761208}},{"type":"Feature","geometry":{"type":"Point","coordinates":[-72.8639,40.8655]},"properties":{"site":"KOKX","name":"Upton NY","scan_time":"2026-08-29T11:02:08Z","stale":false,"bins":25,"density_birds_km3":22.22875,"heading_deg":206.88568202564633,"speed_ms":11.28144644715013,"peak_altitude_m":400.0,"u_ms":-5.080917245451734,"v_ms":-9.976802575710712}},{"type":"Feature","geometry":{"type":"Point","coordinates":[-80.2183,40.5317]},"properties":{"site":"KPBZ","name":"Pittsburgh PA","scan_time":"2026-08-29T11:00:00Z","stale":false,"bins":25,"density_birds_km3":2.579285714285714,"heading_deg":250.57016851838216,"speed_ms":6.157115438108484,"peak_altitude_m":400.0,"u_ms":-5.572058414464534,"v_ms":-1.6501974965229484}},{"type":"Feature","geometry":{"type":"Point","coordinates":[-78.4899,35.6655]},"properties":{"site":"KRAX","name":"Raleigh NC","scan_time":"2026-08-29T11:00:02Z","stale":false,"bins":25,"density_birds_km3":7.204375,"heading_deg":216.9696960507716,"speed_ms":7.311110339439187,"peak_altitude_m":400.0,"u_ms":-4.443901380328154,"v_ms":-5.586602135602049}},{"type":"Feature","geometry":{"type":"Point","coordinates":[-82.4017,27.7055]},"properties":{"site":"KTBW","name":"Tampa FL","scan_time":"2026-08-29T11:01:00Z","stale":false,"bins":25,"density_birds_km3":1.445,"heading_deg":292.57375089676435,"speed_ms":4.601871750433276,"peak_altitude_m":0.0,"u_ms":-4.177244367417678,"v_ms":1.7297963604852689}}]}