{"type":"FeatureCollection","frame":"2026-09-10T01","site_count":20,"fresh_count":20,"failures":{},"features":[{"type":"Feature","geometry":{"type":"Point","coordinates":[-77.0073,36.984]},"properties":{"site":"KAKQ","name":"Wakefield VA","scan_time":"2026-09-10T00:58:09Z","stale":false,"bins":25,"density_birds_km3":2.61875,"heading_deg":14.216953553192402,"speed_ms":9.497069552529183,"peak_altitude_m":0.0,"u_ms":2.312852626459144,"v_ms":8.77308852140078}},{"type":"Feature","geometry":{"type":"Point","coordinates":[-71.1369,41.9558]},"properties":{"site":"KBOX","name":"Boston MA","scan_time":"2026-09-10T00:57:37Z","stale":false,"bins":25,"density_birds_km3":0.9556250000000001,"heading_deg":19.459805612580084,"speed_ms":13.615336473755049,"peak_altitude_m":0.0,"u_ms":5.317362045760431,"v_ms":12.087005383580081}},{"type":"Feature","geometry":{"type":"Point","coordinates":[-78.7369,42.9489]},"properties":{"site":"KBUF","name":"Buffalo NY","scan_time":"2026-09-10T00:58:43Z","stale":false,"bins":25,"density_birds_km3":1.2626666666666666,"heading_deg":70.17138844524153,"speed_ms":12.415807814149948,"peak_altitude_m":200.0,"u_ms":11.484435058078143,"v_ms":3.5354382259767685}},{"type":"Feature","geometry":{"type":"Point","coordinates":[-81.8597,41.4131]},"properties":{"site":"KCLE","name":"Cleveland OH","scan_time":"2026-09-10T00:59:48Z","stale":false,"bins":25,"density_birds_km3":7.047333333333333,"heading_deg":109.6751271730596,"speed_ms":10.84748580620742,"peak_altitude_m":200.0,"u_ms":9.765178841786526,"v_ms":-4.270083270249811}},{"type":"Feature","geometry":{"type":"Point","coordinates":[-81.0423,32.6555]},"properties":{"site":"KCLX","name":"Charleston SC","scan_time":"2026-09-10T01:01:40Z","stale":false,"bins":25,"density_birds_km3":4.9956249999999995,"heading_deg":269.4213176353737,"speed_ms":7.359064229630583,"peak_altitude_m":0.0,"u_ms":-7.337887759042348,"v_ms":-0.006997039516025223}},{"type":"Feature","geometry":{"type":"Point","coordinates":[-74.4108,39.947]},"properties":{"site":"KDIX","name":"Philadelphia PA","scan_time":"2026-09-10T01:01:26Z","stale":false,"bins":25,"density_birds_km3":2.4675,"heading_deg":28.429384697708734,"speed_ms":12.088494404883011,"peak_altitude_m":200.0,"u_ms":6.038435910478128,"v_ms":10.157436419125126}},{"type":"Feature","geometry":{"type":"Point","coordinates":[-84.5658,33.3636]},"properties":{"site":"KFFC","name":"Atlanta GA","scan_time":"2026-09-10T00:59:19Z","stale":false,"bins":25,"density_birds_km3":19.314,"heading_deg":264.74515975264586,"speed_ms":4.551913578114745,"peak_altitude_m":200.0,"u_ms":-4.031172671064903,"v_ms":-0.5528164830230389}},{"type":"Feature","geometry":{"type":"Point","coordinates":[-85.5449,42.8939]},"properties":{"site":"KGRR","name":"Grand Rapids MI","scan_time":"2026-09-10T00:55:42Z","stale":false,"bins":25,"density_birds_km3":12.625333333333334,"heading_deg":95.34944979181937,"speed_ms":12.16961792603645,"peak_altitude_m":400.0,"u_ms":11.764710646914631,"v_ms":-1.5690386869871045}},{"type":"Feature","geometry":{"type":"Point","coordinates":[-83.8217,39.4203]},"properties":{"site":"KILN","name":"Wilmington OH","scan_time":"2026-09-10T00:57:36Z","stale":false,"bins":25,"density_birds_km3":3.1813333333333333,"heading_deg":54.4115585838804,"speed_ms":14.782136392338455,"peak_altitude_m":200.0,"u_ms":12.056440749315932,"v_ms":8.250494632708904}},{"type":"Feature","geometry":{"type":"Point","coordinates":[-81.7019,30.4846]},"properties":{"site":"KJAX","name":"Jacksonville FL","scan_time":"2026-09-10T01:00:24Z","stale":false,"bins":25,"density_birds_km3":14.858125000000001,"heading_deg":213.97483303208637,"speed_ms":6.324139149455264,"peak_altitude_m":0.0,"u_ms":-3.5421671644302357,"v_ms":-5.216485088125184}},{"type":"Feature","geometry":{"type":"Point","coordinates":[-88.0847,41.6045]},"properties":{"site":"KLOT","name":"Chicago IL","scan_time":"2026-09-10T00:59:56Z","stale":false,"bins":25,"density_birds_km3":18.88066666666667,"heading_deg":125.85980076934356,"speed_ms":10.377159042477624,"peak_altitude_m":600.0,"u_ms":7.985061088222759,"v_ms":-6.247667282284415}},{"type":"Feature","geometry":{"type":"Point","coordinates":[-78.4292,33.9892]},"properties":{"site":"KLTX","name":"Wilmington NC","scan_time":"2026-09-10T01:01:06Z","stale":false,"bins":25,"density_birds_km3":2.90125,"heading_deg":321.6944991711445,"speed_ms":6.387552778974579,"peak_altitude_m":200.0,"u_ms":-3.481604911676002,"v_ms":4.418681602757432}},{"type":"Feature","geometry":{"type":"Point","coordinates":[-77.4778,38.9753]},"properties":{"site":"KLWX","name":"Sterling VA","scan_time":"2026-09-10T01:00:53Z","stale":false,"bins":25,"density_birds_km3":3.803125,"heading_deg":12.163215904341815,"speed_ms":11.658142938604827,"peak_altitude_m":0.0,"u_ms":2.789310017107014,"v_ms":11.16773617183045}},{"type":"Feature","geometry":{"type":"Point","coordinates":[-76.8762,34.7759]},"properties":{"site":"KMHX","name":"Morehead City NC","scan_time":"2026-09-10T01:01:49Z","stale":false,"bins":25,"density_birds_km3":2.10625,"heading_deg":344.3793809516083,"speed_ms":6.983629926108374,"peak_altitude_m":0.0,"u_ms":-1.7660036945812805,"v_ms":6.410461822660098}},{"type":"Feature","geometry":{"type":"Point","coordinates":[-80.6542,28.1133]},"properties":{"site":"KMLB","name":"Melbourne FL","scan_time":"2026-09-10T01:01:35Z","stale":false,"bins":25,"density_birds_km3":6.5325,"heading_deg":259.34321082958354,"speed_ms":4.084854573287409,"peak_altitude_m":0.0,"u_ms":-3.8532730577879835,"v_ms":-0.4442900880214313}},{"type":"Feature","geometry":{"type":"Point","coordinates":[-86.5625,36.2472]},"properties":{"site":"KOHX","name":"Nashville TN","scan_time":"2026-09-10T01:00:33Z","stale":false,"bins":25,"density_birds_km3":12.455333333333332,"heading_deg":48.20511478186819,"speed_ms":6.974958371380996,"peak_altitude_m":200.0,"u_ms":5.073383466723962,"v_ms":4.608273620884138}},{"type":"Feature","geometry":{"type":"Point","coordinates":[-72.8639,40.8655]},"properties":{"site":"KOKX","name":"Upton NY","scan_time":"2026-09-10T00:58:36Z","stale":false,"bins":25,"density_birds_km3":0.39375,"heading_deg":32.69379939905789,"speed_ms":13.426044657097288,"peak_altitude_m":0.0,"u_ms":7.262137161084529,"v_ms":11.100877192982457}},{"type":"Feature","geometry":{"type":"Point","coordinates":[-80.2183,40.5317]},"properties":{"site":"KPBZ","name":"Pittsburgh PA","scan_time":"2026-09-10T01:02:10Z","stale":false,"bins":25,"density_birds_km3":8.964285714285714,"heading_deg":71.98153914033126,"speed_ms":6.268955402063614,"peak_altitude_m":400.0,"u_ms":5.019734800034109,"v_ms":2.6033350387993517}},{"type":"Feature","geometry":{"type":"Point","coordinates":[-78.4899,35.6655]},"properties":{"site":"KRAX","name":"Raleigh NC","scan_time":"2026-09-10T01:08:28Z","stale":false,"bins":25,"density_birds_km3":8.0725,"heading_deg":32.94385810941385,"speed_ms":7.474463416580228,"peak_altitude_m":200.0,"u_ms":2.5434859969680046,"v_ms":3.7736495651480095}},{"type":"Feature","geometry":{"type":"Point","coordinates":[-82.4017,27.7055]},"properties":{"site":"KTBW","name":"Tampa FL","scan_time":"2026-09-10T01:03:12Z","stale":false,"bins":25,"density_birds_km3":10.146875,"heading_deg":258.75366905869464,"speed_ms":4.296583126364115,"peak_altitude_m":0.0,"u_ms":-4.0189230074508915,"v_ms":-1.0744313991119139}}]}