{"type":"FeatureCollection","frame":"2026-09-14T12","site_count":20,"fresh_count":20,"failures":{},"features":[{"type":"Feature","geometry":{"type":"Point","coordinates":[-77.0073,36.984]},"properties":{"site":"KAKQ","name":"Wakefield VA","scan_time":"2026-09-14T12:01:44Z","stale":false,"bins":25,"density_birds_km3":9.166875,"heading_deg":186.63970356853673,"speed_ms":12.277915102709343,"peak_altitude_m":200.0,"u_ms":-1.3874087217634614,"v_ms":-12.18615983075138}},{"type":"Feature","geometry":{"type":"Point","coordinates":[-71.1369,41.9558]},"properties":{"site":"KBOX","name":"Boston MA","scan_time":"2026-09-14T12:03:09Z","stale":false,"bins":25,"density_birds_km3":0.990625,"heading_deg":null,"speed_ms":null,"peak_altitude_m":0.0,"u_ms":null,"v_ms":null}},{"type":"Feature","geometry":{"type":"Point","coordinates":[-78.7369,42.9489]},"properties":{"site":"KBUF","name":"Buffalo NY","scan_time":"2026-09-14T12:00:50Z","stale":false,"bins":25,"density_birds_km3":1.6926666666666668,"heading_deg":177.2608128131202,"speed_ms":6.983198109491925,"peak_altitude_m":200.0,"u_ms":0.314127609294998,"v_ms":-6.951614808979913}},{"type":"Feature","geometry":{"type":"Point","coordinates":[-81.8597,41.4131]},"properties":{"site":"KCLE","name":"Cleveland OH","scan_time":"2026-09-14T12:02:27Z","stale":false,"bins":25,"density_birds_km3":4.3293333333333335,"heading_deg":196.60972409065195,"speed_ms":9.233648703403567,"peak_altitude_m":200.0,"u_ms":-2.6272933549432738,"v_ms":-8.81729740680713}},{"type":"Feature","geometry":{"type":"Point","coordinates":[-81.0423,32.6555]},"properties":{"site":"KCLX","name":"Charleston SC","scan_time":"2026-09-14T11:59:57Z","stale":false,"bins":25,"density_birds_km3":6.8881250000000005,"heading_deg":189.98683226358193,"speed_ms":5.0750671449595295,"peak_altitude_m":200.0,"u_ms":-0.9727851361295071,"v_ms":-4.7782542310522444}},{"type":"Feature","geometry":{"type":"Point","coordinates":[-74.4108,39.947]},"properties":{"site":"KDIX","name":"Philadelphia PA","scan_time":"2026-09-14T12:01:34Z","stale":false,"bins":25,"density_birds_km3":9.314375,"heading_deg":181.62691445160613,"speed_ms":16.475786573482964,"peak_altitude_m":800.0,"u_ms":-0.4667972582487735,"v_ms":-16.468828707748134}},{"type":"Feature","geometry":{"type":"Point","coordinates":[-84.5658,33.3636]},"properties":{"site":"KFFC","name":"Atlanta GA","scan_time":"2026-09-14T11:58:46Z","stale":false,"bins":25,"density_birds_km3":41.336,"heading_deg":190.7744548303175,"speed_ms":9.576231856009292,"peak_altitude_m":200.0,"u_ms":-1.6385491258628477,"v_ms":-9.320555770595446}},{"type":"Feature","geometry":{"type":"Point","coordinates":[-85.5449,42.8939]},"properties":{"site":"KGRR","name":"Grand Rapids MI","scan_time":"2026-09-14T12:02:09Z","stale":false,"bins":25,"density_birds_km3":1.212,"heading_deg":257.5558983273714,"speed_ms":8.170665566556655,"peak_altitude_m":200.0,"u_ms":-7.9289823982398255,"v_ms":-1.7823432343234322}},{"type":"Feature","geometry":{"type":"Point","coordinates":[-83.8217,39.4203]},"properties":{"site":"KILN","name":"Wilmington OH","scan_time":"2026-09-14T12:01:13Z","stale":false,"bins":25,"density_birds_km3":5.241333333333333,"heading_deg":213.23291218422045,"speed_ms":13.374379168804516,"peak_altitude_m":400.0,"u_ms":-7.292900205233455,"v_ms":-10.824148281169832}},{"type":"Feature","geometry":{"type":"Point","coordinates":[-81.7019,30.4846]},"properties":{"site":"KJAX","name":"Jacksonville FL","scan_time":"2026-09-14T11:57:54Z","stale":false,"bins":25,"density_birds_km3":11.881875,"heading_deg":170.07180222927786,"speed_ms":9.106000113423693,"peak_altitude_m":0.0,"u_ms":1.468878806782737,"v_ms":-8.860468439857087}},{"type":"Feature","geometry":{"type":"Point","coordinates":[-88.0847,41.6045]},"properties":{"site":"KLOT","name":"Chicago IL","scan_time":"2026-09-14T11:57:32Z","stale":false,"bins":25,"density_birds_km3":3.1626666666666665,"heading_deg":235.02580332366273,"speed_ms":8.448606661045531,"peak_altitude_m":200.0,"u_ms":-6.8895931703204045,"v_ms":-4.811899241146712}},{"type":"Feature","geometry":{"type":"Point","coordinates":[-78.4292,33.9892]},"properties":{"site":"KLTX","name":"Wilmington NC","scan_time":"2026-09-14T11:58:03Z","stale":false,"bins":25,"density_birds_km3":10.473125,"heading_deg":152.6207808694308,"speed_ms":6.212146248812915,"peak_altitude_m":0.0,"u_ms":2.613826527382083,"v_ms":-5.494494460272238}},{"type":"Feature","geometry":{"type":"Point","coordinates":[-77.4778,38.9753]},"properties":{"site":"KLWX","name":"Sterling VA","scan_time":"2026-09-14T12:01:08Z","stale":false,"bins":25,"density_birds_km3":20.634375,"heading_deg":178.90990192987593,"speed_ms":13.098914940021809,"peak_altitude_m":600.0,"u_ms":0.2507257966799951,"v_ms":-13.067634193626558}},{"type":"Feature","geometry":{"type":"Point","coordinates":[-76.8762,34.7759]},"properties":{"site":"KMHX","name":"Morehead City NC","scan_time":"2026-09-14T12:00:36Z","stale":false,"bins":25,"density_birds_km3":25.565,"heading_deg":138.47269786382833,"speed_ms":7.756815959319382,"peak_altitude_m":0.0,"u_ms":4.595811901036573,"v_ms":-5.831181302562096}},{"type":"Feature","geometry":{"type":"Point","coordinates":[-80.6542,28.1133]},"properties":{"site":"KMLB","name":"Melbourne FL","scan_time":"2026-09-14T11:56:53Z","stale":false,"bins":25,"density_birds_km3":3.07875,"heading_deg":158.1001882735681,"speed_ms":7.222346607070297,"peak_altitude_m":0.0,"u_ms":2.6464750101584715,"v_ms":-6.653514831369362}},{"type":"Feature","geometry":{"type":"Point","coordinates":[-86.5625,36.2472]},"properties":{"site":"KOHX","name":"Nashville TN","scan_time":"2026-09-14T11:58:38Z","stale":false,"bins":25,"density_birds_km3":33.82933333333333,"heading_deg":220.55595426646633,"speed_ms":10.612100346839036,"peak_altitude_m":400.0,"u_ms":-6.812487781806716,"v_ms":-7.508909033580324}},{"type":"Feature","geometry":{"type":"Point","coordinates":[-72.8639,40.8655]},"properties":{"site":"KOKX","name":"Upton NY","scan_time":"2026-09-14T12:01:53Z","stale":false,"bins":25,"density_birds_km3":2.2556249999999998,"heading_deg":167.75511918581418,"speed_ms":11.685131128848347,"peak_altitude_m":600.0,"u_ms":2.3754789053591794,"v_ms":-11.385153933865451}},{"type":"Feature","geometry":{"type":"Point","coordinates":[-80.2183,40.5317]},"properties":{"site":"KPBZ","name":"Pittsburgh PA","scan_time":"2026-09-14T12:02:23Z","stale":false,"bins":25,"density_birds_km3":3.77,"heading_deg":198.3165977545958,"speed_ms":12.143957938613111,"peak_altitude_m":600.0,"u_ms":-3.7876127320954907,"v_ms":-11.49564039408867}},{"type":"Feature","geometry":{"type":"Point","coordinates":[-78.4899,35.6655]},"properties":{"site":"KRAX","name":"Raleigh NC","scan_time":"2026-09-14T11:55:59Z","stale":false,"bins":25,"density_birds_km3":25.22625,"heading_deg":173.8106110791599,"speed_ms":10.534215103315,"peak_altitude_m":400.0,"u_ms":1.1064592933947772,"v_ms":-10.467364104851098}},{"type":"Feature","geometry":{"type":"Point","coordinates":[-82.4017,27.7055]},"properties":{"site":"KTBW","name":"Tampa FL","scan_time":"2026-09-14T12:02:25Z","stale":false,"bins":25,"density_birds_km3":3.37375,"heading_deg":181.06152480436927,"speed_ms":5.708434605409411,"peak_altitude_m":200.0,"u_ms":0.4530122267506484,"v_ms":-5.6337958503149315}}]}