{"type":"FeatureCollection","frame":"2026-09-19T11","site_count":20,"fresh_count":20,"failures":{},"features":[{"type":"Feature","geometry":{"type":"Point","coordinates":[-77.0073,36.984]},"properties":{"site":"KAKQ","name":"Wakefield VA","scan_time":"2026-09-19T11:00:12Z","stale":false,"bins":25,"density_birds_km3":3.3049999999999997,"heading_deg":234.3666507304075,"speed_ms":8.071600454029511,"peak_altitude_m":0.0,"u_ms":-6.510554294362467,"v_ms":-4.670650775633749}},{"type":"Feature","geometry":{"type":"Point","coordinates":[-71.1369,41.9558]},"properties":{"site":"KBOX","name":"Boston MA","scan_time":"2026-09-19T10:59:09Z","stale":false,"bins":25,"density_birds_km3":5.143125,"heading_deg":216.74862978936073,"speed_ms":8.649005592025286,"peak_altitude_m":0.0,"u_ms":-5.289068806224167,"v_ms":-6.788911986384634}},{"type":"Feature","geometry":{"type":"Point","coordinates":[-78.7369,42.9489]},"properties":{"site":"KBUF","name":"Buffalo NY","scan_time":"2026-09-19T11:04:19Z","stale":false,"bins":25,"density_birds_km3":2.6539999999999995,"heading_deg":289.6898011114855,"speed_ms":6.017078623461443,"peak_altitude_m":200.0,"u_ms":-5.667955287616177,"v_ms":1.9849711127857324}},{"type":"Feature","geometry":{"type":"Point","coordinates":[-81.8597,41.4131]},"properties":{"site":"KCLE","name":"Cleveland OH","scan_time":"2026-09-19T11:02:52Z","stale":false,"bins":25,"density_birds_km3":4.109230769230769,"heading_deg":271.8623490441411,"speed_ms":6.457041800643087,"peak_altitude_m":400.0,"u_ms":-6.453729903536978,"v_ms":0.1896784565916399}},{"type":"Feature","geometry":{"type":"Point","coordinates":[-81.0423,32.6555]},"properties":{"site":"KCLX","name":"Charleston SC","scan_time":"2026-09-19T10:57:55Z","stale":false,"bins":25,"density_birds_km3":2.60625,"heading_deg":158.7314883286424,"speed_ms":5.6368872901678655,"peak_altitude_m":200.0,"u_ms":2.0115635491606714,"v_ms":-5.241652278177457}},{"type":"Feature","geometry":{"type":"Point","coordinates":[-74.4108,39.947]},"properties":{"site":"KDIX","name":"Philadelphia PA","scan_time":"2026-09-19T11:01:40Z","stale":false,"bins":25,"density_birds_km3":10.00375,"heading_deg":235.9698722749352,"speed_ms":12.35739875,"peak_altitude_m":200.0,"u_ms":-10.234501875000001,"v_ms":-6.892839374999999}},{"type":"Feature","geometry":{"type":"Point","coordinates":[-84.5658,33.3636]},"properties":{"site":"KFFC","name":"Atlanta GA","scan_time":"2026-09-19T10:58:10Z","stale":false,"bins":25,"density_birds_km3":24.598,"heading_deg":162.00602483779352,"speed_ms":6.808019622191506,"peak_altitude_m":400.0,"u_ms":1.4465316963438763,"v_ms":-6.4103875653847195}},{"type":"Feature","geometry":{"type":"Point","coordinates":[-85.5449,42.8939]},"properties":{"site":"KGRR","name":"Grand Rapids MI","scan_time":"2026-09-19T10:57:50Z","stale":false,"bins":25,"density_birds_km3":null,"heading_deg":null,"speed_ms":null,"peak_altitude_m":null,"u_ms":null,"v_ms":null}},{"type":"Feature","geometry":{"type":"Point","coordinates":[-83.8217,39.4203]},"properties":{"site":"KILN","name":"Wilmington OH","scan_time":"2026-09-19T11:00:15Z","stale":false,"bins":25,"density_birds_km3":1.2866666666666666,"heading_deg":298.94642738209365,"speed_ms":6.1646500777604984,"peak_altitude_m":400.0,"u_ms":-5.124230171073094,"v_ms":2.797931570762053}},{"type":"Feature","geometry":{"type":"Point","coordinates":[-81.7019,30.4846]},"properties":{"site":"KJAX","name":"Jacksonville FL","scan_time":"2026-09-19T10:59:35Z","stale":false,"bins":25,"density_birds_km3":2.36,"heading_deg":219.5017775873159,"speed_ms":5.236548507462686,"peak_altitude_m":0.0,"u_ms":-3.2367057569296374,"v_ms":-4.050159914712153}},{"type":"Feature","geometry":{"type":"Point","coordinates":[-88.0847,41.6045]},"properties":{"site":"KLOT","name":"Chicago IL","scan_time":"2026-09-19T11:01:21Z","stale":false,"bins":25,"density_birds_km3":1.24125,"heading_deg":null,"speed_ms":null,"peak_altitude_m":200.0,"u_ms":null,"v_ms":null}},{"type":"Feature","geometry":{"type":"Point","coordinates":[-78.4292,33.9892]},"properties":{"site":"KLTX","name":"Wilmington NC","scan_time":"2026-09-19T11:00:46Z","stale":false,"bins":25,"density_birds_km3":4.30625,"heading_deg":174.24530290138486,"speed_ms":5.873432098765432,"peak_altitude_m":0.0,"u_ms":0.3881525054466231,"v_ms":-5.733025417574439}},{"type":"Feature","geometry":{"type":"Point","coordinates":[-77.4778,38.9753]},"properties":{"site":"KLWX","name":"Sterling VA","scan_time":"2026-09-19T10:59:20Z","stale":false,"bins":25,"density_birds_km3":12.063749999999999,"heading_deg":220.36520894649712,"speed_ms":9.923225522210126,"peak_altitude_m":200.0,"u_ms":-6.408890271082776,"v_ms":-7.279003265433058}},{"type":"Feature","geometry":{"type":"Point","coordinates":[-76.8762,34.7759]},"properties":{"site":"KMHX","name":"Morehead City NC","scan_time":"2026-09-19T10:58:50Z","stale":false,"bins":25,"density_birds_km3":1.61375,"heading_deg":236.76988379176342,"speed_ms":8.482476744186046,"peak_altitude_m":200.0,"u_ms":-7.0501782945736435,"v_ms":-4.670720930232558}},{"type":"Feature","geometry":{"type":"Point","coordinates":[-80.6542,28.1133]},"properties":{"site":"KMLB","name":"Melbourne FL","scan_time":"2026-09-19T10:58:08Z","stale":false,"bins":25,"density_birds_km3":3.426875,"heading_deg":235.7873419072995,"speed_ms":5.081542815409896,"peak_altitude_m":200.0,"u_ms":-4.158110279350009,"v_ms":-2.82418659850283}},{"type":"Feature","geometry":{"type":"Point","coordinates":[-86.5625,36.2472]},"properties":{"site":"KOHX","name":"Nashville TN","scan_time":"2026-09-19T11:00:37Z","stale":false,"bins":25,"density_birds_km3":21.212666666666667,"heading_deg":45.59674594293197,"speed_ms":4.846876708884628,"peak_altitude_m":200.0,"u_ms":2.496367893397027,"v_ms":0.3494632138030735}},{"type":"Feature","geometry":{"type":"Point","coordinates":[-72.8639,40.8655]},"properties":{"site":"KOKX","name":"Upton NY","scan_time":"2026-09-19T11:03:01Z","stale":false,"bins":25,"density_birds_km3":9.861875,"heading_deg":232.11920145216078,"speed_ms":10.703484185840146,"peak_altitude_m":200.0,"u_ms":-8.405492172149332,"v_ms":-6.516001774735375}},{"type":"Feature","geometry":{"type":"Point","coordinates":[-80.2183,40.5317]},"properties":{"site":"KPBZ","name":"Pittsburgh PA","scan_time":"2026-09-19T11:00:33Z","stale":false,"bins":25,"density_birds_km3":1.3592857142857144,"heading_deg":287.217770155796,"speed_ms":6.138612716763006,"peak_altitude_m":600.0,"u_ms":-5.712990015764582,"v_ms":1.5162375197057276}},{"type":"Feature","geometry":{"type":"Point","coordinates":[-78.4899,35.6655]},"properties":{"site":"KRAX","name":"Raleigh NC","scan_time":"2026-09-19T10:59:38Z","stale":false,"bins":25,"density_birds_km3":2.561875,"heading_deg":238.82730813710617,"speed_ms":8.498974108451394,"peak_altitude_m":0.0,"u_ms":-7.28784807034685,"v_ms":-4.365300439667807}},{"type":"Feature","geometry":{"type":"Point","coordinates":[-82.4017,27.7055]},"properties":{"site":"KTBW","name":"Tampa FL","scan_time":"2026-09-19T10:58:45Z","stale":false,"bins":25,"density_birds_km3":3.3425,"heading_deg":223.59206573916367,"speed_ms":4.122499064721287,"peak_altitude_m":0.0,"u_ms":-2.8556228956228953,"v_ms":-2.8458155630377853}}]}