{"type":"FeatureCollection","frame":"2026-08-12T08","site_count":20,"fresh_count":20,"failures":{},"features":[{"type":"Feature","geometry":{"type":"Point","coordinates":[-77.0073,36.984]},"properties":{"site":"KAKQ","name":"Wakefield VA","scan_time":"2026-08-12T07:58:30Z","stale":false,"bins":25,"density_birds_km3":4.91,"heading_deg":163.6277282791468,"speed_ms":9.44648758752387,"peak_altitude_m":200.0,"u_ms":2.6486276257161045,"v_ms":-8.91357733927435}},{"type":"Feature","geometry":{"type":"Point","coordinates":[-71.1369,41.9558]},"properties":{"site":"KBOX","name":"Boston MA","scan_time":"2026-08-12T07:58:06Z","stale":false,"bins":25,"density_birds_km3":1.0218749999999999,"heading_deg":147.8082967539828,"speed_ms":7.080330477356181,"peak_altitude_m":0.0,"u_ms":3.7555997552019584,"v_ms":-5.952839657282742}},{"type":"Feature","geometry":{"type":"Point","coordinates":[-78.7369,42.9489]},"properties":{"site":"KBUF","name":"Buffalo NY","scan_time":"2026-08-12T07:56:01Z","stale":false,"bins":25,"density_birds_km3":2.4393333333333334,"heading_deg":233.78526589503565,"speed_ms":3.960134986225895,"peak_altitude_m":400.0,"u_ms":-2.3770192837465567,"v_ms":-2.159115702479339}},{"type":"Feature","geometry":{"type":"Point","coordinates":[-81.8597,41.4131]},"properties":{"site":"KCLE","name":"Cleveland OH","scan_time":"2026-08-12T08:00:46Z","stale":false,"bins":25,"density_birds_km3":1.268,"heading_deg":78.10335523116161,"speed_ms":5.487990506329113,"peak_altitude_m":200.0,"u_ms":2.477542194092827,"v_ms":0.9897257383966243}},{"type":"Feature","geometry":{"type":"Point","coordinates":[-81.0423,32.6555]},"properties":{"site":"KCLX","name":"Charleston SC","scan_time":"2026-08-12T07:59:48Z","stale":false,"bins":25,"density_birds_km3":13.466875,"heading_deg":169.46727180510553,"speed_ms":10.163208300450304,"peak_altitude_m":0.0,"u_ms":2.0702260804976556,"v_ms":-9.709805022979433}},{"type":"Feature","geometry":{"type":"Point","coordinates":[-74.4108,39.947]},"properties":{"site":"KDIX","name":"Philadelphia PA","scan_time":"2026-08-12T07:59:23Z","stale":false,"bins":25,"density_birds_km3":3.669375,"heading_deg":189.27963683718002,"speed_ms":8.016012048192772,"peak_altitude_m":400.0,"u_ms":-1.4208864027538726,"v_ms":-7.843170395869191}},{"type":"Feature","geometry":{"type":"Point","coordinates":[-84.5658,33.3636]},"properties":{"site":"KFFC","name":"Atlanta GA","scan_time":"2026-08-12T08:01:56Z","stale":false,"bins":25,"density_birds_km3":9.668333333333333,"heading_deg":161.90900181859215,"speed_ms":5.652378385316391,"peak_altitude_m":600.0,"u_ms":1.672700551918881,"v_ms":-5.328210756000514}},{"type":"Feature","geometry":{"type":"Point","coordinates":[-85.5449,42.8939]},"properties":{"site":"KGRR","name":"Grand Rapids MI","scan_time":"2026-08-12T08:01:54Z","stale":false,"bins":25,"density_birds_km3":1.3746666666666667,"heading_deg":150.02568336895425,"speed_ms":2.8708486905916586,"peak_altitude_m":400.0,"u_ms":-0.0422744907856449,"v_ms":-1.4320999030067896}},{"type":"Feature","geometry":{"type":"Point","coordinates":[-83.8217,39.4203]},"properties":{"site":"KILN","name":"Wilmington OH","scan_time":"2026-08-12T07:59:54Z","stale":false,"bins":25,"density_birds_km3":3.4993333333333334,"heading_deg":93.69472851629868,"speed_ms":4.817450693937181,"peak_altitude_m":200.0,"u_ms":4.469306062819576,"v_ms":-0.4038787436084733}},{"type":"Feature","geometry":{"type":"Point","coordinates":[-81.7019,30.4846]},"properties":{"site":"KJAX","name":"Jacksonville FL","scan_time":"2026-08-12T07:57:47Z","stale":false,"bins":25,"density_birds_km3":11.649375,"heading_deg":138.05461928480702,"speed_ms":8.632618653095042,"peak_altitude_m":0.0,"u_ms":5.538594508225825,"v_ms":-6.5087755947449395}},{"type":"Feature","geometry":{"type":"Point","coordinates":[-88.0847,41.6045]},"properties":{"site":"KLOT","name":"Chicago IL","scan_time":"2026-08-12T08:01:03Z","stale":false,"bins":25,"density_birds_km3":1.812,"heading_deg":72.35669989928509,"speed_ms":6.935813097866078,"peak_altitude_m":200.0,"u_ms":6.1580426784400295,"v_ms":0.7765158204562176}},{"type":"Feature","geometry":{"type":"Point","coordinates":[-78.4292,33.9892]},"properties":{"site":"KLTX","name":"Wilmington NC","scan_time":"2026-08-12T07:59:37Z","stale":false,"bins":25,"density_birds_km3":9.08875,"heading_deg":197.8182995897027,"speed_ms":6.800743568578897,"peak_altitude_m":0.0,"u_ms":-2.0420429219975236,"v_ms":-6.000246939056267}},{"type":"Feature","geometry":{"type":"Point","coordinates":[-77.4778,38.9753]},"properties":{"site":"KLWX","name":"Sterling VA","scan_time":"2026-08-12T08:00:49Z","stale":false,"bins":25,"density_birds_km3":3.096875,"heading_deg":169.20620377537082,"speed_ms":7.566212184873949,"peak_altitude_m":600.0,"u_ms":1.4141344537815124,"v_ms":-7.3945840336134445}},{"type":"Feature","geometry":{"type":"Point","coordinates":[-76.8762,34.7759]},"properties":{"site":"KMHX","name":"Morehead City NC","scan_time":"2026-08-12T08:01:04Z","stale":false,"bins":25,"density_birds_km3":4.189375,"heading_deg":119.749998687761,"speed_ms":4.899321098179647,"peak_altitude_m":0.0,"u_ms":4.271050432706654,"v_ms":-2.3348075201432406}},{"type":"Feature","geometry":{"type":"Point","coordinates":[-80.6542,28.1133]},"properties":{"site":"KMLB","name":"Melbourne FL","scan_time":"2026-08-12T08:01:47Z","stale":false,"bins":25,"density_birds_km3":4.203749999999999,"heading_deg":53.63697592403161,"speed_ms":4.563953903345725,"peak_altitude_m":0.0,"u_ms":2.9973412639405206,"v_ms":2.057860223048327}},{"type":"Feature","geometry":{"type":"Point","coordinates":[-86.5625,36.2472]},"properties":{"site":"KOHX","name":"Nashville TN","scan_time":"2026-08-12T07:58:50Z","stale":false,"bins":25,"density_birds_km3":7.224,"heading_deg":33.30833219146399,"speed_ms":8.431549464747139,"peak_altitude_m":200.0,"u_ms":4.281426725729052,"v_ms":5.882930047988188}},{"type":"Feature","geometry":{"type":"Point","coordinates":[-72.8639,40.8655]},"properties":{"site":"KOKX","name":"Upton NY","scan_time":"2026-08-12T08:01:51Z","stale":false,"bins":25,"density_birds_km3":2.7125,"heading_deg":197.48520234332912,"speed_ms":7.264251968503938,"peak_altitude_m":0.0,"u_ms":-1.8722649374710516,"v_ms":-6.752443260768875}},{"type":"Feature","geometry":{"type":"Point","coordinates":[-80.2183,40.5317]},"properties":{"site":"KPBZ","name":"Pittsburgh PA","scan_time":"2026-08-12T08:03:10Z","stale":false,"bins":25,"density_birds_km3":2.9385714285714286,"heading_deg":176.1141941928907,"speed_ms":5.041891033471781,"peak_altitude_m":1000.0,"u_ms":-0.08745663327632544,"v_ms":-4.480454434400195}},{"type":"Feature","geometry":{"type":"Point","coordinates":[-78.4899,35.6655]},"properties":{"site":"KRAX","name":"Raleigh NC","scan_time":"2026-08-12T07:56:45Z","stale":false,"bins":25,"density_birds_km3":3.7137499999999997,"heading_deg":200.13090370170164,"speed_ms":3.65215128032345,"peak_altitude_m":0.0,"u_ms":0.6974915768194071,"v_ms":-2.7619474393530994}},{"type":"Feature","geometry":{"type":"Point","coordinates":[-82.4017,27.7055]},"properties":{"site":"KTBW","name":"Tampa FL","scan_time":"2026-08-12T08:01:53Z","stale":false,"bins":25,"density_birds_km3":6.66625,"heading_deg":263.3623533104018,"speed_ms":3.5495584099006185,"peak_altitude_m":0.0,"u_ms":-2.4138383648978063,"v_ms":-0.9306000375023438}}]}