{"type":"FeatureCollection","frame":"2026-08-23T03","site_count":20,"fresh_count":20,"failures":{},"features":[{"type":"Feature","geometry":{"type":"Point","coordinates":[-77.0073,36.984]},"properties":{"site":"KAKQ","name":"Wakefield VA","scan_time":"2026-08-23T03:00:26Z","stale":false,"bins":25,"density_birds_km3":9.6425,"heading_deg":51.29863441014165,"speed_ms":6.582265949170124,"peak_altitude_m":0.0,"u_ms":5.216728475103734,"v_ms":3.9141467842323645}},{"type":"Feature","geometry":{"type":"Point","coordinates":[-71.1369,41.9558]},"properties":{"site":"KBOX","name":"Boston MA","scan_time":"2026-08-23T03:00:47Z","stale":false,"bins":25,"density_birds_km3":1.82,"heading_deg":238.9152567720078,"speed_ms":3.4105841924398623,"peak_altitude_m":0.0,"u_ms":-2.7929140893470787,"v_ms":-1.6003780068728521}},{"type":"Feature","geometry":{"type":"Point","coordinates":[-78.7369,42.9489]},"properties":{"site":"KBUF","name":"Buffalo NY","scan_time":"2026-08-23T03:00:58Z","stale":false,"bins":25,"density_birds_km3":1.8846666666666667,"heading_deg":351.32605001228075,"speed_ms":5.116197382384153,"peak_altitude_m":200.0,"u_ms":-0.2751574106827025,"v_ms":4.74770074283693}},{"type":"Feature","geometry":{"type":"Point","coordinates":[-81.8597,41.4131]},"properties":{"site":"KCLE","name":"Cleveland OH","scan_time":"2026-08-23T02:58:26Z","stale":false,"bins":25,"density_birds_km3":3.606666666666667,"heading_deg":144.89277095498238,"speed_ms":10.095817005545287,"peak_altitude_m":200.0,"u_ms":5.422419593345656,"v_ms":-8.382386321626617}},{"type":"Feature","geometry":{"type":"Point","coordinates":[-81.0423,32.6555]},"properties":{"site":"KCLX","name":"Charleston SC","scan_time":"2026-08-23T02:59:21Z","stale":false,"bins":25,"density_birds_km3":6.884375,"heading_deg":208.9111228690531,"speed_ms":4.204825644751181,"peak_altitude_m":0.0,"u_ms":-0.8886233200145297,"v_ms":-2.0478541590991646}},{"type":"Feature","geometry":{"type":"Point","coordinates":[-74.4108,39.947]},"properties":{"site":"KDIX","name":"Philadelphia PA","scan_time":"2026-08-23T02:58:45Z","stale":false,"bins":25,"density_birds_km3":1.360625,"heading_deg":309.2134988492227,"speed_ms":5.370068933823529,"peak_altitude_m":200.0,"u_ms":-4.121139705882353,"v_ms":3.1573851102941175}},{"type":"Feature","geometry":{"type":"Point","coordinates":[-84.5658,33.3636]},"properties":{"site":"KFFC","name":"Atlanta GA","scan_time":"2026-08-23T03:01:30Z","stale":false,"bins":25,"density_birds_km3":36.19533333333333,"heading_deg":180.97442146298908,"speed_ms":5.898443077376458,"peak_altitude_m":1800.0,"u_ms":0.1998246551120771,"v_ms":-5.4903849483358815}},{"type":"Feature","geometry":{"type":"Point","coordinates":[-85.5449,42.8939]},"properties":{"site":"KGRR","name":"Grand Rapids MI","scan_time":"2026-08-23T02:58:47Z","stale":false,"bins":25,"density_birds_km3":37.374,"heading_deg":180.06844369560957,"speed_ms":16.238763289332855,"peak_altitude_m":800.0,"u_ms":-0.1441359257937924,"v_ms":-16.197361576881914}},{"type":"Feature","geometry":{"type":"Point","coordinates":[-83.8217,39.4203]},"properties":{"site":"KILN","name":"Wilmington OH","scan_time":"2026-08-23T03:03:00Z","stale":false,"bins":25,"density_birds_km3":14.337333333333333,"heading_deg":151.86648341647825,"speed_ms":12.277436171696973,"peak_altitude_m":600.0,"u_ms":5.50442682416407,"v_ms":-10.868715063014463}},{"type":"Feature","geometry":{"type":"Point","coordinates":[-81.7019,30.4846]},"properties":{"site":"KJAX","name":"Jacksonville FL","scan_time":"2026-08-23T03:00:54Z","stale":false,"bins":25,"density_birds_km3":3.523125,"heading_deg":23.80302906603195,"speed_ms":1.8043943161634104,"peak_altitude_m":0.0,"u_ms":1.0912966252220249,"v_ms":0.49751687388987564}},{"type":"Feature","geometry":{"type":"Point","coordinates":[-88.0847,41.6045]},"properties":{"site":"KLOT","name":"Chicago IL","scan_time":"2026-08-23T03:00:59Z","stale":false,"bins":25,"density_birds_km3":22.332666666666668,"heading_deg":162.7875798728473,"speed_ms":13.738677653815092,"peak_altitude_m":400.0,"u_ms":4.063679598001974,"v_ms":-13.024622079980857}},{"type":"Feature","geometry":{"type":"Point","coordinates":[-78.4292,33.9892]},"properties":{"site":"KLTX","name":"Wilmington NC","scan_time":"2026-08-23T03:02:14Z","stale":false,"bins":25,"density_birds_km3":4.33125,"heading_deg":133.3493580244503,"speed_ms":4.402452990005082,"peak_altitude_m":0.0,"u_ms":3.1489496866000337,"v_ms":-2.607619854311367}},{"type":"Feature","geometry":{"type":"Point","coordinates":[-77.4778,38.9753]},"properties":{"site":"KLWX","name":"Sterling VA","scan_time":"2026-08-23T03:00:00Z","stale":false,"bins":25,"density_birds_km3":44.8,"heading_deg":null,"speed_ms":null,"peak_altitude_m":200.0,"u_ms":null,"v_ms":null}},{"type":"Feature","geometry":{"type":"Point","coordinates":[-76.8762,34.7759]},"properties":{"site":"KMHX","name":"Morehead City NC","scan_time":"2026-08-23T02:59:02Z","stale":false,"bins":25,"density_birds_km3":0.67875,"heading_deg":62.847543121272984,"speed_ms":8.612955390334573,"peak_altitude_m":0.0,"u_ms":7.6645910780669135,"v_ms":3.8936802973977698}},{"type":"Feature","geometry":{"type":"Point","coordinates":[-80.6542,28.1133]},"properties":{"site":"KMLB","name":"Melbourne FL","scan_time":"2026-08-23T03:01:58Z","stale":false,"bins":25,"density_birds_km3":6.308125,"heading_deg":31.34693201336096,"speed_ms":3.724538789259883,"peak_altitude_m":0.0,"u_ms":1.8864202912909935,"v_ms":2.9186287526008123}},{"type":"Feature","geometry":{"type":"Point","coordinates":[-86.5625,36.2472]},"properties":{"site":"KOHX","name":"Nashville TN","scan_time":"2026-08-23T02:59:09Z","stale":false,"bins":25,"density_birds_km3":33.08133333333333,"heading_deg":181.0442530138562,"speed_ms":8.87735751713019,"peak_altitude_m":400.0,"u_ms":-0.19984723901652562,"v_ms":-8.670714429665459}},{"type":"Feature","geometry":{"type":"Point","coordinates":[-72.8639,40.8655]},"properties":{"site":"KOKX","name":"Upton NY","scan_time":"2026-08-23T02:59:14Z","stale":false,"bins":25,"density_birds_km3":2.82375,"heading_deg":279.4054616534458,"speed_ms":4.210918548030102,"peak_altitude_m":0.0,"u_ms":-4.0996104471004875,"v_ms":0.7210668437361665}},{"type":"Feature","geometry":{"type":"Point","coordinates":[-80.2183,40.5317]},"properties":{"site":"KPBZ","name":"Pittsburgh PA","scan_time":"2026-08-23T03:00:43Z","stale":false,"bins":25,"density_birds_km3":0.9757142857142858,"heading_deg":74.12561284387358,"speed_ms":6.444333821376281,"peak_altitude_m":400.0,"u_ms":5.974604685212299,"v_ms":0.6700878477306003}},{"type":"Feature","geometry":{"type":"Point","coordinates":[-78.4899,35.6655]},"properties":{"site":"KRAX","name":"Raleigh NC","scan_time":"2026-08-23T02:58:08Z","stale":false,"bins":25,"density_birds_km3":6.1525,"heading_deg":103.47012206440347,"speed_ms":5.741952458350264,"peak_altitude_m":0.0,"u_ms":5.564000406338886,"v_ms":-1.2460107679804957}},{"type":"Feature","geometry":{"type":"Point","coordinates":[-82.4017,27.7055]},"properties":{"site":"KTBW","name":"Tampa FL","scan_time":"2026-08-23T03:00:22Z","stale":false,"bins":25,"density_birds_km3":1.179375,"heading_deg":61.583009645721134,"speed_ms":3.9067355590885002,"peak_altitude_m":0.0,"u_ms":3.342819289878113,"v_ms":1.6060307366189717}}]}