{"type":"FeatureCollection","frame":"2026-09-04T08","site_count":20,"fresh_count":20,"failures":{},"features":[{"type":"Feature","geometry":{"type":"Point","coordinates":[-77.0073,36.984]},"properties":{"site":"KAKQ","name":"Wakefield VA","scan_time":"2026-09-04T07:59:15Z","stale":false,"bins":25,"density_birds_km3":8.4525,"heading_deg":101.02397881407707,"speed_ms":7.037767586359938,"peak_altitude_m":0.0,"u_ms":6.874370885420519,"v_ms":-1.2081329980028108}},{"type":"Feature","geometry":{"type":"Point","coordinates":[-71.1369,41.9558]},"properties":{"site":"KBOX","name":"Boston MA","scan_time":"2026-09-04T07:59:20Z","stale":false,"bins":25,"density_birds_km3":4.135625,"heading_deg":151.75234709106627,"speed_ms":7.384417549167928,"peak_altitude_m":0.0,"u_ms":3.230950075642965,"v_ms":-6.488465960665658}},{"type":"Feature","geometry":{"type":"Point","coordinates":[-78.7369,42.9489]},"properties":{"site":"KBUF","name":"Buffalo NY","scan_time":"2026-09-04T07:58:28Z","stale":false,"bins":25,"density_birds_km3":31.804,"heading_deg":176.00150682957678,"speed_ms":8.903463505638705,"peak_altitude_m":400.0,"u_ms":0.5442910744979668,"v_ms":-8.773813356810464}},{"type":"Feature","geometry":{"type":"Point","coordinates":[-81.8597,41.4131]},"properties":{"site":"KCLE","name":"Cleveland OH","scan_time":"2026-09-04T07:57:59Z","stale":false,"bins":25,"density_birds_km3":25.772,"heading_deg":192.80068941250906,"speed_ms":8.520727739060597,"peak_altitude_m":200.0,"u_ms":-1.3382494365138995,"v_ms":-7.6557615482266375}},{"type":"Feature","geometry":{"type":"Point","coordinates":[-81.0423,32.6555]},"properties":{"site":"KCLX","name":"Charleston SC","scan_time":"2026-09-04T07:57:32Z","stale":false,"bins":25,"density_birds_km3":2.565,"heading_deg":246.5029701859658,"speed_ms":6.513781676413256,"peak_altitude_m":0.0,"u_ms":-5.665930799220273,"v_ms":-2.661091617933723}},{"type":"Feature","geometry":{"type":"Point","coordinates":[-74.4108,39.947]},"properties":{"site":"KDIX","name":"Philadelphia PA","scan_time":"2026-09-04T07:59:11Z","stale":false,"bins":25,"density_birds_km3":7.916875,"heading_deg":127.84129267349472,"speed_ms":7.776551113970884,"peak_altitude_m":0.0,"u_ms":6.1571350438349555,"v_ms":-4.540720662752353}},{"type":"Feature","geometry":{"type":"Point","coordinates":[-84.5658,33.3636]},"properties":{"site":"KFFC","name":"Atlanta GA","scan_time":"2026-09-04T07:57:51Z","stale":false,"bins":25,"density_birds_km3":7.861999999999999,"heading_deg":280.4049645738138,"speed_ms":7.6351496650555415,"peak_altitude_m":400.0,"u_ms":-5.132383617400152,"v_ms":-0.39990587636733654}},{"type":"Feature","geometry":{"type":"Point","coordinates":[-85.5449,42.8939]},"properties":{"site":"KGRR","name":"Grand Rapids MI","scan_time":"2026-09-04T07:58:19Z","stale":false,"bins":25,"density_birds_km3":3.1446666666666667,"heading_deg":162.95076245511748,"speed_ms":3.9975210643015524,"peak_altitude_m":200.0,"u_ms":1.8416962305986697,"v_ms":-0.05492017738359202}},{"type":"Feature","geometry":{"type":"Point","coordinates":[-83.8217,39.4203]},"properties":{"site":"KILN","name":"Wilmington OH","scan_time":"2026-09-04T07:58:57Z","stale":false,"bins":25,"density_birds_km3":22.515333333333334,"heading_deg":144.49332354165276,"speed_ms":9.108804370355017,"peak_altitude_m":1200.0,"u_ms":5.027558996831789,"v_ms":-7.304145027092647}},{"type":"Feature","geometry":{"type":"Point","coordinates":[-81.7019,30.4846]},"properties":{"site":"KJAX","name":"Jacksonville FL","scan_time":"2026-09-04T08:01:47Z","stale":false,"bins":25,"density_birds_km3":5.2368749999999995,"heading_deg":215.21009129240343,"speed_ms":4.453721041318367,"peak_altitude_m":0.0,"u_ms":-2.2080582756149987,"v_ms":-3.473802245044185}},{"type":"Feature","geometry":{"type":"Point","coordinates":[-88.0847,41.6045]},"properties":{"site":"KLOT","name":"Chicago IL","scan_time":"2026-09-04T08:01:15Z","stale":false,"bins":25,"density_birds_km3":6.383333333333334,"heading_deg":64.48690056712267,"speed_ms":9.174550275774289,"peak_altitude_m":200.0,"u_ms":8.283141705557913,"v_ms":3.8759344505727618}},{"type":"Feature","geometry":{"type":"Point","coordinates":[-78.4292,33.9892]},"properties":{"site":"KLTX","name":"Wilmington NC","scan_time":"2026-09-04T07:57:43Z","stale":false,"bins":25,"density_birds_km3":1.7693750000000001,"heading_deg":29.250516965547835,"speed_ms":1.918017921146953,"peak_altitude_m":0.0,"u_ms":0.8591935483870968,"v_ms":1.1261541218637994}},{"type":"Feature","geometry":{"type":"Point","coordinates":[-77.4778,38.9753]},"properties":{"site":"KLWX","name":"Sterling VA","scan_time":"2026-09-04T07:58:57Z","stale":false,"bins":25,"density_birds_km3":7.375624999999999,"heading_deg":166.83519885610968,"speed_ms":8.213997403721333,"peak_altitude_m":200.0,"u_ms":3.9792133275638255,"v_ms":-4.5229147555170925}},{"type":"Feature","geometry":{"type":"Point","coordinates":[-76.8762,34.7759]},"properties":{"site":"KMHX","name":"Morehead City NC","scan_time":"2026-09-04T08:01:34Z","stale":false,"bins":25,"density_birds_km3":0.9874999999999999,"heading_deg":70.44927625552398,"speed_ms":7.652696202531646,"peak_altitude_m":0.0,"u_ms":6.601468354430381,"v_ms":2.6010126582278486}},{"type":"Feature","geometry":{"type":"Point","coordinates":[-80.6542,28.1133]},"properties":{"site":"KMLB","name":"Melbourne FL","scan_time":"2026-09-04T07:58:41Z","stale":false,"bins":25,"density_birds_km3":2.3875,"heading_deg":55.69836884282232,"speed_ms":2.0726053940822204,"peak_altitude_m":0.0,"u_ms":0.8010866719036397,"v_ms":1.5864571877454832}},{"type":"Feature","geometry":{"type":"Point","coordinates":[-86.5625,36.2472]},"properties":{"site":"KOHX","name":"Nashville TN","scan_time":"2026-09-04T08:01:30Z","stale":false,"bins":25,"density_birds_km3":25.89333333333333,"heading_deg":103.20675820644344,"speed_ms":2.0412736869207,"peak_altitude_m":200.0,"u_ms":1.6523802780638517,"v_ms":-0.4437847579814625}},{"type":"Feature","geometry":{"type":"Point","coordinates":[-72.8639,40.8655]},"properties":{"site":"KOKX","name":"Upton NY","scan_time":"2026-09-04T08:01:38Z","stale":false,"bins":25,"density_birds_km3":10.016875,"heading_deg":169.08578168305627,"speed_ms":4.724447525597269,"peak_altitude_m":0.0,"u_ms":2.4082380546075086,"v_ms":-3.307152303754266}},{"type":"Feature","geometry":{"type":"Point","coordinates":[-80.2183,40.5317]},"properties":{"site":"KPBZ","name":"Pittsburgh PA","scan_time":"2026-09-04T08:01:20Z","stale":false,"bins":25,"density_birds_km3":30.788571428571426,"heading_deg":161.4528284138989,"speed_ms":11.046769209354121,"peak_altitude_m":400.0,"u_ms":3.4416810504825537,"v_ms":-10.170715478841872}},{"type":"Feature","geometry":{"type":"Point","coordinates":[-78.4899,35.6655]},"properties":{"site":"KRAX","name":"Raleigh NC","scan_time":"2026-09-04T07:57:40Z","stale":false,"bins":25,"density_birds_km3":5.1375,"heading_deg":82.69924541802992,"speed_ms":7.678616283315079,"peak_altitude_m":200.0,"u_ms":6.607171717171717,"v_ms":1.0170001216989168}},{"type":"Feature","geometry":{"type":"Point","coordinates":[-82.4017,27.7055]},"properties":{"site":"KTBW","name":"Tampa FL","scan_time":"2026-09-04T07:58:42Z","stale":false,"bins":25,"density_birds_km3":2.62125,"heading_deg":320.1442600457007,"speed_ms":2.8732570338578927,"peak_altitude_m":0.0,"u_ms":-1.6879184549356223,"v_ms":2.1138412017167383}}]}