{"type":"FeatureCollection","frame":"2026-09-05T11","site_count":20,"fresh_count":20,"failures":{},"features":[{"type":"Feature","geometry":{"type":"Point","coordinates":[-77.0073,36.984]},"properties":{"site":"KAKQ","name":"Wakefield VA","scan_time":"2026-09-05T11:00:14Z","stale":false,"bins":25,"density_birds_km3":8.626875,"heading_deg":173.1735365577753,"speed_ms":11.42739940549554,"peak_altitude_m":0.0,"u_ms":1.4632654244906838,"v_ms":-11.159061117958384}},{"type":"Feature","geometry":{"type":"Point","coordinates":[-71.1369,41.9558]},"properties":{"site":"KBOX","name":"Boston MA","scan_time":"2026-09-05T10:57:36Z","stale":false,"bins":25,"density_birds_km3":5.131875,"heading_deg":191.14805995867576,"speed_ms":12.384413986354776,"peak_altitude_m":400.0,"u_ms":-2.3746259746588696,"v_ms":-12.081073343079922}},{"type":"Feature","geometry":{"type":"Point","coordinates":[-78.7369,42.9489]},"properties":{"site":"KBUF","name":"Buffalo NY","scan_time":"2026-09-05T11:00:44Z","stale":false,"bins":25,"density_birds_km3":2.222666666666667,"heading_deg":189.21727698941476,"speed_ms":7.596235752849429,"peak_altitude_m":200.0,"u_ms":-1.1929004199160167,"v_ms":-7.461463707258548}},{"type":"Feature","geometry":{"type":"Point","coordinates":[-81.8597,41.4131]},"properties":{"site":"KCLE","name":"Cleveland OH","scan_time":"2026-09-05T11:01:14Z","stale":false,"bins":25,"density_birds_km3":4.664666666666666,"heading_deg":123.44988672343048,"speed_ms":4.189699441820523,"peak_altitude_m":200.0,"u_ms":3.443858594532703,"v_ms":-2.3267596965793613}},{"type":"Feature","geometry":{"type":"Point","coordinates":[-81.0423,32.6555]},"properties":{"site":"KCLX","name":"Charleston SC","scan_time":"2026-09-05T10:58:58Z","stale":false,"bins":25,"density_birds_km3":2.631875,"heading_deg":129.45539915873508,"speed_ms":4.64343549536707,"peak_altitude_m":0.0,"u_ms":3.4447564742219057,"v_ms":-2.9755310049893087}},{"type":"Feature","geometry":{"type":"Point","coordinates":[-74.4108,39.947]},"properties":{"site":"KDIX","name":"Philadelphia PA","scan_time":"2026-09-05T10:58:05Z","stale":false,"bins":25,"density_birds_km3":19.57875,"heading_deg":198.5678597824977,"speed_ms":10.582520673030874,"peak_altitude_m":200.0,"u_ms":-3.3846393793301615,"v_ms":-10.017214009769804}},{"type":"Feature","geometry":{"type":"Point","coordinates":[-84.5658,33.3636]},"properties":{"site":"KFFC","name":"Atlanta GA","scan_time":"2026-09-05T10:58:20Z","stale":false,"bins":25,"density_birds_km3":5.772666666666667,"heading_deg":174.4036901882896,"speed_ms":9.043732809430256,"peak_altitude_m":200.0,"u_ms":-2.0206806887784583,"v_ms":-7.357363920027736}},{"type":"Feature","geometry":{"type":"Point","coordinates":[-85.5449,42.8939]},"properties":{"site":"KGRR","name":"Grand Rapids MI","scan_time":"2026-09-05T10:59:51Z","stale":false,"bins":25,"density_birds_km3":0.8439999999999999,"heading_deg":250.63714659488903,"speed_ms":5.676664025356577,"peak_altitude_m":200.0,"u_ms":-5.325451664025357,"v_ms":-1.8688668779714737}},{"type":"Feature","geometry":{"type":"Point","coordinates":[-83.8217,39.4203]},"properties":{"site":"KILN","name":"Wilmington OH","scan_time":"2026-09-05T11:00:05Z","stale":false,"bins":25,"density_birds_km3":0.03,"heading_deg":null,"speed_ms":null,"peak_altitude_m":800.0,"u_ms":null,"v_ms":null}},{"type":"Feature","geometry":{"type":"Point","coordinates":[-81.7019,30.4846]},"properties":{"site":"KJAX","name":"Jacksonville FL","scan_time":"2026-09-05T11:02:01Z","stale":false,"bins":25,"density_birds_km3":2.15625,"heading_deg":96.60626139615866,"speed_ms":5.282505800464037,"peak_altitude_m":0.0,"u_ms":5.198845707656612,"v_ms":-0.5492952436194893}},{"type":"Feature","geometry":{"type":"Point","coordinates":[-88.0847,41.6045]},"properties":{"site":"KLOT","name":"Chicago IL","scan_time":"2026-09-05T11:00:27Z","stale":false,"bins":25,"density_birds_km3":14.820666666666666,"heading_deg":142.82797112335916,"speed_ms":12.90145499773858,"peak_altitude_m":600.0,"u_ms":7.8799950248756225,"v_ms":-10.19574445952058}},{"type":"Feature","geometry":{"type":"Point","coordinates":[-78.4292,33.9892]},"properties":{"site":"KLTX","name":"Wilmington NC","scan_time":"2026-09-05T10:59:23Z","stale":false,"bins":25,"density_birds_km3":3.7106250000000003,"heading_deg":117.83699204076862,"speed_ms":9.094764071452646,"peak_altitude_m":200.0,"u_ms":7.76912369396697,"v_ms":-3.835603302999663}},{"type":"Feature","geometry":{"type":"Point","coordinates":[-77.4778,38.9753]},"properties":{"site":"KLWX","name":"Sterling VA","scan_time":"2026-09-05T11:01:01Z","stale":false,"bins":25,"density_birds_km3":11.110625,"heading_deg":183.0818272911099,"speed_ms":10.379299499240421,"peak_altitude_m":0.0,"u_ms":0.5239256175097058,"v_ms":-9.694139987621673}},{"type":"Feature","geometry":{"type":"Point","coordinates":[-76.8762,34.7759]},"properties":{"site":"KMHX","name":"Morehead City NC","scan_time":"2026-09-05T10:58:08Z","stale":false,"bins":25,"density_birds_km3":6.6156250000000005,"heading_deg":142.12720928324208,"speed_ms":10.867757443580505,"peak_altitude_m":1200.0,"u_ms":6.089192110752892,"v_ms":-6.9579385549023325}},{"type":"Feature","geometry":{"type":"Point","coordinates":[-80.6542,28.1133]},"properties":{"site":"KMLB","name":"Melbourne FL","scan_time":"2026-09-05T10:57:54Z","stale":false,"bins":25,"density_birds_km3":1.8499999999999999,"heading_deg":37.72004581968044,"speed_ms":5.526351351351352,"peak_altitude_m":200.0,"u_ms":3.366783783783784,"v_ms":4.380192567567567}},{"type":"Feature","geometry":{"type":"Point","coordinates":[-86.5625,36.2472]},"properties":{"site":"KOHX","name":"Nashville TN","scan_time":"2026-09-05T10:59:24Z","stale":false,"bins":25,"density_birds_km3":17.517999999999997,"heading_deg":170.25715927168352,"speed_ms":8.45084872253741,"peak_altitude_m":400.0,"u_ms":1.1388763659901764,"v_ms":-8.240851387884096}},{"type":"Feature","geometry":{"type":"Point","coordinates":[-72.8639,40.8655]},"properties":{"site":"KOKX","name":"Upton NY","scan_time":"2026-09-05T10:58:11Z","stale":false,"bins":25,"density_birds_km3":10.9925,"heading_deg":210.28501013999895,"speed_ms":7.980909866363378,"peak_altitude_m":200.0,"u_ms":-3.773177708274097,"v_ms":-6.889429627523458}},{"type":"Feature","geometry":{"type":"Point","coordinates":[-80.2183,40.5317]},"properties":{"site":"KPBZ","name":"Pittsburgh PA","scan_time":"2026-09-05T10:58:34Z","stale":false,"bins":25,"density_birds_km3":28.896428571428572,"heading_deg":142.8357165982924,"speed_ms":9.043971326164874,"peak_altitude_m":800.0,"u_ms":5.6708767766654296,"v_ms":-6.5162647385984425}},{"type":"Feature","geometry":{"type":"Point","coordinates":[-78.4899,35.6655]},"properties":{"site":"KRAX","name":"Raleigh NC","scan_time":"2026-09-05T10:58:22Z","stale":false,"bins":25,"density_birds_km3":4.305625,"heading_deg":145.3927860067149,"speed_ms":7.631560346091802,"peak_altitude_m":0.0,"u_ms":3.479147968910397,"v_ms":-6.498634697169673}},{"type":"Feature","geometry":{"type":"Point","coordinates":[-82.4017,27.7055]},"properties":{"site":"KTBW","name":"Tampa FL","scan_time":"2026-09-05T11:00:41Z","stale":false,"bins":25,"density_birds_km3":1.3599999999999999,"heading_deg":5.452529668279643,"speed_ms":3.6113189338235294,"peak_altitude_m":0.0,"u_ms":0.38963694852941183,"v_ms":3.515707720588235}}]}