{"type":"FeatureCollection","frame":"2026-08-14T01","site_count":20,"fresh_count":20,"failures":{},"features":[{"type":"Feature","geometry":{"type":"Point","coordinates":[-77.0073,36.984]},"properties":{"site":"KAKQ","name":"Wakefield VA","scan_time":"2026-08-14T00:56:54Z","stale":false,"bins":25,"density_birds_km3":6.6825,"heading_deg":323.9796948141806,"speed_ms":3.4211502105755733,"peak_altitude_m":0.0,"u_ms":-1.7434843238184372,"v_ms":2.328367805334581}},{"type":"Feature","geometry":{"type":"Point","coordinates":[-71.1369,41.9558]},"properties":{"site":"KBOX","name":"Boston MA","scan_time":"2026-08-14T00:55:16Z","stale":false,"bins":25,"density_birds_km3":2.941333333333333,"heading_deg":159.2468961185663,"speed_ms":5.805626292806251,"peak_altitude_m":0.0,"u_ms":1.8356791542174216,"v_ms":-5.398200413698}},{"type":"Feature","geometry":{"type":"Point","coordinates":[-78.7369,42.9489]},"properties":{"site":"KBUF","name":"Buffalo NY","scan_time":"2026-08-14T01:03:14Z","stale":false,"bins":25,"density_birds_km3":1.968,"heading_deg":99.215432452561,"speed_ms":6.632618563685638,"peak_altitude_m":200.0,"u_ms":5.40095189701897,"v_ms":-0.957621951219512}},{"type":"Feature","geometry":{"type":"Point","coordinates":[-81.8597,41.4131]},"properties":{"site":"KCLE","name":"Cleveland OH","scan_time":"2026-08-14T01:00:29Z","stale":false,"bins":25,"density_birds_km3":3.712,"heading_deg":242.34020566824404,"speed_ms":3.294401509705248,"peak_altitude_m":200.0,"u_ms":-2.7647070452911575,"v_ms":-1.5708303378864126}},{"type":"Feature","geometry":{"type":"Point","coordinates":[-81.0423,32.6555]},"properties":{"site":"KCLX","name":"Charleston SC","scan_time":"2026-08-14T01:01:52Z","stale":false,"bins":25,"density_birds_km3":3.948125,"heading_deg":253.97489283681182,"speed_ms":1.9630489931821786,"peak_altitude_m":200.0,"u_ms":-0.5580672268907563,"v_ms":-1.1456223244014585}},{"type":"Feature","geometry":{"type":"Point","coordinates":[-74.4108,39.947]},"properties":{"site":"KDIX","name":"Philadelphia PA","scan_time":"2026-08-14T00:56:34Z","stale":false,"bins":25,"density_birds_km3":7.1621428571428565,"heading_deg":132.94113199253817,"speed_ms":3.14222790507365,"peak_altitude_m":400.0,"u_ms":1.563371522094926,"v_ms":-2.4799447626841244}},{"type":"Feature","geometry":{"type":"Point","coordinates":[-84.5658,33.3636]},"properties":{"site":"KFFC","name":"Atlanta GA","scan_time":"2026-08-14T01:01:31Z","stale":false,"bins":25,"density_birds_km3":3.522,"heading_deg":69.04193600416038,"speed_ms":5.06761309861821,"peak_altitude_m":200.0,"u_ms":4.364629945106947,"v_ms":1.7711130039750145}},{"type":"Feature","geometry":{"type":"Point","coordinates":[-85.5449,42.8939]},"properties":{"site":"KGRR","name":"Grand Rapids MI","scan_time":"2026-08-14T00:59:26Z","stale":false,"bins":25,"density_birds_km3":3.0820000000000003,"heading_deg":249.88119058980197,"speed_ms":1.923035482475119,"peak_altitude_m":200.0,"u_ms":-1.7615794028559069,"v_ms":-0.587321505841627}},{"type":"Feature","geometry":{"type":"Point","coordinates":[-83.8217,39.4203]},"properties":{"site":"KILN","name":"Wilmington OH","scan_time":"2026-08-14T00:59:02Z","stale":false,"bins":25,"density_birds_km3":9.676,"heading_deg":299.02107495228455,"speed_ms":5.172984076652652,"peak_altitude_m":200.0,"u_ms":-4.512437443992556,"v_ms":2.4878031295236784}},{"type":"Feature","geometry":{"type":"Point","coordinates":[-81.7019,30.4846]},"properties":{"site":"KJAX","name":"Jacksonville FL","scan_time":"2026-08-14T00:58:12Z","stale":false,"bins":25,"density_birds_km3":56.36166666666667,"heading_deg":183.99999999999997,"speed_ms":5.760000000000001,"peak_altitude_m":0.0,"u_ms":-0.4,"v_ms":-5.739999999999999}},{"type":"Feature","geometry":{"type":"Point","coordinates":[-88.0847,41.6045]},"properties":{"site":"KLOT","name":"Chicago IL","scan_time":"2026-08-14T01:01:22Z","stale":false,"bins":25,"density_birds_km3":2.6053333333333337,"heading_deg":252.3,"speed_ms":8.57,"peak_altitude_m":200.0,"u_ms":-8.16,"v_ms":-2.6}},{"type":"Feature","geometry":{"type":"Point","coordinates":[-78.4292,33.9892]},"properties":{"site":"KLTX","name":"Wilmington NC","scan_time":"2026-08-14T00:59:15Z","stale":false,"bins":25,"density_birds_km3":4.82,"heading_deg":56.52096059908112,"speed_ms":7.116754721965394,"peak_altitude_m":0.0,"u_ms":4.4231620657773085,"v_ms":3.3526588297450797}},{"type":"Feature","geometry":{"type":"Point","coordinates":[-77.4778,38.9753]},"properties":{"site":"KLWX","name":"Sterling VA","scan_time":"2026-08-14T01:03:21Z","stale":false,"bins":25,"density_birds_km3":18.893125,"heading_deg":247.56027684925883,"speed_ms":2.8008881446751506,"peak_altitude_m":0.0,"u_ms":-2.4974035498995315,"v_ms":-0.9912823174815806}},{"type":"Feature","geometry":{"type":"Point","coordinates":[-76.8762,34.7759]},"properties":{"site":"KMHX","name":"Morehead City NC","scan_time":"2026-08-14T01:01:27Z","stale":false,"bins":25,"density_birds_km3":6.093125,"heading_deg":37.08764283762373,"speed_ms":7.839933120691429,"peak_altitude_m":0.0,"u_ms":4.460761395205268,"v_ms":6.2234417121103}},{"type":"Feature","geometry":{"type":"Point","coordinates":[-80.6542,28.1133]},"properties":{"site":"KMLB","name":"Melbourne FL","scan_time":"2026-08-14T01:00:27Z","stale":false,"bins":25,"density_birds_km3":17.17875,"heading_deg":239.46017909116392,"speed_ms":3.9625247416678793,"peak_altitude_m":0.0,"u_ms":-2.492180541405909,"v_ms":-1.8947223839324696}},{"type":"Feature","geometry":{"type":"Point","coordinates":[-86.5625,36.2472]},"properties":{"site":"KOHX","name":"Nashville TN","scan_time":"2026-08-14T01:01:10Z","stale":false,"bins":25,"density_birds_km3":10.856,"heading_deg":28.11965558872037,"speed_ms":6.128781012036354,"peak_altitude_m":200.0,"u_ms":2.892667649226234,"v_ms":5.381569024809629}},{"type":"Feature","geometry":{"type":"Point","coordinates":[-72.8639,40.8655]},"properties":{"site":"KOKX","name":"Upton NY","scan_time":"2026-08-14T01:01:00Z","stale":false,"bins":25,"density_birds_km3":3.490625,"heading_deg":119.3472770065591,"speed_ms":5.848374000410087,"peak_altitude_m":0.0,"u_ms":3.2728767685052285,"v_ms":-3.6036600369079346}},{"type":"Feature","geometry":{"type":"Point","coordinates":[-80.2183,40.5317]},"properties":{"site":"KPBZ","name":"Pittsburgh PA","scan_time":"2026-08-14T00:58:03Z","stale":false,"bins":25,"density_birds_km3":5.344285714285713,"heading_deg":176.09422741752078,"speed_ms":3.567920522591181,"peak_altitude_m":400.0,"u_ms":0.13204953728905824,"v_ms":-3.5246951551442565}},{"type":"Feature","geometry":{"type":"Point","coordinates":[-78.4899,35.6655]},"properties":{"site":"KRAX","name":"Raleigh NC","scan_time":"2026-08-14T01:02:00Z","stale":false,"bins":25,"density_birds_km3":6.483750000000001,"heading_deg":100.18070626246283,"speed_ms":4.028598314056067,"peak_altitude_m":0.0,"u_ms":3.9267771025289155,"v_ms":-0.7556341893746323}},{"type":"Feature","geometry":{"type":"Point","coordinates":[-82.4017,27.7055]},"properties":{"site":"KTBW","name":"Tampa FL","scan_time":"2026-08-14T01:02:12Z","stale":false,"bins":25,"density_birds_km3":20.53125,"heading_deg":130.55535028080965,"speed_ms":7.717378306797771,"peak_altitude_m":0.0,"u_ms":5.833116076592895,"v_ms":-4.919286431854851}}]}