{"type":"FeatureCollection","frame":"2026-08-23T07","site_count":20,"fresh_count":20,"failures":{},"features":[{"type":"Feature","geometry":{"type":"Point","coordinates":[-77.0073,36.984]},"properties":{"site":"KAKQ","name":"Wakefield VA","scan_time":"2026-08-23T07:00:13Z","stale":false,"bins":25,"density_birds_km3":4.379375,"heading_deg":288.2626308383219,"speed_ms":3.3922537824721664,"peak_altitude_m":0.0,"u_ms":-1.975343990864973,"v_ms":0.5956551527262346}},{"type":"Feature","geometry":{"type":"Point","coordinates":[-71.1369,41.9558]},"properties":{"site":"KBOX","name":"Boston MA","scan_time":"2026-08-23T07:01:25Z","stale":false,"bins":25,"density_birds_km3":0.679375,"heading_deg":267.5483826814467,"speed_ms":4.24951241950322,"peak_altitude_m":0.0,"u_ms":-4.211223551057958,"v_ms":-0.20327506899724013}},{"type":"Feature","geometry":{"type":"Point","coordinates":[-78.7369,42.9489]},"properties":{"site":"KBUF","name":"Buffalo NY","scan_time":"2026-08-23T06:57:45Z","stale":false,"bins":25,"density_birds_km3":0.8526666666666667,"heading_deg":49.42114862031058,"speed_ms":8.691912621359222,"peak_altitude_m":200.0,"u_ms":6.605553398058252,"v_ms":5.484582524271844}},{"type":"Feature","geometry":{"type":"Point","coordinates":[-81.8597,41.4131]},"properties":{"site":"KCLE","name":"Cleveland OH","scan_time":"2026-08-23T06:59:02Z","stale":false,"bins":25,"density_birds_km3":3.288,"heading_deg":135.56941799721187,"speed_ms":8.98948499594485,"peak_altitude_m":800.0,"u_ms":6.2643552311435515,"v_ms":-6.423953771289537}},{"type":"Feature","geometry":{"type":"Point","coordinates":[-81.0423,32.6555]},"properties":{"site":"KCLX","name":"Charleston SC","scan_time":"2026-08-23T06:59:44Z","stale":false,"bins":25,"density_birds_km3":1.21875,"heading_deg":27.037668288894213,"speed_ms":6.932447408927656,"peak_altitude_m":0.0,"u_ms":1.8233709594663932,"v_ms":3.136998460749102}},{"type":"Feature","geometry":{"type":"Point","coordinates":[-74.4108,39.947]},"properties":{"site":"KDIX","name":"Philadelphia PA","scan_time":"2026-08-23T07:01:02Z","stale":false,"bins":25,"density_birds_km3":0.18937500000000002,"heading_deg":313.83905093977927,"speed_ms":6.507574750830565,"peak_altitude_m":200.0,"u_ms":-4.210498338870432,"v_ms":4.347541528239202}},{"type":"Feature","geometry":{"type":"Point","coordinates":[-84.5658,33.3636]},"properties":{"site":"KFFC","name":"Atlanta GA","scan_time":"2026-08-23T07:02:56Z","stale":false,"bins":25,"density_birds_km3":20.311333333333334,"heading_deg":185.2846181640061,"speed_ms":6.3692772507959425,"peak_altitude_m":400.0,"u_ms":-0.389716742705222,"v_ms":-6.1805261430400105}},{"type":"Feature","geometry":{"type":"Point","coordinates":[-85.5449,42.8939]},"properties":{"site":"KGRR","name":"Grand Rapids MI","scan_time":"2026-08-23T06:55:42Z","stale":false,"bins":25,"density_birds_km3":16.029333333333334,"heading_deg":187.58089835510663,"speed_ms":14.180018300544857,"peak_altitude_m":600.0,"u_ms":-1.8823566110718297,"v_ms":-14.02699039221395}},{"type":"Feature","geometry":{"type":"Point","coordinates":[-83.8217,39.4203]},"properties":{"site":"KILN","name":"Wilmington OH","scan_time":"2026-08-23T06:59:53Z","stale":false,"bins":25,"density_birds_km3":20.733999999999998,"heading_deg":146.79343407787846,"speed_ms":10.532836929607358,"peak_altitude_m":600.0,"u_ms":5.739859150400361,"v_ms":-8.778853587162748}},{"type":"Feature","geometry":{"type":"Point","coordinates":[-81.7019,30.4846]},"properties":{"site":"KJAX","name":"Jacksonville FL","scan_time":"2026-08-23T07:01:29Z","stale":false,"bins":25,"density_birds_km3":4.886875,"heading_deg":160.88532683945306,"speed_ms":5.282266495836002,"peak_altitude_m":0.0,"u_ms":1.6360871236386934,"v_ms":-4.793356822549647}},{"type":"Feature","geometry":{"type":"Point","coordinates":[-88.0847,41.6045]},"properties":{"site":"KLOT","name":"Chicago IL","scan_time":"2026-08-23T07:02:32Z","stale":false,"bins":25,"density_birds_km3":21.602666666666668,"heading_deg":172.4718689263155,"speed_ms":10.533660967781755,"peak_altitude_m":400.0,"u_ms":1.405325885693124,"v_ms":-10.313349586470807}},{"type":"Feature","geometry":{"type":"Point","coordinates":[-78.4292,33.9892]},"properties":{"site":"KLTX","name":"Wilmington NC","scan_time":"2026-08-23T06:58:32Z","stale":false,"bins":25,"density_birds_km3":5.5675,"heading_deg":159.39688555514928,"speed_ms":6.4975909295015715,"peak_altitude_m":0.0,"u_ms":2.2247395599461157,"v_ms":-5.352508980691514}},{"type":"Feature","geometry":{"type":"Point","coordinates":[-77.4778,38.9753]},"properties":{"site":"KLWX","name":"Sterling VA","scan_time":"2026-08-23T07:00:52Z","stale":false,"bins":25,"density_birds_km3":2.58,"heading_deg":102.82975430257656,"speed_ms":3.6993984962406024,"peak_altitude_m":0.0,"u_ms":3.5936672325976233,"v_ms":-0.7460829493087558}},{"type":"Feature","geometry":{"type":"Point","coordinates":[-76.8762,34.7759]},"properties":{"site":"KMHX","name":"Morehead City NC","scan_time":"2026-08-23T07:00:31Z","stale":false,"bins":25,"density_birds_km3":1.1700000000000002,"heading_deg":90.61767889641303,"speed_ms":7.670448717948717,"peak_altitude_m":0.0,"u_ms":7.6047382478632475,"v_ms":0.13614316239316238}},{"type":"Feature","geometry":{"type":"Point","coordinates":[-80.6542,28.1133]},"properties":{"site":"KMLB","name":"Melbourne FL","scan_time":"2026-08-23T06:58:12Z","stale":false,"bins":25,"density_birds_km3":2.66125,"heading_deg":110.99286607816755,"speed_ms":4.955347581023956,"peak_altitude_m":0.0,"u_ms":4.445845467355566,"v_ms":-1.8763621418506342}},{"type":"Feature","geometry":{"type":"Point","coordinates":[-86.5625,36.2472]},"properties":{"site":"KOHX","name":"Nashville TN","scan_time":"2026-08-23T06:59:16Z","stale":false,"bins":25,"density_birds_km3":19.77266666666667,"heading_deg":201.48848636895204,"speed_ms":7.95449914022725,"peak_altitude_m":400.0,"u_ms":-2.959520213088776,"v_ms":-7.067201523989346}},{"type":"Feature","geometry":{"type":"Point","coordinates":[-72.8639,40.8655]},"properties":{"site":"KOKX","name":"Upton NY","scan_time":"2026-08-23T06:58:19Z","stale":false,"bins":25,"density_birds_km3":1.275,"heading_deg":296.639586058262,"speed_ms":4.665784313725491,"peak_altitude_m":0.0,"u_ms":-4.132529411764707,"v_ms":2.0999852941176473}},{"type":"Feature","geometry":{"type":"Point","coordinates":[-80.2183,40.5317]},"properties":{"site":"KPBZ","name":"Pittsburgh PA","scan_time":"2026-08-23T06:59:24Z","stale":false,"bins":25,"density_birds_km3":1.1878571428571427,"heading_deg":130.46404846485916,"speed_ms":9.271659651232714,"peak_altitude_m":800.0,"u_ms":6.875748647023452,"v_ms":-6.085117257967529}},{"type":"Feature","geometry":{"type":"Point","coordinates":[-78.4899,35.6655]},"properties":{"site":"KRAX","name":"Raleigh NC","scan_time":"2026-08-23T06:59:16Z","stale":false,"bins":25,"density_birds_km3":2.190625,"heading_deg":98.76270577596635,"speed_ms":5.42517408675799,"peak_altitude_m":0.0,"u_ms":5.222548515981735,"v_ms":-0.7681335616438357}},{"type":"Feature","geometry":{"type":"Point","coordinates":[-82.4017,27.7055]},"properties":{"site":"KTBW","name":"Tampa FL","scan_time":"2026-08-23T06:59:49Z","stale":false,"bins":25,"density_birds_km3":1.741875,"heading_deg":3.8049321441894537,"speed_ms":3.261603875134553,"peak_altitude_m":0.0,"u_ms":0.1901578758521708,"v_ms":3.0941585934696803}}]}