{"type":"FeatureCollection","frame":"2026-08-15T08","site_count":20,"fresh_count":20,"failures":{},"features":[{"type":"Feature","geometry":{"type":"Point","coordinates":[-77.0073,36.984]},"properties":{"site":"KAKQ","name":"Wakefield VA","scan_time":"2026-08-15T07:58:50Z","stale":false,"bins":25,"density_birds_km3":5.139375,"heading_deg":211.6300105796932,"speed_ms":7.080976885644768,"peak_altitude_m":400.0,"u_ms":-3.610965936739659,"v_ms":-5.932373479318734}},{"type":"Feature","geometry":{"type":"Point","coordinates":[-71.1369,41.9558]},"properties":{"site":"KBOX","name":"Boston MA","scan_time":"2026-08-15T07:57:08Z","stale":false,"bins":25,"density_birds_km3":2.00375,"heading_deg":230.37391234560022,"speed_ms":5.600415106117353,"peak_altitude_m":400.0,"u_ms":-3.9100468164794004,"v_ms":-3.4168008739076154}},{"type":"Feature","geometry":{"type":"Point","coordinates":[-78.7369,42.9489]},"properties":{"site":"KBUF","name":"Buffalo NY","scan_time":"2026-08-15T07:57:02Z","stale":false,"bins":25,"density_birds_km3":2.146666666666667,"heading_deg":268.730534039629,"speed_ms":4.375891304347825,"peak_altitude_m":200.0,"u_ms":-2.8707639751552794,"v_ms":0.1402329192546584}},{"type":"Feature","geometry":{"type":"Point","coordinates":[-81.8597,41.4131]},"properties":{"site":"KCLE","name":"Cleveland OH","scan_time":"2026-08-15T07:59:09Z","stale":false,"bins":25,"density_birds_km3":7.292,"heading_deg":246.30082041797806,"speed_ms":8.591474658601411,"peak_altitude_m":600.0,"u_ms":-7.806488864448721,"v_ms":-3.488506094766749}},{"type":"Feature","geometry":{"type":"Point","coordinates":[-81.0423,32.6555]},"properties":{"site":"KCLX","name":"Charleston SC","scan_time":"2026-08-15T08:00:32Z","stale":false,"bins":25,"density_birds_km3":2.26625,"heading_deg":120.01647393699213,"speed_ms":5.991310706401766,"peak_altitude_m":0.0,"u_ms":4.993203642384105,"v_ms":-2.8748013245033115}},{"type":"Feature","geometry":{"type":"Point","coordinates":[-74.4108,39.947]},"properties":{"site":"KDIX","name":"Philadelphia PA","scan_time":"2026-08-15T08:00:58Z","stale":false,"bins":25,"density_birds_km3":6.41875,"heading_deg":215.68628385184593,"speed_ms":9.573018221003135,"peak_altitude_m":200.0,"u_ms":-5.708783307210032,"v_ms":-7.558807797805642}},{"type":"Feature","geometry":{"type":"Point","coordinates":[-84.5658,33.3636]},"properties":{"site":"KFFC","name":"Atlanta GA","scan_time":"2026-08-15T08:01:39Z","stale":false,"bins":25,"density_birds_km3":14.169333333333332,"heading_deg":171.63106443006222,"speed_ms":5.402693737354727,"peak_altitude_m":400.0,"u_ms":1.1603161906554367,"v_ms":-4.525311250176445}},{"type":"Feature","geometry":{"type":"Point","coordinates":[-85.5449,42.8939]},"properties":{"site":"KGRR","name":"Grand Rapids MI","scan_time":"2026-08-15T07:59:41Z","stale":false,"bins":25,"density_birds_km3":1.2706666666666666,"heading_deg":293.41356159892024,"speed_ms":9.924206932773108,"peak_altitude_m":200.0,"u_ms":-8.936139705882352,"v_ms":3.943067226890757}},{"type":"Feature","geometry":{"type":"Point","coordinates":[-83.8217,39.4203]},"properties":{"site":"KILN","name":"Wilmington OH","scan_time":"2026-08-15T07:57:42Z","stale":false,"bins":25,"density_birds_km3":25.892666666666667,"heading_deg":233.50921843642726,"speed_ms":7.899808182496976,"peak_altitude_m":600.0,"u_ms":-6.138949509513633,"v_ms":-4.072696773861325}},{"type":"Feature","geometry":{"type":"Point","coordinates":[-81.7019,30.4846]},"properties":{"site":"KJAX","name":"Jacksonville FL","scan_time":"2026-08-15T08:01:57Z","stale":false,"bins":25,"density_birds_km3":7.96,"heading_deg":167.95126409579197,"speed_ms":6.020368276403612,"peak_altitude_m":200.0,"u_ms":1.225133097762073,"v_ms":-5.86790969768355}},{"type":"Feature","geometry":{"type":"Point","coordinates":[-88.0847,41.6045]},"properties":{"site":"KLOT","name":"Chicago IL","scan_time":"2026-08-15T08:02:41Z","stale":false,"bins":25,"density_birds_km3":1.55,"heading_deg":322.75057504274923,"speed_ms":6.790584946236559,"peak_altitude_m":400.0,"u_ms":-3.806305376344086,"v_ms":5.313002150537635}},{"type":"Feature","geometry":{"type":"Point","coordinates":[-78.4292,33.9892]},"properties":{"site":"KLTX","name":"Wilmington NC","scan_time":"2026-08-15T08:01:47Z","stale":false,"bins":25,"density_birds_km3":2.31875,"heading_deg":131.31676449979952,"speed_ms":5.768770558101913,"peak_altitude_m":0.0,"u_ms":4.342895659207334,"v_ms":-3.6562577514154757}},{"type":"Feature","geometry":{"type":"Point","coordinates":[-77.4778,38.9753]},"properties":{"site":"KLWX","name":"Sterling VA","scan_time":"2026-08-15T08:01:08Z","stale":false,"bins":25,"density_birds_km3":16.794666666666668,"heading_deg":234.59276287174728,"speed_ms":7.804252077562327,"peak_altitude_m":400.0,"u_ms":-5.802021753299659,"v_ms":-4.5567736679159205}},{"type":"Feature","geometry":{"type":"Point","coordinates":[-76.8762,34.7759]},"properties":{"site":"KMHX","name":"Morehead City NC","scan_time":"2026-08-15T07:59:35Z","stale":false,"bins":25,"density_birds_km3":1.420625,"heading_deg":99.8212563033502,"speed_ms":9.112814977973567,"peak_altitude_m":0.0,"u_ms":8.713387665198237,"v_ms":-1.6506211453744493}},{"type":"Feature","geometry":{"type":"Point","coordinates":[-80.6542,28.1133]},"properties":{"site":"KMLB","name":"Melbourne FL","scan_time":"2026-08-15T07:58:12Z","stale":false,"bins":25,"density_birds_km3":1.36625,"heading_deg":351.36966930906084,"speed_ms":4.1109972552607505,"peak_altitude_m":0.0,"u_ms":-0.6279734675205856,"v_ms":4.054464775846295}},{"type":"Feature","geometry":{"type":"Point","coordinates":[-86.5625,36.2472]},"properties":{"site":"KOHX","name":"Nashville TN","scan_time":"2026-08-15T07:57:20Z","stale":false,"bins":25,"density_birds_km3":18.196,"heading_deg":123.05762035473315,"speed_ms":3.305604122641159,"peak_altitude_m":200.0,"u_ms":1.9008452897341785,"v_ms":-1.5865636006376747}},{"type":"Feature","geometry":{"type":"Point","coordinates":[-72.8639,40.8655]},"properties":{"site":"KOKX","name":"Upton NY","scan_time":"2026-08-15T08:00:52Z","stale":false,"bins":25,"density_birds_km3":2.65,"heading_deg":220.78341463396177,"speed_ms":8.03983293556086,"peak_altitude_m":200.0,"u_ms":-5.078573322726068,"v_ms":-5.933259082471493}},{"type":"Feature","geometry":{"type":"Point","coordinates":[-80.2183,40.5317]},"properties":{"site":"KPBZ","name":"Pittsburgh PA","scan_time":"2026-08-15T07:56:40Z","stale":false,"bins":25,"density_birds_km3":9.170714285714284,"heading_deg":241.7665603848703,"speed_ms":6.042857811038353,"peak_altitude_m":600.0,"u_ms":-4.964374805113813,"v_ms":-3.032107888992828}},{"type":"Feature","geometry":{"type":"Point","coordinates":[-78.4899,35.6655]},"properties":{"site":"KRAX","name":"Raleigh NC","scan_time":"2026-08-15T07:58:31Z","stale":false,"bins":25,"density_birds_km3":8.8125,"heading_deg":193.59865225843032,"speed_ms":7.814811347517731,"peak_altitude_m":400.0,"u_ms":-1.7208113475177305,"v_ms":-7.434655319148936}},{"type":"Feature","geometry":{"type":"Point","coordinates":[-82.4017,27.7055]},"properties":{"site":"KTBW","name":"Tampa FL","scan_time":"2026-08-15T08:02:37Z","stale":false,"bins":25,"density_birds_km3":2.3575,"heading_deg":302.996935522522,"speed_ms":6.2133651804670915,"peak_altitude_m":0.0,"u_ms":-5.1714835456475585,"v_ms":3.3672505307855625}}]}