{"type":"FeatureCollection","frame":"2026-08-11T02","site_count":20,"fresh_count":20,"failures":{},"features":[{"type":"Feature","geometry":{"type":"Point","coordinates":[-77.0073,36.984]},"properties":{"site":"KAKQ","name":"Wakefield VA","scan_time":"2026-08-11T01:58:38Z","stale":false,"bins":25,"density_birds_km3":15.72625,"heading_deg":197.67088410174435,"speed_ms":4.001872665129958,"peak_altitude_m":200.0,"u_ms":-1.0090740004769096,"v_ms":-3.0394761942611876}},{"type":"Feature","geometry":{"type":"Point","coordinates":[-71.1369,41.9558]},"properties":{"site":"KBOX","name":"Boston MA","scan_time":"2026-08-11T02:03:14Z","stale":false,"bins":25,"density_birds_km3":1.46625,"heading_deg":28.386891843905154,"speed_ms":7.272898550724637,"peak_altitude_m":0.0,"u_ms":3.5620119352088664,"v_ms":5.937506393861892}},{"type":"Feature","geometry":{"type":"Point","coordinates":[-78.7369,42.9489]},"properties":{"site":"KBUF","name":"Buffalo NY","scan_time":"2026-08-11T02:03:47Z","stale":false,"bins":25,"density_birds_km3":1.154,"heading_deg":91.57597495332102,"speed_ms":8.370363951473138,"peak_altitude_m":200.0,"u_ms":7.662830733679954,"v_ms":-0.41864240323512436}},{"type":"Feature","geometry":{"type":"Point","coordinates":[-81.8597,41.4131]},"properties":{"site":"KCLE","name":"Cleveland OH","scan_time":"2026-08-11T02:00:00Z","stale":false,"bins":25,"density_birds_km3":3.9739999999999998,"heading_deg":54.81162223307469,"speed_ms":1.559191783128473,"peak_altitude_m":200.0,"u_ms":0.31683616770500084,"v_ms":-0.2146607172924734}},{"type":"Feature","geometry":{"type":"Point","coordinates":[-81.0423,32.6555]},"properties":{"site":"KCLX","name":"Charleston SC","scan_time":"2026-08-11T01:57:31Z","stale":false,"bins":25,"density_birds_km3":1.631875,"heading_deg":38.57343053576398,"speed_ms":5.9000459770114935,"peak_altitude_m":0.0,"u_ms":3.0502413793103447,"v_ms":3.8474482758620683}},{"type":"Feature","geometry":{"type":"Point","coordinates":[-74.4108,39.947]},"properties":{"site":"KDIX","name":"Philadelphia PA","scan_time":"2026-08-11T02:01:30Z","stale":false,"bins":25,"density_birds_km3":1.660625,"heading_deg":80.78320387114684,"speed_ms":7.842773805043281,"peak_altitude_m":0.0,"u_ms":7.729683853970644,"v_ms":1.2447873541588257}},{"type":"Feature","geometry":{"type":"Point","coordinates":[-84.5658,33.3636]},"properties":{"site":"KFFC","name":"Atlanta GA","scan_time":"2026-08-11T01:58:00Z","stale":false,"bins":25,"density_birds_km3":10.596,"heading_deg":39.12624399475778,"speed_ms":2.9294853403800176,"peak_altitude_m":200.0,"u_ms":1.0307034100918586,"v_ms":1.6986925883981379}},{"type":"Feature","geometry":{"type":"Point","coordinates":[-85.5449,42.8939]},"properties":{"site":"KGRR","name":"Grand Rapids MI","scan_time":"2026-08-11T02:00:32Z","stale":false,"bins":25,"density_birds_km3":13.838333333333333,"heading_deg":161.61788328566328,"speed_ms":4.594505028474495,"peak_altitude_m":200.0,"u_ms":1.3809148188537503,"v_ms":-4.309672240397432}},{"type":"Feature","geometry":{"type":"Point","coordinates":[-83.8217,39.4203]},"properties":{"site":"KILN","name":"Wilmington OH","scan_time":"2026-08-11T01:58:08Z","stale":false,"bins":25,"density_birds_km3":3.7071428571428577,"heading_deg":72.1508005968726,"speed_ms":10.822091216889065,"peak_altitude_m":200.0,"u_ms":10.292376020713006,"v_ms":2.9750846444931294}},{"type":"Feature","geometry":{"type":"Point","coordinates":[-81.7019,30.4846]},"properties":{"site":"KJAX","name":"Jacksonville FL","scan_time":"2026-08-11T01:59:44Z","stale":false,"bins":25,"density_birds_km3":8.31375,"heading_deg":345.36602704035687,"speed_ms":3.273542324462487,"peak_altitude_m":0.0,"u_ms":-0.7131694482032775,"v_ms":2.243257404901519}},{"type":"Feature","geometry":{"type":"Point","coordinates":[-88.0847,41.6045]},"properties":{"site":"KLOT","name":"Chicago IL","scan_time":"2026-08-11T02:00:52Z","stale":false,"bins":25,"density_birds_km3":15.389333333333333,"heading_deg":181.57402303923172,"speed_ms":3.4423734645875075,"peak_altitude_m":200.0,"u_ms":0.2636923948079102,"v_ms":-1.9717728025089294}},{"type":"Feature","geometry":{"type":"Point","coordinates":[-78.4292,33.9892]},"properties":{"site":"KLTX","name":"Wilmington NC","scan_time":"2026-08-11T01:58:12Z","stale":false,"bins":25,"density_birds_km3":4.11375,"heading_deg":86.07254953255129,"speed_ms":3.652732248745629,"peak_altitude_m":0.0,"u_ms":3.4809898129846433,"v_ms":-0.03649384217728449}},{"type":"Feature","geometry":{"type":"Point","coordinates":[-77.4778,38.9753]},"properties":{"site":"KLWX","name":"Sterling VA","scan_time":"2026-08-11T01:59:49Z","stale":false,"bins":25,"density_birds_km3":4.9625,"heading_deg":76.94590162006503,"speed_ms":5.637712095621671,"peak_altitude_m":0.0,"u_ms":2.9297180719760947,"v_ms":-0.8019929842795893}},{"type":"Feature","geometry":{"type":"Point","coordinates":[-76.8762,34.7759]},"properties":{"site":"KMHX","name":"Morehead City NC","scan_time":"2026-08-11T01:58:43Z","stale":false,"bins":25,"density_birds_km3":1.586875,"heading_deg":109.05513259913857,"speed_ms":8.238582118944466,"peak_altitude_m":0.0,"u_ms":7.770677432059866,"v_ms":-2.620957069712485}},{"type":"Feature","geometry":{"type":"Point","coordinates":[-80.6542,28.1133]},"properties":{"site":"KMLB","name":"Melbourne FL","scan_time":"2026-08-11T01:57:48Z","stale":false,"bins":25,"density_birds_km3":3.185,"heading_deg":303.722716876119,"speed_ms":4.2809451758695225,"peak_altitude_m":0.0,"u_ms":-3.068327765769306,"v_ms":2.0947671448221654}},{"type":"Feature","geometry":{"type":"Point","coordinates":[-86.5625,36.2472]},"properties":{"site":"KOHX","name":"Nashville TN","scan_time":"2026-08-11T01:57:05Z","stale":false,"bins":25,"density_birds_km3":5.762666666666666,"heading_deg":46.43835242563631,"speed_ms":7.9073668914206,"peak_altitude_m":200.0,"u_ms":5.616278772378517,"v_ms":5.404207161125321}},{"type":"Feature","geometry":{"type":"Point","coordinates":[-72.8639,40.8655]},"properties":{"site":"KOKX","name":"Upton NY","scan_time":"2026-08-11T02:00:44Z","stale":false,"bins":25,"density_birds_km3":0.735625,"heading_deg":93.64057407269227,"speed_ms":8.250184372256365,"peak_altitude_m":0.0,"u_ms":8.197146619841966,"v_ms":-0.3414047410008779}},{"type":"Feature","geometry":{"type":"Point","coordinates":[-80.2183,40.5317]},"properties":{"site":"KPBZ","name":"Pittsburgh PA","scan_time":"2026-08-11T01:59:49Z","stale":false,"bins":25,"density_birds_km3":1.4321428571428572,"heading_deg":53.54225730517904,"speed_ms":7.098768898488121,"peak_altitude_m":400.0,"u_ms":5.009422246220303,"v_ms":1.4213120950323972}},{"type":"Feature","geometry":{"type":"Point","coordinates":[-78.4899,35.6655]},"properties":{"site":"KRAX","name":"Raleigh NC","scan_time":"2026-08-11T01:57:48Z","stale":false,"bins":25,"density_birds_km3":2.125,"heading_deg":63.84865363124637,"speed_ms":7.563470852017937,"peak_altitude_m":0.0,"u_ms":6.511010463378176,"v_ms":2.974182361733931}},{"type":"Feature","geometry":{"type":"Point","coordinates":[-82.4017,27.7055]},"properties":{"site":"KTBW","name":"Tampa FL","scan_time":"2026-08-11T01:58:04Z","stale":false,"bins":25,"density_birds_km3":17.376875000000002,"heading_deg":166.99447956995348,"speed_ms":6.112346509369492,"peak_altitude_m":0.0,"u_ms":1.0851789375247278,"v_ms":-5.624865302305506}}]}