{"type":"FeatureCollection","frame":"2026-08-16T02","site_count":20,"fresh_count":19,"failures":{"KCLX":"RuntimeError('no scan within 20 min of 2026-08-16T02:00Z')"},"features":[{"type":"Feature","geometry":{"type":"Point","coordinates":[-77.0073,36.984]},"properties":{"site":"KAKQ","name":"Wakefield VA","scan_time":"2026-08-16T02:03:29Z","stale":false,"bins":25,"density_birds_km3":13.920625,"heading_deg":257.6985620664838,"speed_ms":4.86458465728552,"peak_altitude_m":0.0,"u_ms":-3.981368588288697,"v_ms":-0.5637176577394462}},{"type":"Feature","geometry":{"type":"Point","coordinates":[-71.1369,41.9558]},"properties":{"site":"KBOX","name":"Boston MA","scan_time":"2026-08-16T02:04:03Z","stale":false,"bins":25,"density_birds_km3":3.494375,"heading_deg":291.78087488793767,"speed_ms":5.365275237582931,"peak_altitude_m":200.0,"u_ms":-2.4374000358615744,"v_ms":1.212773892773893}},{"type":"Feature","geometry":{"type":"Point","coordinates":[-78.7369,42.9489]},"properties":{"site":"KBUF","name":"Buffalo NY","scan_time":"2026-08-16T02:02:11Z","stale":false,"bins":25,"density_birds_km3":8.168666666666667,"heading_deg":266.5634466312988,"speed_ms":9.086487390843057,"peak_altitude_m":400.0,"u_ms":-8.67456051579205,"v_ms":-0.7019570717375335}},{"type":"Feature","geometry":{"type":"Point","coordinates":[-81.8597,41.4131]},"properties":{"site":"KCLE","name":"Cleveland OH","scan_time":"2026-08-16T01:58:59Z","stale":false,"bins":25,"density_birds_km3":5.85,"heading_deg":300.34862497745587,"speed_ms":7.376163055872292,"peak_altitude_m":400.0,"u_ms":-5.967632839224629,"v_ms":3.6534446978335233}},{"type":"Feature","geometry":{"type":"Point","coordinates":[-74.4108,39.947]},"properties":{"site":"KDIX","name":"Philadelphia PA","scan_time":"2026-08-16T02:03:26Z","stale":false,"bins":25,"density_birds_km3":8.3025,"heading_deg":239.25980953052994,"speed_ms":5.801540202142103,"peak_altitude_m":400.0,"u_ms":-1.3119263840699955,"v_ms":-3.049300799517272}},{"type":"Feature","geometry":{"type":"Point","coordinates":[-84.5658,33.3636]},"properties":{"site":"KFFC","name":"Atlanta GA","scan_time":"2026-08-16T01:57:50Z","stale":false,"bins":25,"density_birds_km3":26.57,"heading_deg":185.8958648688654,"speed_ms":3.9450430309873292,"peak_altitude_m":400.0,"u_ms":-0.8694126207502194,"v_ms":-3.186660895747083}},{"type":"Feature","geometry":{"type":"Point","coordinates":[-85.5449,42.8939]},"properties":{"site":"KGRR","name":"Grand Rapids MI","scan_time":"2026-08-16T01:56:13Z","stale":false,"bins":25,"density_birds_km3":2.969333333333333,"heading_deg":290.45393830842613,"speed_ms":5.0627438202247195,"peak_altitude_m":200.0,"u_ms":-4.4686966292134835,"v_ms":1.6878}},{"type":"Feature","geometry":{"type":"Point","coordinates":[-83.8217,39.4203]},"properties":{"site":"KILN","name":"Wilmington OH","scan_time":"2026-08-16T01:59:47Z","stale":false,"bins":25,"density_birds_km3":7.988,"heading_deg":32.78244370486711,"speed_ms":6.725967990414242,"peak_altitude_m":200.0,"u_ms":2.872757617254365,"v_ms":3.9843444026018484}},{"type":"Feature","geometry":{"type":"Point","coordinates":[-81.7019,30.4846]},"properties":{"site":"KJAX","name":"Jacksonville FL","scan_time":"2026-08-16T02:02:07Z","stale":false,"bins":25,"density_birds_km3":7.386875,"heading_deg":9.846642868292147,"speed_ms":3.6344113210895217,"peak_altitude_m":0.0,"u_ms":0.14747582290834882,"v_ms":1.1713530298997425}},{"type":"Feature","geometry":{"type":"Point","coordinates":[-88.0847,41.6045]},"properties":{"site":"KLOT","name":"Chicago IL","scan_time":"2026-08-16T01:58:16Z","stale":false,"bins":25,"density_birds_km3":4.178,"heading_deg":17.079129115253156,"speed_ms":6.073070020829994,"peak_altitude_m":200.0,"u_ms":1.7357939432783207,"v_ms":5.440677775997436}},{"type":"Feature","geometry":{"type":"Point","coordinates":[-78.4292,33.9892]},"properties":{"site":"KLTX","name":"Wilmington NC","scan_time":"2026-08-16T01:59:48Z","stale":false,"bins":25,"density_birds_km3":11.7975,"heading_deg":214.03174507965252,"speed_ms":6.644108564151543,"peak_altitude_m":200.0,"u_ms":-4.4640523187944385,"v_ms":-4.586617319325056}},{"type":"Feature","geometry":{"type":"Point","coordinates":[-77.4778,38.9753]},"properties":{"site":"KLWX","name":"Sterling VA","scan_time":"2026-08-16T01:59:36Z","stale":false,"bins":25,"density_birds_km3":18.15375,"heading_deg":306.9979407874747,"speed_ms":3.54931627223078,"peak_altitude_m":200.0,"u_ms":-2.111126242823134,"v_ms":1.8603525416608317}},{"type":"Feature","geometry":{"type":"Point","coordinates":[-76.8762,34.7759]},"properties":{"site":"KMHX","name":"Morehead City NC","scan_time":"2026-08-16T02:00:05Z","stale":false,"bins":25,"density_birds_km3":18.790625,"heading_deg":251.56285031156256,"speed_ms":6.244296461502612,"peak_altitude_m":0.0,"u_ms":-5.636808029026996,"v_ms":-1.8341203688292667}},{"type":"Feature","geometry":{"type":"Point","coordinates":[-80.6542,28.1133]},"properties":{"site":"KMLB","name":"Melbourne FL","scan_time":"2026-08-16T01:59:28Z","stale":false,"bins":25,"density_birds_km3":8.789375,"heading_deg":313.10571256083347,"speed_ms":3.1017172722747635,"peak_altitude_m":0.0,"u_ms":-2.213001493280239,"v_ms":2.0825520870369054}},{"type":"Feature","geometry":{"type":"Point","coordinates":[-86.5625,36.2472]},"properties":{"site":"KOHX","name":"Nashville TN","scan_time":"2026-08-16T01:57:21Z","stale":false,"bins":25,"density_birds_km3":19.754,"heading_deg":111.64419883402347,"speed_ms":4.759027032499747,"peak_altitude_m":200.0,"u_ms":3.3012956025783806,"v_ms":-0.5497016637980494}},{"type":"Feature","geometry":{"type":"Point","coordinates":[-72.8639,40.8655]},"properties":{"site":"KOKX","name":"Upton NY","scan_time":"2026-08-16T02:02:37Z","stale":false,"bins":25,"density_birds_km3":5.6,"heading_deg":202.60698787140916,"speed_ms":6.828899159663866,"peak_altitude_m":200.0,"u_ms":-3.067813925570228,"v_ms":-5.391540216086435}},{"type":"Feature","geometry":{"type":"Point","coordinates":[-80.2183,40.5317]},"properties":{"site":"KPBZ","name":"Pittsburgh PA","scan_time":"2026-08-16T01:58:56Z","stale":false,"bins":25,"density_birds_km3":6.424285714285714,"heading_deg":279.3884845130316,"speed_ms":4.03288156424581,"peak_altitude_m":400.0,"u_ms":-2.8424748603351957,"v_ms":0.5599798882681565}},{"type":"Feature","geometry":{"type":"Point","coordinates":[-78.4899,35.6655]},"properties":{"site":"KRAX","name":"Raleigh NC","scan_time":"2026-08-16T01:56:46Z","stale":false,"bins":25,"density_birds_km3":24.723125,"heading_deg":244.6696583307828,"speed_ms":6.220449665788942,"peak_altitude_m":200.0,"u_ms":-5.137966376341908,"v_ms":-2.1428359833907233}},{"type":"Feature","geometry":{"type":"Point","coordinates":[-82.4017,27.7055]},"properties":{"site":"KTBW","name":"Tampa FL","scan_time":"2026-08-16T01:59:55Z","stale":false,"bins":25,"density_birds_km3":14.706249999999999,"heading_deg":85.1792952233968,"speed_ms":2.4528618784530383,"peak_altitude_m":0.0,"u_ms":1.7722979175520612,"v_ms":-0.36946068848278796}}]}