{"type":"FeatureCollection","generated_at":"2026-10-05T10:55:08Z","source":{"id":"h5n1","name":"Nextstrain avian-flu H5N1 (genome-focused, open NCBI data)","url":"https://nextstrain.org/avian-flu","charon":"https://nextstrain.org/charon/getAvailable","licence":"No licence is asserted over the build itself (nextstrain.org: source code AGPL-3.0/MIT, \"Screenshots may be used under a CC-BY-4.0 license\"); the underlying sequences and metadata are USDA/NVSL submissions to NCBI GenBank and the SRA, US Government work in the public domain","declined":{"requests":["avian-flu/h5n1/ha/2y","avian-flu/h5n1/ha/all-time"],"reason":"built from GISAID data; the EpiFlu Database Access Agreement bars redistributing Data or derivatives through a separate portal"},"note":"Counts are sequenced samples, not infections: they follow surveillance and sequencing effort (dairy-herd testing, poultry outbreak response, wild-bird surveillance) as much as where the virus is. Aggregated counts only \u2014 no sequences, accessions or per-sample metadata."},"data_end":"2026-08-07","weeks":26,"categories":["poultry","wild bird","cattle","human","other"],"clade_field":["genoflu"],"clades":["B3.13","D1.1"],"datasets":[{"request":"avian-flu/h5n1-cattle-outbreak/ha","url":"https://data.nextstrain.org/avian-flu_h5n1-cattle-outbreak_ha.json","title":"Ongoing influenza A/H5N1 cattle outbreak in North America (HA segment)","updated":"2026-09-28","build_url":"https://github.com/nextstrain/avian-flu","provenance":["USDA","Andersen Lab","GenBank"],"tips":5609,"imprecise_date":790},{"request":"avian-flu/h5n1-d1.1/genome","url":"https://data.nextstrain.org/avian-flu_h5n1-d1.1_genome.json","title":"Full genome analysis of the ongoing influenza A/H5N1 D1.1 outbreak in North America","updated":"2026-09-28","build_url":"https://github.com/nextstrain/avian-flu","provenance":["USDA","Andersen Lab","GenBank"],"tips":6869,"imprecise_date":849}],"counts":{"samples":10839,"outside_window":10003,"in_window":836,"locations":46,"data_end":"2026-08-07"},"features":[{"type":"Feature","geometry":{"type":"Point","coordinates":[-98.89137,38.91696]},"properties":{"loc":"USA","level":"country","country":"USA","region":"North America","n":3,"hosts":{"wild bird":3},"raw_hosts":{"Avian":3},"clades":{"D1.1":3},"weeks":[{"w":"2026-04-10","n":{"wild bird":1},"c":{"D1.1":1}},{"w":"2026-03-06","n":{"wild bird":1},"c":{"D1.1":1}},{"w":"2026-02-27","n":{"wild bird":1},"c":{"D1.1":1}}]}},{"type":"Feature","geometry":{"type":"Point","coordinates":[-86.9023,32.3182]},"properties":{"loc":"Alabama","level":"division","country":"USA","region":"North America","n":1,"hosts":{"wild bird":1},"raw_hosts":{"Avian":1},"clades":{"D1.1":1},"weeks":[{"w":"2026-03-13","n":{"wild bird":1},"c":{"D1.1":1}}]}},{"type":"Feature","geometry":{"type":"Point","coordinates":[-152.21419,65.7977]},"properties":{"loc":"Alaska","level":"division","country":"USA","region":"North America","n":1,"hosts":{"cattle":1},"raw_hosts":{"Cattle":1},"clades":{"B3.13":1},"weeks":[{"w":"2026-06-26","n":{"cattle":1},"c":{"B3.13":1}}]}},{"type":"Feature","geometry":{"type":"Point","coordinates":[-119.69018,36.35704]},"properties":{"loc":"California","level":"division","country":"USA","region":"North America","n":15,"hosts":{"wild bird":15},"raw_hosts":{"Avian":15},"clades":{"D1.1":15},"weeks":[{"w":"2026-05-01","n":{"wild bird":1},"c":{"D1.1":1}},{"w":"2026-04-17","n":{"wild bird":1},"c":{"D1.1":1}},{"w":"2026-04-10","n":{"wild bird":2},"c":{"D1.1":2}},{"w":"2026-04-03","n":{"wild bird":1},"c":{"D1.1":1}},{"w":"2026-03-20","n":{"wild bird":6},"c":{"D1.1":6}},{"w":"2026-02-27","n":{"wild bird":1},"c":{"D1.1":1}},{"w":"2026-02-20","n":{"wild bird":3},"c":{"D1.1":3}}]}},{"type":"Feature","geometry":{"type":"Point","coordinates":[-105.7821,39.5501]},"properties":{"loc":"Colorado","level":"division","country":"USA","region":"North America","n":10,"hosts":{"poultry":2,"wild bird":4,"other":4},"raw_hosts":{"Avian":6,"Nonhuman Mammal":4},"clades":{"D1.1":10},"weeks":[{"w":"2026-05-01","n":{"wild bird":1},"c":{"D1.1":1}},{"w":"2026-03-13","n":{"other":3},"c":{"D1.1":3}},{"w":"2026-02-27","n":{"poultry":2,"wild bird":1},"c":{"D1.1":3}},{"w":"2026-02-20","n":{"other":1},"c":{"D1.1":1}},{"w":"2026-02-13","n":{"wild bird":2},"c":{"D1.1":2}}]}},{"type":"Feature","geometry":{"type":"Point","coordinates":[-72.66977,41.67812]},"properties":{"loc":"Connecticut","level":"division","country":"USA","region":"North America","n":5,"hosts":{"wild bird":5},"raw_hosts":{"Avian":5},"clades":{"D1.1":5},"weeks":[{"w":"2026-04-17","n":{"wild bird":1},"c":{"D1.1":1}},{"w":"2026-04-10","n":{"wild bird":1},"c":{"D1.1":1}},{"w":"2026-02-20","n":{"wild bird":3},"c":{"D1.1":3}}]}},{"type":"Feature","geometry":{"type":"Point","coordinates":[-75.40133,38.69205]},"properties":{"loc":"Delaware","level":"division","country":"USA","region":"North America","n":2,"hosts":{"poultry":2},"raw_hosts":{"Avian":2},"clades":{"D1.1":2},"weeks":[{"w":"2026-02-27","n":{"poultry":2},"c":{"D1.1":2}}]}},{"type":"Feature","geometry":{"type":"Point","coordinates":[-81.5158,27.6648]},"properties":{"loc":"Florida","level":"division","country":"USA","region":"North America","n":6,"hosts":{"poultry":2,"wild bird":4},"raw_hosts":{"Avian":6},"clades":{"D1.1":6},"weeks":[{"w":"2026-07-31","n":{"wild bird":2},"c":{"D1.1":2}},{"w":"2026-05-08","n":{"poultry":1,"wild bird":1},"c":{"D1.1":2}},{"w":"2026-02-13","n":{"poultry":1,"wild bird":1},"c":{"D1.1":2}}]}},{"type":"Feature","geometry":{"type":"Point","coordinates":[-82.9001,32.1656]},"properties":{"loc":"Georgia","level":"division","country":"USA","region":"North America","n":2,"hosts":{"wild bird":2},"raw_hosts":{"Avian":2},"clades":{"D1.1":2},"weeks":[{"w":"2026-02-13","n":{"wild bird":2},"c":{"D1.1":2}}]}},{"type":"Feature","geometry":{"type":"Point","coordinates":[-114.35121,43.81042]},"properties":{"loc":"Idaho","level":"division","country":"USA","region":"North America","n":169,"hosts":{"poultry":7,"cattle":162},"raw_hosts":{"Cattle":162,"Avian":7},"clades":{"B3.13":169},"weeks":[{"w":"2026-07-24","n":{"cattle":5},"c":{"B3.13":5}},{"w":"2026-07-10","n":{"cattle":23},"c":{"B3.13":23}},{"w":"2026-06-26","n":{"poultry":5},"c":{"B3.13":5}},{"w":"2026-06-19","n":{"cattle":16},"c":{"B3.13":16}},{"w":"2026-06-12","n":{"cattle":3},"c":{"B3.13":3}},{"w":"2026-06-05","n":{"cattle":14,"poultry":2},"c":{"B3.13":16}},{"w":"2026-05-29","n":{"cattle":4},"c":{"B3.13":4}},{"w":"2026-05-08","n":{"cattle":89},"c":{"B3.13":89}},{"w":"2026-04-24","n":{"cattle":2},"c":{"B3.13":2}},{"w":"2026-04-10","n":{"cattle":3},"c":{"B3.13":3}},{"w":"2026-03-06","n":{"cattle":1},"c":{"B3.13":1}},{"w":"2026-02-20","n":{"cattle":1},"c":{"B3.13":1}},{"w":"2026-02-13","n":{"cattle":1},"c":{"B3.13":1}}]}},{"type":"Feature","geometry":{"type":"Point","coordinates":[-89.30188,40.08855]},"properties":{"loc":"Illinois","level":"division","country":"USA","region":"North America","n":2,"hosts":{"wild bird":2},"raw_hosts":{"Avian":2},"clades":{"D1.1":2},"weeks":[{"w":"2026-02-27","n":{"wild bird":1},"c":{"D1.1":1}},{"w":"2026-02-13","n":{"wild bird":1},"c":{"D1.1":1}}]}},{"type":"Feature","geometry":{"type":"Point","coordinates":[-86.1349,40.2672]},"properties":{"loc":"Indiana","level":"division","country":"USA","region":"North America","n":240,"hosts":{"poultry":27,"wild bird":213},"raw_hosts":{"Avian":240},"clades":{"D1.1":240},"weeks":[{"w":"2026-06-19","n":{"poultry":3,"wild bird":2},"c":{"D1.1":5}},{"w":"2026-06-05","n":{"wild bird":5,"poultry":2},"c":{"D1.1":7}},{"w":"2026-05-29","n":{"wild bird":10,"poultry":4},"c":{"D1.1":14}},{"w":"2026-05-22","n":{"wild bird":12},"c":{"D1.1":12}},{"w":"2026-05-15","n":{"wild bird":9},"c":{"D1.1":9}},{"w":"2026-05-08","n":{"wild bird":14},"c":{"D1.1":14}},{"w":"2026-04-03","n":{"wild bird":20,"poultry":4},"c":{"D1.1":24}},{"w":"2026-03-27","n":{"wild bird":15},"c":{"D1.1":15}},{"w":"2026-03-20","n":{"wild bird":51,"poultry":1},"c":{"D1.1":52}},{"w":"2026-03-13","n":{"wild bird":35,"poultry":3},"c":{"D1.1":38}},{"w":"2026-03-06","n":{"poultry":5,"wild bird":14},"c":{"D1.1":19}},{"w":"2026-02-27","n":{"wild bird":4,"poultry":5},"c":{"D1.1":9}},{"w":"2026-02-20","n":{"wild bird":7},"c":{"D1.1":7}},{"w":"2026-02-13","n":{"wild bird":15},"c":{"D1.1":15}}]}},{"type":"Feature","geometry":{"type":"Point","coordinates":[-93.0977,41.878]},"properties":{"loc":"Iowa","level":"division","country":"USA","region":"North America","n":15,"hosts":{"poultry":6,"wild bird":9},"raw_hosts":{"Avian":15},"clades":{"D1.1":15},"weeks":[{"w":"2026-04-17","n":{"wild bird":1},"c":{"D1.1":1}},{"w":"2026-03-13","n":{"wild bird":1},"c":{"D1.1":1}},{"w":"2026-03-06","n":{"wild bird":4,"poultry":3},"c":{"D1.1":7}},{"w":"2026-02-27","n":{"poultry":3},"c":{"D1.1":3}},{"w":"2026-02-20","n":{"wild bird":1},"c":{"D1.1":1}},{"w":"2026-02-13","n":{"wild bird":2},"c":{"D1.1":2}}]}},{"type":"Feature","geometry":{"type":"Point","coordinates":[-98.4842,39.0119]},"properties":{"loc":"Kansas","level":"division","country":"USA","region":"North America","n":5,"hosts":{"poultry":3,"wild bird":2},"raw_hosts":{"Avian":5},"clades":{"D1.1":5},"weeks":[{"w":"2026-03-06","n":{"poultry":1},"c":{"D1.1":1}},{"w":"2026-02-27","n":{"poultry":2},"c":{"D1.1":2}},{"w":"2026-02-13","n":{"wild bird":2},"c":{"D1.1":2}}]}},{"type":"Feature","geometry":{"type":"Point","coordinates":[-85.45019,37.64954]},"properties":{"loc":"Kentucky","level":"division","country":"USA","region":"North America","n":3,"hosts":{"wild bird":3},"raw_hosts":{"Avian":3},"clades":{"D1.1":3},"weeks":[{"w":"2026-02-20","n":{"wild bird":1},"c":{"D1.1":1}},{"w":"2026-02-13","n":{"wild bird":2},"c":{"D1.1":2}}]}},{"type":"Feature","geometry":{"type":"Point","coordinates":[-91.9623,30.9843]},"properties":{"loc":"Louisiana","level":"division","country":"USA","region":"North America","n":1,"hosts":{"wild bird":1},"raw_hosts":{"Avian":1},"clades":{"D1.1":1},"weeks":[{"w":"2026-03-06","n":{"wild bird":1},"c":{"D1.1":1}}]}},{"type":"Feature","geometry":{"type":"Point","coordinates":[-68.85902,45.7091]},"properties":{"loc":"Maine","level":"division","country":"USA","region":"North America","n":4,"hosts":{"wild bird":4},"raw_hosts":{"Avian":4},"clades":{"D1.1":4},"weeks":[{"w":"2026-03-06","n":{"wild bird":1},"c":{"D1.1":1}},{"w":"2026-02-20","n":{"wild bird":3},"c":{"D1.1":3}}]}},{"type":"Feature","geometry":{"type":"Point","coordinates":[-76.6413,39.0458]},"properties":{"loc":"Maryland","level":"division","country":"USA","region":"North America","n":14,"hosts":{"poultry":8,"wild bird":6},"raw_hosts":{"Avian":14},"clades":{"D1.1":14},"weeks":[{"w":"2026-03-27","n":{"wild bird":2},"c":{"D1.1":2}},{"w":"2026-03-20","n":{"wild bird":1},"c":{"D1.1":1}},{"w":"2026-03-13","n":{"poultry":2},"c":{"D1.1":2}},{"w":"2026-02-27","n":{"poultry":4,"wild bird":3},"c":{"D1.1":7}},{"w":"2026-02-13","n":{"poultry":2},"c":{"D1.1":2}}]}},{"type":"Feature","geometry":{"type":"Point","coordinates":[-71.99851,42.34074]},"properties":{"loc":"Massachusetts","level":"division","country":"USA","region":"North America","n":28,"hosts":{"wild bird":28},"raw_hosts":{"Avian":28},"clades":{"D1.1":28},"weeks":[{"w":"2026-04-17","n":{"wild bird":1},"c":{"D1.1":1}},{"w":"2026-03-20","n":{"wild bird":3},"c":{"D1.1":3}},{"w":"2026-03-13","n":{"wild bird":2},"c":{"D1.1":2}},{"w":"2026-03-06","n":{"wild bird":2},"c":{"D1.1":2}},{"w":"2026-02-27","n":{"wild bird":1},"c":{"D1.1":1}},{"w":"2026-02-20","n":{"wild bird":6},"c":{"D1.1":6}},{"w":"2026-02-13","n":{"wild bird":13},"c":{"D1.1":13}}]}},{"type":"Feature","geometry":{"type":"Point","coordinates":[-84.76227,45.0212]},"properties":{"loc":"Michigan","level":"division","country":"USA","region":"North America","n":2,"hosts":{"wild bird":2},"raw_hosts":{"Avian":2},"clades":{"D1.1":2},"weeks":[{"w":"2026-03-13","n":{"wild bird":2},"c":{"D1.1":2}}]}},{"type":"Feature","geometry":{"type":"Point","coordinates":[-94.61958,46.12604]},"properties":{"loc":"Minnesota","level":"division","country":"USA","region":"North America","n":14,"hosts":{"wild bird":11,"other":3},"raw_hosts":{"Avian":11,"Nonhuman Mammal":3},"clades":{"D1.1":14},"weeks":[{"w":"2026-06-12","n":{"wild bird":1},"c":{"D1.1":1}},{"w":"2026-06-05","n":{"wild bird":1},"c":{"D1.1":1}},{"w":"2026-05-29","n":{"wild bird":2},"c":{"D1.1":2}},{"w":"2026-05-15","n":{"wild bird":1},"c":{"D1.1":1}},{"w":"2026-05-08","n":{"wild bird":2},"c":{"D1.1":2}},{"w":"2026-05-01","n":{"wild bird":1},"c":{"D1.1":1}},{"w":"2026-04-17","n":{"wild bird":1},"c":{"D1.1":1}},{"w":"2026-04-10","n":{"other":1},"c":{"D1.1":1}},{"w":"2026-03-27","n":{"wild bird":1},"c":{"D1.1":1}},{"w":"2026-03-06","n":{"other":1,"wild bird":1},"c":{"D1.1":2}},{"w":"2026-02-20","n":{"other":1},"c":{"D1.1":1}}]}},{"type":"Feature","geometry":{"type":"Point","coordinates":[-89.73485,32.97156]},"properties":{"loc":"Mississippi","level":"division","country":"USA","region":"North America","n":6,"hosts":{"wild bird":6},"raw_hosts":{"Avian":6},"clades":{"D1.1":6},"weeks":[{"w":"2026-02-13","n":{"wild bird":6},"c":{"D1.1":6}}]}},{"type":"Feature","geometry":{"type":"Point","coordinates":[-91.8318,37.9643]},"properties":{"loc":"Missouri","level":"division","country":"USA","region":"North America","n":6,"hosts":{"wild bird":6},"raw_hosts":{"Avian":6},"clades":{"D1.1":6},"weeks":[{"w":"2026-02-13","n":{"wild bird":6},"c":{"D1.1":6}}]}},{"type":"Feature","geometry":{"type":"Point","coordinates":[-99.9018,41.4925]},"properties":{"loc":"Nebraska","level":"division","country":"USA","region":"North America","n":1,"hosts":{"wild bird":1},"raw_hosts":{"Avian":1},"clades":{"D1.1":1},"weeks":[{"w":"2026-02-13","n":{"wild bird":1},"c":{"D1.1":1}}]}},{"type":"Feature","geometry":{"type":"Point","coordinates":[-116.4194,38.8026]},"properties":{"loc":"Nevada","level":"division","country":"USA","region":"North America","n":2,"hosts":{"wild bird":2},"raw_hosts":{"Avian":2},"clades":{"D1.1":2},"weeks":[{"w":"2026-03-06","n":{"wild bird":2},"c":{"D1.1":2}}]}},{"type":"Feature","geometry":{"type":"Point","coordinates":[-71.5724,43.1939]},"properties":{"loc":"New Hampshire","level":"division","country":"USA","region":"North America","n":2,"hosts":{"wild bird":2},"raw_hosts":{"Avian":2},"clades":{"D1.1":2},"weeks":[{"w":"2026-03-13","n":{"wild bird":2},"c":{"D1.1":2}}]}},{"type":"Feature","geometry":{"type":"Point","coordinates":[-74.4057,40.0583]},"properties":{"loc":"New Jersey","level":"division","country":"USA","region":"North America","n":23,"hosts":{"poultry":4,"wild bird":18,"other":1},"raw_hosts":{"Avian":22,"Nonhuman Mammal":1},"clades":{"D1.1":23},"weeks":[{"w":"2026-06-19","n":{"wild bird":1},"c":{"D1.1":1}},{"w":"2026-05-01","n":{"wild bird":2},"c":{"D1.1":2}},{"w":"2026-03-13","n":{"other":1},"c":{"D1.1":1}},{"w":"2026-02-27","n":{"poultry":1},"c":{"D1.1":1}},{"w":"2026-02-20","n":{"poultry":3,"wild bird":12},"c":{"D1.1":15}},{"w":"2026-02-13","n":{"wild bird":3},"c":{"D1.1":3}}]}},{"type":"Feature","geometry":{"type":"Point","coordinates":[-105.8701,34.5199]},"properties":{"loc":"New Mexico","level":"division","country":"USA","region":"North America","n":2,"hosts":{"wild bird":1,"other":1},"raw_hosts":{"Nonhuman Mammal":1,"Avian":1},"clades":{"D1.1":2},"weeks":[{"w":"2026-04-03","n":{"other":1},"c":{"D1.1":1}},{"w":"2026-02-20","n":{"wild bird":1},"c":{"D1.1":1}}]}},{"type":"Feature","geometry":{"type":"Point","coordinates":[-73.90419,40.7034]},"properties":{"loc":"New York","level":"division","country":"USA","region":"North America","n":74,"hosts":{"poultry":28,"wild bird":45,"other":1},"raw_hosts":{"Avian":73,"Nonhuman Mammal":1},"clades":{"D1.1":74},"weeks":[{"w":"2026-07-10","n":{"wild bird":3},"c":{"D1.1":3}},{"w":"2026-06-19","n":{"wild bird":1},"c":{"D1.1":1}},{"w":"2026-06-12","n":{"wild bird":1},"c":{"D1.1":1}},{"w":"2026-04-24","n":{"other":1,"wild bird":2},"c":{"D1.1":3}},{"w":"2026-04-17","n":{"wild bird":1},"c":{"D1.1":1}},{"w":"2026-04-10","n":{"wild bird":3},"c":{"D1.1":3}},{"w":"2026-04-03","n":{"wild bird":2},"c":{"D1.1":2}},{"w":"2026-03-27","n":{"poultry":5,"wild bird":4},"c":{"D1.1":9}},{"w":"2026-03-20","n":{"wild bird":5},"c":{"D1.1":5}},{"w":"2026-03-13","n":{"poultry":8,"wild bird":8},"c":{"D1.1":16}},{"w":"2026-03-06","n":{"poultry":7},"c":{"D1.1":7}},{"w":"2026-02-27","n":{"wild bird":6,"poultry":6},"c":{"D1.1":12}},{"w":"2026-02-20","n":{"wild bird":5,"poultry":2},"c":{"D1.1":7}},{"w":"2026-02-13","n":{"wild bird":4},"c":{"D1.1":4}}]}},{"type":"Feature","geometry":{"type":"Point","coordinates":[-79.0193,35.7596]},"properties":{"loc":"North Carolina","level":"division","country":"USA","region":"North America","n":1,"hosts":{"wild bird":1},"raw_hosts":{"Avian":1},"clades":{"D1.1":1},"weeks":[{"w":"2026-03-06","n":{"wild bird":1},"c":{"D1.1":1}}]}},{"type":"Feature","geometry":{"type":"Point","coordinates":[-100.54074,47.62015]},"properties":{"loc":"North Dakota","level":"division","country":"USA","region":"North America","n":4,"hosts":{"poultry":2,"wild bird":2},"raw_hosts":{"Avian":4},"clades":{"D1.1":4},"weeks":[{"w":"2026-04-24","n":{"poultry":2},"c":{"D1.1":2}},{"w":"2026-02-13","n":{"wild bird":2},"c":{"D1.1":2}}]}},{"type":"Feature","geometry":{"type":"Point","coordinates":[-82.82564,40.19922]},"properties":{"loc":"Ohio","level":"division","country":"USA","region":"North America","n":9,"hosts":{"wild bird":9},"raw_hosts":{"Avian":9},"clades":{"D1.1":9},"weeks":[{"w":"2026-02-27","n":{"wild bird":5},"c":{"D1.1":5}},{"w":"2026-02-20","n":{"wild bird":4},"c":{"D1.1":4}}]}},{"type":"Feature","geometry":{"type":"Point","coordinates":[-97.1862,35.37061]},"properties":{"loc":"Oklahoma","level":"division","country":"USA","region":"North America","n":4,"hosts":{"wild bird":4},"raw_hosts":{"Avian":4},"clades":{"D1.1":4},"weeks":[{"w":"2026-02-13","n":{"wild bird":4},"c":{"D1.1":4}}]}},{"type":"Feature","geometry":{"type":"Point","coordinates":[-120.5542,43.8041]},"properties":{"loc":"Oregon","level":"division","country":"USA","region":"North America","n":1,"hosts":{"wild bird":1},"raw_hosts":{"Avian":1},"clades":{"D1.1":1},"weeks":[{"w":"2026-02-13","n":{"wild bird":1},"c":{"D1.1":1}}]}},{"type":"Feature","geometry":{"type":"Point","coordinates":[-77.1945,41.2033]},"properties":{"loc":"Pennsylvania","level":"division","country":"USA","region":"North America","n":24,"hosts":{"poultry":1,"wild bird":23},"raw_hosts":{"Avian":24},"clades":{"D1.1":24},"weeks":[{"w":"2026-03-27","n":{"poultry":1},"c":{"D1.1":1}},{"w":"2026-03-20","n":{"wild bird":4},"c":{"D1.1":4}},{"w":"2026-03-13","n":{"wild bird":2},"c":{"D1.1":2}},{"w":"2026-03-06","n":{"wild bird":4},"c":{"D1.1":4}},{"w":"2026-02-27","n":{"wild bird":4},"c":{"D1.1":4}},{"w":"2026-02-20","n":{"wild bird":6},"c":{"D1.1":6}},{"w":"2026-02-13","n":{"wild bird":3},"c":{"D1.1":3}}]}},{"type":"Feature","geometry":{"type":"Point","coordinates":[-71.4774,41.5801]},"properties":{"loc":"Rhode Island","level":"division","country":"USA","region":"North America","n":24,"hosts":{"poultry":3,"wild bird":21},"raw_hosts":{"Avian":22,"Brant Goose":2},"clades":{"D1.1":24},"weeks":[{"w":"2026-06-12","n":{"poultry":3,"wild bird":1},"c":{"D1.1":4}},{"w":"2026-04-03","n":{"wild bird":1},"c":{"D1.1":1}},{"w":"2026-03-20","n":{"wild bird":1},"c":{"D1.1":1}},{"w":"2026-03-13","n":{"wild bird":8},"c":{"D1.1":8}},{"w":"2026-03-06","n":{"wild bird":4},"c":{"D1.1":4}},{"w":"2026-02-27","n":{"wild bird":3},"c":{"D1.1":3}},{"w":"2026-02-20","n":{"wild bird":2},"c":{"D1.1":2}},{"w":"2026-02-13","n":{"wild bird":1},"c":{"D1.1":1}}]}},{"type":"Feature","geometry":{"type":"Point","coordinates":[-81.1637,33.8361]},"properties":{"loc":"South Carolina","level":"division","country":"USA","region":"North America","n":5,"hosts":{"poultry":4,"wild bird":1},"raw_hosts":{"Avian":5},"clades":{"D1.1":5},"weeks":[{"w":"2026-03-13","n":{"wild bird":1},"c":{"D1.1":1}},{"w":"2026-02-20","n":{"poultry":4},"c":{"D1.1":4}}]}},{"type":"Feature","geometry":{"type":"Point","coordinates":[-100.34876,44.64718]},"properties":{"loc":"South Dakota","level":"division","country":"USA","region":"North America","n":8,"hosts":{"poultry":8},"raw_hosts":{"Avian":8},"clades":{"D1.1":8},"weeks":[{"w":"2026-04-10","n":{"poultry":3},"c":{"D1.1":3}},{"w":"2026-04-03","n":{"poultry":2},"c":{"D1.1":2}},{"w":"2026-02-20","n":{"poultry":3},"c":{"D1.1":3}}]}},{"type":"Feature","geometry":{"type":"Point","coordinates":[-86.5804,35.5175]},"properties":{"loc":"Tennessee","level":"division","country":"USA","region":"North America","n":5,"hosts":{"poultry":1,"wild bird":4},"raw_hosts":{"Avian":5},"clades":{"D1.1":5},"weeks":[{"w":"2026-03-06","n":{"wild bird":2,"poultry":1},"c":{"D1.1":3}},{"w":"2026-02-13","n":{"wild bird":2},"c":{"D1.1":2}}]}},{"type":"Feature","geometry":{"type":"Point","coordinates":[-99.18876,31.14687]},"properties":{"loc":"Texas","level":"division","country":"USA","region":"North America","n":12,"hosts":{"wild bird":2,"cattle":10},"raw_hosts":{"Cattle":10,"Avian":2},"clades":{"B3.13":10,"D1.1":2},"weeks":[{"w":"2026-06-26","n":{"cattle":6},"c":{"B3.13":6}},{"w":"2026-05-29","n":{"cattle":3},"c":{"B3.13":3}},{"w":"2026-05-15","n":{"cattle":1},"c":{"B3.13":1}},{"w":"2026-04-10","n":{"wild bird":1},"c":{"D1.1":1}},{"w":"2026-04-03","n":{"wild bird":1},"c":{"D1.1":1}}]}},{"type":"Feature","geometry":{"type":"Point","coordinates":[-111.71436,39.42252]},"properties":{"loc":"Utah","level":"division","country":"USA","region":"North America","n":55,"hosts":{"poultry":7,"wild bird":3,"cattle":36,"other":9},"raw_hosts":{"Cattle":36,"Avian":10,"Mustela lutreola":9},"clades":{"B3.13":53,"D1.1":2},"weeks":[{"w":"2026-08-07","n":{"other":9},"c":{"B3.13":9}},{"w":"2026-07-31","n":{"cattle":2},"c":{"B3.13":2}},{"w":"2026-07-24","n":{"cattle":4},"c":{"B3.13":4}},{"w":"2026-07-17","n":{"cattle":8,"wild bird":1,"poultry":1},"c":{"B3.13":10}},{"w":"2026-07-10","n":{"cattle":6,"poultry":1},"c":{"B3.13":7}},{"w":"2026-07-03","n":{"cattle":6,"poultry":5},"c":{"B3.13":11}},{"w":"2026-06-26","n":{"cattle":5},"c":{"B3.13":5}},{"w":"2026-06-19","n":{"cattle":2},"c":{"B3.13":2}},{"w":"2026-06-12","n":{"cattle":1},"c":{"B3.13":1}},{"w":"2026-06-05","n":{"cattle":2},"c":{"B3.13":2}},{"w":"2026-03-13","n":{"wild bird":2},"c":{"D1.1":2}}]}},{"type":"Feature","geometry":{"type":"Point","coordinates":[-78.0249,37.92687]},"properties":{"loc":"Virginia","level":"division","country":"USA","region":"North America","n":13,"hosts":{"wild bird":13},"raw_hosts":{"Avian":13},"clades":{"D1.1":13},"weeks":[{"w":"2026-03-27","n":{"wild bird":1},"c":{"D1.1":1}},{"w":"2026-03-13","n":{"wild bird":1},"c":{"D1.1":1}},{"w":"2026-03-06","n":{"wild bird":1},"c":{"D1.1":1}},{"w":"2026-02-27","n":{"wild bird":1},"c":{"D1.1":1}},{"w":"2026-02-20","n":{"wild bird":6},"c":{"D1.1":6}},{"w":"2026-02-13","n":{"wild bird":3},"c":{"D1.1":3}}]}},{"type":"Feature","geometry":{"type":"Point","coordinates":[-119.95036,47.18395]},"properties":{"loc":"Washington","level":"division","country":"USA","region":"North America","n":2,"hosts":{"poultry":2},"raw_hosts":{"Avian":2},"clades":{"D1.1":2},"weeks":[{"w":"2026-03-13","n":{"poultry":2},"c":{"D1.1":2}}]}},{"type":"Feature","geometry":{"type":"Point","coordinates":[-80.84084,38.47584]},"properties":{"loc":"West Virginia","level":"division","country":"USA","region":"North America","n":5,"hosts":{"poultry":3,"wild bird":2},"raw_hosts":{"Avian":5},"clades":{"D1.1":5},"weeks":[{"w":"2026-03-20","n":{"poultry":3,"wild bird":2},"c":{"D1.1":5}}]}},{"type":"Feature","geometry":{"type":"Point","coordinates":[-89.52776,44.53514]},"properties":{"loc":"Wisconsin","level":"division","country":"USA","region":"North America","n":5,"hosts":{"wild bird":3,"other":2},"raw_hosts":{"Avian":3,"Nonhuman Mammal":2},"clades":{"D1.1":5},"weeks":[{"w":"2026-04-03","n":{"other":2},"c":{"D1.1":2}},{"w":"2026-03-06","n":{"wild bird":2},"c":{"D1.1":2}},{"w":"2026-02-27","n":{"wild bird":1},"c":{"D1.1":1}}]}},{"type":"Feature","geometry":{"type":"Point","coordinates":[-107.2903,43.076]},"properties":{"loc":"Wyoming","level":"division","country":"USA","region":"North America","n":1,"hosts":{"wild bird":1},"raw_hosts":{"Avian":1},"clades":{"D1.1":1},"weeks":[{"w":"2026-02-27","n":{"wild bird":1},"c":{"D1.1":1}}]}}]}