{"type":"FeatureCollection","frame":"2026-08-25T02","site_count":20,"fresh_count":20,"failures":{},"features":[{"type":"Feature","geometry":{"type":"Point","coordinates":[-77.0073,36.984]},"properties":{"site":"KAKQ","name":"Wakefield VA","scan_time":"2026-08-25T02:01:46Z","stale":false,"bins":25,"density_birds_km3":17.081875,"heading_deg":227.25813668697654,"speed_ms":4.688918502202643,"peak_altitude_m":200.0,"u_ms":-3.0519853157121886,"v_ms":-2.749289647577093}},{"type":"Feature","geometry":{"type":"Point","coordinates":[-71.1369,41.9558]},"properties":{"site":"KBOX","name":"Boston MA","scan_time":"2026-08-25T02:00:16Z","stale":false,"bins":25,"density_birds_km3":2.395,"heading_deg":29.38160664350794,"speed_ms":6.174271540469974,"peak_altitude_m":0.0,"u_ms":2.8936449086161877,"v_ms":4.804216710182768}},{"type":"Feature","geometry":{"type":"Point","coordinates":[-78.7369,42.9489]},"properties":{"site":"KBUF","name":"Buffalo NY","scan_time":"2026-08-25T02:01:52Z","stale":false,"bins":25,"density_birds_km3":2.214,"heading_deg":114.72391552707485,"speed_ms":7.884821967410984,"peak_altitude_m":600.0,"u_ms":7.0197404948702475,"v_ms":-3.283952926976464}},{"type":"Feature","geometry":{"type":"Point","coordinates":[-81.8597,41.4131]},"properties":{"site":"KCLE","name":"Cleveland OH","scan_time":"2026-08-25T01:58:54Z","stale":false,"bins":25,"density_birds_km3":1.9073333333333333,"heading_deg":100.31609257965984,"speed_ms":5.845685243603224,"peak_altitude_m":200.0,"u_ms":5.380890290921836,"v_ms":-1.3236838415702767}},{"type":"Feature","geometry":{"type":"Point","coordinates":[-81.0423,32.6555]},"properties":{"site":"KCLX","name":"Charleston SC","scan_time":"2026-08-25T02:00:50Z","stale":false,"bins":25,"density_birds_km3":18.548125,"heading_deg":179.95606047584977,"speed_ms":7.6171883333895956,"peak_altitude_m":600.0,"u_ms":-0.04703541167336191,"v_ms":-7.074504607906018}},{"type":"Feature","geometry":{"type":"Point","coordinates":[-74.4108,39.947]},"properties":{"site":"KDIX","name":"Philadelphia PA","scan_time":"2026-08-25T01:58:23Z","stale":false,"bins":25,"density_birds_km3":4.793125,"heading_deg":150.4538387833135,"speed_ms":8.88916894977169,"peak_altitude_m":200.0,"u_ms":4.309309849967385,"v_ms":-7.707634703196348}},{"type":"Feature","geometry":{"type":"Point","coordinates":[-84.5658,33.3636]},"properties":{"site":"KFFC","name":"Atlanta GA","scan_time":"2026-08-25T01:59:17Z","stale":false,"bins":25,"density_birds_km3":38.15933333333333,"heading_deg":205.502211646366,"speed_ms":5.19961527709833,"peak_altitude_m":600.0,"u_ms":-2.095612551540988,"v_ms":-4.567556083583758}},{"type":"Feature","geometry":{"type":"Point","coordinates":[-85.5449,42.8939]},"properties":{"site":"KGRR","name":"Grand Rapids MI","scan_time":"2026-08-25T01:59:39Z","stale":false,"bins":25,"density_birds_km3":3.1386666666666665,"heading_deg":177.42558481199788,"speed_ms":9.198291852797277,"peak_altitude_m":600.0,"u_ms":0.28587321846415664,"v_ms":-8.81047862156988}},{"type":"Feature","geometry":{"type":"Point","coordinates":[-83.8217,39.4203]},"properties":{"site":"KILN","name":"Wilmington OH","scan_time":"2026-08-25T01:57:55Z","stale":false,"bins":25,"density_birds_km3":8.976666666666667,"heading_deg":150.39912024336974,"speed_ms":5.869157073895283,"peak_altitude_m":600.0,"u_ms":2.790713702190865,"v_ms":-5.100989231340511}},{"type":"Feature","geometry":{"type":"Point","coordinates":[-81.7019,30.4846]},"properties":{"site":"KJAX","name":"Jacksonville FL","scan_time":"2026-08-25T01:59:25Z","stale":false,"bins":25,"density_birds_km3":10.205625,"heading_deg":123.79596634060984,"speed_ms":6.640995774389125,"peak_altitude_m":0.0,"u_ms":5.1099736664829445,"v_ms":-3.8008775797660608}},{"type":"Feature","geometry":{"type":"Point","coordinates":[-88.0847,41.6045]},"properties":{"site":"KLOT","name":"Chicago IL","scan_time":"2026-08-25T02:02:55Z","stale":false,"bins":25,"density_birds_km3":14.072666666666667,"heading_deg":242.3937007382611,"speed_ms":5.640691047257183,"peak_altitude_m":400.0,"u_ms":-3.319747328425552,"v_ms":-1.7965086677748752}},{"type":"Feature","geometry":{"type":"Point","coordinates":[-78.4292,33.9892]},"properties":{"site":"KLTX","name":"Wilmington NC","scan_time":"2026-08-25T02:01:59Z","stale":false,"bins":25,"density_birds_km3":12.716875,"heading_deg":205.5278081208449,"speed_ms":9.95667191110674,"peak_altitude_m":600.0,"u_ms":-3.80188603176164,"v_ms":-8.988778209351493}},{"type":"Feature","geometry":{"type":"Point","coordinates":[-77.4778,38.9753]},"properties":{"site":"KLWX","name":"Sterling VA","scan_time":"2026-08-25T01:59:09Z","stale":false,"bins":25,"density_birds_km3":18.934375,"heading_deg":179.7725436652981,"speed_ms":8.204605041461562,"peak_altitude_m":400.0,"u_ms":0.009466781195282273,"v_ms":-8.111981234926823}},{"type":"Feature","geometry":{"type":"Point","coordinates":[-76.8762,34.7759]},"properties":{"site":"KMHX","name":"Morehead City NC","scan_time":"2026-08-25T01:59:12Z","stale":false,"bins":25,"density_birds_km3":4.11625,"heading_deg":264.2735166442473,"speed_ms":5.024901661838695,"peak_altitude_m":0.0,"u_ms":-0.2970086903491388,"v_ms":-1.0675941454490012}},{"type":"Feature","geometry":{"type":"Point","coordinates":[-80.6542,28.1133]},"properties":{"site":"KMLB","name":"Melbourne FL","scan_time":"2026-08-25T01:58:35Z","stale":false,"bins":25,"density_birds_km3":7.203125,"heading_deg":19.037091438948952,"speed_ms":2.1256365057311566,"peak_altitude_m":0.0,"u_ms":0.6611201806182702,"v_ms":1.8885793678360543}},{"type":"Feature","geometry":{"type":"Point","coordinates":[-86.5625,36.2472]},"properties":{"site":"KOHX","name":"Nashville TN","scan_time":"2026-08-25T01:57:14Z","stale":false,"bins":25,"density_birds_km3":30.788666666666664,"heading_deg":222.63761450170193,"speed_ms":6.469395665071564,"peak_altitude_m":400.0,"u_ms":-4.275804516813547,"v_ms":-4.586234761708854}},{"type":"Feature","geometry":{"type":"Point","coordinates":[-72.8639,40.8655]},"properties":{"site":"KOKX","name":"Upton NY","scan_time":"2026-08-25T01:58:45Z","stale":false,"bins":25,"density_birds_km3":2.669375,"heading_deg":128.2039949543347,"speed_ms":6.540960637300844,"peak_altitude_m":0.0,"u_ms":5.108397375820057,"v_ms":-3.9317947516401133}},{"type":"Feature","geometry":{"type":"Point","coordinates":[-80.2183,40.5317]},"properties":{"site":"KPBZ","name":"Pittsburgh PA","scan_time":"2026-08-25T01:58:45Z","stale":false,"bins":25,"density_birds_km3":2.57,"heading_deg":126.05783454629798,"speed_ms":7.650547027630478,"peak_altitude_m":600.0,"u_ms":6.003190064192018,"v_ms":-4.551607591403852}},{"type":"Feature","geometry":{"type":"Point","coordinates":[-78.4899,35.6655]},"properties":{"site":"KRAX","name":"Raleigh NC","scan_time":"2026-08-25T02:01:13Z","stale":false,"bins":25,"density_birds_km3":18.73375,"heading_deg":178.27946652119738,"speed_ms":6.184908229326571,"peak_altitude_m":400.0,"u_ms":0.2333127544550491,"v_ms":-6.167672028298739}},{"type":"Feature","geometry":{"type":"Point","coordinates":[-82.4017,27.7055]},"properties":{"site":"KTBW","name":"Tampa FL","scan_time":"2026-08-25T02:02:01Z","stale":false,"bins":25,"density_birds_km3":8.111875,"heading_deg":131.5158712212659,"speed_ms":6.166943518959226,"peak_altitude_m":0.0,"u_ms":3.3617634459781054,"v_ms":-4.161161351737268}}]}