{"type":"FeatureCollection","frame":"2026-08-31T12","site_count":20,"fresh_count":19,"failures":{"KCLE":"RuntimeError(\"vol2bird failed rc=139 on KCLE20260831_115555_V06: Warning: no user configuration file 'options.conf' found. Using default settings ...\\nCan't read file identifier string\\nWarning: load_wsr88d_m31_into_radar: Unexpected end of file.\\nCurrent sweep index: 2\\nLast ray read: 360\\nReading RSL polar volume with nominal time 20260831-115556, source: RAD:KCLE,PLC:CLEVELAND,state:OH,radar_name:KCLE\\n\")"},"features":[{"type":"Feature","geometry":{"type":"Point","coordinates":[-77.0073,36.984]},"properties":{"site":"KAKQ","name":"Wakefield VA","scan_time":"2026-08-31T12:00:34Z","stale":false,"bins":25,"density_birds_km3":0.5575,"heading_deg":90.286531132321,"speed_ms":5.589617117117117,"peak_altitude_m":0.0,"u_ms":5.463738738738738,"v_ms":0.01318693693693693}},{"type":"Feature","geometry":{"type":"Point","coordinates":[-71.1369,41.9558]},"properties":{"site":"KBOX","name":"Boston MA","scan_time":"2026-08-31T11:58:34Z","stale":false,"bins":25,"density_birds_km3":2.276875,"heading_deg":220.66252596699644,"speed_ms":6.7981401098901095,"peak_altitude_m":0.0,"u_ms":-4.3925796703296704,"v_ms":-5.147384615384616}},{"type":"Feature","geometry":{"type":"Point","coordinates":[-78.7369,42.9489]},"properties":{"site":"KBUF","name":"Buffalo NY","scan_time":"2026-08-31T12:00:23Z","stale":false,"bins":25,"density_birds_km3":1.9220000000000002,"heading_deg":null,"speed_ms":null,"peak_altitude_m":200.0,"u_ms":null,"v_ms":null}},{"type":"Feature","geometry":{"type":"Point","coordinates":[-81.0423,32.6555]},"properties":{"site":"KCLX","name":"Charleston SC","scan_time":"2026-08-31T11:58:29Z","stale":false,"bins":25,"density_birds_km3":3.844375,"heading_deg":208.83583496156706,"speed_ms":7.858410014631768,"peak_altitude_m":0.0,"u_ms":-3.8088164526093315,"v_ms":-6.867654039993498}},{"type":"Feature","geometry":{"type":"Point","coordinates":[-74.4108,39.947]},"properties":{"site":"KDIX","name":"Philadelphia PA","scan_time":"2026-08-31T12:00:42Z","stale":false,"bins":25,"density_birds_km3":1.819375,"heading_deg":236.15999145085948,"speed_ms":8.104922706973548,"peak_altitude_m":200.0,"u_ms":-6.581851597389212,"v_ms":-4.429732050841635}},{"type":"Feature","geometry":{"type":"Point","coordinates":[-84.5658,33.3636]},"properties":{"site":"KFFC","name":"Atlanta GA","scan_time":"2026-08-31T12:01:05Z","stale":false,"bins":25,"density_birds_km3":8.362,"heading_deg":249.70934776688645,"speed_ms":6.2988615163836394,"peak_altitude_m":200.0,"u_ms":-5.826621222992904,"v_ms":-2.2540213664992423}},{"type":"Feature","geometry":{"type":"Point","coordinates":[-85.5449,42.8939]},"properties":{"site":"KGRR","name":"Grand Rapids MI","scan_time":"2026-08-31T12:02:12Z","stale":false,"bins":25,"density_birds_km3":1.2959999999999998,"heading_deg":48.385293884473356,"speed_ms":5.328176623376623,"peak_altitude_m":200.0,"u_ms":4.061090909090909,"v_ms":3.4032831168831166}},{"type":"Feature","geometry":{"type":"Point","coordinates":[-83.8217,39.4203]},"properties":{"site":"KILN","name":"Wilmington OH","scan_time":"2026-08-31T11:56:39Z","stale":false,"bins":25,"density_birds_km3":0.5853333333333334,"heading_deg":74.67441294962697,"speed_ms":7.401420389461626,"peak_altitude_m":200.0,"u_ms":7.149175257731959,"v_ms":1.6797479954180985}},{"type":"Feature","geometry":{"type":"Point","coordinates":[-81.7019,30.4846]},"properties":{"site":"KJAX","name":"Jacksonville FL","scan_time":"2026-08-31T11:59:33Z","stale":false,"bins":25,"density_birds_km3":5.85375,"heading_deg":197.91478903005006,"speed_ms":8.572339493643842,"peak_altitude_m":0.0,"u_ms":-2.6231374853113985,"v_ms":-8.154011323576542}},{"type":"Feature","geometry":{"type":"Point","coordinates":[-88.0847,41.6045]},"properties":{"site":"KLOT","name":"Chicago IL","scan_time":"2026-08-31T12:01:38Z","stale":false,"bins":25,"density_birds_km3":4.165333333333333,"heading_deg":59.03511801386559,"speed_ms":15.818218714768884,"peak_altitude_m":400.0,"u_ms":13.40948945079723,"v_ms":7.440864873570623}},{"type":"Feature","geometry":{"type":"Point","coordinates":[-78.4292,33.9892]},"properties":{"site":"KLTX","name":"Wilmington NC","scan_time":"2026-08-31T11:58:47Z","stale":false,"bins":25,"density_birds_km3":3.214375,"heading_deg":193.41225203807684,"speed_ms":6.370656792048333,"peak_altitude_m":200.0,"u_ms":-1.4975930617813291,"v_ms":-6.188113428181642}},{"type":"Feature","geometry":{"type":"Point","coordinates":[-77.4778,38.9753]},"properties":{"site":"KLWX","name":"Sterling VA","scan_time":"2026-08-31T11:59:45Z","stale":false,"bins":25,"density_birds_km3":5.92375,"heading_deg":206.63786496107267,"speed_ms":7.869848021108179,"peak_altitude_m":200.0,"u_ms":-3.506717678100264,"v_ms":-6.955743535620052}},{"type":"Feature","geometry":{"type":"Point","coordinates":[-76.8762,34.7759]},"properties":{"site":"KMHX","name":"Morehead City NC","scan_time":"2026-08-31T11:58:34Z","stale":false,"bins":25,"density_birds_km3":2.493125,"heading_deg":183.45393126403454,"speed_ms":5.961317244846657,"peak_altitude_m":0.0,"u_ms":-0.37172951231774765,"v_ms":-5.879524886877829}},{"type":"Feature","geometry":{"type":"Point","coordinates":[-80.6542,28.1133]},"properties":{"site":"KMLB","name":"Melbourne FL","scan_time":"2026-08-31T12:00:15Z","stale":false,"bins":25,"density_birds_km3":1.2362499999999998,"heading_deg":179.32977497567606,"speed_ms":6.599100101112234,"peak_altitude_m":0.0,"u_ms":0.15704752275025277,"v_ms":-6.54391809908999}},{"type":"Feature","geometry":{"type":"Point","coordinates":[-86.5625,36.2472]},"properties":{"site":"KOHX","name":"Nashville TN","scan_time":"2026-08-31T12:02:03Z","stale":false,"bins":25,"density_birds_km3":2.7626666666666666,"heading_deg":331.8239626592239,"speed_ms":2.79797055984556,"peak_altitude_m":200.0,"u_ms":-1.0678233590733592,"v_ms":2.317270752895753}},{"type":"Feature","geometry":{"type":"Point","coordinates":[-72.8639,40.8655]},"properties":{"site":"KOKX","name":"Upton NY","scan_time":"2026-08-31T11:57:09Z","stale":false,"bins":25,"density_birds_km3":2.1350000000000002,"heading_deg":242.54488579679284,"speed_ms":8.12048330404218,"peak_altitude_m":400.0,"u_ms":-7.138175161101348,"v_ms":-3.3376362038664324}},{"type":"Feature","geometry":{"type":"Point","coordinates":[-80.2183,40.5317]},"properties":{"site":"KPBZ","name":"Pittsburgh PA","scan_time":"2026-08-31T11:57:35Z","stale":false,"bins":25,"density_birds_km3":0.24428571428571427,"heading_deg":28.818525112325876,"speed_ms":4.553832335329341,"peak_altitude_m":400.0,"u_ms":2.2127245508982036,"v_ms":3.485868263473054}},{"type":"Feature","geometry":{"type":"Point","coordinates":[-78.4899,35.6655]},"properties":{"site":"KRAX","name":"Raleigh NC","scan_time":"2026-08-31T11:58:32Z","stale":false,"bins":25,"density_birds_km3":2.199375,"heading_deg":160.57192217534893,"speed_ms":5.236144853150842,"peak_altitude_m":0.0,"u_ms":1.626506986027944,"v_ms":-4.866621043627032}},{"type":"Feature","geometry":{"type":"Point","coordinates":[-82.4017,27.7055]},"properties":{"site":"KTBW","name":"Tampa FL","scan_time":"2026-08-31T12:00:33Z","stale":false,"bins":25,"density_birds_km3":2.511875,"heading_deg":195.88338442044008,"speed_ms":4.236550435865505,"peak_altitude_m":0.0,"u_ms":-1.098408468244085,"v_ms":-4.0430261519302615}}]}