{"type":"FeatureCollection","frame":"2026-08-26T09","site_count":20,"fresh_count":20,"failures":{},"features":[{"type":"Feature","geometry":{"type":"Point","coordinates":[-77.0073,36.984]},"properties":{"site":"KAKQ","name":"Wakefield VA","scan_time":"2026-08-26T09:00:58Z","stale":false,"bins":25,"density_birds_km3":1.755625,"heading_deg":253.50026490207097,"speed_ms":5.5201142449125316,"peak_altitude_m":0.0,"u_ms":-3.7511210282042127,"v_ms":-1.61309889325241}},{"type":"Feature","geometry":{"type":"Point","coordinates":[-71.1369,41.9558]},"properties":{"site":"KBOX","name":"Boston MA","scan_time":"2026-08-26T08:57:28Z","stale":false,"bins":25,"density_birds_km3":2.92625,"heading_deg":198.17158200686623,"speed_ms":8.201981192562513,"peak_altitude_m":400.0,"u_ms":-2.454468903611883,"v_ms":-7.710369737123317}},{"type":"Feature","geometry":{"type":"Point","coordinates":[-78.7369,42.9489]},"properties":{"site":"KBUF","name":"Buffalo NY","scan_time":"2026-08-26T08:58:11Z","stale":false,"bins":25,"density_birds_km3":1.2466666666666666,"heading_deg":75.1703012127108,"speed_ms":4.268058823529412,"peak_altitude_m":200.0,"u_ms":3.8682459893048127,"v_ms":1.0514919786096257}},{"type":"Feature","geometry":{"type":"Point","coordinates":[-81.8597,41.4131]},"properties":{"site":"KCLE","name":"Cleveland OH","scan_time":"2026-08-26T08:57:42Z","stale":false,"bins":25,"density_birds_km3":2.484,"heading_deg":319.4885344180961,"speed_ms":6.870558689229116,"peak_altitude_m":200.0,"u_ms":-4.504832124630674,"v_ms":4.8363309159280155}},{"type":"Feature","geometry":{"type":"Point","coordinates":[-81.0423,32.6555]},"properties":{"site":"KCLX","name":"Charleston SC","scan_time":"2026-08-26T08:58:12Z","stale":false,"bins":25,"density_birds_km3":6.599374999999999,"heading_deg":232.18152276720105,"speed_ms":7.148402310824889,"peak_altitude_m":0.0,"u_ms":-5.380933800549294,"v_ms":-4.492028601193295}},{"type":"Feature","geometry":{"type":"Point","coordinates":[-74.4108,39.947]},"properties":{"site":"KDIX","name":"Philadelphia PA","scan_time":"2026-08-26T08:58:51Z","stale":false,"bins":25,"density_birds_km3":20.009999999999998,"heading_deg":218.07872559299906,"speed_ms":9.180275912750108,"peak_altitude_m":200.0,"u_ms":-5.659847680128269,"v_ms":-7.0594678825533625}},{"type":"Feature","geometry":{"type":"Point","coordinates":[-84.5658,33.3636]},"properties":{"site":"KFFC","name":"Atlanta GA","scan_time":"2026-08-26T08:56:35Z","stale":false,"bins":25,"density_birds_km3":10.667333333333334,"heading_deg":225.7096793696761,"speed_ms":2.8793587900756203,"peak_altitude_m":400.0,"u_ms":-1.8127404537216425,"v_ms":-1.752170489344416}},{"type":"Feature","geometry":{"type":"Point","coordinates":[-85.5449,42.8939]},"properties":{"site":"KGRR","name":"Grand Rapids MI","scan_time":"2026-08-26T08:59:15Z","stale":false,"bins":25,"density_birds_km3":0.23066666666666666,"heading_deg":28.494587024058273,"speed_ms":8.725606936416186,"peak_altitude_m":200.0,"u_ms":4.189624277456647,"v_ms":7.553959537572255}},{"type":"Feature","geometry":{"type":"Point","coordinates":[-83.8217,39.4203]},"properties":{"site":"KILN","name":"Wilmington OH","scan_time":"2026-08-26T09:03:19Z","stale":false,"bins":25,"density_birds_km3":0.8420000000000001,"heading_deg":335.7947190663405,"speed_ms":3.7337490071485306,"peak_altitude_m":200.0,"u_ms":-1.5206513105639397,"v_ms":2.83922954725973}},{"type":"Feature","geometry":{"type":"Point","coordinates":[-81.7019,30.4846]},"properties":{"site":"KJAX","name":"Jacksonville FL","scan_time":"2026-08-26T09:01:10Z","stale":false,"bins":25,"density_birds_km3":28.048125000000002,"heading_deg":196.025811126669,"speed_ms":5.068860612813371,"peak_altitude_m":0.0,"u_ms":-1.2686141504178272,"v_ms":-4.745792311977716}},{"type":"Feature","geometry":{"type":"Point","coordinates":[-88.0847,41.6045]},"properties":{"site":"KLOT","name":"Chicago IL","scan_time":"2026-08-26T08:59:58Z","stale":false,"bins":25,"density_birds_km3":0.6873333333333334,"heading_deg":36.59625292041294,"speed_ms":10.871713729308667,"peak_altitude_m":200.0,"u_ms":6.113534566699124,"v_ms":8.104888023369037}},{"type":"Feature","geometry":{"type":"Point","coordinates":[-78.4292,33.9892]},"properties":{"site":"KLTX","name":"Wilmington NC","scan_time":"2026-08-26T09:00:57Z","stale":false,"bins":25,"density_birds_km3":10.213750000000001,"heading_deg":245.16776139522034,"speed_ms":10.272309122379639,"peak_altitude_m":0.0,"u_ms":-9.316388871081479,"v_ms":-4.321364831078916}},{"type":"Feature","geometry":{"type":"Point","coordinates":[-77.4778,38.9753]},"properties":{"site":"KLWX","name":"Sterling VA","scan_time":"2026-08-26T09:01:44Z","stale":false,"bins":25,"density_birds_km3":16.97230769230769,"heading_deg":228.4546029717511,"speed_ms":6.97036683347872,"peak_altitude_m":200.0,"u_ms":-5.211219411413617,"v_ms":-4.609655204076947}},{"type":"Feature","geometry":{"type":"Point","coordinates":[-76.8762,34.7759]},"properties":{"site":"KMHX","name":"Morehead City NC","scan_time":"2026-08-26T08:59:24Z","stale":false,"bins":25,"density_birds_km3":2.32875,"heading_deg":245.31707586418446,"speed_ms":3.467917337627483,"peak_altitude_m":0.0,"u_ms":-3.076347289318304,"v_ms":-1.4630568974771876}},{"type":"Feature","geometry":{"type":"Point","coordinates":[-80.6542,28.1133]},"properties":{"site":"KMLB","name":"Melbourne FL","scan_time":"2026-08-26T09:00:00Z","stale":false,"bins":25,"density_birds_km3":7.67375,"heading_deg":147.39350836482873,"speed_ms":4.718417494705978,"peak_altitude_m":0.0,"u_ms":2.1195756637888903,"v_ms":-3.8031723407721123}},{"type":"Feature","geometry":{"type":"Point","coordinates":[-86.5625,36.2472]},"properties":{"site":"KOHX","name":"Nashville TN","scan_time":"2026-08-26T09:01:11Z","stale":false,"bins":25,"density_birds_km3":8.786666666666665,"heading_deg":270.3447306247674,"speed_ms":4.5281783004552345,"peak_altitude_m":200.0,"u_ms":-1.2737655538694994,"v_ms":-0.7050432473444614}},{"type":"Feature","geometry":{"type":"Point","coordinates":[-72.8639,40.8655]},"properties":{"site":"KOKX","name":"Upton NY","scan_time":"2026-08-26T09:03:43Z","stale":false,"bins":25,"density_birds_km3":13.559375,"heading_deg":218.77293275836726,"speed_ms":6.59039457289215,"peak_altitude_m":0.0,"u_ms":-3.7413613918501083,"v_ms":-5.138931192025474}},{"type":"Feature","geometry":{"type":"Point","coordinates":[-80.2183,40.5317]},"properties":{"site":"KPBZ","name":"Pittsburgh PA","scan_time":"2026-08-26T08:58:29Z","stale":false,"bins":25,"density_birds_km3":13.46923076923077,"heading_deg":251.45130459459142,"speed_ms":6.659957017594131,"peak_altitude_m":400.0,"u_ms":-6.225481116396355,"v_ms":-1.9934437503581868}},{"type":"Feature","geometry":{"type":"Point","coordinates":[-78.4899,35.6655]},"properties":{"site":"KRAX","name":"Raleigh NC","scan_time":"2026-08-26T08:58:21Z","stale":false,"bins":25,"density_birds_km3":5.3100000000000005,"heading_deg":265.92229327572477,"speed_ms":4.404724808485563,"peak_altitude_m":200.0,"u_ms":-4.248518562168533,"v_ms":-0.44358515026517376}},{"type":"Feature","geometry":{"type":"Point","coordinates":[-82.4017,27.7055]},"properties":{"site":"KTBW","name":"Tampa FL","scan_time":"2026-08-26T08:59:45Z","stale":false,"bins":25,"density_birds_km3":2.47875,"heading_deg":252.52294428456463,"speed_ms":1.5737670196671711,"peak_altitude_m":0.0,"u_ms":-0.8530887544125064,"v_ms":-0.4520776601109431}}]}