{"type":"FeatureCollection","frame":"2026-09-28T12","site_count":20,"fresh_count":20,"failures":{},"features":[{"type":"Feature","geometry":{"type":"Point","coordinates":[-77.0073,36.984]},"properties":{"site":"KAKQ","name":"Wakefield VA","scan_time":"2026-09-28T12:03:10Z","stale":false,"bins":25,"density_birds_km3":0.285625,"heading_deg":120.86095798654456,"speed_ms":2.9840043763676154,"peak_altitude_m":0.0,"u_ms":2.0536105032822753,"v_ms":-1.64617067833698}},{"type":"Feature","geometry":{"type":"Point","coordinates":[-71.1369,41.9558]},"properties":{"site":"KBOX","name":"Boston MA","scan_time":"2026-09-28T11:57:47Z","stale":false,"bins":25,"density_birds_km3":null,"heading_deg":null,"speed_ms":null,"peak_altitude_m":null,"u_ms":null,"v_ms":null}},{"type":"Feature","geometry":{"type":"Point","coordinates":[-78.7369,42.9489]},"properties":{"site":"KBUF","name":"Buffalo NY","scan_time":"2026-09-28T11:57:30Z","stale":false,"bins":25,"density_birds_km3":0.958,"heading_deg":221.66581299878916,"speed_ms":3.803666666666667,"peak_altitude_m":200.0,"u_ms":-2.4810000000000003,"v_ms":-2.7373333333333334}},{"type":"Feature","geometry":{"type":"Point","coordinates":[-81.8597,41.4131]},"properties":{"site":"KCLE","name":"Cleveland OH","scan_time":"2026-09-28T12:02:59Z","stale":false,"bins":25,"density_birds_km3":3.138,"heading_deg":169.94127132029556,"speed_ms":3.8354558979808706,"peak_altitude_m":200.0,"u_ms":0.6049160467587672,"v_ms":-3.7758937300743884}},{"type":"Feature","geometry":{"type":"Point","coordinates":[-81.0423,32.6555]},"properties":{"site":"KCLX","name":"Charleston SC","scan_time":"2026-09-28T11:59:11Z","stale":false,"bins":25,"density_birds_km3":7.62375,"heading_deg":251.61951368321266,"speed_ms":7.323652836995737,"peak_altitude_m":0.0,"u_ms":-6.431994096425058,"v_ms":-2.6355895375532965}},{"type":"Feature","geometry":{"type":"Point","coordinates":[-74.4108,39.947]},"properties":{"site":"KDIX","name":"Philadelphia PA","scan_time":"2026-09-28T12:01:12Z","stale":false,"bins":25,"density_birds_km3":0.036000000000000004,"heading_deg":null,"speed_ms":null,"peak_altitude_m":0.0,"u_ms":null,"v_ms":null}},{"type":"Feature","geometry":{"type":"Point","coordinates":[-84.5658,33.3636]},"properties":{"site":"KFFC","name":"Atlanta GA","scan_time":"2026-09-28T11:58:08Z","stale":false,"bins":25,"density_birds_km3":5.34,"heading_deg":202.7033047441469,"speed_ms":9.10347713097713,"peak_altitude_m":200.0,"u_ms":-1.6382657657657658,"v_ms":-6.318991683991685}},{"type":"Feature","geometry":{"type":"Point","coordinates":[-85.5449,42.8939]},"properties":{"site":"KGRR","name":"Grand Rapids MI","scan_time":"2026-09-28T11:58:19Z","stale":false,"bins":25,"density_birds_km3":5.542666666666666,"heading_deg":173.53816868890866,"speed_ms":5.83474380562906,"peak_altitude_m":200.0,"u_ms":0.4634267500601395,"v_ms":-5.773466442145779}},{"type":"Feature","geometry":{"type":"Point","coordinates":[-83.8217,39.4203]},"properties":{"site":"KILN","name":"Wilmington OH","scan_time":"2026-09-28T12:01:43Z","stale":false,"bins":25,"density_birds_km3":1.0653333333333335,"heading_deg":162.788094375605,"speed_ms":6.571299435028249,"peak_altitude_m":200.0,"u_ms":1.8638166980539865,"v_ms":-6.282969240426867}},{"type":"Feature","geometry":{"type":"Point","coordinates":[-81.7019,30.4846]},"properties":{"site":"KJAX","name":"Jacksonville FL","scan_time":"2026-09-28T12:03:20Z","stale":false,"bins":25,"density_birds_km3":4.01,"heading_deg":56.10180877396634,"speed_ms":6.8377182044887785,"peak_altitude_m":0.0,"u_ms":5.3883961970074825,"v_ms":3.5825187032418953}},{"type":"Feature","geometry":{"type":"Point","coordinates":[-88.0847,41.6045]},"properties":{"site":"KLOT","name":"Chicago IL","scan_time":"2026-09-28T11:59:53Z","stale":false,"bins":25,"density_birds_km3":5.938666666666666,"heading_deg":180.7710134313506,"speed_ms":10.242926582846879,"peak_altitude_m":200.0,"u_ms":-0.13613942523574318,"v_ms":-10.236247193533902}},{"type":"Feature","geometry":{"type":"Point","coordinates":[-78.4292,33.9892]},"properties":{"site":"KLTX","name":"Wilmington NC","scan_time":"2026-09-28T11:58:25Z","stale":false,"bins":25,"density_birds_km3":0.72375,"heading_deg":255.42689582817707,"speed_ms":5.1693696027633855,"peak_altitude_m":0.0,"u_ms":-4.434481865284973,"v_ms":-1.340431778929188}},{"type":"Feature","geometry":{"type":"Point","coordinates":[-77.4778,38.9753]},"properties":{"site":"KLWX","name":"Sterling VA","scan_time":"2026-09-28T11:57:15Z","stale":false,"bins":25,"density_birds_km3":4.243333333333333,"heading_deg":160.07869892700006,"speed_ms":8.058263841421736,"peak_altitude_m":600.0,"u_ms":2.714227614490772,"v_ms":-7.476934381408065}},{"type":"Feature","geometry":{"type":"Point","coordinates":[-76.8762,34.7759]},"properties":{"site":"KMHX","name":"Morehead City NC","scan_time":"2026-09-28T11:57:17Z","stale":false,"bins":25,"density_birds_km3":0.74,"heading_deg":217.51805614826299,"speed_ms":5.022660472972974,"peak_altitude_m":0.0,"u_ms":-1.995751689189189,"v_ms":-3.0635472972972977}},{"type":"Feature","geometry":{"type":"Point","coordinates":[-80.6542,28.1133]},"properties":{"site":"KMLB","name":"Melbourne FL","scan_time":"2026-09-28T11:59:14Z","stale":false,"bins":25,"density_birds_km3":3.2356249999999998,"heading_deg":77.8519277463698,"speed_ms":3.8173073208421866,"peak_altitude_m":0.0,"u_ms":3.3677477303457604,"v_ms":0.32631253621788675}},{"type":"Feature","geometry":{"type":"Point","coordinates":[-86.5625,36.2472]},"properties":{"site":"KOHX","name":"Nashville TN","scan_time":"2026-09-28T11:58:12Z","stale":false,"bins":25,"density_birds_km3":5.0553333333333335,"heading_deg":189.45857919705207,"speed_ms":7.452839613108128,"peak_altitude_m":200.0,"u_ms":-1.0919330157355276,"v_ms":-7.2941114479572695}},{"type":"Feature","geometry":{"type":"Point","coordinates":[-72.8639,40.8655]},"properties":{"site":"KOKX","name":"Upton NY","scan_time":"2026-09-28T12:02:22Z","stale":false,"bins":25,"density_birds_km3":0.004,"heading_deg":null,"speed_ms":null,"peak_altitude_m":200.0,"u_ms":null,"v_ms":null}},{"type":"Feature","geometry":{"type":"Point","coordinates":[-80.2183,40.5317]},"properties":{"site":"KPBZ","name":"Pittsburgh PA","scan_time":"2026-09-28T12:01:28Z","stale":false,"bins":25,"density_birds_km3":1.9385714285714286,"heading_deg":198.12889142095966,"speed_ms":3.0838901179941005,"peak_altitude_m":600.0,"u_ms":-0.8999483775811209,"v_ms":-2.888573008849558}},{"type":"Feature","geometry":{"type":"Point","coordinates":[-78.4899,35.6655]},"properties":{"site":"KRAX","name":"Raleigh NC","scan_time":"2026-09-28T12:00:40Z","stale":false,"bins":25,"density_birds_km3":0.383125,"heading_deg":192.98820534777155,"speed_ms":1.053295269168026,"peak_altitude_m":0.0,"u_ms":-0.2323980424143556,"v_ms":-0.8905057096247959}},{"type":"Feature","geometry":{"type":"Point","coordinates":[-82.4017,27.7055]},"properties":{"site":"KTBW","name":"Tampa FL","scan_time":"2026-09-28T12:01:27Z","stale":false,"bins":25,"density_birds_km3":3.6975000000000002,"heading_deg":32.50788506004123,"speed_ms":3.5986105476673425,"peak_altitude_m":200.0,"u_ms":1.1210378634212306,"v_ms":0.2640787694388101}}]}