{"type":"FeatureCollection","frame":"2026-09-24T11","site_count":20,"fresh_count":20,"failures":{},"features":[{"type":"Feature","geometry":{"type":"Point","coordinates":[-77.0073,36.984]},"properties":{"site":"KAKQ","name":"Wakefield VA","scan_time":"2026-09-24T10:57:34Z","stale":false,"bins":25,"density_birds_km3":0.148125,"heading_deg":234.75,"speed_ms":7.5,"peak_altitude_m":0.0,"u_ms":-6.11,"v_ms":-4.33}},{"type":"Feature","geometry":{"type":"Point","coordinates":[-71.1369,41.9558]},"properties":{"site":"KBOX","name":"Boston MA","scan_time":"2026-09-24T11:00:33Z","stale":false,"bins":25,"density_birds_km3":1.245625,"heading_deg":200.95724682495765,"speed_ms":4.58017667844523,"peak_altitude_m":0.0,"u_ms":-1.7830893488137305,"v_ms":-4.004184755174155}},{"type":"Feature","geometry":{"type":"Point","coordinates":[-78.7369,42.9489]},"properties":{"site":"KBUF","name":"Buffalo NY","scan_time":"2026-09-24T11:01:40Z","stale":false,"bins":25,"density_birds_km3":2.8373333333333335,"heading_deg":192.88611376762609,"speed_ms":3.8037406015037587,"peak_altitude_m":200.0,"u_ms":-0.3463604323308271,"v_ms":-3.4607988721804506}},{"type":"Feature","geometry":{"type":"Point","coordinates":[-81.8597,41.4131]},"properties":{"site":"KCLE","name":"Cleveland OH","scan_time":"2026-09-24T10:58:33Z","stale":false,"bins":25,"density_birds_km3":0.31666666666666665,"heading_deg":294.8738013314094,"speed_ms":7.047810526315789,"peak_altitude_m":200.0,"u_ms":-6.334715789473684,"v_ms":2.980357894736842}},{"type":"Feature","geometry":{"type":"Point","coordinates":[-81.0423,32.6555]},"properties":{"site":"KCLX","name":"Charleston SC","scan_time":"2026-09-24T11:01:18Z","stale":false,"bins":25,"density_birds_km3":0.046875,"heading_deg":197.31867511344828,"speed_ms":7.860985915492957,"peak_altitude_m":200.0,"u_ms":-2.4414084507042255,"v_ms":-7.426056338028169}},{"type":"Feature","geometry":{"type":"Point","coordinates":[-74.4108,39.947]},"properties":{"site":"KDIX","name":"Philadelphia PA","scan_time":"2026-09-24T10:56:48Z","stale":false,"bins":25,"density_birds_km3":0.38875000000000004,"heading_deg":202.53456834486957,"speed_ms":9.316328502415459,"peak_altitude_m":200.0,"u_ms":-3.5551851851851857,"v_ms":-8.495314009661834}},{"type":"Feature","geometry":{"type":"Point","coordinates":[-84.5658,33.3636]},"properties":{"site":"KFFC","name":"Atlanta GA","scan_time":"2026-09-24T10:58:52Z","stale":false,"bins":25,"density_birds_km3":1.8033333333333335,"heading_deg":236.9796294907808,"speed_ms":5.813031875463306,"peak_altitude_m":400.0,"u_ms":-4.77977390659748,"v_ms":-3.1519829503335806}},{"type":"Feature","geometry":{"type":"Point","coordinates":[-85.5449,42.8939]},"properties":{"site":"KGRR","name":"Grand Rapids MI","scan_time":"2026-09-24T10:57:21Z","stale":false,"bins":25,"density_birds_km3":0.11066666666666668,"heading_deg":267.1086703183778,"speed_ms":7.724879518072289,"peak_altitude_m":200.0,"u_ms":-7.553493975903615,"v_ms":-0.3349397590361446}},{"type":"Feature","geometry":{"type":"Point","coordinates":[-83.8217,39.4203]},"properties":{"site":"KILN","name":"Wilmington OH","scan_time":"2026-09-24T10:58:11Z","stale":false,"bins":25,"density_birds_km3":1.1993333333333334,"heading_deg":272.6399122111933,"speed_ms":5.596031128404669,"peak_altitude_m":200.0,"u_ms":-5.579349638688159,"v_ms":0.2808449138410228}},{"type":"Feature","geometry":{"type":"Point","coordinates":[-81.7019,30.4846]},"properties":{"site":"KJAX","name":"Jacksonville FL","scan_time":"2026-09-24T11:01:27Z","stale":false,"bins":25,"density_birds_km3":1.285625,"heading_deg":179.14085593875012,"speed_ms":10.024691489361702,"peak_altitude_m":0.0,"u_ms":0.1289308510638298,"v_ms":-9.995595744680852}},{"type":"Feature","geometry":{"type":"Point","coordinates":[-88.0847,41.6045]},"properties":{"site":"KLOT","name":"Chicago IL","scan_time":"2026-09-24T11:02:10Z","stale":false,"bins":25,"density_birds_km3":1.4792857142857143,"heading_deg":257.8794974062186,"speed_ms":8.464825918762088,"peak_altitude_m":200.0,"u_ms":-7.74965667311412,"v_ms":-1.4726595744680848}},{"type":"Feature","geometry":{"type":"Point","coordinates":[-78.4292,33.9892]},"properties":{"site":"KLTX","name":"Wilmington NC","scan_time":"2026-09-24T10:58:19Z","stale":false,"bins":25,"density_birds_km3":0.075,"heading_deg":193.89999999999998,"speed_ms":8.25,"peak_altitude_m":200.0,"u_ms":-1.98,"v_ms":-8.01}},{"type":"Feature","geometry":{"type":"Point","coordinates":[-77.4778,38.9753]},"properties":{"site":"KLWX","name":"Sterling VA","scan_time":"2026-09-24T10:58:35Z","stale":false,"bins":25,"density_birds_km3":2.20375,"heading_deg":219.08870082438185,"speed_ms":8.724166193987521,"peak_altitude_m":0.0,"u_ms":-5.472427680090754,"v_ms":-6.736786727169598}},{"type":"Feature","geometry":{"type":"Point","coordinates":[-76.8762,34.7759]},"properties":{"site":"KMHX","name":"Morehead City NC","scan_time":"2026-09-24T11:02:15Z","stale":false,"bins":25,"density_birds_km3":0.06625,"heading_deg":null,"speed_ms":null,"peak_altitude_m":0.0,"u_ms":null,"v_ms":null}},{"type":"Feature","geometry":{"type":"Point","coordinates":[-80.6542,28.1133]},"properties":{"site":"KMLB","name":"Melbourne FL","scan_time":"2026-09-24T10:59:44Z","stale":false,"bins":25,"density_birds_km3":3.31125,"heading_deg":164.06129112009253,"speed_ms":8.350932427331069,"peak_altitude_m":0.0,"u_ms":2.151577953944885,"v_ms":-7.976623254058135}},{"type":"Feature","geometry":{"type":"Point","coordinates":[-86.5625,36.2472]},"properties":{"site":"KOHX","name":"Nashville TN","scan_time":"2026-09-24T11:00:51Z","stale":false,"bins":25,"density_birds_km3":3.582,"heading_deg":191.02730332497546,"speed_ms":6.165765866368882,"peak_altitude_m":200.0,"u_ms":-1.1231844407221292,"v_ms":-5.900569514237856}},{"type":"Feature","geometry":{"type":"Point","coordinates":[-72.8639,40.8655]},"properties":{"site":"KOKX","name":"Upton NY","scan_time":"2026-09-24T11:01:38Z","stale":false,"bins":25,"density_birds_km3":0.71875,"heading_deg":230.77598044273105,"speed_ms":6.6688,"peak_altitude_m":0.0,"u_ms":-5.2264,"v_ms":-4.115600000000001}},{"type":"Feature","geometry":{"type":"Point","coordinates":[-80.2183,40.5317]},"properties":{"site":"KPBZ","name":"Pittsburgh PA","scan_time":"2026-09-24T10:58:27Z","stale":false,"bins":25,"density_birds_km3":0.14857142857142858,"heading_deg":271.62028985015536,"speed_ms":8.118146341463415,"peak_altitude_m":400.0,"u_ms":-8.052975609756096,"v_ms":0.20502439024390237}},{"type":"Feature","geometry":{"type":"Point","coordinates":[-78.4899,35.6655]},"properties":{"site":"KRAX","name":"Raleigh NC","scan_time":"2026-09-24T10:58:58Z","stale":false,"bins":25,"density_birds_km3":0.17562499999999998,"heading_deg":192.2106305346962,"speed_ms":6.560476190476191,"peak_altitude_m":0.0,"u_ms":-1.3754761904761905,"v_ms":-6.416944444444446}},{"type":"Feature","geometry":{"type":"Point","coordinates":[-82.4017,27.7055]},"properties":{"site":"KTBW","name":"Tampa FL","scan_time":"2026-09-24T10:58:28Z","stale":false,"bins":25,"density_birds_km3":3.2737499999999997,"heading_deg":197.9271665844334,"speed_ms":7.164988540870894,"peak_altitude_m":0.0,"u_ms":-2.3047975553857905,"v_ms":-6.739864400305576}}]}