{"type":"FeatureCollection","frame":"2026-10-07T04","site_count":20,"fresh_count":19,"failures":{"KILN":"RuntimeError('no scan within 20 min of 2026-10-07T04:00Z')"},"features":[{"type":"Feature","geometry":{"type":"Point","coordinates":[-77.0073,36.984]},"properties":{"site":"KAKQ","name":"Wakefield VA","scan_time":"2026-10-07T03:56:35Z","stale":false,"bins":25,"density_birds_km3":20.7625,"heading_deg":228.36534696266034,"speed_ms":7.293122610554201,"peak_altitude_m":200.0,"u_ms":-4.171947078479184,"v_ms":-4.492897739245612}},{"type":"Feature","geometry":{"type":"Point","coordinates":[-71.1369,41.9558]},"properties":{"site":"KBOX","name":"Boston MA","scan_time":"2026-10-07T03:56:22Z","stale":false,"bins":25,"density_birds_km3":5.81375,"heading_deg":167.48380000037446,"speed_ms":8.998802279324805,"peak_altitude_m":0.0,"u_ms":1.874600580582733,"v_ms":-8.569862380389207}},{"type":"Feature","geometry":{"type":"Point","coordinates":[-78.7369,42.9489]},"properties":{"site":"KBUF","name":"Buffalo NY","scan_time":"2026-10-07T04:02:39Z","stale":false,"bins":25,"density_birds_km3":0.6313333333333334,"heading_deg":17.563951479330676,"speed_ms":7.312452431289641,"peak_altitude_m":200.0,"u_ms":2.1059830866807614,"v_ms":6.804365750528541}},{"type":"Feature","geometry":{"type":"Point","coordinates":[-81.8597,41.4131]},"properties":{"site":"KCLE","name":"Cleveland OH","scan_time":"2026-10-07T03:59:24Z","stale":false,"bins":25,"density_birds_km3":0.7133333333333334,"heading_deg":17.156034311798695,"speed_ms":10.341196261682242,"peak_altitude_m":200.0,"u_ms":3.077177570093458,"v_ms":9.638065420560746}},{"type":"Feature","geometry":{"type":"Point","coordinates":[-81.0423,32.6555]},"properties":{"site":"KCLX","name":"Charleston SC","scan_time":"2026-10-07T03:59:42Z","stale":false,"bins":25,"density_birds_km3":149.09125,"heading_deg":214.80877247878277,"speed_ms":14.763223613055764,"peak_altitude_m":0.0,"u_ms":-8.545735413714755,"v_ms":-11.816017874959128}},{"type":"Feature","geometry":{"type":"Point","coordinates":[-74.4108,39.947]},"properties":{"site":"KDIX","name":"Philadelphia PA","scan_time":"2026-10-07T03:58:41Z","stale":false,"bins":25,"density_birds_km3":32.865,"heading_deg":200.5292785982893,"speed_ms":8.229375653728392,"peak_altitude_m":200.0,"u_ms":-2.865829070231824,"v_ms":-7.619003860563301}},{"type":"Feature","geometry":{"type":"Point","coordinates":[-84.5658,33.3636]},"properties":{"site":"KFFC","name":"Atlanta GA","scan_time":"2026-10-07T04:02:25Z","stale":false,"bins":25,"density_birds_km3":172.38,"heading_deg":224.64499456943966,"speed_ms":10.83976366167769,"peak_altitude_m":200.0,"u_ms":-7.5283277642417925,"v_ms":-7.41508523803999}},{"type":"Feature","geometry":{"type":"Point","coordinates":[-85.5449,42.8939]},"properties":{"site":"KGRR","name":"Grand Rapids MI","scan_time":"2026-10-07T04:02:48Z","stale":false,"bins":25,"density_birds_km3":0.33999999999999997,"heading_deg":42.594685688425265,"speed_ms":13.399607843137254,"peak_altitude_m":200.0,"u_ms":9.27494117647059,"v_ms":9.427666666666667}},{"type":"Feature","geometry":{"type":"Point","coordinates":[-81.7019,30.4846]},"properties":{"site":"KJAX","name":"Jacksonville FL","scan_time":"2026-10-07T04:00:14Z","stale":false,"bins":25,"density_birds_km3":244.61,"heading_deg":191.94908133049017,"speed_ms":11.462288348288673,"peak_altitude_m":0.0,"u_ms":-2.5376603171153267,"v_ms":-10.980905548483248}},{"type":"Feature","geometry":{"type":"Point","coordinates":[-88.0847,41.6045]},"properties":{"site":"KLOT","name":"Chicago IL","scan_time":"2026-10-07T04:01:09Z","stale":false,"bins":25,"density_birds_km3":0.5086666666666667,"heading_deg":48.25742099092142,"speed_ms":16.36860709592641,"peak_altitude_m":200.0,"u_ms":12.053180026281208,"v_ms":10.579868593955322}},{"type":"Feature","geometry":{"type":"Point","coordinates":[-78.4292,33.9892]},"properties":{"site":"KLTX","name":"Wilmington NC","scan_time":"2026-10-07T03:59:46Z","stale":false,"bins":25,"density_birds_km3":62.863125,"heading_deg":224.88823072821904,"speed_ms":12.637164619897579,"peak_altitude_m":0.0,"u_ms":-8.936475513349574,"v_ms":-8.886686222840948}},{"type":"Feature","geometry":{"type":"Point","coordinates":[-77.4778,38.9753]},"properties":{"site":"KLWX","name":"Sterling VA","scan_time":"2026-10-07T03:57:19Z","stale":false,"bins":25,"density_birds_km3":42.850625,"heading_deg":262.03884159778863,"speed_ms":6.0562854975860905,"peak_altitude_m":200.0,"u_ms":-5.0749204358162805,"v_ms":-0.8624385583640846}},{"type":"Feature","geometry":{"type":"Point","coordinates":[-76.8762,34.7759]},"properties":{"site":"KMHX","name":"Morehead City NC","scan_time":"2026-10-07T03:58:15Z","stale":false,"bins":25,"density_birds_km3":21.524375,"heading_deg":208.96977631351837,"speed_ms":11.68004733006185,"peak_altitude_m":0.0,"u_ms":-5.634359011585703,"v_ms":-10.008601295043409}},{"type":"Feature","geometry":{"type":"Point","coordinates":[-80.6542,28.1133]},"properties":{"site":"KMLB","name":"Melbourne FL","scan_time":"2026-10-07T03:58:10Z","stale":false,"bins":25,"density_birds_km3":96.485,"heading_deg":157.0477642691046,"speed_ms":4.631841004739588,"peak_altitude_m":0.0,"u_ms":1.6105279263969834,"v_ms":-4.237645008828645}},{"type":"Feature","geometry":{"type":"Point","coordinates":[-86.5625,36.2472]},"properties":{"site":"KOHX","name":"Nashville TN","scan_time":"2026-10-07T03:57:08Z","stale":false,"bins":25,"density_birds_km3":35.256,"heading_deg":289.55356439618976,"speed_ms":5.364179335905,"peak_altitude_m":200.0,"u_ms":-1.1229925875501094,"v_ms":0.46450873610165644}},{"type":"Feature","geometry":{"type":"Point","coordinates":[-72.8639,40.8655]},"properties":{"site":"KOKX","name":"Upton NY","scan_time":"2026-10-07T04:02:15Z","stale":false,"bins":25,"density_birds_km3":15.69875,"heading_deg":229.17852540271485,"speed_ms":8.419010232113708,"peak_altitude_m":0.0,"u_ms":-6.388326233228491,"v_ms":-5.285858581837003}},{"type":"Feature","geometry":{"type":"Point","coordinates":[-80.2183,40.5317]},"properties":{"site":"KPBZ","name":"Pittsburgh PA","scan_time":"2026-10-07T03:58:18Z","stale":false,"bins":25,"density_birds_km3":4.378571428571429,"heading_deg":317.0456033722105,"speed_ms":5.880448613376835,"peak_altitude_m":400.0,"u_ms":-3.93294616639478,"v_ms":3.5938988580750406}},{"type":"Feature","geometry":{"type":"Point","coordinates":[-78.4899,35.6655]},"properties":{"site":"KRAX","name":"Raleigh NC","scan_time":"2026-10-07T03:59:25Z","stale":false,"bins":25,"density_birds_km3":62.728750000000005,"heading_deg":215.62290912764317,"speed_ms":9.92976552301422,"peak_altitude_m":200.0,"u_ms":-5.823142071329633,"v_ms":-7.883849687596536}},{"type":"Feature","geometry":{"type":"Point","coordinates":[-82.4017,27.7055]},"properties":{"site":"KTBW","name":"Tampa FL","scan_time":"2026-10-07T03:58:45Z","stale":false,"bins":25,"density_birds_km3":11.07625,"heading_deg":266.09682133309997,"speed_ms":4.99758083629592,"peak_altitude_m":0.0,"u_ms":-4.340057558828509,"v_ms":-0.5957366965746853}}]}