{"type":"FeatureCollection","frame":"2026-09-15T00","site_count":20,"fresh_count":19,"failures":{"KBUF":"RuntimeError('no scan within 20 min of 2026-09-15T00:00Z')"},"features":[{"type":"Feature","geometry":{"type":"Point","coordinates":[-77.0073,36.984]},"properties":{"site":"KAKQ","name":"Wakefield VA","scan_time":"2026-09-14T23:59:03Z","stale":false,"bins":25,"density_birds_km3":29.019375,"heading_deg":196.17900674757828,"speed_ms":11.841935164243404,"peak_altitude_m":200.0,"u_ms":-3.278007539041465,"v_ms":-11.340230694668822}},{"type":"Feature","geometry":{"type":"Point","coordinates":[-71.1369,41.9558]},"properties":{"site":"KBOX","name":"Boston MA","scan_time":"2026-09-14T23:55:45Z","stale":false,"bins":25,"density_birds_km3":11.325,"heading_deg":177.54812345976055,"speed_ms":12.109957212713937,"peak_altitude_m":200.0,"u_ms":0.48300733496332515,"v_ms":-12.08637919537675}},{"type":"Feature","geometry":{"type":"Point","coordinates":[-81.8597,41.4131]},"properties":{"site":"KCLE","name":"Cleveland OH","scan_time":"2026-09-15T00:01:57Z","stale":false,"bins":25,"density_birds_km3":4.03,"heading_deg":232.60610051154814,"speed_ms":3.1274392059553353,"peak_altitude_m":200.0,"u_ms":-2.4487014061207613,"v_ms":-1.8413134822167079}},{"type":"Feature","geometry":{"type":"Point","coordinates":[-81.0423,32.6555]},"properties":{"site":"KCLX","name":"Charleston SC","scan_time":"2026-09-15T00:00:11Z","stale":false,"bins":25,"density_birds_km3":13.024375,"heading_deg":206.83146602162043,"speed_ms":4.447033943060156,"peak_altitude_m":0.0,"u_ms":-1.881503672763935,"v_ms":-3.989679293293005}},{"type":"Feature","geometry":{"type":"Point","coordinates":[-74.4108,39.947]},"properties":{"site":"KDIX","name":"Philadelphia PA","scan_time":"2026-09-15T00:01:29Z","stale":false,"bins":25,"density_birds_km3":37.40923076923077,"heading_deg":185.7790038010078,"speed_ms":12.659374023196513,"peak_altitude_m":200.0,"u_ms":-1.2369116558361437,"v_ms":-12.590043801924818}},{"type":"Feature","geometry":{"type":"Point","coordinates":[-84.5658,33.3636]},"properties":{"site":"KFFC","name":"Atlanta GA","scan_time":"2026-09-15T00:01:11Z","stale":false,"bins":25,"density_birds_km3":4.394666666666667,"heading_deg":234.87747509822805,"speed_ms":4.422826152912621,"peak_altitude_m":200.0,"u_ms":-3.6106477548543685,"v_ms":-2.545708434466019}},{"type":"Feature","geometry":{"type":"Point","coordinates":[-85.5449,42.8939]},"properties":{"site":"KGRR","name":"Grand Rapids MI","scan_time":"2026-09-15T00:00:29Z","stale":false,"bins":25,"density_birds_km3":0.0,"heading_deg":null,"speed_ms":null,"peak_altitude_m":200.0,"u_ms":null,"v_ms":null}},{"type":"Feature","geometry":{"type":"Point","coordinates":[-83.8217,39.4203]},"properties":{"site":"KILN","name":"Wilmington OH","scan_time":"2026-09-14T23:59:55Z","stale":false,"bins":25,"density_birds_km3":0.15733333333333333,"heading_deg":275.83396903869425,"speed_ms":5.9107317073170735,"peak_altitude_m":200.0,"u_ms":-5.83609756097561,"v_ms":0.4913414634146342}},{"type":"Feature","geometry":{"type":"Point","coordinates":[-81.7019,30.4846]},"properties":{"site":"KJAX","name":"Jacksonville FL","scan_time":"2026-09-15T00:00:28Z","stale":false,"bins":25,"density_birds_km3":23.159375,"heading_deg":264.2023774580076,"speed_ms":4.492761580822805,"peak_altitude_m":0.0,"u_ms":-4.209949249541086,"v_ms":-0.6809380736421553}},{"type":"Feature","geometry":{"type":"Point","coordinates":[-88.0847,41.6045]},"properties":{"site":"KLOT","name":"Chicago IL","scan_time":"2026-09-14T23:57:10Z","stale":false,"bins":25,"density_birds_km3":0.45666666666666667,"heading_deg":325.23604488299713,"speed_ms":7.213810218978103,"peak_altitude_m":200.0,"u_ms":-4.08185401459854,"v_ms":5.923284671532846}},{"type":"Feature","geometry":{"type":"Point","coordinates":[-78.4292,33.9892]},"properties":{"site":"KLTX","name":"Wilmington NC","scan_time":"2026-09-15T00:00:12Z","stale":false,"bins":25,"density_birds_km3":49.844375,"heading_deg":199.80084909213844,"speed_ms":10.025872277463606,"peak_altitude_m":200.0,"u_ms":-3.3651774899374307,"v_ms":-9.434458752868302}},{"type":"Feature","geometry":{"type":"Point","coordinates":[-77.4778,38.9753]},"properties":{"site":"KLWX","name":"Sterling VA","scan_time":"2026-09-15T00:00:03Z","stale":false,"bins":25,"density_birds_km3":49.091875,"heading_deg":194.1001470944763,"speed_ms":10.378077281251198,"peak_altitude_m":200.0,"u_ms":-2.5665191544732044,"v_ms":-9.873838803913815}},{"type":"Feature","geometry":{"type":"Point","coordinates":[-76.8762,34.7759]},"properties":{"site":"KMHX","name":"Morehead City NC","scan_time":"2026-09-15T00:01:56Z","stale":false,"bins":25,"density_birds_km3":53.251875,"heading_deg":214.04597472445155,"speed_ms":13.76945307090126,"peak_altitude_m":200.0,"u_ms":-7.686061054188233,"v_ms":-11.416816544018403}},{"type":"Feature","geometry":{"type":"Point","coordinates":[-80.6542,28.1133]},"properties":{"site":"KMLB","name":"Melbourne FL","scan_time":"2026-09-15T00:01:20Z","stale":false,"bins":25,"density_birds_km3":18.9075,"heading_deg":214.84861204156957,"speed_ms":6.090282295385429,"peak_altitude_m":0.0,"u_ms":-3.439502181673939,"v_ms":-4.930865397329103}},{"type":"Feature","geometry":{"type":"Point","coordinates":[-86.5625,36.2472]},"properties":{"site":"KOHX","name":"Nashville TN","scan_time":"2026-09-15T00:02:01Z","stale":false,"bins":25,"density_birds_km3":2.0053333333333336,"heading_deg":224.05436797212255,"speed_ms":7.886315264383106,"peak_altitude_m":200.0,"u_ms":-5.438420352510808,"v_ms":-5.678024609245095}},{"type":"Feature","geometry":{"type":"Point","coordinates":[-72.8639,40.8655]},"properties":{"site":"KOKX","name":"Upton NY","scan_time":"2026-09-15T00:04:02Z","stale":false,"bins":25,"density_birds_km3":14.255,"heading_deg":188.40421660613652,"speed_ms":11.780202791677642,"peak_altitude_m":0.0,"u_ms":-1.7077065226933545,"v_ms":-11.635400754982005}},{"type":"Feature","geometry":{"type":"Point","coordinates":[-80.2183,40.5317]},"properties":{"site":"KPBZ","name":"Pittsburgh PA","scan_time":"2026-09-15T00:00:11Z","stale":false,"bins":25,"density_birds_km3":7.575,"heading_deg":216.5263327760522,"speed_ms":3.564492220650637,"peak_altitude_m":400.0,"u_ms":-2.085662423385196,"v_ms":-2.88191984912777}},{"type":"Feature","geometry":{"type":"Point","coordinates":[-78.4899,35.6655]},"properties":{"site":"KRAX","name":"Raleigh NC","scan_time":"2026-09-15T00:01:20Z","stale":false,"bins":25,"density_birds_km3":25.506249999999998,"heading_deg":226.71351085865976,"speed_ms":9.347408747367117,"peak_altitude_m":0.0,"u_ms":-6.822258704001982,"v_ms":-6.349426836823193}},{"type":"Feature","geometry":{"type":"Point","coordinates":[-82.4017,27.7055]},"properties":{"site":"KTBW","name":"Tampa FL","scan_time":"2026-09-15T00:01:24Z","stale":false,"bins":25,"density_birds_km3":31.238125,"heading_deg":168.9883524932263,"speed_ms":6.431796482663412,"peak_altitude_m":0.0,"u_ms":1.2093265440867529,"v_ms":-6.311776675136552}}]}