{"type":"FeatureCollection","frame":"2026-08-23T02","site_count":20,"fresh_count":20,"failures":{},"features":[{"type":"Feature","geometry":{"type":"Point","coordinates":[-77.0073,36.984]},"properties":{"site":"KAKQ","name":"Wakefield VA","scan_time":"2026-08-23T01:57:54Z","stale":false,"bins":25,"density_birds_km3":14.854375,"heading_deg":18.443623962436813,"speed_ms":5.440465791466801,"peak_altitude_m":0.0,"u_ms":1.9999907430783472,"v_ms":4.497802743414963}},{"type":"Feature","geometry":{"type":"Point","coordinates":[-71.1369,41.9558]},"properties":{"site":"KBOX","name":"Boston MA","scan_time":"2026-08-23T01:59:03Z","stale":false,"bins":25,"density_birds_km3":2.25,"heading_deg":228.81148469773123,"speed_ms":4.190675187552097,"peak_altitude_m":0.0,"u_ms":-2.8925006946373992,"v_ms":-2.594567935537649}},{"type":"Feature","geometry":{"type":"Point","coordinates":[-78.7369,42.9489]},"properties":{"site":"KBUF","name":"Buffalo NY","scan_time":"2026-08-23T02:02:08Z","stale":false,"bins":25,"density_birds_km3":2.216666666666667,"heading_deg":307.451878687192,"speed_ms":3.6430135338345866,"peak_altitude_m":200.0,"u_ms":-0.8009684210526317,"v_ms":1.4846706766917295}},{"type":"Feature","geometry":{"type":"Point","coordinates":[-81.8597,41.4131]},"properties":{"site":"KCLE","name":"Cleveland OH","scan_time":"2026-08-23T02:00:43Z","stale":false,"bins":25,"density_birds_km3":5.598,"heading_deg":130.33615304671014,"speed_ms":9.623435750863402,"peak_altitude_m":1000.0,"u_ms":6.898112421102775,"v_ms":-6.322450875312612}},{"type":"Feature","geometry":{"type":"Point","coordinates":[-81.0423,32.6555]},"properties":{"site":"KCLX","name":"Charleston SC","scan_time":"2026-08-23T01:57:21Z","stale":false,"bins":25,"density_birds_km3":4.930625,"heading_deg":156.80859482231315,"speed_ms":2.6248117041452184,"peak_altitude_m":0.0,"u_ms":1.2824166892441073,"v_ms":-1.5400758602004878}},{"type":"Feature","geometry":{"type":"Point","coordinates":[-74.4108,39.947]},"properties":{"site":"KDIX","name":"Philadelphia PA","scan_time":"2026-08-23T02:03:06Z","stale":false,"bins":25,"density_birds_km3":2.960625,"heading_deg":319.318529231042,"speed_ms":4.075935783692438,"peak_altitude_m":200.0,"u_ms":-2.7157731305449944,"v_ms":2.8470975918884665}},{"type":"Feature","geometry":{"type":"Point","coordinates":[-84.5658,33.3636]},"properties":{"site":"KFFC","name":"Atlanta GA","scan_time":"2026-08-23T01:59:46Z","stale":false,"bins":25,"density_birds_km3":36.24333333333333,"heading_deg":181.66500355128588,"speed_ms":6.1074191115607475,"peak_altitude_m":600.0,"u_ms":0.006032741653637562,"v_ms":-5.576709095925688}},{"type":"Feature","geometry":{"type":"Point","coordinates":[-85.5449,42.8939]},"properties":{"site":"KGRR","name":"Grand Rapids MI","scan_time":"2026-08-23T02:00:34Z","stale":false,"bins":25,"density_birds_km3":35.956,"heading_deg":168.15807407807804,"speed_ms":15.17765576266152,"peak_altitude_m":800.0,"u_ms":2.9376824966582507,"v_ms":-14.840661666419129}},{"type":"Feature","geometry":{"type":"Point","coordinates":[-83.8217,39.4203]},"properties":{"site":"KILN","name":"Wilmington OH","scan_time":"2026-08-23T01:57:38Z","stale":false,"bins":25,"density_birds_km3":17.618666666666666,"heading_deg":151.30054136451554,"speed_ms":13.294236415922507,"peak_altitude_m":600.0,"u_ms":6.140794233388831,"v_ms":-11.690878991978206}},{"type":"Feature","geometry":{"type":"Point","coordinates":[-81.7019,30.4846]},"properties":{"site":"KJAX","name":"Jacksonville FL","scan_time":"2026-08-23T02:00:11Z","stale":false,"bins":25,"density_birds_km3":4.265,"heading_deg":27.132622303712935,"speed_ms":3.4302572442341805,"peak_altitude_m":0.0,"u_ms":1.7754523950325252,"v_ms":2.687403903015967}},{"type":"Feature","geometry":{"type":"Point","coordinates":[-88.0847,41.6045]},"properties":{"site":"KLOT","name":"Chicago IL","scan_time":"2026-08-23T02:00:20Z","stale":false,"bins":25,"density_birds_km3":21.9,"heading_deg":154.51844187885757,"speed_ms":12.585176964056089,"peak_altitude_m":600.0,"u_ms":5.336632171942931,"v_ms":-11.328431816790154}},{"type":"Feature","geometry":{"type":"Point","coordinates":[-78.4292,33.9892]},"properties":{"site":"KLTX","name":"Wilmington NC","scan_time":"2026-08-23T01:57:16Z","stale":false,"bins":25,"density_birds_km3":3.1475,"heading_deg":96.95684261699122,"speed_ms":4.705257608911876,"peak_altitude_m":200.0,"u_ms":4.559633976526755,"v_ms":-0.6315834493733838}},{"type":"Feature","geometry":{"type":"Point","coordinates":[-77.4778,38.9753]},"properties":{"site":"KLWX","name":"Sterling VA","scan_time":"2026-08-23T02:00:45Z","stale":false,"bins":25,"density_birds_km3":18.846249999999998,"heading_deg":null,"speed_ms":null,"peak_altitude_m":400.0,"u_ms":null,"v_ms":null}},{"type":"Feature","geometry":{"type":"Point","coordinates":[-76.8762,34.7759]},"properties":{"site":"KMHX","name":"Morehead City NC","scan_time":"2026-08-23T01:58:47Z","stale":false,"bins":25,"density_birds_km3":0.529375,"heading_deg":33.22890445738123,"speed_ms":6.834233055885851,"peak_altitude_m":0.0,"u_ms":3.5864328180737215,"v_ms":5.6184661117717}},{"type":"Feature","geometry":{"type":"Point","coordinates":[-80.6542,28.1133]},"properties":{"site":"KMLB","name":"Melbourne FL","scan_time":"2026-08-23T02:00:04Z","stale":false,"bins":25,"density_birds_km3":7.95375,"heading_deg":43.30675696927678,"speed_ms":3.3464545025931165,"peak_altitude_m":0.0,"u_ms":2.113641364136414,"v_ms":2.3085651422285087}},{"type":"Feature","geometry":{"type":"Point","coordinates":[-86.5625,36.2472]},"properties":{"site":"KOHX","name":"Nashville TN","scan_time":"2026-08-23T02:00:01Z","stale":false,"bins":25,"density_birds_km3":50.95,"heading_deg":169.67582367947475,"speed_ms":8.754251880929015,"peak_altitude_m":600.0,"u_ms":1.5472179260713117,"v_ms":-8.50164605822702}},{"type":"Feature","geometry":{"type":"Point","coordinates":[-72.8639,40.8655]},"properties":{"site":"KOKX","name":"Upton NY","scan_time":"2026-08-23T01:59:22Z","stale":false,"bins":25,"density_birds_km3":3.9375,"heading_deg":280.307117981488,"speed_ms":3.7997172808132147,"peak_altitude_m":0.0,"u_ms":-3.70521124523507,"v_ms":0.7025905336721728}},{"type":"Feature","geometry":{"type":"Point","coordinates":[-80.2183,40.5317]},"properties":{"site":"KPBZ","name":"Pittsburgh PA","scan_time":"2026-08-23T01:58:38Z","stale":false,"bins":25,"density_birds_km3":2.262142857142857,"heading_deg":50.09615796761954,"speed_ms":4.4073316391359585,"peak_altitude_m":400.0,"u_ms":3.75992376111817,"v_ms":1.7378684879288435}},{"type":"Feature","geometry":{"type":"Point","coordinates":[-78.4899,35.6655]},"properties":{"site":"KRAX","name":"Raleigh NC","scan_time":"2026-08-23T02:00:45Z","stale":false,"bins":25,"density_birds_km3":8.4525,"heading_deg":70.84277180585758,"speed_ms":6.142098957177724,"peak_altitude_m":0.0,"u_ms":5.7721403742326745,"v_ms":2.0363952370386804}},{"type":"Feature","geometry":{"type":"Point","coordinates":[-82.4017,27.7055]},"properties":{"site":"KTBW","name":"Tampa FL","scan_time":"2026-08-23T01:59:12Z","stale":false,"bins":25,"density_birds_km3":2.070625,"heading_deg":59.93404574586299,"speed_ms":4.329661937820706,"peak_altitude_m":0.0,"u_ms":3.648198007847872,"v_ms":2.0401841231512226}}]}