{"type":"FeatureCollection","frame":"2026-08-29T08","site_count":20,"fresh_count":20,"failures":{},"features":[{"type":"Feature","geometry":{"type":"Point","coordinates":[-77.0073,36.984]},"properties":{"site":"KAKQ","name":"Wakefield VA","scan_time":"2026-08-29T07:57:58Z","stale":false,"bins":25,"density_birds_km3":22.03,"heading_deg":208.17547296742194,"speed_ms":9.979300365988594,"peak_altitude_m":200.0,"u_ms":-4.793146934490878,"v_ms":-8.674704797571424}},{"type":"Feature","geometry":{"type":"Point","coordinates":[-71.1369,41.9558]},"properties":{"site":"KBOX","name":"Boston MA","scan_time":"2026-08-29T07:58:48Z","stale":false,"bins":25,"density_birds_km3":6.199375,"heading_deg":202.33823261125633,"speed_ms":10.14121478339897,"peak_altitude_m":400.0,"u_ms":-3.6692396243562557,"v_ms":-9.33968797334141}},{"type":"Feature","geometry":{"type":"Point","coordinates":[-78.7369,42.9489]},"properties":{"site":"KBUF","name":"Buffalo NY","scan_time":"2026-08-29T08:00:02Z","stale":false,"bins":25,"density_birds_km3":4.9206666666666665,"heading_deg":173.7591938916083,"speed_ms":8.01785259449939,"peak_altitude_m":400.0,"u_ms":0.8558718330849479,"v_ms":-7.952269340197804}},{"type":"Feature","geometry":{"type":"Point","coordinates":[-81.8597,41.4131]},"properties":{"site":"KCLE","name":"Cleveland OH","scan_time":"2026-08-29T08:03:25Z","stale":false,"bins":25,"density_birds_km3":1.3546666666666667,"heading_deg":290.6017942342338,"speed_ms":6.310246548323472,"peak_altitude_m":200.0,"u_ms":-5.474822485207101,"v_ms":2.462021696252466}},{"type":"Feature","geometry":{"type":"Point","coordinates":[-81.0423,32.6555]},"properties":{"site":"KCLX","name":"Charleston SC","scan_time":"2026-08-29T07:58:11Z","stale":false,"bins":25,"density_birds_km3":2.318125,"heading_deg":210.89225276568126,"speed_ms":4.467927193697364,"peak_altitude_m":200.0,"u_ms":-2.2984107579462103,"v_ms":-3.7301657158380874}},{"type":"Feature","geometry":{"type":"Point","coordinates":[-74.4108,39.947]},"properties":{"site":"KDIX","name":"Philadelphia PA","scan_time":"2026-08-29T08:00:34Z","stale":false,"bins":25,"density_birds_km3":29.719375,"heading_deg":215.50411118204727,"speed_ms":13.9257602191319,"peak_altitude_m":400.0,"u_ms":-8.192477243994942,"v_ms":-11.200107880320271}},{"type":"Feature","geometry":{"type":"Point","coordinates":[-84.5658,33.3636]},"properties":{"site":"KFFC","name":"Atlanta GA","scan_time":"2026-08-29T08:03:48Z","stale":false,"bins":25,"density_birds_km3":26.434,"heading_deg":188.22886604649506,"speed_ms":2.651418695597325,"peak_altitude_m":200.0,"u_ms":-0.5375544342121862,"v_ms":-2.0408714519994953}},{"type":"Feature","geometry":{"type":"Point","coordinates":[-85.5449,42.8939]},"properties":{"site":"KGRR","name":"Grand Rapids MI","scan_time":"2026-08-29T07:56:42Z","stale":false,"bins":25,"density_birds_km3":2.1993333333333336,"heading_deg":35.36823799380321,"speed_ms":13.848552711761121,"peak_altitude_m":400.0,"u_ms":7.984539914686167,"v_ms":11.186770262035346}},{"type":"Feature","geometry":{"type":"Point","coordinates":[-83.8217,39.4203]},"properties":{"site":"KILN","name":"Wilmington OH","scan_time":"2026-08-29T07:58:11Z","stale":false,"bins":25,"density_birds_km3":7.007333333333333,"heading_deg":255.7916086651736,"speed_ms":9.326336219198934,"peak_altitude_m":200.0,"u_ms":-8.418909713633337,"v_ms":-1.998468271334792}},{"type":"Feature","geometry":{"type":"Point","coordinates":[-81.7019,30.4846]},"properties":{"site":"KJAX","name":"Jacksonville FL","scan_time":"2026-08-29T07:59:16Z","stale":false,"bins":25,"density_birds_km3":9.108125,"heading_deg":164.08899296490424,"speed_ms":4.9460241542578745,"peak_altitude_m":200.0,"u_ms":1.2651670898236467,"v_ms":-4.742538255678309}},{"type":"Feature","geometry":{"type":"Point","coordinates":[-88.0847,41.6045]},"properties":{"site":"KLOT","name":"Chicago IL","scan_time":"2026-08-29T07:56:08Z","stale":false,"bins":25,"density_birds_km3":2.491333333333333,"heading_deg":59.456525234183125,"speed_ms":6.286694436979307,"peak_altitude_m":400.0,"u_ms":4.605675893576996,"v_ms":2.821803278688525}},{"type":"Feature","geometry":{"type":"Point","coordinates":[-78.4292,33.9892]},"properties":{"site":"KLTX","name":"Wilmington NC","scan_time":"2026-08-29T08:02:05Z","stale":false,"bins":25,"density_birds_km3":31.502499999999998,"heading_deg":195.86152817008,"speed_ms":4.457806961153457,"peak_altitude_m":200.0,"u_ms":-1.2795261272844154,"v_ms":-4.205044540361833}},{"type":"Feature","geometry":{"type":"Point","coordinates":[-77.4778,38.9753]},"properties":{"site":"KLWX","name":"Sterling VA","scan_time":"2026-08-29T08:01:57Z","stale":false,"bins":25,"density_birds_km3":49.977999999999994,"heading_deg":221.24193906592046,"speed_ms":12.347795504474094,"peak_altitude_m":400.0,"u_ms":-7.983356105663613,"v_ms":-9.277012270267374}},{"type":"Feature","geometry":{"type":"Point","coordinates":[-76.8762,34.7759]},"properties":{"site":"KMHX","name":"Morehead City NC","scan_time":"2026-08-29T07:58:54Z","stale":false,"bins":25,"density_birds_km3":8.564375,"heading_deg":166.1729425116843,"speed_ms":6.275951622687292,"peak_altitude_m":400.0,"u_ms":1.204843797391568,"v_ms":-5.721408856536245}},{"type":"Feature","geometry":{"type":"Point","coordinates":[-80.6542,28.1133]},"properties":{"site":"KMLB","name":"Melbourne FL","scan_time":"2026-08-29T08:00:28Z","stale":false,"bins":25,"density_birds_km3":2.0875,"heading_deg":157.91747940411486,"speed_ms":3.115867026055705,"peak_altitude_m":0.0,"u_ms":0.9324767894579215,"v_ms":-2.2605959868224015}},{"type":"Feature","geometry":{"type":"Point","coordinates":[-86.5625,36.2472]},"properties":{"site":"KOHX","name":"Nashville TN","scan_time":"2026-08-29T07:57:55Z","stale":false,"bins":25,"density_birds_km3":26.84,"heading_deg":233.7330638245433,"speed_ms":8.891547938400397,"peak_altitude_m":200.0,"u_ms":-7.032096125186289,"v_ms":-4.658017635370094}},{"type":"Feature","geometry":{"type":"Point","coordinates":[-72.8639,40.8655]},"properties":{"site":"KOKX","name":"Upton NY","scan_time":"2026-08-29T08:01:12Z","stale":false,"bins":25,"density_birds_km3":18.48875,"heading_deg":216.77549401838266,"speed_ms":11.463332092078536,"peak_altitude_m":200.0,"u_ms":-6.8807728503723755,"v_ms":-9.091775897088691}},{"type":"Feature","geometry":{"type":"Point","coordinates":[-80.2183,40.5317]},"properties":{"site":"KPBZ","name":"Pittsburgh PA","scan_time":"2026-08-29T07:56:55Z","stale":false,"bins":25,"density_birds_km3":12.018571428571429,"heading_deg":227.36976843469142,"speed_ms":9.27141629877103,"peak_altitude_m":600.0,"u_ms":-6.934479179095573,"v_ms":-5.31927812910154}},{"type":"Feature","geometry":{"type":"Point","coordinates":[-78.4899,35.6655]},"properties":{"site":"KRAX","name":"Raleigh NC","scan_time":"2026-08-29T07:59:50Z","stale":false,"bins":25,"density_birds_km3":28.225625,"heading_deg":208.9593824432494,"speed_ms":6.679891487288511,"peak_altitude_m":400.0,"u_ms":-2.9768560102754895,"v_ms":-5.775506023562761}},{"type":"Feature","geometry":{"type":"Point","coordinates":[-82.4017,27.7055]},"properties":{"site":"KTBW","name":"Tampa FL","scan_time":"2026-08-29T07:58:36Z","stale":false,"bins":25,"density_birds_km3":3.665625,"heading_deg":235.3812555904588,"speed_ms":4.5148984814878,"peak_altitude_m":0.0,"u_ms":-3.506637092646306,"v_ms":-2.330851390547688}}]}