{"type":"FeatureCollection","frame":"2026-10-05T06","site_count":20,"fresh_count":20,"failures":{},"features":[{"type":"Feature","geometry":{"type":"Point","coordinates":[-77.0073,36.984]},"properties":{"site":"KAKQ","name":"Wakefield VA","scan_time":"2026-10-05T05:59:15Z","stale":false,"bins":25,"density_birds_km3":29.018125,"heading_deg":184.26970432590105,"speed_ms":9.420574222451968,"peak_altitude_m":0.0,"u_ms":-0.6466854053588352,"v_ms":-9.221991039889721}},{"type":"Feature","geometry":{"type":"Point","coordinates":[-71.1369,41.9558]},"properties":{"site":"KBOX","name":"Boston MA","scan_time":"2026-10-05T05:57:16Z","stale":false,"bins":25,"density_birds_km3":0.63625,"heading_deg":173.46044249028765,"speed_ms":4.028938053097345,"peak_altitude_m":0.0,"u_ms":0.6195870206489675,"v_ms":-3.869724680432645}},{"type":"Feature","geometry":{"type":"Point","coordinates":[-78.7369,42.9489]},"properties":{"site":"KBUF","name":"Buffalo NY","scan_time":"2026-10-05T05:57:17Z","stale":false,"bins":25,"density_birds_km3":5.7733333333333325,"heading_deg":149.29934676880615,"speed_ms":11.855596997690531,"peak_altitude_m":200.0,"u_ms":5.934430715935335,"v_ms":-10.171193995381062}},{"type":"Feature","geometry":{"type":"Point","coordinates":[-81.8597,41.4131]},"properties":{"site":"KCLE","name":"Cleveland OH","scan_time":"2026-10-05T06:01:19Z","stale":false,"bins":25,"density_birds_km3":10.649333333333335,"heading_deg":163.5126319128538,"speed_ms":11.635137114951165,"peak_altitude_m":400.0,"u_ms":3.290433884297521,"v_ms":-11.154154770848987}},{"type":"Feature","geometry":{"type":"Point","coordinates":[-81.0423,32.6555]},"properties":{"site":"KCLX","name":"Charleston SC","scan_time":"2026-10-05T05:57:29Z","stale":false,"bins":25,"density_birds_km3":31.953333333333333,"heading_deg":180.67718687308158,"speed_ms":3.4089334980440595,"peak_altitude_m":0.0,"u_ms":-0.06231830347951413,"v_ms":-3.386707844348363}},{"type":"Feature","geometry":{"type":"Point","coordinates":[-74.4108,39.947]},"properties":{"site":"KDIX","name":"Philadelphia PA","scan_time":"2026-10-05T05:57:46Z","stale":false,"bins":25,"density_birds_km3":4.201875,"heading_deg":169.79001726299487,"speed_ms":8.55916968053044,"peak_altitude_m":400.0,"u_ms":1.6544243520192887,"v_ms":-8.317973176612416}},{"type":"Feature","geometry":{"type":"Point","coordinates":[-84.5658,33.3636]},"properties":{"site":"KFFC","name":"Atlanta GA","scan_time":"2026-10-05T06:01:21Z","stale":false,"bins":25,"density_birds_km3":25.876666666666665,"heading_deg":207.05784551661964,"speed_ms":6.735390363308426,"peak_altitude_m":600.0,"u_ms":-3.2249160010306617,"v_ms":-5.70413398608606}},{"type":"Feature","geometry":{"type":"Point","coordinates":[-85.5449,42.8939]},"properties":{"site":"KGRR","name":"Grand Rapids MI","scan_time":"2026-10-05T05:57:31Z","stale":false,"bins":25,"density_birds_km3":16.766666666666666,"heading_deg":153.149213008405,"speed_ms":14.568402990416352,"peak_altitude_m":400.0,"u_ms":6.340874855847616,"v_ms":-13.048089632958204}},{"type":"Feature","geometry":{"type":"Point","coordinates":[-83.8217,39.4203]},"properties":{"site":"KILN","name":"Wilmington OH","scan_time":"2026-10-05T06:03:05Z","stale":false,"bins":25,"density_birds_km3":34.51733333333333,"heading_deg":167.18477470851494,"speed_ms":13.779008768880132,"peak_altitude_m":400.0,"u_ms":2.8000925174798157,"v_ms":-13.278484374396415}},{"type":"Feature","geometry":{"type":"Point","coordinates":[-81.7019,30.4846]},"properties":{"site":"KJAX","name":"Jacksonville FL","scan_time":"2026-10-05T05:59:02Z","stale":false,"bins":25,"density_birds_km3":19.951875,"heading_deg":213.1876890577502,"speed_ms":7.0499780394653095,"peak_altitude_m":200.0,"u_ms":-3.7983224061107577,"v_ms":-5.880399108847868}},{"type":"Feature","geometry":{"type":"Point","coordinates":[-88.0847,41.6045]},"properties":{"site":"KLOT","name":"Chicago IL","scan_time":"2026-10-05T05:59:58Z","stale":false,"bins":25,"density_birds_km3":43.81266666666667,"heading_deg":172.2311861671397,"speed_ms":13.939181477874492,"peak_altitude_m":400.0,"u_ms":1.9346731389615923,"v_ms":-13.715008825856717}},{"type":"Feature","geometry":{"type":"Point","coordinates":[-78.4292,33.9892]},"properties":{"site":"KLTX","name":"Wilmington NC","scan_time":"2026-10-05T06:00:44Z","stale":false,"bins":25,"density_birds_km3":66.59545454545456,"heading_deg":196.1813537453963,"speed_ms":5.771415221467072,"peak_altitude_m":0.0,"u_ms":-0.9316006561987343,"v_ms":-4.788933530583548}},{"type":"Feature","geometry":{"type":"Point","coordinates":[-77.4778,38.9753]},"properties":{"site":"KLWX","name":"Sterling VA","scan_time":"2026-10-05T06:01:03Z","stale":false,"bins":25,"density_birds_km3":39.141666666666666,"heading_deg":209.5504933058892,"speed_ms":10.898900658275618,"peak_altitude_m":200.0,"u_ms":-2.291621030512254,"v_ms":-4.745082230846753}},{"type":"Feature","geometry":{"type":"Point","coordinates":[-76.8762,34.7759]},"properties":{"site":"KMHX","name":"Morehead City NC","scan_time":"2026-10-05T05:58:47Z","stale":false,"bins":25,"density_birds_km3":7.583125,"heading_deg":123.00661026663693,"speed_ms":3.688848594741614,"peak_altitude_m":0.0,"u_ms":2.7425541910492046,"v_ms":-2.1748916179015905}},{"type":"Feature","geometry":{"type":"Point","coordinates":[-80.6542,28.1133]},"properties":{"site":"KMLB","name":"Melbourne FL","scan_time":"2026-10-05T06:01:31Z","stale":false,"bins":25,"density_birds_km3":2.35125,"heading_deg":294.53381521415434,"speed_ms":2.8920607200429878,"peak_altitude_m":0.0,"u_ms":-2.4875926921010216,"v_ms":1.1355373455131652}},{"type":"Feature","geometry":{"type":"Point","coordinates":[-86.5625,36.2472]},"properties":{"site":"KOHX","name":"Nashville TN","scan_time":"2026-10-05T05:58:13Z","stale":false,"bins":25,"density_birds_km3":118.76,"heading_deg":191.2663138910794,"speed_ms":10.28124188840238,"peak_altitude_m":200.0,"u_ms":-2.064920287414393,"v_ms":-9.98845088132929}},{"type":"Feature","geometry":{"type":"Point","coordinates":[-72.8639,40.8655]},"properties":{"site":"KOKX","name":"Upton NY","scan_time":"2026-10-05T05:57:40Z","stale":false,"bins":25,"density_birds_km3":3.25375,"heading_deg":207.93880283861958,"speed_ms":4.449822169531714,"peak_altitude_m":0.0,"u_ms":-1.8719581110452483,"v_ms":-3.8795633274056516}},{"type":"Feature","geometry":{"type":"Point","coordinates":[-80.2183,40.5317]},"properties":{"site":"KPBZ","name":"Pittsburgh PA","scan_time":"2026-10-05T06:01:52Z","stale":false,"bins":25,"density_birds_km3":6.575714285714286,"heading_deg":120.63958897956483,"speed_ms":13.742470128177274,"peak_altitude_m":600.0,"u_ms":11.29548663914838,"v_ms":-6.921715185748425}},{"type":"Feature","geometry":{"type":"Point","coordinates":[-78.4899,35.6655]},"properties":{"site":"KRAX","name":"Raleigh NC","scan_time":"2026-10-05T05:57:50Z","stale":false,"bins":25,"density_birds_km3":23.498125,"heading_deg":163.16893009721775,"speed_ms":7.538655672296848,"peak_altitude_m":200.0,"u_ms":2.0981917808219177,"v_ms":-7.152156403777099}},{"type":"Feature","geometry":{"type":"Point","coordinates":[-82.4017,27.7055]},"properties":{"site":"KTBW","name":"Tampa FL","scan_time":"2026-10-05T05:57:34Z","stale":false,"bins":25,"density_birds_km3":7.10625,"heading_deg":272.6324892358477,"speed_ms":5.52720003518649,"peak_altitude_m":0.0,"u_ms":-4.707214989444054,"v_ms":0.32381773399014785}}]}