{"type":"FeatureCollection","frame":"2026-09-28T00","site_count":20,"fresh_count":20,"failures":{},"features":[{"type":"Feature","geometry":{"type":"Point","coordinates":[-77.0073,36.984]},"properties":{"site":"KAKQ","name":"Wakefield VA","scan_time":"2026-09-28T00:00:33Z","stale":false,"bins":25,"density_birds_km3":6.408125,"heading_deg":154.55322901535473,"speed_ms":10.803149936591552,"peak_altitude_m":200.0,"u_ms":4.734950736513511,"v_ms":-9.680556043312848}},{"type":"Feature","geometry":{"type":"Point","coordinates":[-71.1369,41.9558]},"properties":{"site":"KBOX","name":"Boston MA","scan_time":"2026-09-28T00:01:14Z","stale":false,"bins":25,"density_birds_km3":0.3392857142857143,"heading_deg":286.49969399335816,"speed_ms":15.724583333333333,"peak_altitude_m":0.0,"u_ms":-15.078333333333333,"v_ms":4.445833333333335}},{"type":"Feature","geometry":{"type":"Point","coordinates":[-78.7369,42.9489]},"properties":{"site":"KBUF","name":"Buffalo NY","scan_time":"2026-09-28T00:01:49Z","stale":false,"bins":25,"density_birds_km3":3.452,"heading_deg":225.8,"speed_ms":9.24,"peak_altitude_m":200.0,"u_ms":-6.62,"v_ms":-6.44}},{"type":"Feature","geometry":{"type":"Point","coordinates":[-81.8597,41.4131]},"properties":{"site":"KCLE","name":"Cleveland OH","scan_time":"2026-09-28T00:00:30Z","stale":false,"bins":25,"density_birds_km3":14.982666666666667,"heading_deg":180.95393975340968,"speed_ms":10.566658357444913,"peak_altitude_m":400.0,"u_ms":-0.197503227242377,"v_ms":-10.52360694413532}},{"type":"Feature","geometry":{"type":"Point","coordinates":[-81.0423,32.6555]},"properties":{"site":"KCLX","name":"Charleston SC","scan_time":"2026-09-27T23:59:02Z","stale":false,"bins":25,"density_birds_km3":19.143125,"heading_deg":139.33000998269753,"speed_ms":6.804286882564606,"peak_altitude_m":400.0,"u_ms":4.300171082760877,"v_ms":-5.091188092901538}},{"type":"Feature","geometry":{"type":"Point","coordinates":[-74.4108,39.947]},"properties":{"site":"KDIX","name":"Philadelphia PA","scan_time":"2026-09-27T23:59:37Z","stale":false,"bins":25,"density_birds_km3":null,"heading_deg":null,"speed_ms":null,"peak_altitude_m":null,"u_ms":null,"v_ms":null}},{"type":"Feature","geometry":{"type":"Point","coordinates":[-84.5658,33.3636]},"properties":{"site":"KFFC","name":"Atlanta GA","scan_time":"2026-09-28T00:01:38Z","stale":false,"bins":25,"density_birds_km3":38.89666666666667,"heading_deg":161.17036806392213,"speed_ms":10.782706404717821,"peak_altitude_m":400.0,"u_ms":3.4546276486319685,"v_ms":-10.190181032709319}},{"type":"Feature","geometry":{"type":"Point","coordinates":[-85.5449,42.8939]},"properties":{"site":"KGRR","name":"Grand Rapids MI","scan_time":"2026-09-27T23:58:39Z","stale":false,"bins":25,"density_birds_km3":17.141333333333332,"heading_deg":143.93639737286225,"speed_ms":5.484010035786526,"peak_altitude_m":400.0,"u_ms":3.347567683211452,"v_ms":-4.015234168352264}},{"type":"Feature","geometry":{"type":"Point","coordinates":[-83.8217,39.4203]},"properties":{"site":"KILN","name":"Wilmington OH","scan_time":"2026-09-27T23:59:16Z","stale":false,"bins":25,"density_birds_km3":21.567999999999998,"heading_deg":178.70006438899858,"speed_ms":9.384237450544017,"peak_altitude_m":400.0,"u_ms":0.20114274233432253,"v_ms":-9.353550939663698}},{"type":"Feature","geometry":{"type":"Point","coordinates":[-81.7019,30.4846]},"properties":{"site":"KJAX","name":"Jacksonville FL","scan_time":"2026-09-28T00:02:53Z","stale":false,"bins":25,"density_birds_km3":37.394375,"heading_deg":116.66479530263408,"speed_ms":6.114412880695745,"peak_altitude_m":0.0,"u_ms":4.1314996138477555,"v_ms":-3.499358147812363}},{"type":"Feature","geometry":{"type":"Point","coordinates":[-88.0847,41.6045]},"properties":{"site":"KLOT","name":"Chicago IL","scan_time":"2026-09-27T23:56:33Z","stale":false,"bins":25,"density_birds_km3":0.5700000000000001,"heading_deg":220.82003981491292,"speed_ms":5.59274647887324,"peak_altitude_m":200.0,"u_ms":-3.460880281690141,"v_ms":-3.969612676056338}},{"type":"Feature","geometry":{"type":"Point","coordinates":[-78.4292,33.9892]},"properties":{"site":"KLTX","name":"Wilmington NC","scan_time":"2026-09-28T00:00:56Z","stale":false,"bins":25,"density_birds_km3":40.956250000000004,"heading_deg":84.27346921439509,"speed_ms":6.911869706542141,"peak_altitude_m":0.0,"u_ms":6.4165453463352105,"v_ms":0.2773536907323475}},{"type":"Feature","geometry":{"type":"Point","coordinates":[-77.4778,38.9753]},"properties":{"site":"KLWX","name":"Sterling VA","scan_time":"2026-09-27T23:58:04Z","stale":false,"bins":25,"density_birds_km3":1.4862499999999998,"heading_deg":144.82125763893072,"speed_ms":9.411631840796021,"peak_altitude_m":0.0,"u_ms":5.245009950248756,"v_ms":-7.751676616915423}},{"type":"Feature","geometry":{"type":"Point","coordinates":[-76.8762,34.7759]},"properties":{"site":"KMHX","name":"Morehead City NC","scan_time":"2026-09-28T00:02:12Z","stale":false,"bins":25,"density_birds_km3":22.448125,"heading_deg":93.62619789693473,"speed_ms":9.121015953448227,"peak_altitude_m":0.0,"u_ms":8.89411782721274,"v_ms":-0.7043817690787093}},{"type":"Feature","geometry":{"type":"Point","coordinates":[-80.6542,28.1133]},"properties":{"site":"KMLB","name":"Melbourne FL","scan_time":"2026-09-27T23:59:00Z","stale":false,"bins":25,"density_birds_km3":23.4275,"heading_deg":189.4395840821662,"speed_ms":7.388020063498839,"peak_altitude_m":0.0,"u_ms":-0.006120167551559245,"v_ms":-5.7494279768415995}},{"type":"Feature","geometry":{"type":"Point","coordinates":[-86.5625,36.2472]},"properties":{"site":"KOHX","name":"Nashville TN","scan_time":"2026-09-28T00:01:13Z","stale":false,"bins":25,"density_birds_km3":7.974,"heading_deg":186.1756761717743,"speed_ms":6.706990158322636,"peak_altitude_m":400.0,"u_ms":-0.7244415917843389,"v_ms":-6.660539152759949}},{"type":"Feature","geometry":{"type":"Point","coordinates":[-72.8639,40.8655]},"properties":{"site":"KOKX","name":"Upton NY","scan_time":"2026-09-28T00:01:40Z","stale":false,"bins":25,"density_birds_km3":0.08928571428571429,"heading_deg":null,"speed_ms":null,"peak_altitude_m":0.0,"u_ms":null,"v_ms":null}},{"type":"Feature","geometry":{"type":"Point","coordinates":[-80.2183,40.5317]},"properties":{"site":"KPBZ","name":"Pittsburgh PA","scan_time":"2026-09-27T23:59:24Z","stale":false,"bins":25,"density_birds_km3":11.891428571428571,"heading_deg":185.43393558693225,"speed_ms":15.689361369780714,"peak_altitude_m":800.0,"u_ms":-1.6676106939020725,"v_ms":-15.53882487233403}},{"type":"Feature","geometry":{"type":"Point","coordinates":[-78.4899,35.6655]},"properties":{"site":"KRAX","name":"Raleigh NC","scan_time":"2026-09-28T00:02:28Z","stale":false,"bins":25,"density_birds_km3":69.395,"heading_deg":135.58474040384021,"speed_ms":8.076190960838709,"peak_altitude_m":400.0,"u_ms":5.580151673451741,"v_ms":-5.788786162049213}},{"type":"Feature","geometry":{"type":"Point","coordinates":[-82.4017,27.7055]},"properties":{"site":"KTBW","name":"Tampa FL","scan_time":"2026-09-28T00:00:53Z","stale":false,"bins":25,"density_birds_km3":53.618125,"heading_deg":143.5526682322723,"speed_ms":9.763907144272576,"peak_altitude_m":0.0,"u_ms":5.24319388266561,"v_ms":-7.358974110899998}}]}