{"type":"FeatureCollection","frame":"2026-08-13T11","site_count":20,"fresh_count":20,"failures":{},"features":[{"type":"Feature","geometry":{"type":"Point","coordinates":[-77.0073,36.984]},"properties":{"site":"KAKQ","name":"Wakefield VA","scan_time":"2026-08-13T10:59:29Z","stale":false,"bins":25,"density_birds_km3":3.896875,"heading_deg":176.3391194111436,"speed_ms":9.44812841091493,"peak_altitude_m":200.0,"u_ms":0.5891203852327448,"v_ms":-9.376417335473516}},{"type":"Feature","geometry":{"type":"Point","coordinates":[-71.1369,41.9558]},"properties":{"site":"KBOX","name":"Boston MA","scan_time":"2026-08-13T11:02:22Z","stale":false,"bins":25,"density_birds_km3":1.37,"heading_deg":27.82411949395249,"speed_ms":5.294584854014599,"peak_altitude_m":0.0,"u_ms":2.488540145985401,"v_ms":4.649917883211679}},{"type":"Feature","geometry":{"type":"Point","coordinates":[-78.7369,42.9489]},"properties":{"site":"KBUF","name":"Buffalo NY","scan_time":"2026-08-13T10:59:41Z","stale":false,"bins":25,"density_birds_km3":1.1413333333333333,"heading_deg":127.28319531389566,"speed_ms":3.978008177570093,"peak_altitude_m":200.0,"u_ms":3.095514018691589,"v_ms":-2.4507301401869155}},{"type":"Feature","geometry":{"type":"Point","coordinates":[-81.8597,41.4131]},"properties":{"site":"KCLE","name":"Cleveland OH","scan_time":"2026-08-13T10:58:57Z","stale":false,"bins":25,"density_birds_km3":6.124666666666667,"heading_deg":118.93677418746911,"speed_ms":4.278036021567053,"peak_altitude_m":200.0,"u_ms":3.3548434094298494,"v_ms":-2.126099575542044}},{"type":"Feature","geometry":{"type":"Point","coordinates":[-81.0423,32.6555]},"properties":{"site":"KCLX","name":"Charleston SC","scan_time":"2026-08-13T10:56:58Z","stale":false,"bins":25,"density_birds_km3":0.238125,"heading_deg":122.64516227476533,"speed_ms":7.444353562005277,"peak_altitude_m":0.0,"u_ms":6.219525065963061,"v_ms":-4.030474934036939}},{"type":"Feature","geometry":{"type":"Point","coordinates":[-74.4108,39.947]},"properties":{"site":"KDIX","name":"Philadelphia PA","scan_time":"2026-08-13T11:00:54Z","stale":false,"bins":25,"density_birds_km3":1.2000000000000002,"heading_deg":142.30992105665496,"speed_ms":11.376409307244845,"peak_altitude_m":400.0,"u_ms":6.567794817556849,"v_ms":-9.083960867265997}},{"type":"Feature","geometry":{"type":"Point","coordinates":[-84.5658,33.3636]},"properties":{"site":"KFFC","name":"Atlanta GA","scan_time":"2026-08-13T10:58:41Z","stale":false,"bins":25,"density_birds_km3":2.1366666666666663,"heading_deg":107.66989378072395,"speed_ms":9.256043681747272,"peak_altitude_m":400.0,"u_ms":8.530221528861155,"v_ms":-3.004705148205929}},{"type":"Feature","geometry":{"type":"Point","coordinates":[-85.5449,42.8939]},"properties":{"site":"KGRR","name":"Grand Rapids MI","scan_time":"2026-08-13T11:00:02Z","stale":false,"bins":25,"density_birds_km3":3.098,"heading_deg":212.99778407351795,"speed_ms":4.3521561418685115,"peak_altitude_m":400.0,"u_ms":-2.3048096885813147,"v_ms":-3.628125}},{"type":"Feature","geometry":{"type":"Point","coordinates":[-83.8217,39.4203]},"properties":{"site":"KILN","name":"Wilmington OH","scan_time":"2026-08-13T10:59:10Z","stale":false,"bins":25,"density_birds_km3":0.22000000000000003,"heading_deg":357.81509991324884,"speed_ms":2.6764236111111113,"peak_altitude_m":200.0,"u_ms":0.1723611111111111,"v_ms":1.8601041666666667}},{"type":"Feature","geometry":{"type":"Point","coordinates":[-81.7019,30.4846]},"properties":{"site":"KJAX","name":"Jacksonville FL","scan_time":"2026-08-13T11:00:51Z","stale":false,"bins":25,"density_birds_km3":1.65625,"heading_deg":135.8004217318806,"speed_ms":8.714888553078957,"peak_altitude_m":0.0,"u_ms":5.936207026822818,"v_ms":-6.190698904420098}},{"type":"Feature","geometry":{"type":"Point","coordinates":[-88.0847,41.6045]},"properties":{"site":"KLOT","name":"Chicago IL","scan_time":"2026-08-13T11:03:23Z","stale":false,"bins":25,"density_birds_km3":8.357333333333333,"heading_deg":230.07342678795908,"speed_ms":4.606686485617869,"peak_altitude_m":600.0,"u_ms":-3.4681897798489474,"v_ms":-2.9327735818736946}},{"type":"Feature","geometry":{"type":"Point","coordinates":[-78.4292,33.9892]},"properties":{"site":"KLTX","name":"Wilmington NC","scan_time":"2026-08-13T10:58:05Z","stale":false,"bins":25,"density_birds_km3":1.4168749999999999,"heading_deg":16.215209895900777,"speed_ms":2.9912174680194092,"peak_altitude_m":0.0,"u_ms":0.7744243493603883,"v_ms":1.8712042346713718}},{"type":"Feature","geometry":{"type":"Point","coordinates":[-77.4778,38.9753]},"properties":{"site":"KLWX","name":"Sterling VA","scan_time":"2026-08-13T10:58:25Z","stale":false,"bins":25,"density_birds_km3":2.395,"heading_deg":148.63978179150186,"speed_ms":10.422055366936537,"peak_altitude_m":0.0,"u_ms":5.761073387307391,"v_ms":-8.633776442935492}},{"type":"Feature","geometry":{"type":"Point","coordinates":[-76.8762,34.7759]},"properties":{"site":"KMHX","name":"Morehead City NC","scan_time":"2026-08-13T10:58:59Z","stale":false,"bins":25,"density_birds_km3":3.015625,"heading_deg":113.68298477275468,"speed_ms":5.116360792492179,"peak_altitude_m":200.0,"u_ms":3.0709343065693426,"v_ms":-2.65651929092805}},{"type":"Feature","geometry":{"type":"Point","coordinates":[-80.6542,28.1133]},"properties":{"site":"KMLB","name":"Melbourne FL","scan_time":"2026-08-13T10:56:57Z","stale":false,"bins":25,"density_birds_km3":3.64375,"heading_deg":140.9275384472864,"speed_ms":7.659252144082333,"peak_altitude_m":0.0,"u_ms":4.819977701543738,"v_ms":-5.94966037735849}},{"type":"Feature","geometry":{"type":"Point","coordinates":[-86.5625,36.2472]},"properties":{"site":"KOHX","name":"Nashville TN","scan_time":"2026-08-13T10:57:21Z","stale":false,"bins":25,"density_birds_km3":12.331333333333333,"heading_deg":99.56577968518701,"speed_ms":9.367111423474077,"peak_altitude_m":200.0,"u_ms":7.922546358869005,"v_ms":-2.050948261880305}},{"type":"Feature","geometry":{"type":"Point","coordinates":[-72.8639,40.8655]},"properties":{"site":"KOKX","name":"Upton NY","scan_time":"2026-08-13T11:01:24Z","stale":false,"bins":25,"density_birds_km3":1.70875,"heading_deg":310.48297460642556,"speed_ms":3.397340659340659,"peak_altitude_m":0.0,"u_ms":-1.2954761904761907,"v_ms":1.056769230769231}},{"type":"Feature","geometry":{"type":"Point","coordinates":[-80.2183,40.5317]},"properties":{"site":"KPBZ","name":"Pittsburgh PA","scan_time":"2026-08-13T10:58:36Z","stale":false,"bins":25,"density_birds_km3":0.8221428571428572,"heading_deg":119.24197202662857,"speed_ms":5.0591731940818105,"peak_altitude_m":400.0,"u_ms":4.280217580504787,"v_ms":-2.519286335944299}},{"type":"Feature","geometry":{"type":"Point","coordinates":[-78.4899,35.6655]},"properties":{"site":"KRAX","name":"Raleigh NC","scan_time":"2026-08-13T10:58:52Z","stale":false,"bins":25,"density_birds_km3":2.67875,"heading_deg":200.081829096196,"speed_ms":5.547574130282513,"peak_altitude_m":200.0,"u_ms":-1.9318958673826758,"v_ms":-5.115377072145693}},{"type":"Feature","geometry":{"type":"Point","coordinates":[-82.4017,27.7055]},"properties":{"site":"KTBW","name":"Tampa FL","scan_time":"2026-08-13T11:00:34Z","stale":false,"bins":25,"density_birds_km3":6.003125,"heading_deg":147.5156998721956,"speed_ms":2.63771610081233,"peak_altitude_m":0.0,"u_ms":1.4490189543845031,"v_ms":-2.172244324099146}}]}