{"type":"FeatureCollection","frame":"2026-08-24T06","site_count":20,"fresh_count":20,"failures":{},"features":[{"type":"Feature","geometry":{"type":"Point","coordinates":[-77.0073,36.984]},"properties":{"site":"KAKQ","name":"Wakefield VA","scan_time":"2026-08-24T06:01:01Z","stale":false,"bins":25,"density_birds_km3":5.088125,"heading_deg":132.14633469445218,"speed_ms":7.48415601965602,"peak_altitude_m":0.0,"u_ms":5.5451830466830465,"v_ms":-5.0144828009828}},{"type":"Feature","geometry":{"type":"Point","coordinates":[-71.1369,41.9558]},"properties":{"site":"KBOX","name":"Boston MA","scan_time":"2026-08-24T06:02:26Z","stale":false,"bins":25,"density_birds_km3":0.8624999999999999,"heading_deg":33.4969566328818,"speed_ms":7.262465554749818,"peak_altitude_m":0.0,"u_ms":3.992741116751269,"v_ms":5.601464829586657}},{"type":"Feature","geometry":{"type":"Point","coordinates":[-78.7369,42.9489]},"properties":{"site":"KBUF","name":"Buffalo NY","scan_time":"2026-08-24T06:00:50Z","stale":false,"bins":25,"density_birds_km3":0.7773333333333333,"heading_deg":null,"speed_ms":null,"peak_altitude_m":200.0,"u_ms":null,"v_ms":null}},{"type":"Feature","geometry":{"type":"Point","coordinates":[-81.8597,41.4131]},"properties":{"site":"KCLE","name":"Cleveland OH","scan_time":"2026-08-24T05:59:23Z","stale":false,"bins":25,"density_birds_km3":2.322666666666667,"heading_deg":139.3991931955422,"speed_ms":9.840160780935975,"peak_altitude_m":800.0,"u_ms":6.411139821992536,"v_ms":-7.463034740166523}},{"type":"Feature","geometry":{"type":"Point","coordinates":[-81.0423,32.6555]},"properties":{"site":"KCLX","name":"Charleston SC","scan_time":"2026-08-24T06:02:24Z","stale":false,"bins":25,"density_birds_km3":4.1525,"heading_deg":12.889262881201942,"speed_ms":4.766752577319588,"peak_altitude_m":0.0,"u_ms":1.155074976569822,"v_ms":2.213067791315214}},{"type":"Feature","geometry":{"type":"Point","coordinates":[-74.4108,39.947]},"properties":{"site":"KDIX","name":"Philadelphia PA","scan_time":"2026-08-24T05:59:43Z","stale":false,"bins":25,"density_birds_km3":2.115625,"heading_deg":150.4797296515847,"speed_ms":6.608599704579024,"peak_altitude_m":200.0,"u_ms":3.005796159527326,"v_ms":-5.497028064992614}},{"type":"Feature","geometry":{"type":"Point","coordinates":[-84.5658,33.3636]},"properties":{"site":"KFFC","name":"Atlanta GA","scan_time":"2026-08-24T06:02:02Z","stale":false,"bins":25,"density_birds_km3":27.530666666666665,"heading_deg":192.8628464062416,"speed_ms":5.776081270886812,"peak_altitude_m":600.0,"u_ms":-1.5478212331089265,"v_ms":-5.063111590061511}},{"type":"Feature","geometry":{"type":"Point","coordinates":[-85.5449,42.8939]},"properties":{"site":"KGRR","name":"Grand Rapids MI","scan_time":"2026-08-24T06:03:03Z","stale":false,"bins":25,"density_birds_km3":2.3793333333333333,"heading_deg":178.2243640466788,"speed_ms":11.028971412556054,"peak_altitude_m":600.0,"u_ms":0.047668161434977645,"v_ms":-10.928206278026906}},{"type":"Feature","geometry":{"type":"Point","coordinates":[-83.8217,39.4203]},"properties":{"site":"KILN","name":"Wilmington OH","scan_time":"2026-08-24T05:59:02Z","stale":false,"bins":25,"density_birds_km3":11.714666666666666,"heading_deg":180.7357497864546,"speed_ms":13.01435091912811,"peak_altitude_m":600.0,"u_ms":-0.21036423652609415,"v_ms":-12.980031870696035}},{"type":"Feature","geometry":{"type":"Point","coordinates":[-81.7019,30.4846]},"properties":{"site":"KJAX","name":"Jacksonville FL","scan_time":"2026-08-24T06:00:03Z","stale":false,"bins":25,"density_birds_km3":5.87125,"heading_deg":99.46389494607097,"speed_ms":4.45908299096138,"peak_altitude_m":0.0,"u_ms":3.0473459326211993,"v_ms":-1.402215283483977}},{"type":"Feature","geometry":{"type":"Point","coordinates":[-88.0847,41.6045]},"properties":{"site":"KLOT","name":"Chicago IL","scan_time":"2026-08-24T06:00:27Z","stale":false,"bins":25,"density_birds_km3":13.018,"heading_deg":156.06834348547324,"speed_ms":8.406603676960106,"peak_altitude_m":400.0,"u_ms":3.3622302453013773,"v_ms":-7.67726481282327}},{"type":"Feature","geometry":{"type":"Point","coordinates":[-78.4292,33.9892]},"properties":{"site":"KLTX","name":"Wilmington NC","scan_time":"2026-08-24T06:00:48Z","stale":false,"bins":25,"density_birds_km3":4.293125,"heading_deg":275.16533357680623,"speed_ms":4.051892457057505,"peak_altitude_m":0.0,"u_ms":-2.4220567587752053,"v_ms":0.21738162808065714}},{"type":"Feature","geometry":{"type":"Point","coordinates":[-77.4778,38.9753]},"properties":{"site":"KLWX","name":"Sterling VA","scan_time":"2026-08-24T06:01:37Z","stale":false,"bins":25,"density_birds_km3":4.8125,"heading_deg":194.3698888863618,"speed_ms":4.916743732952331,"peak_altitude_m":200.0,"u_ms":-0.1596661904143395,"v_ms":-3.549728536173529}},{"type":"Feature","geometry":{"type":"Point","coordinates":[-76.8762,34.7759]},"properties":{"site":"KMHX","name":"Morehead City NC","scan_time":"2026-08-24T05:58:24Z","stale":false,"bins":25,"density_birds_km3":11.0125,"heading_deg":128.2217948114569,"speed_ms":4.515780891134589,"peak_altitude_m":0.0,"u_ms":3.4918638033991733,"v_ms":-2.590596003674782}},{"type":"Feature","geometry":{"type":"Point","coordinates":[-80.6542,28.1133]},"properties":{"site":"KMLB","name":"Melbourne FL","scan_time":"2026-08-24T06:01:37Z","stale":false,"bins":25,"density_birds_km3":2.731875,"heading_deg":103.62336926186447,"speed_ms":4.254796338672769,"peak_altitude_m":0.0,"u_ms":4.011860411899313,"v_ms":-1.0755858123569795}},{"type":"Feature","geometry":{"type":"Point","coordinates":[-86.5625,36.2472]},"properties":{"site":"KOHX","name":"Nashville TN","scan_time":"2026-08-24T06:00:13Z","stale":false,"bins":25,"density_birds_km3":28.634,"heading_deg":206.1388127204243,"speed_ms":6.489247514609672,"peak_altitude_m":400.0,"u_ms":-2.9026565155642476,"v_ms":-5.50159018416335}},{"type":"Feature","geometry":{"type":"Point","coordinates":[-72.8639,40.8655]},"properties":{"site":"KOKX","name":"Upton NY","scan_time":"2026-08-24T06:00:15Z","stale":false,"bins":25,"density_birds_km3":0.82875,"heading_deg":79.00968762914485,"speed_ms":6.579939668174961,"peak_altitude_m":0.0,"u_ms":6.304140271493213,"v_ms":1.144524886877828}},{"type":"Feature","geometry":{"type":"Point","coordinates":[-80.2183,40.5317]},"properties":{"site":"KPBZ","name":"Pittsburgh PA","scan_time":"2026-08-24T05:58:49Z","stale":false,"bins":25,"density_birds_km3":7.161428571428572,"heading_deg":183.381170421095,"speed_ms":5.9657340913624575,"peak_altitude_m":600.0,"u_ms":0.41672152403750257,"v_ms":-4.811111111111111}},{"type":"Feature","geometry":{"type":"Point","coordinates":[-78.4899,35.6655]},"properties":{"site":"KRAX","name":"Raleigh NC","scan_time":"2026-08-24T05:58:03Z","stale":false,"bins":25,"density_birds_km3":9.648125,"heading_deg":204.03211855438605,"speed_ms":6.144968256024877,"peak_altitude_m":600.0,"u_ms":-1.7062885462555064,"v_ms":-5.0057741642912665}},{"type":"Feature","geometry":{"type":"Point","coordinates":[-82.4017,27.7055]},"properties":{"site":"KTBW","name":"Tampa FL","scan_time":"2026-08-24T06:01:09Z","stale":false,"bins":25,"density_birds_km3":2.57,"heading_deg":341.4665159410805,"speed_ms":4.1788199513382,"peak_altitude_m":200.0,"u_ms":-0.048046228710462276,"v_ms":-0.40995133819951357}}]}