{"type":"FeatureCollection","frame":"2026-08-13T00","site_count":20,"fresh_count":20,"failures":{},"features":[{"type":"Feature","geometry":{"type":"Point","coordinates":[-77.0073,36.984]},"properties":{"site":"KAKQ","name":"Wakefield VA","scan_time":"2026-08-13T00:01:31Z","stale":false,"bins":25,"density_birds_km3":2.71625,"heading_deg":202.79896848909965,"speed_ms":2.2014608816062777,"peak_altitude_m":0.0,"u_ms":-0.8921209323794138,"v_ms":-1.983512577890607}},{"type":"Feature","geometry":{"type":"Point","coordinates":[-71.1369,41.9558]},"properties":{"site":"KBOX","name":"Boston MA","scan_time":"2026-08-13T00:01:28Z","stale":false,"bins":25,"density_birds_km3":0.50125,"heading_deg":59.77118296862877,"speed_ms":5.131672908863919,"peak_altitude_m":0.0,"u_ms":4.397540574282147,"v_ms":2.4889388264669163}},{"type":"Feature","geometry":{"type":"Point","coordinates":[-78.7369,42.9489]},"properties":{"site":"KBUF","name":"Buffalo NY","scan_time":"2026-08-13T00:00:18Z","stale":false,"bins":25,"density_birds_km3":0.8766666666666667,"heading_deg":66.54119044130046,"speed_ms":5.885893536121673,"peak_altitude_m":200.0,"u_ms":5.370273764258555,"v_ms":2.334790874524715}},{"type":"Feature","geometry":{"type":"Point","coordinates":[-81.8597,41.4131]},"properties":{"site":"KCLE","name":"Cleveland OH","scan_time":"2026-08-12T23:58:16Z","stale":false,"bins":25,"density_birds_km3":2.2773333333333334,"heading_deg":63.0554310535876,"speed_ms":5.214143330322193,"peak_altitude_m":200.0,"u_ms":4.60058416139717,"v_ms":1.916392652815417}},{"type":"Feature","geometry":{"type":"Point","coordinates":[-81.0423,32.6555]},"properties":{"site":"KCLX","name":"Charleston SC","scan_time":"2026-08-13T00:01:37Z","stale":false,"bins":25,"density_birds_km3":0.14875,"heading_deg":68.38741396290351,"speed_ms":4.659957983193277,"peak_altitude_m":0.0,"u_ms":3.7776890756302524,"v_ms":1.4028991596638656}},{"type":"Feature","geometry":{"type":"Point","coordinates":[-74.4108,39.947]},"properties":{"site":"KDIX","name":"Philadelphia PA","scan_time":"2026-08-12T23:58:53Z","stale":false,"bins":25,"density_birds_km3":0.946875,"heading_deg":356.4568393787221,"speed_ms":8.694710884353741,"peak_altitude_m":0.0,"u_ms":-0.5882142857142857,"v_ms":8.581207482993197}},{"type":"Feature","geometry":{"type":"Point","coordinates":[-84.5658,33.3636]},"properties":{"site":"KFFC","name":"Atlanta GA","scan_time":"2026-08-12T23:57:41Z","stale":false,"bins":25,"density_birds_km3":0.4233333333333334,"heading_deg":113.74365147309717,"speed_ms":3.364211356466877,"peak_altitude_m":200.0,"u_ms":2.833391167192429,"v_ms":-1.5041798107255522}},{"type":"Feature","geometry":{"type":"Point","coordinates":[-85.5449,42.8939]},"properties":{"site":"KGRR","name":"Grand Rapids MI","scan_time":"2026-08-12T23:59:10Z","stale":false,"bins":25,"density_birds_km3":1.1126666666666665,"heading_deg":145.11099610800906,"speed_ms":5.020966386554622,"peak_altitude_m":200.0,"u_ms":2.8448619447779113,"v_ms":-4.119177671068426}},{"type":"Feature","geometry":{"type":"Point","coordinates":[-83.8217,39.4203]},"properties":{"site":"KILN","name":"Wilmington OH","scan_time":"2026-08-13T00:01:30Z","stale":false,"bins":25,"density_birds_km3":1.1226666666666667,"heading_deg":9.621035491919672,"speed_ms":6.74002386634845,"peak_altitude_m":200.0,"u_ms":1.106288782816229,"v_ms":6.502768496420049}},{"type":"Feature","geometry":{"type":"Point","coordinates":[-81.7019,30.4846]},"properties":{"site":"KJAX","name":"Jacksonville FL","scan_time":"2026-08-12T23:59:19Z","stale":false,"bins":25,"density_birds_km3":0.5525,"heading_deg":89.47778111745045,"speed_ms":5.3010407239819,"peak_altitude_m":0.0,"u_ms":5.234966063348417,"v_ms":0.11027149321266969}},{"type":"Feature","geometry":{"type":"Point","coordinates":[-88.0847,41.6045]},"properties":{"site":"KLOT","name":"Chicago IL","scan_time":"2026-08-12T23:56:41Z","stale":false,"bins":25,"density_birds_km3":1.1173333333333333,"heading_deg":72.93477508425295,"speed_ms":4.967580645161291,"peak_altitude_m":200.0,"u_ms":3.911857825567503,"v_ms":0.8391218637992831}},{"type":"Feature","geometry":{"type":"Point","coordinates":[-78.4292,33.9892]},"properties":{"site":"KLTX","name":"Wilmington NC","scan_time":"2026-08-12T23:58:35Z","stale":false,"bins":25,"density_birds_km3":0.25,"heading_deg":26.84493632323253,"speed_ms":5.944769230769231,"peak_altitude_m":0.0,"u_ms":2.44525641025641,"v_ms":4.8662820512820515}},{"type":"Feature","geometry":{"type":"Point","coordinates":[-77.4778,38.9753]},"properties":{"site":"KLWX","name":"Sterling VA","scan_time":"2026-08-13T00:00:13Z","stale":false,"bins":25,"density_birds_km3":0.5075000000000001,"heading_deg":64.8202906573592,"speed_ms":3.711933497536945,"peak_altitude_m":0.0,"u_ms":3.259371921182266,"v_ms":1.4048399014778326}},{"type":"Feature","geometry":{"type":"Point","coordinates":[-76.8762,34.7759]},"properties":{"site":"KMHX","name":"Morehead City NC","scan_time":"2026-08-12T23:59:14Z","stale":false,"bins":25,"density_birds_km3":3.51625,"heading_deg":24.961927361539367,"speed_ms":2.4807271431117446,"peak_altitude_m":0.0,"u_ms":0.8277544109784352,"v_ms":2.1390269114239886}},{"type":"Feature","geometry":{"type":"Point","coordinates":[-80.6542,28.1133]},"properties":{"site":"KMLB","name":"Melbourne FL","scan_time":"2026-08-12T23:58:37Z","stale":false,"bins":25,"density_birds_km3":1.35625,"heading_deg":169.67323139774336,"speed_ms":3.6222442396313363,"peak_altitude_m":0.0,"u_ms":2.136995391705069,"v_ms":-2.092751152073733}},{"type":"Feature","geometry":{"type":"Point","coordinates":[-86.5625,36.2472]},"properties":{"site":"KOHX","name":"Nashville TN","scan_time":"2026-08-13T00:01:08Z","stale":false,"bins":25,"density_birds_km3":2.074666666666667,"heading_deg":337.9351323476337,"speed_ms":2.007541935483871,"peak_altitude_m":200.0,"u_ms":0.9966903225806452,"v_ms":1.1856903225806452}},{"type":"Feature","geometry":{"type":"Point","coordinates":[-72.8639,40.8655]},"properties":{"site":"KOKX","name":"Upton NY","scan_time":"2026-08-13T00:00:55Z","stale":false,"bins":25,"density_birds_km3":0.141875,"heading_deg":49.70013003156105,"speed_ms":4.557312775330397,"peak_altitude_m":0.0,"u_ms":3.4661674008810577,"v_ms":2.9421585903083702}},{"type":"Feature","geometry":{"type":"Point","coordinates":[-80.2183,40.5317]},"properties":{"site":"KPBZ","name":"Pittsburgh PA","scan_time":"2026-08-13T00:00:00Z","stale":false,"bins":25,"density_birds_km3":0.09214285714285715,"heading_deg":91.60432032464843,"speed_ms":7.930852713178295,"peak_altitude_m":400.0,"u_ms":7.830155038759691,"v_ms":-0.4153488372093024}},{"type":"Feature","geometry":{"type":"Point","coordinates":[-78.4899,35.6655]},"properties":{"site":"KRAX","name":"Raleigh NC","scan_time":"2026-08-12T23:56:00Z","stale":false,"bins":25,"density_birds_km3":0.273125,"heading_deg":331.4032645701512,"speed_ms":3.603589743589744,"peak_altitude_m":0.0,"u_ms":-1.6843333333333332,"v_ms":2.917384615384615}},{"type":"Feature","geometry":{"type":"Point","coordinates":[-82.4017,27.7055]},"properties":{"site":"KTBW","name":"Tampa FL","scan_time":"2026-08-12T23:58:50Z","stale":false,"bins":25,"density_birds_km3":0.961875,"heading_deg":151.50634604157813,"speed_ms":6.331926845199216,"peak_altitude_m":0.0,"u_ms":3.0159111691704767,"v_ms":-5.563585891574134}}]}