{"type":"FeatureCollection","frame":"2026-09-03T08","site_count":20,"fresh_count":20,"failures":{},"features":[{"type":"Feature","geometry":{"type":"Point","coordinates":[-77.0073,36.984]},"properties":{"site":"KAKQ","name":"Wakefield VA","scan_time":"2026-09-03T08:01:27Z","stale":false,"bins":25,"density_birds_km3":11.98875,"heading_deg":227.83551863937984,"speed_ms":2.087304202732297,"peak_altitude_m":0.0,"u_ms":-1.038051413077485,"v_ms":-0.9889138596308269}},{"type":"Feature","geometry":{"type":"Point","coordinates":[-71.1369,41.9558]},"properties":{"site":"KBOX","name":"Boston MA","scan_time":"2026-09-03T07:59:25Z","stale":false,"bins":25,"density_birds_km3":0.24812499999999998,"heading_deg":null,"speed_ms":null,"peak_altitude_m":0.0,"u_ms":null,"v_ms":null}},{"type":"Feature","geometry":{"type":"Point","coordinates":[-78.7369,42.9489]},"properties":{"site":"KBUF","name":"Buffalo NY","scan_time":"2026-09-03T08:00:53Z","stale":false,"bins":25,"density_birds_km3":28.71466666666667,"heading_deg":136.9934176083242,"speed_ms":10.000494056463594,"peak_altitude_m":200.0,"u_ms":6.6892784175334326,"v_ms":-7.321645848811293}},{"type":"Feature","geometry":{"type":"Point","coordinates":[-81.8597,41.4131]},"properties":{"site":"KCLE","name":"Cleveland OH","scan_time":"2026-09-03T07:57:57Z","stale":false,"bins":25,"density_birds_km3":19.926666666666666,"heading_deg":113.45628082734527,"speed_ms":13.391925393108064,"peak_altitude_m":400.0,"u_ms":12.088952827032452,"v_ms":-5.642612244897959}},{"type":"Feature","geometry":{"type":"Point","coordinates":[-81.0423,32.6555]},"properties":{"site":"KCLX","name":"Charleston SC","scan_time":"2026-09-03T08:03:13Z","stale":false,"bins":25,"density_birds_km3":4.5475,"heading_deg":214.10760482577575,"speed_ms":4.321436830231246,"peak_altitude_m":0.0,"u_ms":-2.664156796390299,"v_ms":-3.1364551607445006}},{"type":"Feature","geometry":{"type":"Point","coordinates":[-74.4108,39.947]},"properties":{"site":"KDIX","name":"Philadelphia PA","scan_time":"2026-09-03T07:58:31Z","stale":false,"bins":25,"density_birds_km3":3.106875,"heading_deg":75.18884028683911,"speed_ms":4.308360622599555,"peak_altitude_m":200.0,"u_ms":1.5524984839296543,"v_ms":0.44944410753992314}},{"type":"Feature","geometry":{"type":"Point","coordinates":[-84.5658,33.3636]},"properties":{"site":"KFFC","name":"Atlanta GA","scan_time":"2026-09-03T08:01:59Z","stale":false,"bins":25,"density_birds_km3":12.448666666666666,"heading_deg":58.58056404091655,"speed_ms":5.696493680377035,"peak_altitude_m":200.0,"u_ms":-0.5938983504712937,"v_ms":0.16853631105398453}},{"type":"Feature","geometry":{"type":"Point","coordinates":[-85.5449,42.8939]},"properties":{"site":"KGRR","name":"Grand Rapids MI","scan_time":"2026-09-03T08:00:44Z","stale":false,"bins":25,"density_birds_km3":68.38866666666667,"heading_deg":179.93108184605643,"speed_ms":6.5634042428160075,"peak_altitude_m":400.0,"u_ms":0.9427603768780239,"v_ms":-5.796759221170986}},{"type":"Feature","geometry":{"type":"Point","coordinates":[-83.8217,39.4203]},"properties":{"site":"KILN","name":"Wilmington OH","scan_time":"2026-09-03T07:59:47Z","stale":false,"bins":25,"density_birds_km3":8.601333333333335,"heading_deg":125.83845218896967,"speed_ms":10.546070376685785,"peak_altitude_m":600.0,"u_ms":8.057561618353743,"v_ms":-5.7689761277321345}},{"type":"Feature","geometry":{"type":"Point","coordinates":[-81.7019,30.4846]},"properties":{"site":"KJAX","name":"Jacksonville FL","scan_time":"2026-09-03T07:59:47Z","stale":false,"bins":25,"density_birds_km3":11.02375,"heading_deg":193.2017891551223,"speed_ms":9.491529738617679,"peak_altitude_m":0.0,"u_ms":-2.1517264840959345,"v_ms":-9.21889436979078}},{"type":"Feature","geometry":{"type":"Point","coordinates":[-88.0847,41.6045]},"properties":{"site":"KLOT","name":"Chicago IL","scan_time":"2026-09-03T07:59:13Z","stale":false,"bins":25,"density_birds_km3":14.588666666666665,"heading_deg":107.05290149264782,"speed_ms":10.776752730430015,"peak_altitude_m":200.0,"u_ms":8.605762007037427,"v_ms":-3.0874797788237447}},{"type":"Feature","geometry":{"type":"Point","coordinates":[-78.4292,33.9892]},"properties":{"site":"KLTX","name":"Wilmington NC","scan_time":"2026-09-03T08:02:03Z","stale":false,"bins":25,"density_birds_km3":6.67375,"heading_deg":250.34736624445566,"speed_ms":5.96576512455516,"peak_altitude_m":0.0,"u_ms":-2.551312979958794,"v_ms":-3.2017269151526504}},{"type":"Feature","geometry":{"type":"Point","coordinates":[-77.4778,38.9753]},"properties":{"site":"KLWX","name":"Sterling VA","scan_time":"2026-09-03T07:58:35Z","stale":false,"bins":25,"density_birds_km3":5.015625,"heading_deg":304.4005514657247,"speed_ms":4.964372485399092,"peak_altitude_m":200.0,"u_ms":0.7408630759247241,"v_ms":-0.4884594419208306}},{"type":"Feature","geometry":{"type":"Point","coordinates":[-76.8762,34.7759]},"properties":{"site":"KMHX","name":"Morehead City NC","scan_time":"2026-09-03T07:57:52Z","stale":false,"bins":25,"density_birds_km3":3.4856249999999998,"heading_deg":82.45004405127492,"speed_ms":4.54307027027027,"peak_altitude_m":0.0,"u_ms":3.103466666666667,"v_ms":0.38616216216216215}},{"type":"Feature","geometry":{"type":"Point","coordinates":[-80.6542,28.1133]},"properties":{"site":"KMLB","name":"Melbourne FL","scan_time":"2026-09-03T08:00:42Z","stale":false,"bins":25,"density_birds_km3":2.52375,"heading_deg":357.57892365929104,"speed_ms":0.9771545319465081,"peak_altitude_m":0.0,"u_ms":-0.20135463100544826,"v_ms":0.8784150569588904}},{"type":"Feature","geometry":{"type":"Point","coordinates":[-86.5625,36.2472]},"properties":{"site":"KOHX","name":"Nashville TN","scan_time":"2026-09-03T07:59:36Z","stale":false,"bins":25,"density_birds_km3":11.67,"heading_deg":307.72578108050027,"speed_ms":1.9486461011139673,"peak_altitude_m":200.0,"u_ms":-0.627645815481291,"v_ms":1.0207180805484148}},{"type":"Feature","geometry":{"type":"Point","coordinates":[-72.8639,40.8655]},"properties":{"site":"KOKX","name":"Upton NY","scan_time":"2026-09-03T08:00:04Z","stale":false,"bins":25,"density_birds_km3":0.8271428571428572,"heading_deg":null,"speed_ms":null,"peak_altitude_m":0.0,"u_ms":null,"v_ms":null}},{"type":"Feature","geometry":{"type":"Point","coordinates":[-80.2183,40.5317]},"properties":{"site":"KPBZ","name":"Pittsburgh PA","scan_time":"2026-09-03T07:58:44Z","stale":false,"bins":25,"density_birds_km3":6.227142857142857,"heading_deg":117.02571261836417,"speed_ms":14.227498852684718,"peak_altitude_m":400.0,"u_ms":12.461951583295091,"v_ms":-6.728484396512162}},{"type":"Feature","geometry":{"type":"Point","coordinates":[-78.4899,35.6655]},"properties":{"site":"KRAX","name":"Raleigh NC","scan_time":"2026-09-03T07:57:00Z","stale":false,"bins":25,"density_birds_km3":8.08625,"heading_deg":119.79781239194783,"speed_ms":6.589464431725266,"peak_altitude_m":200.0,"u_ms":2.7749018806214227,"v_ms":-1.6306034341782503}},{"type":"Feature","geometry":{"type":"Point","coordinates":[-82.4017,27.7055]},"properties":{"site":"KTBW","name":"Tampa FL","scan_time":"2026-09-03T08:00:21Z","stale":false,"bins":25,"density_birds_km3":5.038125,"heading_deg":259.96692457546,"speed_ms":3.226593052109181,"peak_altitude_m":0.0,"u_ms":-2.679200992555831,"v_ms":-0.07129776674937974}}]}