{"type":"FeatureCollection","frame":"2026-09-08T00","site_count":20,"fresh_count":19,"failures":{"KOKX":"RuntimeError('no scan within 20 min of 2026-09-08T00:00Z')"},"features":[{"type":"Feature","geometry":{"type":"Point","coordinates":[-77.0073,36.984]},"properties":{"site":"KAKQ","name":"Wakefield VA","scan_time":"2026-09-08T00:01:45Z","stale":false,"bins":25,"density_birds_km3":9.744375,"heading_deg":254.0502134437965,"speed_ms":5.0138311521683345,"peak_altitude_m":0.0,"u_ms":-4.806494098024121,"v_ms":-1.2699801129073647}},{"type":"Feature","geometry":{"type":"Point","coordinates":[-71.1369,41.9558]},"properties":{"site":"KBOX","name":"Boston MA","scan_time":"2026-09-08T00:02:51Z","stale":false,"bins":25,"density_birds_km3":3.9425,"heading_deg":160.6390907186648,"speed_ms":10.472454415728555,"peak_altitude_m":0.0,"u_ms":3.026871729824005,"v_ms":-9.713053749801809}},{"type":"Feature","geometry":{"type":"Point","coordinates":[-78.7369,42.9489]},"properties":{"site":"KBUF","name":"Buffalo NY","scan_time":"2026-09-07T23:56:00Z","stale":false,"bins":25,"density_birds_km3":0.186,"heading_deg":278.1875151045873,"speed_ms":2.892867383512545,"peak_altitude_m":200.0,"u_ms":-2.3324372759856633,"v_ms":0.29580645161290325}},{"type":"Feature","geometry":{"type":"Point","coordinates":[-81.8597,41.4131]},"properties":{"site":"KCLE","name":"Cleveland OH","scan_time":"2026-09-07T23:57:29Z","stale":false,"bins":25,"density_birds_km3":0.928,"heading_deg":229.8934701369788,"speed_ms":6.019719626168223,"peak_altitude_m":200.0,"u_ms":-4.580467289719626,"v_ms":-3.873213515456506}},{"type":"Feature","geometry":{"type":"Point","coordinates":[-81.0423,32.6555]},"properties":{"site":"KCLX","name":"Charleston SC","scan_time":"2026-09-08T00:00:48Z","stale":false,"bins":25,"density_birds_km3":2.955,"heading_deg":261.8407625465872,"speed_ms":7.4852081563296515,"peak_altitude_m":0.0,"u_ms":-7.4096112999150385,"v_ms":-1.0154205607476634}},{"type":"Feature","geometry":{"type":"Point","coordinates":[-74.4108,39.947]},"properties":{"site":"KDIX","name":"Philadelphia PA","scan_time":"2026-09-07T23:58:56Z","stale":false,"bins":25,"density_birds_km3":10.744375,"heading_deg":131.0453771923736,"speed_ms":4.610101629577711,"peak_altitude_m":200.0,"u_ms":3.2109415337889144,"v_ms":-3.061254599614508}},{"type":"Feature","geometry":{"type":"Point","coordinates":[-84.5658,33.3636]},"properties":{"site":"KFFC","name":"Atlanta GA","scan_time":"2026-09-07T23:58:52Z","stale":false,"bins":25,"density_birds_km3":3.2653333333333334,"heading_deg":234.93037644416356,"speed_ms":6.582299672935404,"peak_altitude_m":200.0,"u_ms":-5.344617743254293,"v_ms":-3.673507767784137}},{"type":"Feature","geometry":{"type":"Point","coordinates":[-85.5449,42.8939]},"properties":{"site":"KGRR","name":"Grand Rapids MI","scan_time":"2026-09-07T23:59:15Z","stale":false,"bins":25,"density_birds_km3":0.47600000000000003,"heading_deg":288.2660292318858,"speed_ms":3.8924789915966387,"peak_altitude_m":200.0,"u_ms":-3.6806162464985994,"v_ms":1.2190056022408962}},{"type":"Feature","geometry":{"type":"Point","coordinates":[-83.8217,39.4203]},"properties":{"site":"KILN","name":"Wilmington OH","scan_time":"2026-09-08T00:01:48Z","stale":false,"bins":25,"density_birds_km3":0.2673333333333333,"heading_deg":244.3993674877451,"speed_ms":7.39835,"peak_altitude_m":200.0,"u_ms":-6.667,"v_ms":-3.183525}},{"type":"Feature","geometry":{"type":"Point","coordinates":[-81.7019,30.4846]},"properties":{"site":"KJAX","name":"Jacksonville FL","scan_time":"2026-09-07T23:58:34Z","stale":false,"bins":25,"density_birds_km3":11.0225,"heading_deg":227.78133395314705,"speed_ms":7.896882733567941,"peak_altitude_m":0.0,"u_ms":-5.824779770689067,"v_ms":-5.3027080258826205}},{"type":"Feature","geometry":{"type":"Point","coordinates":[-88.0847,41.6045]},"properties":{"site":"KLOT","name":"Chicago IL","scan_time":"2026-09-08T00:00:03Z","stale":false,"bins":25,"density_birds_km3":0.44466666666666665,"heading_deg":271.2336327872735,"speed_ms":5.568978930307941,"peak_altitude_m":200.0,"u_ms":-5.540129659643436,"v_ms":0.041539708265802264}},{"type":"Feature","geometry":{"type":"Point","coordinates":[-78.4292,33.9892]},"properties":{"site":"KLTX","name":"Wilmington NC","scan_time":"2026-09-08T00:00:23Z","stale":false,"bins":25,"density_birds_km3":4.318125,"heading_deg":240.7718499894719,"speed_ms":9.19057417662489,"peak_altitude_m":0.0,"u_ms":-8.045488195861266,"v_ms":-4.389127076654036}},{"type":"Feature","geometry":{"type":"Point","coordinates":[-77.4778,38.9753]},"properties":{"site":"KLWX","name":"Sterling VA","scan_time":"2026-09-07T23:58:23Z","stale":false,"bins":25,"density_birds_km3":14.051875,"heading_deg":233.74966770642538,"speed_ms":2.2266641462438286,"peak_altitude_m":200.0,"u_ms":-1.8033732153182405,"v_ms":-1.2108824445136326}},{"type":"Feature","geometry":{"type":"Point","coordinates":[-76.8762,34.7759]},"properties":{"site":"KMHX","name":"Morehead City NC","scan_time":"2026-09-08T00:01:00Z","stale":false,"bins":25,"density_birds_km3":6.674375,"heading_deg":226.88511737322284,"speed_ms":9.630031882970743,"peak_altitude_m":0.0,"u_ms":-7.030821455363842,"v_ms":-6.483980682670667}},{"type":"Feature","geometry":{"type":"Point","coordinates":[-80.6542,28.1133]},"properties":{"site":"KMLB","name":"Melbourne FL","scan_time":"2026-09-08T00:01:07Z","stale":false,"bins":25,"density_birds_km3":9.426875,"heading_deg":154.62525973443567,"speed_ms":4.624961877610555,"peak_altitude_m":0.0,"u_ms":2.1758463170456803,"v_ms":-3.9918099847510438}},{"type":"Feature","geometry":{"type":"Point","coordinates":[-86.5625,36.2472]},"properties":{"site":"KOHX","name":"Nashville TN","scan_time":"2026-09-07T23:58:57Z","stale":false,"bins":25,"density_birds_km3":7.908666666666667,"heading_deg":203.64483547326284,"speed_ms":7.669706551985834,"peak_altitude_m":200.0,"u_ms":-3.067197065519858,"v_ms":-7.018022598870057}},{"type":"Feature","geometry":{"type":"Point","coordinates":[-80.2183,40.5317]},"properties":{"site":"KPBZ","name":"Pittsburgh PA","scan_time":"2026-09-08T00:02:09Z","stale":false,"bins":25,"density_birds_km3":0.36642857142857144,"heading_deg":263.33146146482613,"speed_ms":4.195243664717349,"peak_altitude_m":400.0,"u_ms":-4.050058479532164,"v_ms":-0.561384015594542}},{"type":"Feature","geometry":{"type":"Point","coordinates":[-78.4899,35.6655]},"properties":{"site":"KRAX","name":"Raleigh NC","scan_time":"2026-09-08T00:01:36Z","stale":false,"bins":25,"density_birds_km3":7.2700000000000005,"heading_deg":268.50941553480084,"speed_ms":5.601248161923709,"peak_altitude_m":0.0,"u_ms":-5.594965833405415,"v_ms":-0.12751232592336303}},{"type":"Feature","geometry":{"type":"Point","coordinates":[-82.4017,27.7055]},"properties":{"site":"KTBW","name":"Tampa FL","scan_time":"2026-09-07T23:59:06Z","stale":false,"bins":25,"density_birds_km3":12.683125,"heading_deg":125.46374696746767,"speed_ms":3.1392463525236596,"peak_altitude_m":0.0,"u_ms":2.4153425670347,"v_ms":-1.9586159305993691}}]}