{"type":"FeatureCollection","frame":"2026-09-23T02","site_count":20,"fresh_count":20,"failures":{},"features":[{"type":"Feature","geometry":{"type":"Point","coordinates":[-77.0073,36.984]},"properties":{"site":"KAKQ","name":"Wakefield VA","scan_time":"2026-09-23T02:01:31Z","stale":false,"bins":25,"density_birds_km3":2.482666666666667,"heading_deg":null,"speed_ms":null,"peak_altitude_m":0.0,"u_ms":null,"v_ms":null}},{"type":"Feature","geometry":{"type":"Point","coordinates":[-71.1369,41.9558]},"properties":{"site":"KBOX","name":"Boston MA","scan_time":"2026-09-23T01:57:58Z","stale":false,"bins":25,"density_birds_km3":3.255625,"heading_deg":231.1854955258171,"speed_ms":13.588222307544635,"peak_altitude_m":200.0,"u_ms":-10.683165674793628,"v_ms":-8.238306776732578}},{"type":"Feature","geometry":{"type":"Point","coordinates":[-78.7369,42.9489]},"properties":{"site":"KBUF","name":"Buffalo NY","scan_time":"2026-09-23T02:02:41Z","stale":false,"bins":25,"density_birds_km3":13.472666666666667,"heading_deg":240.3413175901507,"speed_ms":14.893417784155572,"peak_altitude_m":400.0,"u_ms":-12.811759117224998,"v_ms":-7.279882725518333}},{"type":"Feature","geometry":{"type":"Point","coordinates":[-81.8597,41.4131]},"properties":{"site":"KCLE","name":"Cleveland OH","scan_time":"2026-09-23T02:03:32Z","stale":false,"bins":25,"density_birds_km3":12.193333333333333,"heading_deg":258.823001351121,"speed_ms":16.259455421159213,"peak_altitude_m":400.0,"u_ms":-15.911101198620765,"v_ms":-2.7349099666137593}},{"type":"Feature","geometry":{"type":"Point","coordinates":[-81.0423,32.6555]},"properties":{"site":"KCLX","name":"Charleston SC","scan_time":"2026-09-23T02:01:08Z","stale":false,"bins":25,"density_birds_km3":13.00125,"heading_deg":203.93300447507738,"speed_ms":7.642185357986292,"peak_altitude_m":200.0,"u_ms":-3.2143021715338977,"v_ms":-6.851793099475837}},{"type":"Feature","geometry":{"type":"Point","coordinates":[-74.4108,39.947]},"properties":{"site":"KDIX","name":"Philadelphia PA","scan_time":"2026-09-23T01:57:34Z","stale":false,"bins":25,"density_birds_km3":5.479375,"heading_deg":224.02255911329695,"speed_ms":17.863175407366832,"peak_altitude_m":200.0,"u_ms":-12.463091880049294,"v_ms":-12.68188004929481}},{"type":"Feature","geometry":{"type":"Point","coordinates":[-84.5658,33.3636]},"properties":{"site":"KFFC","name":"Atlanta GA","scan_time":"2026-09-23T01:58:07Z","stale":false,"bins":25,"density_birds_km3":66.40400000000001,"heading_deg":206.64311534058953,"speed_ms":7.389405256711443,"peak_altitude_m":600.0,"u_ms":-2.8151009979318515,"v_ms":-6.446420496757223}},{"type":"Feature","geometry":{"type":"Point","coordinates":[-85.5449,42.8939]},"properties":{"site":"KGRR","name":"Grand Rapids MI","scan_time":"2026-09-23T01:59:57Z","stale":false,"bins":25,"density_birds_km3":30.718,"heading_deg":218.27576580262516,"speed_ms":13.052480413221346,"peak_altitude_m":200.0,"u_ms":-8.25359051153504,"v_ms":-9.236932308961086}},{"type":"Feature","geometry":{"type":"Point","coordinates":[-83.8217,39.4203]},"properties":{"site":"KILN","name":"Wilmington OH","scan_time":"2026-09-23T01:57:36Z","stale":false,"bins":25,"density_birds_km3":17.098666666666666,"heading_deg":202.44072155452957,"speed_ms":9.491921862206107,"peak_altitude_m":200.0,"u_ms":-3.5083210511950718,"v_ms":-8.22673100167661}},{"type":"Feature","geometry":{"type":"Point","coordinates":[-81.7019,30.4846]},"properties":{"site":"KJAX","name":"Jacksonville FL","scan_time":"2026-09-23T01:58:33Z","stale":false,"bins":25,"density_birds_km3":18.165625,"heading_deg":196.95544603853668,"speed_ms":8.696938747419132,"peak_altitude_m":200.0,"u_ms":-2.3383850653819684,"v_ms":-8.233690640055059}},{"type":"Feature","geometry":{"type":"Point","coordinates":[-88.0847,41.6045]},"properties":{"site":"KLOT","name":"Chicago IL","scan_time":"2026-09-23T02:02:50Z","stale":false,"bins":25,"density_birds_km3":108.25133333333333,"heading_deg":192.0583349170431,"speed_ms":9.738057635076434,"peak_altitude_m":200.0,"u_ms":-2.1690622747185717,"v_ms":-8.844079619463082}},{"type":"Feature","geometry":{"type":"Point","coordinates":[-78.4292,33.9892]},"properties":{"site":"KLTX","name":"Wilmington NC","scan_time":"2026-09-23T02:01:06Z","stale":false,"bins":25,"density_birds_km3":30.190625,"heading_deg":197.4583736774712,"speed_ms":11.753986750853949,"peak_altitude_m":200.0,"u_ms":-3.712731808301418,"v_ms":-10.868457716592484}},{"type":"Feature","geometry":{"type":"Point","coordinates":[-77.4778,38.9753]},"properties":{"site":"KLWX","name":"Sterling VA","scan_time":"2026-09-23T02:01:07Z","stale":false,"bins":25,"density_birds_km3":29.703333333333333,"heading_deg":null,"speed_ms":null,"peak_altitude_m":200.0,"u_ms":null,"v_ms":null}},{"type":"Feature","geometry":{"type":"Point","coordinates":[-76.8762,34.7759]},"properties":{"site":"KMHX","name":"Morehead City NC","scan_time":"2026-09-23T02:02:54Z","stale":false,"bins":25,"density_birds_km3":6.36,"heading_deg":197.54376524166312,"speed_ms":13.093942014742016,"peak_altitude_m":200.0,"u_ms":-4.0505218673218675,"v_ms":-12.232421621621622}},{"type":"Feature","geometry":{"type":"Point","coordinates":[-80.6542,28.1133]},"properties":{"site":"KMLB","name":"Melbourne FL","scan_time":"2026-09-23T01:57:27Z","stale":false,"bins":25,"density_birds_km3":7.99375,"heading_deg":191.02846840380428,"speed_ms":3.516982017200938,"peak_altitude_m":0.0,"u_ms":0.06451993745113366,"v_ms":-3.0797982799061767}},{"type":"Feature","geometry":{"type":"Point","coordinates":[-86.5625,36.2472]},"properties":{"site":"KOHX","name":"Nashville TN","scan_time":"2026-09-23T01:58:26Z","stale":false,"bins":25,"density_birds_km3":72.962,"heading_deg":201.43423789062004,"speed_ms":8.452123022943448,"peak_altitude_m":600.0,"u_ms":-3.138791334301874,"v_ms":-7.765933865117002}},{"type":"Feature","geometry":{"type":"Point","coordinates":[-72.8639,40.8655]},"properties":{"site":"KOKX","name":"Upton NY","scan_time":"2026-09-23T02:02:35Z","stale":false,"bins":25,"density_birds_km3":17.795625,"heading_deg":239.40238403917246,"speed_ms":18.666125439212927,"peak_altitude_m":200.0,"u_ms":-16.06713527758257,"v_ms":-9.452730850316232}},{"type":"Feature","geometry":{"type":"Point","coordinates":[-80.2183,40.5317]},"properties":{"site":"KPBZ","name":"Pittsburgh PA","scan_time":"2026-09-23T01:58:29Z","stale":false,"bins":25,"density_birds_km3":9.889285714285714,"heading_deg":258.3119722676508,"speed_ms":14.920377031419287,"peak_altitude_m":600.0,"u_ms":-14.08416684723727,"v_ms":-2.4289144095341277}},{"type":"Feature","geometry":{"type":"Point","coordinates":[-78.4899,35.6655]},"properties":{"site":"KRAX","name":"Raleigh NC","scan_time":"2026-09-23T02:01:48Z","stale":false,"bins":25,"density_birds_km3":27.60125,"heading_deg":200.46143663473575,"speed_ms":10.534492866645259,"peak_altitude_m":200.0,"u_ms":-3.726349144456168,"v_ms":-9.793638240286251}},{"type":"Feature","geometry":{"type":"Point","coordinates":[-82.4017,27.7055]},"properties":{"site":"KTBW","name":"Tampa FL","scan_time":"2026-09-23T02:01:37Z","stale":false,"bins":25,"density_birds_km3":16.33125,"heading_deg":244.18493106432032,"speed_ms":3.447134328358209,"peak_altitude_m":0.0,"u_ms":-2.6019418293149634,"v_ms":-1.6697225411404515}}]}