{"type":"FeatureCollection","frame":"2026-09-20T12","site_count":20,"fresh_count":20,"failures":{},"features":[{"type":"Feature","geometry":{"type":"Point","coordinates":[-77.0073,36.984]},"properties":{"site":"KAKQ","name":"Wakefield VA","scan_time":"2026-09-20T12:02:21Z","stale":false,"bins":25,"density_birds_km3":0.116875,"heading_deg":321.05385827003505,"speed_ms":2.7327272727272724,"peak_altitude_m":0.0,"u_ms":-1.6959358288770054,"v_ms":2.1135294117647057}},{"type":"Feature","geometry":{"type":"Point","coordinates":[-71.1369,41.9558]},"properties":{"site":"KBOX","name":"Boston MA","scan_time":"2026-09-20T11:57:27Z","stale":false,"bins":25,"density_birds_km3":0.6606249999999999,"heading_deg":290.5436633298524,"speed_ms":1.8925023696682464,"peak_altitude_m":0.0,"u_ms":-1.7149099526066351,"v_ms":0.7144075829383887}},{"type":"Feature","geometry":{"type":"Point","coordinates":[-78.7369,42.9489]},"properties":{"site":"KBUF","name":"Buffalo NY","scan_time":"2026-09-20T11:57:09Z","stale":false,"bins":25,"density_birds_km3":0.7253333333333334,"heading_deg":199.83311783981333,"speed_ms":3.999659926470588,"peak_altitude_m":200.0,"u_ms":-1.3563970588235292,"v_ms":-3.575928308823529}},{"type":"Feature","geometry":{"type":"Point","coordinates":[-81.8597,41.4131]},"properties":{"site":"KCLE","name":"Cleveland OH","scan_time":"2026-09-20T11:59:27Z","stale":false,"bins":25,"density_birds_km3":2.8564285714285718,"heading_deg":179.8,"speed_ms":2.06,"peak_altitude_m":200.0,"u_ms":0.01,"v_ms":-2.06}},{"type":"Feature","geometry":{"type":"Point","coordinates":[-81.0423,32.6555]},"properties":{"site":"KCLX","name":"Charleston SC","scan_time":"2026-09-20T12:01:45Z","stale":false,"bins":25,"density_birds_km3":0.583125,"heading_deg":259.7041200693542,"speed_ms":6.630448087431693,"peak_altitude_m":200.0,"u_ms":-6.5095081967213115,"v_ms":-1.149617486338798}},{"type":"Feature","geometry":{"type":"Point","coordinates":[-74.4108,39.947]},"properties":{"site":"KDIX","name":"Philadelphia PA","scan_time":"2026-09-20T11:58:20Z","stale":false,"bins":25,"density_birds_km3":0.008125,"heading_deg":null,"speed_ms":null,"peak_altitude_m":0.0,"u_ms":null,"v_ms":null}},{"type":"Feature","geometry":{"type":"Point","coordinates":[-84.5658,33.3636]},"properties":{"site":"KFFC","name":"Atlanta GA","scan_time":"2026-09-20T11:59:28Z","stale":false,"bins":25,"density_birds_km3":5.141333333333334,"heading_deg":229.12624035310486,"speed_ms":6.9670963136033235,"peak_altitude_m":400.0,"u_ms":-4.9722637590861885,"v_ms":-4.198448857736241}},{"type":"Feature","geometry":{"type":"Point","coordinates":[-85.5449,42.8939]},"properties":{"site":"KGRR","name":"Grand Rapids MI","scan_time":"2026-09-20T12:00:50Z","stale":false,"bins":25,"density_birds_km3":6.112727272727273,"heading_deg":129.2,"speed_ms":1.38,"peak_altitude_m":200.0,"u_ms":1.07,"v_ms":-0.8699999999999999}},{"type":"Feature","geometry":{"type":"Point","coordinates":[-83.8217,39.4203]},"properties":{"site":"KILN","name":"Wilmington OH","scan_time":"2026-09-20T11:59:18Z","stale":false,"bins":25,"density_birds_km3":0.6880000000000001,"heading_deg":44.28570802749792,"speed_ms":5.146996124031007,"peak_altitude_m":200.0,"u_ms":3.7234496124031007,"v_ms":3.017781007751938}},{"type":"Feature","geometry":{"type":"Point","coordinates":[-81.7019,30.4846]},"properties":{"site":"KJAX","name":"Jacksonville FL","scan_time":"2026-09-20T11:59:37Z","stale":false,"bins":25,"density_birds_km3":1.730625,"heading_deg":174.47573145141192,"speed_ms":5.896541176470589,"peak_altitude_m":0.0,"u_ms":0.5375058823529412,"v_ms":-5.827713725490196}},{"type":"Feature","geometry":{"type":"Point","coordinates":[-88.0847,41.6045]},"properties":{"site":"KLOT","name":"Chicago IL","scan_time":"2026-09-20T11:59:21Z","stale":false,"bins":25,"density_birds_km3":0.8119999999999999,"heading_deg":null,"speed_ms":null,"peak_altitude_m":200.0,"u_ms":null,"v_ms":null}},{"type":"Feature","geometry":{"type":"Point","coordinates":[-78.4292,33.9892]},"properties":{"site":"KLTX","name":"Wilmington NC","scan_time":"2026-09-20T12:01:48Z","stale":false,"bins":25,"density_birds_km3":1.213125,"heading_deg":242.61590386414343,"speed_ms":8.384615781330583,"peak_altitude_m":0.0,"u_ms":-7.326683857658587,"v_ms":-3.707235688499227}},{"type":"Feature","geometry":{"type":"Point","coordinates":[-77.4778,38.9753]},"properties":{"site":"KLWX","name":"Sterling VA","scan_time":"2026-09-20T11:57:03Z","stale":false,"bins":25,"density_birds_km3":0.39375000000000004,"heading_deg":13.682063664097203,"speed_ms":9.639917355371901,"peak_altitude_m":0.0,"u_ms":2.216115702479339,"v_ms":9.337685950413224}},{"type":"Feature","geometry":{"type":"Point","coordinates":[-76.8762,34.7759]},"properties":{"site":"KMHX","name":"Morehead City NC","scan_time":"2026-09-20T12:01:14Z","stale":false,"bins":25,"density_birds_km3":0.559375,"heading_deg":210.87582140671984,"speed_ms":5.365217877094973,"peak_altitude_m":0.0,"u_ms":-1.8881340782122908,"v_ms":-3.7556648044692738}},{"type":"Feature","geometry":{"type":"Point","coordinates":[-80.6542,28.1133]},"properties":{"site":"KMLB","name":"Melbourne FL","scan_time":"2026-09-20T12:00:37Z","stale":false,"bins":25,"density_birds_km3":1.66625,"heading_deg":191.53919091340703,"speed_ms":4.399857464366091,"peak_altitude_m":200.0,"u_ms":-0.8820405101275319,"v_ms":-4.1902213053263315}},{"type":"Feature","geometry":{"type":"Point","coordinates":[-86.5625,36.2472]},"properties":{"site":"KOHX","name":"Nashville TN","scan_time":"2026-09-20T11:58:33Z","stale":false,"bins":25,"density_birds_km3":2.7953333333333332,"heading_deg":76.50449078120783,"speed_ms":6.562060577152397,"peak_altitude_m":200.0,"u_ms":4.961521583591701,"v_ms":-0.150550918196995}},{"type":"Feature","geometry":{"type":"Point","coordinates":[-72.8639,40.8655]},"properties":{"site":"KOKX","name":"Upton NY","scan_time":"2026-09-20T12:00:14Z","stale":false,"bins":25,"density_birds_km3":0.410625,"heading_deg":301.093230743456,"speed_ms":6.311491628614916,"peak_altitude_m":0.0,"u_ms":-5.342404870624049,"v_ms":3.248888888888889}},{"type":"Feature","geometry":{"type":"Point","coordinates":[-80.2183,40.5317]},"properties":{"site":"KPBZ","name":"Pittsburgh PA","scan_time":"2026-09-20T12:02:28Z","stale":false,"bins":25,"density_birds_km3":0.08428571428571428,"heading_deg":68.6500830118367,"speed_ms":5.257927927927928,"peak_altitude_m":400.0,"u_ms":4.861441441441442,"v_ms":1.8390990990990992}},{"type":"Feature","geometry":{"type":"Point","coordinates":[-78.4899,35.6655]},"properties":{"site":"KRAX","name":"Raleigh NC","scan_time":"2026-09-20T11:58:19Z","stale":false,"bins":25,"density_birds_km3":0.6056250000000001,"heading_deg":223.05933778551875,"speed_ms":4.850712041884816,"peak_altitude_m":0.0,"u_ms":-3.0560523560209423,"v_ms":-3.3547643979057593}},{"type":"Feature","geometry":{"type":"Point","coordinates":[-82.4017,27.7055]},"properties":{"site":"KTBW","name":"Tampa FL","scan_time":"2026-09-20T12:00:23Z","stale":false,"bins":25,"density_birds_km3":1.02875,"heading_deg":214.43760251760352,"speed_ms":3.587328058429702,"peak_altitude_m":0.0,"u_ms":-1.8370602556299453,"v_ms":-2.8460681679853925}}]}