{"type":"FeatureCollection","frame":"2026-09-05T00","site_count":20,"fresh_count":20,"failures":{},"features":[{"type":"Feature","geometry":{"type":"Point","coordinates":[-77.0073,36.984]},"properties":{"site":"KAKQ","name":"Wakefield VA","scan_time":"2026-09-04T23:57:45Z","stale":false,"bins":25,"density_birds_km3":10.993125,"heading_deg":null,"speed_ms":null,"peak_altitude_m":200.0,"u_ms":null,"v_ms":null}},{"type":"Feature","geometry":{"type":"Point","coordinates":[-71.1369,41.9558]},"properties":{"site":"KBOX","name":"Boston MA","scan_time":"2026-09-04T23:59:49Z","stale":false,"bins":25,"density_birds_km3":8.854375,"heading_deg":169.67964250134176,"speed_ms":9.483976151607639,"peak_altitude_m":400.0,"u_ms":1.6493484278515156,"v_ms":-9.320877280147634}},{"type":"Feature","geometry":{"type":"Point","coordinates":[-78.7369,42.9489]},"properties":{"site":"KBUF","name":"Buffalo NY","scan_time":"2026-09-05T00:02:32Z","stale":false,"bins":25,"density_birds_km3":4.675333333333333,"heading_deg":128.30704925082864,"speed_ms":2.496234136603451,"peak_altitude_m":200.0,"u_ms":1.7378397262227294,"v_ms":-1.5381634108084985}},{"type":"Feature","geometry":{"type":"Point","coordinates":[-81.8597,41.4131]},"properties":{"site":"KCLE","name":"Cleveland OH","scan_time":"2026-09-05T00:01:00Z","stale":false,"bins":25,"density_birds_km3":2.5020000000000002,"heading_deg":122.34806394699594,"speed_ms":4.9283715351812365,"peak_altitude_m":200.0,"u_ms":4.058845948827292,"v_ms":-2.71432302771855}},{"type":"Feature","geometry":{"type":"Point","coordinates":[-81.0423,32.6555]},"properties":{"site":"KCLX","name":"Charleston SC","scan_time":"2026-09-04T23:59:11Z","stale":false,"bins":25,"density_birds_km3":1.701875,"heading_deg":357.39850527158455,"speed_ms":4.699375000000001,"peak_altitude_m":0.0,"u_ms":-0.16563602941176467,"v_ms":4.675911764705882}},{"type":"Feature","geometry":{"type":"Point","coordinates":[-74.4108,39.947]},"properties":{"site":"KDIX","name":"Philadelphia PA","scan_time":"2026-09-04T23:57:56Z","stale":false,"bins":25,"density_birds_km3":17.566875,"heading_deg":168.89619399215266,"speed_ms":6.478653524534747,"peak_altitude_m":200.0,"u_ms":1.2969754118777355,"v_ms":-6.306734156495747}},{"type":"Feature","geometry":{"type":"Point","coordinates":[-84.5658,33.3636]},"properties":{"site":"KFFC","name":"Atlanta GA","scan_time":"2026-09-04T23:58:24Z","stale":false,"bins":25,"density_birds_km3":0.5186666666666667,"heading_deg":287.2112024467035,"speed_ms":2.8144645161290325,"peak_altitude_m":200.0,"u_ms":-2.644541935483871,"v_ms":0.7763483870967742}},{"type":"Feature","geometry":{"type":"Point","coordinates":[-85.5449,42.8939]},"properties":{"site":"KGRR","name":"Grand Rapids MI","scan_time":"2026-09-04T23:59:25Z","stale":false,"bins":25,"density_birds_km3":1.1953333333333334,"heading_deg":232.52049924300326,"speed_ms":5.320547792062605,"peak_altitude_m":200.0,"u_ms":-4.034186696478479,"v_ms":-3.103543879262158}},{"type":"Feature","geometry":{"type":"Point","coordinates":[-83.8217,39.4203]},"properties":{"site":"KILN","name":"Wilmington OH","scan_time":"2026-09-04T23:58:40Z","stale":false,"bins":25,"density_birds_km3":2.8280000000000003,"heading_deg":114.77057187789795,"speed_ms":5.698624288425047,"peak_altitude_m":200.0,"u_ms":5.171413662239089,"v_ms":-2.3425118595825425}},{"type":"Feature","geometry":{"type":"Point","coordinates":[-81.7019,30.4846]},"properties":{"site":"KJAX","name":"Jacksonville FL","scan_time":"2026-09-04T23:59:44Z","stale":false,"bins":25,"density_birds_km3":8.969375,"heading_deg":49.2,"speed_ms":1.51,"peak_altitude_m":0.0,"u_ms":1.14,"v_ms":0.99}},{"type":"Feature","geometry":{"type":"Point","coordinates":[-88.0847,41.6045]},"properties":{"site":"KLOT","name":"Chicago IL","scan_time":"2026-09-04T23:58:29Z","stale":false,"bins":25,"density_birds_km3":1.21,"heading_deg":88.93372493248253,"speed_ms":6.134513812154696,"peak_altitude_m":200.0,"u_ms":6.07567955801105,"v_ms":0.02393922651933703}},{"type":"Feature","geometry":{"type":"Point","coordinates":[-78.4292,33.9892]},"properties":{"site":"KLTX","name":"Wilmington NC","scan_time":"2026-09-04T23:58:11Z","stale":false,"bins":25,"density_birds_km3":0.9075,"heading_deg":18.792506892170024,"speed_ms":6.550466830466831,"peak_altitude_m":0.0,"u_ms":2.055004095004095,"v_ms":6.2029074529074535}},{"type":"Feature","geometry":{"type":"Point","coordinates":[-77.4778,38.9753]},"properties":{"site":"KLWX","name":"Sterling VA","scan_time":"2026-09-04T23:59:51Z","stale":false,"bins":25,"density_birds_km3":6.5975,"heading_deg":112.08148140672144,"speed_ms":4.463705949223191,"peak_altitude_m":0.0,"u_ms":3.587823039029936,"v_ms":-1.807446949602122}},{"type":"Feature","geometry":{"type":"Point","coordinates":[-76.8762,34.7759]},"properties":{"site":"KMHX","name":"Morehead City NC","scan_time":"2026-09-04T23:58:41Z","stale":false,"bins":25,"density_birds_km3":0.990625,"heading_deg":42.643452037889766,"speed_ms":8.466763406940064,"peak_altitude_m":0.0,"u_ms":5.420050473186119,"v_ms":6.242378548895899}},{"type":"Feature","geometry":{"type":"Point","coordinates":[-80.6542,28.1133]},"properties":{"site":"KMLB","name":"Melbourne FL","scan_time":"2026-09-04T23:59:31Z","stale":false,"bins":25,"density_birds_km3":6.0912500000000005,"heading_deg":243.94363228918974,"speed_ms":2.57426944387441,"peak_altitude_m":0.0,"u_ms":-2.188145906012723,"v_ms":-0.6655068746152268}},{"type":"Feature","geometry":{"type":"Point","coordinates":[-86.5625,36.2472]},"properties":{"site":"KOHX","name":"Nashville TN","scan_time":"2026-09-05T00:00:47Z","stale":false,"bins":25,"density_birds_km3":2.924,"heading_deg":227.00142815996085,"speed_ms":3.0667914194431765,"peak_altitude_m":200.0,"u_ms":-2.2137151985394796,"v_ms":-2.1076471930625287}},{"type":"Feature","geometry":{"type":"Point","coordinates":[-72.8639,40.8655]},"properties":{"site":"KOKX","name":"Upton NY","scan_time":"2026-09-04T23:56:02Z","stale":false,"bins":25,"density_birds_km3":18.895625,"heading_deg":191.42082411267026,"speed_ms":6.380010262861683,"peak_altitude_m":0.0,"u_ms":-1.234672581606303,"v_ms":-6.098195722704098}},{"type":"Feature","geometry":{"type":"Point","coordinates":[-80.2183,40.5317]},"properties":{"site":"KPBZ","name":"Pittsburgh PA","scan_time":"2026-09-05T00:01:41Z","stale":false,"bins":25,"density_birds_km3":1.4328571428571428,"heading_deg":133.32259122910722,"speed_ms":5.0012861415752745,"peak_altitude_m":400.0,"u_ms":3.6005134596211374,"v_ms":-3.4208424725822537}},{"type":"Feature","geometry":{"type":"Point","coordinates":[-78.4899,35.6655]},"properties":{"site":"KRAX","name":"Raleigh NC","scan_time":"2026-09-04T23:59:53Z","stale":false,"bins":25,"density_birds_km3":3.9387499999999998,"heading_deg":51.659144274016974,"speed_ms":6.161729609647732,"peak_altitude_m":0.0,"u_ms":4.8411837511900995,"v_ms":3.716091716915265}},{"type":"Feature","geometry":{"type":"Point","coordinates":[-82.4017,27.7055]},"properties":{"site":"KTBW","name":"Tampa FL","scan_time":"2026-09-04T23:59:07Z","stale":false,"bins":25,"density_birds_km3":3.113125,"heading_deg":99.52791462943556,"speed_ms":6.298080706685404,"peak_altitude_m":200.0,"u_ms":6.209323429030316,"v_ms":-1.0487693234290303}}]}