{"type":"FeatureCollection","frame":"2026-08-24T11","site_count":20,"fresh_count":20,"failures":{},"features":[{"type":"Feature","geometry":{"type":"Point","coordinates":[-77.0073,36.984]},"properties":{"site":"KAKQ","name":"Wakefield VA","scan_time":"2026-08-24T10:59:06Z","stale":false,"bins":25,"density_birds_km3":4.093125,"heading_deg":199.73303515944625,"speed_ms":6.7789799969460995,"peak_altitude_m":200.0,"u_ms":-2.3006993434112077,"v_ms":-6.226626965949001}},{"type":"Feature","geometry":{"type":"Point","coordinates":[-71.1369,41.9558]},"properties":{"site":"KBOX","name":"Boston MA","scan_time":"2026-08-24T11:00:23Z","stale":false,"bins":25,"density_birds_km3":4.063125,"heading_deg":76.61924350711723,"speed_ms":3.932988770958314,"peak_altitude_m":0.0,"u_ms":3.7662944162436545,"v_ms":0.5633056452853407}},{"type":"Feature","geometry":{"type":"Point","coordinates":[-78.7369,42.9489]},"properties":{"site":"KBUF","name":"Buffalo NY","scan_time":"2026-08-24T10:59:30Z","stale":false,"bins":25,"density_birds_km3":1.2966666666666666,"heading_deg":72.43804895231318,"speed_ms":6.635890909090909,"peak_altitude_m":200.0,"u_ms":6.284924675324675,"v_ms":1.9880571428571427}},{"type":"Feature","geometry":{"type":"Point","coordinates":[-81.8597,41.4131]},"properties":{"site":"KCLE","name":"Cleveland OH","scan_time":"2026-08-24T11:00:21Z","stale":false,"bins":25,"density_birds_km3":5.034000000000001,"heading_deg":123.84689141529346,"speed_ms":6.450156208277702,"peak_altitude_m":200.0,"u_ms":4.616001335113484,"v_ms":-2.7468798397863816}},{"type":"Feature","geometry":{"type":"Point","coordinates":[-81.0423,32.6555]},"properties":{"site":"KCLX","name":"Charleston SC","scan_time":"2026-08-24T10:59:52Z","stale":false,"bins":25,"density_birds_km3":1.32625,"heading_deg":90.79764656089529,"speed_ms":5.071014150943396,"peak_altitude_m":200.0,"u_ms":4.979655660377358,"v_ms":-0.1288726415094339}},{"type":"Feature","geometry":{"type":"Point","coordinates":[-74.4108,39.947]},"properties":{"site":"KDIX","name":"Philadelphia PA","scan_time":"2026-08-24T10:59:34Z","stale":false,"bins":25,"density_birds_km3":1.068125,"heading_deg":245.9803293730145,"speed_ms":2.036360964138742,"peak_altitude_m":0.0,"u_ms":-1.0715049970605526,"v_ms":-0.26409758965314517}},{"type":"Feature","geometry":{"type":"Point","coordinates":[-84.5658,33.3636]},"properties":{"site":"KFFC","name":"Atlanta GA","scan_time":"2026-08-24T10:58:45Z","stale":false,"bins":25,"density_birds_km3":4.201333333333333,"heading_deg":219.01806265551545,"speed_ms":6.1755061885115845,"peak_altitude_m":400.0,"u_ms":-3.854998413202158,"v_ms":-4.461683592510314}},{"type":"Feature","geometry":{"type":"Point","coordinates":[-85.5449,42.8939]},"properties":{"site":"KGRR","name":"Grand Rapids MI","scan_time":"2026-08-24T11:02:54Z","stale":false,"bins":25,"density_birds_km3":1.9579999999999997,"heading_deg":103.86586686924316,"speed_ms":2.6222665303340147,"peak_altitude_m":200.0,"u_ms":2.320149965916837,"v_ms":-0.8635139740967962}},{"type":"Feature","geometry":{"type":"Point","coordinates":[-83.8217,39.4203]},"properties":{"site":"KILN","name":"Wilmington OH","scan_time":"2026-08-24T11:00:26Z","stale":false,"bins":25,"density_birds_km3":5.976,"heading_deg":192.35691949542235,"speed_ms":7.607705724508051,"peak_altitude_m":200.0,"u_ms":-1.7182043828264761,"v_ms":-7.03283542039356}},{"type":"Feature","geometry":{"type":"Point","coordinates":[-81.7019,30.4846]},"properties":{"site":"KJAX","name":"Jacksonville FL","scan_time":"2026-08-24T10:57:57Z","stale":false,"bins":25,"density_birds_km3":2.14,"heading_deg":93.49024186608592,"speed_ms":7.186703682057277,"peak_altitude_m":0.0,"u_ms":7.15385154880187,"v_ms":-0.5073378141437755}},{"type":"Feature","geometry":{"type":"Point","coordinates":[-88.0847,41.6045]},"properties":{"site":"KLOT","name":"Chicago IL","scan_time":"2026-08-24T10:57:45Z","stale":false,"bins":25,"density_birds_km3":1.6357142857142857,"heading_deg":148.35657944482733,"speed_ms":5.031372896368468,"peak_altitude_m":200.0,"u_ms":2.612161204605846,"v_ms":-4.278286093888396}},{"type":"Feature","geometry":{"type":"Point","coordinates":[-78.4292,33.9892]},"properties":{"site":"KLTX","name":"Wilmington NC","scan_time":"2026-08-24T11:00:00Z","stale":false,"bins":25,"density_birds_km3":1.5150000000000001,"heading_deg":66.49166882299421,"speed_ms":4.262336641852771,"peak_altitude_m":0.0,"u_ms":3.912402812241522,"v_ms":0.815694789081886}},{"type":"Feature","geometry":{"type":"Point","coordinates":[-77.4778,38.9753]},"properties":{"site":"KLWX","name":"Sterling VA","scan_time":"2026-08-24T10:57:53Z","stale":false,"bins":25,"density_birds_km3":2.2325,"heading_deg":168.14258399788557,"speed_ms":7.372234042553193,"peak_altitude_m":200.0,"u_ms":1.8909714445688692,"v_ms":-6.816450167973124}},{"type":"Feature","geometry":{"type":"Point","coordinates":[-76.8762,34.7759]},"properties":{"site":"KMHX","name":"Morehead City NC","scan_time":"2026-08-24T10:59:05Z","stale":false,"bins":25,"density_birds_km3":1.574375,"heading_deg":199.2455971750173,"speed_ms":3.660337703615415,"peak_altitude_m":0.0,"u_ms":-1.0116607071911006,"v_ms":-2.932010329757648}},{"type":"Feature","geometry":{"type":"Point","coordinates":[-80.6542,28.1133]},"properties":{"site":"KMLB","name":"Melbourne FL","scan_time":"2026-08-24T10:57:53Z","stale":false,"bins":25,"density_birds_km3":5.61625,"heading_deg":126.83657530581526,"speed_ms":3.481315672306322,"peak_altitude_m":0.0,"u_ms":2.6493766696349064,"v_ms":-1.8826335707925201}},{"type":"Feature","geometry":{"type":"Point","coordinates":[-86.5625,36.2472]},"properties":{"site":"KOHX","name":"Nashville TN","scan_time":"2026-08-24T11:00:40Z","stale":false,"bins":25,"density_birds_km3":9.675333333333333,"heading_deg":211.77788038308262,"speed_ms":5.028811116474726,"peak_altitude_m":200.0,"u_ms":-2.5925908558030484,"v_ms":-3.963192883249431}},{"type":"Feature","geometry":{"type":"Point","coordinates":[-72.8639,40.8655]},"properties":{"site":"KOKX","name":"Upton NY","scan_time":"2026-08-24T11:00:32Z","stale":false,"bins":25,"density_birds_km3":1.883125,"heading_deg":78.10483070763713,"speed_ms":4.569435215946843,"peak_altitude_m":200.0,"u_ms":4.457355481727575,"v_ms":0.8521162790697675}},{"type":"Feature","geometry":{"type":"Point","coordinates":[-80.2183,40.5317]},"properties":{"site":"KPBZ","name":"Pittsburgh PA","scan_time":"2026-08-24T10:59:55Z","stale":false,"bins":25,"density_birds_km3":0.6849999999999999,"heading_deg":95.81103428099053,"speed_ms":6.150302398331595,"peak_altitude_m":400.0,"u_ms":5.870615224191867,"v_ms":-0.76851929092805}},{"type":"Feature","geometry":{"type":"Point","coordinates":[-78.4899,35.6655]},"properties":{"site":"KRAX","name":"Raleigh NC","scan_time":"2026-08-24T10:57:38Z","stale":false,"bins":25,"density_birds_km3":5.838125,"heading_deg":200.69168368497526,"speed_ms":5.928015201798523,"peak_altitude_m":0.0,"u_ms":-1.9969071833850767,"v_ms":-5.434420297612675}},{"type":"Feature","geometry":{"type":"Point","coordinates":[-82.4017,27.7055]},"properties":{"site":"KTBW","name":"Tampa FL","scan_time":"2026-08-24T10:59:16Z","stale":false,"bins":25,"density_birds_km3":8.384375,"heading_deg":24.018876789676067,"speed_ms":2.689641312453393,"peak_altitude_m":0.0,"u_ms":1.0617979120059655,"v_ms":2.0398590604026845}}]}