{"type":"FeatureCollection","frame":"2026-08-21T11","site_count":20,"fresh_count":20,"failures":{},"features":[{"type":"Feature","geometry":{"type":"Point","coordinates":[-77.0073,36.984]},"properties":{"site":"KAKQ","name":"Wakefield VA","scan_time":"2026-08-21T11:00:39Z","stale":false,"bins":25,"density_birds_km3":5.171875,"heading_deg":197.64950183383175,"speed_ms":10.992779456193354,"peak_altitude_m":200.0,"u_ms":-3.329254380664653,"v_ms":-10.452381873111785}},{"type":"Feature","geometry":{"type":"Point","coordinates":[-71.1369,41.9558]},"properties":{"site":"KBOX","name":"Boston MA","scan_time":"2026-08-21T11:00:12Z","stale":false,"bins":25,"density_birds_km3":5.644,"heading_deg":null,"speed_ms":null,"peak_altitude_m":0.0,"u_ms":null,"v_ms":null}},{"type":"Feature","geometry":{"type":"Point","coordinates":[-78.7369,42.9489]},"properties":{"site":"KBUF","name":"Buffalo NY","scan_time":"2026-08-21T10:57:24Z","stale":false,"bins":25,"density_birds_km3":1.8533333333333333,"heading_deg":229.41464266332753,"speed_ms":0.9521546762589929,"peak_altitude_m":200.0,"u_ms":-0.5790611510791367,"v_ms":-0.5728381294964028}},{"type":"Feature","geometry":{"type":"Point","coordinates":[-81.8597,41.4131]},"properties":{"site":"KCLE","name":"Cleveland OH","scan_time":"2026-08-21T11:01:15Z","stale":false,"bins":25,"density_birds_km3":6.091333333333334,"heading_deg":253.60439119580118,"speed_ms":5.254008405270332,"peak_altitude_m":200.0,"u_ms":-4.111600408905042,"v_ms":-1.4897535211267605}},{"type":"Feature","geometry":{"type":"Point","coordinates":[-81.0423,32.6555]},"properties":{"site":"KCLX","name":"Charleston SC","scan_time":"2026-08-21T11:00:00Z","stale":false,"bins":25,"density_birds_km3":0.968125,"heading_deg":94.55559311018614,"speed_ms":7.863436692506459,"peak_altitude_m":200.0,"u_ms":7.7351550387596895,"v_ms":-0.7406007751937984}},{"type":"Feature","geometry":{"type":"Point","coordinates":[-74.4108,39.947]},"properties":{"site":"KDIX","name":"Philadelphia PA","scan_time":"2026-08-21T10:58:57Z","stale":false,"bins":25,"density_birds_km3":1.655625,"heading_deg":207.3504177085623,"speed_ms":14.884714986787468,"peak_altitude_m":400.0,"u_ms":-6.9314986787466975,"v_ms":-13.1241449603624}},{"type":"Feature","geometry":{"type":"Point","coordinates":[-84.5658,33.3636]},"properties":{"site":"KFFC","name":"Atlanta GA","scan_time":"2026-08-21T10:57:18Z","stale":false,"bins":25,"density_birds_km3":3.2646666666666664,"heading_deg":170.00766103247838,"speed_ms":3.219062691443741,"peak_altitude_m":200.0,"u_ms":0.8517602613845212,"v_ms":-2.914239330202165}},{"type":"Feature","geometry":{"type":"Point","coordinates":[-85.5449,42.8939]},"properties":{"site":"KGRR","name":"Grand Rapids MI","scan_time":"2026-08-21T10:58:29Z","stale":false,"bins":25,"density_birds_km3":3.094666666666667,"heading_deg":340.6040807391217,"speed_ms":6.704679303504519,"peak_altitude_m":200.0,"u_ms":-1.9550495922415694,"v_ms":6.289473220189554}},{"type":"Feature","geometry":{"type":"Point","coordinates":[-83.8217,39.4203]},"properties":{"site":"KILN","name":"Wilmington OH","scan_time":"2026-08-21T11:02:38Z","stale":false,"bins":25,"density_birds_km3":15.704666666666666,"heading_deg":219.58503476089876,"speed_ms":7.288331349880993,"peak_altitude_m":200.0,"u_ms":-4.690100306018361,"v_ms":-5.454587300238014}},{"type":"Feature","geometry":{"type":"Point","coordinates":[-81.7019,30.4846]},"properties":{"site":"KJAX","name":"Jacksonville FL","scan_time":"2026-08-21T10:59:01Z","stale":false,"bins":25,"density_birds_km3":1.8724999999999998,"heading_deg":110.15510432465727,"speed_ms":4.081955941255007,"peak_altitude_m":0.0,"u_ms":3.8279606141522033,"v_ms":-1.3975200267022696}},{"type":"Feature","geometry":{"type":"Point","coordinates":[-88.0847,41.6045]},"properties":{"site":"KLOT","name":"Chicago IL","scan_time":"2026-08-21T11:03:31Z","stale":false,"bins":25,"density_birds_km3":0.9673333333333333,"heading_deg":55.47917319985838,"speed_ms":4.132808599167822,"peak_altitude_m":200.0,"u_ms":3.151095700416089,"v_ms":2.1814701803051317}},{"type":"Feature","geometry":{"type":"Point","coordinates":[-78.4292,33.9892]},"properties":{"site":"KLTX","name":"Wilmington NC","scan_time":"2026-08-21T10:58:08Z","stale":false,"bins":25,"density_birds_km3":1.43,"heading_deg":88.56626495662012,"speed_ms":4.512567388422449,"peak_altitude_m":400.0,"u_ms":4.095364560318162,"v_ms":0.05808219178082203}},{"type":"Feature","geometry":{"type":"Point","coordinates":[-77.4778,38.9753]},"properties":{"site":"KLWX","name":"Sterling VA","scan_time":"2026-08-21T10:59:32Z","stale":false,"bins":25,"density_birds_km3":3.481875,"heading_deg":198.9005183088842,"speed_ms":9.155368043087972,"peak_altitude_m":400.0,"u_ms":-3.0753842010771995,"v_ms":-8.609748653500898}},{"type":"Feature","geometry":{"type":"Point","coordinates":[-76.8762,34.7759]},"properties":{"site":"KMHX","name":"Morehead City NC","scan_time":"2026-08-21T10:59:33Z","stale":false,"bins":25,"density_birds_km3":1.193125,"heading_deg":114.13474480232789,"speed_ms":4.065034120734908,"peak_altitude_m":0.0,"u_ms":3.44896062992126,"v_ms":-1.3715328083989502}},{"type":"Feature","geometry":{"type":"Point","coordinates":[-80.6542,28.1133]},"properties":{"site":"KMLB","name":"Melbourne FL","scan_time":"2026-08-21T10:58:28Z","stale":false,"bins":25,"density_birds_km3":6.913125,"heading_deg":162.14544903700033,"speed_ms":2.558744236506645,"peak_altitude_m":0.0,"u_ms":0.4423677786818552,"v_ms":-2.2515685742699576}},{"type":"Feature","geometry":{"type":"Point","coordinates":[-86.5625,36.2472]},"properties":{"site":"KOHX","name":"Nashville TN","scan_time":"2026-08-21T10:59:40Z","stale":false,"bins":25,"density_birds_km3":8.729999999999999,"heading_deg":102.6572003457988,"speed_ms":4.191440140576056,"peak_altitude_m":400.0,"u_ms":3.047222858889144,"v_ms":-0.335040110016044}},{"type":"Feature","geometry":{"type":"Point","coordinates":[-72.8639,40.8655]},"properties":{"site":"KOKX","name":"Upton NY","scan_time":"2026-08-21T11:01:27Z","stale":false,"bins":25,"density_birds_km3":0.06999999999999999,"heading_deg":null,"speed_ms":null,"peak_altitude_m":1000.0,"u_ms":null,"v_ms":null}},{"type":"Feature","geometry":{"type":"Point","coordinates":[-80.2183,40.5317]},"properties":{"site":"KPBZ","name":"Pittsburgh PA","scan_time":"2026-08-21T10:58:05Z","stale":false,"bins":25,"density_birds_km3":1.3942857142857144,"heading_deg":244.68083069895374,"speed_ms":4.661091747821629,"peak_altitude_m":400.0,"u_ms":-2.9315017939518193,"v_ms":-1.8298257303946692}},{"type":"Feature","geometry":{"type":"Point","coordinates":[-78.4899,35.6655]},"properties":{"site":"KRAX","name":"Raleigh NC","scan_time":"2026-08-21T10:59:42Z","stale":false,"bins":25,"density_birds_km3":2.92875,"heading_deg":224.29527339674942,"speed_ms":8.968663820704375,"peak_altitude_m":200.0,"u_ms":-6.2785186766275345,"v_ms":-6.293137673425827}},{"type":"Feature","geometry":{"type":"Point","coordinates":[-82.4017,27.7055]},"properties":{"site":"KTBW","name":"Tampa FL","scan_time":"2026-08-21T10:58:23Z","stale":false,"bins":25,"density_birds_km3":4.6968749999999995,"heading_deg":87.30658090177172,"speed_ms":2.651901530272788,"peak_altitude_m":0.0,"u_ms":2.53509248170326,"v_ms":-0.16634464404524282}}]}