{"type":"FeatureCollection","frame":"2026-09-24T02","site_count":20,"fresh_count":20,"failures":{},"features":[{"type":"Feature","geometry":{"type":"Point","coordinates":[-77.0073,36.984]},"properties":{"site":"KAKQ","name":"Wakefield VA","scan_time":"2026-09-24T01:59:45Z","stale":false,"bins":25,"density_birds_km3":16.298750000000002,"heading_deg":189.4978019943097,"speed_ms":14.254818776452483,"peak_altitude_m":200.0,"u_ms":-2.2000915736821858,"v_ms":-13.49337899191997}},{"type":"Feature","geometry":{"type":"Point","coordinates":[-71.1369,41.9558]},"properties":{"site":"KBOX","name":"Boston MA","scan_time":"2026-09-24T01:57:03Z","stale":false,"bins":25,"density_birds_km3":1.9768750000000002,"heading_deg":222.72575949480495,"speed_ms":11.816588681631362,"peak_altitude_m":0.0,"u_ms":-8.288659500474232,"v_ms":-8.254103699019918}},{"type":"Feature","geometry":{"type":"Point","coordinates":[-78.7369,42.9489]},"properties":{"site":"KBUF","name":"Buffalo NY","scan_time":"2026-09-24T02:03:47Z","stale":false,"bins":25,"density_birds_km3":8.769333333333332,"heading_deg":245.09818779136558,"speed_ms":14.196000456135017,"peak_altitude_m":200.0,"u_ms":-12.655472859966551,"v_ms":-5.718151892960316}},{"type":"Feature","geometry":{"type":"Point","coordinates":[-81.8597,41.4131]},"properties":{"site":"KCLE","name":"Cleveland OH","scan_time":"2026-09-24T02:00:29Z","stale":false,"bins":25,"density_birds_km3":52.97333333333333,"heading_deg":261.9579810052106,"speed_ms":13.332252328215455,"peak_altitude_m":400.0,"u_ms":-13.03979348099673,"v_ms":-1.2411073496098668}},{"type":"Feature","geometry":{"type":"Point","coordinates":[-81.0423,32.6555]},"properties":{"site":"KCLX","name":"Charleston SC","scan_time":"2026-09-24T02:01:18Z","stale":false,"bins":25,"density_birds_km3":21.261875,"heading_deg":199.33069364361143,"speed_ms":12.213760178734164,"peak_altitude_m":200.0,"u_ms":-4.3864432489637535,"v_ms":-10.970900138166211}},{"type":"Feature","geometry":{"type":"Point","coordinates":[-74.4108,39.947]},"properties":{"site":"KDIX","name":"Philadelphia PA","scan_time":"2026-09-24T02:01:32Z","stale":false,"bins":25,"density_birds_km3":22.226875,"heading_deg":218.48429512363833,"speed_ms":19.44720331056376,"peak_altitude_m":200.0,"u_ms":-12.3579359995465,"v_ms":-14.85572234347099}},{"type":"Feature","geometry":{"type":"Point","coordinates":[-84.5658,33.3636]},"properties":{"site":"KFFC","name":"Atlanta GA","scan_time":"2026-09-24T01:59:01Z","stale":false,"bins":25,"density_birds_km3":22.660666666666668,"heading_deg":226.6386529898729,"speed_ms":8.434912069231958,"peak_altitude_m":600.0,"u_ms":-5.322683356513677,"v_ms":-5.335502704373358}},{"type":"Feature","geometry":{"type":"Point","coordinates":[-85.5449,42.8939]},"properties":{"site":"KGRR","name":"Grand Rapids MI","scan_time":"2026-09-24T01:58:33Z","stale":false,"bins":25,"density_birds_km3":14.990666666666668,"heading_deg":222.1876555537797,"speed_ms":11.938470603931334,"peak_altitude_m":200.0,"u_ms":-7.971261673930446,"v_ms":-7.733202881793116}},{"type":"Feature","geometry":{"type":"Point","coordinates":[-83.8217,39.4203]},"properties":{"site":"KILN","name":"Wilmington OH","scan_time":"2026-09-24T01:57:22Z","stale":false,"bins":25,"density_birds_km3":23.279333333333334,"heading_deg":244.02213029551865,"speed_ms":10.687059682685147,"peak_altitude_m":400.0,"u_ms":-9.385284953319205,"v_ms":-3.7742619852225214}},{"type":"Feature","geometry":{"type":"Point","coordinates":[-81.7019,30.4846]},"properties":{"site":"KJAX","name":"Jacksonville FL","scan_time":"2026-09-24T02:01:35Z","stale":false,"bins":25,"density_birds_km3":59.069375,"heading_deg":188.3802579270083,"speed_ms":14.8243432311081,"peak_altitude_m":200.0,"u_ms":-2.3338309047780412,"v_ms":-14.566123453913928}},{"type":"Feature","geometry":{"type":"Point","coordinates":[-88.0847,41.6045]},"properties":{"site":"KLOT","name":"Chicago IL","scan_time":"2026-09-24T02:01:37Z","stale":false,"bins":25,"density_birds_km3":33.718888888888884,"heading_deg":177.88626204801045,"speed_ms":9.467128840436075,"peak_altitude_m":400.0,"u_ms":0.25949454905847374,"v_ms":-9.164627353815659}},{"type":"Feature","geometry":{"type":"Point","coordinates":[-78.4292,33.9892]},"properties":{"site":"KLTX","name":"Wilmington NC","scan_time":"2026-09-24T02:00:28Z","stale":false,"bins":25,"density_birds_km3":7.93375,"heading_deg":211.80474852777957,"speed_ms":18.76352032776552,"peak_altitude_m":400.0,"u_ms":-10.331716041601007,"v_ms":-15.182440119760477}},{"type":"Feature","geometry":{"type":"Point","coordinates":[-77.4778,38.9753]},"properties":{"site":"KLWX","name":"Sterling VA","scan_time":"2026-09-24T01:59:45Z","stale":false,"bins":25,"density_birds_km3":127.479375,"heading_deg":214.87453138144392,"speed_ms":13.384306231826494,"peak_altitude_m":200.0,"u_ms":-7.8406951166291545,"v_ms":-10.280888019339304}},{"type":"Feature","geometry":{"type":"Point","coordinates":[-76.8762,34.7759]},"properties":{"site":"KMHX","name":"Morehead City NC","scan_time":"2026-09-24T02:00:03Z","stale":false,"bins":25,"density_birds_km3":1.805625,"heading_deg":200.53052201976024,"speed_ms":16.45380985426787,"peak_altitude_m":200.0,"u_ms":-5.847297015961138,"v_ms":-15.326991672449688}},{"type":"Feature","geometry":{"type":"Point","coordinates":[-80.6542,28.1133]},"properties":{"site":"KMLB","name":"Melbourne FL","scan_time":"2026-09-24T02:01:12Z","stale":false,"bins":25,"density_birds_km3":25.325625,"heading_deg":161.66980748237467,"speed_ms":10.948552849139952,"peak_altitude_m":0.0,"u_ms":3.4524471261814864,"v_ms":-10.381208755953702}},{"type":"Feature","geometry":{"type":"Point","coordinates":[-86.5625,36.2472]},"properties":{"site":"KOHX","name":"Nashville TN","scan_time":"2026-09-24T02:00:18Z","stale":false,"bins":25,"density_birds_km3":21.392,"heading_deg":193.1382332343429,"speed_ms":7.453094711253778,"peak_altitude_m":400.0,"u_ms":-1.7246738554554801,"v_ms":-6.946670925920155}},{"type":"Feature","geometry":{"type":"Point","coordinates":[-72.8639,40.8655]},"properties":{"site":"KOKX","name":"Upton NY","scan_time":"2026-09-24T01:57:46Z","stale":false,"bins":25,"density_birds_km3":15.511875,"heading_deg":233.17318834673358,"speed_ms":20.603316542413864,"peak_altitude_m":200.0,"u_ms":-16.507783195647793,"v_ms":-12.283769091275438}},{"type":"Feature","geometry":{"type":"Point","coordinates":[-80.2183,40.5317]},"properties":{"site":"KPBZ","name":"Pittsburgh PA","scan_time":"2026-09-24T02:00:58Z","stale":false,"bins":25,"density_birds_km3":138.03857142857143,"heading_deg":242.3443945858728,"speed_ms":11.228709795964846,"peak_altitude_m":400.0,"u_ms":-9.844352025341353,"v_ms":-4.6092223682984645}},{"type":"Feature","geometry":{"type":"Point","coordinates":[-78.4899,35.6655]},"properties":{"site":"KRAX","name":"Raleigh NC","scan_time":"2026-09-24T02:01:20Z","stale":false,"bins":25,"density_birds_km3":6.7437499999999995,"heading_deg":222.83816867998496,"speed_ms":10.876461391801714,"peak_altitude_m":200.0,"u_ms":-7.444027645376549,"v_ms":-7.908925643469971}},{"type":"Feature","geometry":{"type":"Point","coordinates":[-82.4017,27.7055]},"properties":{"site":"KTBW","name":"Tampa FL","scan_time":"2026-09-24T02:00:19Z","stale":false,"bins":25,"density_birds_km3":33.239375,"heading_deg":196.3274605248498,"speed_ms":10.951693774326381,"peak_altitude_m":200.0,"u_ms":-3.1307212831167854,"v_ms":-10.410519902976514}}]}