{"type":"FeatureCollection","frame":"2026-09-03T10","site_count":20,"fresh_count":20,"failures":{},"features":[{"type":"Feature","geometry":{"type":"Point","coordinates":[-77.0073,36.984]},"properties":{"site":"KAKQ","name":"Wakefield VA","scan_time":"2026-09-03T10:00:22Z","stale":false,"bins":25,"density_birds_km3":0.65625,"heading_deg":91.16722886962685,"speed_ms":3.8308198284080075,"peak_altitude_m":200.0,"u_ms":3.464480457578646,"v_ms":-0.3087893231649189}},{"type":"Feature","geometry":{"type":"Point","coordinates":[-71.1369,41.9558]},"properties":{"site":"KBOX","name":"Boston MA","scan_time":"2026-09-03T10:03:25Z","stale":false,"bins":25,"density_birds_km3":0.21750000000000003,"heading_deg":null,"speed_ms":null,"peak_altitude_m":0.0,"u_ms":null,"v_ms":null}},{"type":"Feature","geometry":{"type":"Point","coordinates":[-78.7369,42.9489]},"properties":{"site":"KBUF","name":"Buffalo NY","scan_time":"2026-09-03T09:58:36Z","stale":false,"bins":25,"density_birds_km3":8.754,"heading_deg":134.57320423826258,"speed_ms":8.394381996801462,"peak_altitude_m":400.0,"u_ms":5.60345061305308,"v_ms":-5.871166704744498}},{"type":"Feature","geometry":{"type":"Point","coordinates":[-81.8597,41.4131]},"properties":{"site":"KCLE","name":"Cleveland OH","scan_time":"2026-09-03T09:57:21Z","stale":false,"bins":25,"density_birds_km3":8.679333333333334,"heading_deg":155.45087125851774,"speed_ms":7.9253115542795065,"peak_altitude_m":400.0,"u_ms":3.919880499728408,"v_ms":-5.488353379374563}},{"type":"Feature","geometry":{"type":"Point","coordinates":[-81.0423,32.6555]},"properties":{"site":"KCLX","name":"Charleston SC","scan_time":"2026-09-03T10:00:24Z","stale":false,"bins":25,"density_birds_km3":3.16125,"heading_deg":216.92791103207452,"speed_ms":5.233208940331271,"peak_altitude_m":0.0,"u_ms":-3.0855637597285974,"v_ms":-4.107591299141888}},{"type":"Feature","geometry":{"type":"Point","coordinates":[-74.4108,39.947]},"properties":{"site":"KDIX","name":"Philadelphia PA","scan_time":"2026-09-03T09:59:46Z","stale":false,"bins":25,"density_birds_km3":null,"heading_deg":null,"speed_ms":null,"peak_altitude_m":null,"u_ms":null,"v_ms":null}},{"type":"Feature","geometry":{"type":"Point","coordinates":[-84.5658,33.3636]},"properties":{"site":"KFFC","name":"Atlanta GA","scan_time":"2026-09-03T09:59:26Z","stale":false,"bins":25,"density_birds_km3":6.790666666666667,"heading_deg":116.14306743950833,"speed_ms":4.775223367697595,"peak_altitude_m":400.0,"u_ms":1.7191251840942563,"v_ms":-1.2245910652920964}},{"type":"Feature","geometry":{"type":"Point","coordinates":[-85.5449,42.8939]},"properties":{"site":"KGRR","name":"Grand Rapids MI","scan_time":"2026-09-03T09:59:22Z","stale":false,"bins":25,"density_birds_km3":28.468666666666667,"heading_deg":184.4751931462311,"speed_ms":6.635990774734068,"peak_altitude_m":400.0,"u_ms":0.57103407700273,"v_ms":-5.815608585145439}},{"type":"Feature","geometry":{"type":"Point","coordinates":[-83.8217,39.4203]},"properties":{"site":"KILN","name":"Wilmington OH","scan_time":"2026-09-03T09:59:23Z","stale":false,"bins":25,"density_birds_km3":5.768666666666666,"heading_deg":113.80839544679205,"speed_ms":11.555126157407408,"peak_altitude_m":800.0,"u_ms":10.116694444444445,"v_ms":-4.5852256944444445}},{"type":"Feature","geometry":{"type":"Point","coordinates":[-81.7019,30.4846]},"properties":{"site":"KJAX","name":"Jacksonville FL","scan_time":"2026-09-03T10:00:13Z","stale":false,"bins":25,"density_birds_km3":7.080625,"heading_deg":197.88957748574467,"speed_ms":10.74112474618169,"peak_altitude_m":0.0,"u_ms":-3.306716694623466,"v_ms":-10.206994791206851}},{"type":"Feature","geometry":{"type":"Point","coordinates":[-88.0847,41.6045]},"properties":{"site":"KLOT","name":"Chicago IL","scan_time":"2026-09-03T09:59:05Z","stale":false,"bins":25,"density_birds_km3":6.322,"heading_deg":97.52958053543239,"speed_ms":11.604636935391653,"peak_altitude_m":200.0,"u_ms":10.626124642652943,"v_ms":-0.8643133218982275}},{"type":"Feature","geometry":{"type":"Point","coordinates":[-78.4292,33.9892]},"properties":{"site":"KLTX","name":"Wilmington NC","scan_time":"2026-09-03T09:58:28Z","stale":false,"bins":25,"density_birds_km3":3.03125,"heading_deg":97.95275535143304,"speed_ms":3.469230610561056,"peak_altitude_m":0.0,"u_ms":-0.3799731848184818,"v_ms":-1.0230218646864684}},{"type":"Feature","geometry":{"type":"Point","coordinates":[-77.4778,38.9753]},"properties":{"site":"KLWX","name":"Sterling VA","scan_time":"2026-09-03T09:59:03Z","stale":false,"bins":25,"density_birds_km3":2.528125,"heading_deg":220.65589890030557,"speed_ms":3.7274699424986935,"peak_altitude_m":0.0,"u_ms":0.8843387349712493,"v_ms":-1.8557501306847886}},{"type":"Feature","geometry":{"type":"Point","coordinates":[-76.8762,34.7759]},"properties":{"site":"KMHX","name":"Morehead City NC","scan_time":"2026-09-03T09:59:09Z","stale":false,"bins":25,"density_birds_km3":1.26125,"heading_deg":64.75112630890465,"speed_ms":4.242146752602876,"peak_altitude_m":0.0,"u_ms":3.548968765493307,"v_ms":1.7217253346554289}},{"type":"Feature","geometry":{"type":"Point","coordinates":[-80.6542,28.1133]},"properties":{"site":"KMLB","name":"Melbourne FL","scan_time":"2026-09-03T10:02:22Z","stale":false,"bins":25,"density_birds_km3":1.325,"heading_deg":31.5373105571486,"speed_ms":1.9623301886792452,"peak_altitude_m":0.0,"u_ms":0.9735849056603774,"v_ms":1.4602216981132077}},{"type":"Feature","geometry":{"type":"Point","coordinates":[-86.5625,36.2472]},"properties":{"site":"KOHX","name":"Nashville TN","scan_time":"2026-09-03T10:03:13Z","stale":false,"bins":25,"density_birds_km3":7.049333333333333,"heading_deg":41.504667122915805,"speed_ms":2.4439880839795727,"peak_altitude_m":200.0,"u_ms":1.6897191223756383,"v_ms":1.388966332513713}},{"type":"Feature","geometry":{"type":"Point","coordinates":[-72.8639,40.8655]},"properties":{"site":"KOKX","name":"Upton NY","scan_time":"2026-09-03T09:57:28Z","stale":false,"bins":25,"density_birds_km3":0.196875,"heading_deg":44.13003898506136,"speed_ms":6.676344827586207,"peak_altitude_m":0.0,"u_ms":4.593931034482758,"v_ms":4.693793103448277}},{"type":"Feature","geometry":{"type":"Point","coordinates":[-80.2183,40.5317]},"properties":{"site":"KPBZ","name":"Pittsburgh PA","scan_time":"2026-09-03T09:58:09Z","stale":false,"bins":25,"density_birds_km3":12.927142857142856,"heading_deg":141.47804664044386,"speed_ms":9.660314399381148,"peak_altitude_m":600.0,"u_ms":6.42233561719527,"v_ms":-6.832331749364571}},{"type":"Feature","geometry":{"type":"Point","coordinates":[-78.4899,35.6655]},"properties":{"site":"KRAX","name":"Raleigh NC","scan_time":"2026-09-03T09:59:33Z","stale":false,"bins":25,"density_birds_km3":2.69625,"heading_deg":106.15981568007989,"speed_ms":6.859742207640028,"peak_altitude_m":200.0,"u_ms":4.4846332317787665,"v_ms":-1.2845582376376847}},{"type":"Feature","geometry":{"type":"Point","coordinates":[-82.4017,27.7055]},"properties":{"site":"KTBW","name":"Tampa FL","scan_time":"2026-09-03T09:58:18Z","stale":false,"bins":25,"density_birds_km3":5.35625,"heading_deg":277.0482015214635,"speed_ms":5.2205218914185645,"peak_altitude_m":0.0,"u_ms":-5.003788674839463,"v_ms":0.6597840046701693}}]}