{"type":"FeatureCollection","frame":"2026-08-23T12","site_count":20,"fresh_count":20,"failures":{},"features":[{"type":"Feature","geometry":{"type":"Point","coordinates":[-77.0073,36.984]},"properties":{"site":"KAKQ","name":"Wakefield VA","scan_time":"2026-08-23T12:00:52Z","stale":false,"bins":25,"density_birds_km3":1.3943750000000001,"heading_deg":125.84385773942321,"speed_ms":7.507960555804571,"peak_altitude_m":400.0,"u_ms":4.987633348274316,"v_ms":-4.599816225907665}},{"type":"Feature","geometry":{"type":"Point","coordinates":[-71.1369,41.9558]},"properties":{"site":"KBOX","name":"Boston MA","scan_time":"2026-08-23T12:01:17Z","stale":false,"bins":25,"density_birds_km3":0.530625,"heading_deg":237.9218205565341,"speed_ms":3.1729917550058895,"peak_altitude_m":0.0,"u_ms":-2.639811542991755,"v_ms":-1.6385747938751472}},{"type":"Feature","geometry":{"type":"Point","coordinates":[-78.7369,42.9489]},"properties":{"site":"KBUF","name":"Buffalo NY","scan_time":"2026-08-23T11:57:28Z","stale":false,"bins":25,"density_birds_km3":1.0993333333333333,"heading_deg":null,"speed_ms":null,"peak_altitude_m":200.0,"u_ms":null,"v_ms":null}},{"type":"Feature","geometry":{"type":"Point","coordinates":[-81.8597,41.4131]},"properties":{"site":"KCLE","name":"Cleveland OH","scan_time":"2026-08-23T11:59:11Z","stale":false,"bins":25,"density_birds_km3":2.6180000000000003,"heading_deg":130.3088423600988,"speed_ms":7.088772470467386,"peak_altitude_m":200.0,"u_ms":5.465482794042117,"v_ms":-4.485259373394967}},{"type":"Feature","geometry":{"type":"Point","coordinates":[-81.0423,32.6555]},"properties":{"site":"KCLX","name":"Charleston SC","scan_time":"2026-08-23T12:01:41Z","stale":false,"bins":25,"density_birds_km3":0.24875,"heading_deg":46.04096335789054,"speed_ms":7.20770202020202,"peak_altitude_m":0.0,"u_ms":4.681717171717172,"v_ms":4.74270202020202}},{"type":"Feature","geometry":{"type":"Point","coordinates":[-74.4108,39.947]},"properties":{"site":"KDIX","name":"Philadelphia PA","scan_time":"2026-08-23T12:02:13Z","stale":false,"bins":25,"density_birds_km3":0.8562500000000001,"heading_deg":173.8613792131931,"speed_ms":2.784251278305333,"peak_altitude_m":0.0,"u_ms":0.2683053323593864,"v_ms":-2.69254930606282}},{"type":"Feature","geometry":{"type":"Point","coordinates":[-84.5658,33.3636]},"properties":{"site":"KFFC","name":"Atlanta GA","scan_time":"2026-08-23T11:59:02Z","stale":false,"bins":25,"density_birds_km3":4.947333333333333,"heading_deg":175.8049593016614,"speed_ms":7.431843665768194,"peak_altitude_m":200.0,"u_ms":0.5251239892183288,"v_ms":-7.402687331536388}},{"type":"Feature","geometry":{"type":"Point","coordinates":[-85.5449,42.8939]},"properties":{"site":"KGRR","name":"Grand Rapids MI","scan_time":"2026-08-23T12:01:27Z","stale":false,"bins":25,"density_birds_km3":0.5333333333333333,"heading_deg":149.55146804965605,"speed_ms":6.680276035131744,"peak_altitude_m":200.0,"u_ms":3.3090338770388956,"v_ms":-5.777929736511919}},{"type":"Feature","geometry":{"type":"Point","coordinates":[-83.8217,39.4203]},"properties":{"site":"KILN","name":"Wilmington OH","scan_time":"2026-08-23T12:00:53Z","stale":false,"bins":25,"density_birds_km3":2.0486666666666666,"heading_deg":154.34783187868192,"speed_ms":10.377159165035875,"peak_altitude_m":400.0,"u_ms":4.482181996086106,"v_ms":-9.34520221787345}},{"type":"Feature","geometry":{"type":"Point","coordinates":[-81.7019,30.4846]},"properties":{"site":"KJAX","name":"Jacksonville FL","scan_time":"2026-08-23T12:01:15Z","stale":false,"bins":25,"density_birds_km3":0.588125,"heading_deg":93.84928191431626,"speed_ms":5.1502236421725245,"peak_altitude_m":0.0,"u_ms":5.033865814696487,"v_ms":-0.31517571884984025}},{"type":"Feature","geometry":{"type":"Point","coordinates":[-88.0847,41.6045]},"properties":{"site":"KLOT","name":"Chicago IL","scan_time":"2026-08-23T11:57:04Z","stale":false,"bins":25,"density_birds_km3":2.0706666666666664,"heading_deg":180.85517177525006,"speed_ms":7.143048937540245,"peak_altitude_m":400.0,"u_ms":-0.11748229233741143,"v_ms":-7.102739858338699}},{"type":"Feature","geometry":{"type":"Point","coordinates":[-78.4292,33.9892]},"properties":{"site":"KLTX","name":"Wilmington NC","scan_time":"2026-08-23T12:01:56Z","stale":false,"bins":25,"density_birds_km3":0.620625,"heading_deg":102.23794063641007,"speed_ms":6.379683350357508,"peak_altitude_m":0.0,"u_ms":5.975771195097038,"v_ms":-1.4984371807967314}},{"type":"Feature","geometry":{"type":"Point","coordinates":[-77.4778,38.9753]},"properties":{"site":"KLWX","name":"Sterling VA","scan_time":"2026-08-23T12:00:43Z","stale":false,"bins":25,"density_birds_km3":0.965,"heading_deg":96.73943921811774,"speed_ms":3.039047310434219,"peak_altitude_m":0.0,"u_ms":2.7831885936487364,"v_ms":-0.8965132858068697}},{"type":"Feature","geometry":{"type":"Point","coordinates":[-76.8762,34.7759]},"properties":{"site":"KMHX","name":"Morehead City NC","scan_time":"2026-08-23T11:58:43Z","stale":false,"bins":25,"density_birds_km3":2.091875,"heading_deg":136.30671052673517,"speed_ms":7.08871802588023,"peak_altitude_m":1200.0,"u_ms":4.579331928979838,"v_ms":-5.058037917544388}},{"type":"Feature","geometry":{"type":"Point","coordinates":[-80.6542,28.1133]},"properties":{"site":"KMLB","name":"Melbourne FL","scan_time":"2026-08-23T11:58:07Z","stale":false,"bins":25,"density_birds_km3":2.15625,"heading_deg":65.90322853627613,"speed_ms":5.310350724637681,"peak_altitude_m":0.0,"u_ms":4.7829565217391306,"v_ms":2.198063768115942}},{"type":"Feature","geometry":{"type":"Point","coordinates":[-86.5625,36.2472]},"properties":{"site":"KOHX","name":"Nashville TN","scan_time":"2026-08-23T12:03:05Z","stale":false,"bins":25,"density_birds_km3":6.59,"heading_deg":199.2699212831962,"speed_ms":8.611735963581184,"peak_altitude_m":400.0,"u_ms":-2.693974709155286,"v_ms":-7.979193727870511}},{"type":"Feature","geometry":{"type":"Point","coordinates":[-72.8639,40.8655]},"properties":{"site":"KOKX","name":"Upton NY","scan_time":"2026-08-23T12:02:25Z","stale":false,"bins":25,"density_birds_km3":0.21625,"heading_deg":286.9714366300235,"speed_ms":7.551391304347827,"peak_altitude_m":0.0,"u_ms":-7.196,"v_ms":2.219246376811594}},{"type":"Feature","geometry":{"type":"Point","coordinates":[-80.2183,40.5317]},"properties":{"site":"KPBZ","name":"Pittsburgh PA","scan_time":"2026-08-23T11:59:23Z","stale":false,"bins":25,"density_birds_km3":0.8707142857142857,"heading_deg":117.89939937462917,"speed_ms":9.933388157894736,"peak_altitude_m":800.0,"u_ms":8.71485197368421,"v_ms":-4.702960526315789}},{"type":"Feature","geometry":{"type":"Point","coordinates":[-78.4899,35.6655]},"properties":{"site":"KRAX","name":"Raleigh NC","scan_time":"2026-08-23T12:04:05Z","stale":false,"bins":25,"density_birds_km3":6.69625,"heading_deg":151.16635527861342,"speed_ms":9.320550732754596,"peak_altitude_m":800.0,"u_ms":4.117645850835434,"v_ms":-8.218406608793055}},{"type":"Feature","geometry":{"type":"Point","coordinates":[-82.4017,27.7055]},"properties":{"site":"KTBW","name":"Tampa FL","scan_time":"2026-08-23T11:59:10Z","stale":false,"bins":25,"density_birds_km3":2.2,"heading_deg":25.140634092031128,"speed_ms":1.5618503712164475,"peak_altitude_m":0.0,"u_ms":0.6697715591090805,"v_ms":1.3921016561964592}}]}