{"type":"FeatureCollection","frame":"2026-08-20T03","site_count":20,"fresh_count":20,"failures":{},"features":[{"type":"Feature","geometry":{"type":"Point","coordinates":[-77.0073,36.984]},"properties":{"site":"KAKQ","name":"Wakefield VA","scan_time":"2026-08-20T03:02:47Z","stale":false,"bins":25,"density_birds_km3":16.288125,"heading_deg":319.95001903578003,"speed_ms":5.697770231380224,"peak_altitude_m":0.0,"u_ms":-2.299188826215418,"v_ms":3.675183991404781}},{"type":"Feature","geometry":{"type":"Point","coordinates":[-71.1369,41.9558]},"properties":{"site":"KBOX","name":"Boston MA","scan_time":"2026-08-20T03:00:21Z","stale":false,"bins":25,"density_birds_km3":1.69,"heading_deg":71.26961746201697,"speed_ms":6.450447650758417,"peak_altitude_m":0.0,"u_ms":5.645231224565298,"v_ms":1.7532519422863486}},{"type":"Feature","geometry":{"type":"Point","coordinates":[-78.7369,42.9489]},"properties":{"site":"KBUF","name":"Buffalo NY","scan_time":"2026-08-20T02:58:19Z","stale":false,"bins":25,"density_birds_km3":10.592666666666666,"heading_deg":181.74249700790097,"speed_ms":8.567714141859149,"peak_altitude_m":600.0,"u_ms":-0.6508225816602682,"v_ms":-8.137789665806533}},{"type":"Feature","geometry":{"type":"Point","coordinates":[-81.8597,41.4131]},"properties":{"site":"KCLE","name":"Cleveland OH","scan_time":"2026-08-20T02:59:05Z","stale":false,"bins":25,"density_birds_km3":2.380666666666667,"heading_deg":350.76285971060315,"speed_ms":1.7830745515695066,"peak_altitude_m":200.0,"u_ms":-0.16747197309417047,"v_ms":0.8742656950672646}},{"type":"Feature","geometry":{"type":"Point","coordinates":[-81.0423,32.6555]},"properties":{"site":"KCLX","name":"Charleston SC","scan_time":"2026-08-20T02:57:35Z","stale":false,"bins":25,"density_birds_km3":15.425,"heading_deg":244.91488268382375,"speed_ms":3.1683566374663075,"peak_altitude_m":0.0,"u_ms":-1.6530731974393533,"v_ms":-1.5547986859838274}},{"type":"Feature","geometry":{"type":"Point","coordinates":[-74.4108,39.947]},"properties":{"site":"KDIX","name":"Philadelphia PA","scan_time":"2026-08-20T03:01:01Z","stale":false,"bins":25,"density_birds_km3":3.75625,"heading_deg":139.41751077133299,"speed_ms":6.231622566150773,"peak_altitude_m":0.0,"u_ms":3.7584040605758027,"v_ms":-4.537112664336828}},{"type":"Feature","geometry":{"type":"Point","coordinates":[-84.5658,33.3636]},"properties":{"site":"KFFC","name":"Atlanta GA","scan_time":"2026-08-20T03:01:28Z","stale":false,"bins":25,"density_birds_km3":37.868,"heading_deg":238.01419336607023,"speed_ms":5.075707369458822,"peak_altitude_m":1600.0,"u_ms":-3.230212140417591,"v_ms":-2.6292702721735153}},{"type":"Feature","geometry":{"type":"Point","coordinates":[-85.5449,42.8939]},"properties":{"site":"KGRR","name":"Grand Rapids MI","scan_time":"2026-08-20T03:01:48Z","stale":false,"bins":25,"density_birds_km3":22.224,"heading_deg":194.79264827705686,"speed_ms":9.969317554595632,"peak_altitude_m":400.0,"u_ms":-2.0855756539476844,"v_ms":-9.554233261339093}},{"type":"Feature","geometry":{"type":"Point","coordinates":[-83.8217,39.4203]},"properties":{"site":"KILN","name":"Wilmington OH","scan_time":"2026-08-20T03:01:54Z","stale":false,"bins":25,"density_birds_km3":4.453333333333333,"heading_deg":335.29826389673946,"speed_ms":6.333527033098698,"peak_altitude_m":200.0,"u_ms":-1.8851879586640707,"v_ms":4.9167365583345815}},{"type":"Feature","geometry":{"type":"Point","coordinates":[-81.7019,30.4846]},"properties":{"site":"KJAX","name":"Jacksonville FL","scan_time":"2026-08-20T03:01:38Z","stale":false,"bins":25,"density_birds_km3":38.5325,"heading_deg":161.09945778616165,"speed_ms":7.227326385617097,"peak_altitude_m":0.0,"u_ms":1.3926227314701392,"v_ms":-6.373245576013418}},{"type":"Feature","geometry":{"type":"Point","coordinates":[-88.0847,41.6045]},"properties":{"site":"KLOT","name":"Chicago IL","scan_time":"2026-08-20T02:59:31Z","stale":false,"bins":25,"density_birds_km3":11.870000000000001,"heading_deg":238.13697139096797,"speed_ms":7.92009098567818,"peak_altitude_m":400.0,"u_ms":-5.996406627351868,"v_ms":-3.689072170738556}},{"type":"Feature","geometry":{"type":"Point","coordinates":[-78.4292,33.9892]},"properties":{"site":"KLTX","name":"Wilmington NC","scan_time":"2026-08-20T02:57:59Z","stale":false,"bins":25,"density_birds_km3":12.99375,"heading_deg":279.25669482004713,"speed_ms":5.296600577478344,"peak_altitude_m":0.0,"u_ms":-3.6114692011549567,"v_ms":-0.7518724735322426}},{"type":"Feature","geometry":{"type":"Point","coordinates":[-77.4778,38.9753]},"properties":{"site":"KLWX","name":"Sterling VA","scan_time":"2026-08-20T03:02:01Z","stale":false,"bins":25,"density_birds_km3":9.260625,"heading_deg":186.85483978826323,"speed_ms":3.291170511328633,"peak_altitude_m":400.0,"u_ms":-0.46935929906222196,"v_ms":-2.8987521390923403}},{"type":"Feature","geometry":{"type":"Point","coordinates":[-76.8762,34.7759]},"properties":{"site":"KMHX","name":"Morehead City NC","scan_time":"2026-08-20T03:00:35Z","stale":false,"bins":25,"density_birds_km3":7.38875,"heading_deg":267.7031358815132,"speed_ms":5.12758877871006,"peak_altitude_m":200.0,"u_ms":-2.9600347487075176,"v_ms":-0.439674548690567}},{"type":"Feature","geometry":{"type":"Point","coordinates":[-80.6542,28.1133]},"properties":{"site":"KMLB","name":"Melbourne FL","scan_time":"2026-08-20T03:01:30Z","stale":false,"bins":25,"density_birds_km3":5.8175,"heading_deg":135.67000869869446,"speed_ms":7.009965620971208,"peak_altitude_m":0.0,"u_ms":4.845849806617963,"v_ms":-4.918006016330039}},{"type":"Feature","geometry":{"type":"Point","coordinates":[-86.5625,36.2472]},"properties":{"site":"KOHX","name":"Nashville TN","scan_time":"2026-08-20T03:02:37Z","stale":false,"bins":25,"density_birds_km3":17.18933333333333,"heading_deg":353.91499910396016,"speed_ms":6.339128917157928,"peak_altitude_m":200.0,"u_ms":0.08172742786224033,"v_ms":3.678809726962457}},{"type":"Feature","geometry":{"type":"Point","coordinates":[-72.8639,40.8655]},"properties":{"site":"KOKX","name":"Upton NY","scan_time":"2026-08-20T03:03:29Z","stale":false,"bins":25,"density_birds_km3":2.1835714285714287,"heading_deg":61.667958373614056,"speed_ms":6.442393247269116,"peak_altitude_m":0.0,"u_ms":5.261592188017214,"v_ms":2.6845713339953656}},{"type":"Feature","geometry":{"type":"Point","coordinates":[-80.2183,40.5317]},"properties":{"site":"KPBZ","name":"Pittsburgh PA","scan_time":"2026-08-20T02:59:41Z","stale":false,"bins":25,"density_birds_km3":1.9985714285714287,"heading_deg":46.619620682380116,"speed_ms":4.872141573841178,"peak_altitude_m":400.0,"u_ms":3.466079770032339,"v_ms":2.823715415019763}},{"type":"Feature","geometry":{"type":"Point","coordinates":[-78.4899,35.6655]},"properties":{"site":"KRAX","name":"Raleigh NC","scan_time":"2026-08-20T02:59:42Z","stale":false,"bins":25,"density_birds_km3":11.77625,"heading_deg":200.4755105981184,"speed_ms":2.3890920675374323,"peak_altitude_m":200.0,"u_ms":-0.821763831368801,"v_ms":-1.5894026760114686}},{"type":"Feature","geometry":{"type":"Point","coordinates":[-82.4017,27.7055]},"properties":{"site":"KTBW","name":"Tampa FL","scan_time":"2026-08-20T03:00:56Z","stale":false,"bins":25,"density_birds_km3":2.99625,"heading_deg":182.77330530743865,"speed_ms":7.287945348352107,"peak_altitude_m":200.0,"u_ms":-0.4420984564038381,"v_ms":-7.258596161869003}}]}