{"type":"FeatureCollection","frame":"2026-09-03T02","site_count":20,"fresh_count":20,"failures":{},"features":[{"type":"Feature","geometry":{"type":"Point","coordinates":[-77.0073,36.984]},"properties":{"site":"KAKQ","name":"Wakefield VA","scan_time":"2026-09-03T02:01:19Z","stale":false,"bins":25,"density_birds_km3":20.775,"heading_deg":243.60695869105876,"speed_ms":4.693529181708785,"peak_altitude_m":200.0,"u_ms":-2.1970764139590857,"v_ms":-1.9370370036101083}},{"type":"Feature","geometry":{"type":"Point","coordinates":[-71.1369,41.9558]},"properties":{"site":"KBOX","name":"Boston MA","scan_time":"2026-09-03T01:57:46Z","stale":false,"bins":25,"density_birds_km3":3.330625,"heading_deg":298.15432689104176,"speed_ms":7.217912521118829,"peak_altitude_m":200.0,"u_ms":-6.226895062887179,"v_ms":3.370260934860147}},{"type":"Feature","geometry":{"type":"Point","coordinates":[-78.7369,42.9489]},"properties":{"site":"KBUF","name":"Buffalo NY","scan_time":"2026-09-03T01:56:59Z","stale":false,"bins":25,"density_birds_km3":2.8333333333333335,"heading_deg":95.9,"speed_ms":8.92,"peak_altitude_m":200.0,"u_ms":8.88,"v_ms":-0.91}},{"type":"Feature","geometry":{"type":"Point","coordinates":[-81.8597,41.4131]},"properties":{"site":"KCLE","name":"Cleveland OH","scan_time":"2026-09-03T01:59:41Z","stale":false,"bins":25,"density_birds_km3":4.499333333333333,"heading_deg":82.71489171962482,"speed_ms":13.228592384056897,"peak_altitude_m":200.0,"u_ms":11.90230849014669,"v_ms":1.0283078974662918}},{"type":"Feature","geometry":{"type":"Point","coordinates":[-81.0423,32.6555]},"properties":{"site":"KCLX","name":"Charleston SC","scan_time":"2026-09-03T02:01:50Z","stale":false,"bins":25,"density_birds_km3":4.98375,"heading_deg":256.2189303874258,"speed_ms":9.525361406270497,"peak_altitude_m":0.0,"u_ms":-6.3829201101928374,"v_ms":-3.8922668240850054}},{"type":"Feature","geometry":{"type":"Point","coordinates":[-74.4108,39.947]},"properties":{"site":"KDIX","name":"Philadelphia PA","scan_time":"2026-09-03T02:01:33Z","stale":false,"bins":25,"density_birds_km3":6.158125,"heading_deg":275.01831676848127,"speed_ms":5.340314229042697,"peak_altitude_m":200.0,"u_ms":-4.655586178097922,"v_ms":0.3596586282492953}},{"type":"Feature","geometry":{"type":"Point","coordinates":[-84.5658,33.3636]},"properties":{"site":"KFFC","name":"Atlanta GA","scan_time":"2026-09-03T02:00:49Z","stale":false,"bins":25,"density_birds_km3":32.278,"heading_deg":251.44610068106505,"speed_ms":6.453026829419419,"peak_altitude_m":1800.0,"u_ms":-4.440688188033128,"v_ms":-2.3671987111964805}},{"type":"Feature","geometry":{"type":"Point","coordinates":[-85.5449,42.8939]},"properties":{"site":"KGRR","name":"Grand Rapids MI","scan_time":"2026-09-03T01:58:41Z","stale":false,"bins":25,"density_birds_km3":74.56733333333334,"heading_deg":150.1915839805761,"speed_ms":8.19409469724242,"peak_altitude_m":400.0,"u_ms":4.348941158470732,"v_ms":-6.461384998920008}},{"type":"Feature","geometry":{"type":"Point","coordinates":[-83.8217,39.4203]},"properties":{"site":"KILN","name":"Wilmington OH","scan_time":"2026-09-03T01:59:24Z","stale":false,"bins":25,"density_birds_km3":9.950666666666667,"heading_deg":124.62304946399495,"speed_ms":10.357765125531623,"peak_altitude_m":2000.0,"u_ms":7.122241734119907,"v_ms":-5.508698038139663}},{"type":"Feature","geometry":{"type":"Point","coordinates":[-81.7019,30.4846]},"properties":{"site":"KJAX","name":"Jacksonville FL","scan_time":"2026-09-03T02:00:19Z","stale":false,"bins":25,"density_birds_km3":8.610625,"heading_deg":201.36411807793382,"speed_ms":8.714905907142338,"peak_altitude_m":0.0,"u_ms":-3.15787110368379,"v_ms":-8.059259609096854}},{"type":"Feature","geometry":{"type":"Point","coordinates":[-88.0847,41.6045]},"properties":{"site":"KLOT","name":"Chicago IL","scan_time":"2026-09-03T01:58:44Z","stale":false,"bins":25,"density_birds_km3":11.903333333333334,"heading_deg":75.30015754627428,"speed_ms":9.98157434892187,"peak_altitude_m":200.0,"u_ms":8.880343321198543,"v_ms":1.9391974236908427}},{"type":"Feature","geometry":{"type":"Point","coordinates":[-78.4292,33.9892]},"properties":{"site":"KLTX","name":"Wilmington NC","scan_time":"2026-09-03T01:57:54Z","stale":false,"bins":25,"density_birds_km3":5.48375,"heading_deg":266.03037810462877,"speed_ms":8.736341096049125,"peak_altitude_m":200.0,"u_ms":-3.4870258370988294,"v_ms":-3.160212026416406}},{"type":"Feature","geometry":{"type":"Point","coordinates":[-77.4778,38.9753]},"properties":{"site":"KLWX","name":"Sterling VA","scan_time":"2026-09-03T02:01:50Z","stale":false,"bins":25,"density_birds_km3":14.706875,"heading_deg":324.1070592609103,"speed_ms":4.17225404785177,"peak_altitude_m":200.0,"u_ms":-0.4110577536016318,"v_ms":2.424602864306659}},{"type":"Feature","geometry":{"type":"Point","coordinates":[-76.8762,34.7759]},"properties":{"site":"KMHX","name":"Morehead City NC","scan_time":"2026-09-03T02:00:55Z","stale":false,"bins":25,"density_birds_km3":3.76625,"heading_deg":206.763016163697,"speed_ms":7.365074676402258,"peak_altitude_m":1600.0,"u_ms":-1.2242914039163624,"v_ms":-3.0279770992366415}},{"type":"Feature","geometry":{"type":"Point","coordinates":[-80.6542,28.1133]},"properties":{"site":"KMLB","name":"Melbourne FL","scan_time":"2026-09-03T02:01:20Z","stale":false,"bins":25,"density_birds_km3":8.87875,"heading_deg":190.09793975230684,"speed_ms":7.141417405999155,"peak_altitude_m":0.0,"u_ms":-1.244562033516406,"v_ms":-7.002948880439375}},{"type":"Feature","geometry":{"type":"Point","coordinates":[-86.5625,36.2472]},"properties":{"site":"KOHX","name":"Nashville TN","scan_time":"2026-09-03T02:00:57Z","stale":false,"bins":25,"density_birds_km3":22.208000000000002,"heading_deg":245.99496599426467,"speed_ms":2.9964289145052834,"peak_altitude_m":200.0,"u_ms":-2.6024753842459174,"v_ms":-0.9069737632084534}},{"type":"Feature","geometry":{"type":"Point","coordinates":[-72.8639,40.8655]},"properties":{"site":"KOKX","name":"Upton NY","scan_time":"2026-09-03T01:58:45Z","stale":false,"bins":25,"density_birds_km3":6.3525,"heading_deg":263.88091541046657,"speed_ms":10.995565954093191,"peak_altitude_m":200.0,"u_ms":-10.546597379568516,"v_ms":-1.3283430203920796}},{"type":"Feature","geometry":{"type":"Point","coordinates":[-80.2183,40.5317]},"properties":{"site":"KPBZ","name":"Pittsburgh PA","scan_time":"2026-09-03T02:00:53Z","stale":false,"bins":25,"density_birds_km3":5.6414285714285715,"heading_deg":62.11227055691407,"speed_ms":10.892786303107165,"peak_altitude_m":400.0,"u_ms":9.652149651236526,"v_ms":4.598835764109068}},{"type":"Feature","geometry":{"type":"Point","coordinates":[-78.4899,35.6655]},"properties":{"site":"KRAX","name":"Raleigh NC","scan_time":"2026-09-03T01:58:23Z","stale":false,"bins":25,"density_birds_km3":32.38,"heading_deg":255.0683988048724,"speed_ms":3.9444697730080294,"peak_altitude_m":200.0,"u_ms":-3.058789183137739,"v_ms":-1.1066441476219888}},{"type":"Feature","geometry":{"type":"Point","coordinates":[-82.4017,27.7055]},"properties":{"site":"KTBW","name":"Tampa FL","scan_time":"2026-09-03T02:02:00Z","stale":false,"bins":25,"density_birds_km3":30.815624999999997,"heading_deg":203.0176562425529,"speed_ms":6.408188381742739,"peak_altitude_m":200.0,"u_ms":-2.878647302904564,"v_ms":-5.371000829875519}}]}