{"type":"FeatureCollection","frame":"2026-10-08T02","site_count":20,"fresh_count":19,"failures":{"KILN":"RuntimeError('no scan within 20 min of 2026-10-08T02:00Z')"},"features":[{"type":"Feature","geometry":{"type":"Point","coordinates":[-77.0073,36.984]},"properties":{"site":"KAKQ","name":"Wakefield VA","scan_time":"2026-10-08T01:59:36Z","stale":false,"bins":25,"density_birds_km3":1.81125,"heading_deg":32.69010950758067,"speed_ms":9.502053941908713,"peak_altitude_m":0.0,"u_ms":4.216746196403872,"v_ms":6.6894156293222675}},{"type":"Feature","geometry":{"type":"Point","coordinates":[-71.1369,41.9558]},"properties":{"site":"KBOX","name":"Boston MA","scan_time":"2026-10-08T01:59:22Z","stale":false,"bins":25,"density_birds_km3":1.245625,"heading_deg":26.551128799242743,"speed_ms":10.044435360245274,"peak_altitude_m":0.0,"u_ms":4.766361778231987,"v_ms":8.697721001532958}},{"type":"Feature","geometry":{"type":"Point","coordinates":[-78.7369,42.9489]},"properties":{"site":"KBUF","name":"Buffalo NY","scan_time":"2026-10-08T02:00:55Z","stale":false,"bins":25,"density_birds_km3":0.804,"heading_deg":57.25723195226686,"speed_ms":15.163107876712328,"peak_altitude_m":200.0,"u_ms":12.760316780821919,"v_ms":7.789315068493152}},{"type":"Feature","geometry":{"type":"Point","coordinates":[-81.8597,41.4131]},"properties":{"site":"KCLE","name":"Cleveland OH","scan_time":"2026-10-08T01:59:26Z","stale":false,"bins":25,"density_birds_km3":2.752666666666667,"heading_deg":111.2042141515147,"speed_ms":13.570663920523383,"peak_altitude_m":400.0,"u_ms":12.470092076568935,"v_ms":-5.182384298521928}},{"type":"Feature","geometry":{"type":"Point","coordinates":[-81.0423,32.6555]},"properties":{"site":"KCLX","name":"Charleston SC","scan_time":"2026-10-08T02:00:34Z","stale":false,"bins":25,"density_birds_km3":51.145624999999995,"heading_deg":215.25010101560736,"speed_ms":5.684431830679555,"peak_altitude_m":0.0,"u_ms":-2.878139992423595,"v_ms":-4.171063262986815}},{"type":"Feature","geometry":{"type":"Point","coordinates":[-74.4108,39.947]},"properties":{"site":"KDIX","name":"Philadelphia PA","scan_time":"2026-10-08T02:00:20Z","stale":false,"bins":25,"density_birds_km3":1.48125,"heading_deg":22.87829574744731,"speed_ms":14.797128378378376,"peak_altitude_m":200.0,"u_ms":5.798910472972973,"v_ms":13.295848817567567}},{"type":"Feature","geometry":{"type":"Point","coordinates":[-84.5658,33.3636]},"properties":{"site":"KFFC","name":"Atlanta GA","scan_time":"2026-10-08T01:59:56Z","stale":false,"bins":25,"density_birds_km3":53.971999999999994,"heading_deg":195.04337047981284,"speed_ms":5.533985646878629,"peak_altitude_m":600.0,"u_ms":-0.840991748808024,"v_ms":-5.055333876825021}},{"type":"Feature","geometry":{"type":"Point","coordinates":[-85.5449,42.8939]},"properties":{"site":"KGRR","name":"Grand Rapids MI","scan_time":"2026-10-08T02:02:15Z","stale":false,"bins":25,"density_birds_km3":6.5233333333333325,"heading_deg":123.11093604423176,"speed_ms":17.130222835531022,"peak_altitude_m":400.0,"u_ms":13.77671062046407,"v_ms":-9.861004804252275}},{"type":"Feature","geometry":{"type":"Point","coordinates":[-81.7019,30.4846]},"properties":{"site":"KJAX","name":"Jacksonville FL","scan_time":"2026-10-08T01:59:45Z","stale":false,"bins":25,"density_birds_km3":252.25375,"heading_deg":198.9135270802072,"speed_ms":10.49109854660238,"peak_altitude_m":0.0,"u_ms":-3.548898281987879,"v_ms":-9.702935734354792}},{"type":"Feature","geometry":{"type":"Point","coordinates":[-88.0847,41.6045]},"properties":{"site":"KLOT","name":"Chicago IL","scan_time":"2026-10-08T01:59:28Z","stale":false,"bins":25,"density_birds_km3":38.25066666666667,"heading_deg":151.74563695766864,"speed_ms":15.496073277439821,"peak_altitude_m":400.0,"u_ms":7.349424622195882,"v_ms":-13.62015408481637}},{"type":"Feature","geometry":{"type":"Point","coordinates":[-78.4292,33.9892]},"properties":{"site":"KLTX","name":"Wilmington NC","scan_time":"2026-10-08T02:00:55Z","stale":false,"bins":25,"density_birds_km3":23.224375,"heading_deg":200.66388967731535,"speed_ms":3.308415910864709,"peak_altitude_m":0.0,"u_ms":-0.6112387975347848,"v_ms":-2.2846954813359535}},{"type":"Feature","geometry":{"type":"Point","coordinates":[-77.4778,38.9753]},"properties":{"site":"KLWX","name":"Sterling VA","scan_time":"2026-10-08T01:59:14Z","stale":false,"bins":25,"density_birds_km3":4.989375,"heading_deg":12.035273827748949,"speed_ms":12.468665580754292,"peak_altitude_m":0.0,"u_ms":3.096703420623982,"v_ms":11.101776719709308}},{"type":"Feature","geometry":{"type":"Point","coordinates":[-76.8762,34.7759]},"properties":{"site":"KMHX","name":"Morehead City NC","scan_time":"2026-10-08T02:02:40Z","stale":false,"bins":25,"density_birds_km3":7.905,"heading_deg":235.01174502574128,"speed_ms":3.091661132194813,"peak_altitude_m":0.0,"u_ms":-0.2661037318153066,"v_ms":-0.6562792536369387}},{"type":"Feature","geometry":{"type":"Point","coordinates":[-80.6542,28.1133]},"properties":{"site":"KMLB","name":"Melbourne FL","scan_time":"2026-10-08T01:59:04Z","stale":false,"bins":25,"density_birds_km3":143.17833333333334,"heading_deg":231.49999999999997,"speed_ms":6.36,"peak_altitude_m":0.0,"u_ms":-4.98,"v_ms":-3.96}},{"type":"Feature","geometry":{"type":"Point","coordinates":[-86.5625,36.2472]},"properties":{"site":"KOHX","name":"Nashville TN","scan_time":"2026-10-08T02:03:22Z","stale":false,"bins":25,"density_birds_km3":58.564,"heading_deg":119.03536549736218,"speed_ms":7.725846936684652,"peak_altitude_m":400.0,"u_ms":6.460695763039865,"v_ms":-3.7861647656125488}},{"type":"Feature","geometry":{"type":"Point","coordinates":[-72.8639,40.8655]},"properties":{"site":"KOKX","name":"Upton NY","scan_time":"2026-10-08T02:01:09Z","stale":false,"bins":25,"density_birds_km3":0.465,"heading_deg":33.712530778837156,"speed_ms":11.939703504043127,"peak_altitude_m":0.0,"u_ms":6.628355795148249,"v_ms":9.671954177897575}},{"type":"Feature","geometry":{"type":"Point","coordinates":[-80.2183,40.5317]},"properties":{"site":"KPBZ","name":"Pittsburgh PA","scan_time":"2026-10-08T01:59:02Z","stale":false,"bins":25,"density_birds_km3":0.39714285714285713,"heading_deg":53.76098787105909,"speed_ms":16.636263537906135,"peak_altitude_m":400.0,"u_ms":13.488700361010832,"v_ms":9.113664259927798}},{"type":"Feature","geometry":{"type":"Point","coordinates":[-78.4899,35.6655]},"properties":{"site":"KRAX","name":"Raleigh NC","scan_time":"2026-10-08T02:03:30Z","stale":false,"bins":25,"density_birds_km3":3.565625,"heading_deg":63.9167552615844,"speed_ms":6.307668711656443,"peak_altitude_m":200.0,"u_ms":2.687141104294479,"v_ms":1.1331393514460997}},{"type":"Feature","geometry":{"type":"Point","coordinates":[-82.4017,27.7055]},"properties":{"site":"KTBW","name":"Tampa FL","scan_time":"2026-10-08T02:01:12Z","stale":false,"bins":25,"density_birds_km3":12.315624999999999,"heading_deg":202.11752847547677,"speed_ms":3.2465171565757114,"peak_altitude_m":0.0,"u_ms":-0.060808057149548955,"v_ms":-1.6522227427099192}}]}