{"type":"FeatureCollection","frame":"2026-08-21T03","site_count":20,"fresh_count":20,"failures":{},"features":[{"type":"Feature","geometry":{"type":"Point","coordinates":[-77.0073,36.984]},"properties":{"site":"KAKQ","name":"Wakefield VA","scan_time":"2026-08-21T02:58:11Z","stale":false,"bins":25,"density_birds_km3":9.831249999999999,"heading_deg":104.65947951480791,"speed_ms":6.299412438000763,"peak_altitude_m":0.0,"u_ms":6.060558311077197,"v_ms":-1.3366068930433677}},{"type":"Feature","geometry":{"type":"Point","coordinates":[-71.1369,41.9558]},"properties":{"site":"KBOX","name":"Boston MA","scan_time":"2026-08-21T02:59:13Z","stale":false,"bins":25,"density_birds_km3":6.31,"heading_deg":null,"speed_ms":null,"peak_altitude_m":0.0,"u_ms":null,"v_ms":null}},{"type":"Feature","geometry":{"type":"Point","coordinates":[-78.7369,42.9489]},"properties":{"site":"KBUF","name":"Buffalo NY","scan_time":"2026-08-21T03:03:25Z","stale":false,"bins":25,"density_birds_km3":2.222666666666667,"heading_deg":214.72833654729098,"speed_ms":3.7386892621475702,"peak_altitude_m":200.0,"u_ms":-1.7629454109178164,"v_ms":-2.7964067186562684}},{"type":"Feature","geometry":{"type":"Point","coordinates":[-81.8597,41.4131]},"properties":{"site":"KCLE","name":"Cleveland OH","scan_time":"2026-08-21T02:58:25Z","stale":false,"bins":25,"density_birds_km3":7.089333333333333,"heading_deg":247.29763980931875,"speed_ms":7.198262014483213,"peak_altitude_m":600.0,"u_ms":-6.608654189786514,"v_ms":-2.366143139283363}},{"type":"Feature","geometry":{"type":"Point","coordinates":[-81.0423,32.6555]},"properties":{"site":"KCLX","name":"Charleston SC","scan_time":"2026-08-21T02:59:54Z","stale":false,"bins":25,"density_birds_km3":2.4275,"heading_deg":7.747952862139053,"speed_ms":7.446101956745622,"peak_altitude_m":0.0,"u_ms":1.3521524201853758,"v_ms":5.897680226570546}},{"type":"Feature","geometry":{"type":"Point","coordinates":[-74.4108,39.947]},"properties":{"site":"KDIX","name":"Philadelphia PA","scan_time":"2026-08-21T02:58:42Z","stale":false,"bins":25,"density_birds_km3":3.663125,"heading_deg":215.15941924594546,"speed_ms":12.25382619647355,"peak_altitude_m":600.0,"u_ms":-7.014637279596977,"v_ms":-9.940105793450881}},{"type":"Feature","geometry":{"type":"Point","coordinates":[-84.5658,33.3636]},"properties":{"site":"KFFC","name":"Atlanta GA","scan_time":"2026-08-21T03:01:06Z","stale":false,"bins":25,"density_birds_km3":10.818666666666667,"heading_deg":328.2949488193594,"speed_ms":2.57812484594528,"peak_altitude_m":200.0,"u_ms":-1.0004621641607099,"v_ms":0.863468696080848}},{"type":"Feature","geometry":{"type":"Point","coordinates":[-85.5449,42.8939]},"properties":{"site":"KGRR","name":"Grand Rapids MI","scan_time":"2026-08-21T02:57:57Z","stale":false,"bins":25,"density_birds_km3":13.422666666666666,"heading_deg":242.96316951635436,"speed_ms":4.2393811463196585,"peak_altitude_m":400.0,"u_ms":-3.650035760405285,"v_ms":-1.8557668620244363}},{"type":"Feature","geometry":{"type":"Point","coordinates":[-83.8217,39.4203]},"properties":{"site":"KILN","name":"Wilmington OH","scan_time":"2026-08-21T03:00:08Z","stale":false,"bins":25,"density_birds_km3":19.473333333333336,"heading_deg":243.54617107988616,"speed_ms":3.337665525504964,"peak_altitude_m":800.0,"u_ms":-2.585743238616912,"v_ms":-0.9935782266347141}},{"type":"Feature","geometry":{"type":"Point","coordinates":[-81.7019,30.4846]},"properties":{"site":"KJAX","name":"Jacksonville FL","scan_time":"2026-08-21T02:59:47Z","stale":false,"bins":25,"density_birds_km3":15.686875,"heading_deg":122.95333605685566,"speed_ms":5.137607828923524,"peak_altitude_m":0.0,"u_ms":3.824977246184205,"v_ms":-2.688192984575732}},{"type":"Feature","geometry":{"type":"Point","coordinates":[-88.0847,41.6045]},"properties":{"site":"KLOT","name":"Chicago IL","scan_time":"2026-08-21T03:01:37Z","stale":false,"bins":25,"density_birds_km3":8.862,"heading_deg":196.7311738623493,"speed_ms":7.212884239048623,"peak_altitude_m":400.0,"u_ms":-1.8241186211049227,"v_ms":-6.409947312961012}},{"type":"Feature","geometry":{"type":"Point","coordinates":[-78.4292,33.9892]},"properties":{"site":"KLTX","name":"Wilmington NC","scan_time":"2026-08-21T03:01:58Z","stale":false,"bins":25,"density_birds_km3":1.1075,"heading_deg":18.30315624892749,"speed_ms":6.568849441157134,"peak_altitude_m":0.0,"u_ms":1.9550558842866537,"v_ms":5.636456278763971}},{"type":"Feature","geometry":{"type":"Point","coordinates":[-77.4778,38.9753]},"properties":{"site":"KLWX","name":"Sterling VA","scan_time":"2026-08-21T02:59:58Z","stale":false,"bins":25,"density_birds_km3":22.64375,"heading_deg":205.84580552242167,"speed_ms":9.170376464580555,"peak_altitude_m":600.0,"u_ms":-4.055467956537774,"v_ms":-7.944529773894295}},{"type":"Feature","geometry":{"type":"Point","coordinates":[-76.8762,34.7759]},"properties":{"site":"KMHX","name":"Morehead City NC","scan_time":"2026-08-21T03:00:21Z","stale":false,"bins":25,"density_birds_km3":0.36625,"heading_deg":29.85478791977009,"speed_ms":8.057930434782609,"peak_altitude_m":0.0,"u_ms":3.7841391304347836,"v_ms":6.633234782608696}},{"type":"Feature","geometry":{"type":"Point","coordinates":[-80.6542,28.1133]},"properties":{"site":"KMLB","name":"Melbourne FL","scan_time":"2026-08-21T03:01:13Z","stale":false,"bins":25,"density_birds_km3":5.264375,"heading_deg":176.34702173572205,"speed_ms":4.240369270957017,"peak_altitude_m":0.0,"u_ms":0.35769057231061496,"v_ms":-3.8992187128947986}},{"type":"Feature","geometry":{"type":"Point","coordinates":[-86.5625,36.2472]},"properties":{"site":"KOHX","name":"Nashville TN","scan_time":"2026-08-21T03:00:34Z","stale":false,"bins":25,"density_birds_km3":47.193999999999996,"heading_deg":241.23760381572885,"speed_ms":8.454838609427753,"peak_altitude_m":400.0,"u_ms":-7.351153112683817,"v_ms":-3.9685393623483214}},{"type":"Feature","geometry":{"type":"Point","coordinates":[-72.8639,40.8655]},"properties":{"site":"KOKX","name":"Upton NY","scan_time":"2026-08-21T02:57:43Z","stale":false,"bins":25,"density_birds_km3":0.015,"heading_deg":null,"speed_ms":null,"peak_altitude_m":2200.0,"u_ms":null,"v_ms":null}},{"type":"Feature","geometry":{"type":"Point","coordinates":[-80.2183,40.5317]},"properties":{"site":"KPBZ","name":"Pittsburgh PA","scan_time":"2026-08-21T02:59:08Z","stale":false,"bins":25,"density_birds_km3":17.962142857142858,"heading_deg":230.16057471543087,"speed_ms":6.057619994432736,"peak_altitude_m":800.0,"u_ms":-4.454439098103153,"v_ms":-3.6967638286873186}},{"type":"Feature","geometry":{"type":"Point","coordinates":[-78.4899,35.6655]},"properties":{"site":"KRAX","name":"Raleigh NC","scan_time":"2026-08-21T03:00:48Z","stale":false,"bins":25,"density_birds_km3":5.6975,"heading_deg":27.207036636749347,"speed_ms":7.23441518542901,"peak_altitude_m":0.0,"u_ms":3.6054388852315125,"v_ms":5.864502962475313}},{"type":"Feature","geometry":{"type":"Point","coordinates":[-82.4017,27.7055]},"properties":{"site":"KTBW","name":"Tampa FL","scan_time":"2026-08-21T02:58:51Z","stale":false,"bins":25,"density_birds_km3":7.485,"heading_deg":246.50820495117614,"speed_ms":4.408321643286573,"peak_altitude_m":0.0,"u_ms":-1.8023522044088176,"v_ms":-1.5520941883767536}}]}