{"type":"FeatureCollection","frame":"2026-08-12T04","site_count":20,"fresh_count":20,"failures":{},"features":[{"type":"Feature","geometry":{"type":"Point","coordinates":[-77.0073,36.984]},"properties":{"site":"KAKQ","name":"Wakefield VA","scan_time":"2026-08-12T04:00:44Z","stale":false,"bins":25,"density_birds_km3":1.709375,"heading_deg":110.70268874363248,"speed_ms":6.8295020139143165,"peak_altitude_m":0.0,"u_ms":6.192365433906993,"v_ms":-2.4920139143171003}},{"type":"Feature","geometry":{"type":"Point","coordinates":[-71.1369,41.9558]},"properties":{"site":"KBOX","name":"Boston MA","scan_time":"2026-08-12T03:58:18Z","stale":false,"bins":25,"density_birds_km3":2.214375,"heading_deg":135.02206570529958,"speed_ms":6.253863315447614,"peak_altitude_m":0.0,"u_ms":4.319469076532053,"v_ms":-4.218771533465123}},{"type":"Feature","geometry":{"type":"Point","coordinates":[-78.7369,42.9489]},"properties":{"site":"KBUF","name":"Buffalo NY","scan_time":"2026-08-12T04:01:00Z","stale":false,"bins":25,"density_birds_km3":6.898666666666667,"heading_deg":184.90014075075294,"speed_ms":5.842053536915346,"peak_altitude_m":600.0,"u_ms":-0.8802918438345574,"v_ms":-5.5778546579049095}},{"type":"Feature","geometry":{"type":"Point","coordinates":[-81.8597,41.4131]},"properties":{"site":"KCLE","name":"Cleveland OH","scan_time":"2026-08-12T04:01:19Z","stale":false,"bins":25,"density_birds_km3":4.422666666666667,"heading_deg":163.07631517253733,"speed_ms":3.3017643486182813,"peak_altitude_m":400.0,"u_ms":0.20062405101730943,"v_ms":-1.9586471302763437}},{"type":"Feature","geometry":{"type":"Point","coordinates":[-81.0423,32.6555]},"properties":{"site":"KCLX","name":"Charleston SC","scan_time":"2026-08-12T03:59:37Z","stale":false,"bins":25,"density_birds_km3":6.24375,"heading_deg":125.36446181703467,"speed_ms":7.920943415122685,"peak_altitude_m":0.0,"u_ms":6.2231497245868805,"v_ms":-4.610890335503255}},{"type":"Feature","geometry":{"type":"Point","coordinates":[-74.4108,39.947]},"properties":{"site":"KDIX","name":"Philadelphia PA","scan_time":"2026-08-12T03:56:40Z","stale":false,"bins":25,"density_birds_km3":2.6957142857142857,"heading_deg":136.02377331365736,"speed_ms":7.4142247386759585,"peak_altitude_m":200.0,"u_ms":4.986341463414635,"v_ms":-5.27085656213705}},{"type":"Feature","geometry":{"type":"Point","coordinates":[-84.5658,33.3636]},"properties":{"site":"KFFC","name":"Atlanta GA","scan_time":"2026-08-12T03:58:51Z","stale":false,"bins":25,"density_birds_km3":3.7753333333333337,"heading_deg":101.78612569949695,"speed_ms":5.633886632526929,"peak_altitude_m":400.0,"u_ms":4.840563305668374,"v_ms":-1.2461628112307963}},{"type":"Feature","geometry":{"type":"Point","coordinates":[-85.5449,42.8939]},"properties":{"site":"KGRR","name":"Grand Rapids MI","scan_time":"2026-08-12T03:57:52Z","stale":false,"bins":25,"density_birds_km3":2.0246153846153847,"heading_deg":83.3810490762214,"speed_ms":4.575802707930368,"peak_altitude_m":200.0,"u_ms":3.848437137330755,"v_ms":0.8555705996131528}},{"type":"Feature","geometry":{"type":"Point","coordinates":[-83.8217,39.4203]},"properties":{"site":"KILN","name":"Wilmington OH","scan_time":"2026-08-12T04:00:34Z","stale":false,"bins":25,"density_birds_km3":5.1193333333333335,"heading_deg":64.25272445656994,"speed_ms":7.7128247773703515,"peak_altitude_m":200.0,"u_ms":4.231984023048717,"v_ms":1.0190295966474592}},{"type":"Feature","geometry":{"type":"Point","coordinates":[-81.7019,30.4846]},"properties":{"site":"KJAX","name":"Jacksonville FL","scan_time":"2026-08-12T04:00:25Z","stale":false,"bins":25,"density_birds_km3":15.27375,"heading_deg":189.15868800078914,"speed_ms":5.097358405631036,"peak_altitude_m":200.0,"u_ms":0.7487395645768539,"v_ms":-4.133126943853331}},{"type":"Feature","geometry":{"type":"Point","coordinates":[-88.0847,41.6045]},"properties":{"site":"KLOT","name":"Chicago IL","scan_time":"2026-08-12T03:59:04Z","stale":false,"bins":25,"density_birds_km3":3.9066666666666667,"heading_deg":25.953166012703946,"speed_ms":5.571132917038359,"peak_altitude_m":400.0,"u_ms":1.6496503122212312,"v_ms":2.8884317573595006}},{"type":"Feature","geometry":{"type":"Point","coordinates":[-78.4292,33.9892]},"properties":{"site":"KLTX","name":"Wilmington NC","scan_time":"2026-08-12T03:58:21Z","stale":false,"bins":25,"density_birds_km3":11.784375,"heading_deg":251.87245631797344,"speed_ms":4.977795678847693,"peak_altitude_m":200.0,"u_ms":-2.8205718858362228,"v_ms":-1.4215673512936784}},{"type":"Feature","geometry":{"type":"Point","coordinates":[-77.4778,38.9753]},"properties":{"site":"KLWX","name":"Sterling VA","scan_time":"2026-08-12T03:59:19Z","stale":false,"bins":25,"density_birds_km3":5.926,"heading_deg":197.0587283447075,"speed_ms":5.596791510611735,"peak_altitude_m":0.0,"u_ms":-1.0166382930427875,"v_ms":-4.034136874361594}},{"type":"Feature","geometry":{"type":"Point","coordinates":[-76.8762,34.7759]},"properties":{"site":"KMHX","name":"Morehead City NC","scan_time":"2026-08-12T04:01:27Z","stale":false,"bins":25,"density_birds_km3":8.785625,"heading_deg":153.20745282043157,"speed_ms":6.186428012241123,"peak_altitude_m":0.0,"u_ms":2.842044694327806,"v_ms":-5.032265319194364}},{"type":"Feature","geometry":{"type":"Point","coordinates":[-80.6542,28.1133]},"properties":{"site":"KMLB","name":"Melbourne FL","scan_time":"2026-08-12T03:59:22Z","stale":false,"bins":25,"density_birds_km3":3.894375,"heading_deg":33.81277091925409,"speed_ms":3.7437335473515247,"peak_altitude_m":0.0,"u_ms":1.749661316211878,"v_ms":1.5371011235955057}},{"type":"Feature","geometry":{"type":"Point","coordinates":[-86.5625,36.2472]},"properties":{"site":"KOHX","name":"Nashville TN","scan_time":"2026-08-12T03:58:10Z","stale":false,"bins":25,"density_birds_km3":23.326666666666664,"heading_deg":297.7634603481366,"speed_ms":4.6441101430313125,"peak_altitude_m":400.0,"u_ms":-3.270653305183026,"v_ms":1.0638906895833953}},{"type":"Feature","geometry":{"type":"Point","coordinates":[-72.8639,40.8655]},"properties":{"site":"KOKX","name":"Upton NY","scan_time":"2026-08-12T04:02:00Z","stale":false,"bins":25,"density_birds_km3":1.8125,"heading_deg":144.23285894380965,"speed_ms":3.7330567081604427,"peak_altitude_m":0.0,"u_ms":2.365449515905947,"v_ms":-2.561476486860304}},{"type":"Feature","geometry":{"type":"Point","coordinates":[-80.2183,40.5317]},"properties":{"site":"KPBZ","name":"Pittsburgh PA","scan_time":"2026-08-12T04:00:56Z","stale":false,"bins":25,"density_birds_km3":6.349285714285714,"heading_deg":193.89960452433834,"speed_ms":7.08364997186269,"peak_altitude_m":1000.0,"u_ms":-0.7905458638154192,"v_ms":-5.734392796848622}},{"type":"Feature","geometry":{"type":"Point","coordinates":[-78.4899,35.6655]},"properties":{"site":"KRAX","name":"Raleigh NC","scan_time":"2026-08-12T04:01:40Z","stale":false,"bins":25,"density_birds_km3":3.51,"heading_deg":136.1147875757238,"speed_ms":6.944726849364142,"peak_altitude_m":0.0,"u_ms":5.085891097975998,"v_ms":-4.264307719863873}},{"type":"Feature","geometry":{"type":"Point","coordinates":[-82.4017,27.7055]},"properties":{"site":"KTBW","name":"Tampa FL","scan_time":"2026-08-12T03:59:01Z","stale":false,"bins":25,"density_birds_km3":2.9575,"heading_deg":175.9550429801768,"speed_ms":6.646235468188544,"peak_altitude_m":0.0,"u_ms":0.4821559923906151,"v_ms":-6.615117311350666}}]}