{"type":"FeatureCollection","frame":"2026-08-30T00","site_count":20,"fresh_count":20,"failures":{},"features":[{"type":"Feature","geometry":{"type":"Point","coordinates":[-77.0073,36.984]},"properties":{"site":"KAKQ","name":"Wakefield VA","scan_time":"2026-08-29T23:56:42Z","stale":false,"bins":25,"density_birds_km3":13.282499999999999,"heading_deg":270.2181108775853,"speed_ms":4.479067633077611,"peak_altitude_m":0.0,"u_ms":-4.47611145102838,"v_ms":0.02471925448298583}},{"type":"Feature","geometry":{"type":"Point","coordinates":[-71.1369,41.9558]},"properties":{"site":"KBOX","name":"Boston MA","scan_time":"2026-08-29T23:59:49Z","stale":false,"bins":25,"density_birds_km3":4.0175,"heading_deg":76.26563427277316,"speed_ms":4.696250391726731,"peak_altitude_m":0.0,"u_ms":3.6930350987151366,"v_ms":1.2525697273581948}},{"type":"Feature","geometry":{"type":"Point","coordinates":[-78.7369,42.9489]},"properties":{"site":"KBUF","name":"Buffalo NY","scan_time":"2026-08-30T00:00:09Z","stale":false,"bins":25,"density_birds_km3":0.6359999999999999,"heading_deg":60.8256965709385,"speed_ms":5.906383647798743,"peak_altitude_m":200.0,"u_ms":5.162138364779874,"v_ms":2.8079559748427676}},{"type":"Feature","geometry":{"type":"Point","coordinates":[-81.8597,41.4131]},"properties":{"site":"KCLE","name":"Cleveland OH","scan_time":"2026-08-30T00:01:39Z","stale":false,"bins":25,"density_birds_km3":2.008666666666667,"heading_deg":324.02900738661816,"speed_ms":2.6768282962470935,"peak_altitude_m":200.0,"u_ms":-1.4369711059448687,"v_ms":2.1177648621720357}},{"type":"Feature","geometry":{"type":"Point","coordinates":[-81.0423,32.6555]},"properties":{"site":"KCLX","name":"Charleston SC","scan_time":"2026-08-29T23:59:19Z","stale":false,"bins":25,"density_birds_km3":2.434375,"heading_deg":284.8717138253974,"speed_ms":4.392525070712265,"peak_altitude_m":0.0,"u_ms":-4.2499048598611475,"v_ms":1.1260015428130625}},{"type":"Feature","geometry":{"type":"Point","coordinates":[-74.4108,39.947]},"properties":{"site":"KDIX","name":"Philadelphia PA","scan_time":"2026-08-30T00:03:16Z","stale":false,"bins":25,"density_birds_km3":16.065625,"heading_deg":46.559825106814614,"speed_ms":4.283691726982645,"peak_altitude_m":200.0,"u_ms":2.123410382130905,"v_ms":2.3348684722546498}},{"type":"Feature","geometry":{"type":"Point","coordinates":[-84.5658,33.3636]},"properties":{"site":"KFFC","name":"Atlanta GA","scan_time":"2026-08-29T23:58:23Z","stale":false,"bins":25,"density_birds_km3":0.9553333333333334,"heading_deg":302.4114416586488,"speed_ms":4.659564606741573,"peak_altitude_m":200.0,"u_ms":-3.9054353932584274,"v_ms":2.4745926966292133}},{"type":"Feature","geometry":{"type":"Point","coordinates":[-85.5449,42.8939]},"properties":{"site":"KGRR","name":"Grand Rapids MI","scan_time":"2026-08-29T23:57:24Z","stale":false,"bins":25,"density_birds_km3":1.3666666666666667,"heading_deg":356.4,"speed_ms":3.7100000000000004,"peak_altitude_m":200.0,"u_ms":-0.23000000000000004,"v_ms":3.7}},{"type":"Feature","geometry":{"type":"Point","coordinates":[-83.8217,39.4203]},"properties":{"site":"KILN","name":"Wilmington OH","scan_time":"2026-08-30T00:00:56Z","stale":false,"bins":25,"density_birds_km3":0.5226666666666666,"heading_deg":301.4286755223835,"speed_ms":3.701241997439181,"peak_altitude_m":200.0,"u_ms":-3.0509090909090912,"v_ms":1.8482330345710627}},{"type":"Feature","geometry":{"type":"Point","coordinates":[-81.7019,30.4846]},"properties":{"site":"KJAX","name":"Jacksonville FL","scan_time":"2026-08-30T00:00:43Z","stale":false,"bins":25,"density_birds_km3":8.32375,"heading_deg":321.0586061205562,"speed_ms":6.254670370926565,"peak_altitude_m":0.0,"u_ms":-3.880289833308304,"v_ms":4.765714822045352}},{"type":"Feature","geometry":{"type":"Point","coordinates":[-88.0847,41.6045]},"properties":{"site":"KLOT","name":"Chicago IL","scan_time":"2026-08-29T23:58:25Z","stale":false,"bins":25,"density_birds_km3":0.52,"heading_deg":355.60481022328236,"speed_ms":6.0481464174454835,"peak_altitude_m":200.0,"u_ms":-0.3605295950155764,"v_ms":5.836168224299066}},{"type":"Feature","geometry":{"type":"Point","coordinates":[-78.4292,33.9892]},"properties":{"site":"KLTX","name":"Wilmington NC","scan_time":"2026-08-29T23:59:39Z","stale":false,"bins":25,"density_birds_km3":0.81875,"heading_deg":297.90427936065237,"speed_ms":3.2150594227504246,"peak_altitude_m":0.0,"u_ms":-2.7817741935483875,"v_ms":1.4860271646859085}},{"type":"Feature","geometry":{"type":"Point","coordinates":[-77.4778,38.9753]},"properties":{"site":"KLWX","name":"Sterling VA","scan_time":"2026-08-29T23:58:01Z","stale":false,"bins":25,"density_birds_km3":3.925,"heading_deg":319.740772939758,"speed_ms":2.95800796178344,"peak_altitude_m":200.0,"u_ms":-1.8570955414012738,"v_ms":2.2774808917197453}},{"type":"Feature","geometry":{"type":"Point","coordinates":[-76.8762,34.7759]},"properties":{"site":"KMHX","name":"Morehead City NC","scan_time":"2026-08-29T23:58:31Z","stale":false,"bins":25,"density_birds_km3":6.25625,"heading_deg":234.65678552413254,"speed_ms":3.5303786213786212,"peak_altitude_m":0.0,"u_ms":-2.758842157842158,"v_ms":-1.9493636363636362}},{"type":"Feature","geometry":{"type":"Point","coordinates":[-80.6542,28.1133]},"properties":{"site":"KMLB","name":"Melbourne FL","scan_time":"2026-08-30T00:00:05Z","stale":false,"bins":25,"density_birds_km3":6.30375,"heading_deg":216.30129827176683,"speed_ms":2.7420920087249656,"peak_altitude_m":0.0,"u_ms":-1.4967023597065239,"v_ms":-1.9785296450525482}},{"type":"Feature","geometry":{"type":"Point","coordinates":[-86.5625,36.2472]},"properties":{"site":"KOHX","name":"Nashville TN","scan_time":"2026-08-29T23:58:06Z","stale":false,"bins":25,"density_birds_km3":2.686,"heading_deg":194.96929602029212,"speed_ms":4.558520724745595,"peak_altitude_m":200.0,"u_ms":-1.100945644080417,"v_ms":-4.327552742616034}},{"type":"Feature","geometry":{"type":"Point","coordinates":[-72.8639,40.8655]},"properties":{"site":"KOKX","name":"Upton NY","scan_time":"2026-08-29T23:58:11Z","stale":false,"bins":25,"density_birds_km3":11.805625,"heading_deg":74.88093250089369,"speed_ms":5.147969502832636,"peak_altitude_m":0.0,"u_ms":4.679778154286017,"v_ms":1.3293852914703235}},{"type":"Feature","geometry":{"type":"Point","coordinates":[-80.2183,40.5317]},"properties":{"site":"KPBZ","name":"Pittsburgh PA","scan_time":"2026-08-29T23:59:18Z","stale":false,"bins":25,"density_birds_km3":0.4107142857142857,"heading_deg":257.1959282235785,"speed_ms":1.9849565217391305,"peak_altitude_m":400.0,"u_ms":-1.7482434782608696,"v_ms":-0.3164347826086956}},{"type":"Feature","geometry":{"type":"Point","coordinates":[-78.4899,35.6655]},"properties":{"site":"KRAX","name":"Raleigh NC","scan_time":"2026-08-29T23:59:09Z","stale":false,"bins":25,"density_birds_km3":10.0975,"heading_deg":283.4290813341688,"speed_ms":3.9614798067393457,"peak_altitude_m":0.0,"u_ms":-3.807432482656095,"v_ms":1.0079689048562934}},{"type":"Feature","geometry":{"type":"Point","coordinates":[-82.4017,27.7055]},"properties":{"site":"KTBW","name":"Tampa FL","scan_time":"2026-08-29T23:57:49Z","stale":false,"bins":25,"density_birds_km3":2.52125,"heading_deg":228.5617166552407,"speed_ms":1.1943314105925538,"peak_altitude_m":200.0,"u_ms":-0.8033770319874148,"v_ms":-0.6727372836916623}}]}