{"type":"FeatureCollection","frame":"2026-09-26T12","site_count":20,"fresh_count":20,"failures":{},"features":[{"type":"Feature","geometry":{"type":"Point","coordinates":[-77.0073,36.984]},"properties":{"site":"KAKQ","name":"Wakefield VA","scan_time":"2026-09-26T12:00:10Z","stale":false,"bins":25,"density_birds_km3":1.7606249999999999,"heading_deg":181.01584355740755,"speed_ms":14.097956043956046,"peak_altitude_m":0.0,"u_ms":-0.6223076923076923,"v_ms":-13.944197802197802}},{"type":"Feature","geometry":{"type":"Point","coordinates":[-71.1369,41.9558]},"properties":{"site":"KBOX","name":"Boston MA","scan_time":"2026-09-26T12:01:54Z","stale":false,"bins":25,"density_birds_km3":0.009090909090909092,"heading_deg":270.7675597887358,"speed_ms":10.9,"peak_altitude_m":1000.0,"u_ms":-10.886666666666667,"v_ms":0.12999999999999998}},{"type":"Feature","geometry":{"type":"Point","coordinates":[-78.7369,42.9489]},"properties":{"site":"KBUF","name":"Buffalo NY","scan_time":"2026-09-26T12:00:59Z","stale":false,"bins":25,"density_birds_km3":1.018,"heading_deg":219.12017303048245,"speed_ms":8.196834862385321,"peak_altitude_m":200.0,"u_ms":-5.155098296199214,"v_ms":-6.347463958060287}},{"type":"Feature","geometry":{"type":"Point","coordinates":[-81.8597,41.4131]},"properties":{"site":"KCLE","name":"Cleveland OH","scan_time":"2026-09-26T11:57:15Z","stale":false,"bins":25,"density_birds_km3":2.818,"heading_deg":207.60986250651706,"speed_ms":7.520688757396449,"peak_altitude_m":200.0,"u_ms":-3.3598508875739643,"v_ms":-6.704028402366864}},{"type":"Feature","geometry":{"type":"Point","coordinates":[-81.0423,32.6555]},"properties":{"site":"KCLX","name":"Charleston SC","scan_time":"2026-09-26T12:00:14Z","stale":false,"bins":25,"density_birds_km3":3.3868750000000003,"heading_deg":224.11778666574008,"speed_ms":10.601501512859306,"peak_altitude_m":0.0,"u_ms":-7.378653555219365,"v_ms":-7.596113842662632}},{"type":"Feature","geometry":{"type":"Point","coordinates":[-74.4108,39.947]},"properties":{"site":"KDIX","name":"Philadelphia PA","scan_time":"2026-09-26T11:59:06Z","stale":false,"bins":25,"density_birds_km3":0.00125,"heading_deg":null,"speed_ms":null,"peak_altitude_m":2600.0,"u_ms":null,"v_ms":null}},{"type":"Feature","geometry":{"type":"Point","coordinates":[-84.5658,33.3636]},"properties":{"site":"KFFC","name":"Atlanta GA","scan_time":"2026-09-26T12:01:05Z","stale":false,"bins":25,"density_birds_km3":9.174000000000001,"heading_deg":242.76505593735902,"speed_ms":6.432317961165049,"peak_altitude_m":200.0,"u_ms":-3.6068143203883496,"v_ms":-3.2714704692556635}},{"type":"Feature","geometry":{"type":"Point","coordinates":[-85.5449,42.8939]},"properties":{"site":"KGRR","name":"Grand Rapids MI","scan_time":"2026-09-26T11:58:27Z","stale":false,"bins":25,"density_birds_km3":1.2693333333333332,"heading_deg":219.74776907602626,"speed_ms":3.643749341758821,"peak_altitude_m":200.0,"u_ms":-2.3818272775144815,"v_ms":-2.685387045813586}},{"type":"Feature","geometry":{"type":"Point","coordinates":[-83.8217,39.4203]},"properties":{"site":"KILN","name":"Wilmington OH","scan_time":"2026-09-26T12:00:21Z","stale":false,"bins":25,"density_birds_km3":1.1333333333333333,"heading_deg":223.97252290909518,"speed_ms":7.420301775147928,"peak_altitude_m":200.0,"u_ms":-5.167976331360946,"v_ms":-5.299100591715977}},{"type":"Feature","geometry":{"type":"Point","coordinates":[-81.7019,30.4846]},"properties":{"site":"KJAX","name":"Jacksonville FL","scan_time":"2026-09-26T12:01:29Z","stale":false,"bins":25,"density_birds_km3":13.78,"heading_deg":187.55948066690394,"speed_ms":12.040871734397678,"peak_altitude_m":0.0,"u_ms":-1.5607905478955006,"v_ms":-11.892288642960812}},{"type":"Feature","geometry":{"type":"Point","coordinates":[-88.0847,41.6045]},"properties":{"site":"KLOT","name":"Chicago IL","scan_time":"2026-09-26T12:03:21Z","stale":false,"bins":25,"density_birds_km3":1.1306666666666667,"heading_deg":289.00609845393615,"speed_ms":4.0023508564678085,"peak_altitude_m":200.0,"u_ms":-3.7866922622563495,"v_ms":1.3028824571766096}},{"type":"Feature","geometry":{"type":"Point","coordinates":[-78.4292,33.9892]},"properties":{"site":"KLTX","name":"Wilmington NC","scan_time":"2026-09-26T12:01:50Z","stale":false,"bins":25,"density_birds_km3":1.89,"heading_deg":180.1781177631483,"speed_ms":13.271092353525324,"peak_altitude_m":0.0,"u_ms":-0.16333995365772921,"v_ms":-13.239486924859317}},{"type":"Feature","geometry":{"type":"Point","coordinates":[-77.4778,38.9753]},"properties":{"site":"KLWX","name":"Sterling VA","scan_time":"2026-09-26T12:01:09Z","stale":false,"bins":25,"density_birds_km3":1.9718749999999998,"heading_deg":168.62047802005026,"speed_ms":11.34058039961941,"peak_altitude_m":0.0,"u_ms":0.040380589914367146,"v_ms":-10.528198541071996}},{"type":"Feature","geometry":{"type":"Point","coordinates":[-76.8762,34.7759]},"properties":{"site":"KMHX","name":"Morehead City NC","scan_time":"2026-09-26T12:03:10Z","stale":false,"bins":25,"density_birds_km3":1.431875,"heading_deg":212.32219345068873,"speed_ms":2.896490615451768,"peak_altitude_m":0.0,"u_ms":-0.43669576604103,"v_ms":-2.6091532082060236}},{"type":"Feature","geometry":{"type":"Point","coordinates":[-80.6542,28.1133]},"properties":{"site":"KMLB","name":"Melbourne FL","scan_time":"2026-09-26T11:58:36Z","stale":false,"bins":25,"density_birds_km3":2.349375,"heading_deg":178.62728737221627,"speed_ms":9.558701124799143,"peak_altitude_m":800.0,"u_ms":0.20004820567755757,"v_ms":-9.522683449384038}},{"type":"Feature","geometry":{"type":"Point","coordinates":[-86.5625,36.2472]},"properties":{"site":"KOHX","name":"Nashville TN","scan_time":"2026-09-26T11:59:48Z","stale":false,"bins":25,"density_birds_km3":3.9979999999999998,"heading_deg":225.32606904749758,"speed_ms":7.311560780390196,"peak_altitude_m":200.0,"u_ms":-5.144410538602635,"v_ms":-5.071302317825579}},{"type":"Feature","geometry":{"type":"Point","coordinates":[-72.8639,40.8655]},"properties":{"site":"KOKX","name":"Upton NY","scan_time":"2026-09-26T12:03:03Z","stale":false,"bins":25,"density_birds_km3":0.0,"heading_deg":null,"speed_ms":null,"peak_altitude_m":1400.0,"u_ms":null,"v_ms":null}},{"type":"Feature","geometry":{"type":"Point","coordinates":[-80.2183,40.5317]},"properties":{"site":"KPBZ","name":"Pittsburgh PA","scan_time":"2026-09-26T12:02:17Z","stale":false,"bins":25,"density_birds_km3":1.8164285714285715,"heading_deg":204.92976785505365,"speed_ms":10.562041781631848,"peak_altitude_m":400.0,"u_ms":-4.522893180922349,"v_ms":-9.443346472211273}},{"type":"Feature","geometry":{"type":"Point","coordinates":[-78.4899,35.6655]},"properties":{"site":"KRAX","name":"Raleigh NC","scan_time":"2026-09-26T12:02:43Z","stale":false,"bins":25,"density_birds_km3":2.5125,"heading_deg":170.78457871971239,"speed_ms":16.186363184079603,"peak_altitude_m":0.0,"u_ms":1.5608432835820893,"v_ms":-15.888176616915421}},{"type":"Feature","geometry":{"type":"Point","coordinates":[-82.4017,27.7055]},"properties":{"site":"KTBW","name":"Tampa FL","scan_time":"2026-09-26T12:02:03Z","stale":false,"bins":25,"density_birds_km3":2.928125,"heading_deg":179.45456275468837,"speed_ms":7.55556029882604,"peak_altitude_m":0.0,"u_ms":0.320128068303095,"v_ms":-7.344862326574173}}]}