{"type":"FeatureCollection","frame":"2026-08-26T07","site_count":20,"fresh_count":20,"failures":{},"features":[{"type":"Feature","geometry":{"type":"Point","coordinates":[-77.0073,36.984]},"properties":{"site":"KAKQ","name":"Wakefield VA","scan_time":"2026-08-26T06:59:21Z","stale":false,"bins":25,"density_birds_km3":3.368125,"heading_deg":251.69055309736507,"speed_ms":4.89761807363332,"peak_altitude_m":200.0,"u_ms":-3.2173001115656374,"v_ms":-1.0621271848270732}},{"type":"Feature","geometry":{"type":"Point","coordinates":[-71.1369,41.9558]},"properties":{"site":"KBOX","name":"Boston MA","scan_time":"2026-08-26T07:00:50Z","stale":false,"bins":25,"density_birds_km3":7.203749999999999,"heading_deg":194.614733157337,"speed_ms":9.949718028804442,"peak_altitude_m":400.0,"u_ms":-2.514770952628839,"v_ms":-9.537840534443866}},{"type":"Feature","geometry":{"type":"Point","coordinates":[-78.7369,42.9489]},"properties":{"site":"KBUF","name":"Buffalo NY","scan_time":"2026-08-26T07:04:23Z","stale":false,"bins":25,"density_birds_km3":4.198666666666666,"heading_deg":131.08296155978806,"speed_ms":4.748039060019054,"peak_altitude_m":200.0,"u_ms":2.7252921562400765,"v_ms":-3.190022229279136}},{"type":"Feature","geometry":{"type":"Point","coordinates":[-81.8597,41.4131]},"properties":{"site":"KCLE","name":"Cleveland OH","scan_time":"2026-08-26T07:02:53Z","stale":false,"bins":25,"density_birds_km3":6.440666666666667,"heading_deg":280.74848660777957,"speed_ms":5.725590062111801,"peak_altitude_m":400.0,"u_ms":-5.604601449275362,"v_ms":1.0185103519668737}},{"type":"Feature","geometry":{"type":"Point","coordinates":[-81.0423,32.6555]},"properties":{"site":"KCLX","name":"Charleston SC","scan_time":"2026-08-26T07:00:27Z","stale":false,"bins":25,"density_birds_km3":5.614375,"heading_deg":232.6643545906154,"speed_ms":6.923570076811756,"peak_altitude_m":0.0,"u_ms":-5.001542914393855,"v_ms":-4.210920627852611}},{"type":"Feature","geometry":{"type":"Point","coordinates":[-74.4108,39.947]},"properties":{"site":"KDIX","name":"Philadelphia PA","scan_time":"2026-08-26T07:00:12Z","stale":false,"bins":25,"density_birds_km3":21.8875,"heading_deg":206.12604914560504,"speed_ms":10.144727953363434,"peak_altitude_m":200.0,"u_ms":-4.53404726524547,"v_ms":-9.017480710979024}},{"type":"Feature","geometry":{"type":"Point","coordinates":[-84.5658,33.3636]},"properties":{"site":"KFFC","name":"Atlanta GA","scan_time":"2026-08-26T06:56:35Z","stale":false,"bins":25,"density_birds_km3":16.003333333333334,"heading_deg":173.3604439709534,"speed_ms":3.060729969584601,"peak_altitude_m":400.0,"u_ms":-0.6143023207366359,"v_ms":-0.8247614682721554}},{"type":"Feature","geometry":{"type":"Point","coordinates":[-85.5449,42.8939]},"properties":{"site":"KGRR","name":"Grand Rapids MI","scan_time":"2026-08-26T06:57:29Z","stale":false,"bins":25,"density_birds_km3":0.5786666666666667,"heading_deg":24.888246250547432,"speed_ms":9.082314814814815,"peak_altitude_m":200.0,"u_ms":3.823923611111111,"v_ms":8.211203703703703}},{"type":"Feature","geometry":{"type":"Point","coordinates":[-83.8217,39.4203]},"properties":{"site":"KILN","name":"Wilmington OH","scan_time":"2026-08-26T07:03:08Z","stale":false,"bins":25,"density_birds_km3":1.9426666666666668,"heading_deg":259.3060237161922,"speed_ms":5.039529371350051,"peak_altitude_m":400.0,"u_ms":-4.67503950532463,"v_ms":-0.478114050154586}},{"type":"Feature","geometry":{"type":"Point","coordinates":[-81.7019,30.4846]},"properties":{"site":"KJAX","name":"Jacksonville FL","scan_time":"2026-08-26T07:00:55Z","stale":false,"bins":25,"density_birds_km3":42.173125,"heading_deg":201.85174906308154,"speed_ms":6.4404149562073,"peak_altitude_m":200.0,"u_ms":-2.253707633712228,"v_ms":-5.882073299050047}},{"type":"Feature","geometry":{"type":"Point","coordinates":[-88.0847,41.6045]},"properties":{"site":"KLOT","name":"Chicago IL","scan_time":"2026-08-26T06:58:27Z","stale":false,"bins":25,"density_birds_km3":0.5466666666666666,"heading_deg":22.79166903847762,"speed_ms":9.572913096695228,"peak_altitude_m":200.0,"u_ms":3.3863525091799267,"v_ms":8.188053855569155}},{"type":"Feature","geometry":{"type":"Point","coordinates":[-78.4292,33.9892]},"properties":{"site":"KLTX","name":"Wilmington NC","scan_time":"2026-08-26T07:02:08Z","stale":false,"bins":25,"density_birds_km3":14.012500000000001,"heading_deg":243.70988104294588,"speed_ms":8.746308206958073,"peak_altitude_m":0.0,"u_ms":-7.8181454058876,"v_ms":-3.7857551293487957}},{"type":"Feature","geometry":{"type":"Point","coordinates":[-77.4778,38.9753]},"properties":{"site":"KLWX","name":"Sterling VA","scan_time":"2026-08-26T07:02:01Z","stale":false,"bins":25,"density_birds_km3":12.42375,"heading_deg":204.1383984865307,"speed_ms":6.284156777354382,"peak_altitude_m":800.0,"u_ms":-2.6532101252041373,"v_ms":-5.637681545998912}},{"type":"Feature","geometry":{"type":"Point","coordinates":[-76.8762,34.7759]},"properties":{"site":"KMHX","name":"Morehead City NC","scan_time":"2026-08-26T07:00:04Z","stale":false,"bins":25,"density_birds_km3":4.075625,"heading_deg":232.70035142159483,"speed_ms":3.052524152737311,"peak_altitude_m":0.0,"u_ms":-2.3046603281705265,"v_ms":-1.8759346725962278}},{"type":"Feature","geometry":{"type":"Point","coordinates":[-80.6542,28.1133]},"properties":{"site":"KMLB","name":"Melbourne FL","scan_time":"2026-08-26T07:00:36Z","stale":false,"bins":25,"density_birds_km3":9.144375,"heading_deg":165.9,"speed_ms":3.51,"peak_altitude_m":200.0,"u_ms":0.85,"v_ms":-3.4}},{"type":"Feature","geometry":{"type":"Point","coordinates":[-86.5625,36.2472]},"properties":{"site":"KOHX","name":"Nashville TN","scan_time":"2026-08-26T06:59:09Z","stale":false,"bins":25,"density_birds_km3":14.894666666666666,"heading_deg":258.31479446030505,"speed_ms":5.272582132306866,"peak_altitude_m":200.0,"u_ms":-2.9559855876823917,"v_ms":-0.7038040461910303}},{"type":"Feature","geometry":{"type":"Point","coordinates":[-72.8639,40.8655]},"properties":{"site":"KOKX","name":"Upton NY","scan_time":"2026-08-26T07:03:05Z","stale":false,"bins":25,"density_birds_km3":10.89125,"heading_deg":201.68292703450493,"speed_ms":7.671874748866312,"peak_altitude_m":200.0,"u_ms":-2.752977441019459,"v_ms":-7.083166293553757}},{"type":"Feature","geometry":{"type":"Point","coordinates":[-80.2183,40.5317]},"properties":{"site":"KPBZ","name":"Pittsburgh PA","scan_time":"2026-08-26T06:58:48Z","stale":false,"bins":25,"density_birds_km3":28.257857142857144,"heading_deg":242.62831585879195,"speed_ms":7.443676500354215,"peak_altitude_m":400.0,"u_ms":-6.681167644975204,"v_ms":-2.9705611780184187}},{"type":"Feature","geometry":{"type":"Point","coordinates":[-78.4899,35.6655]},"properties":{"site":"KRAX","name":"Raleigh NC","scan_time":"2026-08-26T06:58:29Z","stale":false,"bins":25,"density_birds_km3":17.01625,"heading_deg":277.9177846106159,"speed_ms":4.581371676534403,"peak_altitude_m":200.0,"u_ms":-4.216095686389879,"v_ms":0.639438458426801}},{"type":"Feature","geometry":{"type":"Point","coordinates":[-82.4017,27.7055]},"properties":{"site":"KTBW","name":"Tampa FL","scan_time":"2026-08-26T06:58:37Z","stale":false,"bins":25,"density_birds_km3":4.2006250000000005,"heading_deg":222.73402761928298,"speed_ms":5.207068016073821,"peak_altitude_m":200.0,"u_ms":-2.2623455871409437,"v_ms":-3.528970084834053}}]}