{"type":"FeatureCollection","frame":"2026-08-31T02","site_count":20,"fresh_count":20,"failures":{},"features":[{"type":"Feature","geometry":{"type":"Point","coordinates":[-77.0073,36.984]},"properties":{"site":"KAKQ","name":"Wakefield VA","scan_time":"2026-08-31T01:59:37Z","stale":false,"bins":25,"density_birds_km3":8.65875,"heading_deg":12.047874407101128,"speed_ms":4.9858349794864,"peak_altitude_m":0.0,"u_ms":0.6854406625132958,"v_ms":3.342169882996505}},{"type":"Feature","geometry":{"type":"Point","coordinates":[-71.1369,41.9558]},"properties":{"site":"KBOX","name":"Boston MA","scan_time":"2026-08-31T01:57:25Z","stale":false,"bins":25,"density_birds_km3":2.283333333333333,"heading_deg":46.49999999999999,"speed_ms":5.84,"peak_altitude_m":0.0,"u_ms":4.24,"v_ms":4.02}},{"type":"Feature","geometry":{"type":"Point","coordinates":[-78.7369,42.9489]},"properties":{"site":"KBUF","name":"Buffalo NY","scan_time":"2026-08-31T01:59:25Z","stale":false,"bins":25,"density_birds_km3":1.096,"heading_deg":null,"speed_ms":null,"peak_altitude_m":200.0,"u_ms":null,"v_ms":null}},{"type":"Feature","geometry":{"type":"Point","coordinates":[-81.8597,41.4131]},"properties":{"site":"KCLE","name":"Cleveland OH","scan_time":"2026-08-31T02:00:44Z","stale":false,"bins":25,"density_birds_km3":2.042666666666667,"heading_deg":357.4721231144311,"speed_ms":5.128599869451697,"peak_altitude_m":200.0,"u_ms":0.49386096605744106,"v_ms":3.5520104438642295}},{"type":"Feature","geometry":{"type":"Point","coordinates":[-81.0423,32.6555]},"properties":{"site":"KCLX","name":"Charleston SC","scan_time":"2026-08-31T02:01:35Z","stale":false,"bins":25,"density_birds_km3":16.5725,"heading_deg":231.02897813483412,"speed_ms":8.63749223571962,"peak_altitude_m":200.0,"u_ms":-6.145626449659944,"v_ms":-5.5423862876911585}},{"type":"Feature","geometry":{"type":"Point","coordinates":[-74.4108,39.947]},"properties":{"site":"KDIX","name":"Philadelphia PA","scan_time":"2026-08-31T02:01:18Z","stale":false,"bins":25,"density_birds_km3":2.6675,"heading_deg":43.20062141415878,"speed_ms":7.673102350636631,"peak_altitude_m":200.0,"u_ms":5.236623408423114,"v_ms":5.269373163565131}},{"type":"Feature","geometry":{"type":"Point","coordinates":[-84.5658,33.3636]},"properties":{"site":"KFFC","name":"Atlanta GA","scan_time":"2026-08-31T02:01:02Z","stale":false,"bins":25,"density_birds_km3":25.779999999999998,"heading_deg":263.83245383419137,"speed_ms":4.8943725241436455,"peak_altitude_m":1000.0,"u_ms":-4.475879657199078,"v_ms":-0.808676954146493}},{"type":"Feature","geometry":{"type":"Point","coordinates":[-85.5449,42.8939]},"properties":{"site":"KGRR","name":"Grand Rapids MI","scan_time":"2026-08-31T02:00:30Z","stale":false,"bins":25,"density_birds_km3":3.6906666666666665,"heading_deg":54.79299630061729,"speed_ms":8.360518424855492,"peak_altitude_m":200.0,"u_ms":6.99679010115607,"v_ms":3.970128251445087}},{"type":"Feature","geometry":{"type":"Point","coordinates":[-83.8217,39.4203]},"properties":{"site":"KILN","name":"Wilmington OH","scan_time":"2026-08-31T02:00:12Z","stale":false,"bins":25,"density_birds_km3":11.175333333333333,"heading_deg":129.48955501801967,"speed_ms":3.6217628798280703,"peak_altitude_m":200.0,"u_ms":1.8615778162497763,"v_ms":-1.0081374246313652}},{"type":"Feature","geometry":{"type":"Point","coordinates":[-81.7019,30.4846]},"properties":{"site":"KJAX","name":"Jacksonville FL","scan_time":"2026-08-31T01:58:29Z","stale":false,"bins":25,"density_birds_km3":38.20875,"heading_deg":191.6526562784946,"speed_ms":9.987419581907771,"peak_altitude_m":0.0,"u_ms":-2.0074950480462292,"v_ms":-9.763234894494737}},{"type":"Feature","geometry":{"type":"Point","coordinates":[-88.0847,41.6045]},"properties":{"site":"KLOT","name":"Chicago IL","scan_time":"2026-08-31T01:58:07Z","stale":false,"bins":25,"density_birds_km3":6.358333333333333,"heading_deg":29.866784236827097,"speed_ms":9.12460881294964,"peak_altitude_m":200.0,"u_ms":4.3483977817745805,"v_ms":7.527979616306954}},{"type":"Feature","geometry":{"type":"Point","coordinates":[-78.4292,33.9892]},"properties":{"site":"KLTX","name":"Wilmington NC","scan_time":"2026-08-31T01:58:47Z","stale":false,"bins":25,"density_birds_km3":17.16875,"heading_deg":218.12977601413638,"speed_ms":7.55320859119039,"peak_altitude_m":200.0,"u_ms":-4.330691299599564,"v_ms":-5.9685409537677465}},{"type":"Feature","geometry":{"type":"Point","coordinates":[-77.4778,38.9753]},"properties":{"site":"KLWX","name":"Sterling VA","scan_time":"2026-08-31T02:01:51Z","stale":false,"bins":25,"density_birds_km3":6.0625,"heading_deg":31.282810824864917,"speed_ms":5.096963450913727,"peak_altitude_m":0.0,"u_ms":2.3464439014024645,"v_ms":2.247752868678283}},{"type":"Feature","geometry":{"type":"Point","coordinates":[-76.8762,34.7759]},"properties":{"site":"KMHX","name":"Morehead City NC","scan_time":"2026-08-31T02:01:36Z","stale":false,"bins":25,"density_birds_km3":6.163125,"heading_deg":228.26826107511198,"speed_ms":5.463713358352774,"peak_altitude_m":0.0,"u_ms":-3.064554214423369,"v_ms":-3.6271447408459276}},{"type":"Feature","geometry":{"type":"Point","coordinates":[-80.6542,28.1133]},"properties":{"site":"KMLB","name":"Melbourne FL","scan_time":"2026-08-31T02:00:26Z","stale":false,"bins":25,"density_birds_km3":8.965625000000001,"heading_deg":177.9573407552122,"speed_ms":8.106497037295224,"peak_altitude_m":0.0,"u_ms":0.23315789473684204,"v_ms":-8.080319972115717}},{"type":"Feature","geometry":{"type":"Point","coordinates":[-86.5625,36.2472]},"properties":{"site":"KOHX","name":"Nashville TN","scan_time":"2026-08-31T01:59:01Z","stale":false,"bins":25,"density_birds_km3":15.632666666666667,"heading_deg":37.238269458759675,"speed_ms":2.5295721172304937,"peak_altitude_m":200.0,"u_ms":1.3566405016850818,"v_ms":1.936007422891515}},{"type":"Feature","geometry":{"type":"Point","coordinates":[-72.8639,40.8655]},"properties":{"site":"KOKX","name":"Upton NY","scan_time":"2026-08-31T02:03:10Z","stale":false,"bins":25,"density_birds_km3":0.0,"heading_deg":null,"speed_ms":null,"peak_altitude_m":2400.0,"u_ms":null,"v_ms":null}},{"type":"Feature","geometry":{"type":"Point","coordinates":[-80.2183,40.5317]},"properties":{"site":"KPBZ","name":"Pittsburgh PA","scan_time":"2026-08-31T01:59:21Z","stale":false,"bins":25,"density_birds_km3":10.171428571428573,"heading_deg":191.192558110676,"speed_ms":4.466479680696661,"peak_altitude_m":600.0,"u_ms":0.20555515239477504,"v_ms":-2.851252539912917}},{"type":"Feature","geometry":{"type":"Point","coordinates":[-78.4899,35.6655]},"properties":{"site":"KRAX","name":"Raleigh NC","scan_time":"2026-08-31T02:01:01Z","stale":false,"bins":25,"density_birds_km3":13.53875,"heading_deg":159.3703498357922,"speed_ms":3.9384184285846184,"peak_altitude_m":400.0,"u_ms":-0.044763179761794857,"v_ms":-3.4241344289539284}},{"type":"Feature","geometry":{"type":"Point","coordinates":[-82.4017,27.7055]},"properties":{"site":"KTBW","name":"Tampa FL","scan_time":"2026-08-31T02:02:08Z","stale":false,"bins":25,"density_birds_km3":12.0425,"heading_deg":214.1340252509415,"speed_ms":6.784984428526938,"peak_altitude_m":0.0,"u_ms":-3.5417787812727086,"v_ms":-5.590061766843143}}]}