{"type":"FeatureCollection","frame":"2026-08-25T10","site_count":20,"fresh_count":20,"failures":{},"features":[{"type":"Feature","geometry":{"type":"Point","coordinates":[-77.0073,36.984]},"properties":{"site":"KAKQ","name":"Wakefield VA","scan_time":"2026-08-25T10:00:08Z","stale":false,"bins":25,"density_birds_km3":1.5125,"heading_deg":208.8028408256637,"speed_ms":13.100702479338844,"peak_altitude_m":200.0,"u_ms":-6.377247933884298,"v_ms":-11.278409090909092}},{"type":"Feature","geometry":{"type":"Point","coordinates":[-71.1369,41.9558]},"properties":{"site":"KBOX","name":"Boston MA","scan_time":"2026-08-25T10:01:02Z","stale":false,"bins":25,"density_birds_km3":11.995,"heading_deg":126.71314486818751,"speed_ms":6.956125468945394,"peak_altitude_m":200.0,"u_ms":5.399056377657357,"v_ms":-4.199530533555648}},{"type":"Feature","geometry":{"type":"Point","coordinates":[-78.7369,42.9489]},"properties":{"site":"KBUF","name":"Buffalo NY","scan_time":"2026-08-25T09:56:54Z","stale":false,"bins":25,"density_birds_km3":0.4746666666666667,"heading_deg":121.01078757797015,"speed_ms":7.214087078651685,"peak_altitude_m":200.0,"u_ms":6.098960674157303,"v_ms":-3.725182584269663}},{"type":"Feature","geometry":{"type":"Point","coordinates":[-81.8597,41.4131]},"properties":{"site":"KCLE","name":"Cleveland OH","scan_time":"2026-08-25T10:03:15Z","stale":false,"bins":25,"density_birds_km3":1.294,"heading_deg":159.31337464545558,"speed_ms":6.920150103519669,"peak_altitude_m":200.0,"u_ms":2.1548343685300204,"v_ms":-6.379057971014493}},{"type":"Feature","geometry":{"type":"Point","coordinates":[-81.0423,32.6555]},"properties":{"site":"KCLX","name":"Charleston SC","scan_time":"2026-08-25T10:00:23Z","stale":false,"bins":25,"density_birds_km3":5.79375,"heading_deg":217.97403681811576,"speed_ms":6.791755692241287,"peak_altitude_m":0.0,"u_ms":-4.199772310348549,"v_ms":-5.208660839538146}},{"type":"Feature","geometry":{"type":"Point","coordinates":[-74.4108,39.947]},"properties":{"site":"KDIX","name":"Philadelphia PA","scan_time":"2026-08-25T10:03:10Z","stale":false,"bins":25,"density_birds_km3":0.9375,"heading_deg":143.57378997005918,"speed_ms":9.694096064042697,"peak_altitude_m":200.0,"u_ms":5.622261507671782,"v_ms":-7.728732488325551}},{"type":"Feature","geometry":{"type":"Point","coordinates":[-84.5658,33.3636]},"properties":{"site":"KFFC","name":"Atlanta GA","scan_time":"2026-08-25T10:00:12Z","stale":false,"bins":25,"density_birds_km3":9.786666666666665,"heading_deg":226.6688693387475,"speed_ms":7.776391126279863,"peak_altitude_m":400.0,"u_ms":-5.647084641638225,"v_ms":-5.007521501706485}},{"type":"Feature","geometry":{"type":"Point","coordinates":[-85.5449,42.8939]},"properties":{"site":"KGRR","name":"Grand Rapids MI","scan_time":"2026-08-25T09:56:58Z","stale":false,"bins":25,"density_birds_km3":37.736666666666665,"heading_deg":224.29689811613028,"speed_ms":9.700188862584362,"peak_altitude_m":400.0,"u_ms":-6.765750680187979,"v_ms":-6.923129394721035}},{"type":"Feature","geometry":{"type":"Point","coordinates":[-83.8217,39.4203]},"properties":{"site":"KILN","name":"Wilmington OH","scan_time":"2026-08-25T10:02:14Z","stale":false,"bins":25,"density_birds_km3":1.1813333333333333,"heading_deg":157.20389380832182,"speed_ms":6.746244343891403,"peak_altitude_m":400.0,"u_ms":2.5824434389140274,"v_ms":-6.1685407239819}},{"type":"Feature","geometry":{"type":"Point","coordinates":[-81.7019,30.4846]},"properties":{"site":"KJAX","name":"Jacksonville FL","scan_time":"2026-08-25T10:01:01Z","stale":false,"bins":25,"density_birds_km3":43.978125,"heading_deg":172.0415644180352,"speed_ms":5.903688638753874,"peak_altitude_m":0.0,"u_ms":0.915328017964242,"v_ms":-5.751947926437566}},{"type":"Feature","geometry":{"type":"Point","coordinates":[-88.0847,41.6045]},"properties":{"site":"KLOT","name":"Chicago IL","scan_time":"2026-08-25T09:58:12Z","stale":false,"bins":25,"density_birds_km3":0.41,"heading_deg":311.878873615347,"speed_ms":4.6499021207177815,"peak_altitude_m":200.0,"u_ms":-2.908042414355628,"v_ms":2.3557911908646}},{"type":"Feature","geometry":{"type":"Point","coordinates":[-78.4292,33.9892]},"properties":{"site":"KLTX","name":"Wilmington NC","scan_time":"2026-08-25T09:57:45Z","stale":false,"bins":25,"density_birds_km3":7.681875,"heading_deg":216.75257593101296,"speed_ms":7.952352270877422,"peak_altitude_m":200.0,"u_ms":-4.72038499104672,"v_ms":-6.310798469803028}},{"type":"Feature","geometry":{"type":"Point","coordinates":[-77.4778,38.9753]},"properties":{"site":"KLWX","name":"Sterling VA","scan_time":"2026-08-25T09:58:06Z","stale":false,"bins":25,"density_birds_km3":0.75875,"heading_deg":153.37129215115084,"speed_ms":7.927976424361494,"peak_altitude_m":0.0,"u_ms":3.3021316306483306,"v_ms":-7.090687622789784}},{"type":"Feature","geometry":{"type":"Point","coordinates":[-76.8762,34.7759]},"properties":{"site":"KMHX","name":"Morehead City NC","scan_time":"2026-08-25T10:01:47Z","stale":false,"bins":25,"density_birds_km3":3.736875,"heading_deg":190.9313491808426,"speed_ms":5.37075263421977,"peak_altitude_m":0.0,"u_ms":-1.0097926074594412,"v_ms":-5.26182304733233}},{"type":"Feature","geometry":{"type":"Point","coordinates":[-80.6542,28.1133]},"properties":{"site":"KMLB","name":"Melbourne FL","scan_time":"2026-08-25T09:58:29Z","stale":false,"bins":25,"density_birds_km3":3.0418749999999997,"heading_deg":173.06266265994557,"speed_ms":5.116455722210808,"peak_altitude_m":0.0,"u_ms":0.521317033079926,"v_ms":-5.072338196013972}},{"type":"Feature","geometry":{"type":"Point","coordinates":[-86.5625,36.2472]},"properties":{"site":"KOHX","name":"Nashville TN","scan_time":"2026-08-25T09:58:19Z","stale":false,"bins":25,"density_birds_km3":8.12,"heading_deg":249.2391468672983,"speed_ms":5.538628899835797,"peak_altitude_m":400.0,"u_ms":-4.61481527093596,"v_ms":-1.6121453201970444}},{"type":"Feature","geometry":{"type":"Point","coordinates":[-72.8639,40.8655]},"properties":{"site":"KOKX","name":"Upton NY","scan_time":"2026-08-25T10:02:05Z","stale":false,"bins":25,"density_birds_km3":7.461875,"heading_deg":138.45889808235802,"speed_ms":6.95997905144964,"peak_altitude_m":0.0,"u_ms":4.604973185855538,"v_ms":-5.205279872632814}},{"type":"Feature","geometry":{"type":"Point","coordinates":[-80.2183,40.5317]},"properties":{"site":"KPBZ","name":"Pittsburgh PA","scan_time":"2026-08-25T09:57:16Z","stale":false,"bins":25,"density_birds_km3":0.9521428571428572,"heading_deg":131.07555585584205,"speed_ms":7.724084112149534,"peak_altitude_m":400.0,"u_ms":5.650607476635514,"v_ms":-5.0412616822429905}},{"type":"Feature","geometry":{"type":"Point","coordinates":[-78.4899,35.6655]},"properties":{"site":"KRAX","name":"Raleigh NC","scan_time":"2026-08-25T10:02:56Z","stale":false,"bins":25,"density_birds_km3":6.699375,"heading_deg":212.15212274878544,"speed_ms":10.14085362440526,"peak_altitude_m":200.0,"u_ms":-5.485577012781042,"v_ms":-8.412422800634388}},{"type":"Feature","geometry":{"type":"Point","coordinates":[-82.4017,27.7055]},"properties":{"site":"KTBW","name":"Tampa FL","scan_time":"2026-08-25T10:00:18Z","stale":false,"bins":25,"density_birds_km3":3.6856250000000004,"heading_deg":272.1237653476036,"speed_ms":2.5514775233248517,"peak_altitude_m":0.0,"u_ms":-1.5221441899915185,"v_ms":0.20430534351145047}}]}