{"type":"FeatureCollection","frame":"2026-10-09T08","site_count":20,"fresh_count":20,"failures":{},"features":[{"type":"Feature","geometry":{"type":"Point","coordinates":[-77.0073,36.984]},"properties":{"site":"KAKQ","name":"Wakefield VA","scan_time":"2026-10-09T07:59:46Z","stale":false,"bins":25,"density_birds_km3":19.7125,"heading_deg":201.3618852541166,"speed_ms":10.315596423362294,"peak_altitude_m":0.0,"u_ms":-3.7552974189866197,"v_ms":-9.57818568076606}},{"type":"Feature","geometry":{"type":"Point","coordinates":[-71.1369,41.9558]},"properties":{"site":"KBOX","name":"Boston MA","scan_time":"2026-10-09T08:03:14Z","stale":false,"bins":25,"density_birds_km3":1.11375,"heading_deg":111.115326227548,"speed_ms":9.513043234138124,"peak_altitude_m":0.0,"u_ms":8.860505334081976,"v_ms":-3.4450028074115666}},{"type":"Feature","geometry":{"type":"Point","coordinates":[-78.7369,42.9489]},"properties":{"site":"KBUF","name":"Buffalo NY","scan_time":"2026-10-09T07:57:35Z","stale":false,"bins":25,"density_birds_km3":3.1053333333333333,"heading_deg":165.07051992039067,"speed_ms":9.817577839811038,"peak_altitude_m":400.0,"u_ms":2.4225832080738674,"v_ms":-9.41170925488512}},{"type":"Feature","geometry":{"type":"Point","coordinates":[-81.8597,41.4131]},"properties":{"site":"KCLE","name":"Cleveland OH","scan_time":"2026-10-09T08:02:43Z","stale":false,"bins":25,"density_birds_km3":7.374666666666667,"heading_deg":192.18755610575198,"speed_ms":8.841463568974868,"peak_altitude_m":200.0,"u_ms":-1.861357801482553,"v_ms":-8.598703670222383}},{"type":"Feature","geometry":{"type":"Point","coordinates":[-81.0423,32.6555]},"properties":{"site":"KCLX","name":"Charleston SC","scan_time":"2026-10-09T07:59:51Z","stale":false,"bins":25,"density_birds_km3":15.65625,"heading_deg":207.4962643474351,"speed_ms":10.380946107784432,"peak_altitude_m":200.0,"u_ms":-4.697805588822356,"v_ms":-9.205687025948105}},{"type":"Feature","geometry":{"type":"Point","coordinates":[-74.4108,39.947]},"properties":{"site":"KDIX","name":"Philadelphia PA","scan_time":"2026-10-09T08:02:57Z","stale":false,"bins":25,"density_birds_km3":17.251875,"heading_deg":211.77207993972075,"speed_ms":8.833452523276456,"peak_altitude_m":0.0,"u_ms":-4.61351882041807,"v_ms":-7.442617106836215}},{"type":"Feature","geometry":{"type":"Point","coordinates":[-84.5658,33.3636]},"properties":{"site":"KFFC","name":"Atlanta GA","scan_time":"2026-10-09T07:59:32Z","stale":false,"bins":25,"density_birds_km3":97.71733333333333,"heading_deg":220.1542084845812,"speed_ms":9.384730856347561,"peak_altitude_m":200.0,"u_ms":-6.1295799448750135,"v_ms":-6.911131904268093}},{"type":"Feature","geometry":{"type":"Point","coordinates":[-85.5449,42.8939]},"properties":{"site":"KGRR","name":"Grand Rapids MI","scan_time":"2026-10-09T08:02:42Z","stale":false,"bins":25,"density_birds_km3":1.6533333333333333,"heading_deg":95.13391933981458,"speed_ms":5.479157258064516,"peak_altitude_m":400.0,"u_ms":4.32736693548387,"v_ms":-0.8539153225806451}},{"type":"Feature","geometry":{"type":"Point","coordinates":[-83.8217,39.4203]},"properties":{"site":"KILN","name":"Wilmington OH","scan_time":"2026-10-09T08:01:16Z","stale":false,"bins":25,"density_birds_km3":41.884,"heading_deg":208.55697646617074,"speed_ms":8.560778683305744,"peak_altitude_m":400.0,"u_ms":-3.609249172290844,"v_ms":-7.1009623710683805}},{"type":"Feature","geometry":{"type":"Point","coordinates":[-81.7019,30.4846]},"properties":{"site":"KJAX","name":"Jacksonville FL","scan_time":"2026-10-09T08:00:26Z","stale":false,"bins":25,"density_birds_km3":34.040625,"heading_deg":211.3327785693428,"speed_ms":5.432288526155371,"peak_altitude_m":0.0,"u_ms":-2.719458347869195,"v_ms":-4.4233988212180755}},{"type":"Feature","geometry":{"type":"Point","coordinates":[-88.0847,41.6045]},"properties":{"site":"KLOT","name":"Chicago IL","scan_time":"2026-10-09T08:00:36Z","stale":false,"bins":25,"density_birds_km3":4.268,"heading_deg":276.8771985798001,"speed_ms":6.90544673539519,"peak_altitude_m":400.0,"u_ms":-4.510184317400813,"v_ms":1.4957669478288034}},{"type":"Feature","geometry":{"type":"Point","coordinates":[-78.4292,33.9892]},"properties":{"site":"KLTX","name":"Wilmington NC","scan_time":"2026-10-09T07:58:29Z","stale":false,"bins":25,"density_birds_km3":28.41625,"heading_deg":181.45497325561416,"speed_ms":9.221453173800201,"peak_altitude_m":0.0,"u_ms":-0.2969535477059781,"v_ms":-9.120394140676549}},{"type":"Feature","geometry":{"type":"Point","coordinates":[-77.4778,38.9753]},"properties":{"site":"KLWX","name":"Sterling VA","scan_time":"2026-10-09T08:00:58Z","stale":false,"bins":25,"density_birds_km3":31.063125000000003,"heading_deg":218.81235702653711,"speed_ms":6.112716553652992,"peak_altitude_m":400.0,"u_ms":-3.566510996197107,"v_ms":-4.5536692891205055}},{"type":"Feature","geometry":{"type":"Point","coordinates":[-76.8762,34.7759]},"properties":{"site":"KMHX","name":"Morehead City NC","scan_time":"2026-10-09T08:02:08Z","stale":false,"bins":25,"density_birds_km3":18.448125,"heading_deg":156.264637388265,"speed_ms":8.123506911505624,"peak_altitude_m":0.0,"u_ms":2.729786217644667,"v_ms":-7.075045060306274}},{"type":"Feature","geometry":{"type":"Point","coordinates":[-80.6542,28.1133]},"properties":{"site":"KMLB","name":"Melbourne FL","scan_time":"2026-10-09T07:58:14Z","stale":false,"bins":25,"density_birds_km3":3.67875,"heading_deg":266.3199671219916,"speed_ms":4.4334590553856605,"peak_altitude_m":200.0,"u_ms":-4.14517669045192,"v_ms":-0.11557934080869865}},{"type":"Feature","geometry":{"type":"Point","coordinates":[-86.5625,36.2472]},"properties":{"site":"KOHX","name":"Nashville TN","scan_time":"2026-10-09T07:59:22Z","stale":false,"bins":25,"density_birds_km3":28.093999999999998,"heading_deg":236.29564768468788,"speed_ms":10.132328136494152,"peak_altitude_m":200.0,"u_ms":-8.282986640089224,"v_ms":-5.5424334970693625}},{"type":"Feature","geometry":{"type":"Point","coordinates":[-72.8639,40.8655]},"properties":{"site":"KOKX","name":"Upton NY","scan_time":"2026-10-09T07:59:28Z","stale":false,"bins":25,"density_birds_km3":4.626875,"heading_deg":132.85061074254645,"speed_ms":5.313909225989463,"peak_altitude_m":0.0,"u_ms":3.5689990544373904,"v_ms":-3.735894907469945}},{"type":"Feature","geometry":{"type":"Point","coordinates":[-80.2183,40.5317]},"properties":{"site":"KPBZ","name":"Pittsburgh PA","scan_time":"2026-10-09T08:00:29Z","stale":false,"bins":25,"density_birds_km3":7.5371428571428565,"heading_deg":159.8127182612055,"speed_ms":7.244627558756635,"peak_altitude_m":800.0,"u_ms":2.0132382486732374,"v_ms":-6.879050416982563}},{"type":"Feature","geometry":{"type":"Point","coordinates":[-78.4899,35.6655]},"properties":{"site":"KRAX","name":"Raleigh NC","scan_time":"2026-10-09T08:02:02Z","stale":false,"bins":25,"density_birds_km3":35.808125,"heading_deg":193.45769642731614,"speed_ms":12.266091950010473,"peak_altitude_m":200.0,"u_ms":-2.8698434336382044,"v_ms":-11.875212420582281}},{"type":"Feature","geometry":{"type":"Point","coordinates":[-82.4017,27.7055]},"properties":{"site":"KTBW","name":"Tampa FL","scan_time":"2026-10-09T07:58:54Z","stale":false,"bins":25,"density_birds_km3":11.58875,"heading_deg":227.2354367838697,"speed_ms":4.7290615392913,"peak_altitude_m":0.0,"u_ms":-3.468431584056955,"v_ms":-2.5724443126044982}}]}