{"type":"FeatureCollection","frame":"2026-08-22T06","site_count":20,"fresh_count":20,"failures":{},"features":[{"type":"Feature","geometry":{"type":"Point","coordinates":[-77.0073,36.984]},"properties":{"site":"KAKQ","name":"Wakefield VA","scan_time":"2026-08-22T06:02:07Z","stale":false,"bins":25,"density_birds_km3":4.616875,"heading_deg":190.74748107693836,"speed_ms":2.7179991844501834,"peak_altitude_m":200.0,"u_ms":-0.3705273888813376,"v_ms":-1.8823392687236644}},{"type":"Feature","geometry":{"type":"Point","coordinates":[-71.1369,41.9558]},"properties":{"site":"KBOX","name":"Boston MA","scan_time":"2026-08-22T05:59:11Z","stale":false,"bins":25,"density_birds_km3":5.748749999999999,"heading_deg":182.35731644935825,"speed_ms":9.255767598737895,"peak_altitude_m":0.0,"u_ms":-0.25418452834294425,"v_ms":-9.027856598846698}},{"type":"Feature","geometry":{"type":"Point","coordinates":[-78.7369,42.9489]},"properties":{"site":"KBUF","name":"Buffalo NY","scan_time":"2026-08-22T05:59:37Z","stale":false,"bins":25,"density_birds_km3":1.588666666666667,"heading_deg":325.75223746181655,"speed_ms":9.180163659253042,"peak_altitude_m":200.0,"u_ms":-5.112811582039447,"v_ms":7.310234997901805}},{"type":"Feature","geometry":{"type":"Point","coordinates":[-81.8597,41.4131]},"properties":{"site":"KCLE","name":"Cleveland OH","scan_time":"2026-08-22T06:00:47Z","stale":false,"bins":25,"density_birds_km3":1.932,"heading_deg":347.88567719022745,"speed_ms":8.694607944732297,"peak_altitude_m":200.0,"u_ms":-1.5784870466321246,"v_ms":8.316428324697755}},{"type":"Feature","geometry":{"type":"Point","coordinates":[-81.0423,32.6555]},"properties":{"site":"KCLX","name":"Charleston SC","scan_time":"2026-08-22T05:58:10Z","stale":false,"bins":25,"density_birds_km3":3.579375,"heading_deg":128.65204347981162,"speed_ms":4.3585859115539245,"peak_altitude_m":200.0,"u_ms":3.38047194546408,"v_ms":-2.649966789022898}},{"type":"Feature","geometry":{"type":"Point","coordinates":[-74.4108,39.947]},"properties":{"site":"KDIX","name":"Philadelphia PA","scan_time":"2026-08-22T05:59:36Z","stale":false,"bins":25,"density_birds_km3":9.010625,"heading_deg":222.0902607029787,"speed_ms":6.08390507910075,"peak_altitude_m":400.0,"u_ms":-4.054088259783514,"v_ms":-4.430552317513183}},{"type":"Feature","geometry":{"type":"Point","coordinates":[-84.5658,33.3636]},"properties":{"site":"KFFC","name":"Atlanta GA","scan_time":"2026-08-22T05:58:22Z","stale":false,"bins":25,"density_birds_km3":19.62066666666667,"heading_deg":185.26157683582156,"speed_ms":4.29024362067208,"peak_altitude_m":1200.0,"u_ms":-0.5602935680065237,"v_ms":-3.014022629200503}},{"type":"Feature","geometry":{"type":"Point","coordinates":[-85.5449,42.8939]},"properties":{"site":"KGRR","name":"Grand Rapids MI","scan_time":"2026-08-22T06:02:32Z","stale":false,"bins":25,"density_birds_km3":0.5713333333333334,"heading_deg":14.980994643117953,"speed_ms":8.336884480746791,"peak_altitude_m":200.0,"u_ms":2.1200933488914817,"v_ms":7.661411901983665}},{"type":"Feature","geometry":{"type":"Point","coordinates":[-83.8217,39.4203]},"properties":{"site":"KILN","name":"Wilmington OH","scan_time":"2026-08-22T06:00:51Z","stale":false,"bins":25,"density_birds_km3":4.359333333333334,"heading_deg":14.917264383678338,"speed_ms":5.860740627390972,"peak_altitude_m":200.0,"u_ms":0.7461820964039788,"v_ms":4.187332823259373}},{"type":"Feature","geometry":{"type":"Point","coordinates":[-81.7019,30.4846]},"properties":{"site":"KJAX","name":"Jacksonville FL","scan_time":"2026-08-22T06:00:56Z","stale":false,"bins":25,"density_birds_km3":12.44,"heading_deg":175.27608600647363,"speed_ms":3.1393186956740187,"peak_altitude_m":0.0,"u_ms":0.7773953675325326,"v_ms":-2.66699241320404}},{"type":"Feature","geometry":{"type":"Point","coordinates":[-88.0847,41.6045]},"properties":{"site":"KLOT","name":"Chicago IL","scan_time":"2026-08-22T05:59:05Z","stale":false,"bins":25,"density_birds_km3":3.848666666666667,"heading_deg":119.49697274817738,"speed_ms":9.465007797608733,"peak_altitude_m":600.0,"u_ms":7.4879293016808175,"v_ms":-4.646373245538035}},{"type":"Feature","geometry":{"type":"Point","coordinates":[-78.4292,33.9892]},"properties":{"site":"KLTX","name":"Wilmington NC","scan_time":"2026-08-22T05:58:24Z","stale":false,"bins":25,"density_birds_km3":2.0275,"heading_deg":null,"speed_ms":null,"peak_altitude_m":200.0,"u_ms":null,"v_ms":null}},{"type":"Feature","geometry":{"type":"Point","coordinates":[-77.4778,38.9753]},"properties":{"site":"KLWX","name":"Sterling VA","scan_time":"2026-08-22T06:00:49Z","stale":false,"bins":25,"density_birds_km3":5.110625,"heading_deg":268.04100513002186,"speed_ms":4.141844648318043,"peak_altitude_m":200.0,"u_ms":-3.994247094801223,"v_ms":-0.19920366972477066}},{"type":"Feature","geometry":{"type":"Point","coordinates":[-76.8762,34.7759]},"properties":{"site":"KMHX","name":"Morehead City NC","scan_time":"2026-08-22T05:58:40Z","stale":false,"bins":25,"density_birds_km3":1.543125,"heading_deg":273.6535835018128,"speed_ms":2.91003645200486,"peak_altitude_m":200.0,"u_ms":-2.3725678412312674,"v_ms":0.1913406237343054}},{"type":"Feature","geometry":{"type":"Point","coordinates":[-80.6542,28.1133]},"properties":{"site":"KMLB","name":"Melbourne FL","scan_time":"2026-08-22T06:01:12Z","stale":false,"bins":25,"density_birds_km3":5.7825,"heading_deg":43.34954913727133,"speed_ms":4.088218570965301,"peak_altitude_m":200.0,"u_ms":2.7686314992973733,"v_ms":2.8932061398767703}},{"type":"Feature","geometry":{"type":"Point","coordinates":[-86.5625,36.2472]},"properties":{"site":"KOHX","name":"Nashville TN","scan_time":"2026-08-22T05:57:55Z","stale":false,"bins":25,"density_birds_km3":33.16133333333333,"heading_deg":222.20630073742035,"speed_ms":4.941277994451369,"peak_altitude_m":400.0,"u_ms":-3.1789302802460697,"v_ms":-3.4704143379839976}},{"type":"Feature","geometry":{"type":"Point","coordinates":[-72.8639,40.8655]},"properties":{"site":"KOKX","name":"Upton NY","scan_time":"2026-08-22T05:56:52Z","stale":false,"bins":25,"density_birds_km3":1.855,"heading_deg":225.16275846664539,"speed_ms":4.732040675629093,"peak_altitude_m":0.0,"u_ms":-3.264546708031713,"v_ms":-3.2620854877628402}},{"type":"Feature","geometry":{"type":"Point","coordinates":[-80.2183,40.5317]},"properties":{"site":"KPBZ","name":"Pittsburgh PA","scan_time":"2026-08-22T06:00:06Z","stale":false,"bins":25,"density_birds_km3":2.8757142857142854,"heading_deg":289.87967066306544,"speed_ms":4.663308494783905,"peak_altitude_m":400.0,"u_ms":-3.190983606557378,"v_ms":1.769441132637854}},{"type":"Feature","geometry":{"type":"Point","coordinates":[-78.4899,35.6655]},"properties":{"site":"KRAX","name":"Raleigh NC","scan_time":"2026-08-22T05:58:32Z","stale":false,"bins":25,"density_birds_km3":4.530625,"heading_deg":183.08846356044657,"speed_ms":4.02753453038674,"peak_altitude_m":200.0,"u_ms":-0.3858066298342541,"v_ms":-3.653599447513812}},{"type":"Feature","geometry":{"type":"Point","coordinates":[-82.4017,27.7055]},"properties":{"site":"KTBW","name":"Tampa FL","scan_time":"2026-08-22T05:59:24Z","stale":false,"bins":25,"density_birds_km3":2.48,"heading_deg":219.56046857476426,"speed_ms":3.821792024230186,"peak_altitude_m":0.0,"u_ms":-1.4458934881373042,"v_ms":-2.6272488642099945}}]}