{"type":"FeatureCollection","frame":"2026-08-29T05","site_count":20,"fresh_count":20,"failures":{},"features":[{"type":"Feature","geometry":{"type":"Point","coordinates":[-77.0073,36.984]},"properties":{"site":"KAKQ","name":"Wakefield VA","scan_time":"2026-08-29T05:00:00Z","stale":false,"bins":25,"density_birds_km3":18.944375,"heading_deg":199.38590317305912,"speed_ms":8.284075882547015,"peak_altitude_m":400.0,"u_ms":-3.0238165621906963,"v_ms":-7.538044539755856}},{"type":"Feature","geometry":{"type":"Point","coordinates":[-71.1369,41.9558]},"properties":{"site":"KBOX","name":"Boston MA","scan_time":"2026-08-29T04:57:45Z","stale":false,"bins":25,"density_birds_km3":18.218125,"heading_deg":183.89797334695726,"speed_ms":12.03907749837044,"peak_altitude_m":400.0,"u_ms":-0.8483718137843493,"v_ms":-11.95245565885622}},{"type":"Feature","geometry":{"type":"Point","coordinates":[-78.7369,42.9489]},"properties":{"site":"KBUF","name":"Buffalo NY","scan_time":"2026-08-29T04:57:10Z","stale":false,"bins":25,"density_birds_km3":18.435333333333332,"heading_deg":172.9005812706105,"speed_ms":9.160365602285468,"peak_altitude_m":400.0,"u_ms":1.1028948034571295,"v_ms":-9.069281813908075}},{"type":"Feature","geometry":{"type":"Point","coordinates":[-81.8597,41.4131]},"properties":{"site":"KCLE","name":"Cleveland OH","scan_time":"2026-08-29T04:58:44Z","stale":false,"bins":25,"density_birds_km3":5.938,"heading_deg":252.97587927627956,"speed_ms":7.379663072776281,"peak_altitude_m":400.0,"u_ms":-6.229788858939802,"v_ms":-1.7034961814914649}},{"type":"Feature","geometry":{"type":"Point","coordinates":[-81.0423,32.6555]},"properties":{"site":"KCLX","name":"Charleston SC","scan_time":"2026-08-29T04:59:24Z","stale":false,"bins":25,"density_birds_km3":2.24125,"heading_deg":214.58709825296665,"speed_ms":2.232165178571429,"peak_altitude_m":0.0,"u_ms":-1.1619838169642858,"v_ms":-1.79685546875}},{"type":"Feature","geometry":{"type":"Point","coordinates":[-74.4108,39.947]},"properties":{"site":"KDIX","name":"Philadelphia PA","scan_time":"2026-08-29T04:57:00Z","stale":false,"bins":25,"density_birds_km3":55.644375,"heading_deg":205.01496064308452,"speed_ms":12.771736257809339,"peak_altitude_m":400.0,"u_ms":-5.399059171198704,"v_ms":-11.530757786866824}},{"type":"Feature","geometry":{"type":"Point","coordinates":[-84.5658,33.3636]},"properties":{"site":"KFFC","name":"Atlanta GA","scan_time":"2026-08-29T04:57:48Z","stale":false,"bins":25,"density_birds_km3":20.63,"heading_deg":314.92593477137507,"speed_ms":3.090729358539344,"peak_altitude_m":200.0,"u_ms":-0.6048631442882534,"v_ms":-0.8162633704960415}},{"type":"Feature","geometry":{"type":"Point","coordinates":[-85.5449,42.8939]},"properties":{"site":"KGRR","name":"Grand Rapids MI","scan_time":"2026-08-29T05:03:27Z","stale":false,"bins":25,"density_birds_km3":9.098666666666666,"heading_deg":7.958930826784167,"speed_ms":6.055867526377491,"peak_altitude_m":200.0,"u_ms":0.735180246189918,"v_ms":4.980600087924971}},{"type":"Feature","geometry":{"type":"Point","coordinates":[-83.8217,39.4203]},"properties":{"site":"KILN","name":"Wilmington OH","scan_time":"2026-08-29T05:02:52Z","stale":false,"bins":25,"density_birds_km3":20.974,"heading_deg":245.20830836082553,"speed_ms":10.197351006007436,"peak_altitude_m":200.0,"u_ms":-8.98591239947872,"v_ms":-4.136967674263373}},{"type":"Feature","geometry":{"type":"Point","coordinates":[-81.7019,30.4846]},"properties":{"site":"KJAX","name":"Jacksonville FL","scan_time":"2026-08-29T04:57:43Z","stale":false,"bins":25,"density_birds_km3":6.193125,"heading_deg":181.81806516961683,"speed_ms":4.357304470683217,"peak_altitude_m":200.0,"u_ms":0.021920476334645275,"v_ms":-4.346232717731355}},{"type":"Feature","geometry":{"type":"Point","coordinates":[-88.0847,41.6045]},"properties":{"site":"KLOT","name":"Chicago IL","scan_time":"2026-08-29T05:02:01Z","stale":false,"bins":25,"density_birds_km3":6.62,"heading_deg":113.97555133585077,"speed_ms":7.186009484411261,"peak_altitude_m":400.0,"u_ms":5.232682877610736,"v_ms":-3.212743416406014}},{"type":"Feature","geometry":{"type":"Point","coordinates":[-78.4292,33.9892]},"properties":{"site":"KLTX","name":"Wilmington NC","scan_time":"2026-08-29T04:58:00Z","stale":false,"bins":25,"density_birds_km3":3.0558333333333336,"heading_deg":null,"speed_ms":null,"peak_altitude_m":200.0,"u_ms":null,"v_ms":null}},{"type":"Feature","geometry":{"type":"Point","coordinates":[-77.4778,38.9753]},"properties":{"site":"KLWX","name":"Sterling VA","scan_time":"2026-08-29T04:58:05Z","stale":false,"bins":25,"density_birds_km3":44.644375,"heading_deg":209.30645170215735,"speed_ms":10.25397627151882,"peak_altitude_m":400.0,"u_ms":-4.991260523035117,"v_ms":-8.859554985922596}},{"type":"Feature","geometry":{"type":"Point","coordinates":[-76.8762,34.7759]},"properties":{"site":"KMHX","name":"Morehead City NC","scan_time":"2026-08-29T05:01:26Z","stale":false,"bins":25,"density_birds_km3":2.439375,"heading_deg":125.53006378963339,"speed_ms":4.109077632590314,"peak_altitude_m":200.0,"u_ms":3.245762234178837,"v_ms":-2.0296874199333845}},{"type":"Feature","geometry":{"type":"Point","coordinates":[-80.6542,28.1133]},"properties":{"site":"KMLB","name":"Melbourne FL","scan_time":"2026-08-29T04:58:15Z","stale":false,"bins":25,"density_birds_km3":7.3625,"heading_deg":145.59882757737998,"speed_ms":3.86991935483871,"peak_altitude_m":0.0,"u_ms":1.484116298811545,"v_ms":-3.2176561969439725}},{"type":"Feature","geometry":{"type":"Point","coordinates":[-86.5625,36.2472]},"properties":{"site":"KOHX","name":"Nashville TN","scan_time":"2026-08-29T05:00:19Z","stale":false,"bins":25,"density_birds_km3":53.82733333333333,"heading_deg":233.79246283178722,"speed_ms":10.96097199687891,"peak_altitude_m":400.0,"u_ms":-8.866671827200555,"v_ms":-6.118587582516938}},{"type":"Feature","geometry":{"type":"Point","coordinates":[-72.8639,40.8655]},"properties":{"site":"KOKX","name":"Upton NY","scan_time":"2026-08-29T04:59:59Z","stale":false,"bins":25,"density_birds_km3":16.07,"heading_deg":200.15162459068873,"speed_ms":10.184977195649632,"peak_altitude_m":200.0,"u_ms":-3.489717381982614,"v_ms":-9.446934081783809}},{"type":"Feature","geometry":{"type":"Point","coordinates":[-80.2183,40.5317]},"properties":{"site":"KPBZ","name":"Pittsburgh PA","scan_time":"2026-08-29T05:00:56Z","stale":false,"bins":25,"density_birds_km3":17.842142857142857,"heading_deg":216.1447638892588,"speed_ms":9.575891920041663,"peak_altitude_m":600.0,"u_ms":-6.009053799623443,"v_ms":-7.164892440812402}},{"type":"Feature","geometry":{"type":"Point","coordinates":[-78.4899,35.6655]},"properties":{"site":"KRAX","name":"Raleigh NC","scan_time":"2026-08-29T04:59:48Z","stale":false,"bins":25,"density_birds_km3":22.64625,"heading_deg":193.53287179845083,"speed_ms":7.772679325476775,"peak_altitude_m":400.0,"u_ms":-1.3657773300582343,"v_ms":-7.2666618828140095}},{"type":"Feature","geometry":{"type":"Point","coordinates":[-82.4017,27.7055]},"properties":{"site":"KTBW","name":"Tampa FL","scan_time":"2026-08-29T05:00:19Z","stale":false,"bins":25,"density_birds_km3":5.0625,"heading_deg":242.1584782596143,"speed_ms":5.714384881422924,"peak_altitude_m":200.0,"u_ms":-4.644151432806324,"v_ms":-2.6639365118577074}}]}