{"type":"FeatureCollection","frame":"2026-09-24T05","site_count":20,"fresh_count":20,"failures":{},"features":[{"type":"Feature","geometry":{"type":"Point","coordinates":[-77.0073,36.984]},"properties":{"site":"KAKQ","name":"Wakefield VA","scan_time":"2026-09-24T05:00:35Z","stale":false,"bins":25,"density_birds_km3":61.188125,"heading_deg":180.2255716733396,"speed_ms":13.764185465995483,"peak_altitude_m":0.0,"u_ms":-0.28184109129326945,"v_ms":-13.567353489528308}},{"type":"Feature","geometry":{"type":"Point","coordinates":[-71.1369,41.9558]},"properties":{"site":"KBOX","name":"Boston MA","scan_time":"2026-09-24T05:00:23Z","stale":false,"bins":25,"density_birds_km3":0.483125,"heading_deg":230.38498412594856,"speed_ms":9.402552083333333,"peak_altitude_m":0.0,"u_ms":-7.2680078125,"v_ms":-5.875442708333333}},{"type":"Feature","geometry":{"type":"Point","coordinates":[-78.7369,42.9489]},"properties":{"site":"KBUF","name":"Buffalo NY","scan_time":"2026-09-24T05:01:33Z","stale":false,"bins":25,"density_birds_km3":12.714666666666666,"heading_deg":253.54504114254883,"speed_ms":9.241798972315436,"peak_altitude_m":200.0,"u_ms":-8.712651006711408,"v_ms":-2.4705699454697982}},{"type":"Feature","geometry":{"type":"Point","coordinates":[-81.8597,41.4131]},"properties":{"site":"KCLE","name":"Cleveland OH","scan_time":"2026-09-24T04:59:12Z","stale":false,"bins":25,"density_birds_km3":47.11866666666666,"heading_deg":254.32374142496667,"speed_ms":10.854264410424744,"peak_altitude_m":200.0,"u_ms":-10.158765386683267,"v_ms":-2.3676337757152153}},{"type":"Feature","geometry":{"type":"Point","coordinates":[-81.0423,32.6555]},"properties":{"site":"KCLX","name":"Charleston SC","scan_time":"2026-09-24T04:58:44Z","stale":false,"bins":25,"density_birds_km3":11.615,"heading_deg":215.00971377903426,"speed_ms":11.350928955866523,"peak_altitude_m":0.0,"u_ms":-6.587252421959096,"v_ms":-9.168537136706135}},{"type":"Feature","geometry":{"type":"Point","coordinates":[-74.4108,39.947]},"properties":{"site":"KDIX","name":"Philadelphia PA","scan_time":"2026-09-24T04:57:21Z","stale":false,"bins":25,"density_birds_km3":15.118125,"heading_deg":220.89178878902442,"speed_ms":18.22716092054603,"peak_altitude_m":200.0,"u_ms":-12.032343367168359,"v_ms":-13.574885369268463}},{"type":"Feature","geometry":{"type":"Point","coordinates":[-84.5658,33.3636]},"properties":{"site":"KFFC","name":"Atlanta GA","scan_time":"2026-09-24T04:58:27Z","stale":false,"bins":25,"density_birds_km3":17.188666666666666,"heading_deg":229.82857638355785,"speed_ms":8.738360935500136,"peak_altitude_m":600.0,"u_ms":-5.839639685063803,"v_ms":-5.310664779118024}},{"type":"Feature","geometry":{"type":"Point","coordinates":[-85.5449,42.8939]},"properties":{"site":"KGRR","name":"Grand Rapids MI","scan_time":"2026-09-24T04:59:52Z","stale":false,"bins":25,"density_birds_km3":12.604666666666667,"heading_deg":246.14617470682833,"speed_ms":13.303240069815411,"peak_altitude_m":200.0,"u_ms":-11.85774580843074,"v_ms":-4.8538245094409485}},{"type":"Feature","geometry":{"type":"Point","coordinates":[-83.8217,39.4203]},"properties":{"site":"KILN","name":"Wilmington OH","scan_time":"2026-09-24T04:59:18Z","stale":false,"bins":25,"density_birds_km3":64.784,"heading_deg":220.34447827041961,"speed_ms":10.45122937913575,"peak_altitude_m":200.0,"u_ms":-6.332014489919831,"v_ms":-7.511362134793302}},{"type":"Feature","geometry":{"type":"Point","coordinates":[-81.7019,30.4846]},"properties":{"site":"KJAX","name":"Jacksonville FL","scan_time":"2026-09-24T04:58:45Z","stale":false,"bins":25,"density_birds_km3":46.575,"heading_deg":191.5199604353896,"speed_ms":15.388427925328466,"peak_altitude_m":200.0,"u_ms":-3.258959913035309,"v_ms":-14.932438366459543}},{"type":"Feature","geometry":{"type":"Point","coordinates":[-88.0847,41.6045]},"properties":{"site":"KLOT","name":"Chicago IL","scan_time":"2026-09-24T05:02:57Z","stale":false,"bins":25,"density_birds_km3":49.885,"heading_deg":191.8475243704321,"speed_ms":11.066110959631475,"peak_altitude_m":200.0,"u_ms":-3.372029045821793,"v_ms":-6.369690598854813}},{"type":"Feature","geometry":{"type":"Point","coordinates":[-78.4292,33.9892]},"properties":{"site":"KLTX","name":"Wilmington NC","scan_time":"2026-09-24T04:58:06Z","stale":false,"bins":25,"density_birds_km3":3.460625,"heading_deg":213.23874242524374,"speed_ms":12.13443179765131,"peak_altitude_m":0.0,"u_ms":-6.905353206865402,"v_ms":-9.886807588075879}},{"type":"Feature","geometry":{"type":"Point","coordinates":[-77.4778,38.9753]},"properties":{"site":"KLWX","name":"Sterling VA","scan_time":"2026-09-24T05:00:57Z","stale":false,"bins":25,"density_birds_km3":78.89375,"heading_deg":212.91599138649204,"speed_ms":13.47470099825701,"peak_altitude_m":200.0,"u_ms":-7.380276263666614,"v_ms":-10.755340199651403}},{"type":"Feature","geometry":{"type":"Point","coordinates":[-76.8762,34.7759]},"properties":{"site":"KMHX","name":"Morehead City NC","scan_time":"2026-09-24T05:01:48Z","stale":false,"bins":25,"density_birds_km3":1.8925,"heading_deg":192.6196459031169,"speed_ms":14.996945178335535,"peak_altitude_m":0.0,"u_ms":-3.3005449141347425,"v_ms":-14.614699471598415}},{"type":"Feature","geometry":{"type":"Point","coordinates":[-80.6542,28.1133]},"properties":{"site":"KMLB","name":"Melbourne FL","scan_time":"2026-09-24T05:02:23Z","stale":false,"bins":25,"density_birds_km3":17.12625,"heading_deg":153.8650286732655,"speed_ms":10.253324939785418,"peak_altitude_m":0.0,"u_ms":4.494600394131815,"v_ms":-9.154116122910736}},{"type":"Feature","geometry":{"type":"Point","coordinates":[-86.5625,36.2472]},"properties":{"site":"KOHX","name":"Nashville TN","scan_time":"2026-09-24T05:00:19Z","stale":false,"bins":25,"density_birds_km3":20.796,"heading_deg":201.53493170332985,"speed_ms":7.13281720843752,"peak_altitude_m":200.0,"u_ms":-2.5769811502211963,"v_ms":-5.962409117137911}},{"type":"Feature","geometry":{"type":"Point","coordinates":[-72.8639,40.8655]},"properties":{"site":"KOKX","name":"Upton NY","scan_time":"2026-09-24T05:00:18Z","stale":false,"bins":25,"density_birds_km3":0.628125,"heading_deg":241.23888678794378,"speed_ms":15.55936127744511,"peak_altitude_m":200.0,"u_ms":-13.683992015968064,"v_ms":-7.303672654690619}},{"type":"Feature","geometry":{"type":"Point","coordinates":[-80.2183,40.5317]},"properties":{"site":"KPBZ","name":"Pittsburgh PA","scan_time":"2026-09-24T04:58:55Z","stale":false,"bins":25,"density_birds_km3":56.582142857142856,"heading_deg":239.78827287318896,"speed_ms":11.34512383118524,"peak_altitude_m":400.0,"u_ms":-9.647784053575942,"v_ms":-5.485154788981551}},{"type":"Feature","geometry":{"type":"Point","coordinates":[-78.4899,35.6655]},"properties":{"site":"KRAX","name":"Raleigh NC","scan_time":"2026-09-24T05:02:17Z","stale":false,"bins":25,"density_birds_km3":12.92125,"heading_deg":207.49914789583067,"speed_ms":13.422110508999419,"peak_altitude_m":200.0,"u_ms":-6.245424327462744,"v_ms":-11.869786142829495}},{"type":"Feature","geometry":{"type":"Point","coordinates":[-82.4017,27.7055]},"properties":{"site":"KTBW","name":"Tampa FL","scan_time":"2026-09-24T05:00:31Z","stale":false,"bins":25,"density_birds_km3":25.396250000000002,"heading_deg":181.5121273919781,"speed_ms":11.08457597086184,"peak_altitude_m":200.0,"u_ms":-0.37242309396072243,"v_ms":-11.007588472707583}}]}