{"type":"FeatureCollection","frame":"2026-09-16T04","site_count":20,"fresh_count":19,"failures":{"KDIX":"RuntimeError('no scan within 20 min of 2026-09-16T04:00Z')"},"features":[{"type":"Feature","geometry":{"type":"Point","coordinates":[-77.0073,36.984]},"properties":{"site":"KAKQ","name":"Wakefield VA","scan_time":"2026-09-16T03:58:43Z","stale":false,"bins":25,"density_birds_km3":7.879375,"heading_deg":260.1844619509261,"speed_ms":6.507526984126984,"peak_altitude_m":0.0,"u_ms":-3.2475817460317464,"v_ms":-1.0315238095238095}},{"type":"Feature","geometry":{"type":"Point","coordinates":[-71.1369,41.9558]},"properties":{"site":"KBOX","name":"Boston MA","scan_time":"2026-09-16T03:58:49Z","stale":false,"bins":25,"density_birds_km3":1.6781249999999999,"heading_deg":16.491313982076626,"speed_ms":5.460756615728662,"peak_altitude_m":0.0,"u_ms":1.4895900111815132,"v_ms":5.209023481177787}},{"type":"Feature","geometry":{"type":"Point","coordinates":[-78.7369,42.9489]},"properties":{"site":"KBUF","name":"Buffalo NY","scan_time":"2026-09-16T03:56:56Z","stale":false,"bins":25,"density_birds_km3":2.7786666666666666,"heading_deg":48.81301825818734,"speed_ms":4.469018714011516,"peak_altitude_m":200.0,"u_ms":3.3855110364683303,"v_ms":2.7226847408829173}},{"type":"Feature","geometry":{"type":"Point","coordinates":[-81.8597,41.4131]},"properties":{"site":"KCLE","name":"Cleveland OH","scan_time":"2026-09-16T03:58:04Z","stale":false,"bins":25,"density_birds_km3":2.7046666666666668,"heading_deg":25.629240279229165,"speed_ms":10.908442198668967,"peak_altitude_m":200.0,"u_ms":4.985992112398324,"v_ms":8.720677840769042}},{"type":"Feature","geometry":{"type":"Point","coordinates":[-81.0423,32.6555]},"properties":{"site":"KCLX","name":"Charleston SC","scan_time":"2026-09-16T04:00:50Z","stale":false,"bins":25,"density_birds_km3":30.909374999999997,"heading_deg":223.4002509718471,"speed_ms":10.867078829102393,"peak_altitude_m":0.0,"u_ms":-6.811210575326936,"v_ms":-7.769542896473542}},{"type":"Feature","geometry":{"type":"Point","coordinates":[-84.5658,33.3636]},"properties":{"site":"KFFC","name":"Atlanta GA","scan_time":"2026-09-16T04:00:01Z","stale":false,"bins":25,"density_birds_km3":32.437333333333335,"heading_deg":262.1519312908487,"speed_ms":9.835168324564288,"peak_altitude_m":400.0,"u_ms":-8.937762249260112,"v_ms":-0.6756776142716212}},{"type":"Feature","geometry":{"type":"Point","coordinates":[-85.5449,42.8939]},"properties":{"site":"KGRR","name":"Grand Rapids MI","scan_time":"2026-09-16T04:00:59Z","stale":false,"bins":25,"density_birds_km3":8.247333333333334,"heading_deg":125.85051744284915,"speed_ms":10.207059108918896,"peak_altitude_m":400.0,"u_ms":8.026599013503679,"v_ms":-6.107149672515566}},{"type":"Feature","geometry":{"type":"Point","coordinates":[-83.8217,39.4203]},"properties":{"site":"KILN","name":"Wilmington OH","scan_time":"2026-09-16T03:58:54Z","stale":false,"bins":25,"density_birds_km3":6.356,"heading_deg":51.45609557981932,"speed_ms":11.32580448919656,"peak_altitude_m":200.0,"u_ms":7.720438430878959,"v_ms":5.994445143696245}},{"type":"Feature","geometry":{"type":"Point","coordinates":[-81.7019,30.4846]},"properties":{"site":"KJAX","name":"Jacksonville FL","scan_time":"2026-09-16T04:00:25Z","stale":false,"bins":25,"density_birds_km3":348.41125,"heading_deg":240.35552336151744,"speed_ms":11.638291566360156,"peak_altitude_m":0.0,"u_ms":-9.22900485776507,"v_ms":-5.039643937301106}},{"type":"Feature","geometry":{"type":"Point","coordinates":[-88.0847,41.6045]},"properties":{"site":"KLOT","name":"Chicago IL","scan_time":"2026-09-16T03:59:43Z","stale":false,"bins":25,"density_birds_km3":25.73933333333333,"heading_deg":171.2122121896363,"speed_ms":8.110750343184232,"peak_altitude_m":600.0,"u_ms":1.3063816726669948,"v_ms":-7.477803102903469}},{"type":"Feature","geometry":{"type":"Point","coordinates":[-78.4292,33.9892]},"properties":{"site":"KLTX","name":"Wilmington NC","scan_time":"2026-09-16T04:00:53Z","stale":false,"bins":25,"density_birds_km3":41.889375,"heading_deg":224.3994342959179,"speed_ms":11.710161967516848,"peak_altitude_m":0.0,"u_ms":-7.805772707576912,"v_ms":-8.244377904283771}},{"type":"Feature","geometry":{"type":"Point","coordinates":[-77.4778,38.9753]},"properties":{"site":"KLWX","name":"Sterling VA","scan_time":"2026-09-16T03:58:00Z","stale":false,"bins":25,"density_birds_km3":18.41625,"heading_deg":307.73065313117047,"speed_ms":7.820469433807439,"peak_altitude_m":0.0,"u_ms":-4.829201654814004,"v_ms":3.4362017915754923}},{"type":"Feature","geometry":{"type":"Point","coordinates":[-76.8762,34.7759]},"properties":{"site":"KMHX","name":"Morehead City NC","scan_time":"2026-09-16T04:01:52Z","stale":false,"bins":25,"density_birds_km3":11.848125,"heading_deg":203.87978983778189,"speed_ms":10.42788107423627,"peak_altitude_m":0.0,"u_ms":-3.9079744631456763,"v_ms":-9.39790270669551}},{"type":"Feature","geometry":{"type":"Point","coordinates":[-80.6542,28.1133]},"properties":{"site":"KMLB","name":"Melbourne FL","scan_time":"2026-09-16T04:00:19Z","stale":false,"bins":25,"density_birds_km3":6.325,"heading_deg":193.38638041634636,"speed_ms":7.999022316684378,"peak_altitude_m":0.0,"u_ms":-1.842806588735388,"v_ms":-7.551701381509033}},{"type":"Feature","geometry":{"type":"Point","coordinates":[-86.5625,36.2472]},"properties":{"site":"KOHX","name":"Nashville TN","scan_time":"2026-09-16T04:01:32Z","stale":false,"bins":25,"density_birds_km3":20.494000000000003,"heading_deg":5.374720755443352,"speed_ms":8.345991021762467,"peak_altitude_m":200.0,"u_ms":1.1249819459353956,"v_ms":7.994859308415471}},{"type":"Feature","geometry":{"type":"Point","coordinates":[-72.8639,40.8655]},"properties":{"site":"KOKX","name":"Upton NY","scan_time":"2026-09-16T04:02:06Z","stale":false,"bins":25,"density_birds_km3":1.21625,"heading_deg":324.60818766700186,"speed_ms":4.199331275720164,"peak_altitude_m":0.0,"u_ms":-2.2110956790123453,"v_ms":2.9946965020576126}},{"type":"Feature","geometry":{"type":"Point","coordinates":[-80.2183,40.5317]},"properties":{"site":"KPBZ","name":"Pittsburgh PA","scan_time":"2026-09-16T04:01:03Z","stale":false,"bins":25,"density_birds_km3":8.487857142857143,"heading_deg":28.46441452880822,"speed_ms":8.125461583775142,"peak_altitude_m":400.0,"u_ms":4.189222418581166,"v_ms":5.8400471261465965}},{"type":"Feature","geometry":{"type":"Point","coordinates":[-78.4899,35.6655]},"properties":{"site":"KRAX","name":"Raleigh NC","scan_time":"2026-09-16T04:02:14Z","stale":false,"bins":25,"density_birds_km3":37.4925,"heading_deg":231.89973302190515,"speed_ms":8.102615407723889,"peak_altitude_m":0.0,"u_ms":-5.389070229313395,"v_ms":-4.593704896692146}},{"type":"Feature","geometry":{"type":"Point","coordinates":[-82.4017,27.7055]},"properties":{"site":"KTBW","name":"Tampa FL","scan_time":"2026-09-16T04:01:55Z","stale":false,"bins":25,"density_birds_km3":45.384375,"heading_deg":199.71478591647661,"speed_ms":10.283754372435068,"peak_altitude_m":0.0,"u_ms":-3.526823890709781,"v_ms":-9.352526372324897}}]}