{"type":"FeatureCollection","frame":"2026-10-07T00","site_count":20,"fresh_count":19,"failures":{"KILN":"RuntimeError('no scan within 20 min of 2026-10-07T00:00Z')"},"features":[{"type":"Feature","geometry":{"type":"Point","coordinates":[-77.0073,36.984]},"properties":{"site":"KAKQ","name":"Wakefield VA","scan_time":"2026-10-07T00:02:14Z","stale":false,"bins":25,"density_birds_km3":45.876875,"heading_deg":198.64608193427702,"speed_ms":6.277845319673583,"peak_altitude_m":200.0,"u_ms":-1.520462106453415,"v_ms":-5.476036129313516}},{"type":"Feature","geometry":{"type":"Point","coordinates":[-71.1369,41.9558]},"properties":{"site":"KBOX","name":"Boston MA","scan_time":"2026-10-06T23:55:49Z","stale":false,"bins":25,"density_birds_km3":8.694375,"heading_deg":139.89688131445538,"speed_ms":9.722145219266714,"peak_altitude_m":0.0,"u_ms":5.487219266714595,"v_ms":-7.705466570812366}},{"type":"Feature","geometry":{"type":"Point","coordinates":[-78.7369,42.9489]},"properties":{"site":"KBUF","name":"Buffalo NY","scan_time":"2026-10-07T00:02:10Z","stale":false,"bins":25,"density_birds_km3":0.38866666666666666,"heading_deg":63.09872453898103,"speed_ms":3.974271012006861,"peak_altitude_m":200.0,"u_ms":3.2867238421955403,"v_ms":1.8014922813036023}},{"type":"Feature","geometry":{"type":"Point","coordinates":[-81.8597,41.4131]},"properties":{"site":"KCLE","name":"Cleveland OH","scan_time":"2026-10-06T23:56:56Z","stale":false,"bins":25,"density_birds_km3":0.40800000000000003,"heading_deg":355.799260477822,"speed_ms":7.6219312602291325,"peak_altitude_m":200.0,"u_ms":-0.5521931260229133,"v_ms":7.5500327332242225}},{"type":"Feature","geometry":{"type":"Point","coordinates":[-81.0423,32.6555]},"properties":{"site":"KCLX","name":"Charleston SC","scan_time":"2026-10-07T00:02:56Z","stale":false,"bins":25,"density_birds_km3":80.67375,"heading_deg":210.10605274930032,"speed_ms":11.825155642324797,"peak_altitude_m":0.0,"u_ms":-6.11633384465207,"v_ms":-10.044153380126746}},{"type":"Feature","geometry":{"type":"Point","coordinates":[-74.4108,39.947]},"properties":{"site":"KDIX","name":"Philadelphia PA","scan_time":"2026-10-07T00:00:55Z","stale":false,"bins":25,"density_birds_km3":12.0,"heading_deg":157.2877550242289,"speed_ms":6.46247721235481,"peak_altitude_m":200.0,"u_ms":1.59055523725194,"v_ms":-5.861100578155112}},{"type":"Feature","geometry":{"type":"Point","coordinates":[-84.5658,33.3636]},"properties":{"site":"KFFC","name":"Atlanta GA","scan_time":"2026-10-06T23:57:09Z","stale":false,"bins":25,"density_birds_km3":130.98666666666665,"heading_deg":216.35754165041098,"speed_ms":8.717231307162596,"peak_altitude_m":400.0,"u_ms":-5.08606924913095,"v_ms":-7.032364731090855}},{"type":"Feature","geometry":{"type":"Point","coordinates":[-85.5449,42.8939]},"properties":{"site":"KGRR","name":"Grand Rapids MI","scan_time":"2026-10-06T23:56:41Z","stale":false,"bins":25,"density_birds_km3":0.18666666666666665,"heading_deg":21.167771455251152,"speed_ms":10.242178571428573,"peak_altitude_m":200.0,"u_ms":3.7961071428571427,"v_ms":9.484857142857143}},{"type":"Feature","geometry":{"type":"Point","coordinates":[-81.7019,30.4846]},"properties":{"site":"KJAX","name":"Jacksonville FL","scan_time":"2026-10-06T23:59:32Z","stale":false,"bins":25,"density_birds_km3":614.9733333333334,"heading_deg":221.08390057058207,"speed_ms":11.879186216210329,"peak_altitude_m":0.0,"u_ms":-7.837856520507962,"v_ms":-8.908271798558017}},{"type":"Feature","geometry":{"type":"Point","coordinates":[-88.0847,41.6045]},"properties":{"site":"KLOT","name":"Chicago IL","scan_time":"2026-10-07T00:01:14Z","stale":false,"bins":25,"density_birds_km3":1.7446666666666668,"heading_deg":33.54596295659255,"speed_ms":11.667042414978983,"peak_altitude_m":200.0,"u_ms":6.44517386320214,"v_ms":9.702537256400458}},{"type":"Feature","geometry":{"type":"Point","coordinates":[-78.4292,33.9892]},"properties":{"site":"KLTX","name":"Wilmington NC","scan_time":"2026-10-07T00:02:12Z","stale":false,"bins":25,"density_birds_km3":142.304375,"heading_deg":217.28002276310545,"speed_ms":10.771855364422265,"peak_altitude_m":0.0,"u_ms":-6.463873567964577,"v_ms":-8.562572963522632}},{"type":"Feature","geometry":{"type":"Point","coordinates":[-77.4778,38.9753]},"properties":{"site":"KLWX","name":"Sterling VA","scan_time":"2026-10-07T00:03:27Z","stale":false,"bins":25,"density_birds_km3":15.3325,"heading_deg":241.13121511001066,"speed_ms":5.278327143615067,"peak_altitude_m":200.0,"u_ms":-3.567725176508999,"v_ms":-2.441543484471289}},{"type":"Feature","geometry":{"type":"Point","coordinates":[-76.8762,34.7759]},"properties":{"site":"KMHX","name":"Morehead City NC","scan_time":"2026-10-07T00:01:38Z","stale":false,"bins":25,"density_birds_km3":56.446875,"heading_deg":214.56543422811828,"speed_ms":11.52307271539458,"peak_altitude_m":0.0,"u_ms":-6.568040216584912,"v_ms":-9.168613679396751}},{"type":"Feature","geometry":{"type":"Point","coordinates":[-80.6542,28.1133]},"properties":{"site":"KMLB","name":"Melbourne FL","scan_time":"2026-10-07T00:01:05Z","stale":false,"bins":25,"density_birds_km3":119.04555555555557,"heading_deg":213.33217474597203,"speed_ms":5.383789986881927,"peak_altitude_m":0.0,"u_ms":-2.9634025389152283,"v_ms":-4.491512606778015}},{"type":"Feature","geometry":{"type":"Point","coordinates":[-86.5625,36.2472]},"properties":{"site":"KOHX","name":"Nashville TN","scan_time":"2026-10-06T23:56:36Z","stale":false,"bins":25,"density_birds_km3":8.894666666666668,"heading_deg":230.10432146674367,"speed_ms":2.9561107779943034,"peak_altitude_m":200.0,"u_ms":-1.897611302653275,"v_ms":-1.8120319292459897}},{"type":"Feature","geometry":{"type":"Point","coordinates":[-72.8639,40.8655]},"properties":{"site":"KOKX","name":"Upton NY","scan_time":"2026-10-06T23:56:37Z","stale":false,"bins":25,"density_birds_km3":7.706875,"heading_deg":192.57176398800243,"speed_ms":6.838372320482517,"peak_altitude_m":0.0,"u_ms":-1.3069964952318853,"v_ms":-6.683988915152009}},{"type":"Feature","geometry":{"type":"Point","coordinates":[-80.2183,40.5317]},"properties":{"site":"KPBZ","name":"Pittsburgh PA","scan_time":"2026-10-06T23:57:32Z","stale":false,"bins":25,"density_birds_km3":0.4992857142857142,"heading_deg":301.9253673368796,"speed_ms":1.7087696709585123,"peak_altitude_m":400.0,"u_ms":-1.000271816881259,"v_ms":0.7773676680972817}},{"type":"Feature","geometry":{"type":"Point","coordinates":[-78.4899,35.6655]},"properties":{"site":"KRAX","name":"Raleigh NC","scan_time":"2026-10-07T00:01:51Z","stale":false,"bins":25,"density_birds_km3":34.28875,"heading_deg":197.76040705539586,"speed_ms":6.0402287027411505,"peak_altitude_m":200.0,"u_ms":-1.8696835731611678,"v_ms":-5.702700479655669}},{"type":"Feature","geometry":{"type":"Point","coordinates":[-82.4017,27.7055]},"properties":{"site":"KTBW","name":"Tampa FL","scan_time":"2026-10-07T00:00:11Z","stale":false,"bins":25,"density_birds_km3":87.81666666666666,"heading_deg":null,"speed_ms":null,"peak_altitude_m":0.0,"u_ms":null,"v_ms":null}}]}