{"type":"FeatureCollection","frame":"2026-09-14T01","site_count":20,"fresh_count":20,"failures":{},"features":[{"type":"Feature","geometry":{"type":"Point","coordinates":[-77.0073,36.984]},"properties":{"site":"KAKQ","name":"Wakefield VA","scan_time":"2026-09-14T00:56:43Z","stale":false,"bins":25,"density_birds_km3":26.731875,"heading_deg":157.02336879236287,"speed_ms":5.906778653814659,"peak_altitude_m":200.0,"u_ms":2.195282034485179,"v_ms":-5.342354303628665}},{"type":"Feature","geometry":{"type":"Point","coordinates":[-71.1369,41.9558]},"properties":{"site":"KBOX","name":"Boston MA","scan_time":"2026-09-14T01:01:23Z","stale":false,"bins":25,"density_birds_km3":1.350625,"heading_deg":113.08189469367308,"speed_ms":4.362491849091756,"peak_altitude_m":0.0,"u_ms":4.021397298556125,"v_ms":-1.632030740568235}},{"type":"Feature","geometry":{"type":"Point","coordinates":[-78.7369,42.9489]},"properties":{"site":"KBUF","name":"Buffalo NY","scan_time":"2026-09-14T00:58:52Z","stale":false,"bins":25,"density_birds_km3":16.724,"heading_deg":153.37434740953876,"speed_ms":9.809369156065653,"peak_altitude_m":400.0,"u_ms":4.361863236887515,"v_ms":-8.718477466993056}},{"type":"Feature","geometry":{"type":"Point","coordinates":[-81.8597,41.4131]},"properties":{"site":"KCLE","name":"Cleveland OH","scan_time":"2026-09-14T00:58:02Z","stale":false,"bins":25,"density_birds_km3":16.62,"heading_deg":151.8684723529588,"speed_ms":12.259964061096136,"peak_altitude_m":600.0,"u_ms":5.755097198399085,"v_ms":-10.811645021645022}},{"type":"Feature","geometry":{"type":"Point","coordinates":[-81.0423,32.6555]},"properties":{"site":"KCLX","name":"Charleston SC","scan_time":"2026-09-14T00:59:21Z","stale":false,"bins":25,"density_birds_km3":23.854375,"heading_deg":149.60874517439993,"speed_ms":6.518236866238701,"peak_altitude_m":600.0,"u_ms":1.8502984409799554,"v_ms":-5.361511856412944}},{"type":"Feature","geometry":{"type":"Point","coordinates":[-74.4108,39.947]},"properties":{"site":"KDIX","name":"Philadelphia PA","scan_time":"2026-09-14T01:01:22Z","stale":false,"bins":25,"density_birds_km3":7.485625,"heading_deg":121.13356877996532,"speed_ms":5.517245949926362,"peak_altitude_m":200.0,"u_ms":4.259010655808716,"v_ms":-2.919833665424933}},{"type":"Feature","geometry":{"type":"Point","coordinates":[-84.5658,33.3636]},"properties":{"site":"KFFC","name":"Atlanta GA","scan_time":"2026-09-14T01:00:26Z","stale":false,"bins":25,"density_birds_km3":184.82466666666667,"heading_deg":174.60758240637585,"speed_ms":7.7876087607354005,"peak_altitude_m":600.0,"u_ms":0.4852631142307845,"v_ms":-7.683267601366341}},{"type":"Feature","geometry":{"type":"Point","coordinates":[-85.5449,42.8939]},"properties":{"site":"KGRR","name":"Grand Rapids MI","scan_time":"2026-09-14T00:59:31Z","stale":false,"bins":25,"density_birds_km3":84.20599999999999,"heading_deg":157.4996041187266,"speed_ms":14.41239065161418,"peak_altitude_m":600.0,"u_ms":5.544392949098832,"v_ms":-13.303081402257874}},{"type":"Feature","geometry":{"type":"Point","coordinates":[-83.8217,39.4203]},"properties":{"site":"KILN","name":"Wilmington OH","scan_time":"2026-09-14T00:59:04Z","stale":false,"bins":25,"density_birds_km3":88.65266666666666,"heading_deg":153.18220488570736,"speed_ms":12.490580401122,"peak_altitude_m":400.0,"u_ms":5.550519789136468,"v_ms":-11.002007715619996}},{"type":"Feature","geometry":{"type":"Point","coordinates":[-81.7019,30.4846]},"properties":{"site":"KJAX","name":"Jacksonville FL","scan_time":"2026-09-14T00:59:52Z","stale":false,"bins":25,"density_birds_km3":20.677500000000002,"heading_deg":121.65109553678305,"speed_ms":7.04175528216909,"peak_altitude_m":0.0,"u_ms":1.9576909591028626,"v_ms":-3.822788743463411}},{"type":"Feature","geometry":{"type":"Point","coordinates":[-88.0847,41.6045]},"properties":{"site":"KLOT","name":"Chicago IL","scan_time":"2026-09-14T01:00:33Z","stale":false,"bins":25,"density_birds_km3":97.99533333333333,"heading_deg":159.1700183446548,"speed_ms":12.703153985963528,"peak_altitude_m":600.0,"u_ms":4.509164482685854,"v_ms":-11.872275242847323}},{"type":"Feature","geometry":{"type":"Point","coordinates":[-78.4292,33.9892]},"properties":{"site":"KLTX","name":"Wilmington NC","scan_time":"2026-09-14T00:59:13Z","stale":false,"bins":25,"density_birds_km3":29.1775,"heading_deg":152.56930464896553,"speed_ms":9.223571673451897,"peak_altitude_m":1000.0,"u_ms":2.4505056781658454,"v_ms":-7.396228840797085}},{"type":"Feature","geometry":{"type":"Point","coordinates":[-77.4778,38.9753]},"properties":{"site":"KLWX","name":"Sterling VA","scan_time":"2026-09-14T01:00:46Z","stale":false,"bins":25,"density_birds_km3":56.8025,"heading_deg":158.54552724508176,"speed_ms":7.101398494406688,"peak_altitude_m":600.0,"u_ms":1.789951883100325,"v_ms":-6.349420490703682}},{"type":"Feature","geometry":{"type":"Point","coordinates":[-76.8762,34.7759]},"properties":{"site":"KMHX","name":"Morehead City NC","scan_time":"2026-09-14T00:57:50Z","stale":false,"bins":25,"density_birds_km3":10.6275,"heading_deg":134.45189826997816,"speed_ms":9.368241143933153,"peak_altitude_m":600.0,"u_ms":5.321757090737908,"v_ms":-5.7458267623867245}},{"type":"Feature","geometry":{"type":"Point","coordinates":[-80.6542,28.1133]},"properties":{"site":"KMLB","name":"Melbourne FL","scan_time":"2026-09-14T00:58:43Z","stale":false,"bins":25,"density_birds_km3":15.6075,"heading_deg":172.44690031495418,"speed_ms":3.162014656415185,"peak_altitude_m":0.0,"u_ms":0.41568877142399485,"v_ms":-2.5588250840941855}},{"type":"Feature","geometry":{"type":"Point","coordinates":[-86.5625,36.2472]},"properties":{"site":"KOHX","name":"Nashville TN","scan_time":"2026-09-14T00:58:23Z","stale":false,"bins":25,"density_birds_km3":122.24066666666666,"heading_deg":162.09523369279896,"speed_ms":5.778847955672144,"peak_altitude_m":200.0,"u_ms":1.8381233195717739,"v_ms":-5.4607244179514725}},{"type":"Feature","geometry":{"type":"Point","coordinates":[-72.8639,40.8655]},"properties":{"site":"KOKX","name":"Upton NY","scan_time":"2026-09-14T01:01:20Z","stale":false,"bins":25,"density_birds_km3":1.774375,"heading_deg":77.5588288478385,"speed_ms":5.907554603854389,"peak_altitude_m":0.0,"u_ms":5.256967880085653,"v_ms":0.44694646680942196}},{"type":"Feature","geometry":{"type":"Point","coordinates":[-80.2183,40.5317]},"properties":{"site":"KPBZ","name":"Pittsburgh PA","scan_time":"2026-09-14T00:58:41Z","stale":false,"bins":25,"density_birds_km3":41.64142857142857,"heading_deg":147.5544498329015,"speed_ms":9.876218566674671,"peak_altitude_m":600.0,"u_ms":4.759894335997804,"v_ms":-7.692541939689183}},{"type":"Feature","geometry":{"type":"Point","coordinates":[-78.4899,35.6655]},"properties":{"site":"KRAX","name":"Raleigh NC","scan_time":"2026-09-14T01:01:35Z","stale":false,"bins":25,"density_birds_km3":40.3275,"heading_deg":138.4046107316292,"speed_ms":7.008926210413649,"peak_altitude_m":200.0,"u_ms":3.5138158723163126,"v_ms":-4.983679405653843}},{"type":"Feature","geometry":{"type":"Point","coordinates":[-82.4017,27.7055]},"properties":{"site":"KTBW","name":"Tampa FL","scan_time":"2026-09-14T00:58:46Z","stale":false,"bins":25,"density_birds_km3":29.43875,"heading_deg":138.0400827863596,"speed_ms":5.344253625188425,"peak_altitude_m":0.0,"u_ms":0.781116749113607,"v_ms":-3.0876437867561197}}]}