{"type":"FeatureCollection","frame":"2026-10-04T07","site_count":20,"fresh_count":20,"failures":{},"features":[{"type":"Feature","geometry":{"type":"Point","coordinates":[-77.0073,36.984]},"properties":{"site":"KAKQ","name":"Wakefield VA","scan_time":"2026-10-04T07:01:04Z","stale":false,"bins":25,"density_birds_km3":2.084375,"heading_deg":180.44144555729983,"speed_ms":7.508947526236882,"peak_altitude_m":0.0,"u_ms":1.3989475262368813,"v_ms":-4.781154422788606}},{"type":"Feature","geometry":{"type":"Point","coordinates":[-71.1369,41.9558]},"properties":{"site":"KBOX","name":"Boston MA","scan_time":"2026-10-04T06:58:56Z","stale":false,"bins":25,"density_birds_km3":11.761249999999999,"heading_deg":212.08292712649776,"speed_ms":12.763534601892209,"peak_altitude_m":0.0,"u_ms":-6.74021792282343,"v_ms":-10.740275326884236}},{"type":"Feature","geometry":{"type":"Point","coordinates":[-78.7369,42.9489]},"properties":{"site":"KBUF","name":"Buffalo NY","scan_time":"2026-10-04T06:57:25Z","stale":false,"bins":25,"density_birds_km3":4.500666666666666,"heading_deg":294.4915777758977,"speed_ms":7.142219259259258,"peak_altitude_m":200.0,"u_ms":-6.236291851851852,"v_ms":2.9507585185185183}},{"type":"Feature","geometry":{"type":"Point","coordinates":[-81.8597,41.4131]},"properties":{"site":"KCLE","name":"Cleveland OH","scan_time":"2026-10-04T07:02:53Z","stale":false,"bins":25,"density_birds_km3":18.080666666666666,"heading_deg":241.30578591667205,"speed_ms":8.080001843657817,"peak_altitude_m":200.0,"u_ms":-6.939425147492625,"v_ms":-4.010224926253687}},{"type":"Feature","geometry":{"type":"Point","coordinates":[-81.0423,32.6555]},"properties":{"site":"KCLX","name":"Charleston SC","scan_time":"2026-10-04T07:00:37Z","stale":false,"bins":25,"density_birds_km3":2.845,"heading_deg":217.0411495043216,"speed_ms":1.9768780273007485,"peak_altitude_m":0.0,"u_ms":-0.8686767943637163,"v_ms":-1.4688705416116248}},{"type":"Feature","geometry":{"type":"Point","coordinates":[-74.4108,39.947]},"properties":{"site":"KDIX","name":"Philadelphia PA","scan_time":"2026-10-04T07:00:32Z","stale":false,"bins":25,"density_birds_km3":55.086875,"heading_deg":221.07865555087986,"speed_ms":12.55532651741237,"peak_altitude_m":0.0,"u_ms":-8.26418520998105,"v_ms":-9.244126771590999}},{"type":"Feature","geometry":{"type":"Point","coordinates":[-84.5658,33.3636]},"properties":{"site":"KFFC","name":"Atlanta GA","scan_time":"2026-10-04T07:01:19Z","stale":false,"bins":25,"density_birds_km3":96.59933333333333,"heading_deg":155.11995192492535,"speed_ms":7.298316482515408,"peak_altitude_m":400.0,"u_ms":2.380429057481418,"v_ms":-6.534181050248794}},{"type":"Feature","geometry":{"type":"Point","coordinates":[-85.5449,42.8939]},"properties":{"site":"KGRR","name":"Grand Rapids MI","scan_time":"2026-10-04T06:57:53Z","stale":false,"bins":25,"density_birds_km3":0.5713333333333334,"heading_deg":352.363321971448,"speed_ms":6.941010575793184,"peak_altitude_m":200.0,"u_ms":-0.7211750881316099,"v_ms":6.73262044653349}},{"type":"Feature","geometry":{"type":"Point","coordinates":[-83.8217,39.4203]},"properties":{"site":"KILN","name":"Wilmington OH","scan_time":"2026-10-04T07:02:43Z","stale":false,"bins":25,"density_birds_km3":29.222666666666665,"heading_deg":250.46716924497218,"speed_ms":10.033356298763517,"peak_altitude_m":200.0,"u_ms":-8.52092667792125,"v_ms":-2.9941547657069854}},{"type":"Feature","geometry":{"type":"Point","coordinates":[-81.7019,30.4846]},"properties":{"site":"KJAX","name":"Jacksonville FL","scan_time":"2026-10-04T06:59:27Z","stale":false,"bins":25,"density_birds_km3":6.2875000000000005,"heading_deg":247.94748848071987,"speed_ms":4.890808633379749,"peak_altitude_m":0.0,"u_ms":-4.180994629003382,"v_ms":-1.6666033419534512}},{"type":"Feature","geometry":{"type":"Point","coordinates":[-88.0847,41.6045]},"properties":{"site":"KLOT","name":"Chicago IL","scan_time":"2026-10-04T06:59:15Z","stale":false,"bins":25,"density_birds_km3":2.478,"heading_deg":20.962466865625913,"speed_ms":9.775603981705675,"peak_altitude_m":200.0,"u_ms":3.669924670433145,"v_ms":8.486615550174871}},{"type":"Feature","geometry":{"type":"Point","coordinates":[-78.4292,33.9892]},"properties":{"site":"KLTX","name":"Wilmington NC","scan_time":"2026-10-04T07:01:39Z","stale":false,"bins":25,"density_birds_km3":1.831875,"heading_deg":null,"speed_ms":null,"peak_altitude_m":0.0,"u_ms":null,"v_ms":null}},{"type":"Feature","geometry":{"type":"Point","coordinates":[-77.4778,38.9753]},"properties":{"site":"KLWX","name":"Sterling VA","scan_time":"2026-10-04T07:01:15Z","stale":false,"bins":25,"density_birds_km3":101.41357142857143,"heading_deg":197.8138560247679,"speed_ms":6.766989575678009,"peak_altitude_m":200.0,"u_ms":-2.037366592224212,"v_ms":-5.969759548493432}},{"type":"Feature","geometry":{"type":"Point","coordinates":[-76.8762,34.7759]},"properties":{"site":"KMHX","name":"Morehead City NC","scan_time":"2026-10-04T06:58:00Z","stale":false,"bins":25,"density_birds_km3":0.859375,"heading_deg":248.70567009944517,"speed_ms":4.217138686131387,"peak_altitude_m":0.0,"u_ms":-3.2301313868613137,"v_ms":-1.4148102189781022}},{"type":"Feature","geometry":{"type":"Point","coordinates":[-80.6542,28.1133]},"properties":{"site":"KMLB","name":"Melbourne FL","scan_time":"2026-10-04T06:59:17Z","stale":false,"bins":25,"density_birds_km3":1.891875,"heading_deg":325.21751006343777,"speed_ms":5.4706673273868525,"peak_altitude_m":200.0,"u_ms":-3.212745292368682,"v_ms":4.394872811364388}},{"type":"Feature","geometry":{"type":"Point","coordinates":[-86.5625,36.2472]},"properties":{"site":"KOHX","name":"Nashville TN","scan_time":"2026-10-04T06:59:24Z","stale":false,"bins":25,"density_birds_km3":245.29666666666665,"heading_deg":199.73000444297537,"speed_ms":4.086827379091984,"peak_altitude_m":200.0,"u_ms":-0.8366736876435337,"v_ms":-3.3856930519506996}},{"type":"Feature","geometry":{"type":"Point","coordinates":[-72.8639,40.8655]},"properties":{"site":"KOKX","name":"Upton NY","scan_time":"2026-10-04T07:00:12Z","stale":false,"bins":25,"density_birds_km3":6.741875,"heading_deg":242.04056046246959,"speed_ms":12.965350950394065,"peak_altitude_m":0.0,"u_ms":-11.401291608715809,"v_ms":-5.999757997218358}},{"type":"Feature","geometry":{"type":"Point","coordinates":[-80.2183,40.5317]},"properties":{"site":"KPBZ","name":"Pittsburgh PA","scan_time":"2026-10-04T07:00:22Z","stale":false,"bins":25,"density_birds_km3":20.41714285714286,"heading_deg":263.32330609901226,"speed_ms":10.330423678410245,"peak_altitude_m":400.0,"u_ms":-9.919055732428367,"v_ms":-1.1962369240457615}},{"type":"Feature","geometry":{"type":"Point","coordinates":[-78.4899,35.6655]},"properties":{"site":"KRAX","name":"Raleigh NC","scan_time":"2026-10-04T07:00:46Z","stale":false,"bins":25,"density_birds_km3":4.69,"heading_deg":215.45325195378697,"speed_ms":5.605032214765101,"peak_altitude_m":0.0,"u_ms":-3.0903436241610738,"v_ms":-4.320006711409396}},{"type":"Feature","geometry":{"type":"Point","coordinates":[-82.4017,27.7055]},"properties":{"site":"KTBW","name":"Tampa FL","scan_time":"2026-10-04T06:57:33Z","stale":false,"bins":25,"density_birds_km3":7.009375,"heading_deg":296.63768959649815,"speed_ms":5.529736067766384,"peak_altitude_m":0.0,"u_ms":-4.4775086937137765,"v_ms":2.8869977708426213}}]}