{"type":"FeatureCollection","generated_at":"2026-09-12T21:20:35Z","source":{"id":"arbonet","name":"CDC NNDSS weekly arboviral disease cases (ArboNET)","url":"https://data.cdc.gov/NNDSS/NNDSS-Weekly-Data/x9gk-5huc","dataset":"data.cdc.gov x9gk-5huc","api":"https://data.cdc.gov/resource/x9gk-5huc.json","licence":"Public Domain U.S. Government (CDC; no licence field on x9gk-5huc, CDC Use of Agency Materials)","note":"Provisional counts as published each week; cases are back-filled into the year-to-date column, so a week's bin is the change in that column between reports, not onset dates. Reference to CDC data does not imply endorsement by CDC, HHS or the U.S. Government.","shapes":"Census 2021 cartographic boundary states 1:20m (U.S. Government work)","seed_note":"seed: geometry rounded to 0.01\u00b0 with every third vertex of rings over 30 points kept and MultiPolygon islands under 8 vertices dropped; weekly bins truncated to the newest 6 per state (n/by/ytd are the full 26-week values)"},"diseases":{"wnv":{"name":"West Nile","vector":"mosquito","labels":["Arboviral diseases, West Nile virus disease"]},"eee":{"name":"Eastern equine encephalitis","vector":"mosquito","labels":["Arboviral diseases, Eastern equine encephalitis virus disease"]},"lac":{"name":"La Crosse","vector":"mosquito","labels":["Arboviral diseases, La Crosse virus disease"]},"sle":{"name":"St. Louis encephalitis","vector":"mosquito","labels":["Arboviral diseases, St. Louis encephalitis virus disease"]},"jcv":{"name":"Jamestown Canyon","vector":"mosquito","labels":["Arboviral diseases, Jamestown Canyon virus disease"]},"pow":{"name":"Powassan","vector":"tick","labels":["Arboviral diseases, Powassan virus disease"]},"den":{"name":"Dengue","vector":"mosquito","labels":["Dengue virus infections, Dengue","Dengue virus infections, Severe dengue"]}},"today":"2026-09-12","newest":"2026-09-05","weeks":["2026-09-12","2026-09-05","2026-08-29","2026-08-22","2026-08-15","2026-08-08","2026-08-01","2026-07-25","2026-07-18","2026-07-11","2026-07-04","2026-06-27","2026-06-20","2026-06-13","2026-06-06","2026-05-30","2026-05-23","2026-05-16","2026-05-09","2026-05-02","2026-04-25","2026-04-18","2026-04-11","2026-04-04","2026-03-28","2026-03-21"],"counts":{"unknown_label":3780,"aggregate_rows":2808,"rows":12312,"revised_down":12,"states":56,"raw":18900,"features":48,"missing_shape":1,"cases":1254},"features":[{"type":"Feature","geometry":{"type":"Polygon","coordinates":[[[-88.47,31.89],[-88.43,32.23],[-88.39,32.58],[-88.34,32.99],[-88.28,33.53],[-88.21,34.06],[-88.16,34.46],[-88.1,34.89],[-88.2,35.01],[-87.85,35.01],[-87.22,35.0],[-86.84,34.99],[-86.47,34.99],[-85.86,34.99],[-85.58,34.86],[-85.53,34.59],[-85.47,34.34],[-85.42,34.08],[-85.36,33.77],[-85.31,33.48],[-85.23,33.11],[-85.16,32.83],[-85.09,32.66],[-85.01,32.52],[-84.97,32.44],[-85.01,32.34],[-84.92,32.23],[-85.06,32.14],[-85.06,31.99],[-85.14,31.84],[-85.12,31.73],[-85.06,31.57],[-85.07,31.47],[-85.09,31.32],[-85.11,31.26],[-85.02,31.07],[-85.03,31.0],[-85.49,31.0],[-85.75,31.0],[-86.19,30.99],[-86.56,31.0],[-86.83,31.0],[-87.16,31.0],[-87.52,31.0],[-87.59,30.95],[-87.52,30.74],[-87.4,30.6],[-87.42,30.46],[-87.45,30.34],[-87.82,30.23],[-87.8,30.32],[-87.93,30.49],[-87.93,30.65],[-88.06,30.59],[-88.11,30.4],[-88.26,30.32],[-88.39,30.37],[-88.41,30.74],[-88.45,31.42],[-88.46,31.7],[-88.47,31.89]]]},"properties":{"fips":"01","name":"Alabama","st":"AL","n":8,"by":{"lac":1,"wnv":7},"ytd":{"eee":0,"jcv":0,"lac":1,"pow":0,"sle":0,"wnv":7,"den":0},"prev_ytd":{"eee":0,"jcv":0,"lac":0,"pow":0,"sle":0,"wnv":22,"den":3},"asof":"2026-09-05","weeks":[{"w":"2026-08-22","n":{"wnv":2}},{"w":"2026-08-15","n":{"wnv":2}},{"w":"2026-07-25","n":{"lac":1,"wnv":1}},{"w":"2026-07-11","n":{"wnv":2}}]}},{"type":"Feature","geometry":{"type":"Polygon","coordinates":[[[-114.8,32.59],[-114.72,32.72],[-114.62,32.74],[-114.47,32.84],[-114.48,32.97],[-114.58,33.04],[-114.71,33.1],[-114.67,33.26],[-114.71,33.38],[-114.64,33.42],[-114.53,33.55],[-114.5,33.69],[-114.52,33.83],[-114.53,33.93],[-114.44,34.04],[-114.41,34.11],[-114.23,34.19],[-114.14,34.3],[-114.26,34.4],[-114.38,34.52],[-114.49,34.73],[-114.63,34.94],[-114.62,35.12],[-114.59,35.26],[-114.66,35.52],[-114.7,35.73],[-114.7,35.9],[-114.74,36.07],[-114.67,36.12],[-114.51,36.15],[-114.42,36.15],[-114.32,36.06],[-114.15,36.02],[-114.05,36.19],[-114.05,36.6],[-113.97,37.0],[-112.83,37.0],[-112.36,37.0],[-111.28,37.0],[-110.47,37.0],[-109.05,37.0],[-109.05,36.0],[-109.05,35.36],[-109.05,34.96],[-109.05,33.88],[-109.05,33.21],[-109.05,32.78],[-109.05,31.8],[-110.46,31.33],[-112.36,31.74],[-114.81,32.49],[-114.81,32.56],[-114.8,32.59]]]},"properties":{"fips":"04","name":"Arizona","st":"AZ","n":1,"by":{"den":1},"ytd":{"eee":0,"jcv":0,"lac":0,"pow":0,"sle":0,"wnv":0,"den":5},"prev_ytd":{"eee":0,"jcv":0,"lac":0,"pow":0,"sle":2,"wnv":80,"den":19},"asof":"2026-09-05","weeks":[{"w":"2026-08-22","n":{"den":1}}]}},{"type":"Feature","geometry":{"type":"Polygon","coordinates":[[[-94.62,36.5],[-93.96,36.5],[-93.58,36.5],[-93.29,36.5],[-92.84,36.5],[-92.53,36.5],[-92.12,36.5],[-91.64,36.5],[-91.41,36.5],[-90.78,36.5],[-90.5,36.5],[-90.14,36.46],[-90.06,36.36],[-90.16,36.21],[-90.24,36.14],[-90.37,36.0],[-89.96,36.0],[-89.69,35.95],[-89.65,35.9],[-89.72,35.81],[-89.92,35.76],[-89.88,35.63],[-89.96,35.54],[-90.02,35.46],[-90.11,35.41],[-90.17,35.27],[-90.1,35.16],[-90.18,35.09],[-90.3,35.03],[-90.25,34.91],[-90.4,34.84],[-90.47,34.79],[-90.55,34.66],[-90.55,34.57],[-90.58,34.46],[-90.66,34.34],[-90.75,34.29],[-90.89,34.22],[-90.94,34.15],[-90.95,34.11],[-90.89,34.03],[-91.0,33.98],[-91.04,33.94],[-91.05,33.82],[-91.09,33.78],[-91.08,33.71],[-91.13,33.61],[-91.22,33.53],[-91.17,33.46],[-91.14,33.35],[-91.07,33.23],[-91.15,33.13],[-91.16,33.01],[-91.44,33.01],[-91.88,33.01],[-92.22,33.01],[-92.72,33.01],[-93.2,33.02],[-93.49,33.02],[-93.81,33.02],[-94.04,33.16],[-94.04,33.44],[-94.14,33.58],[-94.24,33.58],[-94.35,33.56],[-94.49,33.64],[-94.47,34.02],[-94.46,34.51],[-94.45,34.89],[-94.44,35.28],[-94.44,35.39],[-94.49,35.76],[-94.55,36.1],[-94.62,36.5]]]},"properties":{"fips":"05","name":"Arkansas","st":"AR","n":6,"by":{"wnv":5,"den":1},"ytd":{"eee":0,"jcv":0,"lac":0,"pow":0,"sle":0,"wnv":5,"den":1},"prev_ytd":{"eee":0,"jcv":0,"lac":0,"pow":0,"sle":1,"wnv":35,"den":11},"asof":"2026-09-05","weeks":[{"w":"2026-08-22","n":{"wnv":2}},{"w":"2026-08-08","n":{"wnv":1}},{"w":"2026-08-01","n":{"wnv":1}},{"w":"2026-06-06","n":{"wnv":1}},{"w":"2026-05-30","n":{"den":1}}]}},{"type":"Feature","geometry":{"type":"MultiPolygon","coordinates":[[[[-118.59,33.47],[-118.48,33.49],[-118.37,33.41],[-118.29,33.35],[-118.33,33.3],[-118.38,33.32],[-118.47,33.33],[-118.48,33.37],[-118.56,33.43],[-118.59,33.47]]],[[[-118.59,33.04],[-118.54,32.98],[-118.45,32.9],[-118.35,32.82],[-118.43,32.8],[-118.49,32.84],[-118.58,32.93],[-118.64,33.02],[-118.59,33.04]]],[[[-119.92,34.06],[-119.86,34.07],[-119.74,34.05],[-119.57,34.05],[-119.47,34.05],[-119.44,34.05],[-119.36,34.05],[-119.36,34.0],[-119.39,33.99],[-119.49,34.0],[-119.55,34.0],[-119.66,33.99],[-119.72,33.96],[-119.8,33.96],[-119.87,33.98],[-119.88,34.02],[-119.92,34.06]]],[[[-120.37,34.08],[-120.24,34.06],[-120.14,34.03],[-120.06,34.04],[-119.98,33.98],[-119.97,33.94],[-120.05,33.91],[-120.12,33.9],[-120.18,33.93],[-120.2,33.96],[-120.36,33.99],[-120.45,34.03],[-120.37,34.08]]],[[[-124.39,40.51],[-124.12,40.99],[-124.16,41.14],[-124.06,41.44],[-124.12,41.63],[-124.19,41.74],[-124.2,41.94],[-123.82,42.0],[-123.44,42.0],[-123.15,42.01],[-122.5,42.01],[-122.1,42.01],[-121.45,42.0],[-121.03,41.99],[-120.5,41.99],[-120.0,41.88],[-120.0,40.87],[-120.0,40.13],[-120.0,39.54],[-120.0,39.29],[-120.0,39.07],[-119.59,38.72],[-119.28,38.5],[-118.5,37.95],[-117.83,37.47],[-117.17,36.97],[-116.38,36.37],[-115.85,35.96],[-115.41,35.62],[-115.04,35.33],[-114.63,34.94],[-114.49,34.73],[-114.38,34.52],[-114.26,34.4],[-114.14,34.3],[-114.23,34.19],[-114.41,34.11],[-114.44,34.04],[-114.53,33.93],[-114.52,33.83],[-114.5,33.69],[-114.53,33.55],[-114.64,33.42],[-114.71,33.38],[-114.67,33.26],[-114.71,33.1],[-114.58,33.04],[-114.48,32.97],[-114.47,32.84],[-114.62,32.74],[-114.72,32.72],[-116.05,32.62],[-116.63,32.58],[-117.13,32.59],[-117.18,32.68],[-117.25,32.7],[-117.28,32.84],[-117.26,32.86],[-117.27,32.98],[-117.36,33.17],[-117.6,33.39],[-117.72,33.46],[-117.81,33.55],[-118.0,33.65],[-118.13,33.75],[-118.26,33.7],[-118.36,33.73],[-118.39,33.8],[-118.52,34.03],[-118.75,34.03],[-118.94,34.05],[-119.11,34.09],[-119.27,34.25],[-119.38,34.32],[-119.54,34.4],[-119.71,34.4],[-119.87,34.41],[-120.14,34.47],[-120.51,34.52],[-120.62,34.55],[-120.61,34.73],[-120.67,34.9],[-120.63,35.08],[-120.71,35.18],[-120.9,35.25],[-120.89,35.43],[-121.11,35.57],[-121.31,35.71],[-121.41,35.84],[-121.53,36.01],[-121.68,36.17],[-121.89,36.3],[-121.97,36.58],[-121.81,36.68],[-121.81,36.85],[-121.95,36.97],[-122.11,36.96],[-122.28,37.1],[-122.34,37.14],[-122.41,37.31],[-122.44,37.44],[-122.52,37.52],[-122.5,37.69],[-122.51,37.77],[-122.39,37.79],[-122.36,37.72],[-122.36,37.59],[-122.13,37.52],[-122.15,37.64],[-122.21,37.7],[-122.31,37.78],[-122.33,37.89],[-122.42,37.96],[-122.34,38.01],[-122.27,38.06],[-122.4,38.14],[-122.5,38.03],[-122.49,37.92],[-122.48,37.83],[-122.68,37.91],[-122.8,37.98],[-122.97,37.99],[-122.95,38.18],[-123.0,38.3],[-123.07,38.34],[-123.25,38.51],[-123.44,38.7],[-123.57,38.8],[-123.71,38.91],[-123.72,39.12],[-123.83,39.36],[-123.78,39.62],[-123.85,39.83],[-124.03,40.0],[-124.09,40.08],[-124.26,40.18],[-124.35,40.33],[-124.39,40.51]]]]},"properties":{"fips":"06","name":"California","st":"CA","n":85,"by":{"wnv":66,"den":19},"ytd":{"eee":0,"jcv":0,"lac":0,"pow":0,"sle":0,"wnv":66,"den":19},"prev_ytd":{"eee":0,"jcv":0,"lac":0,"pow":0,"sle":0,"wnv":57,"den":161},"asof":"2026-09-05","weeks":[{"w":"2026-08-29","n":{"wnv":20}},{"w":"2026-08-22","n":{"wnv":17}},{"w":"2026-08-15","n":{"wnv":11}},{"w":"2026-08-08","n":{"wnv":7,"den":5}},{"w":"2026-08-01","n":{"wnv":6}},{"w":"2026-07-25","n":{"wnv":3}}]}},{"type":"Feature","geometry":{"type":"Polygon","coordinates":[[[-109.06,38.5],[-109.05,39.5],[-109.05,40.18],[-109.05,40.66],[-108.25,41.0],[-107.32,41.0],[-106.22,41.0],[-105.28,41.0],[-104.5,41.0],[-103.57,41.0],[-102.65,41.0],[-102.05,41.0],[-102.05,40.7],[-102.05,40.34],[-102.05,39.57],[-102.05,39.13],[-102.05,38.62],[-102.05,38.26],[-102.04,37.72],[-102.04,37.26],[-102.04,36.99],[-102.84,37.0],[-103.73,37.0],[-104.73,36.99],[-105.22,37.0],[-105.53,37.0],[-106.0,36.99],[-106.48,36.99],[-107.42,37.0],[-108.38,37.0],[-109.04,37.48],[-109.04,38.16],[-109.06,38.5]]]},"properties":{"fips":"08","name":"Colorado","st":"CO","n":19,"by":{"wnv":14,"den":5},"ytd":{"eee":0,"jcv":0,"lac":0,"pow":0,"sle":0,"wnv":14,"den":7},"prev_ytd":{"eee":0,"jcv":0,"lac":0,"pow":0,"sle":0,"wnv":243,"den":14},"asof":"2026-09-05","weeks":[{"w":"2026-08-29","n":{"wnv":6,"den":2}},{"w":"2026-08-22","n":{"wnv":3}},{"w":"2026-08-15","n":{"wnv":1}},{"w":"2026-08-08","n":{"wnv":2,"den":3}},{"w":"2026-06-27","n":{"wnv":1}},{"w":"2026-06-06","n":{"wnv":1}}]}},{"type":"Feature","geometry":{"type":"Polygon","coordinates":[[[-73.7,41.12],[-73.54,41.37],[-73.54,41.38],[-73.52,41.64],[-73.49,42.05],[-73.05,42.04],[-72.85,42.04],[-72.77,42.0],[-72.53,42.03],[-72.32,42.03],[-72.1,42.03],[-71.8,42.02],[-71.79,41.73],[-71.79,41.6],[-71.8,41.42],[-71.86,41.32],[-72.02,41.32],[-72.2,41.32],[-72.34,41.28],[-72.41,41.28],[-72.55,41.25],[-72.65,41.27],[-72.79,41.27],[-72.94,41.26],[-72.99,41.23],[-73.1,41.16],[-73.17,41.15],[-73.27,41.12],[-73.37,41.1],[-73.42,41.05],[-73.56,41.02],[-73.66,40.99],[-73.73,41.1],[-73.7,41.12]]]},"properties":{"fips":"09","name":"Connecticut","st":"CT","n":8,"by":{"pow":1,"wnv":2,"den":5},"ytd":{"eee":0,"jcv":0,"lac":0,"pow":1,"sle":0,"wnv":2,"den":5},"prev_ytd":{"eee":0,"jcv":0,"lac":0,"pow":4,"sle":0,"wnv":6,"den":14},"asof":"2026-09-05","weeks":[{"w":"2026-08-29","n":{"wnv":2}},{"w":"2026-08-22","n":{"den":1}},{"w":"2026-08-15","n":{"den":1}},{"w":"2026-08-08","n":{"den":1}},{"w":"2026-07-25","n":{"pow":1}},{"w":"2026-07-04","n":{"den":1}}]}},{"type":"Feature","geometry":{"type":"Polygon","coordinates":[[[-75.77,39.72],[-75.66,39.82],[-75.58,39.84],[-75.42,39.8],[-75.51,39.69],[-75.54,39.6],[-75.53,39.5],[-75.52,39.39],[-75.41,39.27],[-75.4,39.06],[-75.3,38.94],[-75.16,38.79],[-75.07,38.7],[-75.19,38.45],[-75.69,38.46],[-75.71,38.63],[-75.75,39.14],[-75.77,39.38],[-75.77,39.72]]]},"properties":{"fips":"10","name":"Delaware","st":"DE","n":2,"by":{"wnv":2},"ytd":{"eee":0,"jcv":0,"lac":0,"pow":0,"sle":0,"wnv":2,"den":0},"prev_ytd":{"eee":0,"jcv":0,"lac":0,"pow":0,"sle":0,"wnv":2,"den":2},"asof":"2026-09-05","weeks":[{"w":"2026-08-22","n":{"wnv":1}},{"w":"2026-08-08","n":{"wnv":1}}]}},{"type":"Feature","geometry":{"type":"Polygon","coordinates":[[[-77.12,38.93],[-77.04,39.0],[-77.0,38.97],[-76.91,38.89],[-76.98,38.84],[-77.04,38.79],[-77.04,38.84],[-77.04,38.87],[-77.09,38.9],[-77.12,38.93]]]},"properties":{"fips":"11","name":"District of Columbia","st":"DC","n":7,"by":{"wnv":5,"den":2},"ytd":{"eee":0,"jcv":0,"lac":0,"pow":0,"sle":0,"wnv":5,"den":2},"prev_ytd":{"eee":0,"jcv":0,"lac":0,"pow":0,"sle":0,"wnv":2,"den":5},"asof":"2026-09-05","weeks":[{"w":"2026-08-29","n":{"wnv":2}},{"w":"2026-08-22","n":{"wnv":1}},{"w":"2026-08-08","n":{"wnv":2}},{"w":"2026-06-27","n":{"den":1}},{"w":"2026-04-25","n":{"den":1}}]}},{"type":"Feature","geometry":{"type":"MultiPolygon","coordinates":[[[[-81.81,24.57],[-81.75,24.65],[-81.67,24.7],[-81.58,24.74],[-81.57,24.76],[-81.44,24.81],[-81.31,24.75],[-81.24,24.67],[-81.34,24.64],[-81.4,24.62],[-81.44,24.64],[-81.52,24.62],[-81.59,24.59],[-81.69,24.56],[-81.81,24.55],[-81.81,24.57]]],[[[-87.59,30.95],[-87.52,31.0],[-87.16,31.0],[-86.83,31.0],[-86.56,31.0],[-86.19,30.99],[-85.75,31.0],[-85.49,31.0],[-85.03,31.0],[-84.98,30.94],[-84.92,30.77],[-84.81,30.71],[-84.29,30.68],[-84.01,30.67],[-83.61,30.65],[-83.31,30.63],[-82.88,30.61],[-82.46,30.58],[-82.22,30.56],[-82.21,30.43],[-82.09,30.36],[-82.04,30.4],[-82.02,30.6],[-82.03,30.75],[-81.91,30.82],[-81.81,30.79],[-81.67,30.75],[-81.53,30.72],[-81.43,30.7],[-81.43,30.51],[-81.4,30.34],[-81.27,29.88],[-81.21,29.67],[-81.05,29.31],[-80.79,28.88],[-80.58,28.6],[-80.61,28.34],[-80.55,28.05],[-80.33,27.6],[-80.2,27.26],[-80.12,27.07],[-80.04,26.8],[-80.04,26.68],[-80.04,26.57],[-80.08,26.32],[-80.11,26.09],[-80.11,25.97],[-80.11,25.87],[-80.16,25.66],[-80.27,25.66],[-80.32,25.53],[-80.23,25.42],[-80.23,25.34],[-80.5,25.0],[-81.1,24.67],[-80.85,24.85],[-80.5,25.16],[-80.65,25.19],[-80.81,25.19],[-80.92,25.14],[-81.14,25.18],[-81.15,25.41],[-81.29,25.67],[-81.44,25.8],[-81.64,25.88],[-81.76,26.0],[-81.85,26.33],[-82.01,26.45],[-82.18,26.48],[-82.27,26.76],[-82.37,26.95],[-82.54,27.25],[-82.69,27.44],[-82.65,27.52],[-82.51,27.71],[-82.45,27.81],[-82.55,27.85],[-82.62,27.78],[-82.7,27.62],[-82.75,27.73],[-82.84,27.94],[-82.85,28.1],[-82.76,28.24],[-82.69,28.43],[-82.67,28.62],[-82.71,28.72],[-82.69,28.91],[-82.76,29.01],[-82.8,29.11],[-83.0,29.18],[-83.08,29.2],[-83.17,29.29],[-83.2,29.39],[-83.31,29.47],[-83.41,29.67],[-83.54,29.72],[-83.68,29.92],[-83.99,30.09],[-84.08,30.1],[-84.21,30.09],[-84.34,29.97],[-84.35,29.9],[-84.54,29.91],[-84.6,29.79],[-84.88,29.66],[-85.22,29.67],[-85.4,29.76],[-85.39,29.92],[-85.57,30.03],[-85.81,30.18],[-86.09,30.3],[-86.41,30.38],[-86.85,30.38],[-87.23,30.32],[-87.42,30.3],[-87.43,30.4],[-87.44,30.51],[-87.4,30.66],[-87.54,30.77],[-87.59,30.95]]]]},"properties":{"fips":"12","name":"Florida","st":"FL","n":150,"by":{"wnv":2,"den":148},"ytd":{"eee":0,"jcv":0,"lac":0,"pow":0,"sle":0,"wnv":2,"den":161},"prev_ytd":{"eee":0,"jcv":0,"lac":0,"pow":0,"sle":0,"wnv":13,"den":278},"asof":"2026-09-05","weeks":[{"w":"2026-08-22","n":{"wnv":1,"den":53}},{"w":"2026-08-15","n":{"den":54}},{"w":"2026-08-01","n":{"den":6}},{"w":"2026-07-25","n":{"den":6}},{"w":"2026-07-18","n":{"den":5}},{"w":"2026-07-11","n":{"den":5}}]}},{"type":"Feature","geometry":{"type":"Polygon","coordinates":[[[-85.61,34.98],[-85.36,34.98],[-85.05,34.99],[-84.86,34.99],[-84.73,34.99],[-84.32,34.99],[-83.94,34.99],[-83.55,34.99],[-83.11,35.0],[-83.2,34.88],[-83.32,34.79],[-83.35,34.72],[-83.28,34.65],[-83.1,34.54],[-83.05,34.49],[-82.93,34.48],[-82.82,34.36],[-82.75,34.24],[-82.64,34.08],[-82.56,33.96],[-82.43,33.87],[-82.22,33.69],[-82.14,33.6],[-82.03,33.55],[-81.93,33.46],[-81.85,33.3],[-81.76,33.2],[-81.66,33.1],[-81.54,33.04],[-81.46,32.9],[-81.41,32.74],[-81.39,32.6],[-81.28,32.54],[-81.17,32.38],[-81.15,32.24],[-81.11,32.11],[-80.94,32.06],[-80.85,31.99],[-81.0,31.86],[-81.13,31.72],[-81.13,31.62],[-81.18,31.52],[-81.28,31.35],[-81.28,31.24],[-81.4,31.12],[-81.41,30.99],[-81.44,30.82],[-81.51,30.72],[-81.63,30.73],[-81.76,30.77],[-81.9,30.82],[-82.0,30.79],[-82.05,30.66],[-82.03,30.45],[-82.05,30.37],[-82.18,30.37],[-82.23,30.52],[-82.46,30.58],[-82.69,30.6],[-83.14,30.62],[-83.5,30.65],[-83.82,30.66],[-84.12,30.68],[-84.47,30.69],[-84.86,30.71],[-84.94,30.88],[-85.0,31.0],[-85.04,31.11],[-85.09,31.3],[-85.09,31.36],[-85.05,31.52],[-85.06,31.62],[-85.12,31.76],[-85.11,31.89],[-85.05,32.06],[-85.0,32.19],[-84.89,32.26],[-84.98,32.36],[-85.0,32.51],[-85.07,32.58],[-85.11,32.73],[-85.18,32.86],[-85.24,33.13],[-85.31,33.53],[-85.39,33.9],[-85.43,34.12],[-85.5,34.48],[-85.53,34.62],[-85.59,34.92],[-85.61,34.98]]]},"properties":{"fips":"13","name":"Georgia","st":"GA","n":9,"by":{"wnv":4,"den":5},"ytd":{"eee":0,"jcv":0,"lac":0,"pow":0,"sle":0,"wnv":4,"den":6},"prev_ytd":{"eee":0,"jcv":0,"lac":0,"pow":1,"sle":0,"wnv":12,"den":9},"asof":"2026-09-05","weeks":[{"w":"2026-08-22","n":{"wnv":2,"den":2}},{"w":"2026-08-15","n":{"wnv":1}},{"w":"2026-08-01","n":{"wnv":1}},{"w":"2026-05-16","n":{"den":1}},{"w":"2026-05-02","n":{"den":1}},{"w":"2026-04-18","n":{"den":1}}]}},{"type":"Feature","geometry":{"type":"MultiPolygon","coordinates":[[[[-156.05,19.78],[-155.95,19.86],[-155.86,19.97],[-155.85,20.06],[-155.89,20.25],[-155.74,20.22],[-155.6,20.12],[-155.39,20.07],[-155.12,19.9],[-155.09,19.73],[-154.98,19.69],[-154.85,19.55],[-154.88,19.43],[-155.11,19.29],[-155.26,19.27],[-155.39,19.2],[-155.56,19.07],[-155.64,18.94],[-155.81,19.01],[-155.91,19.18],[-155.89,19.35],[-155.95,19.49],[-156.0,19.64],[-156.06,19.73],[-156.05,19.78]]],[[[-156.7,20.92],[-156.56,21.02],[-156.4,20.92],[-156.19,20.89],[-156.0,20.8],[-156.04,20.66],[-156.28,20.6],[-156.44,20.66],[-156.47,20.79],[-156.56,20.79],[-156.7,20.92]]],[[[-156.67,20.56],[-156.61,20.59],[-156.57,20.61],[-156.54,20.58],[-156.54,20.53],[-156.59,20.51],[-156.67,20.5],[-156.7,20.53],[-156.67,20.56]]],[[[-157.06,20.91],[-157.01,20.93],[-156.94,20.93],[-156.87,20.89],[-156.84,20.86],[-156.81,20.82],[-156.84,20.77],[-156.89,20.75],[-156.91,20.74],[-156.97,20.73],[-156.99,20.78],[-156.99,20.83],[-157.01,20.85],[-157.06,20.89],[-157.06,20.91]]],[[[-157.28,21.16],[-157.25,21.18],[-157.26,21.23],[-157.2,21.22],[-157.13,21.2],[-157.04,21.19],[-157.01,21.2],[-156.98,21.21],[-156.96,21.21],[-156.92,21.17],[-156.84,21.17],[-156.74,21.18],[-156.71,21.16],[-156.74,21.11],[-156.8,21.07],[-156.88,21.05],[-156.95,21.07],[-157.03,21.09],[-157.08,21.1],[-157.17,21.09],[-157.25,21.09],[-157.31,21.1],[-157.28,21.16]]],[[[-158.23,21.58],[-158.05,21.67],[-157.93,21.65],[-157.84,21.47],[-157.72,21.46],[-157.65,21.31],[-157.7,21.26],[-157.81,21.26],[-157.95,21.31],[-158.09,21.3],[-158.13,21.35],[-158.18,21.43],[-158.28,21.58],[-158.23,21.58]]],[[[-159.78,22.07],[-159.75,22.1],[-159.73,22.14],[-159.71,22.16],[-159.61,22.2],[-159.58,22.22],[-159.54,22.22],[-159.51,22.2],[-159.49,22.23],[-159.43,22.22],[-159.4,22.23],[-159.36,22.21],[-159.31,22.18],[-159.29,22.12],[-159.32,22.06],[-159.33,22.04],[-159.33,22.0],[-159.34,21.95],[-159.38,21.91],[-159.44,21.87],[-159.53,21.88],[-159.57,21.89],[-159.6,21.89],[-159.65,21.93],[-159.71,21.96],[-159.75,21.98],[-159.79,22.02],[-159.78,22.07]]],[[[-160.25,21.82],[-160.23,21.89],[-160.19,21.92],[-160.14,21.95],[-160.12,21.96],[-160.11,22.0],[-160.07,22.0],[-160.06,22.0],[-160.05,21.98],[-160.07,21.96],[-160.09,21.93],[-160.08,21.9],[-160.12,21.88],[-160.16,21.87],[-160.18,21.85],[-160.19,21.82],[-160.21,21.78],[-160.23,21.79],[-160.25,21.82]]]]},"properties":{"fips":"15","name":"Hawaii","st":"HI","n":5,"by":{"wnv":1,"den":4},"ytd":{"eee":0,"jcv":0,"lac":0,"pow":0,"sle":0,"wnv":0,"den":7},"prev_ytd":{"eee":0,"jcv":0,"lac":0,"pow":0,"sle":0,"wnv":0,"den":13},"asof":"2026-09-05","weeks":[{"w":"2026-08-22","n":{"den":1}},{"w":"2026-07-18","n":{"den":1}},{"w":"2026-06-13","n":{"wnv":1}},{"w":"2026-04-11","n":{"den":1}},{"w":"2026-03-28","n":{"den":1}}]}},{"type":"Feature","geometry":{"type":"Polygon","coordinates":[[[-117.24,44.39],[-117.17,44.52],[-117.06,44.73],[-116.89,44.84],[-116.86,44.98],[-116.78,45.08],[-116.69,45.27],[-116.5,45.57],[-116.54,45.73],[-116.74,45.83],[-116.86,45.91],[-116.94,46.06],[-116.92,46.17],[-117.0,46.3],[-117.04,46.43],[-117.04,47.13],[-117.04,47.37],[-117.04,48.05],[-117.03,48.66],[-116.76,49.0],[-116.05,48.5],[-116.05,48.22],[-116.04,47.98],[-115.9,47.84],[-115.72,47.7],[-115.72,47.58],[-115.69,47.46],[-115.53,47.31],[-115.33,47.26],[-115.19,47.13],[-115.03,46.97],[-114.94,46.87],[-114.77,46.74],[-114.63,46.71],[-114.55,46.64],[-114.34,46.66],[-114.35,46.51],[-114.42,46.39],[-114.45,46.24],[-114.52,46.12],[-114.44,45.99],[-114.39,45.88],[-114.56,45.78],[-114.54,45.65],[-114.51,45.56],[-114.28,45.48],[-114.08,45.6],[-113.97,45.7],[-113.86,45.62],[-113.76,45.48],[-113.74,45.33],[-113.51,45.1],[-113.45,44.95],[-113.38,44.84],[-113.13,44.77],[-113.06,44.58],[-112.95,44.42],[-112.82,44.41],[-112.71,44.5],[-112.39,44.45],[-112.22,44.54],[-111.87,44.56],[-111.62,44.56],[-111.47,44.68],[-111.39,44.76],[-111.27,44.67],[-111.14,44.54],[-111.05,44.38],[-111.05,43.91],[-111.05,43.32],[-111.04,42.96],[-111.05,42.35],[-111.47,42.0],[-111.75,42.0],[-112.16,42.0],[-113.0,42.0],[-113.5,41.99],[-114.28,41.99],[-114.9,42.0],[-115.63,42.0],[-116.63,42.0],[-117.03,42.38],[-117.03,43.6],[-116.99,43.88],[-116.94,44.03],[-116.9,44.15],[-116.97,44.24],[-117.17,44.26],[-117.19,44.33],[-117.24,44.39]]]},"properties":{"fips":"16","name":"Idaho","st":"ID","n":2,"by":{"wnv":2},"ytd":{"eee":0,"jcv":0,"lac":0,"pow":0,"sle":0,"wnv":1,"den":1},"prev_ytd":{"eee":0,"jcv":0,"lac":0,"pow":0,"sle":0,"wnv":26,"den":6},"asof":"2026-09-05","weeks":[{"w":"2026-08-15","n":{"wnv":1}},{"w":"2026-07-25","n":{"wnv":1}}]}},{"type":"Feature","geometry":{"type":"Polygon","coordinates":[[[-91.51,40.2],[-91.47,40.32],[-91.38,40.45],[-91.37,40.58],[-91.19,40.64],[-91.12,40.7],[-91.09,40.82],[-90.95,40.95],[-90.95,41.07],[-91.04,41.17],[-91.07,41.33],[-91.06,41.37],[-90.92,41.42],[-90.7,41.45],[-90.51,41.52],[-90.36,41.58],[-90.31,41.7],[-90.25,41.78],[-90.18,41.84],[-90.16,41.94],[-90.16,42.04],[-90.27,42.17],[-90.4,42.24],[-90.45,42.36],[-90.56,42.44],[-90.64,42.51],[-90.22,42.51],[-89.84,42.51],[-89.37,42.5],[-88.94,42.49],[-88.71,42.49],[-88.22,42.5],[-87.8,42.49],[-87.83,42.3],[-87.8,42.21],[-87.74,42.13],[-87.68,42.08],[-87.62,41.91],[-87.61,41.88],[-87.59,41.81],[-87.53,41.75],[-87.53,41.53],[-87.53,41.3],[-87.53,41.01],[-87.53,40.53],[-87.53,40.25],[-87.53,39.88],[-87.53,39.48],[-87.58,39.34],[-87.59,39.25],[-87.64,39.16],[-87.58,39.0],[-87.53,38.91],[-87.52,38.83],[-87.62,38.64],[-87.66,38.54],[-87.74,38.44],[-87.83,38.31],[-87.97,38.23],[-87.96,38.1],[-88.02,37.96],[-88.07,37.86],[-88.13,37.7],[-88.13,37.57],[-88.06,37.49],[-88.36,37.41],[-88.42,37.42],[-88.52,37.29],[-88.44,37.1],[-88.49,37.07],[-88.61,37.11],[-88.83,37.2],[-88.93,37.23],[-89.1,37.14],[-89.13,37.02],[-89.26,37.02],[-89.38,37.1],[-89.48,37.26],[-89.47,37.34],[-89.47,37.47],[-89.5,37.57],[-89.52,37.7],[-89.69,37.8],[-89.85,37.9],[-89.97,37.92],[-90.08,38.02],[-90.22,38.09],[-90.32,38.18],[-90.37,38.32],[-90.34,38.39],[-90.26,38.52],[-90.19,38.61],[-90.19,38.69],[-90.17,38.77],[-90.21,38.9],[-90.3,38.92],[-90.47,38.96],[-90.59,38.88],[-90.68,38.98],[-90.71,39.15],[-90.84,39.34],[-91.04,39.45],[-91.15,39.55],[-91.28,39.67],[-91.36,39.76],[-91.44,39.85],[-91.44,39.95],[-91.51,40.17],[-91.51,40.2]]]},"properties":{"fips":"17","name":"Illinois","st":"IL","n":12,"by":{"pow":1,"wnv":6,"den":5},"ytd":{"eee":0,"jcv":0,"lac":0,"pow":1,"sle":0,"wnv":5,"den":5},"prev_ytd":{"eee":0,"jcv":0,"lac":1,"pow":1,"sle":0,"wnv":101,"den":25},"asof":"2026-09-05","weeks":[{"w":"2026-08-29","n":{"wnv":5,"den":2}},{"w":"2026-08-22","n":{"pow":1}},{"w":"2026-08-15","n":{"den":1}},{"w":"2026-08-08","n":{"den":1}},{"w":"2026-07-04","n":{"wnv":1}},{"w":"2026-04-25","n":{"den":1}}]}},{"type":"Feature","geometry":{"type":"Polygon","coordinates":[[[-88.06,37.87],[-88.03,38.03],[-87.93,38.15],[-87.97,38.24],[-87.78,38.37],[-87.71,38.48],[-87.65,38.57],[-87.55,38.68],[-87.53,38.85],[-87.53,38.91],[-87.57,39.06],[-87.64,39.17],[-87.59,39.26],[-87.53,39.35],[-87.53,39.61],[-87.53,40.01],[-87.53,40.48],[-87.53,40.74],[-87.53,41.02],[-87.53,41.3],[-87.52,41.71],[-87.36,41.63],[-87.13,41.65],[-86.91,41.73],[-86.64,41.76],[-86.23,41.76],[-85.79,41.76],[-85.29,41.76],[-84.83,41.76],[-84.81,41.53],[-84.8,41.27],[-84.8,40.99],[-84.8,40.73],[-84.8,40.47],[-84.81,40.31],[-84.81,39.92],[-84.82,39.57],[-84.82,39.3],[-84.82,39.1],[-84.88,39.03],[-84.88,38.92],[-84.79,38.88],[-84.81,38.79],[-85.02,38.76],[-85.19,38.69],[-85.28,38.74],[-85.4,38.74],[-85.44,38.6],[-85.43,38.52],[-85.5,38.47],[-85.63,38.38],[-85.75,38.27],[-85.84,38.24],[-85.91,38.11],[-85.98,38.0],[-86.1,38.01],[-86.32,38.15],[-86.43,38.09],[-86.49,38.04],[-86.51,37.9],[-86.65,37.87],[-86.78,37.96],[-86.88,37.97],[-87.01,37.92],[-87.11,37.77],[-87.25,37.87],[-87.33,37.91],[-87.49,37.92],[-87.63,37.85],[-87.72,37.89],[-87.92,37.91],[-87.9,37.82],[-88.03,37.8],[-88.06,37.87]]]},"properties":{"fips":"18","name":"Indiana","st":"IN","n":3,"by":{"wnv":2,"den":1},"ytd":{"eee":0,"jcv":0,"lac":0,"pow":0,"sle":0,"wnv":2,"den":1},"prev_ytd":{"eee":0,"jcv":0,"lac":0,"pow":0,"sle":0,"wnv":25,"den":5},"asof":"2026-09-05","weeks":[{"w":"2026-08-29","n":{"wnv":1}},{"w":"2026-08-22","n":{"wnv":1}},{"w":"2026-06-27","n":{"den":1}}]}},{"type":"Feature","geometry":{"type":"Polygon","coordinates":[[[-96.62,42.78],[-96.54,42.91],[-96.52,42.98],[-96.46,43.07],[-96.46,43.14],[-96.55,43.25],[-96.53,43.3],[-96.59,43.43],[-96.45,43.5],[-95.86,43.5],[-95.45,43.5],[-94.92,43.5],[-94.44,43.5],[-93.97,43.5],[-93.5,43.5],[-93.02,43.5],[-92.55,43.5],[-92.08,43.5],[-91.61,43.5],[-91.23,43.45],[-91.21,43.37],[-91.06,43.25],[-91.17,43.13],[-91.16,42.99],[-91.1,42.86],[-90.94,42.68],[-90.74,42.65],[-90.64,42.51],[-90.56,42.44],[-90.45,42.36],[-90.4,42.24],[-90.27,42.17],[-90.16,42.04],[-90.16,41.94],[-90.18,41.84],[-90.25,41.78],[-90.31,41.7],[-90.36,41.58],[-90.51,41.52],[-90.7,41.45],[-90.92,41.42],[-91.06,41.37],[-91.07,41.33],[-91.04,41.17],[-90.95,41.07],[-90.95,40.95],[-91.09,40.82],[-91.12,40.7],[-91.19,40.64],[-91.37,40.58],[-91.38,40.45],[-91.5,40.4],[-91.61,40.5],[-91.69,40.58],[-91.94,40.61],[-92.35,40.6],[-92.69,40.59],[-93.1,40.58],[-93.37,40.58],[-93.77,40.58],[-94.09,40.57],[-94.47,40.57],[-94.82,40.57],[-95.2,40.58],[-95.53,40.58],[-95.78,40.65],[-95.83,40.78],[-95.81,40.89],[-95.83,40.97],[-95.86,41.08],[-95.86,41.19],[-95.91,41.24],[-95.93,41.37],[-95.98,41.47],[-96.08,41.53],[-96.11,41.67],[-96.06,41.79],[-96.16,41.91],[-96.27,42.05],[-96.34,42.22],[-96.35,42.28],[-96.38,42.46],[-96.49,42.52],[-96.53,42.64],[-96.62,42.78]]]},"properties":{"fips":"19","name":"Iowa","st":"IA","n":3,"by":{"wnv":2,"den":1},"ytd":{"eee":0,"jcv":0,"lac":0,"pow":0,"sle":0,"wnv":2,"den":3},"prev_ytd":{"eee":0,"jcv":0,"lac":1,"pow":0,"sle":0,"wnv":28,"den":1},"asof":"2026-09-05","weeks":[{"w":"2026-08-22","n":{"wnv":1}},{"w":"2026-08-15","n":{"den":1}},{"w":"2026-08-08","n":{"wnv":1}}]}},{"type":"Feature","geometry":{"type":"Polygon","coordinates":[[[-102.05,40.0],[-101.41,40.0],[-101.06,40.0],[-100.48,40.0],[-99.81,40.0],[-99.5,40.0],[-99.07,40.0],[-98.5,40.0],[-97.93,40.0],[-97.42,40.0],[-96.92,40.0],[-96.47,40.0],[-96.24,40.0],[-96.01,40.0],[-95.34,40.0],[-95.14,39.9],[-94.99,39.9],[-94.88,39.83],[-94.86,39.75],[-94.97,39.69],[-95.05,39.59],[-95.09,39.53],[-94.97,39.42],[-94.91,39.32],[-94.8,39.21],[-94.68,39.18],[-94.59,39.16],[-94.61,38.98],[-94.61,38.74],[-94.61,38.48],[-94.61,38.06],[-94.62,37.68],[-94.62,37.41],[-94.62,37.16],[-94.71,37.0],[-95.07,37.0],[-95.52,37.0],[-95.93,37.0],[-96.22,37.0],[-96.75,37.0],[-97.39,37.0],[-97.8,37.0],[-98.35,37.0],[-98.79,37.0],[-99.41,37.0],[-99.66,37.0],[-100.09,37.0],[-100.86,37.0],[-101.21,37.0],[-101.9,36.99],[-102.04,37.03],[-102.04,37.39],[-102.04,37.74],[-102.05,38.27],[-102.05,38.7],[-102.05,39.37],[-102.05,39.82],[-102.05,40.0]]]},"properties":{"fips":"20","name":"Kansas","st":"KS","n":4,"by":{"wnv":4},"ytd":{"eee":0,"jcv":0,"lac":0,"pow":0,"sle":0,"wnv":4,"den":0},"prev_ytd":{"eee":0,"jcv":0,"lac":0,"pow":0,"sle":0,"wnv":27,"den":3},"asof":"2026-09-05","weeks":[{"w":"2026-08-29","n":{"wnv":2}},{"w":"2026-08-22","n":{"wnv":1}},{"w":"2026-07-25","n":{"wnv":1}}]}},{"type":"Feature","geometry":{"type":"Polygon","coordinates":[[[-89.54,36.58],[-89.38,36.62],[-89.28,36.58],[-89.18,36.65],[-89.16,36.76],[-89.15,36.85],[-89.1,36.96],[-89.17,37.07],[-89.06,37.19],[-88.93,37.23],[-88.75,37.16],[-88.56,37.08],[-88.48,37.07],[-88.42,37.15],[-88.49,37.34],[-88.42,37.42],[-88.28,37.45],[-88.07,37.5],[-88.13,37.58],[-88.06,37.74],[-87.94,37.79],[-87.92,37.9],[-87.81,37.88],[-87.68,37.86],[-87.55,37.92],[-87.42,37.95],[-87.27,37.88],[-87.14,37.81],[-87.04,37.88],[-86.93,37.94],[-86.81,38.0],[-86.66,37.87],[-86.6,37.91],[-86.52,38.04],[-86.43,38.09],[-86.36,38.13],[-86.21,38.02],[-86.0,37.99],[-85.92,38.03],[-85.89,38.19],[-85.8,38.28],[-85.65,38.34],[-85.59,38.45],[-85.43,38.52],[-85.43,38.59],[-85.45,38.71],[-85.33,38.73],[-85.2,38.7],[-85.07,38.74],[-84.86,38.79],[-84.8,38.86],[-84.86,38.91],[-84.85,39.0],[-84.86,39.08],[-84.71,39.13],[-84.61,39.07],[-84.5,39.1],[-84.46,39.12],[-84.4,39.05],[-84.3,38.99],[-84.23,38.88],[-84.21,38.81],[-84.05,38.77],[-83.9,38.77],[-83.78,38.7],[-83.68,38.63],[-83.63,38.68],[-83.38,38.66],[-83.26,38.61],[-83.13,38.64],[-83.03,38.72],[-82.89,38.76],[-82.87,38.68],[-82.8,38.56],[-82.66,38.51],[-82.6,38.38],[-82.58,38.25],[-82.63,38.13],[-82.48,37.94],[-82.4,37.84],[-82.32,37.75],[-82.14,37.59],[-82.2,37.38],[-82.36,37.27],[-82.56,37.2],[-82.72,37.06],[-82.87,36.97],[-82.89,36.88],[-83.11,36.8],[-83.39,36.69],[-83.53,36.67],[-83.69,36.58],[-83.99,36.59],[-84.23,36.59],[-84.78,36.6],[-84.94,36.61],[-85.28,36.63],[-85.44,36.62],[-85.79,36.62],[-86.08,36.63],[-86.51,36.65],[-86.61,36.65],[-87.06,36.65],[-87.35,36.64],[-87.85,36.63],[-88.07,36.68],[-88.05,36.5],[-88.49,36.5],[-88.82,36.5],[-88.96,36.5],[-89.42,36.5],[-89.54,36.58]]]},"properties":{"fips":"21","name":"Kentucky","st":"KY","n":10,"by":{"wnv":5,"den":5},"ytd":{"eee":0,"jcv":0,"lac":0,"pow":0,"sle":0,"wnv":5,"den":5},"prev_ytd":{"eee":0,"jcv":0,"lac":2,"pow":0,"sle":0,"wnv":11,"den":5},"asof":"2026-09-05","weeks":[{"w":"2026-08-22","n":{"wnv":1,"den":1}},{"w":"2026-08-08","n":{"wnv":1,"den":2}},{"w":"2026-08-01","n":{"wnv":1}},{"w":"2026-07-18","n":{"den":1}},{"w":"2026-07-11","n":{"wnv":2,"den":1}}]}},{"type":"Feature","geometry":{"type":"Polygon","coordinates":[[[-94.04,32.69],[-94.04,33.02],[-93.72,33.02],[-93.38,33.02],[-92.99,33.02],[-92.72,33.01],[-92.07,33.01],[-91.49,33.01],[-91.27,33.01],[-91.07,32.94],[-91.16,32.81],[-91.06,32.73],[-91.06,32.58],[-91.01,32.52],[-90.97,32.42],[-90.95,32.28],[-91.04,32.11],[-91.08,32.02],[-91.18,31.92],[-91.29,31.83],[-91.32,31.75],[-91.38,31.73],[-91.46,31.59],[-91.52,31.5],[-91.54,31.34],[-91.62,31.27],[-91.59,31.19],[-91.56,31.05],[-91.22,31.0],[-90.83,31.0],[-90.55,31.0],[-90.26,31.0],[-89.73,31.0],[-89.79,30.82],[-89.82,30.64],[-89.7,30.45],[-89.61,30.22],[-89.66,30.12],[-89.84,30.02],[-89.8,29.93],[-89.65,29.86],[-89.49,30.04],[-89.3,30.09],[-89.19,30.06],[-89.24,29.88],[-89.4,29.77],[-89.5,29.63],[-89.6,29.61],[-89.53,29.43],[-89.31,29.39],[-89.13,29.28],[-89.01,29.17],[-89.15,29.03],[-89.26,29.06],[-89.4,29.02],[-89.43,29.15],[-89.61,29.25],[-89.84,29.32],[-89.96,29.25],[-90.12,29.14],[-90.41,29.06],[-90.65,29.06],[-90.87,29.06],[-91.0,29.17],[-91.28,29.25],[-91.27,29.36],[-91.36,29.42],[-91.46,29.47],[-91.54,29.57],[-91.64,29.63],[-91.74,29.75],[-91.86,29.67],[-91.71,29.57],[-91.92,29.52],[-92.06,29.59],[-92.32,29.53],[-92.57,29.58],[-92.88,29.68],[-93.18,29.77],[-93.54,29.76],[-93.84,29.69],[-93.93,29.8],[-93.83,29.89],[-93.71,30.05],[-93.7,30.17],[-93.71,30.28],[-93.74,30.4],[-93.73,30.55],[-93.63,30.68],[-93.56,30.87],[-93.55,30.97],[-93.54,31.13],[-93.6,31.18],[-93.67,31.3],[-93.75,31.47],[-93.83,31.59],[-93.85,31.8],[-93.98,31.93],[-94.04,32.14],[-94.04,32.39],[-94.04,32.69]]]},"properties":{"fips":"22","name":"Louisiana","st":"LA","n":11,"by":{"lac":1,"wnv":9,"den":1},"ytd":{"eee":0,"jcv":0,"lac":1,"pow":0,"sle":0,"wnv":9,"den":1},"prev_ytd":{"eee":0,"jcv":0,"lac":3,"pow":0,"sle":10,"wnv":62,"den":20},"asof":"2026-09-05","weeks":[{"w":"2026-08-29","n":{"wnv":1}},{"w":"2026-08-22","n":{"wnv":3,"den":1}},{"w":"2026-08-15","n":{"wnv":2}},{"w":"2026-08-08","n":{"lac":1}},{"w":"2026-08-01","n":{"wnv":1}},{"w":"2026-07-18","n":{"wnv":2}}]}},{"type":"Feature","geometry":{"type":"MultiPolygon","coordinates":[[[[-71.08,45.3],[-70.95,45.33],[-70.84,45.23],[-70.81,45.31],[-70.83,45.4],[-70.73,45.4],[-70.64,45.43],[-70.69,45.56],[-70.55,45.67],[-70.38,45.73],[-70.33,45.85],[-70.27,45.96],[-70.32,46.02],[-70.24,46.14],[-70.23,46.28],[-70.16,46.36],[-70.05,46.43],[-69.82,46.88],[-69.22,47.46],[-69.04,47.42],[-68.97,47.21],[-68.68,47.24],[-68.51,47.3],[-68.38,47.33],[-68.2,47.34],[-68.0,47.22],[-67.79,47.07],[-67.78,46.28],[-67.75,45.92],[-67.8,45.78],[-67.8,45.68],[-67.63,45.62],[-67.42,45.57],[-67.48,45.45],[-67.48,45.27],[-67.34,45.13],[-67.2,45.17],[-67.09,45.07],[-66.98,44.9],[-67.03,44.77],[-67.17,44.66],[-67.37,44.62],[-67.49,44.56],[-67.58,44.43],[-67.71,44.5],[-67.86,44.42],[-67.94,44.41],[-68.05,44.33],[-68.19,44.37],[-68.23,44.27],[-68.31,44.2],[-68.5,44.1],[-68.62,44.01],[-68.78,44.06],[-68.94,44.13],[-68.95,44.22],[-69.06,44.17],[-69.07,44.04],[-69.13,43.98],[-69.24,43.92],[-69.36,43.92],[-69.42,43.92],[-69.55,43.84],[-69.7,43.8],[-69.81,43.73],[-69.86,43.76],[-69.98,43.74],[-70.07,43.71],[-70.17,43.67],[-70.21,43.56],[-70.34,43.53],[-70.33,43.46],[-70.42,43.36],[-70.52,43.34],[-70.58,43.27],[-70.6,43.16],[-70.7,43.06],[-70.83,43.13],[-70.81,43.22],[-70.98,43.38],[-70.95,43.51],[-70.98,43.61],[-70.99,43.84],[-71.01,44.28],[-71.02,44.44],[-71.06,45.0],[-71.08,45.3]]]]},"properties":{"fips":"23","name":"Maine","st":"ME","n":4,"by":{"pow":4},"ytd":{"eee":0,"jcv":0,"lac":0,"pow":4,"sle":0,"wnv":0,"den":0},"prev_ytd":{"eee":1,"jcv":1,"lac":0,"pow":1,"sle":1,"wnv":2,"den":3},"asof":"2026-09-05","weeks":[{"w":"2026-08-29","n":{"pow":1}},{"w":"2026-07-18","n":{"pow":2}},{"w":"2026-07-04","n":{"pow":1}}]}},{"type":"Feature","geometry":{"type":"MultiPolygon","coordinates":[[[[-79.48,39.34],[-79.39,39.72],[-78.81,39.72],[-78.34,39.72],[-78.08,39.72],[-77.47,39.72],[-77.22,39.72],[-76.79,39.72],[-76.42,39.72],[-76.23,39.72],[-75.77,39.38],[-75.76,39.25],[-75.71,38.63],[-75.7,38.54],[-75.34,38.45],[-75.09,38.32],[-75.18,38.13],[-75.62,37.99],[-75.78,37.97],[-75.9,37.98],[-75.86,38.1],[-75.86,38.2],[-75.92,38.25],[-76.03,38.19],[-76.05,38.09],[-76.14,38.23],[-76.25,38.36],[-76.28,38.54],[-76.23,38.61],[-76.17,38.64],[-76.24,38.71],[-76.35,38.69],[-76.38,38.79],[-76.22,38.81],[-76.2,38.89],[-76.32,38.91],[-76.36,38.94],[-76.27,39.03],[-76.25,39.12],[-76.21,39.27],[-76.11,39.37],[-76.01,39.41],[-76.06,39.45],[-76.3,39.3],[-76.4,39.23],[-76.5,39.2],[-76.43,39.13],[-76.39,39.01],[-76.45,38.94],[-76.49,38.88],[-76.53,38.79],[-76.53,38.71],[-76.52,38.54],[-76.39,38.39],[-76.4,38.31],[-76.35,38.18],[-76.32,38.04],[-76.48,38.12],[-76.67,38.23],[-76.83,38.26],[-76.97,38.35],[-77.08,38.42],[-77.26,38.44],[-77.13,38.61],[-77.09,38.7],[-77.04,38.74],[-77.04,38.79],[-77.0,38.97],[-77.12,38.93],[-77.25,38.99],[-77.31,39.05],[-77.46,39.08],[-77.52,39.16],[-77.46,39.22],[-77.59,39.3],[-77.72,39.32],[-77.8,39.48],[-77.83,39.59],[-78.03,39.62],[-78.31,39.63],[-78.44,39.56],[-78.59,39.53],[-78.74,39.61],[-78.94,39.48],[-79.07,39.47],[-79.26,39.33],[-79.42,39.23],[-79.48,39.34]]]]},"properties":{"fips":"24","name":"Maryland","st":"MD","n":14,"by":{"wnv":6,"den":8},"ytd":{"eee":0,"jcv":0,"lac":0,"pow":0,"sle":0,"wnv":4,"den":10},"prev_ytd":{"eee":0,"jcv":0,"lac":0,"pow":1,"sle":0,"wnv":28,"den":48},"asof":"2026-09-05","weeks":[{"w":"2026-08-29","n":{"den":1}},{"w":"2026-08-22","n":{"wnv":1,"den":2}},{"w":"2026-08-15","n":{"wnv":1}},{"w":"2026-08-08","n":{"wnv":2}},{"w":"2026-08-01","n":{"den":1}},{"w":"2026-06-06","n":{"den":1}}]}},{"type":"Feature","geometry":{"type":"MultiPolygon","coordinates":[[[[-70.28,41.31],[-70.19,41.31],[-70.08,41.32],[-70.05,41.39],[-69.98,41.36],[-69.96,41.27],[-70.02,41.24],[-70.1,41.24],[-70.21,41.25],[-70.28,41.31]]],[[[-70.83,41.35],[-70.76,41.37],[-70.69,41.44],[-70.6,41.48],[-70.55,41.45],[-70.5,41.42],[-70.46,41.42],[-70.45,41.35],[-70.58,41.35],[-70.69,41.34],[-70.77,41.3],[-70.82,41.25],[-70.83,41.32],[-70.83,41.35]]],[[[-73.51,42.09],[-73.31,42.63],[-73.02,42.74],[-72.93,42.74],[-72.81,42.74],[-72.45,42.73],[-72.2,42.72],[-72.08,42.72],[-71.81,42.71],[-71.64,42.7],[-71.35,42.7],[-71.25,42.74],[-71.19,42.79],[-71.15,42.81],[-71.05,42.83],[-70.93,42.88],[-70.81,42.78],[-70.73,42.67],[-70.6,42.68],[-70.7,42.58],[-70.85,42.54],[-70.9,42.45],[-70.95,42.42],[-70.98,42.42],[-70.98,42.34],[-70.97,42.27],[-70.88,42.3],[-70.79,42.25],[-70.69,42.13],[-70.64,42.08],[-70.66,41.96],[-70.55,41.92],[-70.54,41.81],[-70.32,41.74],[-70.12,41.76],[-70.01,41.85],[-70.08,42.01],[-70.25,42.06],[-70.14,42.09],[-69.98,41.95],[-69.93,41.69],[-70.01,41.54],[-70.06,41.66],[-70.32,41.63],[-70.48,41.56],[-70.67,41.51],[-70.86,41.43],[-70.81,41.5],[-70.69,41.6],[-70.77,41.64],[-70.85,41.59],[-70.91,41.58],[-71.02,41.5],[-71.12,41.5],[-71.2,41.67],[-71.26,41.75],[-71.34,41.83],[-71.38,41.95],[-71.46,42.02],[-71.59,42.01],[-71.8,42.02],[-72.1,42.03],[-72.32,42.03],[-72.53,42.03],[-72.77,42.0],[-72.85,42.04],[-73.05,42.04],[-73.49,42.05],[-73.51,42.09]]]]},"properties":{"fips":"25","name":"Massachusetts","st":"MA","n":22,"by":{"pow":12,"wnv":3,"den":7},"ytd":{"eee":0,"jcv":0,"lac":0,"pow":12,"sle":0,"wnv":3,"den":7},"prev_ytd":{"eee":0,"jcv":0,"lac":0,"pow":5,"sle":0,"wnv":7,"den":22},"asof":"2026-09-05","weeks":[{"w":"2026-08-29","n":{"wnv":1}},{"w":"2026-08-22","n":{"wnv":2,"den":2}},{"w":"2026-08-15","n":{"pow":1,"den":1}},{"w":"2026-08-01","n":{"pow":1}},{"w":"2026-07-18","n":{"pow":1}},{"w":"2026-07-11","n":{"pow":1}}]}},{"type":"Feature","geometry":{"type":"MultiPolygon","coordinates":[[[[-84.62,45.89],[-84.52,45.83],[-84.42,45.8],[-84.36,45.77],[-84.39,45.73],[-84.48,45.73],[-84.59,45.81],[-84.65,45.86],[-84.62,45.89]]],[[[-85.7,45.74],[-85.65,45.74],[-85.52,45.83],[-85.36,45.82],[-85.38,45.77],[-85.51,45.6],[-85.56,45.57],[-85.62,45.59],[-85.7,45.7],[-85.7,45.74]]],[[[-86.14,45.04],[-86.04,45.16],[-85.99,45.15],[-85.95,45.12],[-85.98,45.06],[-86.08,44.99],[-86.16,45.0],[-86.14,45.04]]],[[[-86.69,41.84],[-86.47,42.13],[-86.28,42.4],[-86.23,42.63],[-86.21,42.77],[-86.25,43.08],[-86.41,43.34],[-86.48,43.52],[-86.51,43.7],[-86.43,43.84],[-86.46,43.97],[-86.46,44.1],[-86.39,44.18],[-86.25,44.4],[-86.22,44.57],[-86.16,44.73],[-86.07,44.82],[-85.93,44.97],[-85.75,45.05],[-85.55,45.21],[-85.56,45.03],[-85.43,45.02],[-85.38,45.18],[-85.3,45.32],[-85.06,45.36],[-84.98,45.43],[-85.12,45.57],[-85.02,45.76],[-84.73,45.78],[-84.46,45.65],[-84.21,45.63],[-84.1,45.5],[-83.84,45.44],[-83.49,45.36],[-83.39,45.21],[-83.34,45.04],[-83.44,45.0],[-83.32,44.88],[-83.28,44.69],[-83.32,44.49],[-83.44,44.27],[-83.57,44.16],[-83.69,43.99],[-83.9,43.91],[-83.95,43.73],[-83.73,43.62],[-83.53,43.72],[-83.48,43.79],[-83.28,43.94],[-83.05,44.02],[-82.79,44.02],[-82.61,43.74],[-82.54,43.42],[-82.49,43.1],[-82.47,42.89],[-82.58,42.55],[-82.64,42.66],[-82.77,42.6],[-82.86,42.54],[-82.87,42.45],[-82.95,42.34],[-83.1,42.29],[-83.13,42.09],[-83.22,41.99],[-83.34,41.88],[-83.42,41.74],[-83.76,41.72],[-84.13,41.71],[-84.44,41.7],[-84.83,41.76],[-85.29,41.76],[-85.79,41.76],[-86.23,41.76],[-86.64,41.76],[-86.69,41.84]]],[[[-89.22,47.91],[-89.18,47.94],[-89.02,47.99],[-88.94,48.02],[-88.89,48.03],[-88.82,48.06],[-88.73,48.1],[-88.63,48.15],[-88.55,48.17],[-88.42,48.21],[-88.43,48.17],[-88.55,48.1],[-88.58,48.04],[-88.72,47.99],[-88.85,47.97],[-88.9,47.9],[-89.04,47.86],[-89.16,47.82],[-89.2,47.85],[-89.25,47.88],[-89.22,47.91]]],[[[-90.42,46.57],[-90.05,46.67],[-89.83,46.8],[-89.57,46.83],[-89.23,46.91],[-88.96,47.01],[-88.89,47.1],[-88.58,47.24],[-88.42,47.37],[-88.08,47.47],[-87.68,47.46],[-87.8,47.39],[-88.02,47.31],[-88.2,47.2],[-88.39,47.01],[-88.48,46.85],[-88.14,46.97],[-87.9,46.91],[-87.59,46.78],[-87.38,46.58],[-87.12,46.51],[-86.81,46.45],[-86.63,46.53],[-86.19,46.65],[-85.86,46.69],[-85.26,46.75],[-84.97,46.77],[-84.97,46.48],[-84.61,46.46],[-84.42,46.5],[-84.12,46.52],[-84.1,46.26],[-84.03,46.13],[-83.82,46.11],[-83.48,46.0],[-83.66,45.95],[-84.08,45.97],[-84.38,45.93],[-84.63,45.95],[-84.79,45.86],[-85.15,46.05],[-85.54,46.08],[-85.81,45.98],[-86.07,45.97],[-86.44,45.76],[-86.62,45.62],[-86.7,45.69],[-86.84,45.72],[-87.17,45.66],[-87.35,45.41],[-87.59,45.09],[-87.74,45.2],[-87.66,45.37],[-87.8,45.35],[-87.85,45.44],[-87.79,45.58],[-87.78,45.67],[-87.88,45.76],[-88.05,45.78],[-88.14,45.82],[-88.12,45.92],[-88.31,45.96],[-88.53,46.02],[-88.66,45.99],[-88.74,46.03],[-88.99,46.1],[-89.93,46.3],[-90.22,46.5],[-90.39,46.53],[-90.42,46.57]]]]},"properties":{"fips":"26","name":"Michigan","st":"MI","n":8,"by":{"eee":1,"wnv":5,"den":2},"ytd":{"eee":1,"jcv":0,"lac":0,"pow":0,"sle":0,"wnv":5,"den":3},"prev_ytd":{"eee":0,"jcv":8,"lac":0,"pow":0,"sle":0,"wnv":36,"den":4},"asof":"2026-09-05","weeks":[{"w":"2026-08-29","n":{"wnv":2}},{"w":"2026-08-22","n":{"eee":1,"wnv":1}},{"w":"2026-08-15","n":{"wnv":2}},{"w":"2026-04-11","n":{"den":1}},{"w":"2026-03-28","n":{"den":1}}]}},{"type":"Feature","geometry":{"type":"Polygon","coordinates":[[[-97.23,49.0],[-95.97,49.0],[-95.15,49.0],[-95.15,49.38],[-94.95,49.37],[-94.8,49.21],[-94.72,49.0],[-94.69,48.79],[-94.45,48.69],[-94.28,48.7],[-94.09,48.64],[-93.81,48.57],[-93.56,48.53],[-93.37,48.6],[-93.14,48.62],[-92.89,48.59],[-92.63,48.51],[-92.52,48.45],[-92.42,48.3],[-92.3,48.28],[-92.16,48.36],[-91.98,48.25],[-91.78,48.2],[-91.56,48.11],[-91.34,48.07],[-91.04,48.19],[-90.84,48.24],[-90.7,48.1],[-90.32,48.1],[-89.97,48.02],[-89.62,48.01],[-89.66,47.95],[-89.92,47.86],[-90.19,47.78],[-90.54,47.7],[-90.87,47.56],[-91.26,47.28],[-91.57,47.09],[-91.79,46.94],[-92.01,46.83],[-92.05,46.71],[-92.18,46.7],[-92.29,46.5],[-92.29,46.16],[-92.35,46.02],[-92.47,45.97],[-92.66,45.92],[-92.78,45.79],[-92.87,45.72],[-92.88,45.57],[-92.73,45.53],[-92.66,45.4],[-92.76,45.28],[-92.74,45.12],[-92.76,45.02],[-92.77,44.86],[-92.79,44.76],[-92.62,44.61],[-92.36,44.56],[-92.29,44.48],[-92.11,44.41],[-91.92,44.32],[-91.82,44.16],[-91.57,44.03],[-91.42,43.98],[-91.29,43.85],[-91.27,43.67],[-91.22,43.5],[-91.73,43.5],[-92.18,43.5],[-92.55,43.5],[-93.05,43.5],[-93.58,43.5],[-94.25,43.5],[-94.86,43.5],[-95.22,43.5],[-95.49,43.5],[-96.05,43.5],[-96.45,43.55],[-96.45,44.2],[-96.45,44.54],[-96.46,44.98],[-96.47,45.33],[-96.56,45.39],[-96.71,45.44],[-96.83,45.59],[-96.83,45.65],[-96.63,45.78],[-96.56,45.94],[-96.56,46.08],[-96.65,46.36],[-96.79,46.63],[-96.79,46.69],[-96.83,47.01],[-96.84,47.24],[-96.86,47.5],[-96.89,47.67],[-97.04,47.93],[-97.15,48.17],[-97.13,48.26],[-97.15,48.53],[-97.14,48.58],[-97.15,48.77],[-97.23,49.0]]]},"properties":{"fips":"27","name":"Minnesota","st":"MN","n":7,"by":{"pow":2,"wnv":4,"den":1},"ytd":{"eee":0,"jcv":0,"lac":0,"pow":2,"sle":0,"wnv":4,"den":1},"prev_ytd":{"eee":0,"jcv":4,"lac":1,"pow":9,"sle":0,"wnv":134,"den":16},"asof":"2026-09-05","weeks":[{"w":"2026-08-29","n":{"wnv":1}},{"w":"2026-08-22","n":{"wnv":1}},{"w":"2026-08-15","n":{"pow":1,"wnv":2}},{"w":"2026-08-08","n":{"den":1}},{"w":"2026-07-11","n":{"pow":1}}]}},{"type":"Feature","geometry":{"type":"Polygon","coordinates":[[[-91.62,31.27],[-91.54,31.34],[-91.52,31.5],[-91.46,31.59],[-91.38,31.73],[-91.32,31.75],[-91.29,31.83],[-91.18,31.92],[-91.08,32.02],[-91.04,32.11],[-90.95,32.28],[-90.97,32.42],[-91.01,32.52],[-91.06,32.58],[-91.06,32.73],[-91.16,32.81],[-91.07,32.94],[-91.16,33.01],[-91.15,33.13],[-91.07,33.23],[-91.14,33.35],[-91.17,33.46],[-91.22,33.53],[-91.13,33.61],[-91.08,33.71],[-91.09,33.78],[-91.05,33.82],[-91.04,33.94],[-91.0,33.98],[-90.89,34.03],[-90.95,34.11],[-90.94,34.15],[-90.89,34.22],[-90.75,34.29],[-90.66,34.34],[-90.58,34.46],[-90.55,34.57],[-90.55,34.66],[-90.47,34.79],[-90.4,34.84],[-90.25,34.91],[-89.8,34.99],[-89.64,34.99],[-89.2,34.99],[-88.82,34.99],[-88.38,35.0],[-88.2,35.0],[-88.13,34.62],[-88.17,34.32],[-88.25,33.74],[-88.3,33.29],[-88.35,32.93],[-88.42,32.31],[-88.45,32.05],[-88.47,31.79],[-88.45,31.44],[-88.43,31.0],[-88.4,30.54],[-88.45,30.35],[-88.58,30.33],[-88.7,30.34],[-88.82,30.36],[-89.08,30.37],[-89.31,30.3],[-89.45,30.2],[-89.61,30.22],[-89.7,30.45],[-89.82,30.64],[-89.79,30.82],[-89.73,31.0],[-90.26,31.0],[-90.55,31.0],[-90.83,31.0],[-91.22,31.0],[-91.56,31.05],[-91.59,31.19],[-91.62,31.27]]]},"properties":{"fips":"28","name":"Mississippi","st":"MS","n":13,"by":{"wnv":13},"ytd":{"eee":0,"jcv":0,"lac":0,"pow":0,"sle":0,"wnv":13,"den":0},"prev_ytd":{"eee":0,"jcv":0,"lac":0,"pow":0,"sle":0,"wnv":30,"den":2},"asof":"2026-09-05","weeks":[{"w":"2026-08-29","n":{"wnv":6}},{"w":"2026-08-08","n":{"wnv":4}},{"w":"2026-07-25","n":{"wnv":2}},{"w":"2026-07-04","n":{"wnv":1}}]}},{"type":"Feature","geometry":{"type":"Polygon","coordinates":[[[-95.77,40.59],[-95.34,40.58],[-94.92,40.58],[-94.53,40.57],[-94.23,40.57],[-93.84,40.58],[-93.56,40.58],[-93.14,40.58],[-92.72,40.59],[-92.45,40.59],[-91.94,40.61],[-91.72,40.6],[-91.62,40.54],[-91.52,40.43],[-91.47,40.32],[-91.51,40.2],[-91.48,40.02],[-91.43,39.91],[-91.36,39.79],[-91.31,39.69],[-91.17,39.59],[-91.06,39.49],[-90.94,39.4],[-90.72,39.22],[-90.71,39.05],[-90.66,38.92],[-90.5,38.91],[-90.4,38.96],[-90.23,38.91],[-90.12,38.81],[-90.21,38.73],[-90.18,38.66],[-90.25,38.53],[-90.29,38.44],[-90.35,38.38],[-90.35,38.22],[-90.25,38.13],[-90.13,38.05],[-89.95,37.97],[-89.92,37.87],[-89.7,37.81],[-89.59,37.72],[-89.49,37.58],[-89.51,37.53],[-89.43,37.36],[-89.52,37.28],[-89.46,37.19],[-89.31,37.03],[-89.13,36.98],[-89.12,36.89],[-89.16,36.79],[-89.17,36.66],[-89.23,36.57],[-89.33,36.62],[-89.48,36.57],[-89.54,36.5],[-89.51,36.38],[-89.6,36.34],[-89.6,36.24],[-89.63,36.19],[-89.64,36.1],[-89.73,36.0],[-90.1,36.0],[-90.34,36.05],[-90.22,36.19],[-90.11,36.27],[-90.07,36.39],[-90.15,36.49],[-90.58,36.5],[-91.02,36.5],[-91.41,36.5],[-91.67,36.5],[-92.15,36.5],[-92.56,36.5],[-92.85,36.5],[-93.31,36.5],[-93.7,36.5],[-94.08,36.5],[-94.62,36.61],[-94.62,37.0],[-94.62,37.34],[-94.62,37.65],[-94.61,37.99],[-94.61,38.24],[-94.61,38.48],[-94.61,38.74],[-94.61,39.04],[-94.6,39.16],[-94.74,39.17],[-94.83,39.24],[-94.89,39.39],[-94.98,39.44],[-95.11,39.55],[-95.04,39.61],[-94.97,39.72],[-94.87,39.77],[-94.93,39.88],[-95.02,39.9],[-95.23,39.94],[-95.38,40.03],[-95.43,40.14],[-95.55,40.26],[-95.55,40.29],[-95.64,40.37],[-95.69,40.49],[-95.76,40.53],[-95.77,40.59]]]},"properties":{"fips":"29","name":"Missouri","st":"MO","n":6,"by":{"wnv":2,"den":4},"ytd":{"eee":0,"jcv":0,"lac":0,"pow":0,"sle":0,"wnv":2,"den":4},"prev_ytd":{"eee":0,"jcv":0,"lac":1,"pow":0,"sle":0,"wnv":42,"den":3},"asof":"2026-09-05","weeks":[{"w":"2026-08-22","n":{"wnv":1}},{"w":"2026-08-15","n":{"wnv":1}},{"w":"2026-08-08","n":{"den":1}},{"w":"2026-07-25","n":{"den":1}},{"w":"2026-06-06","n":{"den":1}},{"w":"2026-03-28","n":{"den":1}}]}},{"type":"Feature","geometry":{"type":"Polygon","coordinates":[[[-104.05,41.11],[-104.05,41.39],[-104.05,41.7],[-104.05,42.02],[-104.05,42.61],[-103.5,43.0],[-102.79,43.0],[-102.08,43.0],[-100.2,43.0],[-99.53,43.0],[-98.5,43.0],[-98.39,42.92],[-98.23,42.86],[-98.11,42.81],[-97.91,42.8],[-97.8,42.86],[-97.6,42.86],[-97.45,42.85],[-97.3,42.87],[-97.17,42.79],[-97.02,42.76],[-96.81,42.7],[-96.7,42.66],[-96.63,42.53],[-96.5,42.48],[-96.41,42.41],[-96.34,42.27],[-96.35,42.17],[-96.22,42.02],[-96.13,41.87],[-96.09,41.72],[-96.12,41.61],[-96.0,41.54],[-95.92,41.46],[-95.93,41.32],[-95.91,41.19],[-95.86,41.16],[-95.86,41.05],[-95.84,40.92],[-95.84,40.85],[-95.89,40.74],[-95.75,40.6],[-95.71,40.53],[-95.68,40.46],[-95.65,40.32],[-95.55,40.26],[-95.47,40.24],[-95.39,40.11],[-95.35,40.03],[-95.78,40.0],[-96.02,40.0],[-96.24,40.0],[-96.81,40.0],[-97.01,40.0],[-97.78,40.0],[-98.08,40.0],[-98.61,40.0],[-99.09,40.0],[-99.62,40.0],[-100.18,40.0],[-100.74,40.0],[-101.29,40.0],[-101.54,40.0],[-102.05,40.34],[-102.05,40.7],[-102.05,41.0],[-102.65,41.0],[-103.57,41.0],[-104.05,41.11]]]},"properties":{"fips":"31","name":"Nebraska","st":"NE","n":19,"by":{"wnv":17,"den":2},"ytd":{"eee":0,"jcv":0,"lac":0,"pow":0,"sle":0,"wnv":17,"den":2},"prev_ytd":{"eee":0,"jcv":0,"lac":0,"pow":0,"sle":0,"wnv":33,"den":0},"asof":"2026-09-05","weeks":[{"w":"2026-08-29","n":{"wnv":6}},{"w":"2026-08-22","n":{"wnv":1}},{"w":"2026-08-15","n":{"wnv":4,"den":1}},{"w":"2026-08-08","n":{"wnv":2,"den":1}},{"w":"2026-07-25","n":{"wnv":2}},{"w":"2026-07-18","n":{"wnv":1}}]}},{"type":"Feature","geometry":{"type":"Polygon","coordinates":[[[-120.0,39.32],[-120.0,39.72],[-120.0,40.32],[-120.0,41.18],[-120.0,41.99],[-119.32,41.99],[-118.78,41.99],[-118.2,42.0],[-117.4,42.0],[-117.02,42.0],[-115.87,42.0],[-115.04,42.0],[-114.28,41.99],[-114.04,41.75],[-114.04,41.0],[-114.05,40.5],[-114.05,40.1],[-114.05,39.54],[-114.05,38.88],[-114.05,38.57],[-114.05,38.15],[-114.05,37.75],[-114.05,37.28],[-114.05,36.84],[-114.05,36.27],[-114.14,36.05],[-114.27,36.04],[-114.37,36.14],[-114.49,36.13],[-114.63,36.14],[-114.74,36.07],[-114.73,35.94],[-114.7,35.81],[-114.65,35.61],[-114.63,35.41],[-114.6,35.12],[-114.63,35.0],[-115.16,35.42],[-115.65,35.81],[-115.89,36.0],[-116.49,36.46],[-117.25,37.03],[-118.02,37.6],[-118.95,38.27],[-119.33,38.54],[-119.9,38.93],[-120.0,39.11],[-120.0,39.32]]]},"properties":{"fips":"32","name":"Nevada","st":"NV","n":4,"by":{"wnv":1,"den":3},"ytd":{"eee":0,"jcv":0,"lac":0,"pow":0,"sle":0,"wnv":1,"den":3},"prev_ytd":{"eee":0,"jcv":0,"lac":0,"pow":0,"sle":0,"wnv":2,"den":8},"asof":"2026-09-05","weeks":[{"w":"2026-07-18","n":{"den":1}},{"w":"2026-07-04","n":{"wnv":1,"den":2}}]}},{"type":"Feature","geometry":{"type":"Polygon","coordinates":[[[-72.56,42.87],[-72.49,42.97],[-72.46,43.04],[-72.45,43.16],[-72.42,43.26],[-72.41,43.36],[-72.38,43.49],[-72.33,43.61],[-72.21,43.77],[-72.11,43.95],[-72.08,44.03],[-72.05,44.16],[-72.05,44.29],[-71.88,44.34],[-71.78,44.4],[-71.65,44.47],[-71.55,44.58],[-71.63,44.75],[-71.49,44.91],[-71.5,45.07],[-71.41,45.2],[-71.28,45.3],[-71.14,45.24],[-71.06,45.0],[-71.02,44.44],[-71.01,44.28],[-70.99,43.84],[-70.98,43.61],[-70.95,43.51],[-70.98,43.38],[-70.81,43.22],[-70.83,43.13],[-70.7,43.06],[-70.8,42.92],[-70.86,42.87],[-71.03,42.86],[-71.12,42.81],[-71.18,42.79],[-71.25,42.74],[-71.29,42.7],[-71.54,42.7],[-71.77,42.71],[-71.93,42.71],[-72.12,42.72],[-72.41,42.73],[-72.48,42.76],[-72.56,42.87]]]},"properties":{"fips":"33","name":"New Hampshire","st":"NH","n":2,"by":{"pow":2},"ytd":{"eee":0,"jcv":0,"lac":0,"pow":2,"sle":0,"wnv":0,"den":0},"prev_ytd":{"eee":0,"jcv":0,"lac":0,"pow":2,"sle":0,"wnv":0,"den":2},"asof":"2026-09-05","weeks":[{"w":"2026-08-01","n":{"pow":1}},{"w":"2026-06-20","n":{"pow":1}}]}},{"type":"Feature","geometry":{"type":"Polygon","coordinates":[[[-75.56,39.63],[-75.48,39.72],[-75.41,39.8],[-75.22,39.86],[-75.14,39.89],[-75.14,39.95],[-75.06,39.99],[-74.97,40.05],[-74.83,40.12],[-74.72,40.15],[-74.82,40.24],[-74.93,40.34],[-75.03,40.4],[-75.06,40.48],[-75.19,40.57],[-75.19,40.64],[-75.11,40.79],[-75.06,40.89],[-75.13,40.98],[-75.02,41.06],[-74.98,41.11],[-74.82,41.3],[-74.46,41.25],[-74.23,41.14],[-74.04,41.06],[-73.92,40.92],[-73.94,40.88],[-73.97,40.82],[-74.01,40.76],[-74.03,40.72],[-74.05,40.69],[-74.09,40.65],[-74.2,40.63],[-74.22,40.56],[-74.26,40.47],[-74.16,40.45],[-74.02,40.47],[-73.97,40.35],[-74.03,40.12],[-74.08,39.91],[-74.1,39.76],[-74.29,39.51],[-74.41,39.36],[-74.58,39.27],[-74.71,39.12],[-74.81,38.99],[-74.97,38.93],[-74.89,39.14],[-75.0,39.19],[-75.14,39.18],[-75.24,39.29],[-75.36,39.35],[-75.44,39.4],[-75.53,39.5],[-75.54,39.6],[-75.56,39.63]]]},"properties":{"fips":"34","name":"New Jersey","st":"NJ","n":11,"by":{"wnv":1,"den":10},"ytd":{"eee":0,"jcv":0,"lac":0,"pow":0,"sle":0,"wnv":1,"den":10},"prev_ytd":{"eee":0,"jcv":1,"lac":0,"pow":2,"sle":0,"wnv":16,"den":9},"asof":"2026-09-05","weeks":[{"w":"2026-08-29","n":{"den":2}},{"w":"2026-08-22","n":{"wnv":1,"den":1}},{"w":"2026-07-25","n":{"den":1}},{"w":"2026-07-04","n":{"den":1}},{"w":"2026-06-27","n":{"den":2}},{"w":"2026-06-20","n":{"den":1}}]}},{"type":"Feature","geometry":{"type":"Polygon","coordinates":[[[-109.05,31.8],[-109.05,32.78],[-109.05,33.21],[-109.05,33.88],[-109.05,34.96],[-109.05,35.36],[-109.05,36.0],[-109.05,37.0],[-108.0,37.0],[-106.88,37.0],[-106.34,36.99],[-105.72,37.0],[-105.42,37.0],[-105.16,36.99],[-104.34,36.99],[-103.09,37.0],[-103.0,36.67],[-103.04,36.5],[-103.04,35.62],[-103.04,34.95],[-103.04,34.38],[-103.04,34.11],[-103.05,33.57],[-103.06,33.22],[-103.06,32.59],[-103.06,32.09],[-103.72,32.0],[-104.64,32.0],[-105.15,32.0],[-106.2,32.0],[-106.63,31.97],[-106.58,31.81],[-106.99,31.78],[-108.21,31.78],[-108.71,31.33],[-109.05,31.8]]]},"properties":{"fips":"35","name":"New Mexico","st":"NM","n":7,"by":{"wnv":6,"den":1},"ytd":{"eee":0,"jcv":0,"lac":0,"pow":0,"sle":0,"wnv":6,"den":2},"prev_ytd":{"eee":0,"jcv":0,"lac":0,"pow":0,"sle":0,"wnv":38,"den":1},"asof":"2026-09-05","weeks":[{"w":"2026-08-29","n":{"wnv":2}},{"w":"2026-08-15","n":{"wnv":2}},{"w":"2026-07-25","n":{"wnv":2}},{"w":"2026-03-21","n":{"den":1}}]}},{"type":"Feature","geometry":{"type":"MultiPolygon","coordinates":[[[[-79.76,42.27],[-79.38,42.47],[-79.14,42.56],[-79.06,42.65],[-78.91,42.75],[-78.87,42.83],[-78.91,42.93],[-79.02,42.99],[-79.02,43.07],[-79.06,43.13],[-79.07,43.26],[-78.47,43.37],[-78.0,43.37],[-77.81,43.34],[-77.55,43.24],[-77.34,43.28],[-77.0,43.27],[-76.77,43.32],[-76.63,43.41],[-76.42,43.52],[-76.32,43.51],[-76.2,43.65],[-76.23,43.8],[-76.44,43.88],[-76.31,44.02],[-76.37,44.1],[-76.29,44.2],[-76.16,44.28],[-75.95,44.35],[-75.81,44.47],[-75.42,44.76],[-75.14,44.9],[-74.99,44.98],[-74.75,44.99],[-74.61,45.0],[-74.03,45.0],[-73.34,45.01],[-73.38,44.86],[-73.34,44.8],[-73.39,44.62],[-73.35,44.55],[-73.32,44.38],[-73.32,44.26],[-73.39,44.17],[-73.44,44.04],[-73.41,43.93],[-73.38,43.81],[-73.39,43.7],[-73.4,43.57],[-73.24,43.53],[-73.27,43.04],[-73.28,42.83],[-73.31,42.63],[-73.51,42.09],[-73.5,41.82],[-73.53,41.53],[-73.54,41.38],[-73.55,41.3],[-73.73,41.1],[-73.66,40.99],[-73.76,40.91],[-73.71,40.87],[-73.5,40.92],[-73.44,40.94],[-73.24,40.91],[-73.14,40.96],[-72.86,40.97],[-72.5,41.04],[-72.35,41.14],[-72.18,41.18],[-72.22,41.04],[-72.08,41.1],[-71.96,41.07],[-71.94,41.01],[-72.4,40.87],[-73.01,40.68],[-73.31,40.62],[-73.48,40.6],[-73.75,40.59],[-73.94,40.54],[-74.04,40.59],[-74.11,40.55],[-74.25,40.55],[-74.2,40.63],[-74.16,40.65],[-74.07,40.67],[-74.04,40.7],[-74.02,40.74],[-73.97,40.82],[-73.95,40.86],[-73.92,40.91],[-73.89,41.0],[-74.23,41.14],[-74.37,41.2],[-74.73,41.43],[-74.89,41.45],[-75.05,41.6],[-75.07,41.8],[-75.19,41.86],[-75.34,41.99],[-75.48,42.0],[-76.11,42.0],[-76.47,42.0],[-76.93,42.0],[-77.61,42.0],[-78.03,42.0],[-78.31,42.0],[-78.98,42.0],[-79.61,42.0],[-79.76,42.27]]]]},"properties":{"fips":"36","name":"New York","st":"NY","n":29,"by":{"pow":5,"wnv":8,"den":16},"ytd":{"eee":0,"jcv":0,"lac":0,"pow":5,"sle":0,"wnv":8,"den":23},"prev_ytd":{"eee":0,"jcv":0,"lac":0,"pow":5,"sle":0,"wnv":25,"den":61},"asof":"2026-09-05","weeks":[{"w":"2026-08-29","n":{"wnv":6,"den":1}},{"w":"2026-08-22","n":{"pow":1,"wnv":2,"den":1}},{"w":"2026-08-15","n":{"den":1}},{"w":"2026-08-01","n":{"den":1}},{"w":"2026-07-25","n":{"den":1}},{"w":"2026-07-18","n":{"pow":1}}]}},{"type":"Feature","geometry":{"type":"Polygon","coordinates":[[[-84.29,35.21],[-84.18,35.24],[-84.02,35.3],[-84.02,35.41],[-83.95,35.46],[-83.77,35.56],[-83.59,35.57],[-83.42,35.61],[-83.27,35.7],[-83.2,35.73],[-83.05,35.79],[-82.94,35.83],[-82.89,35.93],[-82.79,35.95],[-82.63,36.06],[-82.61,35.97],[-82.47,36.01],[-82.35,36.12],[-82.22,36.15],[-82.13,36.1],[-82.03,36.12],[-81.92,36.29],[-81.77,36.34],[-81.73,36.41],[-81.68,36.59],[-81.18,36.57],[-80.9,36.56],[-80.61,36.56],[-80.3,36.54],[-80.03,36.54],[-79.51,36.54],[-79.34,36.54],[-78.94,36.54],[-78.51,36.54],[-78.13,36.54],[-77.77,36.55],[-77.19,36.55],[-76.92,36.55],[-76.54,36.55],[-76.31,36.55],[-75.87,36.55],[-75.77,36.23],[-75.57,35.86],[-75.46,35.6],[-75.64,35.22],[-75.91,35.12],[-76.23,34.91],[-76.45,34.71],[-76.62,34.67],[-77.11,34.64],[-77.32,34.54],[-77.64,34.36],[-77.83,34.16],[-77.94,33.92],[-78.02,33.89],[-78.38,33.9],[-78.65,33.95],[-79.07,34.3],[-79.45,34.62],[-79.69,34.8],[-80.08,34.81],[-80.56,34.82],[-80.84,35.0],[-80.94,35.11],[-81.04,35.12],[-81.33,35.16],[-81.77,35.18],[-82.04,35.19],[-82.3,35.2],[-82.46,35.18],[-82.69,35.12],[-82.78,35.09],[-83.01,35.03],[-83.32,35.0],[-83.62,34.99],[-84.0,34.99],[-84.29,35.21]]]},"properties":{"fips":"37","name":"North Carolina","st":"NC","n":9,"by":{"lac":1,"wnv":5,"den":3},"ytd":{"eee":0,"jcv":0,"lac":1,"pow":0,"sle":0,"wnv":5,"den":7},"prev_ytd":{"eee":0,"jcv":0,"lac":7,"pow":0,"sle":0,"wnv":7,"den":14},"asof":"2026-09-05","weeks":[{"w":"2026-08-29","n":{"wnv":3}},{"w":"2026-08-22","n":{"wnv":1}},{"w":"2026-08-15","n":{"den":1}},{"w":"2026-08-08","n":{"wnv":1}},{"w":"2026-07-04","n":{"lac":1}},{"w":"2026-03-28","n":{"den":2}}]}},{"type":"Feature","geometry":{"type":"Polygon","coordinates":[[[-104.05,49.0],[-102.85,49.0],[-101.62,49.0],[-100.43,49.0],[-99.53,49.0],[-98.87,49.0],[-97.23,49.0],[-97.15,48.77],[-97.14,48.58],[-97.15,48.53],[-97.13,48.26],[-97.15,48.17],[-97.04,47.93],[-96.89,47.67],[-96.86,47.5],[-96.84,47.24],[-96.83,47.01],[-96.79,46.69],[-96.79,46.63],[-96.65,46.36],[-96.56,46.08],[-96.56,45.94],[-97.54,45.94],[-98.01,45.94],[-98.62,45.94],[-99.01,45.94],[-99.49,45.94],[-99.88,45.94],[-100.29,45.94],[-100.51,45.94],[-101.36,45.94],[-102.0,45.95],[-102.33,45.95],[-102.88,45.95],[-103.22,45.95],[-104.05,45.95],[-104.05,46.51],[-104.05,46.71],[-104.05,47.33],[-104.04,47.6],[-104.04,48.0],[-104.05,48.39],[-104.05,48.85],[-104.05,49.0]]]},"properties":{"fips":"38","name":"North Dakota","st":"ND","n":17,"by":{"wnv":17},"ytd":{"eee":0,"jcv":0,"lac":0,"pow":0,"sle":0,"wnv":17,"den":0},"prev_ytd":{"eee":0,"jcv":0,"lac":0,"pow":0,"sle":0,"wnv":84,"den":1},"asof":"2026-09-05","weeks":[{"w":"2026-08-29","n":{"wnv":11}},{"w":"2026-08-22","n":{"wnv":5}},{"w":"2026-08-08","n":{"wnv":1}}]}},{"type":"Feature","geometry":{"type":"MultiPolygon","coordinates":[[[[-84.82,39.23],[-84.82,39.39],[-84.81,39.73],[-84.81,40.01],[-84.8,40.35],[-84.8,40.5],[-84.8,40.73],[-84.8,41.12],[-84.8,41.41],[-84.81,41.7],[-84.36,41.71],[-83.76,41.72],[-83.45,41.73],[-83.23,41.64],[-83.03,41.56],[-82.83,41.59],[-82.69,41.49],[-82.46,41.39],[-82.27,41.43],[-82.0,41.51],[-81.94,41.49],[-81.77,41.49],[-81.49,41.63],[-81.29,41.76],[-81.0,41.85],[-80.58,41.96],[-80.52,41.67],[-80.52,41.33],[-80.52,41.12],[-80.52,40.9],[-80.58,40.62],[-80.62,40.52],[-80.63,40.38],[-80.68,40.19],[-80.74,40.08],[-80.76,39.95],[-80.82,39.85],[-80.84,39.72],[-80.94,39.61],[-81.12,39.46],[-81.25,39.39],[-81.39,39.35],[-81.5,39.37],[-81.61,39.27],[-81.72,39.21],[-81.74,39.11],[-81.79,39.04],[-81.9,38.93],[-82.04,39.02],[-82.14,38.91],[-82.2,38.76],[-82.22,38.59],[-82.29,38.56],[-82.38,38.44],[-82.56,38.4],[-82.66,38.51],[-82.8,38.56],[-82.87,38.68],[-82.89,38.76],[-83.03,38.72],[-83.13,38.64],[-83.26,38.61],[-83.38,38.66],[-83.63,38.68],[-83.68,38.63],[-83.78,38.7],[-83.9,38.77],[-84.05,38.77],[-84.21,38.81],[-84.23,38.88],[-84.3,38.99],[-84.4,39.05],[-84.46,39.12],[-84.5,39.1],[-84.61,39.07],[-84.71,39.13],[-84.82,39.23]]]]},"properties":{"fips":"39","name":"Ohio","st":"OH","n":5,"by":{"lac":5},"ytd":{"eee":0,"jcv":0,"lac":5,"pow":0,"sle":0,"wnv":0,"den":0},"prev_ytd":{"eee":0,"jcv":0,"lac":36,"pow":0,"sle":0,"wnv":37,"den":8},"asof":"2026-09-05","weeks":[{"w":"2026-08-22","n":{"lac":1}},{"w":"2026-08-15","n":{"lac":1}},{"w":"2026-08-08","n":{"lac":2}},{"w":"2026-07-25","n":{"lac":1}}]}},{"type":"Feature","geometry":{"type":"Polygon","coordinates":[[[-103.0,36.67],[-102.84,37.0],[-102.04,36.99],[-101.56,36.99],[-101.07,37.0],[-100.63,37.0],[-100.0,37.0],[-99.54,37.0],[-99.13,37.0],[-98.55,37.0],[-98.11,37.0],[-97.77,37.0],[-97.15,37.0],[-96.53,37.0],[-96.0,37.0],[-95.79,37.0],[-95.41,37.0],[-95.01,37.0],[-94.62,37.0],[-94.62,36.61],[-94.56,36.16],[-94.5,35.77],[-94.45,35.5],[-94.43,35.37],[-94.45,34.93],[-94.46,34.63],[-94.47,34.19],[-94.48,33.79],[-94.57,33.67],[-94.73,33.72],[-94.9,33.78],[-95.05,33.86],[-95.16,33.94],[-95.28,33.88],[-95.45,33.87],[-95.6,33.93],[-95.79,33.87],[-95.89,33.86],[-96.15,33.83],[-96.28,33.77],[-96.38,33.72],[-96.5,33.77],[-96.59,33.83],[-96.66,33.92],[-96.78,33.84],[-96.9,33.9],[-96.94,33.95],[-96.99,33.89],[-97.09,33.77],[-97.21,33.81],[-97.25,33.9],[-97.44,33.82],[-97.49,33.92],[-97.6,33.92],[-97.76,33.92],[-97.95,33.88],[-97.95,33.99],[-98.1,34.05],[-98.14,34.14],[-98.32,34.15],[-98.41,34.09],[-98.53,34.09],[-98.65,34.16],[-98.81,34.16],[-98.95,34.2],[-99.13,34.21],[-99.22,34.33],[-99.39,34.44],[-99.47,34.4],[-99.7,34.38],[-99.84,34.51],[-100.0,34.56],[-100.0,35.18],[-100.0,35.88],[-100.0,36.5],[-100.59,36.5],[-101.08,36.5],[-102.03,36.5],[-103.0,36.6],[-103.0,36.67]]]},"properties":{"fips":"40","name":"Oklahoma","st":"OK","n":4,"by":{"wnv":3,"den":1},"ytd":{"eee":0,"jcv":0,"lac":0,"pow":0,"sle":0,"wnv":3,"den":1},"prev_ytd":{"eee":0,"jcv":0,"lac":0,"pow":0,"sle":0,"wnv":40,"den":3},"asof":"2026-09-05","weeks":[{"w":"2026-08-08","n":{"wnv":1}},{"w":"2026-07-04","n":{"wnv":1}},{"w":"2026-05-02","n":{"wnv":1,"den":1}}]}},{"type":"Feature","geometry":{"type":"Polygon","coordinates":[[[-124.55,42.84],[-124.44,43.07],[-124.38,43.27],[-124.29,43.44],[-124.19,43.71],[-124.12,44.1],[-124.11,44.29],[-124.06,44.63],[-124.06,44.84],[-124.01,45.05],[-123.96,45.28],[-123.98,45.49],[-123.94,45.71],[-123.96,45.84],[-123.94,45.98],[-124.04,46.2],[-123.84,46.19],[-123.66,46.22],[-123.48,46.27],[-123.37,46.15],[-123.21,46.17],[-123.0,46.13],[-122.86,46.01],[-122.78,45.87],[-122.76,45.76],[-122.76,45.66],[-122.49,45.58],[-122.33,45.55],[-122.18,45.58],[-121.95,45.65],[-121.87,45.69],[-121.67,45.7],[-121.44,45.7],[-121.22,45.67],[-121.08,45.65],[-120.9,45.64],[-120.65,45.74],[-120.51,45.7],[-120.28,45.72],[-120.07,45.78],[-119.87,45.84],[-119.6,45.92],[-119.43,45.91],[-119.13,45.93],[-118.99,46.0],[-118.37,46.0],[-117.72,46.0],[-117.35,46.0],[-116.86,45.91],[-116.74,45.83],[-116.54,45.73],[-116.5,45.57],[-116.69,45.27],[-116.78,45.08],[-116.86,44.98],[-116.89,44.84],[-117.06,44.73],[-117.17,44.52],[-117.24,44.39],[-117.21,44.3],[-117.12,44.28],[-116.97,44.19],[-116.9,44.15],[-116.96,43.98],[-117.02,43.82],[-117.03,43.02],[-117.03,42.0],[-117.62,42.0],[-118.2,42.0],[-119.0,41.99],[-119.36,41.99],[-120.18,41.99],[-120.88,41.99],[-121.44,42.0],[-121.85,42.0],[-122.29,42.01],[-123.05,42.0],[-123.35,42.0],[-123.66,41.99],[-124.21,42.0],[-124.35,42.13],[-124.41,42.25],[-124.44,42.44],[-124.41,42.66],[-124.51,42.73],[-124.55,42.84]]]},"properties":{"fips":"41","name":"Oregon","st":"OR","n":5,"by":{"wnv":1,"den":4},"ytd":{"eee":0,"jcv":0,"lac":0,"pow":0,"sle":0,"wnv":1,"den":6},"prev_ytd":{"eee":0,"jcv":0,"lac":0,"pow":0,"sle":0,"wnv":7,"den":3},"asof":"2026-09-05","weeks":[{"w":"2026-08-08","n":{"wnv":1}},{"w":"2026-08-01","n":{"den":1}},{"w":"2026-06-27","n":{"den":1}},{"w":"2026-06-06","n":{"den":1}},{"w":"2026-03-28","n":{"den":1}}]}},{"type":"Feature","geometry":{"type":"Polygon","coordinates":[[[-80.52,40.91],[-80.52,41.13],[-80.52,41.49],[-80.52,41.85],[-80.15,42.12],[-80.02,42.16],[-79.76,42.27],[-79.61,42.0],[-78.98,42.0],[-78.31,42.0],[-78.03,42.0],[-77.61,42.0],[-76.93,42.0],[-76.47,42.0],[-76.11,42.0],[-75.48,42.0],[-75.34,41.99],[-75.19,41.86],[-75.07,41.8],[-75.05,41.6],[-74.89,41.45],[-74.73,41.43],[-74.82,41.3],[-74.98,41.11],[-75.02,41.06],[-75.13,40.98],[-75.06,40.89],[-75.11,40.79],[-75.19,40.64],[-75.19,40.57],[-75.06,40.48],[-75.03,40.4],[-74.93,40.34],[-74.82,40.24],[-74.72,40.15],[-74.83,40.12],[-74.97,40.05],[-75.06,39.99],[-75.14,39.95],[-75.14,39.89],[-75.22,39.86],[-75.41,39.8],[-75.57,39.84],[-75.59,39.84],[-75.75,39.76],[-76.14,39.72],[-76.24,39.72],[-76.72,39.72],[-77.0,39.72],[-77.46,39.72],[-77.77,39.72],[-78.34,39.72],[-78.72,39.72],[-79.05,39.72],[-79.76,39.72],[-80.42,39.72],[-80.52,40.02],[-80.52,40.4],[-80.52,40.85],[-80.52,40.91]]]},"properties":{"fips":"42","name":"Pennsylvania","st":"PA","n":7,"by":{"pow":2,"wnv":2,"den":3},"ytd":{"eee":0,"jcv":0,"lac":0,"pow":2,"sle":0,"wnv":2,"den":3},"prev_ytd":{"eee":0,"jcv":0,"lac":0,"pow":2,"sle":0,"wnv":65,"den":14},"asof":"2026-09-05","weeks":[{"w":"2026-08-22","n":{"pow":1,"wnv":1,"den":1}},{"w":"2026-08-15","n":{"den":1}},{"w":"2026-08-08","n":{"den":1}},{"w":"2026-06-27","n":{"pow":1}},{"w":"2026-03-28","n":{"wnv":1}}]}},{"type":"Feature","geometry":{"type":"MultiPolygon","coordinates":[[[[-65.58,18.1],[-65.51,18.15],[-65.4,18.16],[-65.29,18.15],[-65.29,18.1],[-65.37,18.11],[-65.45,18.09],[-65.54,18.08],[-65.58,18.1]]],[[[-67.24,18.37],[-67.16,18.42],[-67.1,18.51],[-66.92,18.49],[-66.8,18.49],[-66.62,18.49],[-66.47,18.47],[-66.35,18.48],[-66.26,18.48],[-66.14,18.47],[-66.03,18.45],[-65.91,18.45],[-65.77,18.41],[-65.66,18.39],[-65.57,18.36],[-65.61,18.29],[-65.64,18.2],[-65.73,18.17],[-65.8,18.07],[-65.85,18.01],[-65.98,17.97],[-66.04,17.93],[-66.16,17.93],[-66.3,17.96],[-66.39,17.94],[-66.51,17.99],[-66.65,17.98],[-66.72,17.99],[-66.78,17.98],[-66.86,17.95],[-66.93,17.93],[-66.98,17.96],[-67.09,17.95],[-67.18,17.93],[-67.2,18.09],[-67.16,18.22],[-67.22,18.3],[-67.24,18.37]]],[[[-67.94,18.13],[-67.9,18.14],[-67.85,18.13],[-67.82,18.09],[-67.85,18.05],[-67.89,18.04],[-67.96,18.07],[-67.94,18.13]]]]},"properties":{"fips":"72","name":"Puerto Rico","st":"PR","n":574,"by":{"den":574},"ytd":{"eee":0,"jcv":0,"lac":0,"pow":0,"sle":0,"wnv":0,"den":886},"prev_ytd":{"eee":0,"jcv":0,"lac":0,"pow":0,"sle":0,"wnv":0,"den":2504},"asof":"2026-09-05","weeks":[{"w":"2026-08-29","n":{"den":5}},{"w":"2026-08-22","n":{"den":13}},{"w":"2026-08-15","n":{"den":38}},{"w":"2026-07-18","n":{"den":18}},{"w":"2026-07-11","n":{"den":25}},{"w":"2026-07-04","n":{"den":20}}]}},{"type":"Feature","geometry":{"type":"MultiPolygon","coordinates":[[[[-71.86,41.32],[-71.8,41.42],[-71.79,41.6],[-71.79,41.73],[-71.61,42.01],[-71.5,42.02],[-71.38,41.98],[-71.34,41.89],[-71.32,41.78],[-71.2,41.68],[-71.14,41.6],[-71.19,41.46],[-71.25,41.48],[-71.35,41.45],[-71.43,41.45],[-71.56,41.37],[-71.73,41.33],[-71.86,41.32]]]]},"properties":{"fips":"44","name":"Rhode Island","st":"RI","n":2,"by":{"pow":1,"den":1},"ytd":{"eee":0,"jcv":0,"lac":0,"pow":1,"sle":0,"wnv":0,"den":2},"prev_ytd":{"eee":0,"jcv":0,"lac":0,"pow":0,"sle":0,"wnv":0,"den":2},"asof":"2026-09-05","weeks":[{"w":"2026-07-04","n":{"pow":1}},{"w":"2026-03-21","n":{"den":1}}]}},{"type":"Feature","geometry":{"type":"Polygon","coordinates":[[[-83.35,34.73],[-83.28,34.82],[-83.14,34.92],[-83.11,35.0],[-82.9,35.06],[-82.75,35.08],[-82.53,35.16],[-82.35,35.2],[-82.05,35.19],[-81.87,35.18],[-81.37,35.16],[-81.04,35.15],[-81.04,35.05],[-80.9,35.07],[-80.8,34.82],[-80.32,34.81],[-79.92,34.81],[-79.46,34.63],[-79.07,34.3],[-78.81,34.08],[-78.54,33.85],[-78.86,33.71],[-79.03,33.53],[-79.16,33.33],[-79.22,33.16],[-79.33,33.09],[-79.42,33.02],[-79.58,33.01],[-79.6,32.9],[-79.82,32.77],[-79.97,32.64],[-80.15,32.58],[-80.25,32.53],[-80.41,32.47],[-80.47,32.48],[-80.46,32.41],[-80.54,32.29],[-80.72,32.33],[-80.67,32.22],[-80.86,32.1],[-80.94,32.06],[-81.11,32.11],[-81.15,32.24],[-81.17,32.38],[-81.28,32.54],[-81.39,32.6],[-81.41,32.74],[-81.46,32.9],[-81.54,33.04],[-81.66,33.1],[-81.76,33.2],[-81.85,33.3],[-81.93,33.46],[-82.03,33.55],[-82.14,33.6],[-82.22,33.69],[-82.43,33.87],[-82.56,33.96],[-82.64,34.08],[-82.75,34.24],[-82.82,34.36],[-82.93,34.48],[-83.05,34.49],[-83.1,34.54],[-83.28,34.65],[-83.35,34.72],[-83.35,34.73]]]},"properties":{"fips":"45","name":"South Carolina","st":"SC","n":9,"by":{"lac":2,"wnv":5,"den":2},"ytd":{"eee":0,"jcv":0,"lac":1,"pow":0,"sle":0,"wnv":4,"den":2},"prev_ytd":{"eee":0,"jcv":0,"lac":1,"pow":0,"sle":0,"wnv":1,"den":5},"asof":"2026-09-05","weeks":[{"w":"2026-08-29","n":{"wnv":1}},{"w":"2026-08-22","n":{"wnv":3}},{"w":"2026-08-15","n":{"lac":1}},{"w":"2026-08-08","n":{"lac":1}},{"w":"2026-08-01","n":{"den":1}},{"w":"2026-07-04","n":{"den":1}}]}},{"type":"Feature","geometry":{"type":"Polygon","coordinates":[[[-104.06,45.0],[-104.04,45.21],[-104.04,45.56],[-104.04,45.88],[-103.44,45.95],[-102.94,45.95],[-102.55,45.95],[-102.0,45.95],[-101.56,45.94],[-100.76,45.94],[-100.5,45.94],[-99.88,45.94],[-99.61,45.94],[-99.09,45.94],[-98.72,45.94],[-98.07,45.94],[-97.78,45.94],[-97.08,45.94],[-96.59,45.82],[-96.75,45.7],[-96.84,45.59],[-96.74,45.48],[-96.62,45.41],[-96.48,45.35],[-96.46,45.27],[-96.45,44.63],[-96.45,44.2],[-96.45,43.85],[-96.6,43.5],[-96.52,43.39],[-96.58,43.29],[-96.52,43.22],[-96.44,43.11],[-96.51,43.04],[-96.5,42.96],[-96.54,42.88],[-96.62,42.73],[-96.48,42.56],[-96.48,42.51],[-96.53,42.51],[-96.66,42.57],[-96.78,42.66],[-96.91,42.73],[-97.03,42.76],[-97.21,42.82],[-97.34,42.86],[-97.48,42.85],[-97.64,42.85],[-97.86,42.87],[-97.95,42.77],[-98.15,42.84],[-98.28,42.88],[-98.44,42.93],[-98.85,43.0],[-99.85,43.0],[-101.0,43.0],[-102.08,43.0],[-103.0,43.0],[-104.05,43.0],[-104.06,43.5],[-104.06,44.14],[-104.06,44.57],[-104.06,45.0]]]},"properties":{"fips":"46","name":"South Dakota","st":"SD","n":6,"by":{"wnv":6},"ytd":{"eee":0,"jcv":0,"lac":0,"pow":0,"sle":0,"wnv":6,"den":0},"prev_ytd":{"eee":0,"jcv":0,"lac":0,"pow":0,"sle":0,"wnv":71,"den":1},"asof":"2026-09-05","weeks":[{"w":"2026-08-15","n":{"wnv":1}},{"w":"2026-08-08","n":{"wnv":2}},{"w":"2026-08-01","n":{"wnv":1}},{"w":"2026-07-11","n":{"wnv":1}},{"w":"2026-05-23","n":{"wnv":1}}]}},{"type":"Feature","geometry":{"type":"Polygon","coordinates":[[[-90.3,35.03],[-90.18,35.09],[-90.1,35.16],[-90.17,35.27],[-90.11,35.41],[-90.02,35.46],[-89.96,35.54],[-89.88,35.63],[-89.92,35.76],[-89.72,35.81],[-89.65,35.9],[-89.69,35.95],[-89.68,36.08],[-89.62,36.18],[-89.68,36.25],[-89.61,36.31],[-89.52,36.34],[-89.52,36.46],[-89.34,36.5],[-88.83,36.5],[-88.52,36.5],[-88.13,36.5],[-88.03,36.55],[-88.01,36.68],[-87.69,36.64],[-87.34,36.64],[-86.81,36.65],[-86.56,36.64],[-86.41,36.65],[-85.98,36.63],[-85.73,36.62],[-85.3,36.63],[-85.1,36.62],[-84.78,36.6],[-84.5,36.6],[-84.23,36.59],[-83.93,36.59],[-83.67,36.6],[-82.98,36.59],[-82.49,36.6],[-82.17,36.59],[-81.92,36.62],[-81.68,36.59],[-81.73,36.41],[-81.77,36.34],[-81.92,36.29],[-82.03,36.12],[-82.13,36.1],[-82.22,36.15],[-82.35,36.12],[-82.47,36.01],[-82.61,35.97],[-82.63,36.06],[-82.79,35.95],[-82.89,35.93],[-82.94,35.83],[-83.05,35.79],[-83.2,35.73],[-83.27,35.7],[-83.42,35.61],[-83.59,35.57],[-83.77,35.56],[-83.95,35.46],[-84.02,35.41],[-84.02,35.3],[-84.18,35.24],[-84.29,35.21],[-84.62,34.99],[-84.81,34.99],[-84.98,34.99],[-85.28,34.98],[-85.47,34.98],[-86.31,34.99],[-86.78,34.99],[-87.21,35.0],[-87.61,35.0],[-87.98,35.01],[-88.2,35.0],[-88.38,35.0],[-88.82,34.99],[-89.2,34.99],[-89.64,34.99],[-89.8,34.99],[-90.3,35.03]]]},"properties":{"fips":"47","name":"Tennessee","st":"TN","n":7,"by":{"lac":1,"wnv":3,"den":3},"ytd":{"eee":0,"jcv":0,"lac":1,"pow":0,"sle":0,"wnv":4,"den":3},"prev_ytd":{"eee":0,"jcv":0,"lac":10,"pow":0,"sle":0,"wnv":8,"den":1},"asof":"2026-09-05","weeks":[{"w":"2026-08-29","n":{"wnv":1}},{"w":"2026-07-25","n":{"den":1}},{"w":"2026-07-18","n":{"wnv":1}},{"w":"2026-06-27","n":{"lac":1}},{"w":"2026-04-25","n":{"wnv":1,"den":2}}]}},{"type":"Feature","geometry":{"type":"Polygon","coordinates":[[[-106.62,31.91],[-106.38,32.0],[-105.75,32.0],[-104.85,32.0],[-103.98,32.0],[-103.06,32.0],[-103.06,32.52],[-103.06,32.96],[-103.05,33.57],[-103.04,34.08],[-103.04,34.31],[-103.04,34.75],[-103.04,35.18],[-103.04,36.05],[-102.16,36.5],[-101.62,36.5],[-100.88,36.5],[-100.31,36.5],[-100.0,36.06],[-100.0,35.42],[-100.0,34.75],[-99.93,34.58],[-99.77,34.44],[-99.58,34.41],[-99.42,34.38],[-99.28,34.39],[-99.19,34.21],[-99.0,34.21],[-98.87,34.16],[-98.69,34.13],[-98.58,34.15],[-98.42,34.08],[-98.36,34.16],[-98.17,34.11],[-98.1,34.1],[-98.01,34.0],[-97.95,33.89],[-97.8,33.88],[-97.61,33.97],[-97.56,33.9],[-97.45,33.87],[-97.32,33.87],[-97.17,33.85],[-97.09,33.73],[-97.06,33.86],[-96.95,33.95],[-96.91,33.95],[-96.79,33.87],[-96.68,33.88],[-96.59,33.88],[-96.52,33.82],[-96.4,33.75],[-96.31,33.73],[-96.17,33.8],[-95.94,33.88],[-95.82,33.86],[-95.67,33.91],[-95.53,33.88],[-95.31,33.87],[-95.23,33.96],[-95.09,33.91],[-94.94,33.81],[-94.77,33.75],[-94.63,33.67],[-94.49,33.64],[-94.35,33.56],[-94.24,33.58],[-94.14,33.58],[-94.04,33.44],[-94.04,33.16],[-94.04,32.8],[-94.04,32.39],[-94.04,32.14],[-93.98,31.93],[-93.85,31.8],[-93.83,31.59],[-93.75,31.47],[-93.67,31.3],[-93.6,31.18],[-93.54,31.13],[-93.55,30.97],[-93.56,30.87],[-93.63,30.68],[-93.73,30.55],[-93.74,30.4],[-93.71,30.28],[-93.7,30.17],[-93.71,30.05],[-93.83,29.89],[-93.93,29.8],[-93.84,29.69],[-94.06,29.67],[-94.37,29.56],[-94.67,29.43],[-94.8,29.28],[-95.12,29.07],[-95.38,28.87],[-95.59,28.78],[-96.0,28.59],[-96.38,28.39],[-96.63,28.22],[-96.85,28.06],[-97.04,27.84],[-97.14,27.72],[-97.26,27.51],[-97.35,27.28],[-97.37,26.89],[-97.25,26.5],[-97.16,26.08],[-97.16,25.95],[-97.34,25.92],[-97.37,25.84],[-97.5,25.88],[-97.64,26.01],[-97.8,26.05],[-97.94,26.06],[-98.09,26.06],[-98.2,26.06],[-98.31,26.11],[-98.5,26.21],[-98.61,26.25],[-98.78,26.33],[-98.96,26.39],[-99.11,26.43],[-99.17,26.55],[-99.21,26.73],[-99.33,26.88],[-99.45,27.03],[-99.44,27.22],[-99.49,27.3],[-99.5,27.45],[-99.53,27.58],[-99.7,27.66],[-99.84,27.78],[-99.92,27.92],[-100.03,28.07],[-100.2,28.2],[-100.32,28.36],[-100.39,28.52],[-100.5,28.66],[-100.54,28.81],[-100.65,28.96],[-100.67,29.1],[-100.8,29.23],[-100.89,29.31],[-101.14,29.47],[-101.31,29.58],[-101.4,29.74],[-101.56,29.8],[-101.76,29.78],[-101.97,29.81],[-102.12,29.79],[-102.3,29.88],[-102.37,29.82],[-102.51,29.78],[-102.68,29.74],[-102.78,29.56],[-102.83,29.4],[-102.87,29.24],[-103.04,29.1],[-103.13,28.98],[-103.36,29.02],[-103.59,29.15],[-103.79,29.26],[-103.97,29.3],[-104.18,29.43],[-104.37,29.54],[-104.57,29.77],[-104.69,29.99],[-104.7,30.21],[-104.82,30.37],[-104.89,30.54],[-104.98,30.63],[-105.1,30.72],[-105.31,30.82],[-105.49,30.94],[-105.63,31.1],[-105.79,31.2],[-105.95,31.36],[-106.08,31.4],[-106.28,31.56],[-106.37,31.71],[-106.48,31.75],[-106.64,31.87],[-106.62,31.91]]]},"properties":{"fips":"48","name":"Texas","st":"TX","n":53,"by":{"wnv":48,"den":5},"ytd":{"eee":0,"jcv":0,"lac":0,"pow":0,"sle":0,"wnv":48,"den":8},"prev_ytd":{"eee":0,"jcv":0,"lac":0,"pow":0,"sle":0,"wnv":98,"den":57},"asof":"2026-09-05","weeks":[{"w":"2026-08-29","n":{"wnv":3}},{"w":"2026-08-22","n":{"wnv":14}},{"w":"2026-08-15","n":{"wnv":8,"den":2}},{"w":"2026-08-08","n":{"wnv":5}},{"w":"2026-08-01","n":{"wnv":6}},{"w":"2026-07-25","n":{"wnv":4}}]}},{"type":"Feature","geometry":{"type":"Polygon","coordinates":[[[-114.05,37.6],[-114.05,38.15],[-114.05,38.41],[-114.05,38.68],[-114.05,39.5],[-114.05,39.91],[-114.05,40.4],[-114.04,41.0],[-114.04,41.49],[-113.82,41.99],[-113.0,42.0],[-112.27,42.0],[-112.11,42.0],[-111.51,42.0],[-111.05,42.0],[-111.05,41.36],[-110.54,41.0],[-110.0,41.0],[-109.05,41.0],[-109.05,40.65],[-109.05,39.88],[-109.05,39.37],[-109.06,38.27],[-109.04,37.88],[-109.5,37.0],[-110.75,37.0],[-111.41,37.0],[-112.54,37.0],[-112.9,37.0],[-114.05,37.0],[-114.05,37.49],[-114.05,37.6]]]},"properties":{"fips":"49","name":"Utah","st":"UT","n":22,"by":{"wnv":17,"den":5},"ytd":{"eee":0,"jcv":0,"lac":0,"pow":0,"sle":0,"wnv":17,"den":5},"prev_ytd":{"eee":0,"jcv":0,"lac":0,"pow":0,"sle":0,"wnv":30,"den":4},"asof":"2026-09-05","weeks":[{"w":"2026-08-29","n":{"wnv":6,"den":1}},{"w":"2026-08-22","n":{"wnv":5}},{"w":"2026-08-15","n":{"wnv":1}},{"w":"2026-08-08","n":{"wnv":2,"den":1}},{"w":"2026-08-01","n":{"wnv":2}},{"w":"2026-07-04","n":{"wnv":1}}]}},{"type":"Feature","geometry":{"type":"MultiPolygon","coordinates":[[[[-76.02,37.29],[-75.95,37.55],[-75.86,37.7],[-75.74,37.82],[-75.67,37.95],[-75.34,37.9],[-75.49,37.83],[-75.61,37.61],[-75.67,37.47],[-75.74,37.34],[-75.82,37.19],[-75.98,37.1],[-76.02,37.29]]],[[[-83.61,36.63],[-83.44,36.67],[-83.14,36.74],[-83.01,36.85],[-82.86,36.92],[-82.75,37.02],[-82.56,37.2],[-82.45,37.24],[-82.31,37.3],[-81.93,37.51],[-81.93,37.39],[-81.78,37.27],[-81.68,37.2],[-81.48,37.25],[-81.22,37.23],[-80.98,37.3],[-80.88,37.38],[-80.86,37.42],[-80.67,37.41],[-80.47,37.43],[-80.28,37.59],[-80.29,37.68],[-80.22,37.78],[-80.06,37.95],[-79.96,38.06],[-79.85,38.23],[-79.8,38.31],[-79.69,38.46],[-79.54,38.55],[-79.31,38.42],[-79.23,38.48],[-79.09,38.66],[-79.02,38.8],[-78.82,38.83],[-78.62,38.98],[-78.51,39.09],[-78.41,39.24],[-78.34,39.41],[-78.19,39.36],[-78.03,39.26],[-77.81,39.17],[-77.68,39.32],[-77.55,39.28],[-77.46,39.22],[-77.52,39.12],[-77.36,39.06],[-77.25,39.03],[-77.2,38.97],[-77.12,38.93],[-77.04,38.84],[-77.04,38.75],[-77.08,38.71],[-77.13,38.63],[-77.3,38.56],[-77.32,38.47],[-77.27,38.33],[-77.05,38.36],[-77.0,38.28],[-76.96,38.21],[-76.75,38.16],[-76.6,38.11],[-76.49,38.02],[-76.24,37.89],[-76.31,37.72],[-76.28,37.62],[-76.29,37.54],[-76.25,37.38],[-76.39,37.4],[-76.39,37.31],[-76.39,37.23],[-76.31,37.14],[-76.28,37.05],[-76.28,36.98],[-76.18,36.93],[-76.0,36.92],[-75.89,36.63],[-76.12,36.55],[-76.49,36.55],[-76.92,36.55],[-77.16,36.55],[-77.75,36.55],[-78.05,36.54],[-78.46,36.54],[-78.8,36.54],[-79.22,36.54],[-79.51,36.54],[-79.89,36.54],[-80.05,36.54],[-80.44,36.55],[-80.84,36.56],[-81.06,36.57],[-81.5,36.58],[-81.83,36.62],[-82.15,36.59],[-82.29,36.59],[-82.83,36.59],[-83.47,36.6],[-83.61,36.63]]]]},"properties":{"fips":"51","name":"Virginia","st":"VA","n":18,"by":{"wnv":9,"den":9},"ytd":{"eee":0,"jcv":0,"lac":0,"pow":0,"sle":0,"wnv":9,"den":9},"prev_ytd":{"eee":0,"jcv":0,"lac":0,"pow":0,"sle":0,"wnv":12,"den":28},"asof":"2026-09-05","weeks":[{"w":"2026-08-29","n":{"wnv":2,"den":1}},{"w":"2026-08-22","n":{"wnv":3}},{"w":"2026-08-15","n":{"wnv":1,"den":2}},{"w":"2026-08-01","n":{"wnv":2,"den":1}},{"w":"2026-07-25","n":{"den":1}},{"w":"2026-07-18","n":{"wnv":1,"den":2}}]}},{"type":"Feature","geometry":{"type":"MultiPolygon","coordinates":[[[[-123.24,48.68],[-123.07,48.7],[-123.02,48.72],[-122.98,48.78],[-122.94,48.79],[-122.82,48.74],[-122.74,48.66],[-122.8,48.6],[-122.77,48.56],[-122.78,48.51],[-122.82,48.48],[-122.8,48.43],[-122.87,48.42],[-122.93,48.44],[-123.04,48.46],[-123.14,48.51],[-123.2,48.59],[-123.24,48.68]]],[[[-124.73,48.39],[-124.38,48.28],[-124.05,48.18],[-123.67,48.16],[-123.31,48.11],[-123.07,48.12],[-122.91,48.11],[-122.7,48.1],[-122.65,47.92],[-122.57,47.95],[-122.61,48.03],[-122.71,48.19],[-122.67,48.41],[-122.65,48.53],[-122.71,48.72],[-122.79,48.88],[-122.25,49.0],[-121.4,49.0],[-120.72,49.0],[-119.46,49.0],[-118.2,49.0],[-117.43,49.0],[-117.03,48.85],[-117.04,48.12],[-117.04,47.73],[-117.04,47.16],[-117.04,46.47],[-117.06,46.35],[-116.96,46.2],[-116.98,46.09],[-117.35,46.0],[-117.72,46.0],[-118.37,46.0],[-118.99,46.0],[-119.13,45.93],[-119.43,45.91],[-119.6,45.92],[-119.87,45.84],[-120.07,45.78],[-120.28,45.72],[-120.51,45.7],[-120.65,45.74],[-120.9,45.64],[-121.08,45.65],[-121.22,45.67],[-121.44,45.7],[-121.67,45.7],[-121.87,45.69],[-121.95,45.65],[-122.18,45.58],[-122.33,45.55],[-122.49,45.58],[-122.76,45.66],[-122.76,45.76],[-122.78,45.87],[-122.86,46.01],[-123.0,46.13],[-123.21,46.17],[-123.37,46.15],[-123.48,46.27],[-123.7,46.3],[-123.81,46.28],[-123.95,46.28],[-124.06,46.33],[-123.96,46.64],[-124.08,46.73],[-124.14,46.91],[-124.19,47.16],[-124.32,47.36],[-124.41,47.69],[-124.61,47.88],[-124.69,48.05],[-124.69,48.22],[-124.73,48.39]]]]},"properties":{"fips":"53","name":"Washington","st":"WA","n":12,"by":{"wnv":1,"den":11},"ytd":{"eee":0,"jcv":0,"lac":0,"pow":0,"sle":0,"wnv":1,"den":13},"prev_ytd":{"eee":0,"jcv":0,"lac":0,"pow":0,"sle":0,"wnv":0,"den":19},"asof":"2026-09-05","weeks":[{"w":"2026-08-29","n":{"den":1}},{"w":"2026-08-01","n":{"den":1}},{"w":"2026-07-11","n":{"wnv":1,"den":1}},{"w":"2026-07-04","n":{"den":2}},{"w":"2026-06-27","n":{"den":2}},{"w":"2026-05-16","n":{"den":1}}]}},{"type":"Feature","geometry":{"type":"MultiPolygon","coordinates":[[[[-90.78,47.02],[-90.74,47.04],[-90.65,47.05],[-90.56,47.04],[-90.55,47.02],[-90.51,46.96],[-90.52,46.94],[-90.55,46.91],[-90.64,46.91],[-90.68,46.96],[-90.71,46.98],[-90.77,47.0],[-90.78,47.02]]],[[[-92.89,45.64],[-92.83,45.74],[-92.72,45.88],[-92.55,45.97],[-92.39,46.02],[-92.29,46.07],[-92.29,46.42],[-92.2,46.66],[-92.1,46.73],[-91.96,46.68],[-91.65,46.73],[-91.51,46.76],[-91.31,46.83],[-91.17,46.84],[-91.03,46.9],[-90.92,47.0],[-90.75,46.89],[-90.88,46.74],[-90.93,46.62],[-90.9,46.58],[-90.75,46.65],[-90.57,46.59],[-90.44,46.56],[-90.33,46.55],[-90.16,46.42],[-89.64,46.24],[-88.93,46.07],[-88.68,46.01],[-88.61,45.99],[-88.41,45.98],[-88.25,45.96],[-88.11,45.92],[-88.11,45.8],[-88.0,45.8],[-87.83,45.72],[-87.83,45.65],[-87.8,45.52],[-87.86,45.39],[-87.75,45.35],[-87.67,45.32],[-87.69,45.15],[-87.63,45.05],[-87.76,44.96],[-87.84,44.87],[-87.94,44.76],[-88.0,44.66],[-88.01,44.54],[-87.87,44.61],[-87.75,44.67],[-87.72,44.73],[-87.53,44.86],[-87.39,44.93],[-87.24,45.17],[-87.11,45.26],[-86.98,45.29],[-87.05,45.13],[-87.19,44.95],[-87.32,44.77],[-87.45,44.59],[-87.55,44.32],[-87.54,44.16],[-87.7,43.97],[-87.73,43.81],[-87.71,43.68],[-87.79,43.49],[-87.9,43.2],[-87.87,43.06],[-87.83,42.86],[-87.77,42.78],[-87.81,42.64],[-87.9,42.49],[-88.31,42.5],[-88.71,42.49],[-88.99,42.5],[-89.4,42.5],[-89.93,42.51],[-90.43,42.51],[-90.67,42.58],[-90.85,42.66],[-91.02,42.72],[-91.14,42.9],[-91.17,43.04],[-91.13,43.17],[-91.11,43.31],[-91.2,43.4],[-91.22,43.5],[-91.27,43.67],[-91.29,43.85],[-91.42,43.98],[-91.57,44.03],[-91.82,44.16],[-91.92,44.32],[-92.11,44.41],[-92.29,44.48],[-92.36,44.56],[-92.62,44.61],[-92.79,44.76],[-92.77,44.86],[-92.76,45.02],[-92.74,45.12],[-92.76,45.28],[-92.66,45.4],[-92.73,45.53],[-92.88,45.57],[-92.89,45.64]]]]},"properties":{"fips":"55","name":"Wisconsin","st":"WI","n":12,"by":{"jcv":1,"lac":1,"pow":6,"den":4},"ytd":{"eee":0,"jcv":1,"lac":0,"pow":6,"sle":0,"wnv":0,"den":3},"prev_ytd":{"eee":0,"jcv":6,"lac":0,"pow":17,"sle":0,"wnv":27,"den":17},"asof":"2026-09-05","weeks":[{"w":"2026-08-29","n":{"pow":1}},{"w":"2026-07-18","n":{"jcv":1,"pow":2}},{"w":"2026-07-11","n":{"den":1}},{"w":"2026-06-27","n":{"pow":1,"den":1}},{"w":"2026-06-20","n":{"pow":1}},{"w":"2026-06-06","n":{"lac":1}}]}},{"type":"Feature","geometry":{"type":"Polygon","coordinates":[[[-111.06,44.87],[-110.78,45.0],[-110.0,45.0],[-109.1,45.01],[-108.5,45.0],[-107.91,45.0],[-106.26,44.99],[-105.85,45.0],[-105.03,45.0],[-104.06,44.57],[-104.06,44.14],[-104.06,43.5],[-104.05,43.0],[-104.05,42.5],[-104.05,42.0],[-104.05,41.61],[-104.05,41.39],[-104.05,41.0],[-104.94,41.0],[-106.19,41.0],[-106.86,41.0],[-107.92,41.0],[-109.25,41.0],[-110.05,41.0],[-111.05,41.0],[-111.05,41.57],[-111.05,42.35],[-111.04,42.96],[-111.05,43.32],[-111.05,43.91],[-111.05,44.38],[-111.06,44.67],[-111.06,44.87]]]},"properties":{"fips":"56","name":"Wyoming","st":"WY","n":1,"by":{"wnv":1},"ytd":{"eee":0,"jcv":0,"lac":0,"pow":0,"sle":0,"wnv":1,"den":0},"prev_ytd":{"eee":0,"jcv":0,"lac":0,"pow":0,"sle":0,"wnv":14,"den":1},"asof":"2026-09-05","weeks":[{"w":"2026-07-18","n":{"wnv":1}}]}}]}