{"type":"FeatureCollection","generated_at":"2026-09-12T21:23:57Z","source":{"id":"drought","name":"U.S. Drought Monitor","url":"https://droughtmonitor.unl.edu/","api":"https://droughtmonitor.unl.edu/data/json/usdm_<YYYYMMDD>.json","licence":"No licence stated; permission page (read 2026-09-12): \"If you reproduce the U.S. Drought Monitor map, please use this wording:\" + the credit line (droughtmonitor.unl.edu/About/Permission.aspx)","credit":"The U.S. Drought Monitor is jointly produced by the National Drought Mitigation Center at the University of Nebraska-Lincoln, the United States Department of Agriculture, the National Oceanic and Atmospheric Administration and the National Aeronautics and Space Administration. Map courtesy of NDMC.","note":"Weekly map valid on the Tuesday (w), released the Thursday (released). Categories D0\u2013D4 per the official USDM classification; geometry simplified to ~0.02\u00b0 with slivers removed, so boundaries are approximate. SEED: newest week only, simplified to 0.2\u00b0 with parts under 0.08 deg\u00b2 removed."},"today":"2026-09-12","newest":"2026-09-08","weeks":[{"w":"2026-09-08","released":"2026-09-10"}],"counts":{"weeks":1,"features":5,"parts":161},"features":[{"type":"Feature","geometry":{"type":"MultiPolygon","coordinates":[[[[-66.38,18.49],[-66.48,18.25],[-67.19,18.13],[-66.64,18.29],[-66.8,18.49],[-66.38,18.49]]],[[[-67.11,44.72],[-67.59,44.63],[-67.93,44.94],[-67.61,45.06],[-67.11,44.72]]],[[[-67.79,46.55],[-68.23,46.58],[-68.19,47.01],[-67.79,47.06],[-67.79,46.55]]],[[[-69.17,47.45],[-68.9,47.18],[-68.42,47.28],[-68.45,47.06],[-69.55,47.14],[-69.17,47.45]]],[[[-70.1,46.4],[-69.8,45.77],[-70.24,45.45],[-69.81,44.76],[-70.71,44.19],[-71.63,44.27],[-71.78,45.01],[-70.64,45.38],[-70.1,46.4]]],[[[-72.61,43.92],[-71.85,43.8],[-71.83,43.02],[-70.81,42.89],[-70.89,42.82],[-70.81,42.81],[-70.82,42.7],[-70.68,42.59],[-71.1,42.41],[-71.06,42.27],[-70.77,42.25],[-70.74,42.16],[-70.68,42.1],[-70.7,42.16],[-70.6,42.0],[-70.64,41.99],[-70.61,42.01],[-70.65,42.06],[-70.67,42.06],[-71.01,41.8],[-71.19,41.47],[-71.21,41.64],[-71.11,41.78],[-71.12,41.82],[-71.38,41.86],[-71.42,41.47],[-71.54,41.69],[-71.68,42.61],[-72.11,42.61],[-72.22,41.97],[-72.66,41.69],[-73.48,41.82],[-72.26,42.87],[-72.98,44.8],[-72.3,45.0],[-72.61,43.92]],[[-71.33,42.74],[-71.33,42.41],[-71.18,42.63],[-71.33,42.74]]],[[[-72.24,41.15],[-72.42,41.06],[-72.44,40.99],[-72.47,41.01],[-72.62,40.93],[-72.29,40.9],[-73.76,40.59],[-72.24,41.15]]],[[[-73.83,44.05],[-74.89,42.82],[-76.74,42.96],[-76.85,42.54],[-77.7,42.54],[-77.06,43.28],[-76.17,43.64],[-74.97,43.71],[-75.07,43.99],[-74.11,44.2],[-73.83,44.05]]],[[[-75.38,39.35],[-74.76,39.35],[-74.93,39.56],[-74.61,39.94],[-74.28,40.16],[-74.02,40.14],[-74.41,39.99],[-74.26,39.61],[-74.62,39.43],[-74.56,39.79],[-74.86,39.56],[-74.72,39.28],[-75.38,39.35]]],[[[-75.73,40.72],[-74.79,40.52],[-75.46,40.12],[-76.05,40.25],[-76.17,40.33],[-76.21,40.4],[-75.73,40.72]],[[-76.12,40.31],[-75.76,40.22],[-75.56,40.32],[-75.99,40.54],[-76.12,40.31]]],[[[-75.41,38.78],[-75.08,38.8],[-75.28,38.6],[-75.05,38.51],[-75.46,38.6],[-75.51,38.76],[-75.44,38.94],[-75.32,39.01],[-75.41,38.78]]],[[[-75.95,38.19],[-75.1,38.33],[-75.37,38.08],[-75.36,38.03],[-75.43,37.99],[-75.62,37.7],[-75.59,37.68],[-75.65,37.66],[-75.7,37.58],[-75.92,37.6],[-75.66,37.84],[-75.76,37.91],[-75.64,37.95],[-75.95,38.19]]],[[[-75.84,39.57],[-75.42,39.28],[-75.87,39.24],[-75.86,38.85],[-76.18,38.78],[-76.07,38.9],[-76.24,38.98],[-76.08,39.07],[-76.13,39.1],[-76.0,39.16],[-76.06,39.2],[-75.93,39.25],[-76.27,39.16],[-75.84,39.57]]],[[[-94.53,45.33],[-92.81,44.04],[-90.07,44.01],[-90.28,43.58],[-89.39,43.84],[-89.84,44.68],[-88.45,45.07],[-88.28,44.86],[-88.72,44.81],[-88.28,44.32],[-87.4,44.64],[-87.53,44.27],[-87.97,44.25],[-87.66,44.09],[-87.7,43.69],[-89.07,43.74],[-87.76,42.78],[-88.91,42.83],[-89.05,42.5],[-88.51,41.98],[-89.43,41.93],[-90.83,42.42],[-90.71,43.05],[-90.16,43.33],[-93.07,43.77],[-93.66,42.7],[-93.93,42.55],[-94.36,42.56],[-94.46,41.72],[-94.69,42.81],[-94.89,42.24],[-95.67,42.08],[-95.68,41.79],[-95.08,41.48],[-95.6,41.28],[-96.21,41.39],[-96.59,41.12],[-97.01,41.01],[-97.17,41.28],[-98.08,41.03],[-99.01,41.18],[-98.89,40.26],[-98.2,40.36],[-98.37,39.71],[-97.57,39.86],[-96.89,39.41],[-96.12,39.41],[-96.0,39.72],[-95.21,39.94],[-94.4,39.56],[-93.91,39.94],[-94.19,40.54],[-92.56,40.07],[-91.95,40.46],[-91.66,40.25],[-92.14,40.13],[-91.61,39.82],[-91.94,39.66],[-89.31,39.39],[-88.77,38.89],[-87.36,39.1],[-87.36,38.7],[-88.03,38.26],[-88.09,37.83],[-87.41,37.86],[-87.34,38.1],[-86.49,37.89],[-85.92,38.5],[-85.64,37.84],[-84.3,37.27],[-84.93,36.9],[-85.83,37.14],[-85.61,36.83],[-84.53,36.63],[-84.01,35.29],[-83.81,35.61],[-82.96,35.85],[-81.89,35.19],[-81.43,35.83],[-82.18,36.06],[-81.82,36.65],[-80.42,37.48],[-78.02,40.02],[-76.79,40.21],[-75.85,39.58],[-76.63,39.27],[-76.38,38.36],[-76.69,38.69],[-76.71,38.55],[-76.37,38.3],[-76.31,38.04],[-77.02,38.5],[-77.25,38.39],[-77.26,38.51],[-77.0,38.7],[-76.98,38.88],[-77.08,38.9],[-77.37,38.35],[-76.24,37.9],[-76.51,37.64],[-76.92,38.08],[-77.05,38.16],[-77.2,38.19],[-76.6,37.66],[-76.29,37.56],[-76.52,37.55],[-76.25,37.47],[-76.27,37.31],[-77.16,37.82],[-77.66,37.77],[-77.41,38.1],[-77.59,38.35],[-78.07,38.05],[-78.37,37.18],[-77.01,37.3],[-76.56,36.8],[-76.33,36.97],[-75.97,36.85],[-76.92,36.4],[-76.74,36.32],[-76.84,35.45],[-77.14,35.98],[-76.89,36.1],[-77.02,36.46],[-76.83,37.02],[-77.61,36.77],[-78.6,37.13],[-78.26,37.68],[-78.9,37.77],[-78.5,38.72],[-78.1,39.01],[-77.53,38.88],[-77.48,39.19],[-76.78,39.46],[-76.85,39.7],[-77.91,39.85],[-77.9,39.38],[-78.43,39.23],[-80.32,37.35],[-79.86,36.91],[-81.07,36.39],[-81.6,36.56],[-81.67,36.21],[-81.32,35.92],[-79.58,35.9],[-79.38,35.63],[-80.44,35.51],[-80.7,35.11],[-80.29,34.15],[-81.67,32.71],[-81.58,32.19],[-81.2,32.05],[-81.04,32.23],[-80.97,32.28],[-80.88,32.32],[-80.88,32.3],[-80.82,32.28],[-80.78,32.32],[-80.67,32.22],[-80.99,31.86],[-81.29,31.95],[-81.04,31.82],[-81.32,31.81],[-81.27,31.67],[-81.13,31.63],[-81.37,31.55],[-81.29,31.32],[-81.47,31.38],[-81.48,31.35],[-81.26,31.27],[-81.62,31.21],[-81.54,31.18],[-81.54,31.07],[-81.48,31.01],[-81.46,31.01],[-81.5,30.98],[-81.54,31.0],[-81.64,31.0],[-81.65,30.98],[-81.45,30.95],[-81.59,30.87],[-81.5,30.73],[-81.61,30.72],[-81.51,30.64],[-81.48,30.64],[-81.46,30.7],[-81.43,30.7],[-81.43,30.52],[-81.46,30.54],[-81.46,30.59],[-81.49,30.61],[-81.6,30.56],[-81.57,30.51],[-81.48,30.48],[-81.47,30.53],[-81.45,30.45],[-81.46,30.4],[-81.49,30.45],[-81.73,30.42],[-81.67,30.21],[-82.81,30.48],[-83.37,30.12],[-83.49,30.53],[-84.27,30.59],[-84.47,30.36],[-84.08,30.16],[-84.1,30.09],[-84.27,30.11],[-84.28,30.06],[-84.34,30.08],[-84.39,30.01],[-84.88,30.71],[-85.87,30.31],[-85.76,30.14],[-86.52,30.4],[-86.11,30.38],[-86.2,30.5],[-87.19,30.35],[-86.88,30.44],[-87.02,30.5],[-86.99,30.57],[-87.03,30.61],[-87.32,30.32],[-87.53,30.28],[-87.45,30.3],[-87.35,30.43],[-87.44,30.49],[-87.56,30.27],[-88.03,30.22],[-87.72,30.27],[-88.03,30.69],[-88.32,30.37],[-88.27,30.82],[-87.27,30.7],[-86.15,31.35],[-85.48,30.89],[-85.42,31.32],[-86.66,31.81],[-87.29,32.34],[-86.88,32.84],[-87.64,33.14],[-88.08,33.04],[-88.01,32.22],[-88.42,31.84],[-89.37,31.86],[-90.07,32.46],[-91.02,32.27],[-91.09,32.98],[-90.53,32.92],[-89.33,33.64],[-88.95,34.08],[-89.16,34.77],[-88.33,34.63],[-88.48,35.0],[-88.23,35.18],[-89.08,35.46],[-89.34,35.14],[-90.07,36.77],[-90.71,36.73],[-90.91,37.07],[-91.18,37.0],[-91.1,36.66],[-91.7,36.82],[-91.5,37.31],[-92.07,38.05],[-94.29,38.57],[-95.35,38.19],[-96.28,38.35],[-96.76,38.03],[-97.56,38.75],[-98.74,39.03],[-99.67,38.35],[-100.16,38.21],[-100.74,38.19],[-101.76,38.69],[-101.56,39.19],[-102.12,39.57],[-102.28,39.04],[-102.9,38.83],[-104.44,39.22],[-104.26,39.79],[-103.61,40.34],[-104.0,40.77],[-102.43,40.98],[-102.66,40.61],[-101.85,40.55],[-101.99,40.08],[-101.58,40.0],[-101.29,40.41],[-100.38,39.19],[-99.86,39.16],[-100.07,39.57],[-98.77,40.2],[-99.17,40.37],[-99.3,40.53],[-99.57,40.61],[-99.01,40.89],[-99.55,41.06],[-99.74,40.74],[-100.25,41.61],[-99.45,41.43],[-98.72,42.16],[-97.21,41.28],[-96.13,41.62],[-95.73,42.07],[-96.47,42.85],[-96.09,43.04],[-96.92,43.39],[-94.77,43.84],[-95.81,45.27],[-95.76,45.72],[-94.53,45.33]],[[-83.53,34.88],[-84.6,34.19],[-83.83,34.32],[-83.04,34.99],[-82.83,34.68],[-83.9,33.35],[-85.15,33.48],[-85.32,33.11],[-83.64,32.78],[-83.58,33.53],[-82.37,33.76],[-81.64,34.43],[-81.81,34.6],[-81.44,34.87],[-81.65,35.15],[-81.27,35.52],[-82.16,34.9],[-82.96,35.76],[-83.35,35.7],[-83.85,35.22],[-83.53,34.88]],[[-81.72,32.05],[-82.7,31.48],[-82.53,31.03],[-81.83,31.11],[-81.7,31.39],[-81.98,31.45],[-81.59,31.62],[-81.72,32.05]],[[-82.14,32.85],[-82.92,32.28],[-82.76,31.95],[-81.87,32.29],[-82.14,32.85]],[[-82.88,30.98],[-83.85,31.04],[-84.13,31.37],[-84.71,30.99],[-83.67,30.7],[-82.88,30.98]],[[-83.63,31.27],[-83.28,31.5],[-83.74,31.68],[-83.76,31.46],[-83.63,31.27]],[[-86.05,36.06],[-86.57,35.87],[-86.24,35.61],[-86.13,35.15],[-87.02,34.83],[-87.61,35.04],[-87.92,34.44],[-87.8,33.92],[-85.39,33.31],[-85.49,34.81],[-84.1,34.75],[-84.61,35.71],[-85.04,35.53],[-85.02,35.11],[-85.75,35.11],[-86.05,36.06]],[[-84.7,32.7],[-84.97,32.46],[-84.34,32.27],[-84.34,32.54],[-84.7,32.7]],[[-84.52,35.96],[-84.64,35.88],[-84.5,35.91],[-84.52,35.96]],[[-86.28,35.37],[-86.49,35.56],[-86.54,35.36],[-86.28,35.37]],[[-86.6,36.27],[-86.58,36.11],[-86.47,36.23],[-86.6,36.27]],[[-87.12,36.01],[-86.72,36.01],[-86.76,36.29],[-87.11,36.34],[-87.12,36.01]],[[-90.78,37.11],[-89.54,36.81],[-89.48,36.26],[-88.6,35.8],[-86.72,35.79],[-87.62,36.02],[-87.18,36.62],[-88.51,37.3],[-90.79,37.9],[-91.02,37.5],[-90.78,37.11]],[[-88.81,33.25],[-88.51,33.34],[-88.6,33.51],[-88.81,33.25]],[[-89.62,38.34],[-89.46,38.12],[-89.05,38.29],[-89.62,38.34]],[[-89.82,42.56],[-89.72,42.23],[-89.48,42.3],[-89.82,42.56]],[[-92.24,39.61],[-91.63,39.11],[-91.13,39.54],[-92.24,39.61]],[[-94.54,42.91],[-93.82,42.65],[-93.42,43.43],[-94.74,43.5],[-94.54,42.91]],[[-94.04,43.67],[-93.49,44.01],[-94.94,44.93],[-94.15,44.18],[-94.04,43.67]],[[-95.26,39.24],[-94.36,39.04],[-94.04,39.18],[-94.37,39.42],[-95.26,39.24]],[[-95.83,42.37],[-95.4,42.45],[-95.33,42.51],[-95.65,42.54],[-95.83,42.37]],[[-100.02,39.0],[-100.66,38.68],[-100.74,39.45],[-101.07,39.63],[-101.37,39.13],[-100.73,38.23],[-99.98,38.31],[-100.02,39.0]],[[-102.53,39.11],[-102.79,39.82],[-102.49,40.16],[-103.28,40.66],[-104.31,39.39],[-103.12,38.92],[-103.15,39.16],[-102.53,39.11]]],[[[-77.04,35.09],[-76.92,34.9],[-76.43,34.83],[-77.25,34.85],[-77.56,34.43],[-77.51,34.68],[-77.04,35.09]]],[[[-77.01,35.48],[-76.6,35.07],[-77.09,35.17],[-77.67,34.73],[-77.94,34.41],[-78.05,33.9],[-78.0,34.55],[-77.01,35.48]]],[[[-78.96,35.25],[-78.36,34.9],[-79.64,34.88],[-78.96,35.25]]],[[[-81.39,30.4],[-81.07,29.35],[-81.36,28.69],[-80.66,28.2],[-80.41,27.72],[-80.61,27.59],[-80.06,26.92],[-81.17,27.83],[-81.53,28.79],[-81.33,29.52],[-81.66,30.28],[-81.39,30.4]]],[[[-81.26,26.97],[-81.45,26.08],[-81.6,26.06],[-81.88,26.61],[-81.58,27.01],[-81.26,26.97]]],[[[-82.47,29.44],[-81.95,29.07],[-82.03,28.33],[-82.34,28.55],[-82.51,28.3],[-82.39,28.58],[-82.8,29.17],[-83.16,29.3],[-82.47,29.44]]],[[[-86.26,44.38],[-83.98,43.93],[-83.68,43.59],[-82.68,43.89],[-82.52,42.63],[-82.8,42.65],[-83.4,41.98],[-84.07,42.44],[-84.11,42.84],[-85.28,42.86],[-85.63,43.2],[-85.75,42.85],[-84.62,42.39],[-85.27,42.1],[-86.25,42.51],[-86.52,44.06],[-86.26,44.38]],[[-83.55,42.31],[-83.08,42.38],[-83.09,42.58],[-83.55,42.6],[-83.55,42.31]],[[-84.58,43.17],[-83.8,42.8],[-83.3,43.05],[-83.92,43.23],[-84.58,43.17]],[[-84.59,43.85],[-84.96,43.74],[-84.55,43.74],[-84.59,43.85]]],[[[-88.66,47.23],[-88.65,47.17],[-88.59,47.05],[-88.45,46.99],[-88.8,46.89],[-88.49,46.6],[-87.99,46.68],[-88.08,46.92],[-87.91,46.91],[-87.68,46.84],[-87.59,46.78],[-87.51,46.65],[-87.47,46.64],[-87.43,46.59],[-87.38,46.59],[-87.39,46.53],[-87.35,46.5],[-86.65,46.41],[-85.46,46.69],[-83.89,45.99],[-84.66,46.05],[-84.76,45.84],[-85.56,46.52],[-85.97,45.94],[-87.16,46.11],[-87.31,45.47],[-87.3,46.43],[-89.25,46.36],[-89.15,46.98],[-89.12,46.99],[-88.97,47.0],[-88.94,47.02],[-88.91,47.06],[-88.91,47.07],[-88.9,47.09],[-88.89,47.1],[-88.68,47.22],[-88.67,47.22],[-88.66,47.23]],[[-87.37,46.51],[-87.37,46.51],[-87.37,46.51],[-87.37,46.51]],[[-87.38,46.52],[-87.38,46.52],[-87.38,46.52],[-87.38,46.52]],[[-87.47,46.64],[-87.47,46.64],[-87.47,46.64],[-87.47,46.64]],[[-87.52,46.68],[-87.52,46.68],[-87.52,46.68],[-87.52,46.68]],[[-87.56,46.71],[-87.56,46.71],[-87.56,46.71],[-87.56,46.71]],[[-87.69,46.83],[-87.69,46.83],[-87.69,46.83],[-87.69,46.83]],[[-87.75,46.86],[-87.75,46.86],[-87.75,46.86],[-87.75,46.86]],[[-87.75,46.86],[-87.75,46.86],[-87.75,46.86],[-87.75,46.86]],[[-87.75,46.86],[-87.75,46.86],[-87.75,46.86],[-87.75,46.86]],[[-87.77,46.86],[-87.77,46.86],[-87.77,46.86],[-87.77,46.86]],[[-87.87,46.89],[-87.87,46.89],[-87.87,46.89],[-87.87,46.89]],[[-87.91,46.91],[-87.91,46.91],[-87.91,46.91],[-87.91,46.91]],[[-87.92,46.91],[-87.92,46.91],[-87.92,46.91],[-87.92,46.91]],[[-87.92,46.91],[-87.92,46.91],[-87.92,46.91],[-87.92,46.91]],[[-87.93,46.91],[-87.93,46.91],[-87.93,46.91],[-87.93,46.91]],[[-87.94,46.91],[-87.94,46.91],[-87.94,46.91],[-87.94,46.91]],[[-87.96,46.91],[-87.96,46.91],[-87.96,46.91],[-87.96,46.91]],[[-87.97,46.91],[-87.97,46.91],[-87.97,46.91],[-87.97,46.91]],[[-87.98,46.91],[-87.98,46.91],[-87.98,46.91],[-87.98,46.91]],[[-87.99,46.91],[-87.99,46.91],[-87.99,46.91],[-87.99,46.91]],[[-88.02,46.91],[-88.02,46.91],[-88.02,46.91],[-88.02,46.91]],[[-88.04,46.91],[-88.04,46.91],[-88.04,46.91],[-88.04,46.91]],[[-88.67,47.22],[-88.67,47.22],[-88.67,47.22],[-88.67,47.22]],[[-88.68,47.22],[-88.68,47.22],[-88.68,47.22],[-88.68,47.22]],[[-88.68,47.21],[-88.68,47.21],[-88.68,47.21],[-88.68,47.21]],[[-88.69,47.21],[-88.69,47.21],[-88.69,47.21],[-88.69,47.21]],[[-88.73,47.19],[-88.73,47.19],[-88.73,47.19],[-88.73,47.19]],[[-88.73,47.19],[-88.73,47.19],[-88.73,47.19],[-88.73,47.19]],[[-88.74,47.17],[-88.74,47.17],[-88.74,47.17],[-88.74,47.17]],[[-88.74,47.17],[-88.74,47.17],[-88.74,47.17],[-88.74,47.17]],[[-88.75,47.17],[-88.75,47.17],[-88.75,47.17],[-88.75,47.17]],[[-88.75,47.16],[-88.75,47.16],[-88.75,47.16],[-88.75,47.16]],[[-88.77,47.16],[-88.77,47.16],[-88.77,47.16],[-88.77,47.16]],[[-88.78,47.15],[-88.78,47.15],[-88.78,47.15],[-88.78,47.15]],[[-88.8,47.15],[-88.8,47.15],[-88.8,47.15],[-88.8,47.15]],[[-88.81,47.14],[-88.81,47.14],[-88.81,47.14],[-88.81,47.14]],[[-88.81,47.14],[-88.81,47.14],[-88.81,47.14],[-88.81,47.14]],[[-88.82,47.14],[-88.82,47.14],[-88.82,47.14],[-88.82,47.14]],[[-88.82,47.14],[-88.82,47.14],[-88.82,47.14],[-88.82,47.14]],[[-88.82,47.14],[-88.82,47.14],[-88.82,47.14],[-88.82,47.14]],[[-88.83,47.13],[-88.83,47.13],[-88.83,47.13],[-88.83,47.13]],[[-88.83,47.13],[-88.83,47.13],[-88.83,47.13],[-88.83,47.13]],[[-88.83,47.13],[-88.83,47.13],[-88.83,47.13],[-88.83,47.13]],[[-88.83,47.13],[-88.83,47.13],[-88.83,47.13],[-88.83,47.13]],[[-88.83,47.13],[-88.83,47.13],[-88.83,47.13],[-88.83,47.13]],[[-88.83,47.13],[-88.83,47.13],[-88.83,47.13],[-88.83,47.13]],[[-88.83,47.12],[-88.83,47.12],[-88.83,47.12],[-88.83,47.12]],[[-88.84,47.12],[-88.84,47.12],[-88.84,47.12],[-88.84,47.12]],[[-88.84,47.12],[-88.84,47.12],[-88.84,47.12],[-88.84,47.12]],[[-88.84,47.12],[-88.84,47.12],[-88.84,47.12],[-88.84,47.12]],[[-88.84,47.12],[-88.84,47.12],[-88.84,47.12],[-88.84,47.12]],[[-88.84,47.12],[-88.84,47.12],[-88.84,47.12],[-88.84,47.12]],[[-88.85,47.11],[-88.85,47.11],[-88.85,47.11],[-88.85,47.11]],[[-88.86,47.11],[-88.86,47.11],[-88.86,47.11],[-88.86,47.11]],[[-88.86,47.11],[-88.86,47.11],[-88.86,47.11],[-88.86,47.11]],[[-88.87,47.11],[-88.87,47.11],[-88.87,47.11],[-88.87,47.11]],[[-88.88,47.11],[-88.88,47.11],[-88.88,47.11],[-88.88,47.11]],[[-88.89,47.1],[-88.89,47.1],[-88.89,47.1],[-88.89,47.1]],[[-88.89,47.1],[-88.89,47.1],[-88.89,47.1],[-88.89,47.1]],[[-88.89,47.1],[-88.89,47.1],[-88.89,47.1],[-88.89,47.1]],[[-88.89,47.09],[-88.89,47.09],[-88.89,47.09],[-88.89,47.09]],[[-88.9,47.09],[-88.9,47.09],[-88.9,47.09],[-88.9,47.09]],[[-88.9,47.09],[-88.9,47.09],[-88.9,47.09],[-88.9,47.09]],[[-88.9,47.09],[-88.9,47.09],[-88.9,47.09],[-88.9,47.09]],[[-88.9,47.09],[-88.9,47.09],[-88.9,47.09],[-88.9,47.09]],[[-88.9,47.08],[-88.9,47.08],[-88.9,47.08],[-88.9,47.08]],[[-88.9,47.08],[-88.9,47.08],[-88.9,47.08],[-88.9,47.08]],[[-88.91,47.08],[-88.91,47.08],[-88.91,47.08],[-88.91,47.08]],[[-88.91,47.07],[-88.91,47.07],[-88.91,47.07],[-88.91,47.07]],[[-88.92,47.05],[-88.92,47.05],[-88.92,47.05],[-88.92,47.05]],[[-88.92,47.04],[-88.92,47.04],[-88.92,47.04],[-88.92,47.04]],[[-88.93,47.04],[-88.93,47.04],[-88.93,47.04],[-88.93,47.04]],[[-88.95,47.01],[-88.95,47.01],[-88.95,47.01],[-88.95,47.01]],[[-88.96,47.01],[-88.96,47.01],[-88.96,47.01],[-88.96,47.01]],[[-88.97,47.0],[-88.97,47.0],[-88.97,47.0],[-88.97,47.0]],[[-88.97,47.0],[-88.97,47.0],[-88.97,47.0],[-88.97,47.0]],[[-88.97,47.0],[-88.97,47.0],[-88.97,47.0],[-88.97,47.0]],[[-89.04,47.0],[-89.04,47.0],[-89.04,47.0],[-89.04,47.0]],[[-89.04,47.0],[-89.04,47.0],[-89.04,47.0],[-89.04,47.0]],[[-89.05,47.0],[-89.05,47.0],[-89.05,47.0],[-89.05,47.0]],[[-89.05,46.99],[-89.05,46.99],[-89.05,46.99],[-89.05,46.99]],[[-89.05,46.99],[-89.05,46.99],[-89.05,46.99],[-89.05,46.99]],[[-89.05,46.99],[-89.05,46.99],[-89.05,46.99],[-89.05,46.99]],[[-89.06,46.99],[-89.06,46.99],[-89.06,46.99],[-89.06,46.99]],[[-89.06,46.99],[-89.06,46.99],[-89.06,46.99],[-89.06,46.99]],[[-89.06,46.99],[-89.06,46.99],[-89.06,46.99],[-89.06,46.99]],[[-89.06,46.99],[-89.06,46.99],[-89.06,46.99],[-89.06,46.99]],[[-89.07,46.99],[-89.07,46.99],[-89.07,46.99],[-89.07,46.99]],[[-89.12,46.99],[-89.12,46.99],[-89.12,46.99],[-89.12,46.99]],[[-89.14,46.99],[-89.14,46.99],[-89.14,46.99],[-89.14,46.99]],[[-89.14,46.98],[-89.14,46.98],[-89.14,46.98],[-89.14,46.98]]],[[[-87.8,47.47],[-87.71,47.4],[-87.82,47.38],[-87.96,47.39],[-87.94,47.34],[-88.17,47.21],[-88.19,47.21],[-88.22,47.21],[-88.24,47.14],[-88.25,47.14],[-88.26,47.14],[-88.28,47.14],[-88.28,47.42],[-88.19,47.46],[-88.04,47.48],[-87.97,47.48],[-87.94,47.48],[-87.8,47.47]],[[-87.74,47.41],[-87.74,47.41],[-87.74,47.41],[-87.74,47.41]],[[-87.75,47.4],[-87.75,47.4],[-87.75,47.4],[-87.75,47.4]],[[-87.78,47.39],[-87.78,47.39],[-87.78,47.39],[-87.78,47.39]],[[-87.79,47.39],[-87.79,47.39],[-87.79,47.39],[-87.79,47.39]],[[-87.82,47.39],[-87.82,47.39],[-87.82,47.39],[-87.82,47.39]],[[-87.83,47.39],[-87.83,47.39],[-87.83,47.39],[-87.83,47.39]],[[-87.83,47.39],[-87.83,47.39],[-87.83,47.39],[-87.83,47.39]],[[-87.84,47.39],[-87.84,47.39],[-87.84,47.39],[-87.84,47.39]],[[-87.85,47.47],[-87.85,47.47],[-87.85,47.47],[-87.85,47.47]],[[-87.87,47.39],[-87.87,47.39],[-87.87,47.39],[-87.87,47.39]],[[-87.88,47.39],[-87.88,47.39],[-87.88,47.39],[-87.88,47.39]],[[-87.88,47.4],[-87.88,47.4],[-87.88,47.4],[-87.88,47.4]],[[-87.92,47.39],[-87.92,47.39],[-87.92,47.39],[-87.92,47.39]],[[-87.94,47.48],[-87.94,47.48],[-87.94,47.48],[-87.94,47.48]],[[-87.95,47.48],[-87.95,47.48],[-87.95,47.48],[-87.95,47.48]],[[-87.96,47.48],[-87.96,47.48],[-87.96,47.48],[-87.96,47.48]],[[-87.96,47.48],[-87.96,47.48],[-87.96,47.48],[-87.96,47.48]],[[-87.99,47.32],[-87.99,47.32],[-87.99,47.32],[-87.99,47.32]],[[-88.03,47.47],[-88.03,47.47],[-88.03,47.47],[-88.03,47.47]],[[-88.03,47.47],[-88.03,47.47],[-88.03,47.47],[-88.03,47.47]],[[-88.06,47.47],[-88.06,47.47],[-88.06,47.47],[-88.06,47.47]],[[-88.07,47.47],[-88.07,47.47],[-88.07,47.47],[-88.07,47.47]],[[-88.11,47.46],[-88.11,47.46],[-88.11,47.46],[-88.11,47.46]],[[-88.17,47.21],[-88.17,47.21],[-88.17,47.21],[-88.17,47.21]],[[-88.17,47.22],[-88.17,47.22],[-88.17,47.22],[-88.17,47.22]],[[-88.18,47.21],[-88.18,47.21],[-88.18,47.21],[-88.18,47.21]],[[-88.19,47.45],[-88.19,47.45],[-88.19,47.45],[-88.19,47.45]],[[-88.2,47.21],[-88.2,47.21],[-88.2,47.21],[-88.2,47.21]],[[-88.2,47.21],[-88.2,47.21],[-88.2,47.21],[-88.2,47.21]],[[-88.21,47.21],[-88.21,47.21],[-88.21,47.21],[-88.21,47.21]],[[-88.22,47.45],[-88.22,47.45],[-88.22,47.45],[-88.22,47.45]],[[-88.22,47.44],[-88.22,47.44],[-88.22,47.44],[-88.22,47.44]],[[-88.24,47.43],[-88.24,47.43],[-88.24,47.43],[-88.24,47.43]],[[-88.24,47.43],[-88.24,47.43],[-88.24,47.43],[-88.24,47.43]],[[-88.24,47.43],[-88.24,47.43],[-88.24,47.43],[-88.24,47.43]],[[-88.25,47.14],[-88.25,47.14],[-88.25,47.14],[-88.25,47.14]],[[-88.25,47.43],[-88.25,47.43],[-88.25,47.43],[-88.25,47.43]],[[-88.26,47.43],[-88.26,47.43],[-88.26,47.43],[-88.26,47.43]],[[-88.26,47.14],[-88.26,47.14],[-88.26,47.14],[-88.26,47.14]],[[-88.27,47.42],[-88.27,47.42],[-88.27,47.42],[-88.27,47.42]],[[-88.27,47.14],[-88.27,47.14],[-88.27,47.14],[-88.27,47.14]]],[[[-89.92,30.36],[-89.8,29.71],[-90.21,29.7],[-90.17,29.1],[-90.27,29.08],[-90.24,29.24],[-90.52,29.36],[-90.89,29.12],[-90.94,29.17],[-90.8,29.22],[-90.82,29.27],[-91.16,29.53],[-90.23,29.74],[-90.61,30.39],[-91.27,30.28],[-91.54,29.58],[-91.65,29.63],[-91.58,30.23],[-89.2,30.8],[-89.92,30.36]]],[[[-91.04,35.26],[-90.79,35.24],[-90.31,35.01],[-91.1,34.88],[-91.04,35.26]]],[[[-93.15,36.46],[-92.13,36.36],[-93.18,35.89],[-93.15,36.46]]],[[[-92.13,35.53],[-92.82,35.41],[-93.15,35.59],[-92.54,35.76],[-92.13,35.53]]],[[[-95.42,32.23],[-94.41,31.56],[-94.04,31.22],[-94.19,30.99],[-93.55,30.63],[-93.83,30.44],[-93.87,29.68],[-94.78,29.36],[-94.47,29.55],[-94.78,29.53],[-94.75,29.78],[-94.88,29.66],[-94.96,29.7],[-95.01,29.64],[-94.81,29.36],[-95.22,29.22],[-95.24,28.99],[-96.57,28.81],[-96.22,29.01],[-96.02,29.95],[-96.09,30.25],[-96.77,30.33],[-96.77,30.72],[-95.85,30.78],[-95.09,30.38],[-95.35,30.63],[-95.42,32.23]],[[-95.21,31.49],[-94.81,30.21],[-94.32,30.12],[-93.95,29.82],[-93.9,29.89],[-94.27,31.02],[-94.89,31.09],[-95.21,31.49]],[[-94.52,30.11],[-95.03,30.17],[-94.48,29.6],[-94.46,29.74],[-94.52,30.11]],[[-95.38,30.18],[-95.05,30.19],[-95.46,30.36],[-95.38,30.18]]],[[[-94.01,33.65],[-94.24,33.07],[-94.6,33.19],[-94.01,33.65]]],[[[-105.89,48.03],[-104.08,48.66],[-101.11,48.76],[-98.8,47.85],[-100.13,48.97],[-96.56,49.0],[-96.25,48.69],[-95.15,49.0],[-95.15,49.39],[-94.81,49.32],[-94.64,48.74],[-94.07,48.64],[-94.73,47.89],[-95.3,47.73],[-97.31,48.1],[-98.69,47.82],[-100.04,47.84],[-104.34,48.47],[-105.48,48.06],[-105.36,47.48],[-105.71,46.8],[-109.0,47.0],[-108.47,47.29],[-108.44,48.28],[-107.69,48.56],[-107.89,49.0],[-105.92,49.0],[-106.27,48.75],[-105.89,48.03]],[[-96.14,48.54],[-95.37,48.07],[-94.75,48.59],[-96.14,48.54]]],[[[-98.96,46.66],[-97.84,45.86],[-96.34,45.66],[-96.61,44.62],[-98.01,44.67],[-100.32,45.6],[-99.65,46.52],[-98.96,46.66]],[[-98.94,46.08],[-98.39,45.33],[-97.98,45.34],[-98.02,45.76],[-98.94,46.08]],[[-98.99,45.79],[-99.43,46.03],[-99.47,45.71],[-98.99,45.79]]],[[[-97.24,41.95],[-97.8,41.96],[-97.96,42.18],[-97.5,42.19],[-97.24,41.95]]],[[[-102.29,31.22],[-101.63,31.16],[-101.19,31.75],[-100.69,31.22],[-98.18,31.58],[-98.07,31.19],[-98.51,30.98],[-97.81,30.56],[-98.19,30.13],[-97.65,29.62],[-99.07,29.2],[-99.66,27.63],[-102.12,30.51],[-102.5,30.46],[-102.71,29.97],[-103.02,30.04],[-103.48,31.65],[-102.86,32.39],[-102.55,32.34],[-102.29,31.22]],[[-99.42,31.07],[-100.36,30.54],[-100.94,29.5],[-99.53,28.88],[-98.46,29.96],[-99.42,31.07]],[[-102.85,31.1],[-102.71,30.54],[-102.39,31.21],[-102.85,31.1]]],[[[-98.66,43.2],[-98.11,42.61],[-98.49,42.38],[-99.55,42.18],[-98.75,42.63],[-99.43,42.66],[-99.32,42.99],[-98.66,43.2]]],[[[-99.67,44.57],[-98.43,44.54],[-98.16,44.11],[-99.02,43.68],[-100.14,43.62],[-99.6,42.87],[-100.28,42.11],[-100.56,42.1],[-100.66,42.74],[-100.99,42.89],[-101.78,42.7],[-101.49,43.35],[-102.17,43.83],[-100.98,43.83],[-101.01,44.38],[-100.64,44.55],[-99.67,44.57]],[[-100.75,44.1],[-99.27,43.81],[-98.93,44.13],[-100.03,44.55],[-100.75,44.1]]],[[[-104.12,30.8],[-104.59,30.38],[-104.39,30.96],[-104.12,30.8]]],[[[-106.56,32.56],[-105.85,32.12],[-106.68,31.78],[-106.89,32.33],[-107.54,31.78],[-107.3,32.37],[-106.56,32.56]]],[[[-109.33,32.73],[-108.93,32.27],[-108.89,31.33],[-109.38,32.13],[-110.32,32.51],[-111.25,32.06],[-111.09,31.33],[-111.96,31.61],[-110.67,32.82],[-109.33,32.73]]],[[[-115.62,44.46],[-115.04,44.16],[-114.83,44.62],[-113.12,45.75],[-113.02,46.11],[-113.36,46.11],[-113.38,46.38],[-111.8,46.52],[-111.23,47.09],[-110.75,47.15],[-111.68,47.6],[-111.6,47.99],[-112.22,48.25],[-112.34,48.82],[-110.31,48.85],[-109.11,47.94],[-111.26,46.76],[-110.68,46.01],[-110.79,45.67],[-112.62,46.11],[-112.7,45.53],[-113.88,44.16],[-115.83,43.88],[-116.46,43.45],[-117.19,43.54],[-117.39,43.96],[-116.65,44.05],[-116.08,44.81],[-116.44,45.46],[-115.77,46.07],[-115.84,46.62],[-114.31,47.65],[-115.7,49.0],[-115.04,49.0],[-114.04,47.96],[-114.67,46.21],[-115.44,45.38],[-115.62,44.46]],[[-110.75,48.27],[-111.34,47.92],[-110.92,47.65],[-110.06,47.8],[-110.75,48.27]]],[[[-113.05,35.51],[-110.69,35.36],[-110.44,34.98],[-110.62,34.06],[-111.14,34.13],[-111.64,34.98],[-112.18,34.24],[-113.38,34.51],[-113.46,35.15],[-113.05,35.51]]],[[[-110.83,31.73],[-111.07,31.94],[-110.62,32.15],[-110.59,32.02],[-110.83,31.73]]],[[[-123.5,40.95],[-121.77,41.38],[-120.77,40.71],[-120.3,40.74],[-119.98,38.9],[-119.06,39.21],[-116.95,38.02],[-116.72,37.1],[-115.45,35.53],[-115.35,35.14],[-115.97,33.98],[-115.92,33.52],[-115.16,32.69],[-115.95,32.63],[-116.4,34.84],[-117.36,35.73],[-118.59,35.1],[-119.01,35.5],[-119.38,36.78],[-120.08,37.08],[-121.15,38.45],[-123.74,39.14],[-123.5,40.95]]],[[[-116.79,34.07],[-116.9,33.31],[-116.49,32.67],[-116.85,32.64],[-117.47,33.3],[-117.05,34.14],[-116.79,34.07]]],[[[-122.75,49.0],[-122.38,49.0],[-121.8,48.26],[-121.44,46.15],[-120.22,46.04],[-120.59,46.51],[-120.1,46.43],[-119.6,45.85],[-120.01,45.36],[-120.91,45.19],[-122.01,45.61],[-124.06,44.75],[-123.3,46.14],[-122.91,46.08],[-122.79,45.85],[-122.8,45.81],[-122.77,45.76],[-122.8,45.62],[-122.78,45.6],[-122.33,45.54],[-122.19,45.55],[-121.94,45.64],[-122.67,45.62],[-122.76,45.67],[-122.76,45.77],[-122.8,45.91],[-122.79,45.95],[-122.88,46.04],[-122.87,46.08],[-122.91,46.1],[-122.89,46.1],[-122.95,46.1],[-123.04,46.17],[-123.06,46.17],[-123.09,46.18],[-123.13,46.19],[-123.17,46.19],[-123.3,46.15],[-122.55,46.71],[-122.69,47.1],[-122.32,47.35],[-122.17,48.03],[-122.51,48.14],[-122.36,48.3],[-122.7,48.5],[-122.48,48.45],[-122.42,48.6],[-122.75,49.0]]],[[[-124.08,47.93],[-123.16,47.32],[-122.54,47.58],[-122.55,47.28],[-122.82,47.41],[-123.25,47.19],[-123.61,47.44],[-124.24,47.29],[-123.84,47.62],[-124.08,47.93]]],[[[-124.17,40.81],[-123.94,40.49],[-124.36,40.36],[-124.39,40.51],[-124.17,40.81]]],[[[-139.57,59.77],[-138.49,59.7],[-137.61,59.24],[-137.53,58.91],[-136.83,59.16],[-136.58,59.16],[-136.35,59.6],[-135.23,59.7],[-133.38,58.43],[-131.84,56.6],[-130.1,56.12],[-129.99,55.29],[-130.93,54.8],[-130.99,55.06],[-130.69,55.01],[-130.48,55.33],[-131.07,55.13],[-130.62,55.3],[-130.88,55.36],[-130.71,55.76],[-131.09,56.09],[-131.84,55.95],[-132.03,55.68],[-132.14,55.81],[-132.01,55.78],[-132.1,55.85],[-131.93,55.98],[-131.98,56.17],[-131.59,56.16],[-131.5,56.23],[-131.93,56.23],[-131.97,56.38],[-132.37,56.53],[-132.33,56.65],[-132.57,56.63],[-132.37,56.82],[-132.82,57.09],[-133.58,57.18],[-133.06,57.35],[-133.45,57.35],[-133.33,57.59],[-133.65,57.72],[-133.07,57.51],[-132.95,57.51],[-133.59,57.91],[-133.13,57.86],[-133.58,57.93],[-133.71,57.79],[-134.01,58.38],[-134.78,58.39],[-134.93,58.96],[-134.96,58.99],[-135.03,58.73],[-135.38,59.27],[-135.34,59.47],[-135.57,59.32],[-135.09,58.24],[-135.51,58.51],[-135.92,58.38],[-135.83,58.6],[-136.09,58.81],[-135.95,58.87],[-135.95,58.85],[-135.77,58.88],[-135.78,58.89],[-136.18,59.04],[-136.24,58.75],[-136.5,58.96],[-137.08,59.06],[-137.15,58.83],[-137.0,58.9],[-136.56,58.83],[-136.64,58.76],[-136.34,58.68],[-136.55,58.61],[-136.03,58.38],[-136.53,58.45],[-136.36,58.3],[-136.6,58.36],[-136.67,58.21],[-136.68,58.29],[-136.87,58.38],[-137.65,58.61],[-137.45,58.65],[-137.49,58.68],[-137.67,58.61],[-138.28,59.08],[-138.61,59.12],[-138.5,59.12],[-138.47,59.19],[-139.87,59.54],[-139.59,59.6],[-139.48,59.7],[-139.57,59.77]]],[[[-131.54,55.91],[-130.94,55.66],[-131.16,55.2],[-131.23,55.41],[-131.29,55.38],[-131.3,55.27],[-131.48,55.3],[-131.32,55.37],[-131.28,55.43],[-131.36,55.65],[-131.33,55.43],[-131.48,55.32],[-131.42,55.37],[-131.43,55.52],[-131.52,55.51],[-131.53,55.29],[-131.83,55.45],[-131.58,55.59],[-131.54,55.91]]],[[[-134.05,57.02],[-133.09,57.0],[-132.94,56.65],[-133.38,56.84],[-133.09,56.53],[-133.66,56.44],[-133.69,56.85],[-134.05,57.02]]],[[[-134.11,56.84],[-134.16,56.92],[-134.03,56.88],[-133.95,56.81],[-134.05,56.65],[-133.7,56.61],[-133.95,56.62],[-134.13,56.01],[-134.29,56.36],[-134.05,56.34],[-134.03,56.42],[-134.09,56.49],[-134.04,56.47],[-134.04,56.5],[-134.32,56.56],[-134.08,56.65],[-134.43,56.84],[-134.29,56.79],[-134.28,56.82],[-134.31,56.85],[-134.36,56.88],[-134.3,56.91],[-134.11,56.84]]],[[[-134.96,58.41],[-134.7,58.16],[-134.18,58.15],[-134.23,58.12],[-133.8,57.58],[-134.31,58.09],[-134.31,57.83],[-133.87,57.36],[-134.62,57.01],[-134.58,57.4],[-134.32,57.34],[-134.61,57.51],[-134.53,57.49],[-134.36,57.55],[-134.68,57.61],[-134.96,58.41]]],[[[-135.48,57.35],[-135.4,57.44],[-135.19,57.48],[-135.01,57.26],[-134.84,57.25],[-134.67,56.16],[-135.07,56.54],[-134.94,56.58],[-134.83,56.75],[-135.13,56.6],[-135.0,56.76],[-135.04,56.78],[-135.21,56.67],[-135.2,56.75],[-135.13,56.77],[-135.09,56.81],[-135.02,56.82],[-135.41,56.95],[-135.12,56.99],[-135.34,57.26],[-135.69,57.35],[-135.48,57.35]]],[[[-136.33,58.22],[-136.28,58.22],[-136.2,58.09],[-136.1,58.06],[-135.5,58.17],[-135.79,58.05],[-135.67,57.94],[-134.97,58.05],[-135.23,57.95],[-135.08,57.77],[-135.91,58.0],[-134.82,57.5],[-135.84,57.77],[-135.82,57.65],[-135.55,57.48],[-135.84,57.39],[-135.92,57.58],[-136.02,57.56],[-136.22,57.8],[-136.43,57.82],[-136.03,57.84],[-136.33,58.22]]],[[[-141.0,64.31],[-141.0,61.25],[-144.56,61.53],[-145.06,62.13],[-144.06,63.27],[-144.9,63.88],[-141.0,64.31]]],[[[-145.72,63.93],[-148.75,63.46],[-150.85,63.73],[-150.82,64.01],[-149.51,64.17],[-145.06,64.31],[-145.72,63.93]]],[[[-155.77,20.1],[-155.69,19.32],[-155.9,19.09],[-156.05,19.73],[-155.77,20.1]]]]},"properties":{"w":"2026-09-08","released":"2026-09-10","dm":0,"label":"D0 Abnormally dry","area_km2":1906525,"parts":56}},{"type":"Feature","geometry":{"type":"MultiPolygon","coordinates":[[[[-66.35,18.48],[-66.36,18.27],[-66.64,18.18],[-67.19,18.1],[-66.35,18.48]]],[[[-68.02,44.38],[-69.35,45.05],[-70.8,43.58],[-70.43,43.37],[-71.1,42.81],[-71.83,43.02],[-71.85,43.8],[-72.69,44.11],[-72.31,44.43],[-72.3,45.0],[-71.78,45.01],[-71.63,44.27],[-70.18,44.33],[-69.81,44.76],[-70.24,45.45],[-69.8,45.77],[-70.0,46.69],[-69.55,47.14],[-68.45,47.06],[-68.33,47.36],[-67.79,47.07],[-68.31,46.67],[-67.79,46.55],[-67.82,45.69],[-66.95,44.82],[-67.77,45.05],[-67.56,44.54],[-67.79,44.61],[-68.02,44.38]]],[[[-70.67,41.97],[-70.99,41.51],[-71.2,41.46],[-71.08,41.74],[-70.67,41.97]]],[[[-74.86,39.56],[-74.62,39.43],[-74.45,39.66],[-74.26,39.61],[-74.97,38.93],[-74.69,39.34],[-74.86,39.56]]],[[[-75.51,38.76],[-75.05,38.51],[-75.06,38.38],[-76.25,38.42],[-75.88,38.68],[-75.87,39.24],[-75.4,39.26],[-75.51,38.76]]],[[[-76.75,39.63],[-77.53,38.88],[-78.1,39.01],[-78.5,38.72],[-78.9,37.77],[-78.26,37.68],[-78.6,37.29],[-78.31,36.95],[-77.61,36.77],[-76.83,37.02],[-77.15,35.19],[-78.0,34.55],[-78.05,33.9],[-78.3,34.3],[-77.29,35.64],[-77.75,35.53],[-77.78,35.11],[-78.35,34.69],[-79.75,34.54],[-80.16,33.5],[-81.41,33.13],[-80.79,32.37],[-81.2,32.05],[-81.58,32.19],[-81.46,33.18],[-80.29,34.15],[-80.56,35.33],[-79.38,35.63],[-79.58,35.9],[-81.32,35.92],[-81.67,36.21],[-81.6,36.56],[-81.07,36.39],[-79.86,36.91],[-80.32,37.35],[-78.43,39.23],[-77.9,39.38],[-77.91,39.85],[-76.75,39.63]],[[-80.21,36.33],[-80.84,36.15],[-79.8,36.04],[-78.53,36.38],[-77.76,36.04],[-76.88,36.87],[-77.45,36.72],[-78.13,36.85],[-78.6,36.71],[-78.92,37.57],[-79.65,37.63],[-79.87,37.44],[-79.55,37.03],[-80.21,36.33]],[[-79.62,34.82],[-79.04,34.72],[-78.36,34.9],[-78.96,35.25],[-79.62,34.82]]],[[[-79.25,33.25],[-79.18,33.19],[-79.24,33.12],[-79.24,33.17],[-79.27,33.19],[-79.54,33.03],[-79.73,32.8],[-79.94,32.93],[-80.0,32.61],[-80.29,32.63],[-80.35,33.16],[-79.79,32.98],[-79.25,33.25]]],[[[-80.74,26.07],[-81.27,25.78],[-81.3,25.69],[-81.35,25.82],[-81.54,25.92],[-81.73,25.91],[-81.66,25.98],[-81.86,26.36],[-81.45,26.08],[-81.26,26.97],[-81.58,27.01],[-82.0,26.53],[-81.98,27.04],[-82.4,27.33],[-81.31,27.06],[-81.26,27.41],[-82.74,28.27],[-82.67,28.43],[-82.64,28.59],[-82.66,28.65],[-82.39,28.58],[-82.51,28.3],[-82.34,28.55],[-81.99,28.37],[-82.01,29.19],[-82.55,29.48],[-83.15,29.33],[-83.21,29.42],[-83.4,29.52],[-83.4,29.66],[-83.67,29.93],[-84.47,30.36],[-84.27,30.59],[-83.49,30.53],[-83.37,30.12],[-82.81,30.48],[-81.67,30.21],[-81.76,30.11],[-81.55,29.77],[-81.65,29.71],[-81.6,29.61],[-81.69,29.59],[-81.7,29.55],[-81.69,29.44],[-81.64,29.25],[-81.55,29.19],[-81.5,30.02],[-81.53,28.79],[-81.17,27.83],[-80.69,27.6],[-80.4,26.99],[-80.06,26.92],[-80.03,26.8],[-80.06,26.85],[-80.05,26.55],[-80.04,26.54],[-80.12,26.1],[-80.11,26.09],[-80.12,25.85],[-80.13,25.77],[-80.14,25.79],[-80.12,25.85],[-80.13,25.95],[-80.27,25.69],[-80.74,26.07]],[[-80.42,26.89],[-80.78,27.25],[-80.98,27.01],[-80.88,26.7],[-80.42,26.89]],[[-81.92,28.86],[-81.66,28.73],[-81.69,28.93],[-81.92,28.86]],[[-81.77,29.34],[-81.82,29.83],[-82.87,30.0],[-81.84,29.61],[-82.02,29.38],[-81.77,29.34]]],[[[-82.99,35.77],[-82.31,35.29],[-82.16,34.9],[-81.53,35.48],[-81.24,35.39],[-81.65,35.15],[-81.44,34.87],[-81.81,34.6],[-81.64,34.43],[-82.37,33.76],[-83.58,33.53],[-83.64,32.78],[-85.32,33.11],[-85.15,33.48],[-83.84,33.39],[-83.08,34.5],[-82.83,34.68],[-82.92,34.96],[-83.83,34.32],[-84.62,34.29],[-83.66,34.67],[-83.85,35.22],[-83.52,35.61],[-82.99,35.77]],[[-82.62,35.11],[-83.61,35.29],[-83.74,35.21],[-82.62,35.11]],[[-83.05,34.13],[-82.67,34.32],[-82.74,34.49],[-83.08,34.44],[-83.05,34.13]]],[[[-81.98,31.45],[-81.7,31.39],[-81.83,31.11],[-82.7,31.22],[-82.16,32.13],[-81.61,31.92],[-81.98,31.45]]],[[[-84.38,31.33],[-83.11,31.2],[-82.88,30.98],[-83.67,30.7],[-84.71,30.99],[-84.38,31.33]]],[[[-83.08,42.38],[-83.68,42.37],[-83.67,42.48],[-83.27,42.68],[-83.08,42.38]]],[[[-83.7,42.83],[-84.52,43.09],[-84.57,43.2],[-83.3,43.08],[-83.7,42.83]]],[[[-85.46,46.69],[-85.03,46.69],[-85.03,46.49],[-84.22,46.3],[-84.53,46.24],[-85.46,46.69]]],[[[-85.63,46.48],[-84.82,46.09],[-85.97,45.94],[-85.63,46.48]]],[[[-114.31,47.65],[-115.84,46.62],[-115.77,46.07],[-116.44,45.46],[-116.18,44.61],[-116.65,44.05],[-117.39,43.96],[-117.19,43.54],[-116.46,43.45],[-115.83,43.88],[-113.88,44.16],[-112.7,45.53],[-112.62,46.11],[-110.63,45.78],[-111.26,46.76],[-109.11,47.94],[-110.31,48.85],[-111.59,48.76],[-111.68,49.0],[-107.89,49.0],[-107.69,48.56],[-108.44,48.28],[-108.47,47.29],[-109.0,47.0],[-106.34,46.74],[-105.6,46.86],[-105.48,48.06],[-104.34,48.47],[-100.04,47.84],[-97.31,48.1],[-95.3,47.73],[-94.73,47.89],[-94.07,48.64],[-93.48,48.54],[-94.13,48.06],[-93.98,47.85],[-95.3,47.04],[-94.99,46.33],[-92.79,44.22],[-89.44,44.93],[-88.8,45.71],[-87.73,44.97],[-87.98,44.53],[-88.45,44.4],[-88.72,44.81],[-88.28,44.86],[-88.45,45.07],[-89.53,44.84],[-89.84,44.68],[-89.39,43.84],[-90.28,43.58],[-90.07,44.01],[-92.81,44.04],[-94.28,45.18],[-95.76,45.72],[-95.81,45.27],[-94.74,43.93],[-94.86,43.68],[-96.92,43.39],[-96.09,43.04],[-96.47,42.85],[-95.73,42.07],[-96.13,41.62],[-97.21,41.28],[-98.72,42.16],[-99.45,41.43],[-100.18,41.65],[-99.74,40.74],[-99.55,41.06],[-99.11,40.94],[-99.57,40.61],[-98.77,40.2],[-100.07,39.57],[-99.86,39.16],[-100.38,39.19],[-101.29,40.41],[-101.58,40.0],[-101.99,40.08],[-101.85,40.55],[-102.66,40.61],[-102.43,40.98],[-103.82,40.84],[-103.61,40.34],[-104.44,39.22],[-103.72,39.21],[-102.9,38.83],[-102.28,39.04],[-102.12,39.57],[-101.56,39.19],[-101.76,38.69],[-101.16,38.57],[-100.74,38.19],[-99.67,38.35],[-98.74,39.03],[-97.56,38.75],[-96.76,38.03],[-96.28,38.35],[-95.35,38.19],[-94.29,38.57],[-92.07,38.05],[-91.5,37.31],[-91.7,36.82],[-91.1,36.66],[-91.18,37.0],[-90.91,37.07],[-90.71,36.73],[-90.07,36.77],[-89.34,35.14],[-89.08,35.46],[-88.23,35.18],[-88.48,35.0],[-88.33,34.63],[-89.16,34.77],[-88.95,34.08],[-89.33,33.64],[-90.53,32.92],[-91.09,32.98],[-91.02,32.27],[-90.07,32.46],[-89.37,31.86],[-88.42,31.84],[-88.01,32.22],[-88.08,33.04],[-87.64,33.14],[-86.88,32.84],[-87.29,32.34],[-85.69,31.54],[-85.48,30.89],[-86.15,31.35],[-87.27,30.7],[-88.27,30.82],[-88.48,30.32],[-88.85,30.43],[-89.36,30.37],[-89.86,30.0],[-89.64,29.86],[-89.43,30.06],[-89.48,29.96],[-89.38,29.97],[-89.46,29.93],[-89.43,29.81],[-89.34,29.78],[-89.52,29.85],[-89.78,29.61],[-89.56,29.39],[-89.27,29.28],[-89.2,29.35],[-89.15,29.18],[-89.02,29.22],[-89.15,29.14],[-89.11,29.09],[-89.15,28.98],[-89.41,28.92],[-89.27,29.15],[-89.41,29.09],[-89.46,29.25],[-89.5,29.22],[-89.61,29.25],[-89.67,29.28],[-89.61,29.27],[-89.6,29.38],[-89.69,29.47],[-90.15,29.58],[-89.8,29.71],[-89.92,30.03],[-89.79,30.56],[-89.25,30.84],[-91.07,30.46],[-91.6,30.21],[-91.67,29.74],[-92.21,29.75],[-92.04,29.58],[-93.87,29.68],[-93.83,30.44],[-93.55,30.63],[-94.19,30.99],[-94.04,31.22],[-94.41,31.56],[-95.12,31.68],[-95.42,32.23],[-95.35,30.63],[-95.09,30.38],[-96.59,30.87],[-96.83,30.45],[-96.04,30.13],[-96.22,29.01],[-96.57,28.81],[-95.24,28.99],[-96.36,28.4],[-95.98,28.65],[-97.78,28.21],[-98.03,27.75],[-98.11,28.55],[-98.76,28.64],[-98.98,27.74],[-99.52,27.5],[-99.07,29.2],[-97.65,29.62],[-98.19,30.13],[-97.81,30.56],[-98.51,30.98],[-97.95,31.43],[-98.58,31.71],[-99.46,31.24],[-100.69,31.22],[-101.19,31.75],[-101.51,31.22],[-102.04,31.14],[-102.41,31.36],[-102.55,32.34],[-102.86,32.39],[-103.48,31.65],[-103.02,30.04],[-102.71,29.97],[-102.5,30.46],[-102.12,30.51],[-101.57,29.77],[-102.67,29.74],[-103.15,29.09],[-103.94,29.38],[-104.04,30.08],[-104.46,30.14],[-105.21,31.15],[-103.54,31.92],[-103.44,32.49],[-104.06,32.71],[-103.94,33.17],[-102.6,32.73],[-101.86,32.91],[-102.04,33.19],[-101.73,33.61],[-101.56,32.96],[-100.6,32.91],[-99.77,32.35],[-99.18,32.86],[-99.99,32.96],[-99.66,33.54],[-98.53,33.72],[-98.37,31.97],[-97.48,31.84],[-96.75,32.25],[-96.52,31.88],[-96.01,32.76],[-96.5,33.05],[-94.8,33.27],[-93.86,34.37],[-92.99,34.01],[-92.9,34.57],[-92.58,34.6],[-92.42,33.36],[-93.64,33.57],[-93.71,32.84],[-93.12,33.16],[-92.25,32.38],[-92.34,33.15],[-90.81,33.01],[-89.84,33.41],[-89.76,33.91],[-90.7,34.14],[-91.4,35.2],[-91.3,35.58],[-90.53,35.8],[-90.11,36.37],[-91.72,36.6],[-92.12,36.21],[-91.79,35.33],[-92.7,35.25],[-93.61,35.71],[-93.68,35.99],[-93.26,36.49],[-92.35,36.8],[-93.42,36.94],[-93.9,37.33],[-92.85,37.67],[-92.53,37.23],[-91.87,37.06],[-91.74,37.45],[-92.05,37.95],[-92.87,38.08],[-93.94,37.64],[-93.98,37.94],[-94.42,37.96],[-95.16,37.53],[-95.25,38.01],[-95.84,38.02],[-95.65,37.56],[-95.89,37.39],[-97.23,37.35],[-95.71,35.73],[-94.75,35.74],[-95.97,34.74],[-96.21,35.18],[-95.87,35.39],[-96.3,35.64],[-96.32,36.02],[-96.55,36.27],[-97.18,36.17],[-97.66,36.65],[-97.47,37.43],[-96.95,37.54],[-97.17,38.34],[-98.41,38.61],[-99.78,37.78],[-104.55,39.24],[-104.44,41.18],[-103.51,40.95],[-102.44,41.23],[-101.55,40.57],[-100.89,40.82],[-100.74,40.41],[-100.32,40.28],[-99.83,40.6],[-99.54,40.1],[-99.02,40.22],[-100.12,40.84],[-99.98,41.15],[-100.55,41.03],[-101.07,41.46],[-101.25,41.69],[-101.16,41.92],[-100.64,41.39],[-100.22,41.5],[-100.68,41.61],[-100.69,42.21],[-101.88,42.47],[-102.26,43.93],[-104.03,45.38],[-103.03,45.94],[-102.95,46.52],[-103.23,46.88],[-102.8,46.98],[-101.82,46.69],[-101.71,45.94],[-102.49,45.13],[-101.24,44.96],[-100.91,44.63],[-99.62,44.86],[-99.36,45.21],[-100.67,45.68],[-100.05,47.71],[-102.28,47.74],[-102.46,47.99],[-103.85,48.13],[-104.25,47.66],[-104.83,47.58],[-104.85,46.96],[-105.46,46.88],[-106.25,45.47],[-107.16,45.6],[-108.05,45.21],[-108.53,46.19],[-107.95,46.82],[-110.37,46.69],[-110.42,46.22],[-109.21,45.13],[-109.45,44.23],[-109.06,42.7],[-111.12,41.59],[-111.08,41.3],[-109.93,40.84],[-110.56,40.43],[-111.85,41.85],[-111.05,42.17],[-110.77,42.84],[-111.16,44.26],[-113.06,44.12],[-113.76,43.33],[-117.34,43.3],[-117.59,44.23],[-116.53,44.49],[-116.65,45.99],[-115.99,46.48],[-115.95,46.97],[-115.61,47.02],[-115.99,47.29],[-115.84,47.66],[-116.28,49.0],[-115.7,49.0],[-114.31,47.65]],[[-88.56,31.54],[-88.85,31.16],[-89.27,31.43],[-89.47,30.89],[-87.87,31.0],[-87.87,31.28],[-88.56,31.54]],[[-91.1,34.88],[-90.47,34.8],[-90.31,35.01],[-91.14,35.28],[-91.1,34.88]],[[-90.64,35.65],[-90.86,35.58],[-90.66,35.61],[-90.64,35.65]],[[-90.94,30.78],[-91.06,31.07],[-91.23,30.82],[-90.94,30.78]],[[-93.18,35.89],[-92.76,36.02],[-92.13,36.36],[-93.11,36.49],[-93.18,35.89]],[[-92.48,35.35],[-92.13,35.53],[-92.54,35.76],[-93.15,35.59],[-92.48,35.35]],[[-93.35,31.96],[-93.14,31.58],[-92.95,31.94],[-93.35,31.96]],[[-93.7,33.98],[-93.59,34.23],[-93.87,34.15],[-93.7,33.98]],[[-93.84,33.5],[-94.3,33.61],[-94.6,33.19],[-94.24,33.07],[-93.84,33.5]],[[-94.93,32.26],[-95.17,31.93],[-94.7,31.69],[-94.09,32.07],[-94.13,32.37],[-94.93,32.26]],[[-95.61,32.79],[-94.91,32.81],[-94.7,32.96],[-95.61,32.79]],[[-96.46,44.54],[-96.15,44.2],[-96.63,43.85],[-95.56,43.82],[-96.09,44.61],[-96.46,44.54]],[[-96.26,31.14],[-95.86,31.23],[-95.87,31.47],[-96.32,31.6],[-96.07,31.43],[-96.26,31.14]],[[-96.32,44.97],[-95.94,45.02],[-95.85,45.31],[-96.18,45.39],[-96.32,44.97]],[[-99.07,47.59],[-97.9,45.99],[-96.4,45.85],[-95.91,47.32],[-96.41,47.62],[-96.36,47.88],[-98.04,47.94],[-99.07,47.59]],[[-97.84,45.86],[-98.9,46.34],[-98.96,46.66],[-99.65,46.52],[-100.32,45.6],[-98.01,44.67],[-96.61,44.62],[-96.34,45.66],[-97.84,45.86]],[[-96.73,43.87],[-97.04,44.12],[-97.86,43.82],[-97.52,43.45],[-97.71,42.93],[-98.19,42.8],[-97.13,42.4],[-96.58,42.52],[-97.16,42.82],[-96.73,43.87]],[[-97.83,30.91],[-97.77,30.25],[-97.35,30.02],[-97.53,30.37],[-97.24,31.66],[-97.98,31.34],[-97.83,30.91]],[[-97.83,42.21],[-97.8,41.96],[-97.24,41.95],[-97.5,42.19],[-97.83,42.21]],[[-99.55,42.18],[-98.11,42.61],[-98.66,43.2],[-99.46,42.86],[-98.75,42.63],[-99.55,42.18]],[[-100.56,42.1],[-99.6,42.87],[-100.14,43.62],[-99.02,43.68],[-98.15,44.31],[-100.64,44.55],[-101.11,44.23],[-100.98,43.83],[-102.17,43.83],[-101.49,43.35],[-101.78,42.7],[-100.99,42.89],[-100.66,42.74],[-100.56,42.1]],[[-98.71,43.4],[-98.35,43.35],[-98.34,43.41],[-98.71,43.4]],[[-99.03,32.38],[-99.4,32.48],[-99.31,32.26],[-99.03,32.38]],[[-100.27,40.08],[-100.36,39.69],[-99.61,39.9],[-99.59,40.04],[-100.27,40.08]],[[-101.88,31.69],[-102.24,31.35],[-101.54,31.27],[-101.88,31.69]],[[-101.75,32.5],[-102.11,32.6],[-101.79,32.44],[-101.75,32.5]],[[-104.59,30.38],[-104.13,30.55],[-104.21,30.88],[-104.54,30.81],[-104.59,30.38]],[[-106.79,46.33],[-106.3,46.59],[-107.0,46.64],[-106.79,46.33]],[[-110.92,44.39],[-110.92,44.39],[-110.92,44.39],[-110.92,44.39]]],[[[-86.88,35.95],[-87.24,36.07],[-86.97,36.4],[-86.76,36.29],[-86.88,35.95]]],[[[-89.14,46.98],[-89.08,46.22],[-87.3,46.43],[-87.4,45.35],[-88.14,46.09],[-89.11,46.17],[-89.46,46.32],[-89.32,46.56],[-89.79,46.82],[-89.78,46.82],[-89.74,46.83],[-89.72,46.83],[-89.67,46.83],[-89.62,46.82],[-89.55,46.84],[-89.41,46.85],[-89.24,46.91],[-89.22,46.92],[-89.17,46.96],[-89.16,46.97],[-89.15,46.98],[-89.14,46.98]],[[-89.15,46.98],[-89.15,46.98],[-89.15,46.98],[-89.15,46.98]],[[-89.15,46.98],[-89.15,46.98],[-89.15,46.98],[-89.15,46.98]],[[-89.15,46.98],[-89.15,46.98],[-89.15,46.98],[-89.15,46.98]],[[-89.15,46.97],[-89.15,46.97],[-89.15,46.97],[-89.15,46.97]],[[-89.15,46.97],[-89.15,46.97],[-89.15,46.97],[-89.15,46.97]],[[-89.16,46.97],[-89.16,46.97],[-89.16,46.97],[-89.16,46.97]],[[-89.16,46.97],[-89.16,46.97],[-89.16,46.97],[-89.16,46.97]],[[-89.16,46.97],[-89.16,46.97],[-89.16,46.97],[-89.16,46.97]],[[-89.17,46.97],[-89.17,46.97],[-89.17,46.97],[-89.17,46.97]],[[-89.17,46.96],[-89.17,46.96],[-89.17,46.96],[-89.17,46.96]],[[-89.18,46.96],[-89.18,46.96],[-89.18,46.96],[-89.18,46.96]],[[-89.18,46.96],[-89.18,46.96],[-89.18,46.96],[-89.18,46.96]],[[-89.18,46.96],[-89.18,46.96],[-89.18,46.96],[-89.18,46.96]],[[-89.18,46.95],[-89.18,46.95],[-89.18,46.95],[-89.18,46.95]],[[-89.19,46.95],[-89.19,46.95],[-89.19,46.95],[-89.19,46.95]],[[-89.19,46.95],[-89.19,46.95],[-89.19,46.95],[-89.19,46.95]],[[-89.2,46.93],[-89.2,46.94],[-89.2,46.93],[-89.2,46.93]],[[-89.2,46.93],[-89.21,46.93],[-89.21,46.93],[-89.2,46.93],[-89.2,46.93],[-89.2,46.93]],[[-89.21,46.93],[-89.21,46.93],[-89.21,46.93],[-89.21,46.93]],[[-89.22,46.92],[-89.22,46.92],[-89.22,46.92],[-89.22,46.92]],[[-89.25,46.9],[-89.25,46.9],[-89.25,46.9],[-89.25,46.9]],[[-89.25,46.9],[-89.25,46.9],[-89.25,46.9],[-89.25,46.9]],[[-89.25,46.9],[-89.25,46.9],[-89.25,46.9],[-89.25,46.9]],[[-89.27,46.9],[-89.27,46.9],[-89.27,46.9],[-89.27,46.9]],[[-89.29,46.89],[-89.29,46.89],[-89.29,46.89],[-89.29,46.89]],[[-89.31,46.88],[-89.31,46.88],[-89.31,46.88],[-89.31,46.88]],[[-89.35,46.86],[-89.35,46.86],[-89.35,46.86],[-89.35,46.86]],[[-89.41,46.85],[-89.41,46.85],[-89.41,46.85],[-89.41,46.85]],[[-89.42,46.84],[-89.42,46.84],[-89.42,46.84],[-89.42,46.84]],[[-89.42,46.84],[-89.42,46.84],[-89.42,46.84],[-89.42,46.84]],[[-89.43,46.84],[-89.43,46.84],[-89.43,46.84],[-89.43,46.84]],[[-89.44,46.84],[-89.44,46.84],[-89.44,46.84],[-89.44,46.84]],[[-89.45,46.84],[-89.45,46.84],[-89.45,46.84],[-89.45,46.84]],[[-89.46,46.84],[-89.46,46.84],[-89.46,46.84],[-89.46,46.84]],[[-89.46,46.84],[-89.46,46.84],[-89.46,46.84],[-89.46,46.84]],[[-89.47,46.84],[-89.47,46.84],[-89.47,46.84],[-89.47,46.84]],[[-89.47,46.84],[-89.47,46.84],[-89.47,46.84],[-89.47,46.84]],[[-89.47,46.84],[-89.47,46.84],[-89.47,46.84],[-89.47,46.84]],[[-89.48,46.84],[-89.48,46.84],[-89.48,46.84],[-89.48,46.84]],[[-89.48,46.84],[-89.48,46.84],[-89.48,46.84],[-89.48,46.84]],[[-89.49,46.84],[-89.49,46.84],[-89.49,46.84],[-89.49,46.84]],[[-89.49,46.84],[-89.49,46.84],[-89.49,46.84],[-89.49,46.84]],[[-89.52,46.84],[-89.52,46.84],[-89.52,46.84],[-89.52,46.84]],[[-89.6,46.83],[-89.6,46.83],[-89.6,46.83],[-89.6,46.83]],[[-89.6,46.82],[-89.6,46.82],[-89.6,46.82],[-89.6,46.82]],[[-89.67,46.83],[-89.67,46.83],[-89.67,46.83],[-89.67,46.83]],[[-89.69,46.83],[-89.69,46.83],[-89.69,46.83],[-89.69,46.83]],[[-89.71,46.83],[-89.71,46.83],[-89.71,46.83],[-89.71,46.83]],[[-89.71,46.83],[-89.71,46.83],[-89.71,46.83],[-89.71,46.83]],[[-89.72,46.83],[-89.72,46.83],[-89.72,46.83],[-89.72,46.83]],[[-89.74,46.83],[-89.74,46.83],[-89.74,46.83],[-89.74,46.83]],[[-89.74,46.83],[-89.74,46.83],[-89.74,46.83],[-89.74,46.83]],[[-89.74,46.83],[-89.74,46.83],[-89.74,46.83],[-89.74,46.83]],[[-89.75,46.83],[-89.75,46.83],[-89.75,46.83],[-89.75,46.83]],[[-89.76,46.82],[-89.76,46.82],[-89.76,46.82],[-89.76,46.82]],[[-89.77,46.82],[-89.77,46.82],[-89.77,46.82],[-89.77,46.82]],[[-89.78,46.82],[-89.78,46.82],[-89.78,46.82],[-89.78,46.82]],[[-89.78,46.82],[-89.78,46.82],[-89.78,46.82],[-89.78,46.82]],[[-89.78,46.82],[-89.78,46.82],[-89.78,46.82],[-89.78,46.82]],[[-89.79,46.82],[-89.79,46.82],[-89.79,46.82],[-89.79,46.82]],[[-89.79,46.82],[-89.79,46.82],[-89.79,46.82],[-89.79,46.82]]],[[[-92.3,39.47],[-91.28,39.56],[-91.13,39.54],[-91.63,39.11],[-92.3,39.47]]],[[[-94.74,43.5],[-93.42,43.43],[-93.79,42.66],[-94.6,42.94],[-94.74,43.5]]],[[[-94.52,30.11],[-94.48,29.6],[-95.03,30.17],[-94.52,30.11]]],[[[-95.42,49.0],[-95.68,48.74],[-96.6,48.88],[-96.56,49.0],[-95.42,49.0]]],[[[-97.94,37.91],[-98.35,37.39],[-98.56,37.67],[-97.94,37.91]]],[[[-98.94,27.26],[-98.65,26.88],[-97.92,26.95],[-98.1,26.06],[-99.11,26.42],[-99.44,27.15],[-98.94,27.26]]],[[[-100.88,37.18],[-101.52,36.94],[-101.72,36.5],[-101.95,36.56],[-101.94,36.95],[-101.09,37.64],[-100.88,37.18]],[[-101.55,37.15],[-101.72,36.85],[-101.42,37.07],[-101.55,37.15]]],[[[-102.86,38.19],[-101.68,38.0],[-102.06,37.01],[-102.41,37.54],[-103.49,37.06],[-104.03,37.17],[-103.9,37.55],[-103.21,37.7],[-102.86,38.19]]],[[[-102.6,33.37],[-103.94,33.7],[-104.05,34.01],[-103.45,34.4],[-103.08,34.27],[-102.6,33.37]]],[[[-103.79,37.95],[-104.46,37.9],[-104.45,38.36],[-103.79,38.76],[-104.05,38.39],[-103.79,37.95]]],[[[-118.97,43.58],[-118.08,41.66],[-118.86,40.13],[-117.82,40.05],[-117.08,39.31],[-115.46,38.79],[-115.97,38.21],[-115.68,37.18],[-116.03,36.62],[-115.6,36.1],[-115.15,35.96],[-113.75,36.37],[-112.72,35.84],[-111.51,36.19],[-109.31,35.04],[-107.6,35.96],[-107.79,35.3],[-107.53,34.31],[-107.1,34.02],[-107.59,33.69],[-107.65,32.7],[-107.49,32.38],[-106.72,32.58],[-106.42,33.09],[-105.62,31.91],[-105.21,31.83],[-105.3,31.39],[-105.71,31.14],[-106.2,31.47],[-106.53,31.79],[-105.86,32.2],[-106.65,32.57],[-107.83,31.78],[-108.38,33.07],[-107.86,33.48],[-108.41,34.11],[-109.73,33.76],[-110.27,34.01],[-110.45,33.71],[-110.13,33.2],[-109.09,32.97],[-108.82,32.17],[-108.85,31.33],[-108.93,32.27],[-109.62,32.83],[-110.67,32.82],[-111.45,31.9],[-112.23,31.7],[-111.69,32.76],[-111.83,33.3],[-112.45,33.8],[-113.31,33.66],[-113.26,32.02],[-114.81,32.49],[-114.72,32.72],[-115.16,32.69],[-115.92,33.52],[-115.35,35.14],[-116.72,37.1],[-116.95,38.02],[-119.06,39.21],[-119.98,38.9],[-120.3,40.74],[-120.77,40.71],[-121.77,41.38],[-123.42,41.15],[-123.75,39.82],[-124.37,40.26],[-123.94,40.49],[-124.1,41.27],[-122.0,42.22],[-122.0,42.87],[-120.59,43.7],[-119.76,43.91],[-118.97,43.58]],[[-113.54,34.7],[-111.95,34.32],[-111.64,34.98],[-110.75,33.97],[-110.51,35.19],[-111.52,35.58],[-113.05,35.51],[-113.54,34.7]]],[[[-107.06,44.19],[-107.54,44.37],[-108.01,44.84],[-106.72,45.03],[-107.06,44.19]]],[[[-106.98,42.42],[-107.5,42.43],[-107.98,42.74],[-107.2,43.09],[-106.98,42.42]]],[[[-106.97,42.03],[-107.07,41.71],[-108.52,41.52],[-109.0,42.11],[-108.28,42.53],[-106.97,42.03]]],[[[-107.67,37.64],[-108.3,37.74],[-108.56,38.17],[-108.23,38.17],[-107.67,37.64]]],[[[-110.11,47.73],[-110.92,47.65],[-111.34,47.92],[-110.78,48.28],[-110.11,47.73]]],[[[-111.76,37.22],[-112.11,36.71],[-112.59,37.17],[-112.38,38.17],[-111.77,37.93],[-111.76,37.22]],[[-112.22,37.12],[-112.22,37.12],[-112.22,37.12],[-112.22,37.12]]],[[[-120.84,48.23],[-118.72,48.31],[-118.45,49.0],[-117.3,49.0],[-117.6,48.14],[-118.3,47.73],[-118.44,46.63],[-119.46,45.41],[-120.05,45.15],[-123.26,44.77],[-123.73,43.79],[-124.01,43.42],[-124.31,43.3],[-124.14,43.73],[-124.11,43.7],[-123.91,43.67],[-124.14,43.75],[-124.2,43.68],[-124.06,44.75],[-122.01,45.61],[-120.7,45.19],[-119.63,45.74],[-120.51,46.56],[-120.63,46.37],[-120.16,46.07],[-121.44,46.15],[-121.71,48.06],[-122.38,49.0],[-121.13,49.0],[-120.84,48.23]]],[[[-124.71,48.39],[-122.88,47.99],[-122.88,48.11],[-122.76,48.14],[-122.8,48.09],[-122.61,47.89],[-122.86,47.83],[-123.16,47.32],[-123.57,47.87],[-124.08,47.93],[-123.84,47.62],[-124.24,47.29],[-124.71,48.39]]],[[[-133.62,56.21],[-133.15,56.3],[-133.1,56.05],[-132.74,55.98],[-132.61,55.7],[-132.14,55.47],[-132.56,55.62],[-132.53,55.55],[-132.7,55.46],[-132.74,55.36],[-132.41,55.51],[-132.28,55.44],[-132.48,55.42],[-132.52,55.36],[-132.47,55.31],[-132.1,55.27],[-132.47,55.26],[-132.35,55.13],[-131.99,55.26],[-132.32,54.98],[-132.21,54.92],[-131.98,55.04],[-132.11,54.9],[-132.02,54.69],[-132.23,54.77],[-132.31,54.72],[-132.23,54.8],[-132.4,55.08],[-132.42,54.91],[-132.5,55.0],[-132.53,54.93],[-132.62,54.97],[-132.47,55.05],[-132.54,55.28],[-133.24,55.29],[-132.86,55.35],[-133.15,55.47],[-132.94,55.63],[-133.4,55.62],[-133.39,55.73],[-133.34,55.71],[-133.25,55.75],[-133.15,55.82],[-133.14,55.88],[-133.27,56.16],[-133.62,56.21]]],[[[-133.16,54.95],[-133.1,55.24],[-132.68,54.67],[-132.85,54.68],[-132.92,54.84],[-133.09,54.91],[-133.02,54.93],[-133.16,54.95]]]]},"properties":{"w":"2026-09-08","released":"2026-09-10","dm":1,"label":"D1 Moderate drought","area_km2":1982979,"parts":39}},{"type":"Feature","geometry":{"type":"MultiPolygon","coordinates":[[[[-67.2,18.08],[-66.13,18.47],[-66.13,18.35],[-66.09,18.25],[-65.97,18.14],[-65.8,18.07],[-65.8,18.06],[-67.2,18.08]]],[[[-68.27,44.57],[-68.58,44.41],[-68.53,44.23],[-68.61,44.31],[-68.83,44.32],[-68.66,44.37],[-68.82,44.68],[-69.08,44.04],[-69.38,44.08],[-69.51,43.83],[-69.54,44.03],[-69.6,43.91],[-69.57,43.85],[-69.58,43.82],[-69.6,43.81],[-69.62,44.04],[-69.77,43.9],[-69.77,43.75],[-69.81,43.99],[-69.78,44.08],[-69.88,43.97],[-69.78,43.74],[-69.86,43.88],[-70.09,43.84],[-70.28,43.65],[-70.2,43.57],[-70.34,43.56],[-70.42,43.37],[-70.8,43.58],[-69.35,45.05],[-68.27,44.57]]],[[[-78.69,37.2],[-78.6,36.71],[-76.88,36.87],[-77.15,36.39],[-77.71,36.32],[-77.64,36.05],[-78.14,36.09],[-78.53,36.38],[-79.8,36.04],[-80.84,36.15],[-80.29,36.21],[-80.17,36.54],[-79.76,36.72],[-79.65,37.63],[-79.04,37.63],[-78.69,37.2]],[[-77.91,36.56],[-77.89,36.14],[-77.57,36.47],[-77.91,36.56]],[[-80.04,36.19],[-78.65,36.4],[-78.95,36.77],[-78.77,37.18],[-79.34,37.08],[-80.04,36.19]]],[[[-77.29,35.64],[-78.32,34.18],[-78.15,33.92],[-78.6,34.15],[-78.72,33.8],[-78.98,34.2],[-79.31,34.11],[-79.61,33.61],[-78.89,33.68],[-79.74,33.0],[-80.35,33.16],[-80.31,32.62],[-80.94,32.62],[-80.99,32.44],[-81.4,32.86],[-81.33,33.2],[-80.16,33.5],[-79.75,34.54],[-78.35,34.69],[-77.78,35.11],[-77.75,35.53],[-77.29,35.64]],[[-81.36,33.0],[-81.0,32.66],[-80.59,32.81],[-80.6,33.04],[-81.36,33.0]]],[[[-80.27,25.69],[-80.39,25.19],[-80.56,25.25],[-80.93,25.14],[-80.91,25.27],[-81.19,25.72],[-80.57,26.08],[-80.27,25.69]]],[[[-80.71,26.7],[-80.98,27.01],[-80.78,27.25],[-80.41,26.88],[-80.71,26.7]]],[[[-82.74,28.26],[-81.9,28.01],[-81.27,27.11],[-81.54,27.06],[-82.29,27.42],[-82.07,26.95],[-82.28,26.82],[-82.56,27.3],[-82.39,27.47],[-81.91,27.57],[-82.7,28.04],[-82.76,27.76],[-82.74,28.26]],[[-81.47,27.27],[-81.73,27.32],[-81.47,27.13],[-81.47,27.27]]],[[[-82.57,30.0],[-81.82,29.83],[-81.77,29.34],[-82.43,29.89],[-82.66,29.78],[-82.84,29.81],[-82.87,30.0],[-82.57,30.0]],[[-82.79,29.99],[-82.66,29.81],[-82.54,29.96],[-82.79,29.99]]],[[[-82.6,35.29],[-82.74,35.07],[-83.74,35.21],[-83.19,35.34],[-82.6,35.29]]],[[[-93.19,48.63],[-91.57,48.05],[-90.84,48.25],[-89.5,48.0],[-92.76,46.65],[-92.9,45.65],[-92.46,45.87],[-90.22,45.63],[-89.94,45.96],[-90.01,46.69],[-89.99,46.7],[-89.98,46.71],[-89.97,46.72],[-89.91,46.74],[-89.9,46.76],[-89.84,46.8],[-89.82,46.81],[-89.79,46.82],[-89.32,46.56],[-89.38,46.26],[-88.14,46.09],[-87.41,45.33],[-87.73,44.97],[-88.8,45.71],[-89.44,44.93],[-92.79,44.22],[-94.99,46.33],[-95.3,47.04],[-93.19,48.63]],[[-89.79,46.82],[-89.79,46.82],[-89.79,46.82],[-89.79,46.82]],[[-89.8,46.82],[-89.8,46.82],[-89.8,46.82],[-89.8,46.82]],[[-89.8,46.82],[-89.8,46.82],[-89.8,46.82],[-89.8,46.82]],[[-89.8,46.81],[-89.8,46.81],[-89.8,46.81],[-89.8,46.81]],[[-89.81,46.81],[-89.81,46.81],[-89.81,46.81],[-89.81,46.81]],[[-89.81,46.81],[-89.81,46.81],[-89.81,46.81],[-89.81,46.81]],[[-89.81,46.81],[-89.81,46.81],[-89.81,46.81],[-89.81,46.81]],[[-89.81,46.81],[-89.81,46.81],[-89.81,46.81],[-89.81,46.81]],[[-89.82,46.81],[-89.82,46.81],[-89.82,46.81],[-89.82,46.81]],[[-89.82,46.81],[-89.82,46.81],[-89.82,46.81],[-89.82,46.81]],[[-89.83,46.81],[-89.83,46.81],[-89.83,46.81],[-89.83,46.81]],[[-89.83,46.8],[-89.83,46.8],[-89.83,46.8],[-89.83,46.8]],[[-89.83,46.8],[-89.83,46.8],[-89.83,46.8],[-89.83,46.8]],[[-89.84,46.8],[-89.84,46.8],[-89.84,46.8],[-89.84,46.8]],[[-89.84,46.8],[-89.84,46.8],[-89.84,46.8],[-89.84,46.8]],[[-89.84,46.8],[-89.84,46.8],[-89.84,46.8],[-89.84,46.8]],[[-89.84,46.8],[-89.84,46.8],[-89.84,46.8],[-89.84,46.8]],[[-89.84,46.8],[-89.84,46.8],[-89.84,46.8],[-89.84,46.8]],[[-89.85,46.8],[-89.85,46.8],[-89.85,46.8],[-89.85,46.8]],[[-89.85,46.8],[-89.85,46.8],[-89.85,46.8],[-89.85,46.8]],[[-89.85,46.79],[-89.85,46.79],[-89.85,46.79],[-89.85,46.79]],[[-89.85,46.79],[-89.85,46.79],[-89.85,46.79],[-89.85,46.79]],[[-89.85,46.79],[-89.85,46.79],[-89.85,46.79],[-89.85,46.79]],[[-89.86,46.79],[-89.86,46.79],[-89.86,46.79],[-89.86,46.79]],[[-89.86,46.79],[-89.86,46.79],[-89.86,46.79],[-89.86,46.79]],[[-89.86,46.79],[-89.86,46.79],[-89.86,46.79],[-89.86,46.79]],[[-89.86,46.79],[-89.86,46.79],[-89.86,46.79],[-89.86,46.79]],[[-89.88,46.77],[-89.88,46.77],[-89.88,46.77],[-89.88,46.77]],[[-89.88,46.77],[-89.88,46.77],[-89.88,46.77],[-89.88,46.77]],[[-89.88,46.77],[-89.88,46.77],[-89.88,46.77],[-89.88,46.77]],[[-89.89,46.76],[-89.89,46.76],[-89.89,46.76],[-89.89,46.76]],[[-89.89,46.76],[-89.89,46.76],[-89.89,46.76],[-89.89,46.76]],[[-89.89,46.76],[-89.89,46.76],[-89.89,46.76],[-89.89,46.76]],[[-89.9,46.76],[-89.9,46.76],[-89.9,46.76],[-89.9,46.76]],[[-89.9,46.75],[-89.9,46.75],[-89.9,46.75],[-89.9,46.75]],[[-89.9,46.75],[-89.9,46.75],[-89.9,46.75],[-89.9,46.75]],[[-89.91,46.75],[-89.91,46.75],[-89.91,46.75],[-89.91,46.75]],[[-89.91,46.75],[-89.91,46.75],[-89.91,46.75],[-89.91,46.75]],[[-89.92,46.74],[-89.92,46.74],[-89.92,46.74],[-89.92,46.74]],[[-89.92,46.74],[-89.92,46.74],[-89.92,46.74],[-89.92,46.74]],[[-89.92,46.74],[-89.92,46.74],[-89.92,46.74],[-89.92,46.74]],[[-89.93,46.74],[-89.93,46.74],[-89.93,46.74],[-89.93,46.74]],[[-89.96,46.72],[-89.96,46.72],[-89.96,46.72],[-89.96,46.72]],[[-89.97,46.71],[-89.97,46.71],[-89.97,46.71],[-89.97,46.71]],[[-89.97,46.71],[-89.97,46.71],[-89.97,46.71],[-89.97,46.71]],[[-89.99,46.7],[-89.99,46.7],[-89.99,46.7],[-89.99,46.7]],[[-89.99,46.7],[-89.99,46.7],[-89.99,46.7],[-89.99,46.7]],[[-89.99,46.7],[-89.99,46.7],[-89.99,46.7],[-89.99,46.7]],[[-90.0,46.69],[-90.0,46.69],[-90.0,46.69],[-90.0,46.69]],[[-93.03,44.62],[-92.3,44.56],[-93.35,44.85],[-93.03,44.62]]],[[[-88.46,31.57],[-87.87,31.0],[-88.46,30.83],[-89.55,31.01],[-89.05,31.51],[-88.85,31.16],[-88.46,31.57]]],[[[-116.19,48.97],[-115.99,47.29],[-115.61,47.02],[-115.95,46.97],[-115.99,46.48],[-116.65,45.99],[-116.53,44.49],[-117.59,44.23],[-117.34,43.3],[-114.87,43.49],[-113.76,43.33],[-113.06,44.12],[-111.16,44.26],[-110.77,42.84],[-111.05,42.17],[-111.85,41.85],[-110.56,40.43],[-109.93,40.84],[-111.08,41.3],[-111.12,41.59],[-109.06,42.7],[-109.45,44.23],[-109.21,45.13],[-110.42,46.22],[-110.37,46.69],[-107.95,46.82],[-108.53,46.19],[-108.05,45.21],[-107.16,45.6],[-106.25,45.47],[-105.46,46.88],[-104.85,46.96],[-104.83,47.58],[-104.25,47.66],[-103.85,48.13],[-102.46,47.99],[-102.28,47.74],[-100.05,47.71],[-100.67,45.68],[-99.36,45.21],[-99.62,44.86],[-100.91,44.63],[-101.24,44.96],[-102.49,45.13],[-101.71,45.94],[-101.82,46.69],[-102.8,46.98],[-103.23,46.88],[-102.95,46.52],[-103.03,45.94],[-104.03,45.38],[-102.26,43.93],[-101.88,42.47],[-100.69,42.21],[-100.68,41.61],[-100.22,41.5],[-100.64,41.39],[-101.16,41.92],[-101.07,41.46],[-100.55,41.03],[-99.98,41.15],[-100.12,40.84],[-99.02,40.22],[-99.54,40.1],[-99.83,40.6],[-100.32,40.28],[-100.74,40.41],[-100.89,40.82],[-101.55,40.57],[-102.44,41.23],[-103.51,40.95],[-104.14,41.0],[-104.44,41.18],[-104.34,39.7],[-104.55,39.24],[-99.78,37.78],[-98.41,38.61],[-97.17,38.34],[-96.95,37.54],[-97.47,37.43],[-97.66,36.65],[-97.18,36.17],[-96.55,36.27],[-96.32,36.02],[-96.3,35.64],[-95.87,35.39],[-96.21,35.18],[-95.97,34.74],[-94.75,35.74],[-95.71,35.73],[-97.23,37.35],[-95.89,37.39],[-95.65,37.56],[-95.84,38.02],[-95.25,38.01],[-95.16,37.53],[-94.42,37.96],[-93.98,37.94],[-93.94,37.64],[-92.87,38.08],[-92.05,37.95],[-91.74,37.45],[-91.87,37.06],[-92.53,37.23],[-92.85,37.67],[-93.9,37.33],[-93.48,37.12],[-93.42,36.94],[-92.35,36.8],[-93.26,36.49],[-93.61,35.71],[-92.26,35.19],[-91.79,35.33],[-92.12,36.21],[-91.84,36.52],[-90.21,36.53],[-90.16,36.17],[-91.3,35.58],[-91.4,35.2],[-90.7,34.14],[-89.76,33.91],[-89.84,33.41],[-90.81,33.01],[-92.34,33.15],[-92.25,32.38],[-93.12,33.16],[-93.71,32.84],[-93.64,33.57],[-92.42,33.36],[-92.54,34.57],[-92.84,34.6],[-92.99,34.01],[-93.86,34.37],[-94.8,33.27],[-96.5,33.05],[-96.01,32.76],[-96.52,31.88],[-96.75,32.25],[-97.85,31.83],[-98.37,31.97],[-98.53,33.72],[-99.66,33.54],[-99.99,32.96],[-99.18,32.86],[-99.77,32.35],[-100.6,32.91],[-101.56,32.96],[-101.73,33.61],[-102.04,33.19],[-101.86,32.91],[-102.6,32.73],[-103.94,33.17],[-104.06,32.71],[-103.44,32.49],[-103.54,31.92],[-105.21,31.15],[-104.46,30.14],[-104.04,30.08],[-103.94,29.38],[-103.4,29.09],[-102.87,29.24],[-103.29,28.98],[-104.51,29.64],[-104.92,30.61],[-105.71,31.14],[-105.17,31.75],[-105.62,31.91],[-106.22,32.95],[-106.42,33.09],[-106.72,32.58],[-107.49,32.38],[-107.59,33.69],[-107.1,34.02],[-107.53,34.31],[-107.79,35.3],[-107.6,35.96],[-109.31,35.04],[-111.51,36.19],[-112.72,35.84],[-113.75,36.37],[-115.15,35.96],[-115.6,36.1],[-116.03,36.62],[-115.68,37.18],[-115.97,38.21],[-115.46,38.79],[-117.08,39.31],[-117.82,40.05],[-118.86,40.13],[-118.08,41.66],[-118.97,43.58],[-119.76,43.91],[-121.26,43.4],[-122.0,42.87],[-122.0,42.22],[-124.1,41.27],[-124.57,42.84],[-123.37,44.7],[-119.46,45.41],[-118.44,46.63],[-118.37,47.58],[-117.6,48.14],[-117.33,49.0],[-116.19,48.97]],[[-91.27,35.64],[-90.26,36.21],[-90.24,36.31],[-91.89,36.39],[-91.84,35.8],[-91.27,35.64]],[[-91.07,33.96],[-91.86,33.51],[-92.2,33.81],[-92.11,33.27],[-90.82,33.18],[-90.28,33.58],[-91.07,33.96]],[[-93.01,35.08],[-91.83,34.39],[-91.86,35.0],[-93.01,35.08]],[[-92.16,37.18],[-91.9,37.19],[-91.93,37.5],[-92.07,37.51],[-92.16,37.18]],[[-92.65,33.05],[-92.8,33.32],[-93.06,33.13],[-92.65,33.05]],[[-94.77,34.95],[-93.19,35.33],[-93.76,35.61],[-94.12,36.68],[-93.01,36.7],[-93.41,36.88],[-93.94,37.29],[-94.36,37.85],[-94.51,37.25],[-96.18,37.13],[-95.7,36.4],[-94.53,36.1],[-94.77,34.95]],[[-93.54,34.8],[-93.69,34.97],[-93.71,34.75],[-93.54,34.8]],[[-94.78,33.85],[-95.0,33.52],[-94.66,33.78],[-94.78,33.85]],[[-113.01,37.92],[-112.55,38.35],[-110.82,38.25],[-110.62,38.71],[-109.33,39.07],[-108.48,38.69],[-107.91,38.97],[-107.46,37.56],[-106.87,37.69],[-106.51,36.99],[-107.07,36.96],[-106.97,37.27],[-107.3,37.42],[-109.06,37.62],[-109.04,36.74],[-108.29,36.01],[-107.36,36.19],[-107.65,35.56],[-107.21,34.66],[-105.76,34.29],[-105.22,33.63],[-104.98,33.79],[-105.15,34.63],[-103.82,34.69],[-103.24,35.03],[-102.69,34.5],[-102.62,33.92],[-101.93,34.19],[-101.23,33.73],[-101.33,33.25],[-100.99,33.14],[-99.74,33.8],[-97.93,34.01],[-97.65,32.68],[-97.46,33.09],[-95.93,33.89],[-95.55,33.84],[-95.63,33.43],[-95.36,33.4],[-95.3,33.86],[-94.89,34.03],[-96.3,34.39],[-96.22,34.73],[-97.46,34.34],[-97.11,35.62],[-98.17,36.69],[-99.84,36.88],[-100.0,36.34],[-100.46,36.18],[-101.34,36.93],[-102.07,35.97],[-102.41,36.47],[-102.16,36.89],[-102.45,37.38],[-103.61,36.93],[-104.77,37.29],[-104.46,37.71],[-104.88,38.39],[-105.93,38.77],[-104.43,39.75],[-105.02,41.1],[-104.5,41.6],[-105.13,41.98],[-105.57,41.99],[-106.04,41.49],[-105.24,40.49],[-105.44,40.15],[-107.55,41.03],[-107.84,40.28],[-108.66,40.1],[-108.94,39.54],[-109.45,39.81],[-109.95,39.23],[-111.08,39.34],[-110.82,39.98],[-111.27,39.87],[-111.93,40.82],[-113.04,41.25],[-113.56,39.46],[-113.21,38.88],[-113.63,38.21],[-113.01,37.92]],[[-96.74,32.98],[-96.7,32.28],[-96.28,32.55],[-96.74,32.98]],[[-98.47,37.77],[-98.18,37.39],[-97.91,37.85],[-98.11,37.92],[-98.47,37.77]],[[-100.68,45.01],[-100.15,44.8],[-100.02,44.93],[-100.68,45.01]],[[-100.34,36.47],[-100.19,36.66],[-100.58,36.89],[-100.48,36.83],[-100.34,36.47]],[[-101.64,45.27],[-100.86,45.24],[-100.91,45.68],[-101.7,45.7],[-101.64,45.27]],[[-100.97,37.62],[-101.94,36.95],[-101.95,36.56],[-101.52,36.94],[-100.9,37.0],[-100.97,37.62]],[[-102.91,38.15],[-103.21,37.7],[-103.9,37.55],[-103.98,37.1],[-103.23,37.14],[-102.72,37.56],[-102.41,37.54],[-102.06,37.01],[-101.71,38.08],[-102.91,38.15]],[[-102.52,33.4],[-103.45,34.4],[-104.05,34.01],[-103.94,33.7],[-102.52,33.4]],[[-103.55,38.11],[-103.15,38.38],[-102.54,38.49],[-103.49,38.61],[-103.55,38.11]],[[-107.98,43.04],[-106.2,43.29],[-105.08,43.92],[-104.41,43.37],[-104.19,41.26],[-103.77,40.99],[-102.82,41.27],[-103.37,41.83],[-102.99,42.13],[-102.85,43.0],[-104.06,44.0],[-103.29,44.52],[-104.64,45.42],[-103.41,45.91],[-103.65,46.27],[-103.29,47.75],[-103.95,47.56],[-104.35,46.49],[-105.7,45.93],[-106.23,45.35],[-105.7,44.73],[-105.99,44.36],[-107.06,44.09],[-108.0,44.5],[-108.98,44.33],[-108.74,42.8],[-108.12,42.57],[-107.98,43.04]],[[-104.28,38.59],[-104.46,37.9],[-103.87,37.88],[-104.05,38.39],[-103.79,38.76],[-104.28,38.59]],[[-104.82,39.03],[-104.49,38.58],[-104.28,38.88],[-104.82,39.03]],[[-105.25,33.44],[-105.51,32.43],[-105.08,31.95],[-104.5,32.05],[-105.22,32.69],[-105.25,33.44]],[[-107.02,42.26],[-105.77,42.43],[-105.66,42.72],[-107.02,42.26]],[[-106.48,40.65],[-106.11,40.59],[-106.36,40.9],[-106.48,40.65]],[[-106.24,33.2],[-106.48,33.28],[-106.34,33.12],[-106.24,33.2]],[[-107.15,44.18],[-106.72,45.03],[-107.97,44.9],[-107.98,44.68],[-107.15,44.18]],[[-108.01,42.61],[-106.98,42.42],[-106.99,42.96],[-107.84,42.97],[-108.01,42.61]],[[-108.35,41.54],[-107.07,41.71],[-106.97,42.03],[-108.28,42.53],[-109.0,42.11],[-108.35,41.54]],[[-108.56,38.02],[-107.94,37.61],[-107.64,37.68],[-108.38,38.24],[-108.56,38.02]],[[-110.85,36.59],[-110.85,36.59],[-110.85,36.59],[-110.85,36.59]],[[-115.25,43.26],[-117.56,42.67],[-117.98,42.26],[-117.92,41.6],[-116.03,41.48],[-115.62,41.12],[-113.97,41.22],[-113.06,41.93],[-112.09,41.99],[-111.84,42.68],[-111.02,42.63],[-111.36,44.17],[-113.1,43.87],[-113.52,43.25],[-115.25,43.26]],[[-111.76,37.22],[-111.77,37.93],[-112.38,38.17],[-112.59,37.17],[-112.11,36.71],[-111.76,37.22]],[[-117.79,47.38],[-116.63,47.37],[-116.84,47.81],[-117.44,47.84],[-117.79,47.38]],[[-119.02,45.36],[-121.97,44.52],[-123.19,43.57],[-123.23,42.41],[-122.25,42.37],[-121.66,43.74],[-119.88,44.07],[-118.71,43.88],[-118.19,44.25],[-117.81,45.25],[-118.26,45.86],[-119.02,45.36]]],[[[-92.98,31.78],[-93.33,31.58],[-93.51,31.8],[-93.08,32.03],[-92.98,31.78]]],[[[-94.43,31.82],[-95.08,31.82],[-95.2,32.12],[-94.13,32.37],[-94.43,31.82]]],[[[-96.24,44.63],[-95.53,44.1],[-95.56,43.82],[-96.17,43.65],[-96.72,43.95],[-96.15,44.2],[-96.45,44.44],[-96.24,44.63]]],[[[-96.13,44.95],[-96.37,45.21],[-95.95,45.39],[-95.85,45.2],[-96.13,44.95]]],[[[-97.34,48.05],[-96.36,47.88],[-96.41,47.62],[-95.91,47.32],[-96.4,45.85],[-97.9,45.99],[-99.06,47.33],[-99.07,47.59],[-97.34,48.05]],[[-98.29,46.54],[-96.56,46.08],[-96.53,47.49],[-98.38,47.5],[-98.29,46.54]]],[[[-96.49,33.76],[-97.0,33.42],[-97.43,33.44],[-97.65,34.03],[-97.27,34.16],[-96.49,33.76]],[[-97.26,33.72],[-97.07,33.54],[-96.9,33.67],[-97.26,33.72]]],[[[-97.04,44.12],[-96.64,43.61],[-96.97,43.66],[-97.16,42.82],[-96.58,42.52],[-97.82,42.52],[-98.19,42.8],[-97.71,42.93],[-97.65,43.35],[-97.52,43.45],[-97.86,43.82],[-97.04,44.12]],[[-97.58,43.3],[-97.42,43.19],[-97.4,43.22],[-97.58,43.3]]],[[[-98.27,28.63],[-98.03,27.75],[-97.78,28.21],[-96.79,28.33],[-97.38,27.83],[-97.35,27.5],[-97.81,27.77],[-97.83,27.18],[-97.64,26.87],[-97.48,26.76],[-97.48,26.45],[-97.33,26.35],[-97.36,26.31],[-97.35,26.26],[-97.3,26.26],[-97.35,26.2],[-97.31,26.12],[-97.19,26.07],[-97.24,26.06],[-97.32,25.97],[-97.2,25.98],[-97.16,26.06],[-97.16,25.95],[-97.37,25.92],[-97.61,26.49],[-97.81,26.29],[-98.09,26.61],[-97.93,26.06],[-98.08,26.03],[-98.16,26.78],[-97.99,27.0],[-98.65,26.88],[-98.69,27.14],[-99.54,27.32],[-98.98,27.74],[-98.86,28.57],[-98.27,28.63]],[[-98.67,27.14],[-98.33,27.02],[-98.32,27.16],[-98.67,27.14]]],[[[-97.24,31.66],[-97.53,30.37],[-97.27,30.08],[-97.54,30.01],[-98.03,31.26],[-97.24,31.66]]],[[[-100.27,40.08],[-99.59,40.04],[-99.61,39.9],[-100.36,39.69],[-100.27,40.08]]],[[[-100.41,33.95],[-100.84,34.26],[-100.86,34.72],[-100.34,35.35],[-99.96,35.07],[-100.26,34.59],[-99.91,34.32],[-100.41,33.95]]],[[[-101.78,31.6],[-101.58,31.23],[-102.1,31.27],[-102.32,31.47],[-101.78,31.6]],[[-102.0,31.44],[-101.78,31.42],[-101.97,31.5],[-102.0,31.44]]],[[[-105.65,39.91],[-105.0,39.84],[-104.73,39.84],[-105.19,39.45],[-105.77,39.62],[-105.65,39.91]]],[[[-106.3,46.59],[-106.79,46.32],[-107.0,46.64],[-106.54,46.73],[-106.3,46.59]]],[[[-109.73,33.76],[-108.41,34.11],[-107.91,33.62],[-108.38,33.07],[-107.82,32.04],[-107.83,31.78],[-108.21,31.78],[-108.21,31.33],[-108.85,31.33],[-109.09,32.97],[-110.47,33.51],[-110.27,34.01],[-109.73,33.76]]],[[[-112.15,31.78],[-113.26,32.02],[-113.35,33.56],[-113.1,33.81],[-112.27,33.71],[-111.73,33.09],[-111.73,32.43],[-112.15,31.78]]],[[[-121.13,49.0],[-118.45,49.0],[-118.61,48.42],[-119.65,48.13],[-120.84,48.23],[-121.13,49.0]],[[-120.28,48.32],[-119.38,48.4],[-119.36,48.78],[-120.29,48.64],[-120.28,48.32]]]]},"properties":{"w":"2026-09-08","released":"2026-09-10","dm":2,"label":"D2 Severe drought","area_km2":1654486,"parts":29}},{"type":"Feature","geometry":{"type":"MultiPolygon","coordinates":[[[[-66.21,17.99],[-66.77,18.01],[-66.93,17.93],[-67.22,17.98],[-66.37,18.2],[-66.21,17.99]]],[[[-77.89,36.14],[-78.07,36.41],[-77.65,36.57],[-77.57,36.47],[-77.89,36.14]]],[[[-78.61,36.54],[-79.99,36.1],[-80.09,36.42],[-78.91,37.2],[-78.95,36.77],[-78.61,36.54]],[[-79.85,36.23],[-79.94,36.14],[-79.85,36.15],[-79.85,36.23]]],[[[-78.87,33.7],[-79.18,33.58],[-79.61,33.61],[-79.16,34.19],[-78.87,33.7]]],[[[-80.6,33.04],[-81.0,32.66],[-81.36,33.0],[-80.6,33.04]]],[[[-82.43,27.93],[-81.91,27.57],[-82.55,27.33],[-82.69,27.51],[-82.49,27.47],[-82.43,27.52],[-82.58,27.51],[-82.64,27.54],[-82.6,27.53],[-82.57,27.55],[-82.51,27.7],[-82.44,27.69],[-82.43,27.93]]],[[[-90.84,46.93],[-90.95,46.59],[-89.99,46.68],[-90.05,45.72],[-92.96,45.69],[-92.76,46.65],[-91.81,46.69],[-90.84,46.93]],[[-90.03,46.67],[-90.03,46.67],[-90.03,46.67],[-90.03,46.67]],[[-90.03,46.67],[-90.03,46.67],[-90.03,46.67],[-90.03,46.67]],[[-90.04,46.67],[-90.04,46.67],[-90.04,46.67],[-90.04,46.67]],[[-90.06,46.66],[-90.06,46.66],[-90.06,46.66],[-90.06,46.66]],[[-90.07,46.66],[-90.07,46.66],[-90.07,46.66],[-90.07,46.66]],[[-90.07,46.66],[-90.07,46.66],[-90.07,46.66],[-90.07,46.66]],[[-90.08,46.66],[-90.08,46.66],[-90.08,46.66],[-90.08,46.66]],[[-90.08,46.66],[-90.08,46.66],[-90.08,46.66],[-90.08,46.66]],[[-90.08,46.66],[-90.08,46.66],[-90.08,46.66],[-90.08,46.66]],[[-90.09,46.66],[-90.09,46.66],[-90.09,46.66],[-90.09,46.66]],[[-90.09,46.66],[-90.09,46.66],[-90.09,46.66],[-90.09,46.66]],[[-90.09,46.66],[-90.09,46.66],[-90.09,46.66],[-90.09,46.66]],[[-90.09,46.66],[-90.09,46.66],[-90.09,46.66],[-90.09,46.66]],[[-90.1,46.66],[-90.1,46.66],[-90.1,46.66],[-90.1,46.66]],[[-90.1,46.66],[-90.1,46.66],[-90.1,46.65],[-90.1,46.66]],[[-90.11,46.65],[-90.11,46.65],[-90.11,46.65],[-90.11,46.65]],[[-90.11,46.65],[-90.11,46.65],[-90.11,46.65],[-90.11,46.65]],[[-90.11,46.65],[-90.11,46.65],[-90.11,46.65],[-90.11,46.65]],[[-90.12,46.65],[-90.12,46.65],[-90.12,46.65],[-90.12,46.65]],[[-90.13,46.65],[-90.13,46.65],[-90.13,46.65],[-90.13,46.65]],[[-90.13,46.65],[-90.13,46.65],[-90.13,46.65],[-90.13,46.65]],[[-90.13,46.65],[-90.13,46.65],[-90.13,46.65],[-90.13,46.65]],[[-90.14,46.65],[-90.14,46.65],[-90.14,46.65],[-90.14,46.65]],[[-90.14,46.65],[-90.14,46.65],[-90.14,46.65],[-90.14,46.65]],[[-90.14,46.65],[-90.14,46.65],[-90.14,46.65],[-90.14,46.65]],[[-90.14,46.65],[-90.14,46.65],[-90.14,46.65],[-90.14,46.65]],[[-90.15,46.65],[-90.15,46.65],[-90.15,46.65],[-90.15,46.65]],[[-90.15,46.65],[-90.15,46.65],[-90.15,46.65],[-90.15,46.65]],[[-90.16,46.65],[-90.16,46.65],[-90.16,46.65],[-90.16,46.65]],[[-90.16,46.65],[-90.16,46.65],[-90.16,46.65],[-90.16,46.65]],[[-90.17,46.64],[-90.17,46.64],[-90.17,46.64],[-90.17,46.64]],[[-90.17,46.64],[-90.17,46.64],[-90.17,46.64],[-90.17,46.64]],[[-90.18,46.64],[-90.18,46.64],[-90.18,46.64],[-90.18,46.64]],[[-90.18,46.64],[-90.18,46.64],[-90.18,46.64],[-90.18,46.64]],[[-90.18,46.64],[-90.18,46.64],[-90.18,46.64],[-90.18,46.64]],[[-90.19,46.64],[-90.19,46.64],[-90.19,46.64],[-90.19,46.64]],[[-90.19,46.64],[-90.19,46.64],[-90.19,46.64],[-90.19,46.64]],[[-90.19,46.64],[-90.19,46.64],[-90.19,46.64],[-90.19,46.64]],[[-90.19,46.64],[-90.19,46.64],[-90.19,46.64],[-90.19,46.64]],[[-90.2,46.64],[-90.2,46.64],[-90.2,46.64],[-90.2,46.64]],[[-90.21,46.63],[-90.21,46.63],[-90.21,46.63],[-90.21,46.63]],[[-90.22,46.63],[-90.22,46.63],[-90.22,46.63],[-90.22,46.63]],[[-90.23,46.63],[-90.23,46.63],[-90.23,46.63],[-90.23,46.63]],[[-90.23,46.63],[-90.23,46.63],[-90.23,46.63],[-90.23,46.63]],[[-90.24,46.62],[-90.24,46.62],[-90.24,46.62],[-90.24,46.62]],[[-90.24,46.62],[-90.24,46.62],[-90.24,46.62],[-90.24,46.62]],[[-90.25,46.62],[-90.25,46.62],[-90.25,46.62],[-90.25,46.62]],[[-90.25,46.62],[-90.25,46.62],[-90.25,46.62],[-90.25,46.62]],[[-90.25,46.62],[-90.25,46.62],[-90.25,46.62],[-90.25,46.62]],[[-90.25,46.62],[-90.25,46.62],[-90.25,46.62],[-90.25,46.62]],[[-90.26,46.62],[-90.26,46.62],[-90.26,46.62],[-90.26,46.62]],[[-90.26,46.62],[-90.26,46.62],[-90.26,46.62],[-90.26,46.62]],[[-90.26,46.62],[-90.26,46.62],[-90.26,46.62],[-90.26,46.62]],[[-90.29,46.61],[-90.29,46.61],[-90.29,46.61],[-90.29,46.61]],[[-90.29,46.61],[-90.29,46.61],[-90.29,46.61],[-90.29,46.61]],[[-90.3,46.61],[-90.3,46.61],[-90.3,46.61],[-90.3,46.61]],[[-90.31,46.6],[-90.31,46.6],[-90.31,46.6],[-90.31,46.6]],[[-90.31,46.6],[-90.31,46.6],[-90.31,46.6],[-90.31,46.6]],[[-90.32,46.61],[-90.32,46.61],[-90.32,46.61],[-90.32,46.61]],[[-90.41,46.57],[-90.41,46.57],[-90.41,46.57],[-90.41,46.57]],[[-90.41,46.57],[-90.41,46.57],[-90.41,46.57],[-90.41,46.57]]],[[[-90.28,36.2],[-91.42,35.63],[-91.84,35.8],[-91.89,36.39],[-91.67,36.45],[-91.17,36.21],[-90.53,36.44],[-90.28,36.2]],[[-91.56,36.35],[-91.78,36.41],[-91.85,36.35],[-91.72,36.16],[-91.56,36.35]]],[[[-90.81,34.02],[-90.28,33.58],[-90.82,33.18],[-91.73,33.39],[-91.93,33.15],[-92.26,33.66],[-91.88,33.76],[-91.86,33.51],[-91.31,33.93],[-90.81,34.02]],[[-90.87,33.58],[-91.08,33.93],[-91.69,33.44],[-90.87,33.58]]],[[[-93.01,35.08],[-91.75,34.93],[-91.83,34.39],[-92.34,34.97],[-93.01,35.08]]],[[[-92.43,44.44],[-93.03,44.62],[-93.35,44.85],[-92.51,44.76],[-92.43,44.44]]],[[[-94.53,37.84],[-93.01,36.7],[-94.12,36.68],[-93.9,36.5],[-93.76,35.61],[-93.19,35.33],[-94.54,34.85],[-94.79,35.1],[-94.53,36.1],[-95.7,36.4],[-96.18,37.13],[-94.51,37.25],[-94.53,37.84]],[[-94.06,36.45],[-94.54,36.3],[-94.55,36.27],[-93.94,36.22],[-94.06,36.45]]],[[[-111.27,39.87],[-110.82,39.98],[-110.95,39.27],[-109.83,39.26],[-109.45,39.81],[-108.94,39.54],[-108.66,40.1],[-107.84,40.28],[-107.55,41.03],[-107.17,41.06],[-106.48,40.44],[-105.44,40.15],[-105.24,40.49],[-106.04,41.49],[-105.57,41.99],[-104.78,41.9],[-104.5,41.6],[-105.02,41.1],[-104.43,39.75],[-105.93,38.77],[-104.88,38.39],[-104.46,37.71],[-104.77,37.29],[-103.61,36.93],[-102.45,37.38],[-102.16,36.89],[-102.41,36.47],[-102.07,35.97],[-101.34,36.93],[-100.46,36.18],[-100.0,36.34],[-99.84,36.88],[-98.17,36.69],[-97.11,35.62],[-97.46,34.34],[-96.22,34.73],[-96.3,34.39],[-94.89,34.03],[-95.3,33.86],[-95.36,33.4],[-95.63,33.43],[-95.55,33.84],[-95.93,33.89],[-97.46,33.09],[-97.65,32.68],[-97.93,34.01],[-99.74,33.8],[-100.99,33.14],[-101.33,33.25],[-101.23,33.73],[-101.93,34.19],[-102.62,33.92],[-102.69,34.5],[-103.24,35.03],[-103.82,34.69],[-105.15,34.63],[-104.98,33.79],[-105.22,33.63],[-105.76,34.29],[-107.21,34.66],[-107.65,35.56],[-107.36,36.19],[-108.29,36.01],[-109.04,36.74],[-109.06,37.62],[-107.3,37.42],[-106.97,37.27],[-107.07,36.96],[-106.51,36.99],[-106.87,37.69],[-107.46,37.56],[-107.91,38.97],[-108.48,38.69],[-109.33,39.07],[-110.62,38.71],[-110.82,38.25],[-112.55,38.35],[-112.86,37.94],[-113.63,38.21],[-113.21,38.88],[-113.56,39.46],[-113.04,41.25],[-111.93,40.82],[-111.27,39.87]],[[-97.65,34.03],[-97.43,33.44],[-96.49,33.76],[-97.27,34.16],[-97.65,34.03]],[[-101.27,36.03],[-101.87,35.79],[-101.58,35.06],[-102.75,35.51],[-102.92,35.27],[-101.86,34.54],[-101.14,34.45],[-100.42,35.76],[-99.92,35.68],[-99.06,34.68],[-98.55,35.57],[-98.21,35.76],[-97.99,35.55],[-97.82,35.84],[-98.06,36.26],[-98.77,36.13],[-99.04,36.68],[-99.66,36.66],[-99.52,36.39],[-99.84,36.03],[-100.86,35.79],[-100.86,36.41],[-101.32,36.61],[-101.27,36.03]],[[-100.05,33.96],[-99.15,34.24],[-98.96,34.59],[-99.65,34.56],[-100.05,33.96]],[[-100.2,35.33],[-100.56,35.28],[-100.86,34.72],[-100.52,33.94],[-99.91,34.32],[-100.26,34.59],[-99.96,34.86],[-100.2,35.33]],[[-100.43,33.63],[-100.8,33.9],[-100.91,33.67],[-100.43,33.63]],[[-102.55,35.97],[-102.44,35.75],[-102.38,35.82],[-102.55,35.97]],[[-103.91,35.7],[-102.97,36.16],[-102.86,36.52],[-105.32,36.45],[-104.54,35.81],[-103.91,35.7]],[[-105.74,39.85],[-105.02,39.49],[-104.73,39.84],[-105.74,39.85]],[[-107.76,39.71],[-107.0,38.7],[-107.07,38.13],[-107.37,38.06],[-107.2,37.81],[-106.48,37.98],[-106.01,37.8],[-105.95,37.19],[-105.46,37.48],[-104.9,37.11],[-104.89,37.59],[-106.36,38.05],[-105.96,39.07],[-106.09,40.22],[-107.55,40.23],[-107.18,39.73],[-107.76,39.71]],[[-106.89,36.67],[-106.23,35.81],[-105.97,34.72],[-105.58,34.66],[-105.67,35.96],[-106.35,36.66],[-106.89,36.67]]],[[[-96.64,32.31],[-96.84,32.69],[-96.74,32.98],[-96.28,32.55],[-96.64,32.31]]],[[[-98.38,47.5],[-96.53,47.49],[-96.56,46.08],[-97.52,46.11],[-98.29,46.54],[-98.38,47.5]]],[[[-97.44,27.69],[-97.64,26.87],[-97.81,27.77],[-97.44,27.69]]],[[[-98.09,26.61],[-97.44,26.36],[-97.37,25.85],[-97.93,26.06],[-98.09,26.61]]],[[[-100.95,45.15],[-101.64,45.27],[-101.7,45.7],[-100.91,45.68],[-100.95,45.15]]],[[[-103.62,38.54],[-102.72,38.58],[-102.54,38.49],[-103.63,38.15],[-103.62,38.54]]],[[[-103.41,45.91],[-104.64,45.42],[-103.29,44.52],[-104.06,44.0],[-102.85,43.0],[-102.99,42.13],[-103.37,41.83],[-102.82,41.27],[-103.77,40.99],[-104.19,41.26],[-104.41,43.37],[-105.08,43.92],[-106.2,43.29],[-107.98,43.04],[-108.12,42.57],[-108.74,42.8],[-108.98,44.33],[-108.0,44.5],[-107.06,44.09],[-105.99,44.36],[-105.7,44.73],[-106.23,45.35],[-105.7,45.93],[-104.35,46.49],[-103.95,47.56],[-103.45,47.77],[-103.65,46.27],[-103.41,45.91]],[[-103.56,41.56],[-103.51,41.19],[-103.06,41.38],[-103.56,41.56]],[[-103.52,42.57],[-103.18,42.42],[-103.11,42.51],[-103.52,42.57]]],[[[-104.49,38.58],[-104.8,38.67],[-104.95,38.94],[-104.35,38.97],[-104.49,38.58]]],[[[-104.85,32.2],[-104.42,32.15],[-105.08,31.95],[-105.51,32.43],[-105.32,33.43],[-104.85,32.2]]],[[[-105.77,42.43],[-106.62,42.15],[-107.02,42.26],[-105.86,42.77],[-105.77,42.43]]],[[[-111.36,44.17],[-111.02,42.63],[-111.84,42.68],[-112.09,41.99],[-113.06,41.93],[-113.97,41.22],[-115.62,41.12],[-116.03,41.48],[-117.92,41.6],[-117.96,42.31],[-117.1,42.88],[-114.84,43.39],[-113.52,43.25],[-113.1,43.87],[-111.36,44.17]],[[-116.73,42.86],[-116.98,42.34],[-116.68,42.0],[-114.98,42.07],[-114.42,41.51],[-113.27,42.02],[-113.49,42.41],[-115.54,42.49],[-116.73,42.86]]],[[[-116.63,47.37],[-116.88,47.18],[-117.79,47.38],[-117.44,47.84],[-116.84,47.81],[-116.63,47.37]]],[[[-117.9,45.4],[-117.98,44.6],[-118.85,43.8],[-119.88,44.07],[-121.66,43.74],[-122.25,42.37],[-123.23,42.41],[-123.19,43.57],[-121.97,44.52],[-119.83,44.93],[-118.42,45.86],[-117.9,45.4]],[[-119.83,44.52],[-118.92,44.07],[-118.04,44.86],[-118.35,45.04],[-119.83,44.52]]],[[[-119.49,48.3],[-120.28,48.32],[-120.29,48.64],[-119.36,48.78],[-119.49,48.3]]]]},"properties":{"w":"2026-09-08","released":"2026-09-10","dm":3,"label":"D3 Extreme drought","area_km2":795191,"parts":27}},{"type":"Feature","geometry":{"type":"MultiPolygon","coordinates":[[[[-91.08,33.93],[-90.87,33.58],[-91.69,33.44],[-91.08,33.93]]],[[[-100.96,35.8],[-99.93,35.97],[-99.52,36.39],[-99.69,36.65],[-99.04,36.68],[-98.77,36.13],[-98.06,36.26],[-97.82,35.84],[-97.99,35.55],[-98.21,35.76],[-98.55,35.57],[-99.06,34.68],[-99.92,35.68],[-100.42,35.76],[-101.14,34.45],[-101.86,34.54],[-102.92,35.27],[-102.75,35.51],[-101.58,35.06],[-101.87,35.79],[-101.3,35.81],[-101.32,36.61],[-100.74,36.18],[-100.96,35.8]]],[[[-99.76,33.95],[-100.06,34.06],[-99.65,34.56],[-98.96,34.59],[-99.76,33.95]]],[[[-100.41,33.71],[-100.63,33.61],[-100.94,33.77],[-100.7,33.97],[-100.41,33.71]]],[[[-105.32,36.45],[-103.93,36.38],[-102.86,36.52],[-102.97,36.16],[-103.81,35.69],[-104.54,35.81],[-105.32,36.45]]],[[[-103.06,41.38],[-103.69,41.17],[-103.56,41.56],[-103.06,41.38]]],[[[-105.96,40.04],[-106.36,38.05],[-104.89,37.59],[-104.9,37.11],[-105.46,37.48],[-105.95,37.19],[-106.01,37.8],[-106.48,37.98],[-107.36,37.95],[-107.0,38.7],[-107.72,39.37],[-107.76,39.71],[-107.18,39.73],[-107.61,40.2],[-106.72,40.38],[-105.96,40.04]]],[[[-105.58,34.66],[-105.97,34.72],[-106.23,35.81],[-106.89,36.67],[-106.35,36.66],[-105.67,35.96],[-105.58,34.66]]],[[[-113.49,42.41],[-113.27,42.02],[-114.42,41.51],[-114.77,42.01],[-116.68,42.0],[-116.99,42.48],[-116.61,42.87],[-115.54,42.49],[-113.49,42.41]]],[[[-118.51,44.25],[-119.3,44.12],[-119.83,44.52],[-118.35,45.04],[-118.04,44.86],[-118.51,44.25]]]]},"properties":{"w":"2026-09-08","released":"2026-09-10","dm":4,"label":"D4 Exceptional drought","area_km2":143394,"parts":10}}]}