{"type":"FeatureCollection","generated_at":"2026-09-12T21:24:50Z","source":{"id":"fires","name":"NASA FIRMS VIIRS 375 m active fire detections (Suomi-NPP, NOAA-20, NOAA-21)","url":"https://firms.modaps.eosdis.nasa.gov/","terms":"https://www.earthdata.nasa.gov/data/tools/firms/faq","licence":"NASA full and open sharing, no restrictions (FIRMS FAQ); cite as \"NASA FIRMS\"; provided \"as is\" (LANCE disclaimer)","citation":"NASA FIRMS","files":["https://firms.modaps.eosdis.nasa.gov/data/active_fire/suomi-npp-viirs-c2/csv/SUOMI_VIIRS_C2_Global_7d.csv","https://firms.modaps.eosdis.nasa.gov/data/active_fire/noaa-20-viirs-c2/csv/J1_VIIRS_C2_Global_7d.csv","https://firms.modaps.eosdis.nasa.gov/data/active_fire/noaa-21-viirs-c2/csv/J2_VIIRS_C2_Global_7d.csv"],"cell_deg":0.5,"note":"Each point is a 0.5\u00b0 cell; colour = summed fire radiative power (MW) of VIIRS 375 m detections in the 6-hour bin(s) in scope. Detections are thermal anomalies at overpass time (gas flares, volcanoes and hot rooftops included), not fire perimeters; clouds hide fires. Low-confidence pixels dropped; cells under the window FRP floor dropped.","seed_note":"seed snapshot 2026-09-12T21:24:50Z: top 189 of 6211 cells by 7-day FRP (FRP-ranked subsample to stay under 100 KB); the live file carries 6211"},"bin0":"2026-09-06T00:00:00Z","bin_hours":6,"bins":28,"newest":"2026-09-13T00:00:00Z","cells_total":16881,"cells_below_floor":10670,"cells_over_cap":0,"cells_kept":6211,"min_frp":100.0,"latest":"2026-09-12T19:06:00Z","days":7,"counts":{"rows":1400271,"kept":1251027,"dropped_low":149244,"satellites":{"N":429395,"N20":418347,"N21":403285}},"seed_cells":189,"features":[{"type":"Feature","geometry":{"type":"Point","coordinates":[29.75,-9.75]},"properties":{"n":3989,"frp":56101.9,"frp_max_bin":14252.3,"bins":[[26,80,803.8],[25,134,2102.2],[24,4,1.5],[23,5,3.6],[22,1,9.8],[21,132,1538.7],[19,17,16.4],[17,382,4880.6],[16,17,38.1],[15,30,86.9],[14,154,1490.4],[13,313,3735.2],[11,119,345.5],[10,232,3682.5],[9,379,5831.8],[7,194,235.6],[6,222,3879.9],[5,759,14252.3],[4,11,13.8],[3,39,40.9],[2,235,4237.0],[1,529,8874.4],[0,1,1.2]]}},{"type":"Feature","geometry":{"type":"Point","coordinates":[56.75,51.25]},"properties":{"n":3247,"frp":51025.8,"frp_max_bin":22598.6,"bins":[[9,9,48.1],[7,587,6854.3],[5,855,22598.6],[4,200,992.2],[3,1260,7145.5],[1,336,13387.1]]}},{"type":"Feature","geometry":{"type":"Point","coordinates":[30.75,-11.25]},"properties":{"n":3265,"frp":41584.2,"frp_max_bin":11238.0,"bins":[[26,103,1196.9],[25,190,2046.0],[24,2,2.6],[23,8,13.6],[22,17,369.6],[21,228,3420.6],[19,5,6.7],[17,227,3217.8],[14,35,303.3],[13,106,1738.1],[11,24,20.5],[10,205,1922.8],[9,309,3543.3],[7,13,14.1],[6,108,1496.7],[5,716,8136.3],[4,4,6.5],[3,36,62.1],[2,140,2828.9],[1,789,11238.0]]}},{"type":"Feature","geometry":{"type":"Point","coordinates":[31.25,-10.75]},"properties":{"n":3116,"frp":37040.3,"frp_max_bin":9625.5,"bins":[[26,66,733.5],[25,234,2367.8],[24,1,1.3],[23,9,8.4],[21,569,6175.4],[19,12,19.0],[17,509,4783.3],[15,10,8.5],[14,8,52.5],[13,59,555.9],[11,66,70.7],[10,261,3227.1],[9,404,4338.4],[7,80,144.3],[6,72,1148.7],[5,552,9625.5],[4,1,0.2],[3,5,3.5],[2,54,1795.8],[1,144,1980.3]]}},{"type":"Feature","geometry":{"type":"Point","coordinates":[29.25,-10.25]},"properties":{"n":2933,"frp":35152.7,"frp_max_bin":6124.7,"bins":[[26,116,1712.2],[25,150,2713.9],[23,2,2.0],[22,2,23.4],[21,187,2130.1],[19,8,21.4],[17,303,3506.8],[16,7,10.2],[15,13,17.7],[14,154,1918.1],[13,308,3195.8],[11,54,106.1],[10,367,5136.5],[9,506,6124.7],[7,76,101.4],[6,153,2195.8],[5,448,5568.2],[3,2,1.0],[2,27,264.8],[1,50,402.4]]}},{"type":"Feature","geometry":{"type":"Point","coordinates":[-43.25,-9.75]},"properties":{"n":1646,"frp":34737.0,"frp_max_bin":10218.7,"bins":[[26,39,806.5],[24,25,54.9],[22,60,2045.3],[20,32,46.0],[18,145,6408.8],[16,130,325.4],[14,254,10218.7],[12,170,506.0],[10,222,6771.0],[8,284,1310.3],[6,154,4461.5],[4,131,1782.5]]}},{"type":"Feature","geometry":{"type":"Point","coordinates":[16.75,-13.75]},"properties":{"n":2643,"frp":34131.3,"frp_max_bin":6079.2,"bins":[[26,229,2858.8],[24,9,17.4],[23,2,2.9],[22,374,4135.0],[21,91,1581.2],[20,37,39.9],[19,23,34.9],[18,285,3347.8],[17,216,1987.5],[16,11,14.8],[15,11,27.0],[14,14,194.3],[13,26,707.1],[12,1,1.1],[11,2,2.2],[10,282,3829.0],[9,83,1964.6],[6,511,6079.2],[5,236,5005.2],[4,9,8.8],[3,2,4.4],[2,164,2252.6],[0,25,35.7]]}},{"type":"Feature","geometry":{"type":"Point","coordinates":[28.75,-5.75]},"properties":{"n":1948,"frp":31985.9,"frp_max_bin":5423.7,"bins":[[26,143,1812.5],[25,190,3163.4],[24,1,0.9],[23,9,8.2],[22,11,166.9],[21,89,1205.3],[20,3,1.8],[19,11,17.9],[18,82,858.6],[17,151,2250.5],[16,5,5.1],[15,10,11.3],[14,87,722.8],[13,146,2603.8],[11,10,10.7],[10,93,1549.3],[9,154,3061.8],[8,1,1.8],[7,13,18.3],[6,179,2544.5],[5,244,5423.7],[3,12,10.8],[2,88,1238.9],[1,212,5291.2],[0,4,5.8]]}},{"type":"Feature","geometry":{"type":"Point","coordinates":[110.25,-1.75]},"properties":{"n":3405,"frp":31345.7,"frp_max_bin":6527.3,"bins":[[27,295,787.0],[26,59,166.7],[25,231,1940.3],[24,60,790.9],[23,300,922.2],[22,110,482.3],[21,371,6527.3],[20,188,3672.2],[19,72,129.4],[18,213,578.6],[17,132,1707.0],[16,8,108.0],[15,187,745.3],[14,192,822.5],[13,99,1094.7],[12,58,693.3],[11,41,61.3],[10,11,28.4],[9,17,578.8],[8,11,223.6],[7,49,106.0],[6,95,499.6],[5,107,1264.4],[4,76,2146.6],[3,86,213.6],[2,29,63.7],[1,195,2800.4],[0,113,2191.5]]}},{"type":"Feature","geometry":{"type":"Point","coordinates":[28.75,-5.25]},"properties":{"n":1712,"frp":30368.3,"frp_max_bin":6850.4,"bins":[[26,43,1051.8],[25,70,1039.6],[24,2,4.5],[23,16,18.3],[21,109,1680.2],[20,1,0.7],[19,12,20.4],[18,88,1034.6],[17,128,2470.5],[16,9,7.1],[15,31,31.0],[14,172,2145.0],[13,242,4370.6],[11,63,118.0],[10,186,3550.3],[9,195,6850.4],[7,21,18.2],[6,106,1680.5],[5,92,2503.4],[4,3,4.1],[3,27,35.3],[2,31,742.3],[1,63,990.1],[0,2,1.3]]}},{"type":"Feature","geometry":{"type":"Point","coordinates":[30.75,-10.75]},"properties":{"n":2416,"frp":28051.9,"frp_max_bin":5743.3,"bins":[[26,101,1212.6],[25,217,2552.5],[24,1,0.8],[23,1,0.4],[22,9,140.1],[21,231,2631.0],[19,5,10.0],[17,478,5743.3],[15,6,23.1],[14,32,512.7],[13,44,396.2],[11,13,12.9],[10,191,1747.8],[9,352,3990.5],[7,21,24.4],[6,65,1136.1],[5,368,4444.6],[3,4,2.8],[2,53,666.5],[1,224,2803.4]]}},{"type":"Feature","geometry":{"type":"Point","coordinates":[17.25,43.75]},"properties":{"n":2126,"frp":25213.0,"frp_max_bin":9559.3,"bins":[[12,2,2.1],[10,14,132.0],[9,31,610.7],[8,103,233.3],[7,24,100.2],[6,58,631.9],[5,112,2538.4],[4,515,2784.7],[3,55,355.2],[2,134,3133.5],[1,379,9559.3],[0,699,5131.8]]}},{"type":"Feature","geometry":{"type":"Point","coordinates":[30.75,-11.75]},"properties":{"n":2343,"frp":24711.2,"frp_max_bin":8525.6,"bins":[[26,37,196.4],[25,96,743.6],[23,1,1.1],[22,23,330.6],[21,161,1450.2],[19,8,9.3],[17,236,2050.2],[14,5,62.5],[13,25,185.4],[11,7,4.4],[10,82,578.7],[9,206,1687.8],[7,14,35.7],[6,91,1164.1],[5,466,5589.5],[3,5,3.5],[2,151,2092.6],[1,729,8525.6]]}},{"type":"Feature","geometry":{"type":"Point","coordinates":[31.75,-10.75]},"properties":{"n":2043,"frp":24637.7,"frp_max_bin":8805.4,"bins":[[26,120,1644.2],[25,326,3181.2],[23,12,13.9],[21,595,8805.4],[19,8,5.7],[17,303,4067.5],[15,7,7.0],[14,2,31.1],[13,27,251.9],[11,13,10.2],[10,75,612.1],[9,168,2230.6],[7,53,74.6],[5,240,2369.2],[4,1,1.2],[3,6,9.6],[2,18,316.9],[1,69,1005.4]]}},{"type":"Feature","geometry":{"type":"Point","coordinates":[29.25,-1.25]},"properties":{"n":981,"frp":24251.7,"frp_max_bin":7903.5,"bins":[[26,15,219.7],[25,3,9.9],[24,30,565.7],[23,48,1031.1],[21,3,77.0],[20,1,4.8],[19,10,19.7],[16,40,813.5],[15,100,2042.5],[14,11,268.2],[13,10,576.6],[11,204,4729.4],[10,18,393.6],[9,44,1201.3],[7,217,7903.5],[5,6,123.1],[4,56,1319.0],[3,155,2859.1],[1,10,93.9]]}},{"type":"Feature","geometry":{"type":"Point","coordinates":[14.25,-6.25]},"properties":{"n":1793,"frp":24031.5,"frp_max_bin":6690.8,"bins":[[26,346,4671.9],[22,13,370.2],[20,7,12.9],[19,8,19.8],[18,220,3350.5],[16,8,10.3],[14,209,3131.2],[13,26,154.2],[10,113,1236.7],[9,13,150.0],[8,7,43.1],[7,18,70.9],[6,484,6690.8],[4,9,13.4],[2,312,4105.7]]}},{"type":"Feature","geometry":{"type":"Point","coordinates":[24.75,-9.75]},"properties":{"n":820,"frp":23826.9,"frp_max_bin":10489.2,"bins":[[26,32,299.8],[25,47,802.7],[24,2,1.6],[23,6,14.9],[19,2,1.4],[18,17,1672.6],[17,200,10489.2],[16,2,2.2],[15,5,6.8],[14,33,603.2],[13,108,1821.1],[11,14,14.6],[10,64,509.7],[9,52,703.1],[7,3,4.3],[6,46,2014.0],[5,158,4527.5],[4,4,44.4],[2,9,105.9],[1,14,184.6],[0,2,3.2]]}},{"type":"Feature","geometry":{"type":"Point","coordinates":[15.75,-5.75]},"properties":{"n":1488,"frp":23627.9,"frp_max_bin":11089.3,"bins":[[26,650,11089.3],[24,1,2.0],[22,12,92.0],[20,6,10.6],[19,2,3.7],[18,49,665.6],[14,8,69.7],[10,148,1533.3],[9,37,779.4],[6,512,8766.9],[4,2,1.2],[2,39,555.6],[0,22,58.5]]}},{"type":"Feature","geometry":{"type":"Point","coordinates":[16.75,-8.25]},"properties":{"n":598,"frp":23334.4,"frp_max_bin":7835.9,"bins":[[26,14,114.7],[18,66,1585.3],[17,59,3191.0],[14,48,2472.7],[13,35,587.5],[10,153,6161.4],[9,47,1369.6],[8,4,14.7],[7,1,1.2],[6,170,7835.9],[0,1,0.3]]}},{"type":"Feature","geometry":{"type":"Point","coordinates":[138.25,-18.25]},"properties":{"n":1473,"frp":22261.8,"frp_max_bin":10469.3,"bins":[[26,23,98.6],[24,17,287.8],[22,8,22.0],[20,14,178.8],[18,25,61.1],[16,23,249.5],[14,90,228.5],[12,125,1105.6],[10,102,500.9],[8,132,1135.8],[6,80,276.7],[4,428,10469.3],[2,159,583.0],[0,247,7064.2]]}},{"type":"Feature","geometry":{"type":"Point","coordinates":[31.25,-11.25]},"properties":{"n":2345,"frp":22089.1,"frp_max_bin":7440.8,"bins":[[26,64,461.1],[25,77,482.3],[24,2,1.3],[23,3,3.2],[22,2,24.8],[21,129,1221.8],[17,150,1173.8],[13,6,73.3],[11,6,18.5],[10,122,869.8],[9,254,2037.5],[7,12,14.0],[6,74,953.1],[5,472,4963.3],[4,10,9.2],[3,17,39.4],[2,164,2301.9],[1,781,7440.8]]}},{"type":"Feature","geometry":{"type":"Point","coordinates":[137.75,-18.25]},"properties":{"n":2247,"frp":21960.1,"frp_max_bin":6646.4,"bins":[[26,220,513.3],[24,124,1247.1],[22,160,380.2],[20,206,2910.4],[18,142,702.7],[16,157,1627.2],[14,297,1727.4],[12,280,3572.1],[10,194,389.0],[8,317,6646.4],[6,76,354.6],[4,74,1889.7]]}},{"type":"Feature","geometry":{"type":"Point","coordinates":[113.75,-3.25]},"properties":{"n":2762,"frp":21801.3,"frp_max_bin":7351.9,"bins":[[27,102,469.7],[26,101,289.4],[25,33,221.9],[24,37,610.5],[23,123,404.0],[22,277,995.5],[21,580,7351.9],[20,52,799.3],[19,3,11.8],[18,120,211.3],[17,78,624.2],[16,259,2730.4],[15,2,5.9],[14,69,125.4],[13,72,746.5],[12,114,1131.1],[11,130,371.9],[10,91,328.8],[9,22,385.1],[8,18,253.3],[7,59,140.7],[6,48,184.2],[5,3,21.6],[4,3,31.5],[3,39,133.7],[2,85,155.3],[1,216,2563.4],[0,26,503.2]]}},{"type":"Feature","geometry":{"type":"Point","coordinates":[29.75,-10.25]},"properties":{"n":1755,"frp":21749.0,"frp_max_bin":4281.7,"bins":[[26,57,844.4],[25,151,2185.8],[23,1,0.5],[22,3,32.6],[21,164,2240.5],[20,4,17.2],[19,6,28.6],[17,165,1543.3],[15,2,0.9],[14,68,570.8],[13,179,1924.6],[11,17,42.0],[10,108,1493.0],[9,220,2655.4],[7,22,28.9],[6,102,1234.1],[5,299,4281.7],[4,4,47.2],[3,4,21.3],[2,68,1052.2],[1,111,1504.2]]}},{"type":"Feature","geometry":{"type":"Point","coordinates":[16.75,-19.25]},"properties":{"n":1993,"frp":21444.6,"frp_max_bin":7410.3,"bins":[[26,409,7410.3],[24,429,1080.4],[23,172,1129.9],[22,380,5244.7],[20,177,224.7],[19,94,175.8],[18,235,4920.8],[17,92,1240.6],[14,1,7.7],[12,4,9.8]]}},{"type":"Feature","geometry":{"type":"Point","coordinates":[140.75,-7.75]},"properties":{"n":1550,"frp":21101.2,"frp_max_bin":5953.3,"bins":[[26,28,102.1],[24,85,866.2],[22,250,1790.8],[20,139,2707.5],[18,347,5953.3],[16,198,4912.6],[14,210,2906.1],[12,18,176.5],[10,63,337.4],[8,30,168.7],[6,49,349.7],[4,48,314.5],[2,49,236.1],[0,36,279.9]]}},{"type":"Feature","geometry":{"type":"Point","coordinates":[13.75,-4.25]},"properties":{"n":1433,"frp":20854.5,"frp_max_bin":8223.0,"bins":[[26,108,1390.8],[22,21,188.6],[18,462,8223.0],[16,2,1.8],[14,35,718.6],[10,140,1667.0],[9,13,213.4],[8,61,120.8],[6,450,7112.6],[4,28,49.6],[3,15,31.5],[2,93,1127.3],[0,5,9.6]]}},{"type":"Feature","geometry":{"type":"Point","coordinates":[16.75,-14.25]},"properties":{"n":1929,"frp":20685.1,"frp_max_bin":3991.4,"bins":[[26,172,1677.8],[24,9,7.9],[23,5,6.5],[22,349,3986.0],[21,60,764.0],[20,14,13.1],[19,6,10.6],[18,218,2916.7],[17,176,1353.4],[16,7,10.2],[15,4,5.8],[14,56,675.3],[13,25,278.5],[10,69,699.1],[9,10,338.5],[8,1,1.9],[7,2,2.3],[6,370,3991.4],[5,136,2072.2],[4,5,7.8],[3,3,3.1],[2,194,1827.5],[0,38,35.5]]}},{"type":"Feature","geometry":{"type":"Point","coordinates":[-61.75,-13.25]},"properties":{"n":1420,"frp":20609.7,"frp_max_bin":3311.7,"bins":[[24,1,1.2],[23,194,2466.8],[22,60,977.5],[20,106,321.0],[19,59,786.8],[18,128,3016.7],[17,8,9.1],[16,40,122.5],[15,69,1709.6],[14,74,1587.7],[13,3,17.3],[12,23,63.0],[11,28,567.2],[10,73,950.6],[9,13,35.9],[8,70,186.1],[6,137,1199.7],[5,55,477.0],[4,146,935.8],[3,59,1866.3],[2,74,3311.7]]}},{"type":"Feature","geometry":{"type":"Point","coordinates":[16.25,-8.25]},"properties":{"n":1077,"frp":20190.5,"frp_max_bin":6327.8,"bins":[[26,60,558.9],[22,48,701.0],[21,1,31.0],[20,2,1.6],[18,126,1586.4],[17,34,663.5],[14,25,352.5],[13,10,106.3],[10,371,6234.6],[9,132,3610.1],[8,1,3.2],[7,1,1.5],[6,262,6327.8],[4,3,3.3],[2,1,8.7]]}},{"type":"Feature","geometry":{"type":"Point","coordinates":[31.25,-13.25]},"properties":{"n":1868,"frp":20136.9,"frp_max_bin":5057.9,"bins":[[26,192,1504.6],[25,402,5057.9],[23,7,16.7],[22,68,1230.1],[21,455,4452.1],[19,17,10.4],[17,420,4483.3],[14,5,48.5],[13,29,363.5],[10,29,174.3],[9,64,634.2],[8,5,15.9],[7,9,19.9],[6,3,30.9],[5,48,581.5],[2,28,424.4],[1,87,1089.0]]}},{"type":"Feature","geometry":{"type":"Point","coordinates":[30.25,-9.75]},"properties":{"n":1661,"frp":20034.5,"frp_max_bin":4653.1,"bins":[[26,58,615.6],[25,79,959.2],[24,1,0.7],[23,11,9.7],[22,6,97.2],[21,98,1064.1],[19,5,4.1],[17,134,1504.7],[16,2,5.6],[15,16,15.7],[14,67,809.1],[13,104,1293.0],[11,110,181.1],[10,212,2007.7],[9,271,4653.1],[7,54,80.1],[6,54,1009.8],[5,171,2810.7],[3,8,6.1],[2,50,754.6],[1,146,2146.0],[0,4,6.4]]}},{"type":"Feature","geometry":{"type":"Point","coordinates":[17.25,-19.75]},"properties":{"n":908,"frp":20024.4,"frp_max_bin":8485.5,"bins":[[10,33,1424.3],[9,14,363.6],[8,46,175.7],[7,49,794.7],[6,125,6898.6],[5,26,1233.6],[4,73,338.5],[3,42,68.9],[2,387,8485.5],[0,113,241.0]]}},{"type":"Feature","geometry":{"type":"Point","coordinates":[16.75,-13.25]},"properties":{"n":1659,"frp":19930.3,"frp_max_bin":3179.7,"bins":[[26,219,2581.2],[22,266,3125.1],[21,38,503.4],[20,5,5.6],[19,4,6.1],[18,233,3179.7],[17,124,1143.9],[16,6,5.7],[14,4,88.7],[13,9,71.7],[11,1,0.7],[10,248,3116.5],[9,74,1225.1],[6,184,1970.0],[5,61,1127.5],[4,3,2.7],[2,160,1734.7],[0,20,42.2]]}},{"type":"Feature","geometry":{"type":"Point","coordinates":[-45.25,-10.25]},"properties":{"n":1017,"frp":19786.6,"frp_max_bin":8239.1,"bins":[[26,156,2329.7],[24,32,56.5],[22,94,1722.7],[20,35,92.9],[18,264,8239.1],[16,90,208.9],[14,246,6187.5],[12,15,41.5],[10,58,595.4],[8,1,1.8],[6,11,213.6],[4,5,8.6],[2,10,88.4]]}},{"type":"Feature","geometry":{"type":"Point","coordinates":[35.75,37.25]},"properties":{"n":1911,"frp":19709.6,"frp_max_bin":6033.0,"bins":[[25,100,771.9],[23,2,1.4],[21,37,228.6],[19,1,0.6],[17,101,1189.3],[16,2,1.7],[15,4,7.2],[13,134,2131.3],[12,110,434.6],[11,242,1307.6],[9,155,2934.0],[8,59,438.8],[7,309,1730.1],[5,418,6033.0],[1,237,2499.6]]}},{"type":"Feature","geometry":{"type":"Point","coordinates":[13.25,-4.75]},"properties":{"n":1837,"frp":19430.2,"frp_max_bin":10439.9,"bins":[[26,14,299.0],[24,12,26.0],[22,4,86.8],[20,2,1.6],[19,1,2.1],[18,674,6571.0],[16,1,0.8],[14,18,210.3],[10,130,1261.4],[9,4,32.0],[8,15,59.0],[6,913,10439.9],[2,49,440.5]]}},{"type":"Feature","geometry":{"type":"Point","coordinates":[59.25,51.75]},"properties":{"n":801,"frp":19356.3,"frp_max_bin":13675.6,"bins":[[17,1,1.2],[15,1,0.5],[13,1,6.1],[11,3,3.0],[9,17,212.8],[7,193,539.8],[5,209,4545.8],[3,125,371.5],[1,251,13675.6]]}},{"type":"Feature","geometry":{"type":"Point","coordinates":[30.25,-9.25]},"properties":{"n":1628,"frp":19239.8,"frp_max_bin":4074.5,"bins":[[26,24,276.9],[25,53,524.1],[24,9,12.1],[23,9,9.8],[22,1,10.8],[21,30,271.9],[20,3,3.1],[19,6,7.6],[17,67,859.2],[16,3,3.2],[15,13,21.6],[14,86,976.6],[13,123,1926.9],[11,159,362.6],[10,175,2025.5],[9,170,2257.1],[7,121,254.8],[6,79,1418.0],[5,214,3281.2],[4,5,9.3],[3,22,21.3],[2,42,611.1],[1,203,4074.5],[0,11,20.7]]}},{"type":"Feature","geometry":{"type":"Point","coordinates":[17.25,-11.25]},"properties":{"n":1913,"frp":19166.0,"frp_max_bin":3920.2,"bins":[[26,145,1546.2],[24,14,11.6],[23,15,14.7],[22,327,3517.9],[21,77,883.4],[20,7,7.6],[19,5,6.1],[18,46,336.1],[17,77,861.0],[16,46,37.8],[15,4,7.1],[14,286,3920.2],[13,169,1753.9],[12,4,4.1],[11,6,6.2],[10,262,2370.2],[9,75,900.0],[8,1,1.5],[6,177,1328.6],[5,71,770.5],[4,1,1.1],[2,89,845.6],[1,3,29.3],[0,6,5.0]]}},{"type":"Feature","geometry":{"type":"Point","coordinates":[113.75,-2.25]},"properties":{"n":3252,"frp":19071.1,"frp_max_bin":4269.7,"bins":[[27,179,561.5],[26,262,648.1],[25,72,579.1],[24,17,304.2],[23,322,1599.6],[22,601,4269.7],[21,266,3784.7],[20,17,943.8],[19,2,43.3],[18,94,777.4],[17,7,32.1],[16,53,554.2],[15,119,234.8],[14,237,625.6],[13,7,102.1],[12,24,365.7],[11,327,933.8],[10,263,843.3],[9,6,124.1],[8,36,412.9],[7,27,41.4],[6,75,174.2],[5,5,100.4],[3,30,93.8],[2,119,354.8],[1,84,544.6],[0,1,21.9]]}},{"type":"Feature","geometry":{"type":"Point","coordinates":[13.75,-3.75]},"properties":{"n":1412,"frp":18254.5,"frp_max_bin":7066.2,"bins":[[26,126,1469.1],[24,2,1.7],[22,17,137.2],[20,8,6.5],[19,3,1.8],[18,331,4843.9],[16,1,0.6],[14,28,304.5],[10,330,4171.0],[9,11,179.1],[8,35,56.9],[6,516,7066.2],[4,2,2.2],[2,2,13.7]]}},{"type":"Feature","geometry":{"type":"Point","coordinates":[29.25,-9.75]},"properties":{"n":1522,"frp":18175.9,"frp_max_bin":3260.8,"bins":[[26,13,179.2],[25,74,666.4],[23,4,16.2],[22,8,82.2],[21,88,903.0],[19,13,23.9],[17,218,2879.6],[16,2,2.0],[15,13,14.0],[14,115,1195.4],[13,171,2471.7],[11,44,68.8],[10,137,2165.3],[9,245,3260.8],[7,23,50.3],[6,62,570.1],[5,206,2627.8],[4,1,0.8],[3,6,4.8],[2,38,601.1],[1,41,392.6]]}},{"type":"Feature","geometry":{"type":"Point","coordinates":[122.75,-16.75]},"properties":{"n":393,"frp":18152.9,"frp_max_bin":16745.2,"bins":[[16,9,145.0],[12,2,9.1],[10,4,3.7],[8,335,16745.2],[5,17,279.7],[4,26,970.2]]}},{"type":"Feature","geometry":{"type":"Point","coordinates":[17.25,-13.75]},"properties":{"n":1223,"frp":17889.2,"frp_max_bin":4004.5,"bins":[[26,177,2417.8],[24,5,4.0],[23,4,3.6],[22,245,4004.5],[21,44,1481.2],[20,14,28.5],[19,7,13.3],[18,275,3664.9],[17,140,2203.5],[16,3,2.1],[15,1,1.0],[14,17,301.6],[13,49,500.8],[12,2,3.8],[10,107,1215.4],[9,21,287.0],[6,27,430.1],[5,30,574.4],[4,2,3.4],[2,45,733.5],[0,8,14.6]]}},{"type":"Feature","geometry":{"type":"Point","coordinates":[14.25,-4.75]},"properties":{"n":1976,"frp":17831.9,"frp_max_bin":6623.3,"bins":[[26,256,2290.5],[22,36,240.8],[20,17,41.1],[19,21,54.1],[18,553,5221.5],[14,80,1152.3],[10,25,212.7],[8,23,36.2],[7,6,16.3],[6,723,6623.3],[4,1,2.7],[3,5,4.8],[2,230,1935.5]]}},{"type":"Feature","geometry":{"type":"Point","coordinates":[20.75,-18.75]},"properties":{"n":1512,"frp":17331.4,"frp_max_bin":4025.1,"bins":[[26,153,1749.6],[24,14,10.0],[23,1,1.2],[22,88,1212.1],[21,46,889.3],[20,8,7.8],[19,19,14.8],[18,64,656.1],[17,61,519.4],[16,7,5.8],[15,1,1.0],[14,94,1097.5],[13,85,2190.3],[12,4,4.3],[11,28,28.7],[10,89,1203.6],[9,67,596.1],[8,70,158.4],[7,115,308.6],[6,93,1192.4],[5,26,521.6],[4,90,124.8],[3,25,54.0],[2,178,4025.1],[1,35,703.6],[0,51,55.4]]}},{"type":"Feature","geometry":{"type":"Point","coordinates":[16.25,-7.25]},"properties":{"n":1448,"frp":17051.3,"frp_max_bin":5508.5,"bins":[[26,280,3184.1],[24,6,5.7],[22,160,1807.5],[21,9,83.5],[18,114,1393.2],[16,2,4.2],[14,85,858.7],[13,51,492.8],[12,5,17.3],[10,268,2713.5],[9,69,960.1],[7,2,1.9],[6,395,5508.5],[2,2,20.5]]}},{"type":"Feature","geometry":{"type":"Point","coordinates":[17.25,-13.25]},"properties":{"n":1226,"frp":16840.9,"frp_max_bin":3852.3,"bins":[[26,224,3200.1],[24,1,1.9],[22,284,3852.3],[21,68,1535.2],[20,1,0.8],[19,1,1.0],[18,105,1122.7],[17,71,1106.9],[16,2,2.5],[14,2,20.4],[10,133,1840.6],[9,37,585.7],[6,96,1009.9],[5,66,1185.9],[4,2,2.2],[2,105,1300.9],[0,28,71.9]]}},{"type":"Feature","geometry":{"type":"Point","coordinates":[29.25,-11.25]},"properties":{"n":1790,"frp":16830.5,"frp_max_bin":5109.8,"bins":[[26,56,685.0],[25,45,344.9],[22,13,156.7],[21,113,1181.5],[19,3,0.8],[17,181,1338.5],[14,90,481.6],[13,150,1295.8],[11,2,1.6],[10,93,1092.6],[9,168,1527.2],[7,6,3.0],[6,102,988.1],[5,477,5109.8],[2,52,525.6],[1,239,2097.7]]}},{"type":"Feature","geometry":{"type":"Point","coordinates":[114.25,-3.25]},"properties":{"n":2502,"frp":16677.5,"frp_max_bin":3316.1,"bins":[[27,128,761.0],[26,144,499.2],[25,32,262.6],[24,79,1100.6],[23,144,913.3],[22,232,1936.6],[21,304,3316.1],[20,53,801.6],[18,141,273.0],[17,64,426.4],[16,129,1174.8],[15,68,157.5],[14,201,595.4],[13,27,283.5],[12,38,337.6],[11,76,206.6],[10,86,377.4],[9,3,25.2],[8,7,57.9],[7,117,458.4],[6,145,904.2],[5,5,34.0],[4,5,48.8],[3,10,34.5],[2,143,680.0],[1,91,560.4],[0,30,450.9]]}},{"type":"Feature","geometry":{"type":"Point","coordinates":[23.25,-13.25]},"properties":{"n":1488,"frp":16550.4,"frp_max_bin":3354.4,"bins":[[26,189,2467.7],[25,65,770.6],[24,5,2.9],[23,2,1.0],[22,78,773.4],[21,78,755.6],[20,1,0.6],[19,3,2.7],[18,62,871.8],[17,168,1342.0],[16,3,3.9],[15,2,2.5],[14,136,1587.7],[13,244,3354.4],[12,3,4.0],[11,13,14.6],[10,278,3007.9],[9,144,1512.9],[7,1,0.6],[5,1,3.6],[2,8,49.9],[1,4,20.2]]}},{"type":"Feature","geometry":{"type":"Point","coordinates":[28.75,-4.75]},"properties":{"n":1480,"frp":16433.0,"frp_max_bin":2047.9,"bins":[[26,77,609.1],[25,82,930.7],[24,2,1.9],[23,6,7.0],[22,21,279.9],[21,167,1392.2],[19,1,1.0],[18,88,916.9],[17,132,1667.9],[16,8,12.7],[15,9,13.4],[14,85,1094.4],[13,107,1508.5],[11,17,18.1],[10,87,512.8],[9,117,1413.0],[7,31,36.4],[6,125,2047.9],[5,141,1510.5],[3,8,6.4],[2,49,834.4],[1,120,1617.8]]}},{"type":"Feature","geometry":{"type":"Point","coordinates":[25.75,-7.75]},"properties":{"n":884,"frp":16408.6,"frp_max_bin":3945.2,"bins":[[26,15,106.0],[25,9,66.2],[23,1,0.4],[22,41,1225.7],[21,11,61.6],[17,179,3945.2],[16,2,2.6],[15,4,3.0],[14,93,1479.2],[13,184,2659.8],[10,39,704.5],[9,45,495.3],[7,1,0.7],[6,152,3186.5],[5,82,2121.5],[3,2,2.4],[2,13,230.7],[1,11,117.3]]}},{"type":"Feature","geometry":{"type":"Point","coordinates":[31.25,-11.75]},"properties":{"n":1806,"frp":16149.3,"frp_max_bin":4709.9,"bins":[[26,67,445.6],[25,75,501.1],[23,1,1.0],[22,13,247.4],[21,209,1627.6],[19,8,16.8],[17,219,1826.8],[10,87,544.4],[9,195,1736.2],[7,21,36.6],[6,39,448.7],[5,297,2664.8],[4,1,0.4],[3,3,1.7],[2,90,1340.5],[1,481,4709.9]]}},{"type":"Feature","geometry":{"type":"Point","coordinates":[14.25,-5.25]},"properties":{"n":1454,"frp":16021.9,"frp_max_bin":5647.3,"bins":[[26,277,3284.0],[20,6,9.5],[19,4,3.5],[18,271,2401.8],[14,77,960.1],[10,67,608.1],[9,3,68.4],[8,4,7.6],[6,492,5647.3],[4,6,16.6],[3,1,0.2],[2,246,3015.0]]}},{"type":"Feature","geometry":{"type":"Point","coordinates":[30.75,-10.25]},"properties":{"n":1410,"frp":16006.2,"frp_max_bin":2573.8,"bins":[[26,48,510.5],[25,115,1250.3],[24,1,1.4],[23,1,0.5],[22,7,110.0],[21,116,1094.6],[19,9,9.1],[17,225,2573.8],[15,4,8.4],[14,44,552.3],[13,129,1576.1],[11,10,21.7],[10,93,768.1],[9,178,1822.4],[7,16,104.0],[6,32,508.8],[5,168,2537.4],[3,4,3.8],[2,53,756.1],[1,157,1797.0]]}},{"type":"Feature","geometry":{"type":"Point","coordinates":[141.25,-8.75]},"properties":{"n":1926,"frp":15867.3,"frp_max_bin":6468.2,"bins":[[26,4,4.0],[24,87,623.0],[22,23,17.4],[20,179,1483.4],[18,28,26.2],[16,650,6468.2],[14,11,8.3],[12,224,1862.9],[10,19,35.5],[8,123,787.0],[6,5,7.5],[4,367,3126.1],[2,11,14.4],[0,195,1403.5]]}},{"type":"Feature","geometry":{"type":"Point","coordinates":[28.25,-6.25]},"properties":{"n":996,"frp":15861.1,"frp_max_bin":2998.1,"bins":[[26,35,580.3],[25,54,1027.1],[23,3,1.6],[22,6,116.6],[21,50,460.5],[20,3,7.0],[19,7,7.7],[18,24,372.1],[17,165,2033.5],[15,2,2.2],[14,55,326.1],[13,129,1850.2],[11,3,4.5],[10,19,249.0],[9,82,1138.4],[6,64,950.0],[5,71,2575.4],[4,5,5.5],[3,11,13.9],[2,65,1141.5],[1,143,2998.1]]}},{"type":"Feature","geometry":{"type":"Point","coordinates":[74.75,49.25]},"properties":{"n":583,"frp":15621.6,"frp_max_bin":9669.7,"bins":[[25,8,334.3],[23,5,4.1],[21,96,3728.2],[19,28,63.3],[17,291,9669.7],[13,38,538.0],[11,18,25.5],[9,30,535.6],[7,27,74.9],[5,5,129.0],[1,37,519.1]]}},{"type":"Feature","geometry":{"type":"Point","coordinates":[28.75,-4.25]},"properties":{"n":1648,"frp":15571.4,"frp_max_bin":2404.6,"bins":[[26,62,620.9],[25,85,930.7],[24,3,11.4],[23,15,47.2],[22,27,442.3],[21,145,1605.7],[20,2,3.2],[19,12,17.4],[18,67,587.4],[17,90,852.6],[16,4,4.2],[15,21,27.0],[14,116,1075.5],[13,107,895.0],[11,62,100.0],[10,40,227.2],[9,109,1033.2],[7,50,102.0],[6,195,2088.6],[5,193,2404.6],[3,25,46.0],[2,54,897.1],[1,164,1552.0]]}},{"type":"Feature","geometry":{"type":"Point","coordinates":[15.75,-7.25]},"properties":{"n":1248,"frp":15411.5,"frp_max_bin":7116.1,"bins":[[26,162,1780.6],[24,1,0.8],[22,76,640.2],[21,4,49.9],[18,86,831.2],[14,85,754.7],[13,61,431.1],[12,1,1.0],[10,201,2715.6],[9,72,1090.4],[6,499,7116.1]]}},{"type":"Feature","geometry":{"type":"Point","coordinates":[28.25,-5.75]},"properties":{"n":1225,"frp":15366.7,"frp_max_bin":3312.8,"bins":[[26,16,173.2],[25,14,117.9],[23,12,10.4],[22,24,277.8],[21,95,1627.8],[19,5,9.3],[18,52,487.4],[17,128,1642.7],[15,7,8.9],[14,56,316.7],[13,95,788.4],[11,10,9.6],[10,27,299.3],[9,91,1435.9],[8,5,5.4],[7,15,14.4],[6,139,1809.9],[5,132,2156.4],[4,9,10.9],[3,27,33.3],[2,72,818.4],[1,194,3312.8]]}},{"type":"Feature","geometry":{"type":"Point","coordinates":[17.25,-14.75]},"properties":{"n":1276,"frp":15343.4,"frp_max_bin":3088.4,"bins":[[26,155,2638.3],[24,15,24.7],[23,6,13.3],[22,228,3017.9],[21,57,770.5],[20,4,10.2],[19,2,3.5],[18,124,1388.1],[17,68,511.4],[16,9,15.0],[15,4,5.6],[14,76,896.7],[13,25,257.5],[10,19,105.0],[9,16,274.9],[8,53,52.7],[7,28,29.6],[6,198,3088.4],[5,77,1261.5],[4,6,13.3],[3,2,3.4],[2,101,954.8],[0,3,7.4]]}},{"type":"Feature","geometry":{"type":"Point","coordinates":[29.75,-9.25]},"properties":{"n":1458,"frp":15147.1,"frp_max_bin":3068.5,"bins":[[26,31,158.2],[25,64,702.2],[24,5,14.8],[23,9,22.6],[21,70,743.1],[19,14,17.9],[17,128,1495.8],[16,10,69.1],[15,15,35.6],[14,116,1099.3],[13,201,3068.5],[11,177,362.7],[10,79,882.0],[9,113,1660.0],[7,61,93.9],[6,27,325.5],[5,158,1920.3],[3,7,6.2],[2,50,779.2],[1,121,1687.0],[0,2,3.1]]}},{"type":"Feature","geometry":{"type":"Point","coordinates":[14.75,-5.75]},"properties":{"n":1528,"frp":14561.8,"frp_max_bin":5201.3,"bins":[[26,306,2778.6],[22,56,932.2],[18,108,898.9],[16,10,10.4],[14,111,1034.5],[10,178,1465.7],[9,12,94.7],[8,1,5.4],[6,551,5201.3],[2,194,2138.7],[0,1,1.4]]}},{"type":"Feature","geometry":{"type":"Point","coordinates":[14.75,-11.25]},"properties":{"n":888,"frp":14502.9,"frp_max_bin":3689.3,"bins":[[26,134,1652.6],[22,258,3689.3],[18,56,808.3],[17,29,385.8],[10,131,1918.0],[9,45,1945.1],[8,1,3.1],[6,114,2619.9],[5,85,1243.3],[2,35,237.5]]}},{"type":"Feature","geometry":{"type":"Point","coordinates":[17.25,-14.25]},"properties":{"n":1264,"frp":14338.8,"frp_max_bin":3745.0,"bins":[[26,153,1957.2],[24,5,5.5],[23,4,3.5],[22,333,3745.0],[21,64,1373.6],[20,6,5.9],[19,4,3.9],[18,237,2844.2],[17,114,973.2],[16,9,9.9],[15,2,2.3],[14,71,639.9],[13,43,724.0],[10,16,102.6],[9,3,20.5],[6,60,579.9],[5,37,455.0],[4,19,23.8],[3,2,2.8],[2,76,857.9],[0,6,8.1]]}},{"type":"Feature","geometry":{"type":"Point","coordinates":[140.75,-8.25]},"properties":{"n":2199,"frp":14308.9,"frp_max_bin":5250.3,"bins":[[26,48,122.8],[24,166,1003.5],[22,96,177.8],[20,307,3222.6],[18,355,610.2],[16,584,5250.3],[14,78,403.4],[12,59,602.5],[10,70,110.2],[8,84,866.7],[6,52,118.0],[4,150,1150.8],[2,66,198.9],[0,84,471.1]]}},{"type":"Feature","geometry":{"type":"Point","coordinates":[18.75,-15.75]},"properties":{"n":618,"frp":14294.5,"frp_max_bin":3339.9,"bins":[[26,118,3339.9],[24,2,1.4],[22,32,903.6],[21,11,234.8],[18,77,1256.5],[17,75,2262.5],[14,82,2433.1],[13,74,2278.7],[8,3,2.0],[6,12,124.1],[5,1,12.7],[4,3,1.7],[3,2,1.5],[2,90,1059.9],[1,20,365.2],[0,16,16.9]]}},{"type":"Feature","geometry":{"type":"Point","coordinates":[37.75,-15.25]},"properties":{"n":1311,"frp":14283.5,"frp_max_bin":4459.0,"bins":[[25,296,3600.6],[21,245,2758.4],[17,103,911.2],[13,11,95.8],[9,21,196.5],[5,189,2260.5],[3,2,1.6],[1,444,4459.0]]}},{"type":"Feature","geometry":{"type":"Point","coordinates":[-46.25,-10.75]},"properties":{"n":484,"frp":14261.5,"frp_max_bin":8165.8,"bins":[[26,39,775.1],[24,32,39.7],[22,69,2240.8],[20,27,50.5],[18,187,8165.8],[16,25,60.9],[14,79,2796.5],[12,26,132.1]]}},{"type":"Feature","geometry":{"type":"Point","coordinates":[14.75,-7.75]},"properties":{"n":999,"frp":14232.1,"frp_max_bin":6464.6,"bins":[[26,431,6464.6],[22,10,189.0],[18,4,38.0],[14,127,1744.7],[13,13,131.9],[10,277,3858.8],[9,42,780.8],[6,95,1024.3]]}},{"type":"Feature","geometry":{"type":"Point","coordinates":[139.25,-7.75]},"properties":{"n":1831,"frp":14227.2,"frp_max_bin":5278.9,"bins":[[26,7,11.6],[24,205,1375.7],[22,53,78.7],[20,549,5278.9],[18,194,604.9],[16,380,3949.7],[14,25,22.7],[12,56,460.5],[10,18,21.3],[8,160,1314.7],[6,2,2.6],[4,97,714.2],[2,6,6.1],[0,79,385.6]]}},{"type":"Feature","geometry":{"type":"Point","coordinates":[14.75,-7.25]},"properties":{"n":1189,"frp":14066.3,"frp_max_bin":4468.8,"bins":[[26,347,4468.8],[22,53,455.8],[18,147,1778.8],[14,69,587.9],[13,30,384.4],[10,311,3452.9],[9,39,516.3],[8,6,34.8],[7,10,24.6],[6,177,2362.1]]}},{"type":"Feature","geometry":{"type":"Point","coordinates":[30.75,-13.25]},"properties":{"n":1791,"frp":13984.4,"frp_max_bin":3046.8,"bins":[[26,224,1665.5],[25,389,2828.2],[24,2,2.0],[23,4,6.2],[22,26,304.0],[21,390,3046.8],[17,207,1356.0],[15,2,1.9],[14,22,151.1],[13,35,302.6],[10,52,436.0],[9,117,1001.1],[8,2,2.2],[7,4,5.3],[6,18,174.7],[5,154,1414.6],[2,34,350.8],[1,109,935.2]]}},{"type":"Feature","geometry":{"type":"Point","coordinates":[31.75,-9.75]},"properties":{"n":1366,"frp":13982.1,"frp_max_bin":3197.2,"bins":[[26,48,497.3],[25,141,1046.6],[24,2,1.5],[23,2,2.2],[21,273,3197.2],[17,146,1721.6],[15,2,0.7],[14,20,197.4],[13,63,575.7],[11,1,0.2],[10,68,526.6],[9,159,1254.8],[7,4,20.6],[5,218,1858.8],[4,1,0.9],[3,6,50.0],[2,40,651.5],[1,172,2378.4]]}},{"type":"Feature","geometry":{"type":"Point","coordinates":[16.25,-6.75]},"properties":{"n":1054,"frp":13926.2,"frp_max_bin":4258.7,"bins":[[26,340,3880.4],[22,165,1947.4],[21,18,167.2],[18,43,419.4],[17,1,7.1],[16,1,1.4],[14,47,533.8],[13,15,130.1],[10,151,2078.8],[9,25,501.4],[6,247,4258.7],[0,1,0.5]]}},{"type":"Feature","geometry":{"type":"Point","coordinates":[32.25,6.25]},"properties":{"n":646,"frp":13916.3,"frp_max_bin":4295.1,"bins":[[25,136,4295.1],[24,33,296.9],[23,131,2944.1],[21,108,1603.3],[19,13,17.6],[17,1,12.0],[9,25,730.4],[6,27,896.0],[5,73,1656.2],[4,4,14.8],[3,46,656.7],[1,49,793.2]]}},{"type":"Feature","geometry":{"type":"Point","coordinates":[-105.25,41.75]},"properties":{"n":558,"frp":13781.8,"frp_max_bin":5278.8,"bins":[[25,44,374.1],[23,72,2145.6],[21,30,134.3],[19,108,5149.4],[17,91,415.7],[15,1,14.2],[13,97,197.4],[11,96,5278.8],[9,19,72.3]]}},{"type":"Feature","geometry":{"type":"Point","coordinates":[110.25,-1.25]},"properties":{"n":2252,"frp":13780.4,"frp_max_bin":1890.5,"bins":[[27,194,385.8],[26,13,32.1],[25,107,932.8],[24,52,851.0],[23,172,517.7],[22,24,40.4],[21,192,1890.5],[20,42,512.4],[19,28,65.2],[18,234,487.5],[17,52,495.6],[16,5,77.3],[15,42,94.5],[14,85,197.1],[13,80,754.8],[12,19,140.0],[11,109,240.9],[10,49,172.2],[9,2,13.8],[8,10,194.9],[7,78,367.4],[6,78,193.0],[5,39,560.1],[4,31,538.6],[3,286,841.9],[2,44,116.5],[1,115,1507.5],[0,70,1559.3]]}},{"type":"Feature","geometry":{"type":"Point","coordinates":[14.75,-6.25]},"properties":{"n":1018,"frp":13753.8,"frp_max_bin":4637.5,"bins":[[26,290,4637.5],[24,1,2.6],[22,17,236.4],[20,2,1.8],[19,1,1.8],[18,129,1579.1],[14,120,1767.3],[13,19,274.9],[10,89,811.0],[9,11,247.2],[8,2,26.4],[7,2,4.8],[6,279,3611.2],[2,55,551.2],[0,1,0.7]]}},{"type":"Feature","geometry":{"type":"Point","coordinates":[13.75,-5.25]},"properties":{"n":1296,"frp":13739.4,"frp_max_bin":5616.9,"bins":[[26,220,2426.1],[20,1,2.5],[19,3,3.6],[18,253,2297.1],[14,72,847.6],[10,53,354.4],[9,4,39.8],[8,8,21.7],[6,444,5616.9],[4,12,10.0],[3,6,9.4],[2,220,2110.3]]}},{"type":"Feature","geometry":{"type":"Point","coordinates":[28.75,-10.25]},"properties":{"n":1527,"frp":13646.0,"frp_max_bin":2095.3,"bins":[[26,107,1366.7],[25,140,1815.2],[24,2,4.4],[23,3,3.5],[22,5,81.0],[21,87,786.1],[20,2,3.4],[19,16,33.0],[17,149,1628.0],[16,2,3.4],[15,16,11.9],[14,96,739.5],[13,190,1899.9],[11,164,271.9],[10,179,2095.3],[9,173,1914.6],[7,76,106.8],[6,24,233.1],[5,73,589.0],[4,9,18.0],[3,9,25.8],[1,3,12.9],[0,2,2.5]]}},{"type":"Feature","geometry":{"type":"Point","coordinates":[25.25,-9.25]},"properties":{"n":1011,"frp":13388.6,"frp_max_bin":2930.8,"bins":[[26,134,1646.1],[25,74,590.6],[24,5,4.2],[21,5,150.4],[20,9,14.1],[19,19,31.4],[18,8,98.5],[17,151,2930.8],[16,9,13.8],[15,13,13.3],[14,44,548.1],[13,96,910.2],[12,2,7.7],[11,9,7.8],[10,122,1868.8],[9,71,883.9],[7,12,10.7],[6,140,2320.5],[5,62,943.7],[4,3,1.7],[2,12,279.4],[1,9,107.6],[0,2,5.3]]}},{"type":"Feature","geometry":{"type":"Point","coordinates":[31.75,-10.25]},"properties":{"n":1281,"frp":13307.5,"frp_max_bin":2768.7,"bins":[[26,50,609.9],[25,154,1497.0],[21,165,1323.8],[17,213,2100.4],[15,1,2.0],[14,4,35.5],[13,27,232.8],[11,6,6.3],[10,84,955.0],[9,197,2242.0],[7,12,17.0],[5,227,2768.7],[2,22,319.9],[1,119,1197.2]]}},{"type":"Feature","geometry":{"type":"Point","coordinates":[18.75,42.75]},"properties":{"n":1879,"frp":13272.7,"frp_max_bin":2562.6,"bins":[[21,7,33.0],[20,69,124.0],[19,6,20.7],[18,14,101.1],[17,49,416.3],[16,65,95.7],[15,14,30.8],[14,35,275.9],[13,40,229.5],[12,320,623.2],[10,102,1971.5],[9,177,2562.6],[8,261,857.9],[7,52,158.7],[6,73,1486.3],[5,121,2001.9],[4,175,656.1],[3,32,145.9],[2,25,342.6],[1,74,748.2],[0,168,390.6]]}},{"type":"Feature","geometry":{"type":"Point","coordinates":[113.25,-2.25]},"properties":{"n":1523,"frp":13185.1,"frp_max_bin":2559.0,"bins":[[27,104,472.7],[26,81,385.7],[25,25,178.5],[24,32,874.5],[23,105,525.5],[22,195,1056.4],[21,93,1467.2],[20,1,11.9],[19,7,62.8],[18,106,314.4],[16,21,147.8],[15,34,94.3],[14,55,159.3],[13,11,326.1],[12,7,83.3],[11,63,374.7],[10,56,226.5],[9,2,17.4],[6,56,218.4],[5,7,90.3],[3,211,2077.1],[2,208,2559.0],[1,39,802.0],[0,4,659.3]]}},{"type":"Feature","geometry":{"type":"Point","coordinates":[16.75,-14.75]},"properties":{"n":1210,"frp":13164.7,"frp_max_bin":4353.5,"bins":[[26,125,1251.5],[24,1,0.5],[23,4,3.5],[22,200,1742.5],[21,34,443.1],[20,5,6.7],[19,2,2.4],[18,63,785.1],[17,51,247.0],[16,7,6.8],[14,36,398.1],[13,24,242.3],[10,42,325.6],[9,18,250.3],[8,6,8.2],[6,331,4353.5],[5,122,2104.7],[4,8,29.4],[3,3,8.5],[2,124,948.5],[0,4,6.4]]}},{"type":"Feature","geometry":{"type":"Point","coordinates":[38.25,-15.25]},"properties":{"n":1231,"frp":13127.5,"frp_max_bin":4868.9,"bins":[[25,227,2274.9],[23,1,4.7],[21,238,2336.2],[17,77,796.8],[13,2,10.2],[11,1,0.4],[9,60,439.9],[7,1,2.3],[5,200,2392.0],[3,1,1.2],[1,423,4868.9]]}},{"type":"Feature","geometry":{"type":"Point","coordinates":[14.25,-3.75]},"properties":{"n":1092,"frp":13106.0,"frp_max_bin":6356.4,"bins":[[26,132,1788.0],[24,1,3.7],[22,43,433.8],[20,8,13.1],[19,4,4.4],[18,198,2126.8],[16,3,3.3],[14,18,178.7],[10,139,1884.0],[9,15,203.4],[8,26,107.6],[7,1,0.9],[6,501,6356.4],[4,1,0.7],[3,1,0.7],[0,1,0.6]]}},{"type":"Feature","geometry":{"type":"Point","coordinates":[-122.75,61.25]},"properties":{"n":748,"frp":13087.8,"frp_max_bin":11002.5,"bins":[[19,2,5.9],[15,70,511.0],[13,130,411.6],[11,290,11002.5],[10,23,64.5],[9,105,285.1],[7,40,467.2],[6,5,11.7],[5,52,129.5],[3,23,184.5],[1,8,14.3]]}},{"type":"Feature","geometry":{"type":"Point","coordinates":[57.25,51.25]},"properties":{"n":1251,"frp":13086.0,"frp_max_bin":4567.1,"bins":[[11,170,919.7],[9,189,4118.5],[7,451,1467.9],[5,191,4567.1],[4,28,155.6],[3,222,1857.2]]}},{"type":"Feature","geometry":{"type":"Point","coordinates":[47.25,30.75]},"properties":{"n":1027,"frp":13076.1,"frp_max_bin":1813.1,"bins":[[25,26,1011.4],[23,175,1813.1],[21,31,885.8],[19,146,1423.4],[17,6,175.6],[15,64,816.3],[13,32,903.8],[11,135,1263.6],[9,48,857.7],[7,142,1035.1],[5,59,900.4],[3,127,1159.5],[1,36,830.5]]}},{"type":"Feature","geometry":{"type":"Point","coordinates":[20.75,-16.75]},"properties":{"n":584,"frp":13012.6,"frp_max_bin":6659.7,"bins":[[26,96,1236.8],[24,6,3.5],[23,1,0.9],[22,93,1911.1],[21,78,1384.6],[20,35,42.6],[19,47,64.8],[18,118,6659.7],[17,41,811.8],[16,2,2.3],[14,15,345.9],[13,8,128.1],[2,24,297.2],[1,12,115.6],[0,8,7.7]]}},{"type":"Feature","geometry":{"type":"Point","coordinates":[114.25,-2.75]},"properties":{"n":2007,"frp":13009.6,"frp_max_bin":3054.9,"bins":[[27,177,850.8],[26,159,517.5],[25,5,70.9],[24,56,735.0],[23,141,684.9],[22,296,1205.4],[21,243,3054.9],[20,56,1214.2],[18,321,1303.5],[17,18,90.6],[16,87,873.8],[14,57,221.0],[12,32,251.1],[11,78,392.0],[10,83,414.6],[9,1,7.1],[8,37,344.7],[7,29,62.8],[6,50,134.2],[5,7,77.5],[3,2,4.9],[2,19,36.0],[1,51,400.7],[0,2,61.4]]}},{"type":"Feature","geometry":{"type":"Point","coordinates":[19.75,-19.25]},"properties":{"n":557,"frp":12944.4,"frp_max_bin":5426.2,"bins":[[26,59,1138.0],[22,27,290.8],[21,9,130.1],[14,4,45.6],[13,3,35.8],[10,10,142.7],[9,9,60.3],[8,35,54.7],[7,58,118.7],[6,134,5426.2],[5,49,910.7],[4,25,61.7],[3,15,101.6],[2,104,4083.2],[1,15,342.7],[0,1,1.5]]}},{"type":"Feature","geometry":{"type":"Point","coordinates":[14.25,-5.75]},"properties":{"n":1325,"frp":12934.7,"frp_max_bin":3714.4,"bins":[[26,266,2599.5],[22,14,178.8],[20,2,1.2],[18,146,1589.7],[14,147,1889.9],[10,61,452.7],[9,5,77.6],[8,2,3.8],[6,410,3714.4],[4,5,4.7],[2,266,2421.3],[0,1,0.9]]}},{"type":"Feature","geometry":{"type":"Point","coordinates":[140.25,-8.25]},"properties":{"n":1647,"frp":12873.1,"frp_max_bin":4102.4,"bins":[[26,4,5.7],[24,104,788.3],[22,67,87.1],[20,198,2093.0],[18,151,376.4],[16,353,4102.4],[14,49,153.4],[12,71,788.4],[10,124,285.7],[8,156,1766.5],[6,26,54.0],[4,193,1655.9],[2,50,111.3],[0,101,604.7]]}},{"type":"Feature","geometry":{"type":"Point","coordinates":[14.75,-15.75]},"properties":{"n":549,"frp":12828.2,"frp_max_bin":5896.0,"bins":[[26,2,11.5],[22,4,71.2],[10,90,1997.0],[9,5,56.0],[8,50,211.3],[7,29,154.6],[6,176,5896.0],[5,123,4094.4],[4,45,130.8],[3,13,40.1],[2,12,165.2]]}},{"type":"Feature","geometry":{"type":"Point","coordinates":[14.75,-10.75]},"properties":{"n":597,"frp":12811.4,"frp_max_bin":5004.2,"bins":[[26,133,1903.2],[22,4,111.1],[18,21,137.1],[17,9,66.0],[10,186,5004.2],[9,28,751.9],[6,173,4321.6],[5,6,38.0],[2,37,478.2]]}},{"type":"Feature","geometry":{"type":"Point","coordinates":[17.25,-4.75]},"properties":{"n":1338,"frp":12760.1,"frp_max_bin":6107.7,"bins":[[26,573,6107.7],[18,73,702.4],[17,2,14.7],[14,2,11.0],[10,2,13.7],[6,503,4417.5],[2,168,1436.5],[1,6,46.2],[0,9,10.3]]}},{"type":"Feature","geometry":{"type":"Point","coordinates":[34.25,-7.75]},"properties":{"n":955,"frp":12589.3,"frp_max_bin":3645.2,"bins":[[25,42,913.3],[24,2,2.6],[23,7,9.7],[21,16,204.8],[19,11,17.2],[17,4,50.4],[15,8,6.8],[13,69,453.5],[11,33,41.4],[10,10,114.1],[9,94,1002.3],[8,4,5.2],[7,59,83.3],[6,57,2761.4],[5,168,3164.9],[3,88,113.2],[1,283,3645.2]]}},{"type":"Feature","geometry":{"type":"Point","coordinates":[20.25,-16.75]},"properties":{"n":805,"frp":12573.9,"frp_max_bin":3006.4,"bins":[[26,104,1312.0],[24,10,13.3],[23,4,10.6],[22,102,2669.8],[21,73,771.5],[20,1,0.9],[18,12,172.0],[17,4,64.5],[16,5,6.0],[15,4,3.2],[14,25,253.1],[13,17,775.1],[10,17,160.9],[9,5,21.5],[7,1,1.6],[6,66,1424.8],[5,25,717.5],[4,1,0.5],[3,4,6.8],[2,213,3006.4],[1,82,1117.0],[0,30,65.0]]}},{"type":"Feature","geometry":{"type":"Point","coordinates":[15.25,-6.75]},"properties":{"n":1012,"frp":12479.6,"frp_max_bin":3304.6,"bins":[[26,227,2489.1],[22,82,786.9],[18,175,2359.7],[14,24,343.9],[13,12,88.7],[10,221,2740.1],[9,28,362.2],[8,2,1.4],[7,2,1.8],[6,237,3304.6],[4,2,1.1]]}},{"type":"Feature","geometry":{"type":"Point","coordinates":[31.25,-9.75]},"properties":{"n":1236,"frp":12400.7,"frp_max_bin":2532.1,"bins":[[26,45,446.5],[25,135,1758.2],[23,2,1.9],[21,109,1202.9],[19,10,11.2],[17,91,752.0],[14,14,110.4],[13,70,724.1],[11,2,1.5],[10,124,1049.4],[9,241,2196.7],[7,8,9.3],[6,2,20.5],[5,225,2532.1],[4,2,4.2],[3,4,4.2],[2,27,349.9],[1,125,1225.7]]}},{"type":"Feature","geometry":{"type":"Point","coordinates":[19.25,-18.75]},"properties":{"n":641,"frp":12373.0,"frp_max_bin":2842.0,"bins":[[26,91,1713.1],[22,117,2842.0],[21,63,2132.0],[20,6,3.8],[19,7,6.3],[18,15,121.9],[17,57,1484.7],[16,22,39.8],[15,10,10.3],[14,45,959.8],[13,30,611.6],[12,7,16.2],[11,24,36.6],[10,53,1137.5],[9,15,681.4],[8,43,303.8],[7,36,272.3]]}},{"type":"Feature","geometry":{"type":"Point","coordinates":[13.75,-6.75]},"properties":{"n":848,"frp":12340.8,"frp_max_bin":3204.1,"bins":[[26,207,3204.1],[22,2,20.2],[20,5,3.8],[19,1,2.2],[18,77,1745.3],[16,5,7.2],[14,80,1672.7],[13,19,200.7],[10,103,1300.3],[9,2,25.5],[6,180,1882.6],[4,3,2.9],[2,164,2273.3]]}},{"type":"Feature","geometry":{"type":"Point","coordinates":[14.75,-5.25]},"properties":{"n":1382,"frp":12284.6,"frp_max_bin":4744.5,"bins":[[26,142,1494.1],[22,5,56.6],[20,5,3.7],[19,1,0.5],[18,183,1539.1],[16,2,1.5],[14,116,1048.2],[10,138,1218.1],[9,15,190.1],[8,3,6.2],[6,517,4744.5],[4,8,40.3],[3,9,22.0],[2,238,1919.7]]}},{"type":"Feature","geometry":{"type":"Point","coordinates":[15.75,-6.25]},"properties":{"n":798,"frp":12252.9,"frp_max_bin":4237.0,"bins":[[26,267,4237.0],[24,2,2.3],[22,25,299.7],[21,1,5.9],[18,71,1044.7],[16,1,1.0],[14,64,979.5],[13,3,19.8],[10,126,1487.6],[9,62,1243.6],[8,5,19.4],[7,2,1.9],[6,167,2908.8],[0,2,1.6]]}},{"type":"Feature","geometry":{"type":"Point","coordinates":[110.25,-0.75]},"properties":{"n":1448,"frp":12244.4,"frp_max_bin":2949.9,"bins":[[27,36,60.1],[25,53,450.6],[24,20,304.8],[23,128,455.8],[22,93,412.1],[21,184,2949.9],[20,50,852.5],[19,4,4.8],[18,189,572.0],[17,87,1347.0],[16,18,667.1],[13,74,863.6],[12,37,327.3],[11,148,561.8],[10,38,125.4],[9,13,107.3],[8,12,74.4],[7,15,82.4],[5,28,224.5],[4,14,175.6],[3,66,189.4],[2,27,30.7],[1,72,729.3],[0,42,675.9]]}},{"type":"Feature","geometry":{"type":"Point","coordinates":[14.75,-10.25]},"properties":{"n":704,"frp":12208.2,"frp_max_bin":5314.8,"bins":[[26,11,120.3],[22,1,6.1],[18,2,13.1],[17,11,309.5],[10,275,5314.8],[9,23,638.2],[8,1,0.9],[6,221,2380.7],[2,159,3424.4]]}},{"type":"Feature","geometry":{"type":"Point","coordinates":[14.25,-6.75]},"properties":{"n":840,"frp":12155.4,"frp_max_bin":3438.4,"bins":[[26,267,3438.4],[24,2,6.8],[23,4,36.8],[22,19,430.1],[18,108,1918.6],[16,6,28.4],[14,65,1521.0],[13,15,175.4],[10,106,1310.0],[9,2,19.6],[6,200,2704.9],[4,4,3.3],[2,42,562.0]]}},{"type":"Feature","geometry":{"type":"Point","coordinates":[16.75,-8.75]},"properties":{"n":458,"frp":12127.3,"frp_max_bin":6125.5,"bins":[[26,24,140.9],[18,14,102.1],[17,9,118.8],[16,1,0.7],[14,21,357.1],[13,16,90.1],[12,1,0.6],[11,1,1.2],[10,222,6125.5],[9,65,2130.4],[6,78,2973.4],[2,6,86.5]]}},{"type":"Feature","geometry":{"type":"Point","coordinates":[30.75,-4.25]},"properties":{"n":931,"frp":11986.4,"frp_max_bin":3279.2,"bins":[[26,1,8.4],[25,22,217.9],[21,9,74.6],[18,4,31.6],[17,18,89.8],[15,11,7.4],[14,44,726.8],[13,124,2078.1],[11,49,101.1],[10,71,862.7],[9,132,2343.7],[7,11,29.5],[6,54,601.8],[5,79,837.8],[4,2,3.0],[3,41,81.0],[2,33,607.3],[1,222,3279.2],[0,4,4.5]]}},{"type":"Feature","geometry":{"type":"Point","coordinates":[130.75,-15.75]},"properties":{"n":1182,"frp":11977.9,"frp_max_bin":3929.2,"bins":[[26,26,53.6],[24,28,308.2],[22,2,6.2],[20,33,338.5],[18,64,231.5],[16,102,1102.3],[14,121,437.6],[12,145,1842.4],[10,189,540.6],[8,220,3929.2],[6,35,66.7],[4,102,1944.9],[2,25,36.7],[0,90,1139.5]]}},{"type":"Feature","geometry":{"type":"Point","coordinates":[111.25,-2.75]},"properties":{"n":1360,"frp":11961.3,"frp_max_bin":1796.0,"bins":[[27,30,80.3],[26,13,53.1],[25,81,989.3],[24,47,1796.0],[23,39,84.2],[22,42,99.4],[21,140,1029.9],[20,43,383.3],[19,2,4.6],[18,39,62.5],[17,77,640.6],[16,73,662.0],[15,57,133.8],[14,71,183.5],[13,77,695.7],[12,18,103.5],[11,26,55.7],[10,25,64.7],[9,57,1343.8],[8,83,838.0],[7,35,58.9],[6,59,113.4],[5,30,523.8],[4,11,111.5],[3,59,172.0],[2,41,166.1],[1,59,1021.7],[0,26,490.0]]}},{"type":"Feature","geometry":{"type":"Point","coordinates":[23.75,-9.75]},"properties":{"n":897,"frp":11826.4,"frp_max_bin":2117.8,"bins":[[26,58,833.8],[25,33,473.8],[24,1,0.8],[23,2,2.0],[22,37,447.4],[21,48,564.2],[20,1,1.2],[19,1,0.9],[18,23,274.8],[17,121,1542.0],[16,6,6.5],[15,3,2.9],[14,51,835.1],[13,109,2117.8],[11,5,5.0],[10,120,946.8],[9,44,544.2],[7,4,8.5],[6,49,505.1],[5,57,1388.8],[2,88,954.7],[1,36,370.1]]}},{"type":"Feature","geometry":{"type":"Point","coordinates":[35.75,-16.75]},"properties":{"n":1046,"frp":11817.5,"frp_max_bin":4283.2,"bins":[[26,46,827.2],[25,251,2865.5],[23,18,24.4],[21,147,1828.1],[17,22,205.2],[7,2,1.7],[5,139,1727.3],[3,28,54.9],[1,393,4283.2]]}},{"type":"Feature","geometry":{"type":"Point","coordinates":[-50.25,-2.75]},"properties":{"n":917,"frp":11717.9,"frp_max_bin":4607.5,"bins":[[26,103,1356.0],[24,237,4607.5],[22,72,3196.1],[20,50,59.5],[18,19,132.8],[16,84,180.6],[14,11,174.3],[12,93,391.7],[10,12,171.0],[8,39,70.9],[6,23,199.7],[4,94,333.3],[2,23,756.9],[0,57,87.6]]}},{"type":"Feature","geometry":{"type":"Point","coordinates":[25.25,-9.75]},"properties":{"n":516,"frp":11702.6,"frp_max_bin":5277.6,"bins":[[26,54,1177.0],[25,43,575.5],[24,1,2.8],[19,4,8.5],[18,22,2592.0],[17,133,5277.6],[14,40,221.5],[13,83,930.0],[11,6,7.4],[10,21,103.1],[9,30,232.0],[6,13,131.0],[5,30,192.8],[4,1,1.0],[2,19,155.6],[1,16,94.7]]}},{"type":"Feature","geometry":{"type":"Point","coordinates":[110.25,-2.25]},"properties":{"n":1465,"frp":11701.7,"frp_max_bin":2753.6,"bins":[[27,131,261.8],[26,14,29.4],[25,136,1054.3],[24,51,661.6],[23,102,300.4],[22,61,263.0],[21,196,1771.0],[20,14,196.4],[19,17,33.9],[18,85,135.5],[17,78,590.7],[16,11,96.0],[15,62,86.7],[14,72,172.3],[13,12,137.6],[12,16,154.4],[11,6,11.4],[10,2,5.0],[9,4,21.0],[7,1,1.5],[6,5,7.3],[5,31,474.7],[4,8,79.9],[3,69,158.8],[1,193,2753.6],[0,88,2243.5]]}},{"type":"Feature","geometry":{"type":"Point","coordinates":[17.75,-12.75]},"properties":{"n":807,"frp":11680.0,"frp_max_bin":4098.0,"bins":[[26,156,2147.3],[24,12,68.5],[23,3,4.8],[22,255,4098.0],[21,51,1008.7],[20,9,6.0],[19,6,9.4],[18,49,381.1],[17,30,438.1],[16,1,0.3],[14,33,555.6],[13,27,286.9],[10,47,652.5],[9,15,257.0],[5,2,55.0],[4,1,0.5],[2,97,1488.7],[1,12,219.8],[0,1,1.8]]}},{"type":"Feature","geometry":{"type":"Point","coordinates":[25.75,-8.25]},"properties":{"n":507,"frp":11613.8,"frp_max_bin":2879.5,"bins":[[26,4,51.5],[25,4,73.1],[22,8,101.1],[21,32,882.1],[18,1,113.2],[17,21,296.1],[16,6,22.5],[15,3,8.0],[14,19,129.5],[13,72,1778.2],[12,1,2.2],[11,15,19.5],[10,92,2079.4],[9,72,2556.7],[7,2,1.3],[6,114,2879.5],[5,40,613.5],[2,1,6.2]]}},{"type":"Feature","geometry":{"type":"Point","coordinates":[152.25,-30.25]},"properties":{"n":2012,"frp":11583.3,"frp_max_bin":3980.6,"bins":[[26,7,8.6],[24,22,108.6],[22,12,15.1],[20,7,61.2],[18,84,144.9],[16,134,1137.6],[14,228,424.4],[12,324,2728.5],[10,93,141.6],[8,123,758.3],[6,142,189.4],[4,199,1370.4],[2,292,514.1],[0,345,3980.6]]}},{"type":"Feature","geometry":{"type":"Point","coordinates":[17.25,-3.75]},"properties":{"n":1057,"frp":11572.1,"frp_max_bin":5250.4,"bins":[[26,499,5250.4],[24,2,1.2],[22,20,284.8],[21,4,41.1],[20,4,2.6],[18,131,2223.0],[17,16,124.0],[6,203,1715.2],[2,152,1750.2],[1,17,148.9],[0,9,30.5]]}},{"type":"Feature","geometry":{"type":"Point","coordinates":[104.25,-3.25]},"properties":{"n":1535,"frp":11525.2,"frp_max_bin":1754.5,"bins":[[27,58,246.0],[25,97,1754.5],[24,48,835.7],[23,102,270.2],[22,9,64.5],[21,55,888.2],[19,121,368.9],[18,78,175.3],[17,7,40.0],[16,22,242.8],[15,111,328.1],[14,43,111.9],[13,38,346.0],[11,156,466.8],[10,26,82.7],[9,80,928.6],[8,21,482.9],[7,83,249.4],[6,48,228.1],[5,77,1498.2],[4,11,154.7],[3,174,763.2],[1,70,998.6]]}},{"type":"Feature","geometry":{"type":"Point","coordinates":[-45.75,-10.75]},"properties":{"n":434,"frp":11520.6,"frp_max_bin":5913.5,"bins":[[26,4,110.6],[24,3,2.8],[22,9,125.5],[20,53,527.3],[18,79,1485.6],[16,56,131.7],[14,94,5913.5],[12,23,46.8],[10,91,2300.9],[8,2,3.6],[6,8,837.6],[0,12,34.8]]}},{"type":"Feature","geometry":{"type":"Point","coordinates":[13.75,-6.25]},"properties":{"n":952,"frp":11429.2,"frp_max_bin":3841.0,"bins":[[26,183,2027.5],[22,15,168.3],[20,1,0.6],[19,1,0.6],[18,135,1600.5],[16,8,16.9],[14,60,888.8],[13,5,45.4],[10,59,631.3],[9,6,75.8],[7,3,3.3],[6,312,3841.0],[4,9,9.5],[2,155,2119.6]]}},{"type":"Feature","geometry":{"type":"Point","coordinates":[-54.75,-12.75]},"properties":{"n":301,"frp":11406.8,"frp_max_bin":9890.2,"bins":[[27,80,1516.6],[26,221,9890.2]]}},{"type":"Feature","geometry":{"type":"Point","coordinates":[20.25,-17.25]},"properties":{"n":814,"frp":11351.3,"frp_max_bin":2500.2,"bins":[[26,94,973.9],[23,1,0.9],[22,25,269.7],[21,68,557.3],[18,16,334.1],[17,18,186.4],[16,3,4.3],[14,35,1159.8],[13,13,187.7],[12,3,3.6],[11,7,8.8],[10,25,205.8],[9,19,124.0],[8,20,19.8],[7,43,53.7],[6,151,2500.2],[5,73,2254.5],[4,38,102.5],[3,19,488.6],[2,96,1447.1],[1,30,412.4],[0,17,56.1]]}},{"type":"Feature","geometry":{"type":"Point","coordinates":[36.25,-16.75]},"properties":{"n":1057,"frp":11309.7,"frp_max_bin":4737.5,"bins":[[26,81,1190.8],[25,409,4737.5],[23,20,20.3],[21,219,2112.2],[19,1,0.5],[17,33,312.8],[7,5,5.9],[5,122,1282.5],[3,6,7.8],[1,161,1639.6]]}},{"type":"Feature","geometry":{"type":"Point","coordinates":[36.25,-14.25]},"properties":{"n":1297,"frp":11195.6,"frp_max_bin":4420.7,"bins":[[26,6,53.4],[25,71,778.8],[23,16,12.6],[21,94,765.4],[19,2,1.4],[17,93,802.4],[13,4,32.4],[11,3,3.1],[10,1,5.8],[9,61,571.3],[7,142,135.5],[5,386,4420.7],[3,40,51.6],[1,378,3561.2]]}},{"type":"Feature","geometry":{"type":"Point","coordinates":[145.75,-19.75]},"properties":{"n":515,"frp":11150.2,"frp_max_bin":6206.3,"bins":[[26,1,0.7],[10,11,10.6],[8,225,6206.3],[6,106,479.2],[4,165,4433.1],[2,7,20.3]]}},{"type":"Feature","geometry":{"type":"Point","coordinates":[110.75,-2.75]},"properties":{"n":1410,"frp":11108.3,"frp_max_bin":2239.0,"bins":[[27,67,153.4],[26,21,45.3],[25,123,1214.4],[24,35,502.9],[23,54,352.2],[22,47,269.0],[21,102,624.7],[20,25,214.4],[19,6,11.4],[18,49,75.1],[17,58,480.5],[16,32,227.0],[15,47,97.8],[14,45,95.3],[13,117,1472.0],[12,38,335.1],[11,62,145.2],[10,35,98.2],[9,19,160.2],[8,13,184.4],[7,18,44.9],[6,50,146.1],[5,51,408.8],[4,9,91.1],[3,43,124.5],[2,26,58.9],[1,156,2239.0],[0,62,1236.7]]}},{"type":"Feature","geometry":{"type":"Point","coordinates":[14.25,-4.25]},"properties":{"n":1052,"frp":11071.3,"frp_max_bin":3995.2,"bins":[[26,174,1808.6],[22,42,422.9],[21,1,5.2],[20,6,5.3],[19,4,4.4],[18,252,3472.7],[16,1,0.3],[14,56,507.8],[10,40,319.7],[9,3,29.5],[8,16,35.2],[6,398,3995.2],[4,2,2.9],[2,57,461.6]]}},{"type":"Feature","geometry":{"type":"Point","coordinates":[28.25,-4.75]},"properties":{"n":896,"frp":11047.1,"frp_max_bin":1800.0,"bins":[[26,10,103.7],[25,6,72.6],[24,2,3.6],[23,4,3.2],[22,35,511.7],[21,84,1090.8],[19,14,26.4],[18,88,1176.8],[17,114,1800.0],[16,9,22.4],[15,18,35.4],[14,81,745.9],[13,83,1652.5],[11,37,66.4],[10,56,948.1],[9,35,682.0],[7,31,44.1],[6,56,749.5],[5,50,539.2],[4,2,4.8],[3,15,27.6],[2,23,305.9],[1,43,434.4]]}},{"type":"Feature","geometry":{"type":"Point","coordinates":[17.25,-4.25]},"properties":{"n":1014,"frp":10992.4,"frp_max_bin":5278.5,"bins":[[26,507,5278.5],[22,19,180.8],[21,2,8.1],[20,2,0.8],[18,194,2820.7],[17,14,107.1],[14,10,82.5],[6,123,949.3],[2,126,1532.9],[0,17,31.7]]}},{"type":"Feature","geometry":{"type":"Point","coordinates":[16.25,-13.75]},"properties":{"n":987,"frp":10982.5,"frp_max_bin":2536.1,"bins":[[26,50,508.1],[24,4,6.6],[23,1,2.2],[22,154,1502.4],[21,41,490.9],[20,3,1.5],[19,3,1.5],[18,95,1268.9],[17,84,1164.4],[16,1,0.8],[14,4,32.3],[13,5,31.3],[10,98,784.5],[9,32,484.4],[8,1,0.7],[6,246,2536.1],[5,90,1337.5],[4,3,1.5],[2,58,817.3],[0,14,9.6]]}},{"type":"Feature","geometry":{"type":"Point","coordinates":[14.75,-6.75]},"properties":{"n":862,"frp":10982.4,"frp_max_bin":3576.3,"bins":[[26,218,3576.3],[22,45,621.0],[20,1,0.5],[19,4,5.2],[18,132,2111.8],[14,39,604.5],[13,31,322.8],[10,122,1128.3],[9,6,84.1],[8,14,35.2],[7,23,53.8],[6,199,2155.7],[4,3,2.9],[2,25,280.5]]}},{"type":"Feature","geometry":{"type":"Point","coordinates":[112.75,-2.75]},"properties":{"n":1623,"frp":10924.2,"frp_max_bin":2201.8,"bins":[[27,106,365.8],[26,62,165.6],[25,47,443.3],[24,42,372.8],[23,81,426.1],[22,177,715.8],[21,226,2201.8],[20,61,1192.2],[19,21,126.7],[18,124,384.6],[17,31,552.5],[16,74,1375.2],[15,1,7.9],[14,35,103.0],[13,25,247.0],[12,14,114.7],[11,80,148.2],[10,57,155.5],[9,6,71.9],[8,20,122.7],[7,26,78.3],[6,60,162.4],[3,73,355.1],[2,68,325.2],[1,70,436.0],[0,36,273.9]]}},{"type":"Feature","geometry":{"type":"Point","coordinates":[26.75,-7.25]},"properties":{"n":384,"frp":10896.9,"frp_max_bin":4445.0,"bins":[[26,14,250.4],[25,6,119.9],[24,7,12.3],[23,7,12.8],[22,25,727.5],[21,12,158.3],[19,1,0.4],[17,27,275.9],[16,1,1.1],[15,2,1.5],[14,56,2687.3],[13,105,4445.0],[11,4,4.3],[10,23,173.3],[9,21,389.0],[6,44,1489.4],[5,10,62.8],[2,6,23.2],[1,13,62.7]]}},{"type":"Feature","geometry":{"type":"Point","coordinates":[15.75,-6.75]},"properties":{"n":614,"frp":10877.7,"frp_max_bin":5329.7,"bins":[[26,107,1141.5],[24,2,1.7],[22,31,352.1],[21,12,254.3],[18,67,1001.6],[14,47,821.7],[13,13,65.1],[10,91,1625.8],[9,23,284.3],[6,221,5329.7]]}},{"type":"Feature","geometry":{"type":"Point","coordinates":[16.25,-14.25]},"properties":{"n":1116,"frp":10861.0,"frp_max_bin":2491.0,"bins":[[26,95,864.8],[24,5,8.9],[23,3,3.5],[22,148,1564.4],[21,21,224.0],[20,15,11.2],[19,13,13.6],[18,63,507.1],[17,72,450.2],[16,8,6.2],[14,68,775.4],[13,33,236.5],[10,71,576.6],[9,8,92.8],[8,1,1.0],[7,1,0.9],[6,264,2491.0],[5,103,1916.8],[4,7,5.3],[2,108,1103.1],[0,9,7.7]]}},{"type":"Feature","geometry":{"type":"Point","coordinates":[139.75,-7.75]},"properties":{"n":1110,"frp":10811.4,"frp_max_bin":2832.9,"bins":[[26,13,25.6],[24,148,2032.4],[22,129,306.9],[20,191,2774.6],[18,165,960.7],[16,189,2832.9],[14,56,146.7],[12,26,339.7],[10,22,70.2],[8,19,161.0],[6,9,24.8],[4,82,770.4],[2,26,82.8],[0,35,282.8]]}},{"type":"Feature","geometry":{"type":"Point","coordinates":[23.75,-9.25]},"properties":{"n":714,"frp":10789.0,"frp_max_bin":3593.1,"bins":[[26,48,581.7],[25,33,450.0],[24,9,23.4],[23,3,66.2],[22,14,171.6],[21,4,29.8],[19,8,16.2],[18,32,714.4],[17,156,3593.1],[16,2,0.8],[15,4,4.3],[14,34,208.3],[13,62,1044.8],[12,6,7.4],[11,25,30.8],[10,129,1333.7],[9,69,1419.6],[6,41,483.2],[5,17,342.8],[2,13,195.9],[1,5,70.9]]}},{"type":"Feature","geometry":{"type":"Point","coordinates":[48.25,30.75]},"properties":{"n":385,"frp":10718.2,"frp_max_bin":1297.3,"bins":[[25,5,297.7],[23,53,823.9],[21,11,676.2],[19,57,1288.5],[17,4,183.8],[15,20,458.5],[13,18,828.2],[11,53,983.9],[9,26,862.9],[7,53,1082.2],[5,25,1297.3],[3,45,1248.2],[1,15,687.0]]}},{"type":"Feature","geometry":{"type":"Point","coordinates":[30.25,-10.25]},"properties":{"n":1044,"frp":10690.4,"frp_max_bin":1724.6,"bins":[[26,56,469.1],[25,103,924.2],[22,2,35.8],[21,73,754.8],[17,149,1622.3],[15,1,1.3],[14,20,151.8],[13,63,585.8],[11,2,1.3],[10,57,369.1],[9,107,1065.1],[7,6,16.3],[6,44,542.2],[5,163,1627.6],[4,1,0.5],[3,3,2.1],[2,45,796.5],[1,149,1724.6]]}},{"type":"Feature","geometry":{"type":"Point","coordinates":[118.75,65.75]},"properties":{"n":1239,"frp":10676.3,"frp_max_bin":5105.0,"bins":[[15,3,5.7],[14,6,13.5],[12,25,114.2],[11,210,820.5],[10,96,283.2],[9,55,656.2],[8,380,5105.0],[7,101,275.6],[6,33,98.6],[5,43,685.7],[4,206,2425.2],[3,68,144.6],[2,6,9.9],[0,7,38.4]]}},{"type":"Feature","geometry":{"type":"Point","coordinates":[21.75,-10.75]},"properties":{"n":558,"frp":10598.3,"frp_max_bin":4598.6,"bins":[[26,29,213.5],[25,15,273.6],[22,17,123.0],[21,49,752.5],[20,7,7.5],[19,12,23.6],[18,9,82.2],[17,40,428.1],[16,5,6.9],[15,7,15.1],[14,76,1905.7],[13,144,4598.6],[12,2,1.9],[11,3,2.2],[10,51,699.5],[9,25,396.1],[2,40,668.5],[1,27,399.8]]}},{"type":"Feature","geometry":{"type":"Point","coordinates":[47.75,-15.25]},"properties":{"n":695,"frp":10590.8,"frp_max_bin":4430.0,"bins":[[25,80,1176.1],[23,30,32.6],[21,50,516.9],[19,28,35.6],[17,133,2269.8],[15,75,192.0],[13,110,4430.0],[11,16,23.7],[9,24,527.6],[7,25,56.3],[5,19,173.8],[3,5,4.2],[1,100,1152.2]]}},{"type":"Feature","geometry":{"type":"Point","coordinates":[36.75,-14.25]},"properties":{"n":1101,"frp":10590.6,"frp_max_bin":3644.3,"bins":[[25,40,335.2],[23,5,3.0],[21,147,1364.3],[17,128,1151.4],[13,25,225.9],[9,90,915.6],[7,23,18.1],[5,351,3644.3],[3,11,15.1],[1,281,2917.8]]}},{"type":"Feature","geometry":{"type":"Point","coordinates":[16.25,-7.75]},"properties":{"n":685,"frp":10582.9,"frp_max_bin":2781.2,"bins":[[26,122,1412.1],[22,79,932.8],[21,2,17.6],[18,31,345.8],[17,1,10.3],[16,1,0.6],[14,9,94.6],[13,7,100.2],[10,191,2781.2],[9,60,2424.9],[6,177,2460.1],[4,1,0.4],[0,4,2.4]]}},{"type":"Feature","geometry":{"type":"Point","coordinates":[28.75,-6.25]},"properties":{"n":620,"frp":10568.5,"frp_max_bin":3195.2,"bins":[[26,60,661.8],[25,74,996.9],[23,3,7.5],[21,25,238.1],[18,24,368.5],[17,82,947.0],[16,2,4.1],[15,3,2.7],[14,55,819.9],[13,91,3195.2],[11,1,1.4],[10,11,114.4],[9,48,669.7],[8,1,1.2],[7,4,8.2],[6,24,206.3],[5,27,255.7],[3,1,0.6],[2,22,607.9],[1,62,1461.6]]}},{"type":"Feature","geometry":{"type":"Point","coordinates":[31.25,-9.25]},"properties":{"n":1030,"frp":10487.1,"frp_max_bin":2042.4,"bins":[[26,9,71.0],[25,64,786.1],[21,39,365.2],[19,4,2.9],[17,55,565.1],[15,7,11.6],[14,31,366.8],[13,118,1142.2],[11,31,38.2],[10,63,547.4],[9,150,1319.5],[7,22,23.2],[6,11,304.2],[5,172,2042.4],[4,2,0.9],[3,5,4.4],[2,54,880.9],[1,193,2015.2]]}},{"type":"Feature","geometry":{"type":"Point","coordinates":[16.75,-5.75]},"properties":{"n":954,"frp":10452.2,"frp_max_bin":3157.3,"bins":[[26,220,1855.7],[22,4,22.9],[18,23,420.0],[10,196,2932.2],[9,74,1334.5],[6,332,3157.3],[2,83,697.8],[1,2,11.1],[0,20,20.6]]}},{"type":"Feature","geometry":{"type":"Point","coordinates":[36.75,-15.75]},"properties":{"n":1109,"frp":10337.6,"frp_max_bin":4395.1,"bins":[[26,38,697.3],[25,201,1591.5],[21,100,577.1],[17,53,363.1],[7,2,3.5],[5,299,2693.3],[3,16,16.7],[1,400,4395.1]]}},{"type":"Feature","geometry":{"type":"Point","coordinates":[16.25,-9.25]},"properties":{"n":440,"frp":10336.3,"frp_max_bin":4665.7,"bins":[[26,16,186.1],[18,2,62.2],[17,4,21.2],[16,1,0.3],[14,41,652.9],[13,19,347.1],[12,3,4.2],[10,192,4665.7],[9,38,2136.7],[6,107,2169.5],[2,17,90.4]]}},{"type":"Feature","geometry":{"type":"Point","coordinates":[22.25,-10.75]},"properties":{"n":805,"frp":10335.6,"frp_max_bin":2500.9,"bins":[[26,44,474.4],[25,15,183.1],[22,45,545.2],[21,91,1188.8],[20,8,8.3],[19,14,19.3],[18,26,194.0],[17,112,1438.8],[15,1,1.5],[14,65,777.9],[13,131,2500.9],[12,5,4.9],[11,4,5.1],[10,115,1133.1],[9,54,898.2],[7,4,6.5],[2,32,396.1],[1,39,559.5]]}},{"type":"Feature","geometry":{"type":"Point","coordinates":[16.25,-15.25]},"properties":{"n":794,"frp":10318.3,"frp_max_bin":3461.8,"bins":[[26,161,2202.7],[24,5,4.3],[23,1,1.3],[22,220,3461.8],[21,22,689.5],[20,7,4.3],[19,3,2.4],[18,56,478.3],[17,58,408.6],[14,17,232.7],[13,29,426.1],[10,89,829.5],[9,17,259.0],[8,1,1.1],[7,4,20.5],[6,42,719.4],[5,20,296.3],[4,1,0.5],[2,35,275.9],[0,6,4.1]]}},{"type":"Feature","geometry":{"type":"Point","coordinates":[15.25,-5.75]},"properties":{"n":952,"frp":10297.7,"frp_max_bin":4627.7,"bins":[[26,164,1680.4],[22,1,8.8],[18,89,779.4],[14,74,1035.8],[10,143,1341.0],[9,22,338.2],[8,11,28.8],[6,390,4627.7],[4,4,5.1],[2,54,452.6]]}},{"type":"Feature","geometry":{"type":"Point","coordinates":[105.25,-3.25]},"properties":{"n":1505,"frp":10222.9,"frp_max_bin":1913.3,"bins":[[27,39,75.7],[25,20,170.2],[24,4,28.4],[23,31,38.6],[22,2,3.1],[21,77,636.4],[20,11,250.3],[19,55,97.4],[18,25,47.5],[17,38,259.5],[16,18,161.3],[15,120,346.0],[14,44,85.8],[13,87,941.5],[11,160,486.6],[10,54,248.2],[9,113,1416.1],[8,42,381.2],[7,112,422.8],[6,73,343.2],[5,113,1913.3],[4,27,335.6],[3,160,286.9],[2,14,38.5],[1,57,1090.4],[0,9,118.6]]}},{"type":"Feature","geometry":{"type":"Point","coordinates":[16.75,-16.75]},"properties":{"n":613,"frp":10161.2,"frp_max_bin":2671.1,"bins":[[26,101,1328.6],[23,2,1.5],[22,13,178.2],[20,2,0.5],[18,1,3.7],[12,6,9.0],[10,85,1481.7],[9,32,414.5],[8,77,472.0],[7,57,460.9],[6,98,2671.1],[5,54,1627.8],[4,8,4.9],[3,5,3.9],[2,70,1501.4],[0,2,1.5]]}},{"type":"Feature","geometry":{"type":"Point","coordinates":[19.75,-18.25]},"properties":{"n":674,"frp":10049.8,"frp_max_bin":4519.6,"bins":[[22,1,6.5],[18,1,6.2],[17,4,31.4],[14,43,600.6],[13,6,53.5],[11,2,1.8],[10,9,170.0],[9,17,132.4],[8,46,108.7],[7,57,270.2],[6,81,1278.3],[5,44,650.1],[4,45,83.7],[3,15,24.5],[2,250,4519.6],[1,45,2102.6],[0,8,9.6]]}},{"type":"Feature","geometry":{"type":"Point","coordinates":[-63.75,9.75]},"properties":{"n":1249,"frp":9940.8,"frp_max_bin":933.6,"bins":[[26,12,127.0],[25,26,128.2],[24,48,184.4],[22,1,2.0],[21,56,594.2],[20,87,675.2],[17,56,381.4],[16,126,933.6],[15,11,256.1],[14,22,263.5],[13,114,525.8],[12,59,310.4],[10,3,61.3],[9,125,642.4],[8,109,741.6],[6,18,287.4],[5,119,691.7],[4,54,545.7],[3,42,864.1],[2,21,457.1],[1,49,462.4],[0,91,805.3]]}},{"type":"Feature","geometry":{"type":"Point","coordinates":[18.75,-17.25]},"properties":{"n":841,"frp":9865.7,"frp_max_bin":2906.7,"bins":[[26,219,2906.7],[21,16,176.3],[18,7,61.7],[17,17,658.4],[16,4,3.5],[14,70,799.2],[13,26,182.4],[10,7,55.7],[9,7,54.3],[8,68,189.1],[7,59,273.8],[6,143,1848.5],[5,59,695.5],[4,2,0.8],[2,101,1755.5],[1,16,176.8],[0,20,27.3]]}},{"type":"Feature","geometry":{"type":"Point","coordinates":[51.25,29.75]},"properties":{"n":853,"frp":9819.6,"frp_max_bin":2004.0,"bins":[[25,24,693.4],[23,86,428.7],[21,52,1632.2],[19,51,233.4],[17,53,1414.4],[15,30,96.1],[13,48,505.3],[11,95,392.2],[9,54,519.5],[7,101,557.7],[5,84,2004.0],[3,144,733.6],[1,31,608.9]]}},{"type":"Feature","geometry":{"type":"Point","coordinates":[19.75,-17.75]},"properties":{"n":622,"frp":9744.9,"frp_max_bin":3285.6,"bins":[[26,164,1546.0],[22,22,251.2],[21,17,191.5],[18,10,101.1],[17,4,45.5],[16,1,0.7],[15,1,0.9],[14,65,1384.8],[13,28,479.0],[12,1,1.2],[11,5,4.2],[10,4,36.3],[9,11,75.6],[8,3,3.2],[7,6,6.4],[6,21,258.4],[5,12,142.7],[4,6,3.9],[2,180,3285.6],[1,61,1926.7]]}},{"type":"Feature","geometry":{"type":"Point","coordinates":[-43.75,-9.75]},"properties":{"n":273,"frp":9621.1,"frp_max_bin":4225.4,"bins":[[26,20,1168.1],[22,57,4225.4],[18,34,2135.8],[14,52,1318.4],[12,32,59.2],[10,37,544.2],[8,40,165.9],[6,1,4.2]]}},{"type":"Feature","geometry":{"type":"Point","coordinates":[111.75,-3.25]},"properties":{"n":849,"frp":9599.6,"frp_max_bin":2836.6,"bins":[[27,26,139.8],[26,19,65.1],[25,50,541.7],[24,33,337.1],[23,39,148.9],[22,57,177.9],[21,135,2836.6],[20,35,1217.0],[19,5,17.4],[18,60,150.5],[17,45,804.2],[16,22,369.1],[15,18,34.5],[14,34,60.8],[13,63,933.6],[12,21,484.8],[11,52,114.3],[10,16,57.1],[9,10,125.7],[8,7,73.7],[7,3,4.7],[6,10,13.1],[5,18,112.2],[3,12,33.4],[2,9,43.8],[1,40,471.8],[0,10,231.0]]}},{"type":"Feature","geometry":{"type":"Point","coordinates":[130.25,-16.25]},"properties":{"n":607,"frp":9589.7,"frp_max_bin":2379.1,"bins":[[26,19,41.4],[24,102,2264.0],[22,4,6.1],[20,97,2231.0],[18,17,25.2],[16,138,1924.7],[14,136,714.3],[12,93,2379.1],[10,1,3.8]]}},{"type":"Feature","geometry":{"type":"Point","coordinates":[28.75,-3.75]},"properties":{"n":872,"frp":9588.6,"frp_max_bin":1554.3,"bins":[[26,16,152.6],[25,18,160.2],[23,2,1.7],[22,7,217.7],[21,69,726.6],[19,10,33.9],[18,51,686.9],[17,50,425.8],[16,6,11.6],[15,5,6.5],[14,89,827.6],[13,34,288.1],[11,47,134.7],[10,63,483.9],[9,104,1088.5],[7,8,12.5],[6,94,1554.3],[5,102,1498.7],[3,2,1.5],[2,18,206.1],[1,77,1069.1]]}},{"type":"Feature","geometry":{"type":"Point","coordinates":[16.25,-3.75]},"properties":{"n":624,"frp":9578.1,"frp_max_bin":2488.8,"bins":[[26,66,799.8],[24,3,2.4],[22,16,214.4],[20,17,22.3],[19,6,15.4],[18,155,2115.8],[17,23,470.6],[14,5,44.2],[10,8,86.8],[9,18,743.2],[6,165,2488.8],[4,3,8.7],[2,47,556.8],[1,37,1866.9],[0,55,142.1]]}},{"type":"Feature","geometry":{"type":"Point","coordinates":[48.25,31.25]},"properties":{"n":410,"frp":9540.3,"frp_max_bin":1429.9,"bins":[[25,7,420.7],[23,50,869.2],[21,9,352.4],[19,65,971.0],[17,3,95.8],[15,37,592.6],[13,19,872.3],[11,53,969.9],[9,23,565.6],[7,53,951.0],[5,24,1075.5],[3,59,1429.9],[1,8,374.3]]}},{"type":"Feature","geometry":{"type":"Point","coordinates":[20.75,-17.75]},"properties":{"n":483,"frp":9475.1,"frp_max_bin":6049.9,"bins":[[26,21,211.8],[22,12,148.1],[21,3,24.7],[18,10,161.1],[17,31,214.9],[14,4,30.5],[13,2,12.2],[9,1,2.6],[6,65,712.2],[5,24,371.0],[4,9,7.6],[3,10,24.8],[2,189,6049.9],[1,45,1337.5],[0,57,166.3]]}},{"type":"Feature","geometry":{"type":"Point","coordinates":[28.75,-10.75]},"properties":{"n":935,"frp":9471.9,"frp_max_bin":1506.4,"bins":[[26,63,1070.9],[25,77,801.5],[23,3,2.3],[22,10,137.3],[21,110,1181.4],[19,7,13.2],[17,92,603.4],[15,1,1.2],[14,31,156.1],[13,57,399.6],[11,3,3.2],[10,104,1434.8],[9,105,1312.6],[7,39,90.0],[6,36,292.7],[5,136,1506.4],[4,6,35.5],[3,14,24.2],[2,6,61.3],[1,35,344.2]]}},{"type":"Feature","geometry":{"type":"Point","coordinates":[31.25,-10.25]},"properties":{"n":953,"frp":9334.7,"frp_max_bin":2253.1,"bins":[[26,33,350.4],[25,115,826.8],[21,97,978.1],[19,2,1.7],[17,77,636.2],[14,4,33.8],[13,21,158.9],[11,2,1.4],[10,81,535.0],[9,175,1302.1],[7,4,3.6],[6,24,355.7],[5,185,2253.1],[2,29,411.5],[1,104,1486.4]]}},{"type":"Feature","geometry":{"type":"Point","coordinates":[140.75,-8.75]},"properties":{"n":1064,"frp":9333.9,"frp_max_bin":4002.8,"bins":[[26,16,35.3],[24,75,1172.9],[22,47,90.9],[20,158,1201.9],[18,25,24.2],[16,324,4002.8],[14,6,4.8],[12,83,607.7],[10,8,7.7],[8,67,428.7],[6,3,4.1],[4,154,1178.0],[2,6,6.7],[0,92,568.1]]}},{"type":"Feature","geometry":{"type":"Point","coordinates":[29.75,-12.25]},"properties":{"n":508,"frp":9302.9,"frp_max_bin":4739.3,"bins":[[26,12,143.8],[25,46,423.7],[24,1,0.6],[23,6,7.3],[22,13,165.8],[21,57,473.7],[17,37,734.8],[14,27,164.1],[13,48,517.1],[11,12,10.5],[10,118,4739.3],[9,112,1747.4],[7,1,0.5],[5,15,159.4],[2,2,12.3],[1,1,2.6]]}},{"type":"Feature","geometry":{"type":"Point","coordinates":[29.25,-10.75]},"properties":{"n":994,"frp":9262.0,"frp_max_bin":3604.5,"bins":[[26,29,274.9],[25,40,357.4],[22,6,63.1],[21,70,625.7],[19,1,0.3],[17,84,701.9],[14,34,176.0],[13,85,589.9],[11,1,0.4],[10,62,661.4],[9,96,781.7],[7,2,2.4],[6,68,681.3],[5,337,3604.5],[3,1,0.3],[2,23,313.5],[1,55,427.2]]}},{"type":"Feature","geometry":{"type":"Point","coordinates":[13.25,-6.75]},"properties":{"n":655,"frp":9249.2,"frp_max_bin":5265.8,"bins":[[26,132,1565.4],[20,3,2.8],[18,19,149.2],[14,1,7.5],[10,80,1471.3],[9,1,8.3],[6,358,5265.8],[2,61,779.0]]}},{"type":"Feature","geometry":{"type":"Point","coordinates":[39.25,-13.25]},"properties":{"n":910,"frp":9213.6,"frp_max_bin":2905.0,"bins":[[25,250,2905.0],[21,106,1109.9],[17,24,291.0],[15,10,30.6],[13,51,507.3],[9,35,330.5],[7,21,38.5],[5,201,1886.1],[3,1,1.5],[1,211,2113.3]]}},{"type":"Feature","geometry":{"type":"Point","coordinates":[24.25,-23.75]},"properties":{"n":918,"frp":9204.4,"frp_max_bin":2660.5,"bins":[[26,92,906.7],[25,31,371.1],[24,139,355.8],[23,159,367.3],[22,140,2660.5],[21,74,1341.2],[20,81,689.8],[19,146,1012.1],[17,56,1499.9]]}},{"type":"Feature","geometry":{"type":"Point","coordinates":[-65.75,-9.25]},"properties":{"n":741,"frp":9171.7,"frp_max_bin":2513.7,"bins":[[27,23,274.6],[26,6,56.0],[23,201,2513.7],[22,64,934.7],[21,16,48.7],[20,93,174.7],[19,140,2272.1],[18,57,1143.3],[17,7,8.7],[16,20,27.5],[15,63,1387.5],[14,9,53.1],[13,7,6.4],[12,6,6.6],[11,10,124.5],[10,8,49.1],[3,11,90.7]]}},{"type":"Feature","geometry":{"type":"Point","coordinates":[-122.75,39.25]},"properties":{"n":575,"frp":9156.5,"frp_max_bin":3255.5,"bins":[[25,131,462.6],[23,147,3255.5],[21,256,2824.4],[19,41,2614.1]]}},{"type":"Feature","geometry":{"type":"Point","coordinates":[-54.75,-8.25]},"properties":{"n":437,"frp":9142.7,"frp_max_bin":4306.0,"bins":[[27,1,9.7],[26,87,4306.0],[24,75,117.6],[23,21,307.3],[22,145,2509.4],[20,2,3.1],[18,65,1759.9],[16,39,127.3],[4,1,1.2],[0,1,1.3]]}},{"type":"Feature","geometry":{"type":"Point","coordinates":[90.75,55.25]},"properties":{"n":670,"frp":9087.8,"frp_max_bin":2106.6,"bins":[[25,112,1837.3],[24,17,221.5],[21,113,2106.6],[20,33,576.8],[19,1,0.6],[17,140,1886.3],[16,26,130.3],[13,30,272.5],[12,14,79.9],[9,24,337.7],[5,94,976.7],[4,7,75.1],[1,48,441.0],[0,11,145.5]]}},{"type":"Feature","geometry":{"type":"Point","coordinates":[31.75,-11.25]},"properties":{"n":808,"frp":9080.2,"frp_max_bin":3263.1,"bins":[[26,161,2685.4],[25,258,3263.1],[23,1,1.0],[21,121,1077.8],[17,65,586.9],[15,2,1.8],[13,14,116.1],[10,28,189.1],[9,43,421.3],[7,12,19.2],[6,2,14.2],[5,49,394.5],[2,4,46.0],[1,48,263.8]]}},{"type":"Feature","geometry":{"type":"Point","coordinates":[27.25,-5.25]},"properties":{"n":894,"frp":9067.8,"frp_max_bin":1227.2,"bins":[[26,30,209.3],[25,28,230.3],[23,2,2.0],[22,9,63.7],[21,59,577.0],[19,3,2.6],[18,76,880.1],[17,98,1227.2],[16,4,5.7],[15,2,4.3],[14,53,308.4],[13,114,1213.8],[11,1,2.1],[10,61,652.7],[9,73,687.6],[7,4,4.8],[6,90,1196.3],[5,41,369.8],[4,1,0.7],[3,4,8.8],[2,67,771.6],[1,74,648.8]]}}]}