{"type":"FeatureCollection","generated_at":"2026-09-12T00:00:00Z","source":{"id":"fishing","name":"Global Fishing Watch apparent fishing effort","dataset":"public-global-fishing-effort:v3.0","version":null,"licence":"CC BY-NC 4.0 (Global Fishing Watch API terms of use, noncommercial use only)","attribution":"Powered by Global Fishing Watch","url":"https://globalfishingwatch.org","api":"https://globalfishingwatch.org/our-apis/documentation#apparent-fishing-effort","note":"Apparent fishing effort: hours in which a neural net classified AIS vessel movement as fishing. Vessels without AIS (or with it switched off) are invisible, and gear types are inferred from vessel registries and movement, so absence of colour is not absence of fishing.","subsample":"EMPTY seed: no Global Fishing Watch API token (GFW_FISHING_TOKEN) exists yet — GFW_API_KEY is the Global Forest Watch key and the fishing gateway rejects it (401, 2026-09-12). Once the token is stored, regenerate the top cells by hours (< 100 KB) with: python3 -B -m pipeline.fishing --out public/data/fishing.geojson --seed-out public/data/seed/fishing.geojson"},"today":"2026-09-12","weeks":[],"gears":[],"counts":{"cells":0,"rows":0,"hours":0,"gears":{},"seed_cells":0},"features":[]}
