{"type":"FeatureCollection","frame":"2026-09-13T08","site_count":20,"fresh_count":20,"failures":{},"features":[{"type":"Feature","geometry":{"type":"Point","coordinates":[-77.0073,36.984]},"properties":{"site":"KAKQ","name":"Wakefield VA","scan_time":"2026-09-13T07:57:50Z","stale":false,"bins":25,"density_birds_km3":1.525625,"heading_deg":45.60354643311592,"speed_ms":8.394878568385174,"peak_altitude_m":200.0,"u_ms":6.175517682147423,"v_ms":5.436118449083938}},{"type":"Feature","geometry":{"type":"Point","coordinates":[-71.1369,41.9558]},"properties":{"site":"KBOX","name":"Boston MA","scan_time":"2026-09-13T08:00:23Z","stale":false,"bins":25,"density_birds_km3":0.354375,"heading_deg":350.81701319579025,"speed_ms":8.29804618117229,"peak_altitude_m":0.0,"u_ms":-1.1018117229129663,"v_ms":7.955879218472468}},{"type":"Feature","geometry":{"type":"Point","coordinates":[-78.7369,42.9489]},"properties":{"site":"KBUF","name":"Buffalo NY","scan_time":"2026-09-13T08:00:10Z","stale":false,"bins":25,"density_birds_km3":1.5253333333333334,"heading_deg":82.58419210341256,"speed_ms":9.529899431569742,"peak_altitude_m":200.0,"u_ms":9.321403585483166,"v_ms":1.234180148666375}},{"type":"Feature","geometry":{"type":"Point","coordinates":[-81.8597,41.4131]},"properties":{"site":"KCLE","name":"Cleveland OH","scan_time":"2026-09-13T08:01:22Z","stale":false,"bins":25,"density_birds_km3":3.302,"heading_deg":100.17701115119269,"speed_ms":8.957851806985666,"peak_altitude_m":400.0,"u_ms":8.462925499697153,"v_ms":-1.4112356147789218}},{"type":"Feature","geometry":{"type":"Point","coordinates":[-81.0423,32.6555]},"properties":{"site":"KCLX","name":"Charleston SC","scan_time":"2026-09-13T08:02:06Z","stale":false,"bins":25,"density_birds_km3":5.31875,"heading_deg":111.06900638660538,"speed_ms":7.609871915393655,"peak_altitude_m":0.0,"u_ms":7.100330199764983,"v_ms":-2.6330129259694477}},{"type":"Feature","geometry":{"type":"Point","coordinates":[-74.4108,39.947]},"properties":{"site":"KDIX","name":"Philadelphia PA","scan_time":"2026-09-13T07:59:31Z","stale":false,"bins":25,"density_birds_km3":1.7481250000000002,"heading_deg":317.5512505875163,"speed_ms":6.605475847152127,"peak_altitude_m":200.0,"u_ms":-3.9226748377793803,"v_ms":4.735198269646719}},{"type":"Feature","geometry":{"type":"Point","coordinates":[-84.5658,33.3636]},"properties":{"site":"KFFC","name":"Atlanta GA","scan_time":"2026-09-13T08:00:27Z","stale":false,"bins":25,"density_birds_km3":60.029333333333334,"heading_deg":143.67548103544146,"speed_ms":7.141306583448092,"peak_altitude_m":200.0,"u_ms":4.066961374439163,"v_ms":-5.235032095420016}},{"type":"Feature","geometry":{"type":"Point","coordinates":[-85.5449,42.8939]},"properties":{"site":"KGRR","name":"Grand Rapids MI","scan_time":"2026-09-13T07:58:46Z","stale":false,"bins":25,"density_birds_km3":54.60933333333333,"heading_deg":153.50156887046995,"speed_ms":12.756122421563,"peak_altitude_m":400.0,"u_ms":5.573594728935894,"v_ms":-11.362966988678693}},{"type":"Feature","geometry":{"type":"Point","coordinates":[-83.8217,39.4203]},"properties":{"site":"KILN","name":"Wilmington OH","scan_time":"2026-09-13T08:01:57Z","stale":false,"bins":25,"density_birds_km3":12.886666666666667,"heading_deg":138.21771457444206,"speed_ms":10.130550007761162,"peak_altitude_m":400.0,"u_ms":6.1557639571583795,"v_ms":-7.373025301391835}},{"type":"Feature","geometry":{"type":"Point","coordinates":[-81.7019,30.4846]},"properties":{"site":"KJAX","name":"Jacksonville FL","scan_time":"2026-09-13T07:57:52Z","stale":false,"bins":25,"density_birds_km3":13.710625,"heading_deg":143.6370121596485,"speed_ms":6.257489051094891,"peak_altitude_m":200.0,"u_ms":3.6849949817518244,"v_ms":-5.019909215328467}},{"type":"Feature","geometry":{"type":"Point","coordinates":[-88.0847,41.6045]},"properties":{"site":"KLOT","name":"Chicago IL","scan_time":"2026-09-13T08:02:03Z","stale":false,"bins":25,"density_birds_km3":129.25799999999998,"heading_deg":177.1877685534147,"speed_ms":14.574672205975645,"peak_altitude_m":400.0,"u_ms":0.4978503973964217,"v_ms":-14.39427315910814}},{"type":"Feature","geometry":{"type":"Point","coordinates":[-78.4292,33.9892]},"properties":{"site":"KLTX","name":"Wilmington NC","scan_time":"2026-09-13T08:02:24Z","stale":false,"bins":25,"density_birds_km3":1.5925,"heading_deg":22.56842919145704,"speed_ms":4.5999209095402875,"peak_altitude_m":0.0,"u_ms":2.006638655462185,"v_ms":3.9739940682155215}},{"type":"Feature","geometry":{"type":"Point","coordinates":[-77.4778,38.9753]},"properties":{"site":"KLWX","name":"Sterling VA","scan_time":"2026-09-13T08:01:34Z","stale":false,"bins":25,"density_birds_km3":9.28076923076923,"heading_deg":321.84554236088206,"speed_ms":2.9157251119531518,"peak_altitude_m":200.0,"u_ms":-1.3911341715466758,"v_ms":1.907384602135722}},{"type":"Feature","geometry":{"type":"Point","coordinates":[-76.8762,34.7759]},"properties":{"site":"KMHX","name":"Morehead City NC","scan_time":"2026-09-13T07:58:11Z","stale":false,"bins":25,"density_birds_km3":1.068125,"heading_deg":47.18853712770873,"speed_ms":5.92044470450556,"peak_altitude_m":0.0,"u_ms":4.425833820947923,"v_ms":3.8733060269163255}},{"type":"Feature","geometry":{"type":"Point","coordinates":[-80.6542,28.1133]},"properties":{"site":"KMLB","name":"Melbourne FL","scan_time":"2026-09-13T07:59:34Z","stale":false,"bins":25,"density_birds_km3":8.15375,"heading_deg":228.4849557995827,"speed_ms":2.7666592564200845,"peak_altitude_m":0.0,"u_ms":0.4019540053660406,"v_ms":-2.0350256803372937}},{"type":"Feature","geometry":{"type":"Point","coordinates":[-86.5625,36.2472]},"properties":{"site":"KOHX","name":"Nashville TN","scan_time":"2026-09-13T07:58:48Z","stale":false,"bins":25,"density_birds_km3":95.03133333333334,"heading_deg":166.07746456319472,"speed_ms":6.218643605267035,"peak_altitude_m":400.0,"u_ms":1.2213460121924697,"v_ms":-5.961121594982707}},{"type":"Feature","geometry":{"type":"Point","coordinates":[-72.8639,40.8655]},"properties":{"site":"KOKX","name":"Upton NY","scan_time":"2026-09-13T08:00:41Z","stale":false,"bins":25,"density_birds_km3":0.21375,"heading_deg":334.60747459639646,"speed_ms":8.544763406940064,"peak_altitude_m":0.0,"u_ms":-3.4376025236593053,"v_ms":7.417350157728706}},{"type":"Feature","geometry":{"type":"Point","coordinates":[-80.2183,40.5317]},"properties":{"site":"KPBZ","name":"Pittsburgh PA","scan_time":"2026-09-13T08:01:24Z","stale":false,"bins":25,"density_birds_km3":2.879285714285714,"heading_deg":87.6389972328245,"speed_ms":6.58778218804267,"peak_altitude_m":600.0,"u_ms":6.128881170925329,"v_ms":0.36839990076903983}},{"type":"Feature","geometry":{"type":"Point","coordinates":[-78.4899,35.6655]},"properties":{"site":"KRAX","name":"Raleigh NC","scan_time":"2026-09-13T08:01:50Z","stale":false,"bins":25,"density_birds_km3":5.38375,"heading_deg":27.08724370754026,"speed_ms":2.889953531598513,"peak_altitude_m":0.0,"u_ms":2.386862221189591,"v_ms":1.1240009293680298}},{"type":"Feature","geometry":{"type":"Point","coordinates":[-82.4017,27.7055]},"properties":{"site":"KTBW","name":"Tampa FL","scan_time":"2026-09-13T07:58:33Z","stale":false,"bins":25,"density_birds_km3":5.67625,"heading_deg":20.063185142969562,"speed_ms":2.2718095657923736,"peak_altitude_m":0.0,"u_ms":0.12243332598633463,"v_ms":1.0163500110204982}}]}