{"type":"FeatureCollection","frame":"2026-08-27T05","site_count":20,"fresh_count":20,"failures":{},"features":[{"type":"Feature","geometry":{"type":"Point","coordinates":[-77.0073,36.984]},"properties":{"site":"KAKQ","name":"Wakefield VA","scan_time":"2026-08-27T04:58:23Z","stale":false,"bins":25,"density_birds_km3":3.39125,"heading_deg":342.67813786245273,"speed_ms":8.14207717872969,"peak_altitude_m":0.0,"u_ms":-1.8681942392909898,"v_ms":7.438925406203841}},{"type":"Feature","geometry":{"type":"Point","coordinates":[-71.1369,41.9558]},"properties":{"site":"KBOX","name":"Boston MA","scan_time":"2026-08-27T05:00:54Z","stale":false,"bins":25,"density_birds_km3":1.4325,"heading_deg":56.54488868210297,"speed_ms":5.755410122164049,"peak_altitude_m":200.0,"u_ms":4.613272251308901,"v_ms":3.1638350785340315}},{"type":"Feature","geometry":{"type":"Point","coordinates":[-78.7369,42.9489]},"properties":{"site":"KBUF","name":"Buffalo NY","scan_time":"2026-08-27T04:58:33Z","stale":false,"bins":25,"density_birds_km3":1.3066666666666664,"heading_deg":22.951095216328728,"speed_ms":7.213501786625829,"peak_altitude_m":200.0,"u_ms":2.9986115364982133,"v_ms":6.254609494640122}},{"type":"Feature","geometry":{"type":"Point","coordinates":[-81.8597,41.4131]},"properties":{"site":"KCLE","name":"Cleveland OH","scan_time":"2026-08-27T04:59:38Z","stale":false,"bins":25,"density_birds_km3":1.6986666666666668,"heading_deg":55.62193640365614,"speed_ms":13.038516801853996,"peak_altitude_m":200.0,"u_ms":10.76786790266512,"v_ms":7.118748551564309}},{"type":"Feature","geometry":{"type":"Point","coordinates":[-81.0423,32.6555]},"properties":{"site":"KCLX","name":"Charleston SC","scan_time":"2026-08-27T05:00:42Z","stale":false,"bins":25,"density_birds_km3":1.576875,"heading_deg":5.590618297350334,"speed_ms":5.418803827751196,"peak_altitude_m":0.0,"u_ms":0.7350159489633173,"v_ms":5.194968102073365}},{"type":"Feature","geometry":{"type":"Point","coordinates":[-74.4108,39.947]},"properties":{"site":"KDIX","name":"Philadelphia PA","scan_time":"2026-08-27T05:02:26Z","stale":false,"bins":25,"density_birds_km3":1.70625,"heading_deg":5.650705330358518,"speed_ms":7.924970609845701,"peak_altitude_m":0.0,"u_ms":0.7212674504041147,"v_ms":7.625124908155767}},{"type":"Feature","geometry":{"type":"Point","coordinates":[-84.5658,33.3636]},"properties":{"site":"KFFC","name":"Atlanta GA","scan_time":"2026-08-27T05:01:26Z","stale":false,"bins":25,"density_birds_km3":13.483333333333333,"heading_deg":244.02666459160653,"speed_ms":3.1225077873918416,"peak_altitude_m":1600.0,"u_ms":-0.9913735475896167,"v_ms":-0.4894318912237329}},{"type":"Feature","geometry":{"type":"Point","coordinates":[-85.5449,42.8939]},"properties":{"site":"KGRR","name":"Grand Rapids MI","scan_time":"2026-08-27T04:58:27Z","stale":false,"bins":25,"density_birds_km3":8.559333333333335,"heading_deg":147.36477909871067,"speed_ms":12.122561745227893,"peak_altitude_m":600.0,"u_ms":6.460363848850799,"v_ms":-10.242014024152708}},{"type":"Feature","geometry":{"type":"Point","coordinates":[-83.8217,39.4203]},"properties":{"site":"KILN","name":"Wilmington OH","scan_time":"2026-08-27T05:00:04Z","stale":false,"bins":25,"density_birds_km3":2.5933333333333333,"heading_deg":72.31007672179017,"speed_ms":8.825014222911816,"peak_altitude_m":400.0,"u_ms":8.403951383501422,"v_ms":2.472953193690199}},{"type":"Feature","geometry":{"type":"Point","coordinates":[-81.7019,30.4846]},"properties":{"site":"KJAX","name":"Jacksonville FL","scan_time":"2026-08-27T05:00:12Z","stale":false,"bins":25,"density_birds_km3":8.96875,"heading_deg":181.02182761966742,"speed_ms":3.8676963756874905,"peak_altitude_m":0.0,"u_ms":-0.23522281765618389,"v_ms":-3.7988414892116773}},{"type":"Feature","geometry":{"type":"Point","coordinates":[-88.0847,41.6045]},"properties":{"site":"KLOT","name":"Chicago IL","scan_time":"2026-08-27T04:57:19Z","stale":false,"bins":25,"density_birds_km3":31.746,"heading_deg":153.69697094703162,"speed_ms":12.497406598483733,"peak_altitude_m":400.0,"u_ms":5.455448264275364,"v_ms":-11.194517714261714}},{"type":"Feature","geometry":{"type":"Point","coordinates":[-78.4292,33.9892]},"properties":{"site":"KLTX","name":"Wilmington NC","scan_time":"2026-08-27T05:01:24Z","stale":false,"bins":25,"density_birds_km3":1.05125,"heading_deg":331.6775117832801,"speed_ms":2.9351190476190476,"peak_altitude_m":0.0,"u_ms":-1.3385574229691877,"v_ms":1.7015196078431376}},{"type":"Feature","geometry":{"type":"Point","coordinates":[-77.4778,38.9753]},"properties":{"site":"KLWX","name":"Sterling VA","scan_time":"2026-08-27T05:00:44Z","stale":false,"bins":25,"density_birds_km3":4.515625,"heading_deg":314.40828825756586,"speed_ms":7.367220376522701,"peak_altitude_m":0.0,"u_ms":-4.321328903654485,"v_ms":5.24891749723145}},{"type":"Feature","geometry":{"type":"Point","coordinates":[-76.8762,34.7759]},"properties":{"site":"KMHX","name":"Morehead City NC","scan_time":"2026-08-27T04:57:27Z","stale":false,"bins":25,"density_birds_km3":0.6,"heading_deg":354.1993353887599,"speed_ms":5.842544316996872,"peak_altitude_m":0.0,"u_ms":-0.6257351407716373,"v_ms":5.6749426485922845}},{"type":"Feature","geometry":{"type":"Point","coordinates":[-80.6542,28.1133]},"properties":{"site":"KMLB","name":"Melbourne FL","scan_time":"2026-08-27T05:01:08Z","stale":false,"bins":25,"density_birds_km3":18.2075,"heading_deg":185.2813364895371,"speed_ms":2.3251590190960294,"peak_altitude_m":0.0,"u_ms":-0.03390609973897513,"v_ms":-2.1071125841461735}},{"type":"Feature","geometry":{"type":"Point","coordinates":[-86.5625,36.2472]},"properties":{"site":"KOHX","name":"Nashville TN","scan_time":"2026-08-27T05:00:38Z","stale":false,"bins":25,"density_birds_km3":6.9366666666666665,"heading_deg":76.84938629419767,"speed_ms":4.85293801057184,"peak_altitude_m":200.0,"u_ms":3.1003277270543013,"v_ms":0.6675723209995195}},{"type":"Feature","geometry":{"type":"Point","coordinates":[-72.8639,40.8655]},"properties":{"site":"KOKX","name":"Upton NY","scan_time":"2026-08-27T05:01:36Z","stale":false,"bins":25,"density_birds_km3":3.1156249999999996,"heading_deg":317.3525889935172,"speed_ms":7.057140850722312,"peak_altitude_m":0.0,"u_ms":-3.8706701444622795,"v_ms":4.5285433386837886}},{"type":"Feature","geometry":{"type":"Point","coordinates":[-80.2183,40.5317]},"properties":{"site":"KPBZ","name":"Pittsburgh PA","scan_time":"2026-08-27T04:57:55Z","stale":false,"bins":25,"density_birds_km3":3.3378571428571426,"heading_deg":44.65713645523133,"speed_ms":4.06415150866681,"peak_altitude_m":400.0,"u_ms":3.1769826663813396,"v_ms":2.3367964904772096}},{"type":"Feature","geometry":{"type":"Point","coordinates":[-78.4899,35.6655]},"properties":{"site":"KRAX","name":"Raleigh NC","scan_time":"2026-08-27T05:00:31Z","stale":false,"bins":25,"density_birds_km3":2.756875,"heading_deg":352.1991766562119,"speed_ms":5.121081268812226,"peak_altitude_m":0.0,"u_ms":-0.4607779578606158,"v_ms":4.890439916647373}},{"type":"Feature","geometry":{"type":"Point","coordinates":[-82.4017,27.7055]},"properties":{"site":"KTBW","name":"Tampa FL","scan_time":"2026-08-27T05:01:42Z","stale":false,"bins":25,"density_birds_km3":2.493125,"heading_deg":255.71675219646477,"speed_ms":5.287046424090338,"peak_altitude_m":0.0,"u_ms":-2.391696361355082,"v_ms":-0.4788431618569635}}]}