{"type":"FeatureCollection","frame":"2026-10-05T00","site_count":20,"fresh_count":20,"failures":{},"features":[{"type":"Feature","geometry":{"type":"Point","coordinates":[-77.0073,36.984]},"properties":{"site":"KAKQ","name":"Wakefield VA","scan_time":"2026-10-04T23:58:43Z","stale":false,"bins":25,"density_birds_km3":4.324375,"heading_deg":183.3008499409803,"speed_ms":5.5022983521248925,"peak_altitude_m":0.0,"u_ms":-0.25272043943336225,"v_ms":-5.437016478751084}},{"type":"Feature","geometry":{"type":"Point","coordinates":[-71.1369,41.9558]},"properties":{"site":"KBOX","name":"Boston MA","scan_time":"2026-10-05T00:02:59Z","stale":false,"bins":25,"density_birds_km3":4.791875,"heading_deg":224.86362481691992,"speed_ms":5.9348793056685665,"peak_altitude_m":200.0,"u_ms":-4.125372931922973,"v_ms":-4.102997016544617}},{"type":"Feature","geometry":{"type":"Point","coordinates":[-78.7369,42.9489]},"properties":{"site":"KBUF","name":"Buffalo NY","scan_time":"2026-10-04T23:59:58Z","stale":false,"bins":25,"density_birds_km3":0.9586666666666666,"heading_deg":65.46789995850364,"speed_ms":11.880146239554318,"peak_altitude_m":200.0,"u_ms":10.787235376044569,"v_ms":4.755842618384401}},{"type":"Feature","geometry":{"type":"Point","coordinates":[-81.8597,41.4131]},"properties":{"site":"KCLE","name":"Cleveland OH","scan_time":"2026-10-04T23:58:00Z","stale":false,"bins":25,"density_birds_km3":1.5286666666666666,"heading_deg":61.59122897105541,"speed_ms":8.208200087374399,"peak_altitude_m":200.0,"u_ms":7.010406290956751,"v_ms":3.4360375709916995}},{"type":"Feature","geometry":{"type":"Point","coordinates":[-81.0423,32.6555]},"properties":{"site":"KCLX","name":"Charleston SC","scan_time":"2026-10-04T23:58:11Z","stale":false,"bins":25,"density_birds_km3":79.81857142857143,"heading_deg":200.53657041820554,"speed_ms":2.306203779177473,"peak_altitude_m":200.0,"u_ms":-0.8460963319748056,"v_ms":-2.0775190811411632}},{"type":"Feature","geometry":{"type":"Point","coordinates":[-74.4108,39.947]},"properties":{"site":"KDIX","name":"Philadelphia PA","scan_time":"2026-10-05T00:01:36Z","stale":false,"bins":25,"density_birds_km3":2.7600000000000002,"heading_deg":217.5244552565622,"speed_ms":7.324301124627037,"peak_altitude_m":0.0,"u_ms":-4.438028459949507,"v_ms":-5.800846913013541}},{"type":"Feature","geometry":{"type":"Point","coordinates":[-84.5658,33.3636]},"properties":{"site":"KFFC","name":"Atlanta GA","scan_time":"2026-10-05T00:03:04Z","stale":false,"bins":25,"density_birds_km3":115.424,"heading_deg":null,"speed_ms":null,"peak_altitude_m":400.0,"u_ms":null,"v_ms":null}},{"type":"Feature","geometry":{"type":"Point","coordinates":[-85.5449,42.8939]},"properties":{"site":"KGRR","name":"Grand Rapids MI","scan_time":"2026-10-05T00:02:40Z","stale":false,"bins":25,"density_birds_km3":6.011333333333334,"heading_deg":139.72976480333878,"speed_ms":11.172375512920041,"peak_altitude_m":400.0,"u_ms":7.173481202173672,"v_ms":-8.55006986802706}},{"type":"Feature","geometry":{"type":"Point","coordinates":[-83.8217,39.4203]},"properties":{"site":"KILN","name":"Wilmington OH","scan_time":"2026-10-04T23:59:01Z","stale":false,"bins":25,"density_birds_km3":17.354,"heading_deg":101.20923303701254,"speed_ms":7.4416029360900815,"peak_altitude_m":600.0,"u_ms":6.9761969178740255,"v_ms":-1.296881365051305}},{"type":"Feature","geometry":{"type":"Point","coordinates":[-81.7019,30.4846]},"properties":{"site":"KJAX","name":"Jacksonville FL","scan_time":"2026-10-05T00:02:14Z","stale":false,"bins":25,"density_birds_km3":20.2475,"heading_deg":null,"speed_ms":null,"peak_altitude_m":200.0,"u_ms":null,"v_ms":null}},{"type":"Feature","geometry":{"type":"Point","coordinates":[-88.0847,41.6045]},"properties":{"site":"KLOT","name":"Chicago IL","scan_time":"2026-10-04T23:57:42Z","stale":false,"bins":25,"density_birds_km3":8.566666666666666,"heading_deg":148.24722821798974,"speed_ms":7.692902849135917,"peak_altitude_m":400.0,"u_ms":4.042367273859567,"v_ms":-6.536046240074731}},{"type":"Feature","geometry":{"type":"Point","coordinates":[-78.4292,33.9892]},"properties":{"site":"KLTX","name":"Wilmington NC","scan_time":"2026-10-04T23:59:41Z","stale":false,"bins":25,"density_birds_km3":20.798750000000002,"heading_deg":173.60483534897,"speed_ms":4.363816419303369,"peak_altitude_m":0.0,"u_ms":0.5166490050275462,"v_ms":-4.294298702471626}},{"type":"Feature","geometry":{"type":"Point","coordinates":[-77.4778,38.9753]},"properties":{"site":"KLWX","name":"Sterling VA","scan_time":"2026-10-05T00:01:00Z","stale":false,"bins":25,"density_birds_km3":15.9175,"heading_deg":198.4009738631193,"speed_ms":3.8360479962170464,"peak_altitude_m":200.0,"u_ms":-1.1019163021633762,"v_ms":-3.456793159159869}},{"type":"Feature","geometry":{"type":"Point","coordinates":[-76.8762,34.7759]},"properties":{"site":"KMHX","name":"Morehead City NC","scan_time":"2026-10-04T23:59:08Z","stale":false,"bins":25,"density_birds_km3":25.615,"heading_deg":156.65468117402833,"speed_ms":7.11964595939879,"peak_altitude_m":0.0,"u_ms":2.796786306851454,"v_ms":-6.523358139761859}},{"type":"Feature","geometry":{"type":"Point","coordinates":[-80.6542,28.1133]},"properties":{"site":"KMLB","name":"Melbourne FL","scan_time":"2026-10-05T00:01:48Z","stale":false,"bins":25,"density_birds_km3":6.61125,"heading_deg":268.3788660075696,"speed_ms":5.4325070901871815,"peak_altitude_m":0.0,"u_ms":-5.393254868595198,"v_ms":-0.1312015503875969}},{"type":"Feature","geometry":{"type":"Point","coordinates":[-86.5625,36.2472]},"properties":{"site":"KOHX","name":"Nashville TN","scan_time":"2026-10-04T23:59:21Z","stale":false,"bins":25,"density_birds_km3":58.85142857142857,"heading_deg":184.97671303950744,"speed_ms":8.248362878132546,"peak_altitude_m":200.0,"u_ms":-0.6955791254050844,"v_ms":-8.209227789756369}},{"type":"Feature","geometry":{"type":"Point","coordinates":[-72.8639,40.8655]},"properties":{"site":"KOKX","name":"Upton NY","scan_time":"2026-10-05T00:02:24Z","stale":false,"bins":25,"density_birds_km3":1.71125,"heading_deg":null,"speed_ms":null,"peak_altitude_m":200.0,"u_ms":null,"v_ms":null}},{"type":"Feature","geometry":{"type":"Point","coordinates":[-80.2183,40.5317]},"properties":{"site":"KPBZ","name":"Pittsburgh PA","scan_time":"2026-10-05T00:01:44Z","stale":false,"bins":25,"density_birds_km3":5.8914285714285715,"heading_deg":116.21215204860995,"speed_ms":9.25041343355965,"peak_altitude_m":600.0,"u_ms":8.280455868089234,"v_ms":-4.038482056256062}},{"type":"Feature","geometry":{"type":"Point","coordinates":[-78.4899,35.6655]},"properties":{"site":"KRAX","name":"Raleigh NC","scan_time":"2026-10-05T00:02:15Z","stale":false,"bins":25,"density_birds_km3":43.6275,"heading_deg":164.625026389199,"speed_ms":5.485198485000646,"peak_altitude_m":0.0,"u_ms":1.1922671907952311,"v_ms":-5.2204298236804725}},{"type":"Feature","geometry":{"type":"Point","coordinates":[-82.4017,27.7055]},"properties":{"site":"KTBW","name":"Tampa FL","scan_time":"2026-10-04T23:57:52Z","stale":false,"bins":25,"density_birds_km3":34.71875,"heading_deg":250.75390581796614,"speed_ms":2.060397837837838,"peak_altitude_m":0.0,"u_ms":-0.2518189189189189,"v_ms":-1.3604475675675674}}]}