{"type":"FeatureCollection","frame":"2026-08-21T01","site_count":20,"fresh_count":20,"failures":{},"features":[{"type":"Feature","geometry":{"type":"Point","coordinates":[-77.0073,36.984]},"properties":{"site":"KAKQ","name":"Wakefield VA","scan_time":"2026-08-21T00:57:58Z","stale":false,"bins":25,"density_birds_km3":4.20375,"heading_deg":53.367345499784435,"speed_ms":10.99174631531934,"peak_altitude_m":200.0,"u_ms":8.844497543546227,"v_ms":6.457157957421468}},{"type":"Feature","geometry":{"type":"Point","coordinates":[-71.1369,41.9558]},"properties":{"site":"KBOX","name":"Boston MA","scan_time":"2026-08-21T00:59:05Z","stale":false,"bins":25,"density_birds_km3":32.675,"heading_deg":null,"speed_ms":null,"peak_altitude_m":0.0,"u_ms":null,"v_ms":null}},{"type":"Feature","geometry":{"type":"Point","coordinates":[-78.7369,42.9489]},"properties":{"site":"KBUF","name":"Buffalo NY","scan_time":"2026-08-21T01:00:13Z","stale":false,"bins":25,"density_birds_km3":5.980666666666666,"heading_deg":216.086775067484,"speed_ms":5.205952513655111,"peak_altitude_m":200.0,"u_ms":-2.7531144799910825,"v_ms":-4.181915059636608}},{"type":"Feature","geometry":{"type":"Point","coordinates":[-81.8597,41.4131]},"properties":{"site":"KCLE","name":"Cleveland OH","scan_time":"2026-08-21T01:01:46Z","stale":false,"bins":25,"density_birds_km3":10.256666666666666,"heading_deg":226.10230669230143,"speed_ms":8.31589936943379,"peak_altitude_m":400.0,"u_ms":-6.001788987843723,"v_ms":-5.713559773776247}},{"type":"Feature","geometry":{"type":"Point","coordinates":[-81.0423,32.6555]},"properties":{"site":"KCLX","name":"Charleston SC","scan_time":"2026-08-21T01:01:39Z","stale":false,"bins":25,"density_birds_km3":3.498125,"heading_deg":354.5092278883262,"speed_ms":7.200704200178732,"peak_altitude_m":0.0,"u_ms":-0.5113815907059875,"v_ms":6.71618945487042}},{"type":"Feature","geometry":{"type":"Point","coordinates":[-74.4108,39.947]},"properties":{"site":"KDIX","name":"Philadelphia PA","scan_time":"2026-08-21T00:58:30Z","stale":false,"bins":25,"density_birds_km3":10.345384615384615,"heading_deg":null,"speed_ms":null,"peak_altitude_m":200.0,"u_ms":null,"v_ms":null}},{"type":"Feature","geometry":{"type":"Point","coordinates":[-84.5658,33.3636]},"properties":{"site":"KFFC","name":"Atlanta GA","scan_time":"2026-08-21T01:01:27Z","stale":false,"bins":25,"density_birds_km3":6.462,"heading_deg":118.89332525805945,"speed_ms":3.2520406478902304,"peak_altitude_m":200.0,"u_ms":2.6699164345403905,"v_ms":-1.0909089033323016}},{"type":"Feature","geometry":{"type":"Point","coordinates":[-85.5449,42.8939]},"properties":{"site":"KGRR","name":"Grand Rapids MI","scan_time":"2026-08-21T01:01:07Z","stale":false,"bins":25,"density_birds_km3":3.106,"heading_deg":281.62440340069077,"speed_ms":4.115295381310419,"peak_altitude_m":200.0,"u_ms":-4.0148356605800215,"v_ms":0.8161697099892589}},{"type":"Feature","geometry":{"type":"Point","coordinates":[-83.8217,39.4203]},"properties":{"site":"KILN","name":"Wilmington OH","scan_time":"2026-08-21T01:01:10Z","stale":false,"bins":25,"density_birds_km3":7.2733333333333325,"heading_deg":313.90856642292823,"speed_ms":1.780378655909049,"peak_altitude_m":200.0,"u_ms":-1.1722664343999265,"v_ms":0.9851746584762079}},{"type":"Feature","geometry":{"type":"Point","coordinates":[-81.7019,30.4846]},"properties":{"site":"KJAX","name":"Jacksonville FL","scan_time":"2026-08-21T01:01:49Z","stale":false,"bins":25,"density_birds_km3":9.10125,"heading_deg":81.06392542303661,"speed_ms":3.9602304372041206,"peak_altitude_m":0.0,"u_ms":3.155014619883041,"v_ms":0.328604149262044}},{"type":"Feature","geometry":{"type":"Point","coordinates":[-88.0847,41.6045]},"properties":{"site":"KLOT","name":"Chicago IL","scan_time":"2026-08-21T01:02:23Z","stale":false,"bins":25,"density_birds_km3":1.4966666666666666,"heading_deg":225.7048984324949,"speed_ms":6.411556053811659,"peak_altitude_m":200.0,"u_ms":-4.597107623318386,"v_ms":-4.431286995515695}},{"type":"Feature","geometry":{"type":"Point","coordinates":[-78.4292,33.9892]},"properties":{"site":"KLTX","name":"Wilmington NC","scan_time":"2026-08-21T01:01:08Z","stale":false,"bins":25,"density_birds_km3":3.525625,"heading_deg":3.3242221848439706,"speed_ms":6.18282860709827,"peak_altitude_m":0.0,"u_ms":0.4053932584269663,"v_ms":6.087215980024969}},{"type":"Feature","geometry":{"type":"Point","coordinates":[-77.4778,38.9753]},"properties":{"site":"KLWX","name":"Sterling VA","scan_time":"2026-08-21T01:01:25Z","stale":false,"bins":25,"density_birds_km3":26.43875,"heading_deg":192.42692055237532,"speed_ms":9.91603836089973,"peak_altitude_m":600.0,"u_ms":-2.0668936793336052,"v_ms":-8.908514535372206}},{"type":"Feature","geometry":{"type":"Point","coordinates":[-76.8762,34.7759]},"properties":{"site":"KMHX","name":"Morehead City NC","scan_time":"2026-08-21T00:57:34Z","stale":false,"bins":25,"density_birds_km3":2.9825,"heading_deg":1.2615413399437778,"speed_ms":7.617527830287755,"peak_altitude_m":0.0,"u_ms":0.1650178533921445,"v_ms":7.589516908212561}},{"type":"Feature","geometry":{"type":"Point","coordinates":[-80.6542,28.1133]},"properties":{"site":"KMLB","name":"Melbourne FL","scan_time":"2026-08-21T01:00:13Z","stale":false,"bins":25,"density_birds_km3":9.660625,"heading_deg":224.57363587489084,"speed_ms":4.278503493788819,"peak_altitude_m":0.0,"u_ms":-2.852784679089027,"v_ms":-2.8061535973084886}},{"type":"Feature","geometry":{"type":"Point","coordinates":[-86.5625,36.2472]},"properties":{"site":"KOHX","name":"Nashville TN","scan_time":"2026-08-21T00:58:48Z","stale":false,"bins":25,"density_birds_km3":10.796,"heading_deg":232.2438947664648,"speed_ms":5.264666337123085,"peak_altitude_m":200.0,"u_ms":-4.154128769154721,"v_ms":-3.197505561047949}},{"type":"Feature","geometry":{"type":"Point","coordinates":[-72.8639,40.8655]},"properties":{"site":"KOKX","name":"Upton NY","scan_time":"2026-08-21T01:00:15Z","stale":false,"bins":25,"density_birds_km3":null,"heading_deg":null,"speed_ms":null,"peak_altitude_m":null,"u_ms":null,"v_ms":null}},{"type":"Feature","geometry":{"type":"Point","coordinates":[-80.2183,40.5317]},"properties":{"site":"KPBZ","name":"Pittsburgh PA","scan_time":"2026-08-21T00:58:59Z","stale":false,"bins":25,"density_birds_km3":13.416363636363634,"heading_deg":224.00891380678553,"speed_ms":5.9405298013245025,"peak_altitude_m":600.0,"u_ms":-3.904227373068432,"v_ms":-4.3517266832229575}},{"type":"Feature","geometry":{"type":"Point","coordinates":[-78.4899,35.6655]},"properties":{"site":"KRAX","name":"Raleigh NC","scan_time":"2026-08-21T00:59:29Z","stale":false,"bins":25,"density_birds_km3":7.724375,"heading_deg":22.13066723309887,"speed_ms":6.509774405583056,"peak_altitude_m":0.0,"u_ms":2.235453217560659,"v_ms":6.021554816197354}},{"type":"Feature","geometry":{"type":"Point","coordinates":[-82.4017,27.7055]},"properties":{"site":"KTBW","name":"Tampa FL","scan_time":"2026-08-21T00:59:50Z","stale":false,"bins":25,"density_birds_km3":10.826875,"heading_deg":248.92809578071967,"speed_ms":5.297156302326925,"peak_altitude_m":0.0,"u_ms":-3.335781511634621,"v_ms":-1.9158294358796697}}]}