{"type":"FeatureCollection","frame":"2026-09-29T04","site_count":20,"fresh_count":20,"failures":{},"features":[{"type":"Feature","geometry":{"type":"Point","coordinates":[-77.0073,36.984]},"properties":{"site":"KAKQ","name":"Wakefield VA","scan_time":"2026-09-29T04:02:57Z","stale":false,"bins":25,"density_birds_km3":24.0725,"heading_deg":299.61722382840617,"speed_ms":6.827876765683423,"peak_altitude_m":200.0,"u_ms":-5.40791805151641,"v_ms":3.1855187993352723}},{"type":"Feature","geometry":{"type":"Point","coordinates":[-71.1369,41.9558]},"properties":{"site":"KBOX","name":"Boston MA","scan_time":"2026-09-29T04:01:22Z","stale":false,"bins":25,"density_birds_km3":2.750625,"heading_deg":96.8488025887502,"speed_ms":5.882625189681335,"peak_altitude_m":200.0,"u_ms":5.78900354071826,"v_ms":-0.6920080930703085}},{"type":"Feature","geometry":{"type":"Point","coordinates":[-78.7369,42.9489]},"properties":{"site":"KBUF","name":"Buffalo NY","scan_time":"2026-09-29T04:02:07Z","stale":false,"bins":25,"density_birds_km3":6.132000000000001,"heading_deg":140.667049435564,"speed_ms":7.672694063926939,"peak_altitude_m":400.0,"u_ms":3.8231071972167863,"v_ms":-5.082208088714938}},{"type":"Feature","geometry":{"type":"Point","coordinates":[-81.8597,41.4131]},"properties":{"site":"KCLE","name":"Cleveland OH","scan_time":"2026-09-29T04:01:07Z","stale":false,"bins":25,"density_birds_km3":11.197333333333335,"heading_deg":154.30145431258055,"speed_ms":10.596368076235855,"peak_altitude_m":400.0,"u_ms":3.716131625967838,"v_ms":-9.059303156640857}},{"type":"Feature","geometry":{"type":"Point","coordinates":[-81.0423,32.6555]},"properties":{"site":"KCLX","name":"Charleston SC","scan_time":"2026-09-29T04:00:44Z","stale":false,"bins":25,"density_birds_km3":42.67625,"heading_deg":264.56555073549544,"speed_ms":4.941125479628599,"peak_altitude_m":200.0,"u_ms":-2.8502110365835795,"v_ms":-0.9507130722591605}},{"type":"Feature","geometry":{"type":"Point","coordinates":[-74.4108,39.947]},"properties":{"site":"KDIX","name":"Philadelphia PA","scan_time":"2026-09-29T04:00:08Z","stale":false,"bins":25,"density_birds_km3":37.323125000000005,"heading_deg":150.10106737486277,"speed_ms":4.941582966324497,"peak_altitude_m":200.0,"u_ms":2.5770042031582294,"v_ms":-3.955476497479779}},{"type":"Feature","geometry":{"type":"Point","coordinates":[-84.5658,33.3636]},"properties":{"site":"KFFC","name":"Atlanta GA","scan_time":"2026-09-29T04:00:52Z","stale":false,"bins":25,"density_birds_km3":56.77133333333334,"heading_deg":182.24437605483115,"speed_ms":8.579716641027748,"peak_altitude_m":400.0,"u_ms":-0.33307631785995273,"v_ms":-8.352572307620044}},{"type":"Feature","geometry":{"type":"Point","coordinates":[-85.5449,42.8939]},"properties":{"site":"KGRR","name":"Grand Rapids MI","scan_time":"2026-09-29T03:59:03Z","stale":false,"bins":25,"density_birds_km3":44.49933333333333,"heading_deg":181.98902099984733,"speed_ms":9.514842169920149,"peak_altitude_m":400.0,"u_ms":-0.3567141080765255,"v_ms":-9.46316738827548}},{"type":"Feature","geometry":{"type":"Point","coordinates":[-83.8217,39.4203]},"properties":{"site":"KILN","name":"Wilmington OH","scan_time":"2026-09-29T03:59:57Z","stale":false,"bins":25,"density_birds_km3":53.19733333333333,"heading_deg":193.8768582384645,"speed_ms":5.700880244623791,"peak_altitude_m":200.0,"u_ms":-0.833262318913229,"v_ms":-4.865452779587948}},{"type":"Feature","geometry":{"type":"Point","coordinates":[-81.7019,30.4846]},"properties":{"site":"KJAX","name":"Jacksonville FL","scan_time":"2026-09-29T03:57:46Z","stale":false,"bins":25,"density_birds_km3":58.47625,"heading_deg":170.79783104440037,"speed_ms":7.776349265727539,"peak_altitude_m":600.0,"u_ms":0.44232498236463513,"v_ms":-6.996081528825806}},{"type":"Feature","geometry":{"type":"Point","coordinates":[-88.0847,41.6045]},"properties":{"site":"KLOT","name":"Chicago IL","scan_time":"2026-09-29T03:57:47Z","stale":false,"bins":25,"density_birds_km3":44.888000000000005,"heading_deg":169.57138871298127,"speed_ms":7.755765312184399,"peak_altitude_m":600.0,"u_ms":1.435496643497891,"v_ms":-7.53776020317234}},{"type":"Feature","geometry":{"type":"Point","coordinates":[-78.4292,33.9892]},"properties":{"site":"KLTX","name":"Wilmington NC","scan_time":"2026-09-29T03:59:08Z","stale":false,"bins":25,"density_birds_km3":30.61875,"heading_deg":291.85168117220877,"speed_ms":2.0627858746683,"peak_altitude_m":0.0,"u_ms":-1.6677854664217187,"v_ms":0.10513819146764646}},{"type":"Feature","geometry":{"type":"Point","coordinates":[-77.4778,38.9753]},"properties":{"site":"KLWX","name":"Sterling VA","scan_time":"2026-09-29T03:58:35Z","stale":false,"bins":25,"density_birds_km3":22.19875,"heading_deg":170.66265264658816,"speed_ms":6.913291189142004,"peak_altitude_m":400.0,"u_ms":0.05668684707008706,"v_ms":-6.2043519274631835}},{"type":"Feature","geometry":{"type":"Point","coordinates":[-76.8762,34.7759]},"properties":{"site":"KMHX","name":"Morehead City NC","scan_time":"2026-09-29T04:00:53Z","stale":false,"bins":25,"density_birds_km3":6.261875,"heading_deg":354.7024425974085,"speed_ms":2.912789605197401,"peak_altitude_m":0.0,"u_ms":-0.12302648675662178,"v_ms":1.3061819090454772}},{"type":"Feature","geometry":{"type":"Point","coordinates":[-80.6542,28.1133]},"properties":{"site":"KMLB","name":"Melbourne FL","scan_time":"2026-09-29T04:01:15Z","stale":false,"bins":25,"density_birds_km3":11.555625,"heading_deg":18.579262759119654,"speed_ms":6.552757315160366,"peak_altitude_m":200.0,"u_ms":1.378944777976094,"v_ms":2.9896084158148084}},{"type":"Feature","geometry":{"type":"Point","coordinates":[-86.5625,36.2472]},"properties":{"site":"KOHX","name":"Nashville TN","scan_time":"2026-09-29T04:01:06Z","stale":false,"bins":25,"density_birds_km3":66.826,"heading_deg":186.5334011916015,"speed_ms":8.376184219714881,"peak_altitude_m":200.0,"u_ms":-0.17423148674667555,"v_ms":-7.173993355879449}},{"type":"Feature","geometry":{"type":"Point","coordinates":[-72.8639,40.8655]},"properties":{"site":"KOKX","name":"Upton NY","scan_time":"2026-09-29T04:00:07Z","stale":false,"bins":25,"density_birds_km3":11.01125,"heading_deg":137.93810149134777,"speed_ms":8.75038826133848,"peak_altitude_m":0.0,"u_ms":4.74863995004825,"v_ms":-5.809562354543907}},{"type":"Feature","geometry":{"type":"Point","coordinates":[-80.2183,40.5317]},"properties":{"site":"KPBZ","name":"Pittsburgh PA","scan_time":"2026-09-29T04:02:18Z","stale":false,"bins":25,"density_birds_km3":12.498571428571427,"heading_deg":115.57525316957616,"speed_ms":5.238798719853698,"peak_altitude_m":400.0,"u_ms":3.0162338552977483,"v_ms":-1.8917579151903074}},{"type":"Feature","geometry":{"type":"Point","coordinates":[-78.4899,35.6655]},"properties":{"site":"KRAX","name":"Raleigh NC","scan_time":"2026-09-29T03:59:54Z","stale":false,"bins":25,"density_birds_km3":23.39375,"heading_deg":269.456284854326,"speed_ms":3.3862823629999736,"peak_altitude_m":200.0,"u_ms":-2.800390092713816,"v_ms":-0.2115606380420552}},{"type":"Feature","geometry":{"type":"Point","coordinates":[-82.4017,27.7055]},"properties":{"site":"KTBW","name":"Tampa FL","scan_time":"2026-09-29T03:58:26Z","stale":false,"bins":25,"density_birds_km3":10.258125,"heading_deg":127.76112169827266,"speed_ms":4.4328660208371415,"peak_altitude_m":0.0,"u_ms":0.24475537683543533,"v_ms":-2.2737354536038508}}]}