{"type":"FeatureCollection","frame":"2026-08-29T00","site_count":20,"fresh_count":20,"failures":{},"features":[{"type":"Feature","geometry":{"type":"Point","coordinates":[-77.0073,36.984]},"properties":{"site":"KAKQ","name":"Wakefield VA","scan_time":"2026-08-28T23:58:47Z","stale":false,"bins":25,"density_birds_km3":13.341875,"heading_deg":228.82050571660497,"speed_ms":3.7153520730850316,"peak_altitude_m":0.0,"u_ms":-2.732187397516983,"v_ms":-2.481601780276411}},{"type":"Feature","geometry":{"type":"Point","coordinates":[-71.1369,41.9558]},"properties":{"site":"KBOX","name":"Boston MA","scan_time":"2026-08-28T23:59:25Z","stale":false,"bins":25,"density_birds_km3":3.4325,"heading_deg":104.89046005905699,"speed_ms":4.602252367079388,"peak_altitude_m":0.0,"u_ms":4.377971595047342,"v_ms":-1.2673871085214858}},{"type":"Feature","geometry":{"type":"Point","coordinates":[-78.7369,42.9489]},"properties":{"site":"KBUF","name":"Buffalo NY","scan_time":"2026-08-29T00:00:13Z","stale":false,"bins":25,"density_birds_km3":0.4733333333333334,"heading_deg":76.20679342281798,"speed_ms":2.650943661971831,"peak_altitude_m":200.0,"u_ms":2.545901408450704,"v_ms":0.6333802816901408}},{"type":"Feature","geometry":{"type":"Point","coordinates":[-81.8597,41.4131]},"properties":{"site":"KCLE","name":"Cleveland OH","scan_time":"2026-08-28T23:59:23Z","stale":false,"bins":25,"density_birds_km3":2.3126666666666664,"heading_deg":266.47353628927766,"speed_ms":3.4503689824156822,"peak_altitude_m":200.0,"u_ms":-3.2003545690400697,"v_ms":-0.47867685211876626}},{"type":"Feature","geometry":{"type":"Point","coordinates":[-81.0423,32.6555]},"properties":{"site":"KCLX","name":"Charleston SC","scan_time":"2026-08-29T00:01:18Z","stale":false,"bins":25,"density_birds_km3":1.6442857142857144,"heading_deg":19.599999999999998,"speed_ms":2.13,"peak_altitude_m":200.0,"u_ms":0.71,"v_ms":2.01}},{"type":"Feature","geometry":{"type":"Point","coordinates":[-74.4108,39.947]},"properties":{"site":"KDIX","name":"Philadelphia PA","scan_time":"2026-08-29T00:01:25Z","stale":false,"bins":25,"density_birds_km3":2.025625,"heading_deg":102.23721638388687,"speed_ms":3.9315434580884627,"peak_altitude_m":0.0,"u_ms":2.6008011135168574,"v_ms":-1.0752799257655428}},{"type":"Feature","geometry":{"type":"Point","coordinates":[-84.5658,33.3636]},"properties":{"site":"KFFC","name":"Atlanta GA","scan_time":"2026-08-28T23:58:44Z","stale":false,"bins":25,"density_birds_km3":0.7426666666666667,"heading_deg":276.6017905340259,"speed_ms":3.603357271095153,"peak_altitude_m":200.0,"u_ms":-3.2764003590664275,"v_ms":0.31662477558348295}},{"type":"Feature","geometry":{"type":"Point","coordinates":[-85.5449,42.8939]},"properties":{"site":"KGRR","name":"Grand Rapids MI","scan_time":"2026-08-29T00:02:10Z","stale":false,"bins":25,"density_birds_km3":0.9313333333333332,"heading_deg":96.71282497017597,"speed_ms":3.3066642806012885,"peak_altitude_m":200.0,"u_ms":3.2768647100930566,"v_ms":-0.38156764495347173}},{"type":"Feature","geometry":{"type":"Point","coordinates":[-83.8217,39.4203]},"properties":{"site":"KILN","name":"Wilmington OH","scan_time":"2026-08-29T00:00:51Z","stale":false,"bins":25,"density_birds_km3":4.048,"heading_deg":205.25020795141666,"speed_ms":7.630273476112027,"peak_altitude_m":400.0,"u_ms":-3.1836425041186165,"v_ms":-6.907858319604613}},{"type":"Feature","geometry":{"type":"Point","coordinates":[-81.7019,30.4846]},"properties":{"site":"KJAX","name":"Jacksonville FL","scan_time":"2026-08-28T23:58:02Z","stale":false,"bins":25,"density_birds_km3":10.610624999999999,"heading_deg":314.7091465255344,"speed_ms":2.5099457898768485,"peak_altitude_m":0.0,"u_ms":-1.786935360320547,"v_ms":1.7512780625773379}},{"type":"Feature","geometry":{"type":"Point","coordinates":[-88.0847,41.6045]},"properties":{"site":"KLOT","name":"Chicago IL","scan_time":"2026-08-29T00:02:30Z","stale":false,"bins":25,"density_birds_km3":1.9206666666666665,"heading_deg":105.26650559833396,"speed_ms":5.287927083333333,"peak_altitude_m":200.0,"u_ms":5.095385416666667,"v_ms":-1.3945902777777777}},{"type":"Feature","geometry":{"type":"Point","coordinates":[-78.4292,33.9892]},"properties":{"site":"KLTX","name":"Wilmington NC","scan_time":"2026-08-29T00:00:29Z","stale":false,"bins":25,"density_birds_km3":0.735625,"heading_deg":63.38034988378309,"speed_ms":3.5468627450980383,"peak_altitude_m":0.0,"u_ms":3.153725490196078,"v_ms":1.5806773618538326}},{"type":"Feature","geometry":{"type":"Point","coordinates":[-77.4778,38.9753]},"properties":{"site":"KLWX","name":"Sterling VA","scan_time":"2026-08-28T23:59:05Z","stale":false,"bins":25,"density_birds_km3":9.78875,"heading_deg":215.11144542343087,"speed_ms":5.809157780473788,"peak_altitude_m":200.0,"u_ms":-3.3221907924142777,"v_ms":-4.747667454185557}},{"type":"Feature","geometry":{"type":"Point","coordinates":[-76.8762,34.7759]},"properties":{"site":"KMHX","name":"Morehead City NC","scan_time":"2026-08-28T23:59:37Z","stale":false,"bins":25,"density_birds_km3":0.42124999999999996,"heading_deg":49.625949058967386,"speed_ms":6.831783060921248,"peak_altitude_m":0.0,"u_ms":5.161946508172362,"v_ms":4.438320950965824}},{"type":"Feature","geometry":{"type":"Point","coordinates":[-80.6542,28.1133]},"properties":{"site":"KMLB","name":"Melbourne FL","scan_time":"2026-08-29T00:02:05Z","stale":false,"bins":25,"density_birds_km3":4.8931249999999995,"heading_deg":187.62311701729197,"speed_ms":7.713852385238524,"peak_altitude_m":0.0,"u_ms":-1.1101915905876303,"v_ms":-7.484819339076765}},{"type":"Feature","geometry":{"type":"Point","coordinates":[-86.5625,36.2472]},"properties":{"site":"KOHX","name":"Nashville TN","scan_time":"2026-08-28T23:58:17Z","stale":false,"bins":25,"density_birds_km3":8.068,"heading_deg":205.52983293115128,"speed_ms":7.344184162671515,"peak_altitude_m":200.0,"u_ms":-3.167553314597454,"v_ms":-6.622599603240205}},{"type":"Feature","geometry":{"type":"Point","coordinates":[-72.8639,40.8655]},"properties":{"site":"KOKX","name":"Upton NY","scan_time":"2026-08-28T23:58:55Z","stale":false,"bins":25,"density_birds_km3":3.098125,"heading_deg":78.09931290097515,"speed_ms":4.8509501714746825,"peak_altitude_m":0.0,"u_ms":4.734220294532983,"v_ms":1.004377647770829}},{"type":"Feature","geometry":{"type":"Point","coordinates":[-80.2183,40.5317]},"properties":{"site":"KPBZ","name":"Pittsburgh PA","scan_time":"2026-08-28T23:57:02Z","stale":false,"bins":25,"density_birds_km3":2.8542857142857145,"heading_deg":196.82139827232172,"speed_ms":8.340327827827828,"peak_altitude_m":400.0,"u_ms":-2.368701201201201,"v_ms":-7.961423923923923}},{"type":"Feature","geometry":{"type":"Point","coordinates":[-78.4899,35.6655]},"properties":{"site":"KRAX","name":"Raleigh NC","scan_time":"2026-08-28T23:57:49Z","stale":false,"bins":25,"density_birds_km3":10.32,"heading_deg":70.46422210032145,"speed_ms":3.418145591085271,"peak_altitude_m":0.0,"u_ms":3.115175024224806,"v_ms":1.1960998062015504}},{"type":"Feature","geometry":{"type":"Point","coordinates":[-82.4017,27.7055]},"properties":{"site":"KTBW","name":"Tampa FL","scan_time":"2026-08-28T23:58:56Z","stale":false,"bins":25,"density_birds_km3":1.039375,"heading_deg":197.28042667951334,"speed_ms":3.9222008418520744,"peak_altitude_m":0.0,"u_ms":-1.1313710162357185,"v_ms":-3.6226157546602527}}]}