{"type":"FeatureCollection","frame":"2026-10-06T06","site_count":20,"fresh_count":19,"failures":{"KILN":"RuntimeError('no scan within 20 min of 2026-10-06T06:00Z')"},"features":[{"type":"Feature","geometry":{"type":"Point","coordinates":[-77.0073,36.984]},"properties":{"site":"KAKQ","name":"Wakefield VA","scan_time":"2026-10-06T05:59:09Z","stale":false,"bins":25,"density_birds_km3":85.70625,"heading_deg":205.90153457670206,"speed_ms":16.803592660657507,"peak_altitude_m":200.0,"u_ms":-7.452541349435547,"v_ms":-14.9853243779353}},{"type":"Feature","geometry":{"type":"Point","coordinates":[-71.1369,41.9558]},"properties":{"site":"KBOX","name":"Boston MA","scan_time":"2026-10-06T05:57:05Z","stale":false,"bins":25,"density_birds_km3":3.073125,"heading_deg":125.84191014922685,"speed_ms":8.44765100671141,"peak_altitude_m":0.0,"u_ms":6.820117958104536,"v_ms":-4.977618466544641}},{"type":"Feature","geometry":{"type":"Point","coordinates":[-78.7369,42.9489]},"properties":{"site":"KBUF","name":"Buffalo NY","scan_time":"2026-10-06T05:58:20Z","stale":false,"bins":25,"density_birds_km3":32.48,"heading_deg":178.5821177397796,"speed_ms":11.734111247947457,"peak_altitude_m":400.0,"u_ms":0.23470730706075532,"v_ms":-11.697221264367816}},{"type":"Feature","geometry":{"type":"Point","coordinates":[-81.8597,41.4131]},"properties":{"site":"KCLE","name":"Cleveland OH","scan_time":"2026-10-06T05:59:04Z","stale":false,"bins":25,"density_birds_km3":23.666,"heading_deg":222.98374897533998,"speed_ms":8.72772049916899,"peak_altitude_m":400.0,"u_ms":-5.405287191188484,"v_ms":-6.211726245809741}},{"type":"Feature","geometry":{"type":"Point","coordinates":[-81.0423,32.6555]},"properties":{"site":"KCLX","name":"Charleston SC","scan_time":"2026-10-06T05:58:05Z","stale":false,"bins":25,"density_birds_km3":130.83375,"heading_deg":207.51540100665343,"speed_ms":13.064942767055225,"peak_altitude_m":0.0,"u_ms":-6.133487674374163,"v_ms":-11.341837712593158}},{"type":"Feature","geometry":{"type":"Point","coordinates":[-74.4108,39.947]},"properties":{"site":"KDIX","name":"Philadelphia PA","scan_time":"2026-10-06T05:57:55Z","stale":false,"bins":25,"density_birds_km3":19.03,"heading_deg":192.76222441548663,"speed_ms":13.783060956384656,"peak_altitude_m":0.0,"u_ms":-2.7659090909090907,"v_ms":-13.407662572254337}},{"type":"Feature","geometry":{"type":"Point","coordinates":[-84.5658,33.3636]},"properties":{"site":"KFFC","name":"Atlanta GA","scan_time":"2026-10-06T06:00:34Z","stale":false,"bins":25,"density_birds_km3":346.67266666666666,"heading_deg":211.51518907007303,"speed_ms":9.714142928295471,"peak_altitude_m":200.0,"u_ms":-5.1329335069200726,"v_ms":-7.977002340344108}},{"type":"Feature","geometry":{"type":"Point","coordinates":[-85.5449,42.8939]},"properties":{"site":"KGRR","name":"Grand Rapids MI","scan_time":"2026-10-06T05:57:37Z","stale":false,"bins":25,"density_birds_km3":57.754,"heading_deg":240.09387582372372,"speed_ms":10.695792104351842,"peak_altitude_m":200.0,"u_ms":-8.6753619993074,"v_ms":-4.940971372503752}},{"type":"Feature","geometry":{"type":"Point","coordinates":[-81.7019,30.4846]},"properties":{"site":"KJAX","name":"Jacksonville FL","scan_time":"2026-10-06T05:58:26Z","stale":false,"bins":25,"density_birds_km3":197.02642857142857,"heading_deg":199.45849866899727,"speed_ms":10.62216655258621,"peak_altitude_m":0.0,"u_ms":-3.613682517139521,"v_ms":-9.879615737978543}},{"type":"Feature","geometry":{"type":"Point","coordinates":[-88.0847,41.6045]},"properties":{"site":"KLOT","name":"Chicago IL","scan_time":"2026-10-06T06:02:37Z","stale":false,"bins":25,"density_birds_km3":6.652666666666666,"heading_deg":303.0592865588143,"speed_ms":11.49369075057621,"peak_altitude_m":200.0,"u_ms":-9.140771620402846,"v_ms":5.645343220763604}},{"type":"Feature","geometry":{"type":"Point","coordinates":[-78.4292,33.9892]},"properties":{"site":"KLTX","name":"Wilmington NC","scan_time":"2026-10-06T06:01:56Z","stale":false,"bins":25,"density_birds_km3":140.871875,"heading_deg":219.6820648203496,"speed_ms":15.632144584300173,"peak_altitude_m":0.0,"u_ms":-9.997461699890414,"v_ms":-11.917826843130383}},{"type":"Feature","geometry":{"type":"Point","coordinates":[-77.4778,38.9753]},"properties":{"site":"KLWX","name":"Sterling VA","scan_time":"2026-10-06T05:59:41Z","stale":false,"bins":25,"density_birds_km3":69.319375,"heading_deg":197.44452991562545,"speed_ms":12.698660938091718,"peak_altitude_m":0.0,"u_ms":-3.5817467945828003,"v_ms":-12.121058644257301}},{"type":"Feature","geometry":{"type":"Point","coordinates":[-76.8762,34.7759]},"properties":{"site":"KMHX","name":"Morehead City NC","scan_time":"2026-10-06T06:02:02Z","stale":false,"bins":25,"density_birds_km3":103.6325,"heading_deg":203.7433900278428,"speed_ms":14.902590041734012,"peak_altitude_m":0.0,"u_ms":-5.994020215665936,"v_ms":-13.62190643620486}},{"type":"Feature","geometry":{"type":"Point","coordinates":[-80.6542,28.1133]},"properties":{"site":"KMLB","name":"Melbourne FL","scan_time":"2026-10-06T05:58:27Z","stale":false,"bins":25,"density_birds_km3":25.805,"heading_deg":null,"speed_ms":null,"peak_altitude_m":0.0,"u_ms":null,"v_ms":null}},{"type":"Feature","geometry":{"type":"Point","coordinates":[-86.5625,36.2472]},"properties":{"site":"KOHX","name":"Nashville TN","scan_time":"2026-10-06T05:56:38Z","stale":false,"bins":25,"density_birds_km3":62.812,"heading_deg":220.1322721783628,"speed_ms":11.558798212655757,"peak_altitude_m":200.0,"u_ms":-7.438181133116815,"v_ms":-8.493235475174595}},{"type":"Feature","geometry":{"type":"Point","coordinates":[-72.8639,40.8655]},"properties":{"site":"KOKX","name":"Upton NY","scan_time":"2026-10-06T06:00:47Z","stale":false,"bins":25,"density_birds_km3":4.579375000000001,"heading_deg":135.7524313143836,"speed_ms":7.326378651378651,"peak_altitude_m":0.0,"u_ms":4.807867867867867,"v_ms":-5.447923832923832}},{"type":"Feature","geometry":{"type":"Point","coordinates":[-80.2183,40.5317]},"properties":{"site":"KPBZ","name":"Pittsburgh PA","scan_time":"2026-10-06T06:01:03Z","stale":false,"bins":25,"density_birds_km3":34.10857142857143,"heading_deg":206.9073448787473,"speed_ms":10.570603141361255,"peak_altitude_m":600.0,"u_ms":-4.713254031413612,"v_ms":-9.234027225130891}},{"type":"Feature","geometry":{"type":"Point","coordinates":[-78.4899,35.6655]},"properties":{"site":"KRAX","name":"Raleigh NC","scan_time":"2026-10-06T05:59:55Z","stale":false,"bins":25,"density_birds_km3":224.020625,"heading_deg":200.07072067111113,"speed_ms":11.475481498634334,"peak_altitude_m":400.0,"u_ms":-4.054627726799709,"v_ms":-10.655845053329353}},{"type":"Feature","geometry":{"type":"Point","coordinates":[-82.4017,27.7055]},"properties":{"site":"KTBW","name":"Tampa FL","scan_time":"2026-10-06T06:00:23Z","stale":false,"bins":25,"density_birds_km3":6.79,"heading_deg":218.4480169036513,"speed_ms":5.6276086156111935,"peak_altitude_m":0.0,"u_ms":-3.4916688144329897,"v_ms":-4.14205265095729}}]}