{"type":"FeatureCollection","frame":"2026-08-19T09","site_count":20,"fresh_count":20,"failures":{},"features":[{"type":"Feature","geometry":{"type":"Point","coordinates":[-77.0073,36.984]},"properties":{"site":"KAKQ","name":"Wakefield VA","scan_time":"2026-08-19T08:57:13Z","stale":false,"bins":25,"density_birds_km3":6.71625,"heading_deg":209.36725334391258,"speed_ms":7.8304272947309626,"peak_altitude_m":200.0,"u_ms":-3.6956656116179483,"v_ms":-6.837846769689071}},{"type":"Feature","geometry":{"type":"Point","coordinates":[-71.1369,41.9558]},"properties":{"site":"KBOX","name":"Boston MA","scan_time":"2026-08-19T09:00:59Z","stale":false,"bins":25,"density_birds_km3":2.23875,"heading_deg":45.99076441267283,"speed_ms":2.591761252446184,"peak_altitude_m":0.0,"u_ms":1.638454011741683,"v_ms":1.8355409561084708}},{"type":"Feature","geometry":{"type":"Point","coordinates":[-78.7369,42.9489]},"properties":{"site":"KBUF","name":"Buffalo NY","scan_time":"2026-08-19T08:58:57Z","stale":false,"bins":25,"density_birds_km3":0.5186666666666667,"heading_deg":50.85335206651767,"speed_ms":9.356182519280205,"peak_altitude_m":200.0,"u_ms":6.863444730077121,"v_ms":5.587866323907455}},{"type":"Feature","geometry":{"type":"Point","coordinates":[-81.8597,41.4131]},"properties":{"site":"KCLE","name":"Cleveland OH","scan_time":"2026-08-19T09:01:45Z","stale":false,"bins":25,"density_birds_km3":0.478,"heading_deg":67.12939723949184,"speed_ms":8.630655509065551,"peak_altitude_m":200.0,"u_ms":7.845871687587168,"v_ms":3.1566945606694556}},{"type":"Feature","geometry":{"type":"Point","coordinates":[-81.0423,32.6555]},"properties":{"site":"KCLX","name":"Charleston SC","scan_time":"2026-08-19T08:56:15Z","stale":false,"bins":25,"density_birds_km3":10.194374999999999,"heading_deg":173.62157210425315,"speed_ms":9.4537282315428,"peak_altitude_m":0.0,"u_ms":1.056761712043169,"v_ms":-9.328971057149865}},{"type":"Feature","geometry":{"type":"Point","coordinates":[-74.4108,39.947]},"properties":{"site":"KDIX","name":"Philadelphia PA","scan_time":"2026-08-19T09:00:08Z","stale":false,"bins":25,"density_birds_km3":4.14625,"heading_deg":206.2075764039699,"speed_ms":3.843834314169308,"peak_altitude_m":200.0,"u_ms":-1.6215602836879432,"v_ms":-3.147741059302852}},{"type":"Feature","geometry":{"type":"Point","coordinates":[-84.5658,33.3636]},"properties":{"site":"KFFC","name":"Atlanta GA","scan_time":"2026-08-19T08:56:35Z","stale":false,"bins":25,"density_birds_km3":27.959333333333333,"heading_deg":172.71439963157968,"speed_ms":7.677141801187439,"peak_altitude_m":400.0,"u_ms":0.9644662485991561,"v_ms":-6.847797753880636}},{"type":"Feature","geometry":{"type":"Point","coordinates":[-85.5449,42.8939]},"properties":{"site":"KGRR","name":"Grand Rapids MI","scan_time":"2026-08-19T08:57:32Z","stale":false,"bins":25,"density_birds_km3":0.4553333333333333,"heading_deg":92.38333844695269,"speed_ms":7.94928046989721,"peak_altitude_m":200.0,"u_ms":7.066578560939794,"v_ms":-0.3622026431718063}},{"type":"Feature","geometry":{"type":"Point","coordinates":[-83.8217,39.4203]},"properties":{"site":"KILN","name":"Wilmington OH","scan_time":"2026-08-19T08:58:22Z","stale":false,"bins":25,"density_birds_km3":0.7206666666666667,"heading_deg":84.916984638434,"speed_ms":7.735519480519482,"peak_altitude_m":200.0,"u_ms":7.510621521335808,"v_ms":0.3819016697588127}},{"type":"Feature","geometry":{"type":"Point","coordinates":[-81.7019,30.4846]},"properties":{"site":"KJAX","name":"Jacksonville FL","scan_time":"2026-08-19T09:01:10Z","stale":false,"bins":25,"density_birds_km3":30.42375,"heading_deg":178.64208701383888,"speed_ms":7.644621152976949,"peak_altitude_m":0.0,"u_ms":0.3958230266672147,"v_ms":-7.5627912232403345}},{"type":"Feature","geometry":{"type":"Point","coordinates":[-88.0847,41.6045]},"properties":{"site":"KLOT","name":"Chicago IL","scan_time":"2026-08-19T08:59:47Z","stale":false,"bins":25,"density_birds_km3":3.3766666666666665,"heading_deg":147.77879040948744,"speed_ms":7.640820482404113,"peak_altitude_m":400.0,"u_ms":4.213552787663109,"v_ms":-6.24189007512851}},{"type":"Feature","geometry":{"type":"Point","coordinates":[-78.4292,33.9892]},"properties":{"site":"KLTX","name":"Wilmington NC","scan_time":"2026-08-19T08:59:34Z","stale":false,"bins":25,"density_birds_km3":21.839375,"heading_deg":230.17649895496007,"speed_ms":8.661126405860974,"peak_altitude_m":0.0,"u_ms":-6.475720172852932,"v_ms":-5.366587871676731}},{"type":"Feature","geometry":{"type":"Point","coordinates":[-77.4778,38.9753]},"properties":{"site":"KLWX","name":"Sterling VA","scan_time":"2026-08-19T08:58:26Z","stale":false,"bins":25,"density_birds_km3":5.965625,"heading_deg":193.51722448357125,"speed_ms":5.774250183649911,"peak_altitude_m":400.0,"u_ms":-1.41092244726624,"v_ms":-5.305380417672368}},{"type":"Feature","geometry":{"type":"Point","coordinates":[-76.8762,34.7759]},"properties":{"site":"KMHX","name":"Morehead City NC","scan_time":"2026-08-19T08:58:36Z","stale":false,"bins":25,"density_birds_km3":8.049375,"heading_deg":218.63365246175044,"speed_ms":6.640040375805575,"peak_altitude_m":0.0,"u_ms":-4.1168211817687705,"v_ms":-4.983395449957295}},{"type":"Feature","geometry":{"type":"Point","coordinates":[-80.6542,28.1133]},"properties":{"site":"KMLB","name":"Melbourne FL","scan_time":"2026-08-19T08:58:16Z","stale":false,"bins":25,"density_birds_km3":2.675,"heading_deg":131.28435423627,"speed_ms":8.201447276128128,"peak_altitude_m":0.0,"u_ms":5.704587327566052,"v_ms":-5.6066121112929626}},{"type":"Feature","geometry":{"type":"Point","coordinates":[-86.5625,36.2472]},"properties":{"site":"KOHX","name":"Nashville TN","scan_time":"2026-08-19T09:00:51Z","stale":false,"bins":25,"density_birds_km3":22.454,"heading_deg":221.19100331351643,"speed_ms":3.7159656779786823,"peak_altitude_m":400.0,"u_ms":-1.9681274308957573,"v_ms":-2.353105905406609}},{"type":"Feature","geometry":{"type":"Point","coordinates":[-72.8639,40.8655]},"properties":{"site":"KOKX","name":"Upton NY","scan_time":"2026-08-19T09:01:33Z","stale":false,"bins":25,"density_birds_km3":1.6833333333333333,"heading_deg":136.90711878329722,"speed_ms":3.4592081993569135,"peak_altitude_m":0.0,"u_ms":2.3036093247588427,"v_ms":-2.303315916398714}},{"type":"Feature","geometry":{"type":"Point","coordinates":[-80.2183,40.5317]},"properties":{"site":"KPBZ","name":"Pittsburgh PA","scan_time":"2026-08-19T09:01:42Z","stale":false,"bins":25,"density_birds_km3":0.6992857142857144,"heading_deg":102.75515021060451,"speed_ms":5.674229166666667,"peak_altitude_m":400.0,"u_ms":5.474729166666667,"v_ms":-0.97203125}},{"type":"Feature","geometry":{"type":"Point","coordinates":[-78.4899,35.6655]},"properties":{"site":"KRAX","name":"Raleigh NC","scan_time":"2026-08-19T08:57:10Z","stale":false,"bins":25,"density_birds_km3":7.866875,"heading_deg":219.32251841836313,"speed_ms":6.538532007952286,"peak_altitude_m":200.0,"u_ms":-4.11297495029821,"v_ms":-4.874551093439363}},{"type":"Feature","geometry":{"type":"Point","coordinates":[-82.4017,27.7055]},"properties":{"site":"KTBW","name":"Tampa FL","scan_time":"2026-08-19T08:59:05Z","stale":false,"bins":25,"density_birds_km3":1.81875,"heading_deg":118.35178416584615,"speed_ms":3.9528586171310627,"peak_altitude_m":0.0,"u_ms":2.9320330237358103,"v_ms":-2.2777949776401787}}]}