{"type":"FeatureCollection","frame":"2026-08-31T04","site_count":20,"fresh_count":20,"failures":{},"features":[{"type":"Feature","geometry":{"type":"Point","coordinates":[-77.0073,36.984]},"properties":{"site":"KAKQ","name":"Wakefield VA","scan_time":"2026-08-31T04:03:03Z","stale":false,"bins":25,"density_birds_km3":5.97625,"heading_deg":42.954209198572784,"speed_ms":6.234117046614495,"peak_altitude_m":0.0,"u_ms":2.5158092321651355,"v_ms":3.0846750595440633}},{"type":"Feature","geometry":{"type":"Point","coordinates":[-71.1369,41.9558]},"properties":{"site":"KBOX","name":"Boston MA","scan_time":"2026-08-31T03:56:59Z","stale":false,"bins":25,"density_birds_km3":2.105625,"heading_deg":130.3830862080339,"speed_ms":6.145389259612329,"peak_altitude_m":0.0,"u_ms":4.102894820463933,"v_ms":-4.349148395297108}},{"type":"Feature","geometry":{"type":"Point","coordinates":[-78.7369,42.9489]},"properties":{"site":"KBUF","name":"Buffalo NY","scan_time":"2026-08-31T04:02:14Z","stale":false,"bins":25,"density_birds_km3":1.3586666666666667,"heading_deg":83.12917718549873,"speed_ms":4.958164867517174,"peak_altitude_m":200.0,"u_ms":4.637060843964671,"v_ms":0.41013248282630027}},{"type":"Feature","geometry":{"type":"Point","coordinates":[-81.8597,41.4131]},"properties":{"site":"KCLE","name":"Cleveland OH","scan_time":"2026-08-31T03:59:13Z","stale":false,"bins":25,"density_birds_km3":1.3840000000000001,"heading_deg":24.388763776197894,"speed_ms":9.361798941798941,"peak_altitude_m":200.0,"u_ms":4.059835390946502,"v_ms":6.120370370370371}},{"type":"Feature","geometry":{"type":"Point","coordinates":[-81.0423,32.6555]},"properties":{"site":"KCLX","name":"Charleston SC","scan_time":"2026-08-31T04:00:17Z","stale":false,"bins":25,"density_birds_km3":13.16125,"heading_deg":225.39860093061844,"speed_ms":8.924599875782333,"peak_altitude_m":0.0,"u_ms":-6.167109072667336,"v_ms":-6.257046486073288}},{"type":"Feature","geometry":{"type":"Point","coordinates":[-74.4108,39.947]},"properties":{"site":"KDIX","name":"Philadelphia PA","scan_time":"2026-08-31T03:59:43Z","stale":false,"bins":25,"density_birds_km3":25.53153846153846,"heading_deg":151.85297802314295,"speed_ms":1.625583864118896,"peak_altitude_m":0.0,"u_ms":0.8834041047416844,"v_ms":-1.3179098844066996}},{"type":"Feature","geometry":{"type":"Point","coordinates":[-84.5658,33.3636]},"properties":{"site":"KFFC","name":"Atlanta GA","scan_time":"2026-08-31T04:02:37Z","stale":false,"bins":25,"density_birds_km3":22.144000000000002,"heading_deg":243.67850267910677,"speed_ms":5.084215438342967,"peak_altitude_m":400.0,"u_ms":-4.417245604527937,"v_ms":-2.4036641979768785}},{"type":"Feature","geometry":{"type":"Point","coordinates":[-85.5449,42.8939]},"properties":{"site":"KGRR","name":"Grand Rapids MI","scan_time":"2026-08-31T03:59:44Z","stale":false,"bins":25,"density_birds_km3":2.3913333333333333,"heading_deg":33.79305736701717,"speed_ms":6.397814329523279,"peak_altitude_m":200.0,"u_ms":4.154889880122665,"v_ms":3.753130749930304}},{"type":"Feature","geometry":{"type":"Point","coordinates":[-83.8217,39.4203]},"properties":{"site":"KILN","name":"Wilmington OH","scan_time":"2026-08-31T03:58:44Z","stale":false,"bins":25,"density_birds_km3":5.676,"heading_deg":40.233249756515676,"speed_ms":5.543273389750823,"peak_altitude_m":200.0,"u_ms":3.5278772919605075,"v_ms":1.181879407616361}},{"type":"Feature","geometry":{"type":"Point","coordinates":[-81.7019,30.4846]},"properties":{"site":"KJAX","name":"Jacksonville FL","scan_time":"2026-08-31T03:58:23Z","stale":false,"bins":25,"density_birds_km3":47.568125,"heading_deg":190.02262160341095,"speed_ms":10.932954100471742,"peak_altitude_m":0.0,"u_ms":-1.8939053363293519,"v_ms":-10.762569874246067}},{"type":"Feature","geometry":{"type":"Point","coordinates":[-88.0847,41.6045]},"properties":{"site":"KLOT","name":"Chicago IL","scan_time":"2026-08-31T04:00:07Z","stale":false,"bins":25,"density_birds_km3":2.126666666666667,"heading_deg":27.005071643661502,"speed_ms":10.562326490713588,"peak_altitude_m":200.0,"u_ms":4.760651678071032,"v_ms":9.253857934180514}},{"type":"Feature","geometry":{"type":"Point","coordinates":[-78.4292,33.9892]},"properties":{"site":"KLTX","name":"Wilmington NC","scan_time":"2026-08-31T04:01:35Z","stale":false,"bins":25,"density_birds_km3":16.81375,"heading_deg":229.673479279929,"speed_ms":7.350842379182156,"peak_altitude_m":200.0,"u_ms":-5.327126394052045,"v_ms":-4.705578810408922}},{"type":"Feature","geometry":{"type":"Point","coordinates":[-77.4778,38.9753]},"properties":{"site":"KLWX","name":"Sterling VA","scan_time":"2026-08-31T04:01:52Z","stale":false,"bins":25,"density_birds_km3":4.925,"heading_deg":100.72378718395342,"speed_ms":4.588490203611218,"peak_altitude_m":200.0,"u_ms":3.693936483544628,"v_ms":-0.23857728262261493}},{"type":"Feature","geometry":{"type":"Point","coordinates":[-76.8762,34.7759]},"properties":{"site":"KMHX","name":"Morehead City NC","scan_time":"2026-08-31T04:01:29Z","stale":false,"bins":25,"density_birds_km3":4.3675,"heading_deg":197.0340617596109,"speed_ms":4.365973375322072,"peak_altitude_m":0.0,"u_ms":-1.0157944460349269,"v_ms":-4.172673919267106}},{"type":"Feature","geometry":{"type":"Point","coordinates":[-80.6542,28.1133]},"properties":{"site":"KMLB","name":"Melbourne FL","scan_time":"2026-08-31T03:59:09Z","stale":false,"bins":25,"density_birds_km3":3.609375,"heading_deg":199.3204943537315,"speed_ms":4.343721856598545,"peak_altitude_m":200.0,"u_ms":-1.3663197090405266,"v_ms":-4.074880498787669}},{"type":"Feature","geometry":{"type":"Point","coordinates":[-86.5625,36.2472]},"properties":{"site":"KOHX","name":"Nashville TN","scan_time":"2026-08-31T04:03:55Z","stale":false,"bins":25,"density_birds_km3":13.221333333333332,"heading_deg":38.992144364407984,"speed_ms":3.7233183675528427,"peak_altitude_m":200.0,"u_ms":2.343966604449377,"v_ms":2.859689249861272}},{"type":"Feature","geometry":{"type":"Point","coordinates":[-72.8639,40.8655]},"properties":{"site":"KOKX","name":"Upton NY","scan_time":"2026-08-31T03:58:24Z","stale":false,"bins":25,"density_birds_km3":1.328125,"heading_deg":132.28360523760838,"speed_ms":5.2423116760828625,"peak_altitude_m":0.0,"u_ms":3.881539548022599,"v_ms":-3.5152401129943502}},{"type":"Feature","geometry":{"type":"Point","coordinates":[-80.2183,40.5317]},"properties":{"site":"KPBZ","name":"Pittsburgh PA","scan_time":"2026-08-31T03:58:59Z","stale":false,"bins":25,"density_birds_km3":5.699285714285714,"heading_deg":190.2113078681874,"speed_ms":4.9241439517648535,"peak_altitude_m":600.0,"u_ms":0.4431943223213164,"v_ms":-1.0255055897500314}},{"type":"Feature","geometry":{"type":"Point","coordinates":[-78.4899,35.6655]},"properties":{"site":"KRAX","name":"Raleigh NC","scan_time":"2026-08-31T03:55:53Z","stale":false,"bins":25,"density_birds_km3":13.158125,"heading_deg":187.40428411170996,"speed_ms":3.5105006412387785,"peak_altitude_m":0.0,"u_ms":-1.0896884054529046,"v_ms":-2.681613546762932}},{"type":"Feature","geometry":{"type":"Point","coordinates":[-82.4017,27.7055]},"properties":{"site":"KTBW","name":"Tampa FL","scan_time":"2026-08-31T04:00:23Z","stale":false,"bins":25,"density_birds_km3":11.355,"heading_deg":228.84721398030433,"speed_ms":7.033856867602532,"peak_altitude_m":0.0,"u_ms":-5.10528323699422,"v_ms":-4.635644921552435}}]}