{"type":"FeatureCollection","frame":"2026-09-14T08","site_count":20,"fresh_count":20,"failures":{},"features":[{"type":"Feature","geometry":{"type":"Point","coordinates":[-77.0073,36.984]},"properties":{"site":"KAKQ","name":"Wakefield VA","scan_time":"2026-09-14T08:02:17Z","stale":false,"bins":25,"density_birds_km3":16.62625,"heading_deg":149.78140959038396,"speed_ms":4.6539064731975035,"peak_altitude_m":0.0,"u_ms":0.5197229531614166,"v_ms":-3.544900383429818}},{"type":"Feature","geometry":{"type":"Point","coordinates":[-71.1369,41.9558]},"properties":{"site":"KBOX","name":"Boston MA","scan_time":"2026-09-14T07:57:09Z","stale":false,"bins":25,"density_birds_km3":0.895625,"heading_deg":105.69576551391488,"speed_ms":9.119085833914864,"peak_altitude_m":0.0,"u_ms":8.531730635031403,"v_ms":-2.764207955338451}},{"type":"Feature","geometry":{"type":"Point","coordinates":[-78.7369,42.9489]},"properties":{"site":"KBUF","name":"Buffalo NY","scan_time":"2026-09-14T08:00:18Z","stale":false,"bins":25,"density_birds_km3":23.303333333333335,"heading_deg":177.15062160170953,"speed_ms":12.330645401230152,"peak_altitude_m":400.0,"u_ms":0.547933056787298,"v_ms":-12.278472607638392}},{"type":"Feature","geometry":{"type":"Point","coordinates":[-81.8597,41.4131]},"properties":{"site":"KCLE","name":"Cleveland OH","scan_time":"2026-09-14T08:00:14Z","stale":false,"bins":25,"density_birds_km3":22.009999999999998,"heading_deg":204.60590687447677,"speed_ms":13.47263062134215,"peak_altitude_m":200.0,"u_ms":-5.618463171301211,"v_ms":-12.239214907359676}},{"type":"Feature","geometry":{"type":"Point","coordinates":[-81.0423,32.6555]},"properties":{"site":"KCLX","name":"Charleston SC","scan_time":"2026-09-14T07:56:58Z","stale":false,"bins":25,"density_birds_km3":63.325625,"heading_deg":171.74474670580355,"speed_ms":9.687145000345451,"peak_altitude_m":1600.0,"u_ms":0.603991531529753,"v_ms":-9.186755430974072}},{"type":"Feature","geometry":{"type":"Point","coordinates":[-74.4108,39.947]},"properties":{"site":"KDIX","name":"Philadelphia PA","scan_time":"2026-09-14T08:00:58Z","stale":false,"bins":25,"density_birds_km3":3.02875,"heading_deg":123.21583714336779,"speed_ms":8.501461300309597,"peak_altitude_m":0.0,"u_ms":7.035909184726522,"v_ms":-4.696617131062951}},{"type":"Feature","geometry":{"type":"Point","coordinates":[-84.5658,33.3636]},"properties":{"site":"KFFC","name":"Atlanta GA","scan_time":"2026-09-14T07:58:30Z","stale":false,"bins":25,"density_birds_km3":152.708,"heading_deg":187.90560626951284,"speed_ms":9.815067885550638,"peak_altitude_m":800.0,"u_ms":-1.4037743929591115,"v_ms":-9.570719979743476}},{"type":"Feature","geometry":{"type":"Point","coordinates":[-85.5449,42.8939]},"properties":{"site":"KGRR","name":"Grand Rapids MI","scan_time":"2026-09-14T07:59:26Z","stale":false,"bins":25,"density_birds_km3":12.871333333333332,"heading_deg":181.57288834498468,"speed_ms":7.688938671915467,"peak_altitude_m":400.0,"u_ms":-0.45428312441727964,"v_ms":-7.299955972236611}},{"type":"Feature","geometry":{"type":"Point","coordinates":[-83.8217,39.4203]},"properties":{"site":"KILN","name":"Wilmington OH","scan_time":"2026-09-14T08:01:55Z","stale":false,"bins":25,"density_birds_km3":57.774,"heading_deg":183.90319142060528,"speed_ms":15.051124958170343,"peak_altitude_m":400.0,"u_ms":-1.3392414119384728,"v_ms":-14.18168668720647}},{"type":"Feature","geometry":{"type":"Point","coordinates":[-81.7019,30.4846]},"properties":{"site":"KJAX","name":"Jacksonville FL","scan_time":"2026-09-14T08:02:38Z","stale":false,"bins":25,"density_birds_km3":93.965625,"heading_deg":172.98389086002337,"speed_ms":10.772529515447802,"peak_altitude_m":200.0,"u_ms":1.0541890984069973,"v_ms":-10.570908510426019}},{"type":"Feature","geometry":{"type":"Point","coordinates":[-88.0847,41.6045]},"properties":{"site":"KLOT","name":"Chicago IL","scan_time":"2026-09-14T07:59:04Z","stale":false,"bins":25,"density_birds_km3":47.324666666666666,"heading_deg":190.1385237677466,"speed_ms":10.925456492033753,"peak_altitude_m":400.0,"u_ms":-1.87921549016017,"v_ms":-10.627482355924323}},{"type":"Feature","geometry":{"type":"Point","coordinates":[-78.4292,33.9892]},"properties":{"site":"KLTX","name":"Wilmington NC","scan_time":"2026-09-14T08:01:06Z","stale":false,"bins":25,"density_birds_km3":52.58625,"heading_deg":165.77152994989464,"speed_ms":8.406885592716728,"peak_altitude_m":0.0,"u_ms":1.9023581497064346,"v_ms":-7.966998027050797}},{"type":"Feature","geometry":{"type":"Point","coordinates":[-77.4778,38.9753]},"properties":{"site":"KLWX","name":"Sterling VA","scan_time":"2026-09-14T08:00:34Z","stale":false,"bins":25,"density_birds_km3":33.7125,"heading_deg":175.9147026864706,"speed_ms":10.680066555431962,"peak_altitude_m":200.0,"u_ms":1.042817575083426,"v_ms":-10.444915832406378}},{"type":"Feature","geometry":{"type":"Point","coordinates":[-76.8762,34.7759]},"properties":{"site":"KMHX","name":"Morehead City NC","scan_time":"2026-09-14T07:58:29Z","stale":false,"bins":25,"density_birds_km3":23.751875,"heading_deg":131.8479214113183,"speed_ms":5.546110204726067,"peak_altitude_m":0.0,"u_ms":3.2157970633124573,"v_ms":-4.023369559496869}},{"type":"Feature","geometry":{"type":"Point","coordinates":[-80.6542,28.1133]},"properties":{"site":"KMLB","name":"Melbourne FL","scan_time":"2026-09-14T08:00:10Z","stale":false,"bins":25,"density_birds_km3":12.174999999999999,"heading_deg":150.62278251843978,"speed_ms":9.632681423655693,"peak_altitude_m":0.0,"u_ms":4.760642493965384,"v_ms":-8.351852498587643}},{"type":"Feature","geometry":{"type":"Point","coordinates":[-86.5625,36.2472]},"properties":{"site":"KOHX","name":"Nashville TN","scan_time":"2026-09-14T08:02:51Z","stale":false,"bins":25,"density_birds_km3":216.66733333333332,"heading_deg":188.56270048450116,"speed_ms":8.713780172984082,"peak_altitude_m":200.0,"u_ms":-1.363721157781053,"v_ms":-8.223309589816648}},{"type":"Feature","geometry":{"type":"Point","coordinates":[-72.8639,40.8655]},"properties":{"site":"KOKX","name":"Upton NY","scan_time":"2026-09-14T07:58:32Z","stale":false,"bins":25,"density_birds_km3":0.836875,"heading_deg":121.89053776157195,"speed_ms":8.49906646751307,"peak_altitude_m":0.0,"u_ms":6.9801344286781175,"v_ms":-4.562942494398805}},{"type":"Feature","geometry":{"type":"Point","coordinates":[-80.2183,40.5317]},"properties":{"site":"KPBZ","name":"Pittsburgh PA","scan_time":"2026-09-14T07:59:46Z","stale":false,"bins":25,"density_birds_km3":78.3157142857143,"heading_deg":193.08005218241394,"speed_ms":13.855109402504537,"peak_altitude_m":800.0,"u_ms":-3.4050499356992363,"v_ms":-13.282015304493756}},{"type":"Feature","geometry":{"type":"Point","coordinates":[-78.4899,35.6655]},"properties":{"site":"KRAX","name":"Raleigh NC","scan_time":"2026-09-14T07:58:33Z","stale":false,"bins":25,"density_birds_km3":39.64375,"heading_deg":181.65790504316954,"speed_ms":8.149861540890432,"peak_altitude_m":400.0,"u_ms":-0.6927110830438901,"v_ms":-7.821283233343858}},{"type":"Feature","geometry":{"type":"Point","coordinates":[-82.4017,27.7055]},"properties":{"site":"KTBW","name":"Tampa FL","scan_time":"2026-09-14T07:56:58Z","stale":false,"bins":25,"density_birds_km3":19.336875,"heading_deg":171.30695279572552,"speed_ms":7.277681243737677,"peak_altitude_m":200.0,"u_ms":0.9771146449465077,"v_ms":-7.191928956979864}}]}