{"type":"FeatureCollection","frame":"2026-08-18T08","site_count":20,"fresh_count":20,"failures":{},"features":[{"type":"Feature","geometry":{"type":"Point","coordinates":[-77.0073,36.984]},"properties":{"site":"KAKQ","name":"Wakefield VA","scan_time":"2026-08-18T07:59:38Z","stale":false,"bins":25,"density_birds_km3":5.564375,"heading_deg":192.58035529256844,"speed_ms":5.929423789733798,"peak_altitude_m":200.0,"u_ms":-0.760591935302707,"v_ms":-5.4904728743120295}},{"type":"Feature","geometry":{"type":"Point","coordinates":[-71.1369,41.9558]},"properties":{"site":"KBOX","name":"Boston MA","scan_time":"2026-08-18T08:02:02Z","stale":false,"bins":25,"density_birds_km3":0.3225,"heading_deg":197.16193107341363,"speed_ms":4.980077669902912,"peak_altitude_m":0.0,"u_ms":-1.4066407766990292,"v_ms":-4.644135922330098}},{"type":"Feature","geometry":{"type":"Point","coordinates":[-78.7369,42.9489]},"properties":{"site":"KBUF","name":"Buffalo NY","scan_time":"2026-08-18T08:03:16Z","stale":false,"bins":25,"density_birds_km3":5.1433333333333335,"heading_deg":181.96450288312133,"speed_ms":5.503932598833441,"peak_altitude_m":400.0,"u_ms":-0.18661438755670776,"v_ms":-5.269325988334413}},{"type":"Feature","geometry":{"type":"Point","coordinates":[-81.8597,41.4131]},"properties":{"site":"KCLE","name":"Cleveland OH","scan_time":"2026-08-18T07:56:43Z","stale":false,"bins":25,"density_birds_km3":4.806,"heading_deg":209.69231476220966,"speed_ms":5.943877919911012,"peak_altitude_m":400.0,"u_ms":-2.8092686318131257,"v_ms":-5.030659065628476}},{"type":"Feature","geometry":{"type":"Point","coordinates":[-81.0423,32.6555]},"properties":{"site":"KCLX","name":"Charleston SC","scan_time":"2026-08-18T07:57:16Z","stale":false,"bins":25,"density_birds_km3":2.34375,"heading_deg":110.9732468682184,"speed_ms":8.828258666666667,"peak_altitude_m":0.0,"u_ms":7.910642666666668,"v_ms":-3.4186479999999997}},{"type":"Feature","geometry":{"type":"Point","coordinates":[-74.4108,39.947]},"properties":{"site":"KDIX","name":"Philadelphia PA","scan_time":"2026-08-18T07:57:53Z","stale":false,"bins":25,"density_birds_km3":1.315625,"heading_deg":252.92471590817775,"speed_ms":3.3717005813953485,"peak_altitude_m":200.0,"u_ms":-2.9916375968992246,"v_ms":-0.792233527131783}},{"type":"Feature","geometry":{"type":"Point","coordinates":[-84.5658,33.3636]},"properties":{"site":"KFFC","name":"Atlanta GA","scan_time":"2026-08-18T07:58:18Z","stale":false,"bins":25,"density_birds_km3":4.933333333333334,"heading_deg":113.11445680808194,"speed_ms":7.977258108108108,"peak_altitude_m":400.0,"u_ms":7.315875675675676,"v_ms":-3.1498486486486486}},{"type":"Feature","geometry":{"type":"Point","coordinates":[-85.5449,42.8939]},"properties":{"site":"KGRR","name":"Grand Rapids MI","scan_time":"2026-08-18T07:57:34Z","stale":false,"bins":25,"density_birds_km3":1.3226666666666667,"heading_deg":97.17925608628799,"speed_ms":7.222971745711402,"peak_altitude_m":200.0,"u_ms":7.056402623612512,"v_ms":-0.9339606458123109}},{"type":"Feature","geometry":{"type":"Point","coordinates":[-83.8217,39.4203]},"properties":{"site":"KILN","name":"Wilmington OH","scan_time":"2026-08-18T08:01:14Z","stale":false,"bins":25,"density_birds_km3":26.767999999999997,"heading_deg":206.1178192127209,"speed_ms":8.184188526019481,"peak_altitude_m":400.0,"u_ms":-3.4078798296091475,"v_ms":-7.102507286450939}},{"type":"Feature","geometry":{"type":"Point","coordinates":[-81.7019,30.4846]},"properties":{"site":"KJAX","name":"Jacksonville FL","scan_time":"2026-08-18T08:00:00Z","stale":false,"bins":25,"density_birds_km3":19.43375,"heading_deg":149.75094593671193,"speed_ms":5.924323342123883,"peak_altitude_m":0.0,"u_ms":3.2011420209686756,"v_ms":-4.6559767157650995}},{"type":"Feature","geometry":{"type":"Point","coordinates":[-88.0847,41.6045]},"properties":{"site":"KLOT","name":"Chicago IL","scan_time":"2026-08-18T07:57:05Z","stale":false,"bins":25,"density_birds_km3":2.6933333333333334,"heading_deg":80.28053385016193,"speed_ms":7.22821287128713,"peak_altitude_m":200.0,"u_ms":6.492844059405941,"v_ms":1.295532178217822}},{"type":"Feature","geometry":{"type":"Point","coordinates":[-78.4292,33.9892]},"properties":{"site":"KLTX","name":"Wilmington NC","scan_time":"2026-08-18T07:59:03Z","stale":false,"bins":25,"density_birds_km3":2.766875,"heading_deg":77.01806141683709,"speed_ms":7.995714931104585,"peak_altitude_m":0.0,"u_ms":7.730910323017844,"v_ms":1.4819245538739554}},{"type":"Feature","geometry":{"type":"Point","coordinates":[-77.4778,38.9753]},"properties":{"site":"KLWX","name":"Sterling VA","scan_time":"2026-08-18T08:02:22Z","stale":false,"bins":25,"density_birds_km3":7.3025,"heading_deg":191.76686669704222,"speed_ms":7.256541699210275,"peak_altitude_m":600.0,"u_ms":-1.538960340189187,"v_ms":-6.912898550724638}},{"type":"Feature","geometry":{"type":"Point","coordinates":[-76.8762,34.7759]},"properties":{"site":"KMHX","name":"Morehead City NC","scan_time":"2026-08-18T08:01:33Z","stale":false,"bins":25,"density_birds_km3":1.133125,"heading_deg":76.41224662383671,"speed_ms":9.399487038058467,"peak_altitude_m":0.0,"u_ms":9.043463872035302,"v_ms":2.0449806949806946}},{"type":"Feature","geometry":{"type":"Point","coordinates":[-80.6542,28.1133]},"properties":{"site":"KMLB","name":"Melbourne FL","scan_time":"2026-08-18T08:03:30Z","stale":false,"bins":25,"density_birds_km3":4.31625,"heading_deg":143.67658453142568,"speed_ms":9.608769007965243,"peak_altitude_m":0.0,"u_ms":5.672615496017379,"v_ms":-7.734777697320781}},{"type":"Feature","geometry":{"type":"Point","coordinates":[-86.5625,36.2472]},"properties":{"site":"KOHX","name":"Nashville TN","scan_time":"2026-08-18T07:59:25Z","stale":false,"bins":25,"density_birds_km3":50.55333333333333,"heading_deg":188.5219849894549,"speed_ms":8.31615376500066,"peak_altitude_m":400.0,"u_ms":-1.342344850323091,"v_ms":-7.459611103784783}},{"type":"Feature","geometry":{"type":"Point","coordinates":[-72.8639,40.8655]},"properties":{"site":"KOKX","name":"Upton NY","scan_time":"2026-08-18T07:59:03Z","stale":false,"bins":25,"density_birds_km3":0.7575000000000001,"heading_deg":217.7146824126974,"speed_ms":4.535371900826446,"peak_altitude_m":0.0,"u_ms":-2.4518347107438014,"v_ms":-3.6127190082644627}},{"type":"Feature","geometry":{"type":"Point","coordinates":[-80.2183,40.5317]},"properties":{"site":"KPBZ","name":"Pittsburgh PA","scan_time":"2026-08-18T07:59:47Z","stale":false,"bins":25,"density_birds_km3":9.844285714285714,"heading_deg":200.15363989617455,"speed_ms":8.277221657715199,"peak_altitude_m":600.0,"u_ms":-2.795132094643635,"v_ms":-7.544978951952389}},{"type":"Feature","geometry":{"type":"Point","coordinates":[-78.4899,35.6655]},"properties":{"site":"KRAX","name":"Raleigh NC","scan_time":"2026-08-18T08:02:00Z","stale":false,"bins":25,"density_birds_km3":6.03625,"heading_deg":167.68753937347307,"speed_ms":5.963905974940457,"peak_altitude_m":400.0,"u_ms":1.2295888992440716,"v_ms":-5.662819716267991}},{"type":"Feature","geometry":{"type":"Point","coordinates":[-82.4017,27.7055]},"properties":{"site":"KTBW","name":"Tampa FL","scan_time":"2026-08-18T07:57:06Z","stale":false,"bins":25,"density_birds_km3":1.866875,"heading_deg":149.87242442206625,"speed_ms":6.428612600536193,"peak_altitude_m":0.0,"u_ms":2.4627479892761395,"v_ms":-5.73228217158177}}]}