{"type":"FeatureCollection","frame":"2026-09-05T05","site_count":20,"fresh_count":20,"failures":{},"features":[{"type":"Feature","geometry":{"type":"Point","coordinates":[-77.0073,36.984]},"properties":{"site":"KAKQ","name":"Wakefield VA","scan_time":"2026-09-05T04:57:50Z","stale":false,"bins":25,"density_birds_km3":7.604375,"heading_deg":132.08487296747424,"speed_ms":10.22156735431906,"peak_altitude_m":0.0,"u_ms":6.314466179008794,"v_ms":-6.619124681515575}},{"type":"Feature","geometry":{"type":"Point","coordinates":[-71.1369,41.9558]},"properties":{"site":"KBOX","name":"Boston MA","scan_time":"2026-09-05T04:59:37Z","stale":false,"bins":25,"density_birds_km3":19.283125,"heading_deg":187.66292893327866,"speed_ms":12.601042071826786,"peak_altitude_m":400.0,"u_ms":-1.781754181252431,"v_ms":-12.402387851678984}},{"type":"Feature","geometry":{"type":"Point","coordinates":[-78.7369,42.9489]},"properties":{"site":"KBUF","name":"Buffalo NY","scan_time":"2026-09-05T04:58:45Z","stale":false,"bins":25,"density_birds_km3":37.620666666666665,"heading_deg":202.04398828587784,"speed_ms":10.812619659407064,"peak_altitude_m":400.0,"u_ms":-4.042536549059915,"v_ms":-9.993019262462123}},{"type":"Feature","geometry":{"type":"Point","coordinates":[-81.8597,41.4131]},"properties":{"site":"KCLE","name":"Cleveland OH","scan_time":"2026-09-05T04:58:16Z","stale":false,"bins":25,"density_birds_km3":21.36466666666667,"heading_deg":191.41855163498474,"speed_ms":8.721815791944417,"peak_altitude_m":400.0,"u_ms":-1.4314446217882513,"v_ms":-8.280048508747221}},{"type":"Feature","geometry":{"type":"Point","coordinates":[-81.0423,32.6555]},"properties":{"site":"KCLX","name":"Charleston SC","scan_time":"2026-09-05T05:01:55Z","stale":false,"bins":25,"density_birds_km3":2.09875,"heading_deg":70.4125965678939,"speed_ms":3.485049083769634,"peak_altitude_m":0.0,"u_ms":2.322732329842932,"v_ms":0.8577715968586388}},{"type":"Feature","geometry":{"type":"Point","coordinates":[-74.4108,39.947]},"properties":{"site":"KDIX","name":"Philadelphia PA","scan_time":"2026-09-05T04:57:32Z","stale":false,"bins":25,"density_birds_km3":91.385625,"heading_deg":218.70139386986526,"speed_ms":10.280274423635069,"peak_altitude_m":200.0,"u_ms":-6.409072613767045,"v_ms":-7.940233763211215}},{"type":"Feature","geometry":{"type":"Point","coordinates":[-84.5658,33.3636]},"properties":{"site":"KFFC","name":"Atlanta GA","scan_time":"2026-09-05T04:59:15Z","stale":false,"bins":25,"density_birds_km3":27.346666666666668,"heading_deg":224.64642559297792,"speed_ms":7.646985517173892,"peak_altitude_m":1400.0,"u_ms":-3.4585438888345243,"v_ms":-3.6470021528525294}},{"type":"Feature","geometry":{"type":"Point","coordinates":[-85.5449,42.8939]},"properties":{"site":"KGRR","name":"Grand Rapids MI","scan_time":"2026-09-05T04:57:59Z","stale":false,"bins":25,"density_birds_km3":27.220666666666666,"heading_deg":262.3616989517737,"speed_ms":6.841784679597348,"peak_altitude_m":200.0,"u_ms":-6.14668843604223,"v_ms":-0.6927603731892953}},{"type":"Feature","geometry":{"type":"Point","coordinates":[-83.8217,39.4203]},"properties":{"site":"KILN","name":"Wilmington OH","scan_time":"2026-09-05T04:57:27Z","stale":false,"bins":25,"density_birds_km3":31.174666666666667,"heading_deg":181.2074671816838,"speed_ms":8.826590180060734,"peak_altitude_m":400.0,"u_ms":0.7213814635815406,"v_ms":-7.741682348915786}},{"type":"Feature","geometry":{"type":"Point","coordinates":[-81.7019,30.4846]},"properties":{"site":"KJAX","name":"Jacksonville FL","scan_time":"2026-09-05T04:57:52Z","stale":false,"bins":25,"density_birds_km3":6.854375,"heading_deg":168.6886647492786,"speed_ms":4.643276444282194,"peak_altitude_m":200.0,"u_ms":0.9697672720635211,"v_ms":-4.501297800492836}},{"type":"Feature","geometry":{"type":"Point","coordinates":[-88.0847,41.6045]},"properties":{"site":"KLOT","name":"Chicago IL","scan_time":"2026-09-05T04:59:03Z","stale":false,"bins":25,"density_birds_km3":37.09133333333333,"heading_deg":132.69810711065722,"speed_ms":10.332762729838057,"peak_altitude_m":400.0,"u_ms":7.404234592087998,"v_ms":-7.052309614105721}},{"type":"Feature","geometry":{"type":"Point","coordinates":[-78.4292,33.9892]},"properties":{"site":"KLTX","name":"Wilmington NC","scan_time":"2026-09-05T04:59:12Z","stale":false,"bins":25,"density_birds_km3":4.38,"heading_deg":116.18018328816198,"speed_ms":6.443530507018047,"peak_altitude_m":200.0,"u_ms":1.5635677456316244,"v_ms":-2.272924663420224}},{"type":"Feature","geometry":{"type":"Point","coordinates":[-77.4778,38.9753]},"properties":{"site":"KLWX","name":"Sterling VA","scan_time":"2026-09-05T04:59:58Z","stale":false,"bins":25,"density_birds_km3":61.915625,"heading_deg":184.53202556263912,"speed_ms":9.752010700045426,"peak_altitude_m":1000.0,"u_ms":-0.7200578408115884,"v_ms":-9.560833392217232}},{"type":"Feature","geometry":{"type":"Point","coordinates":[-76.8762,34.7759]},"properties":{"site":"KMHX","name":"Morehead City NC","scan_time":"2026-09-05T04:58:13Z","stale":false,"bins":25,"density_birds_km3":4.319375,"heading_deg":47.43102644850072,"speed_ms":4.9507414916727015,"peak_altitude_m":0.0,"u_ms":2.8138117306299786,"v_ms":2.085168718320058}},{"type":"Feature","geometry":{"type":"Point","coordinates":[-80.6542,28.1133]},"properties":{"site":"KMLB","name":"Melbourne FL","scan_time":"2026-09-05T05:01:17Z","stale":false,"bins":25,"density_birds_km3":7.3775,"heading_deg":69.53498704779047,"speed_ms":2.1849542527956625,"peak_altitude_m":0.0,"u_ms":1.056215689596747,"v_ms":1.5261741782446627}},{"type":"Feature","geometry":{"type":"Point","coordinates":[-86.5625,36.2472]},"properties":{"site":"KOHX","name":"Nashville TN","scan_time":"2026-09-05T05:02:34Z","stale":false,"bins":25,"density_birds_km3":27.380666666666666,"heading_deg":155.4045749712452,"speed_ms":3.8035002800029214,"peak_altitude_m":400.0,"u_ms":0.6189744588639186,"v_ms":-2.35318351148012}},{"type":"Feature","geometry":{"type":"Point","coordinates":[-72.8639,40.8655]},"properties":{"site":"KOKX","name":"Upton NY","scan_time":"2026-09-05T05:01:42Z","stale":false,"bins":25,"density_birds_km3":48.365,"heading_deg":208.4176759465016,"speed_ms":10.466624969308503,"peak_altitude_m":200.0,"u_ms":-4.998900275254255,"v_ms":-9.104948115219104}},{"type":"Feature","geometry":{"type":"Point","coordinates":[-80.2183,40.5317]},"properties":{"site":"KPBZ","name":"Pittsburgh PA","scan_time":"2026-09-05T05:01:43Z","stale":false,"bins":25,"density_birds_km3":67.11571428571429,"heading_deg":190.5498091622941,"speed_ms":7.629255975820012,"peak_altitude_m":600.0,"u_ms":-1.0055350035120583,"v_ms":-7.186970477427045}},{"type":"Feature","geometry":{"type":"Point","coordinates":[-78.4899,35.6655]},"properties":{"site":"KRAX","name":"Raleigh NC","scan_time":"2026-09-05T05:02:37Z","stale":false,"bins":25,"density_birds_km3":15.336875,"heading_deg":83.96018443979848,"speed_ms":5.179863030965086,"peak_altitude_m":200.0,"u_ms":2.340724759463888,"v_ms":-0.5076652241502457}},{"type":"Feature","geometry":{"type":"Point","coordinates":[-82.4017,27.7055]},"properties":{"site":"KTBW","name":"Tampa FL","scan_time":"2026-09-05T05:01:13Z","stale":false,"bins":25,"density_birds_km3":3.8625000000000003,"heading_deg":281.3988196008226,"speed_ms":3.090864917395529,"peak_altitude_m":0.0,"u_ms":-2.398260447035957,"v_ms":0.9120246193715581}}]}