{"type":"FeatureCollection","frame":"2026-09-22T04","site_count":20,"fresh_count":20,"failures":{},"features":[{"type":"Feature","geometry":{"type":"Point","coordinates":[-77.0073,36.984]},"properties":{"site":"KAKQ","name":"Wakefield VA","scan_time":"2026-09-22T04:01:11Z","stale":false,"bins":25,"density_birds_km3":10.620625,"heading_deg":228.63140269608044,"speed_ms":7.80917088682134,"peak_altitude_m":0.0,"u_ms":-5.433991873748676,"v_ms":-4.719079613708633}},{"type":"Feature","geometry":{"type":"Point","coordinates":[-71.1369,41.9558]},"properties":{"site":"KBOX","name":"Boston MA","scan_time":"2026-09-22T04:00:58Z","stale":false,"bins":25,"density_birds_km3":10.90375,"heading_deg":190.64691562625083,"speed_ms":11.277111085635676,"peak_altitude_m":200.0,"u_ms":-2.05683824372349,"v_ms":-10.717392525507279}},{"type":"Feature","geometry":{"type":"Point","coordinates":[-78.7369,42.9489]},"properties":{"site":"KBUF","name":"Buffalo NY","scan_time":"2026-09-22T04:02:12Z","stale":false,"bins":25,"density_birds_km3":22.226666666666667,"heading_deg":249.99605646234264,"speed_ms":15.397567186562688,"peak_altitude_m":400.0,"u_ms":-14.390132873425316,"v_ms":-4.9825074985003}},{"type":"Feature","geometry":{"type":"Point","coordinates":[-81.8597,41.4131]},"properties":{"site":"KCLE","name":"Cleveland OH","scan_time":"2026-09-22T03:58:18Z","stale":false,"bins":25,"density_birds_km3":26.359333333333332,"heading_deg":235.39149492070547,"speed_ms":14.844352851903375,"peak_altitude_m":600.0,"u_ms":-12.336445933982546,"v_ms":-7.923902364993044}},{"type":"Feature","geometry":{"type":"Point","coordinates":[-81.0423,32.6555]},"properties":{"site":"KCLX","name":"Charleston SC","scan_time":"2026-09-22T04:00:25Z","stale":false,"bins":25,"density_birds_km3":5.6225,"heading_deg":261.8382366106811,"speed_ms":4.929804335742078,"peak_altitude_m":0.0,"u_ms":-4.02993218454697,"v_ms":-1.5085169538632575}},{"type":"Feature","geometry":{"type":"Point","coordinates":[-74.4108,39.947]},"properties":{"site":"KDIX","name":"Philadelphia PA","scan_time":"2026-09-22T03:57:46Z","stale":false,"bins":25,"density_birds_km3":22.22,"heading_deg":213.04795918456762,"speed_ms":8.287271004225701,"peak_altitude_m":200.0,"u_ms":-4.556744034302759,"v_ms":-6.645053131991051}},{"type":"Feature","geometry":{"type":"Point","coordinates":[-84.5658,33.3636]},"properties":{"site":"KFFC","name":"Atlanta GA","scan_time":"2026-09-22T03:57:59Z","stale":false,"bins":25,"density_birds_km3":72.98933333333333,"heading_deg":207.70005590486738,"speed_ms":4.554292134010449,"peak_altitude_m":400.0,"u_ms":-1.7751324394432066,"v_ms":-3.8963595593876734}},{"type":"Feature","geometry":{"type":"Point","coordinates":[-85.5449,42.8939]},"properties":{"site":"KGRR","name":"Grand Rapids MI","scan_time":"2026-09-22T03:59:09Z","stale":false,"bins":25,"density_birds_km3":41.35466666666666,"heading_deg":207.14970913445956,"speed_ms":11.970076737062712,"peak_altitude_m":200.0,"u_ms":-5.706114460744801,"v_ms":-9.966004675157183}},{"type":"Feature","geometry":{"type":"Point","coordinates":[-83.8217,39.4203]},"properties":{"site":"KILN","name":"Wilmington OH","scan_time":"2026-09-22T04:03:16Z","stale":false,"bins":25,"density_birds_km3":58.69866666666667,"heading_deg":181.35582502302876,"speed_ms":11.11009938212712,"peak_altitude_m":200.0,"u_ms":-0.379538299032302,"v_ms":-10.462849825087456}},{"type":"Feature","geometry":{"type":"Point","coordinates":[-81.7019,30.4846]},"properties":{"site":"KJAX","name":"Jacksonville FL","scan_time":"2026-09-22T04:01:41Z","stale":false,"bins":25,"density_birds_km3":18.82875,"heading_deg":191.64855704741993,"speed_ms":5.043022970191861,"peak_altitude_m":200.0,"u_ms":-1.0105447122087232,"v_ms":-4.90443337980482}},{"type":"Feature","geometry":{"type":"Point","coordinates":[-88.0847,41.6045]},"properties":{"site":"KLOT","name":"Chicago IL","scan_time":"2026-09-22T03:58:36Z","stale":false,"bins":25,"density_birds_km3":76.97466666666668,"heading_deg":232.7984065402017,"speed_ms":12.25734362278924,"peak_altitude_m":200.0,"u_ms":-9.49765031440004,"v_ms":-5.84272713887301}},{"type":"Feature","geometry":{"type":"Point","coordinates":[-78.4292,33.9892]},"properties":{"site":"KLTX","name":"Wilmington NC","scan_time":"2026-09-22T04:01:18Z","stale":false,"bins":25,"density_birds_km3":7.245625,"heading_deg":242.97924643580555,"speed_ms":5.855126697223904,"peak_altitude_m":0.0,"u_ms":-5.060507653723082,"v_ms":-2.6309564991784136}},{"type":"Feature","geometry":{"type":"Point","coordinates":[-77.4778,38.9753]},"properties":{"site":"KLWX","name":"Sterling VA","scan_time":"2026-09-22T04:01:42Z","stale":false,"bins":25,"density_birds_km3":13.591666666666667,"heading_deg":266.31675893836854,"speed_ms":6.926978841484565,"peak_altitude_m":200.0,"u_ms":-6.840660423170308,"v_ms":-0.35887339576829685}},{"type":"Feature","geometry":{"type":"Point","coordinates":[-76.8762,34.7759]},"properties":{"site":"KMHX","name":"Morehead City NC","scan_time":"2026-09-22T03:58:32Z","stale":false,"bins":25,"density_birds_km3":4.100625,"heading_deg":226.18834657715453,"speed_ms":4.698704465782654,"peak_altitude_m":0.0,"u_ms":-3.017294619722603,"v_ms":-3.3484026825179085}},{"type":"Feature","geometry":{"type":"Point","coordinates":[-80.6542,28.1133]},"properties":{"site":"KMLB","name":"Melbourne FL","scan_time":"2026-09-22T04:01:20Z","stale":false,"bins":25,"density_birds_km3":3.393125,"heading_deg":302.3018741848282,"speed_ms":3.818985080125253,"peak_altitude_m":200.0,"u_ms":-2.705673236323448,"v_ms":1.731624608583533}},{"type":"Feature","geometry":{"type":"Point","coordinates":[-86.5625,36.2472]},"properties":{"site":"KOHX","name":"Nashville TN","scan_time":"2026-09-22T04:00:39Z","stale":false,"bins":25,"density_birds_km3":316.19666666666666,"heading_deg":206.76924723349592,"speed_ms":11.143566704266334,"peak_altitude_m":600.0,"u_ms":-5.24752422015834,"v_ms":-9.27150720543122}},{"type":"Feature","geometry":{"type":"Point","coordinates":[-72.8639,40.8655]},"properties":{"site":"KOKX","name":"Upton NY","scan_time":"2026-09-22T03:57:10Z","stale":false,"bins":25,"density_birds_km3":6.106875,"heading_deg":247.53852151474456,"speed_ms":13.12905728415413,"peak_altitude_m":0.0,"u_ms":-12.134755821141562,"v_ms":-5.0005172058520495}},{"type":"Feature","geometry":{"type":"Point","coordinates":[-80.2183,40.5317]},"properties":{"site":"KPBZ","name":"Pittsburgh PA","scan_time":"2026-09-22T03:59:14Z","stale":false,"bins":25,"density_birds_km3":7.191538461538461,"heading_deg":263.8442120139159,"speed_ms":9.92856610337972,"peak_altitude_m":400.0,"u_ms":-9.37645129224652,"v_ms":-1.03124254473161}},{"type":"Feature","geometry":{"type":"Point","coordinates":[-78.4899,35.6655]},"properties":{"site":"KRAX","name":"Raleigh NC","scan_time":"2026-09-22T03:58:13Z","stale":false,"bins":25,"density_birds_km3":9.4925,"heading_deg":287.5087923266019,"speed_ms":6.504192014544438,"peak_altitude_m":200.0,"u_ms":-6.09775610097196,"v_ms":1.6113845185651354}},{"type":"Feature","geometry":{"type":"Point","coordinates":[-82.4017,27.7055]},"properties":{"site":"KTBW","name":"Tampa FL","scan_time":"2026-09-22T04:00:25Z","stale":false,"bins":25,"density_birds_km3":21.7625,"heading_deg":226.10033840542553,"speed_ms":5.007939799523221,"peak_altitude_m":0.0,"u_ms":-3.2553942039808135,"v_ms":-3.2843226010282334}}]}