{"type":"FeatureCollection","frame":"2026-10-03T11","site_count":20,"fresh_count":18,"failures":{"KLWX":"RuntimeError('no scan within 20 min of 2026-10-03T11:00Z')","KILN":"RuntimeError('no scan within 20 min of 2026-10-03T11:00Z')"},"features":[{"type":"Feature","geometry":{"type":"Point","coordinates":[-77.0073,36.984]},"properties":{"site":"KAKQ","name":"Wakefield VA","scan_time":"2026-10-03T10:58:49Z","stale":false,"bins":25,"density_birds_km3":0.588125,"heading_deg":214.29257622229684,"speed_ms":7.680520722635493,"peak_altitude_m":0.0,"u_ms":-4.321657810839532,"v_ms":-6.33249734325186}},{"type":"Feature","geometry":{"type":"Point","coordinates":[-71.1369,41.9558]},"properties":{"site":"KBOX","name":"Boston MA","scan_time":"2026-10-03T11:00:25Z","stale":false,"bins":25,"density_birds_km3":13.010625,"heading_deg":208.71396696490004,"speed_ms":12.72491664664905,"peak_altitude_m":400.0,"u_ms":-6.2130876771558965,"v_ms":-10.97655392745616}},{"type":"Feature","geometry":{"type":"Point","coordinates":[-78.7369,42.9489]},"properties":{"site":"KBUF","name":"Buffalo NY","scan_time":"2026-10-03T10:58:42Z","stale":false,"bins":25,"density_birds_km3":0.40399999999999997,"heading_deg":239.68849949486753,"speed_ms":5.915594059405941,"peak_altitude_m":400.0,"u_ms":-5.048366336633664,"v_ms":-2.907986798679868}},{"type":"Feature","geometry":{"type":"Point","coordinates":[-81.8597,41.4131]},"properties":{"site":"KCLE","name":"Cleveland OH","scan_time":"2026-10-03T11:02:42Z","stale":false,"bins":25,"density_birds_km3":10.886666666666667,"heading_deg":212.66902312660443,"speed_ms":12.686310632043115,"peak_altitude_m":400.0,"u_ms":-6.792419157275845,"v_ms":-10.708856565409114}},{"type":"Feature","geometry":{"type":"Point","coordinates":[-81.0423,32.6555]},"properties":{"site":"KCLX","name":"Charleston SC","scan_time":"2026-10-03T11:01:02Z","stale":false,"bins":25,"density_birds_km3":0.06937499999999999,"heading_deg":111.13468515755416,"speed_ms":2.131181818181818,"peak_altitude_m":0.0,"u_ms":1.1971818181818183,"v_ms":-0.3377272727272726}},{"type":"Feature","geometry":{"type":"Point","coordinates":[-74.4108,39.947]},"properties":{"site":"KDIX","name":"Philadelphia PA","scan_time":"2026-10-03T10:57:43Z","stale":false,"bins":25,"density_birds_km3":13.846875,"heading_deg":202.48040607473112,"speed_ms":13.930870589301083,"peak_altitude_m":400.0,"u_ms":-5.470012229922543,"v_ms":-12.642487203877339}},{"type":"Feature","geometry":{"type":"Point","coordinates":[-84.5658,33.3636]},"properties":{"site":"KFFC","name":"Atlanta GA","scan_time":"2026-10-03T10:58:47Z","stale":false,"bins":25,"density_birds_km3":5.508666666666667,"heading_deg":104.40333264313922,"speed_ms":4.531833151713283,"peak_altitude_m":400.0,"u_ms":3.4735754934011385,"v_ms":-1.2823441094563506}},{"type":"Feature","geometry":{"type":"Point","coordinates":[-85.5449,42.8939]},"properties":{"site":"KGRR","name":"Grand Rapids MI","scan_time":"2026-10-03T11:01:36Z","stale":false,"bins":25,"density_birds_km3":1.9686666666666668,"heading_deg":257.1433138384781,"speed_ms":11.95871907827855,"peak_altitude_m":400.0,"u_ms":-11.62989156218231,"v_ms":-2.547133175194849}},{"type":"Feature","geometry":{"type":"Point","coordinates":[-81.7019,30.4846]},"properties":{"site":"KJAX","name":"Jacksonville FL","scan_time":"2026-10-03T10:58:26Z","stale":false,"bins":25,"density_birds_km3":0.425,"heading_deg":254.12902203582644,"speed_ms":4.468588235294118,"peak_altitude_m":0.0,"u_ms":-4.07960294117647,"v_ms":-1.0684411764705883}},{"type":"Feature","geometry":{"type":"Point","coordinates":[-88.0847,41.6045]},"properties":{"site":"KLOT","name":"Chicago IL","scan_time":"2026-10-03T11:03:19Z","stale":false,"bins":25,"density_birds_km3":2.981333333333333,"heading_deg":238.15497601105096,"speed_ms":10.254202639230597,"peak_altitude_m":200.0,"u_ms":-8.62912323864907,"v_ms":-5.382267949004696}},{"type":"Feature","geometry":{"type":"Point","coordinates":[-78.4292,33.9892]},"properties":{"site":"KLTX","name":"Wilmington NC","scan_time":"2026-10-03T11:01:56Z","stale":false,"bins":25,"density_birds_km3":0.4075,"heading_deg":118.18998553934833,"speed_ms":6.081413210445469,"peak_altitude_m":200.0,"u_ms":5.281720430107527,"v_ms":-2.8827803379416284}},{"type":"Feature","geometry":{"type":"Point","coordinates":[-76.8762,34.7759]},"properties":{"site":"KMHX","name":"Morehead City NC","scan_time":"2026-10-03T11:00:28Z","stale":false,"bins":25,"density_birds_km3":0.70375,"heading_deg":120.83341628384035,"speed_ms":7.647829181494662,"peak_altitude_m":200.0,"u_ms":6.4856494661921715,"v_ms":-3.9812989323843415}},{"type":"Feature","geometry":{"type":"Point","coordinates":[-80.6542,28.1133]},"properties":{"site":"KMLB","name":"Melbourne FL","scan_time":"2026-10-03T10:59:56Z","stale":false,"bins":25,"density_birds_km3":1.406875,"heading_deg":null,"speed_ms":null,"peak_altitude_m":0.0,"u_ms":null,"v_ms":null}},{"type":"Feature","geometry":{"type":"Point","coordinates":[-86.5625,36.2472]},"properties":{"site":"KOHX","name":"Nashville TN","scan_time":"2026-10-03T10:57:37Z","stale":false,"bins":25,"density_birds_km3":42.617333333333335,"heading_deg":181.81388675723798,"speed_ms":9.121453242812002,"peak_altitude_m":600.0,"u_ms":0.18664878140349783,"v_ms":-8.783266433063229}},{"type":"Feature","geometry":{"type":"Point","coordinates":[-72.8639,40.8655]},"properties":{"site":"KOKX","name":"Upton NY","scan_time":"2026-10-03T10:58:58Z","stale":false,"bins":25,"density_birds_km3":7.79,"heading_deg":218.9413691728896,"speed_ms":12.15930646973832,"peak_altitude_m":0.0,"u_ms":-7.3843233263766255,"v_ms":-9.286111735431048}},{"type":"Feature","geometry":{"type":"Point","coordinates":[-80.2183,40.5317]},"properties":{"site":"KPBZ","name":"Pittsburgh PA","scan_time":"2026-10-03T10:58:43Z","stale":false,"bins":25,"density_birds_km3":0.5571428571428572,"heading_deg":230.54059257119525,"speed_ms":12.23966623876765,"peak_altitude_m":600.0,"u_ms":-9.433774069319641,"v_ms":-7.415982028241336}},{"type":"Feature","geometry":{"type":"Point","coordinates":[-78.4899,35.6655]},"properties":{"site":"KRAX","name":"Raleigh NC","scan_time":"2026-10-03T10:59:51Z","stale":false,"bins":25,"density_birds_km3":2.4943750000000002,"heading_deg":142.59422458211694,"speed_ms":7.276491975927783,"peak_altitude_m":200.0,"u_ms":4.365483951855567,"v_ms":-5.792189067201605}},{"type":"Feature","geometry":{"type":"Point","coordinates":[-82.4017,27.7055]},"properties":{"site":"KTBW","name":"Tampa FL","scan_time":"2026-10-03T11:00:41Z","stale":false,"bins":25,"density_birds_km3":3.00625,"heading_deg":288.6512801786961,"speed_ms":6.6195862785862785,"peak_altitude_m":0.0,"u_ms":-6.176964656964656,"v_ms":2.2385841995841993}}]}