{"type":"FeatureCollection","frame":"2026-08-31T09","site_count":20,"fresh_count":20,"failures":{},"features":[{"type":"Feature","geometry":{"type":"Point","coordinates":[-77.0073,36.984]},"properties":{"site":"KAKQ","name":"Wakefield VA","scan_time":"2026-08-31T08:58:13Z","stale":false,"bins":25,"density_birds_km3":1.40625,"heading_deg":88.28153997423104,"speed_ms":6.070095890410959,"peak_altitude_m":0.0,"u_ms":5.884301369863014,"v_ms":0.2834703196347032}},{"type":"Feature","geometry":{"type":"Point","coordinates":[-71.1369,41.9558]},"properties":{"site":"KBOX","name":"Boston MA","scan_time":"2026-08-31T09:01:50Z","stale":false,"bins":25,"density_birds_km3":2.9766666666666666,"heading_deg":205.95496614187473,"speed_ms":9.028336347197106,"peak_altitude_m":0.0,"u_ms":-3.963155515370705,"v_ms":-8.03506103074141}},{"type":"Feature","geometry":{"type":"Point","coordinates":[-78.7369,42.9489]},"properties":{"site":"KBUF","name":"Buffalo NY","scan_time":"2026-08-31T09:00:07Z","stale":false,"bins":25,"density_birds_km3":0.7106666666666667,"heading_deg":35.63231433647616,"speed_ms":4.013902439024391,"peak_altitude_m":200.0,"u_ms":2.028367729831144,"v_ms":2.3581988742964355}},{"type":"Feature","geometry":{"type":"Point","coordinates":[-81.8597,41.4131]},"properties":{"site":"KCLE","name":"Cleveland OH","scan_time":"2026-08-31T09:00:47Z","stale":false,"bins":25,"density_birds_km3":0.8413333333333333,"heading_deg":60.721042613076726,"speed_ms":8.788827415359208,"peak_altitude_m":200.0,"u_ms":7.012782824112303,"v_ms":3.356061106523535}},{"type":"Feature","geometry":{"type":"Point","coordinates":[-81.0423,32.6555]},"properties":{"site":"KCLX","name":"Charleston SC","scan_time":"2026-08-31T08:57:20Z","stale":false,"bins":25,"density_birds_km3":6.37375,"heading_deg":225.9644773242838,"speed_ms":7.977488965179009,"peak_altitude_m":0.0,"u_ms":-5.690915154487494,"v_ms":-5.564664051005394}},{"type":"Feature","geometry":{"type":"Point","coordinates":[-74.4108,39.947]},"properties":{"site":"KDIX","name":"Philadelphia PA","scan_time":"2026-08-31T08:58:34Z","stale":false,"bins":25,"density_birds_km3":4.194375,"heading_deg":210.51910048688316,"speed_ms":7.5506129177281585,"peak_altitude_m":400.0,"u_ms":-3.649235726060243,"v_ms":-6.322444178030871}},{"type":"Feature","geometry":{"type":"Point","coordinates":[-84.5658,33.3636]},"properties":{"site":"KFFC","name":"Atlanta GA","scan_time":"2026-08-31T08:58:03Z","stale":false,"bins":25,"density_birds_km3":9.966666666666667,"heading_deg":252.35660672418123,"speed_ms":5.737981939799331,"peak_altitude_m":200.0,"u_ms":-5.028543143812709,"v_ms":-2.204222742474917}},{"type":"Feature","geometry":{"type":"Point","coordinates":[-85.5449,42.8939]},"properties":{"site":"KGRR","name":"Grand Rapids MI","scan_time":"2026-08-31T08:58:59Z","stale":false,"bins":25,"density_birds_km3":0.5766666666666667,"heading_deg":61.81960306986131,"speed_ms":8.628665893271462,"peak_altitude_m":200.0,"u_ms":7.25778422273782,"v_ms":3.300626450116009}},{"type":"Feature","geometry":{"type":"Point","coordinates":[-83.8217,39.4203]},"properties":{"site":"KILN","name":"Wilmington OH","scan_time":"2026-08-31T09:00:03Z","stale":false,"bins":25,"density_birds_km3":0.7186666666666667,"heading_deg":58.39401960557622,"speed_ms":8.720572259941804,"peak_altitude_m":200.0,"u_ms":6.914277400581958,"v_ms":4.4546265761396695}},{"type":"Feature","geometry":{"type":"Point","coordinates":[-81.7019,30.4846]},"properties":{"site":"KJAX","name":"Jacksonville FL","scan_time":"2026-08-31T09:00:26Z","stale":false,"bins":25,"density_birds_km3":40.594375,"heading_deg":192.98894492595514,"speed_ms":10.283587836797537,"peak_altitude_m":0.0,"u_ms":-2.266558737490377,"v_ms":-10.017911932255583}},{"type":"Feature","geometry":{"type":"Point","coordinates":[-88.0847,41.6045]},"properties":{"site":"KLOT","name":"Chicago IL","scan_time":"2026-08-31T08:59:12Z","stale":false,"bins":25,"density_birds_km3":1.052,"heading_deg":45.77681918669136,"speed_ms":14.733586606567934,"peak_altitude_m":400.0,"u_ms":10.621030264005151,"v_ms":10.039420476497101}},{"type":"Feature","geometry":{"type":"Point","coordinates":[-78.4292,33.9892]},"properties":{"site":"KLTX","name":"Wilmington NC","scan_time":"2026-08-31T08:58:32Z","stale":false,"bins":25,"density_birds_km3":4.69875,"heading_deg":234.72519480655382,"speed_ms":5.90807477381586,"peak_altitude_m":200.0,"u_ms":-4.787350984566259,"v_ms":-3.417619744544971}},{"type":"Feature","geometry":{"type":"Point","coordinates":[-77.4778,38.9753]},"properties":{"site":"KLWX","name":"Sterling VA","scan_time":"2026-08-31T09:00:23Z","stale":false,"bins":25,"density_birds_km3":15.027857142857142,"heading_deg":206.15959361087002,"speed_ms":4.677872010843257,"peak_altitude_m":200.0,"u_ms":-2.348599574014909,"v_ms":-3.8115103107754864}},{"type":"Feature","geometry":{"type":"Point","coordinates":[-76.8762,34.7759]},"properties":{"site":"KMHX","name":"Morehead City NC","scan_time":"2026-08-31T08:59:56Z","stale":false,"bins":25,"density_birds_km3":1.283125,"heading_deg":157.14817296055904,"speed_ms":4.252793759141881,"peak_altitude_m":0.0,"u_ms":1.565402242808386,"v_ms":-3.8818771331058026}},{"type":"Feature","geometry":{"type":"Point","coordinates":[-80.6542,28.1133]},"properties":{"site":"KMLB","name":"Melbourne FL","scan_time":"2026-08-31T09:00:54Z","stale":false,"bins":25,"density_birds_km3":3.1112499999999996,"heading_deg":171.74726964033536,"speed_ms":3.4751566894335073,"peak_altitude_m":0.0,"u_ms":0.5627681799919647,"v_ms":-3.3399919646444354}},{"type":"Feature","geometry":{"type":"Point","coordinates":[-86.5625,36.2472]},"properties":{"site":"KOHX","name":"Nashville TN","scan_time":"2026-08-31T08:58:49Z","stale":false,"bins":25,"density_birds_km3":3.9346666666666668,"heading_deg":22.740874350610806,"speed_ms":4.870226174033149,"peak_altitude_m":200.0,"u_ms":1.8797634668508287,"v_ms":4.398914019337017}},{"type":"Feature","geometry":{"type":"Point","coordinates":[-72.8639,40.8655]},"properties":{"site":"KOKX","name":"Upton NY","scan_time":"2026-08-31T08:59:03Z","stale":false,"bins":25,"density_birds_km3":4.706428571428572,"heading_deg":223.02288007212616,"speed_ms":8.89255230125523,"peak_altitude_m":400.0,"u_ms":-6.059629868039909,"v_ms":-6.424571934341809}},{"type":"Feature","geometry":{"type":"Point","coordinates":[-80.2183,40.5317]},"properties":{"site":"KPBZ","name":"Pittsburgh PA","scan_time":"2026-08-31T08:58:00Z","stale":false,"bins":25,"density_birds_km3":2.04,"heading_deg":49.12646898092735,"speed_ms":6.747872174590802,"peak_altitude_m":600.0,"u_ms":3.209431021044427,"v_ms":0.880830085736555}},{"type":"Feature","geometry":{"type":"Point","coordinates":[-78.4899,35.6655]},"properties":{"site":"KRAX","name":"Raleigh NC","scan_time":"2026-08-31T09:02:17Z","stale":false,"bins":25,"density_birds_km3":4.536875,"heading_deg":160.44932841893396,"speed_ms":3.354873641112523,"peak_altitude_m":200.0,"u_ms":0.5169193844416207,"v_ms":-1.7743357334462797}},{"type":"Feature","geometry":{"type":"Point","coordinates":[-82.4017,27.7055]},"properties":{"site":"KTBW","name":"Tampa FL","scan_time":"2026-08-31T09:00:21Z","stale":false,"bins":25,"density_birds_km3":8.253125,"heading_deg":215.82694600465373,"speed_ms":4.491494470534767,"peak_altitude_m":0.0,"u_ms":-2.3930965005302225,"v_ms":-3.6215202242084534}}]}