{"type":"FeatureCollection","frame":"2026-10-10T08","site_count":20,"fresh_count":20,"failures":{},"features":[{"type":"Feature","geometry":{"type":"Point","coordinates":[-77.0073,36.984]},"properties":{"site":"KAKQ","name":"Wakefield VA","scan_time":"2026-10-10T08:01:19Z","stale":false,"bins":25,"density_birds_km3":2.1275,"heading_deg":238.20184901128113,"speed_ms":9.596598119858989,"peak_altitude_m":200.0,"u_ms":-8.085663924794359,"v_ms":-5.075799059929494}},{"type":"Feature","geometry":{"type":"Point","coordinates":[-71.1369,41.9558]},"properties":{"site":"KBOX","name":"Boston MA","scan_time":"2026-10-10T08:00:38Z","stale":false,"bins":25,"density_birds_km3":8.925625,"heading_deg":159.06492018339742,"speed_ms":10.627556893774946,"peak_altitude_m":0.0,"u_ms":3.8510489461522304,"v_ms":-9.88257685036062}},{"type":"Feature","geometry":{"type":"Point","coordinates":[-78.7369,42.9489]},"properties":{"site":"KBUF","name":"Buffalo NY","scan_time":"2026-10-10T08:02:46Z","stale":false,"bins":25,"density_birds_km3":37.416000000000004,"heading_deg":224.7244749666001,"speed_ms":10.020672083244245,"peak_altitude_m":200.0,"u_ms":-6.980383614852826,"v_ms":-6.649744672510868}},{"type":"Feature","geometry":{"type":"Point","coordinates":[-81.8597,41.4131]},"properties":{"site":"KCLE","name":"Cleveland OH","scan_time":"2026-10-10T08:00:44Z","stale":false,"bins":25,"density_birds_km3":2.3886666666666665,"heading_deg":315.31668535076045,"speed_ms":9.285963149078727,"peak_altitude_m":200.0,"u_ms":-6.390474595198214,"v_ms":6.334729201563373}},{"type":"Feature","geometry":{"type":"Point","coordinates":[-81.0423,32.6555]},"properties":{"site":"KCLX","name":"Charleston SC","scan_time":"2026-10-10T07:58:08Z","stale":false,"bins":25,"density_birds_km3":2.566875,"heading_deg":248.96592464800517,"speed_ms":10.267518684603886,"peak_altitude_m":0.0,"u_ms":-9.59186596910812,"v_ms":-3.6416641753861483}},{"type":"Feature","geometry":{"type":"Point","coordinates":[-74.4108,39.947]},"properties":{"site":"KDIX","name":"Philadelphia PA","scan_time":"2026-10-10T08:00:02Z","stale":false,"bins":25,"density_birds_km3":8.57875,"heading_deg":216.70247101143283,"speed_ms":8.202293959046855,"peak_altitude_m":200.0,"u_ms":-4.866022006849814,"v_ms":-6.47204765721781}},{"type":"Feature","geometry":{"type":"Point","coordinates":[-84.5658,33.3636]},"properties":{"site":"KFFC","name":"Atlanta GA","scan_time":"2026-10-10T08:02:20Z","stale":false,"bins":25,"density_birds_km3":null,"heading_deg":null,"speed_ms":null,"peak_altitude_m":null,"u_ms":null,"v_ms":null}},{"type":"Feature","geometry":{"type":"Point","coordinates":[-85.5449,42.8939]},"properties":{"site":"KGRR","name":"Grand Rapids MI","scan_time":"2026-10-10T07:58:39Z","stale":false,"bins":25,"density_birds_km3":10.029333333333334,"heading_deg":276.0054793422476,"speed_ms":12.121066870513163,"peak_altitude_m":200.0,"u_ms":-11.832745945227334,"v_ms":1.2539856421164584}},{"type":"Feature","geometry":{"type":"Point","coordinates":[-83.8217,39.4203]},"properties":{"site":"KILN","name":"Wilmington OH","scan_time":"2026-10-10T08:01:17Z","stale":false,"bins":25,"density_birds_km3":1.4773333333333334,"heading_deg":286.4668205361011,"speed_ms":9.844081264108352,"peak_altitude_m":200.0,"u_ms":-9.270821670428894,"v_ms":2.8527404063205415}},{"type":"Feature","geometry":{"type":"Point","coordinates":[-81.7019,30.4846]},"properties":{"site":"KJAX","name":"Jacksonville FL","scan_time":"2026-10-10T08:02:16Z","stale":false,"bins":25,"density_birds_km3":12.803125,"heading_deg":306.10729755521635,"speed_ms":6.207338540395411,"peak_altitude_m":0.0,"u_ms":-3.5864349524041983,"v_ms":4.193558701488894}},{"type":"Feature","geometry":{"type":"Point","coordinates":[-88.0847,41.6045]},"properties":{"site":"KLOT","name":"Chicago IL","scan_time":"2026-10-10T08:01:59Z","stale":false,"bins":25,"density_birds_km3":0.32266666666666666,"heading_deg":15.583462407367538,"speed_ms":14.971076604554865,"peak_altitude_m":200.0,"u_ms":4.035672877846791,"v_ms":14.203250517598342}},{"type":"Feature","geometry":{"type":"Point","coordinates":[-78.4292,33.9892]},"properties":{"site":"KLTX","name":"Wilmington NC","scan_time":"2026-10-10T08:01:38Z","stale":false,"bins":25,"density_birds_km3":9.58,"heading_deg":null,"speed_ms":null,"peak_altitude_m":0.0,"u_ms":null,"v_ms":null}},{"type":"Feature","geometry":{"type":"Point","coordinates":[-77.4778,38.9753]},"properties":{"site":"KLWX","name":"Sterling VA","scan_time":"2026-10-10T07:59:59Z","stale":false,"bins":25,"density_birds_km3":24.936875,"heading_deg":233.81676715883495,"speed_ms":8.215275201764499,"peak_altitude_m":200.0,"u_ms":-6.565076946212842,"v_ms":-4.837894881948969}},{"type":"Feature","geometry":{"type":"Point","coordinates":[-76.8762,34.7759]},"properties":{"site":"KMHX","name":"Morehead City NC","scan_time":"2026-10-10T08:00:47Z","stale":false,"bins":25,"density_birds_km3":0.921875,"heading_deg":236.80443271288885,"speed_ms":9.608980285520055,"peak_altitude_m":0.0,"u_ms":-7.818613188307273,"v_ms":-5.008116927260367}},{"type":"Feature","geometry":{"type":"Point","coordinates":[-80.6542,28.1133]},"properties":{"site":"KMLB","name":"Melbourne FL","scan_time":"2026-10-10T08:02:00Z","stale":false,"bins":25,"density_birds_km3":5.22,"heading_deg":1.1035810885557555,"speed_ms":5.735443007662836,"peak_altitude_m":0.0,"u_ms":-0.166264367816092,"v_ms":5.71720785440613}},{"type":"Feature","geometry":{"type":"Point","coordinates":[-86.5625,36.2472]},"properties":{"site":"KOHX","name":"Nashville TN","scan_time":"2026-10-10T08:00:24Z","stale":false,"bins":25,"density_birds_km3":7.545333333333334,"heading_deg":264.79359987028045,"speed_ms":8.457670083053543,"peak_altitude_m":200.0,"u_ms":-8.017533133062377,"v_ms":-0.5416469340872946}},{"type":"Feature","geometry":{"type":"Point","coordinates":[-72.8639,40.8655]},"properties":{"site":"KOKX","name":"Upton NY","scan_time":"2026-10-10T08:02:10Z","stale":false,"bins":25,"density_birds_km3":2.738125,"heading_deg":160.43922648959347,"speed_ms":8.585530700753253,"peak_altitude_m":0.0,"u_ms":2.4808308605341245,"v_ms":-8.04026249714677}},{"type":"Feature","geometry":{"type":"Point","coordinates":[-80.2183,40.5317]},"properties":{"site":"KPBZ","name":"Pittsburgh PA","scan_time":"2026-10-10T07:58:52Z","stale":false,"bins":25,"density_birds_km3":9.696428571428571,"heading_deg":255.12346621474887,"speed_ms":8.331012891344383,"peak_altitude_m":400.0,"u_ms":-7.998503867403315,"v_ms":-2.1027543278084715}},{"type":"Feature","geometry":{"type":"Point","coordinates":[-78.4899,35.6655]},"properties":{"site":"KRAX","name":"Raleigh NC","scan_time":"2026-10-10T07:59:42Z","stale":false,"bins":25,"density_birds_km3":4.616,"heading_deg":243.5485664098165,"speed_ms":11.148755707762556,"peak_altitude_m":200.0,"u_ms":-10.027127092846271,"v_ms":-4.703906012176559}},{"type":"Feature","geometry":{"type":"Point","coordinates":[-82.4017,27.7055]},"properties":{"site":"KTBW","name":"Tampa FL","scan_time":"2026-10-10T07:57:23Z","stale":false,"bins":25,"density_birds_km3":11.395,"heading_deg":327.6790465664322,"speed_ms":3.666493527863098,"peak_altitude_m":0.0,"u_ms":-1.1546237384817903,"v_ms":3.237509324265029}}]}