{"type":"FeatureCollection","frame":"2026-09-06T11","site_count":20,"fresh_count":20,"failures":{},"features":[{"type":"Feature","geometry":{"type":"Point","coordinates":[-77.0073,36.984]},"properties":{"site":"KAKQ","name":"Wakefield VA","scan_time":"2026-09-06T10:57:51Z","stale":false,"bins":25,"density_birds_km3":11.605,"heading_deg":212.03785794651688,"speed_ms":8.534036885245902,"peak_altitude_m":0.0,"u_ms":-4.516211173425367,"v_ms":-7.223562338222607}},{"type":"Feature","geometry":{"type":"Point","coordinates":[-71.1369,41.9558]},"properties":{"site":"KBOX","name":"Boston MA","scan_time":"2026-09-06T10:59:38Z","stale":false,"bins":25,"density_birds_km3":1.73625,"heading_deg":201.5,"speed_ms":6.51,"peak_altitude_m":0.0,"u_ms":-2.39,"v_ms":-6.06}},{"type":"Feature","geometry":{"type":"Point","coordinates":[-78.7369,42.9489]},"properties":{"site":"KBUF","name":"Buffalo NY","scan_time":"2026-09-06T10:55:11Z","stale":false,"bins":25,"density_birds_km3":1.4173333333333331,"heading_deg":228.05365408494413,"speed_ms":5.04513640639699,"peak_altitude_m":200.0,"u_ms":-3.727384760112889,"v_ms":-3.336227657572907}},{"type":"Feature","geometry":{"type":"Point","coordinates":[-81.8597,41.4131]},"properties":{"site":"KCLE","name":"Cleveland OH","scan_time":"2026-09-06T10:56:50Z","stale":false,"bins":25,"density_birds_km3":6.1899999999999995,"heading_deg":203.279517882024,"speed_ms":5.489973401307768,"peak_altitude_m":200.0,"u_ms":-2.068815249916879,"v_ms":-4.994146071151501}},{"type":"Feature","geometry":{"type":"Point","coordinates":[-81.0423,32.6555]},"properties":{"site":"KCLX","name":"Charleston SC","scan_time":"2026-09-06T11:01:02Z","stale":false,"bins":25,"density_birds_km3":7.1475,"heading_deg":163.50055572938433,"speed_ms":6.639873140857393,"peak_altitude_m":200.0,"u_ms":2.0168057742782155,"v_ms":-6.164674540682415}},{"type":"Feature","geometry":{"type":"Point","coordinates":[-74.4108,39.947]},"properties":{"site":"KDIX","name":"Philadelphia PA","scan_time":"2026-09-06T11:00:17Z","stale":false,"bins":25,"density_birds_km3":8.066875,"heading_deg":222.4300323061373,"speed_ms":8.07925765207284,"peak_altitude_m":400.0,"u_ms":-5.442567996900427,"v_ms":-5.938734598992639}},{"type":"Feature","geometry":{"type":"Point","coordinates":[-84.5658,33.3636]},"properties":{"site":"KFFC","name":"Atlanta GA","scan_time":"2026-09-06T10:59:49Z","stale":false,"bins":25,"density_birds_km3":11.692666666666666,"heading_deg":159.77918735110524,"speed_ms":9.198288190682556,"peak_altitude_m":200.0,"u_ms":2.6453270228659407,"v_ms":-8.158852141187204}},{"type":"Feature","geometry":{"type":"Point","coordinates":[-85.5449,42.8939]},"properties":{"site":"KGRR","name":"Grand Rapids MI","scan_time":"2026-09-06T10:57:15Z","stale":false,"bins":25,"density_birds_km3":1.0966666666666667,"heading_deg":235.24814065124733,"speed_ms":7.487086374695863,"peak_altitude_m":200.0,"u_ms":-6.110304136253041,"v_ms":-4.257299270072993}},{"type":"Feature","geometry":{"type":"Point","coordinates":[-83.8217,39.4203]},"properties":{"site":"KILN","name":"Wilmington OH","scan_time":"2026-09-06T11:01:37Z","stale":false,"bins":25,"density_birds_km3":28.626666666666665,"heading_deg":209.52764701426125,"speed_ms":9.548972865960172,"peak_altitude_m":200.0,"u_ms":-4.860488645627111,"v_ms":-7.716263654361242}},{"type":"Feature","geometry":{"type":"Point","coordinates":[-81.7019,30.4846]},"properties":{"site":"KJAX","name":"Jacksonville FL","scan_time":"2026-09-06T10:57:36Z","stale":false,"bins":25,"density_birds_km3":16.515,"heading_deg":160.0206205376614,"speed_ms":8.840315243717832,"peak_altitude_m":200.0,"u_ms":2.910260747805026,"v_ms":-8.046018392370573}},{"type":"Feature","geometry":{"type":"Point","coordinates":[-88.0847,41.6045]},"properties":{"site":"KLOT","name":"Chicago IL","scan_time":"2026-09-06T10:57:06Z","stale":false,"bins":25,"density_birds_km3":4.990666666666667,"heading_deg":219.9247436645061,"speed_ms":8.512469234884964,"peak_altitude_m":400.0,"u_ms":-5.4374063670411985,"v_ms":-6.5137158908507224}},{"type":"Feature","geometry":{"type":"Point","coordinates":[-78.4292,33.9892]},"properties":{"site":"KLTX","name":"Wilmington NC","scan_time":"2026-09-06T11:01:25Z","stale":false,"bins":25,"density_birds_km3":11.8225,"heading_deg":209.3357466979483,"speed_ms":6.011647276573241,"peak_altitude_m":0.0,"u_ms":-2.933956107879429,"v_ms":-4.8436171337916445}},{"type":"Feature","geometry":{"type":"Point","coordinates":[-77.4778,38.9753]},"properties":{"site":"KLWX","name":"Sterling VA","scan_time":"2026-09-06T10:58:33Z","stale":false,"bins":25,"density_birds_km3":16.306666666666665,"heading_deg":198.19573040965733,"speed_ms":9.199554692291963,"peak_altitude_m":200.0,"u_ms":-2.726412594561439,"v_ms":-8.50463667961562}},{"type":"Feature","geometry":{"type":"Point","coordinates":[-76.8762,34.7759]},"properties":{"site":"KMHX","name":"Morehead City NC","scan_time":"2026-09-06T10:59:56Z","stale":false,"bins":25,"density_birds_km3":21.576875,"heading_deg":221.31715841960036,"speed_ms":6.210532599246595,"peak_altitude_m":0.0,"u_ms":-3.7187476093885827,"v_ms":-4.38783888727905}},{"type":"Feature","geometry":{"type":"Point","coordinates":[-80.6542,28.1133]},"properties":{"site":"KMLB","name":"Melbourne FL","scan_time":"2026-09-06T10:59:33Z","stale":false,"bins":25,"density_birds_km3":5.988125,"heading_deg":145.42483961301664,"speed_ms":8.281049994781338,"peak_altitude_m":0.0,"u_ms":4.662976724767769,"v_ms":-6.692557144348188}},{"type":"Feature","geometry":{"type":"Point","coordinates":[-86.5625,36.2472]},"properties":{"site":"KOHX","name":"Nashville TN","scan_time":"2026-09-06T11:01:19Z","stale":false,"bins":25,"density_birds_km3":11.027333333333333,"heading_deg":134.81717418736625,"speed_ms":10.805603411771823,"peak_altitude_m":400.0,"u_ms":6.1877684350613995,"v_ms":-7.12835944588954}},{"type":"Feature","geometry":{"type":"Point","coordinates":[-72.8639,40.8655]},"properties":{"site":"KOKX","name":"Upton NY","scan_time":"2026-09-06T10:58:33Z","stale":false,"bins":25,"density_birds_km3":14.07875,"heading_deg":238.63601386444995,"speed_ms":6.153851960392522,"peak_altitude_m":200.0,"u_ms":-5.232888859286888,"v_ms":-3.201417787842458}},{"type":"Feature","geometry":{"type":"Point","coordinates":[-80.2183,40.5317]},"properties":{"site":"KPBZ","name":"Pittsburgh PA","scan_time":"2026-09-06T11:01:23Z","stale":false,"bins":25,"density_birds_km3":24.708571428571428,"heading_deg":211.44747295823925,"speed_ms":7.107528226506862,"peak_altitude_m":800.0,"u_ms":-3.571447223669735,"v_ms":-5.368760060216548}},{"type":"Feature","geometry":{"type":"Point","coordinates":[-78.4899,35.6655]},"properties":{"site":"KRAX","name":"Raleigh NC","scan_time":"2026-09-06T10:58:15Z","stale":false,"bins":25,"density_birds_km3":7.179375,"heading_deg":225.09987958870957,"speed_ms":8.183676187138602,"peak_altitude_m":400.0,"u_ms":-5.79064482214824,"v_ms":-5.669637287541615}},{"type":"Feature","geometry":{"type":"Point","coordinates":[-82.4017,27.7055]},"properties":{"site":"KTBW","name":"Tampa FL","scan_time":"2026-09-06T11:01:13Z","stale":false,"bins":25,"density_birds_km3":3.988125,"heading_deg":134.22920504759645,"speed_ms":4.321448048895157,"peak_altitude_m":0.0,"u_ms":2.203892806770099,"v_ms":-3.5243927284124745}}]}