{"type":"FeatureCollection","frame":"2026-09-13T11","site_count":20,"fresh_count":20,"failures":{},"features":[{"type":"Feature","geometry":{"type":"Point","coordinates":[-77.0073,36.984]},"properties":{"site":"KAKQ","name":"Wakefield VA","scan_time":"2026-09-13T11:02:17Z","stale":false,"bins":25,"density_birds_km3":0.033125,"heading_deg":null,"speed_ms":null,"peak_altitude_m":200.0,"u_ms":null,"v_ms":null}},{"type":"Feature","geometry":{"type":"Point","coordinates":[-71.1369,41.9558]},"properties":{"site":"KBOX","name":"Boston MA","scan_time":"2026-09-13T10:58:08Z","stale":false,"bins":25,"density_birds_km3":1.023125,"heading_deg":352.578247188745,"speed_ms":4.866811240073304,"peak_altitude_m":0.0,"u_ms":-0.6646731826511912,"v_ms":4.814636530238241}},{"type":"Feature","geometry":{"type":"Point","coordinates":[-78.7369,42.9489]},"properties":{"site":"KBUF","name":"Buffalo NY","scan_time":"2026-09-13T11:01:31Z","stale":false,"bins":25,"density_birds_km3":1.288,"heading_deg":65.95431316897783,"speed_ms":6.9204037267080745,"peak_altitude_m":200.0,"u_ms":6.159001035196687,"v_ms":2.7387836438923396}},{"type":"Feature","geometry":{"type":"Point","coordinates":[-81.8597,41.4131]},"properties":{"site":"KCLE","name":"Cleveland OH","scan_time":"2026-09-13T11:00:07Z","stale":false,"bins":25,"density_birds_km3":3.5226666666666664,"heading_deg":120.90476196140591,"speed_ms":7.9263127962085305,"peak_altitude_m":200.0,"u_ms":6.447778199052133,"v_ms":-4.215097630331753}},{"type":"Feature","geometry":{"type":"Point","coordinates":[-81.0423,32.6555]},"properties":{"site":"KCLX","name":"Charleston SC","scan_time":"2026-09-13T10:58:05Z","stale":false,"bins":25,"density_birds_km3":1.875,"heading_deg":98.70022338893213,"speed_ms":8.004009339559707,"peak_altitude_m":0.0,"u_ms":7.811394262841894,"v_ms":-1.3071180787191459}},{"type":"Feature","geometry":{"type":"Point","coordinates":[-74.4108,39.947]},"properties":{"site":"KDIX","name":"Philadelphia PA","scan_time":"2026-09-13T10:58:05Z","stale":false,"bins":25,"density_birds_km3":0.09600000000000002,"heading_deg":null,"speed_ms":null,"peak_altitude_m":400.0,"u_ms":null,"v_ms":null}},{"type":"Feature","geometry":{"type":"Point","coordinates":[-84.5658,33.3636]},"properties":{"site":"KFFC","name":"Atlanta GA","scan_time":"2026-09-13T10:57:09Z","stale":false,"bins":25,"density_birds_km3":14.509333333333332,"heading_deg":150.85371275113127,"speed_ms":8.855288359909931,"peak_altitude_m":600.0,"u_ms":3.9292973668489504,"v_ms":-7.719297826386656}},{"type":"Feature","geometry":{"type":"Point","coordinates":[-85.5449,42.8939]},"properties":{"site":"KGRR","name":"Grand Rapids MI","scan_time":"2026-09-13T11:02:58Z","stale":false,"bins":25,"density_birds_km3":1.4566666666666668,"heading_deg":145.5386643888574,"speed_ms":9.837415215398716,"peak_altitude_m":400.0,"u_ms":5.519775435380385,"v_ms":-8.118359303391385}},{"type":"Feature","geometry":{"type":"Point","coordinates":[-83.8217,39.4203]},"properties":{"site":"KILN","name":"Wilmington OH","scan_time":"2026-09-13T10:57:13Z","stale":false,"bins":25,"density_birds_km3":5.894666666666667,"heading_deg":139.8275377555439,"speed_ms":12.78511764705882,"peak_altitude_m":600.0,"u_ms":7.95656108597285,"v_ms":-9.845667420814479}},{"type":"Feature","geometry":{"type":"Point","coordinates":[-81.7019,30.4846]},"properties":{"site":"KJAX","name":"Jacksonville FL","scan_time":"2026-09-13T10:58:08Z","stale":false,"bins":25,"density_birds_km3":1.168125,"heading_deg":115.46909583384124,"speed_ms":6.768865096359742,"peak_altitude_m":200.0,"u_ms":5.8539721627409,"v_ms":-2.983720556745182}},{"type":"Feature","geometry":{"type":"Point","coordinates":[-88.0847,41.6045]},"properties":{"site":"KLOT","name":"Chicago IL","scan_time":"2026-09-13T10:59:55Z","stale":false,"bins":25,"density_birds_km3":41.09533333333333,"heading_deg":181.8009710428389,"speed_ms":15.598224220195398,"peak_altitude_m":400.0,"u_ms":-0.5526565289363499,"v_ms":-15.554053523321109}},{"type":"Feature","geometry":{"type":"Point","coordinates":[-78.4292,33.9892]},"properties":{"site":"KLTX","name":"Wilmington NC","scan_time":"2026-09-13T11:01:25Z","stale":false,"bins":25,"density_birds_km3":1.161875,"heading_deg":95.98578040481199,"speed_ms":8.60381925766541,"peak_altitude_m":400.0,"u_ms":8.500860677783756,"v_ms":-0.9825981710597096}},{"type":"Feature","geometry":{"type":"Point","coordinates":[-77.4778,38.9753]},"properties":{"site":"KLWX","name":"Sterling VA","scan_time":"2026-09-13T11:01:26Z","stale":false,"bins":25,"density_birds_km3":5.161875,"heading_deg":144.82957545818232,"speed_ms":4.368923598498608,"peak_altitude_m":600.0,"u_ms":3.028715340840295,"v_ms":-2.84003753481051}},{"type":"Feature","geometry":{"type":"Point","coordinates":[-76.8762,34.7759]},"properties":{"site":"KMHX","name":"Morehead City NC","scan_time":"2026-09-13T11:00:30Z","stale":false,"bins":25,"density_birds_km3":1.165,"heading_deg":83.19762302664238,"speed_ms":7.402247978436658,"peak_altitude_m":600.0,"u_ms":7.195487870619945,"v_ms":0.42575202156334235}},{"type":"Feature","geometry":{"type":"Point","coordinates":[-80.6542,28.1133]},"properties":{"site":"KMLB","name":"Melbourne FL","scan_time":"2026-09-13T10:58:49Z","stale":false,"bins":25,"density_birds_km3":4.136875,"heading_deg":104.01081906762629,"speed_ms":4.067814389359129,"peak_altitude_m":0.0,"u_ms":3.1351133615477633,"v_ms":-0.9388860338573157}},{"type":"Feature","geometry":{"type":"Point","coordinates":[-86.5625,36.2472]},"properties":{"site":"KOHX","name":"Nashville TN","scan_time":"2026-09-13T11:01:03Z","stale":false,"bins":25,"density_birds_km3":34.1,"heading_deg":136.59921599514536,"speed_ms":9.598806842619746,"peak_altitude_m":400.0,"u_ms":6.06347917888563,"v_ms":-7.1661411534701855}},{"type":"Feature","geometry":{"type":"Point","coordinates":[-72.8639,40.8655]},"properties":{"site":"KOKX","name":"Upton NY","scan_time":"2026-09-13T10:57:57Z","stale":false,"bins":25,"density_birds_km3":0.775625,"heading_deg":35.5,"speed_ms":5.89,"peak_altitude_m":0.0,"u_ms":3.42,"v_ms":4.79}},{"type":"Feature","geometry":{"type":"Point","coordinates":[-80.2183,40.5317]},"properties":{"site":"KPBZ","name":"Pittsburgh PA","scan_time":"2026-09-13T10:59:50Z","stale":false,"bins":25,"density_birds_km3":0.1285714285714286,"heading_deg":117.56704067611521,"speed_ms":5.616444444444444,"peak_altitude_m":400.0,"u_ms":4.827555555555556,"v_ms":-2.2128888888888887}},{"type":"Feature","geometry":{"type":"Point","coordinates":[-78.4899,35.6655]},"properties":{"site":"KRAX","name":"Raleigh NC","scan_time":"2026-09-13T10:59:46Z","stale":false,"bins":25,"density_birds_km3":1.145,"heading_deg":60.52859960638159,"speed_ms":5.961637554585153,"peak_altitude_m":0.0,"u_ms":5.193122270742358,"v_ms":2.7986026200873364}},{"type":"Feature","geometry":{"type":"Point","coordinates":[-82.4017,27.7055]},"properties":{"site":"KTBW","name":"Tampa FL","scan_time":"2026-09-13T10:59:01Z","stale":false,"bins":25,"density_birds_km3":1.05375,"heading_deg":28.02522626754632,"speed_ms":3.9245351609058403,"peak_altitude_m":0.0,"u_ms":1.8212634088200237,"v_ms":3.389833134684148}}]}