{"type":"FeatureCollection","frame":"2026-09-18T07","site_count":20,"fresh_count":20,"failures":{},"features":[{"type":"Feature","geometry":{"type":"Point","coordinates":[-77.0073,36.984]},"properties":{"site":"KAKQ","name":"Wakefield VA","scan_time":"2026-09-18T07:00:04Z","stale":false,"bins":25,"density_birds_km3":5.8525,"heading_deg":106.15408557167488,"speed_ms":9.502426313541223,"peak_altitude_m":0.0,"u_ms":9.039257795813755,"v_ms":-2.663076676633917}},{"type":"Feature","geometry":{"type":"Point","coordinates":[-71.1369,41.9558]},"properties":{"site":"KBOX","name":"Boston MA","scan_time":"2026-09-18T07:00:21Z","stale":false,"bins":25,"density_birds_km3":1.324375,"heading_deg":93.31509426035954,"speed_ms":6.953490788852148,"peak_altitude_m":0.0,"u_ms":6.726608408124704,"v_ms":-0.7636324988190836}},{"type":"Feature","geometry":{"type":"Point","coordinates":[-78.7369,42.9489]},"properties":{"site":"KBUF","name":"Buffalo NY","scan_time":"2026-09-18T07:01:57Z","stale":false,"bins":25,"density_birds_km3":39.144,"heading_deg":187.9140665379808,"speed_ms":8.550713093534982,"peak_altitude_m":400.0,"u_ms":-1.2650110702363921,"v_ms":-8.401021527352}},{"type":"Feature","geometry":{"type":"Point","coordinates":[-81.8597,41.4131]},"properties":{"site":"KCLE","name":"Cleveland OH","scan_time":"2026-09-18T07:00:55Z","stale":false,"bins":25,"density_birds_km3":22.16933333333333,"heading_deg":189.06311856012684,"speed_ms":10.629893546641007,"peak_altitude_m":400.0,"u_ms":-1.1473918927046372,"v_ms":-10.010299512840563}},{"type":"Feature","geometry":{"type":"Point","coordinates":[-81.0423,32.6555]},"properties":{"site":"KCLX","name":"Charleston SC","scan_time":"2026-09-18T06:56:14Z","stale":false,"bins":25,"density_birds_km3":5.595625,"heading_deg":262.41002734610515,"speed_ms":4.982083612787838,"peak_altitude_m":0.0,"u_ms":-1.3044075564498099,"v_ms":-3.2912631343617256}},{"type":"Feature","geometry":{"type":"Point","coordinates":[-74.4108,39.947]},"properties":{"site":"KDIX","name":"Philadelphia PA","scan_time":"2026-09-18T07:01:50Z","stale":false,"bins":25,"density_birds_km3":1.595,"heading_deg":87.66802563463314,"speed_ms":6.943885174990169,"peak_altitude_m":200.0,"u_ms":6.352284703106567,"v_ms":0.3045458120330318}},{"type":"Feature","geometry":{"type":"Point","coordinates":[-84.5658,33.3636]},"properties":{"site":"KFFC","name":"Atlanta GA","scan_time":"2026-09-18T07:01:34Z","stale":false,"bins":25,"density_birds_km3":53.45066666666666,"heading_deg":187.6091936105618,"speed_ms":8.411763370584714,"peak_altitude_m":1000.0,"u_ms":-2.123223782678108,"v_ms":-7.6534873278786675}},{"type":"Feature","geometry":{"type":"Point","coordinates":[-85.5449,42.8939]},"properties":{"site":"KGRR","name":"Grand Rapids MI","scan_time":"2026-09-18T06:58:40Z","stale":false,"bins":25,"density_birds_km3":57.89666666666667,"heading_deg":203.204475562776,"speed_ms":8.88272807876101,"peak_altitude_m":400.0,"u_ms":-3.4670616615809777,"v_ms":-8.104605907075825}},{"type":"Feature","geometry":{"type":"Point","coordinates":[-83.8217,39.4203]},"properties":{"site":"KILN","name":"Wilmington OH","scan_time":"2026-09-18T06:59:57Z","stale":false,"bins":25,"density_birds_km3":24.089333333333332,"heading_deg":156.46366002338323,"speed_ms":7.002913564529075,"peak_altitude_m":200.0,"u_ms":3.5324045833218016,"v_ms":-5.438593174836013}},{"type":"Feature","geometry":{"type":"Point","coordinates":[-81.7019,30.4846]},"properties":{"site":"KJAX","name":"Jacksonville FL","scan_time":"2026-09-18T07:01:38Z","stale":false,"bins":25,"density_birds_km3":19.05,"heading_deg":195.7599967641514,"speed_ms":10.907700636524705,"peak_altitude_m":0.0,"u_ms":-2.984088850974473,"v_ms":-10.457185510860292}},{"type":"Feature","geometry":{"type":"Point","coordinates":[-88.0847,41.6045]},"properties":{"site":"KLOT","name":"Chicago IL","scan_time":"2026-09-18T07:02:01Z","stale":false,"bins":25,"density_birds_km3":21.211333333333336,"heading_deg":199.20084377874443,"speed_ms":11.379532325486373,"peak_altitude_m":400.0,"u_ms":-3.0766860483389378,"v_ms":-9.646627274727345}},{"type":"Feature","geometry":{"type":"Point","coordinates":[-78.4292,33.9892]},"properties":{"site":"KLTX","name":"Wilmington NC","scan_time":"2026-09-18T06:58:13Z","stale":false,"bins":25,"density_birds_km3":4.2681249999999995,"heading_deg":102.35038969156389,"speed_ms":6.549706583258862,"peak_altitude_m":0.0,"u_ms":4.261994340184689,"v_ms":-1.3963777182007744}},{"type":"Feature","geometry":{"type":"Point","coordinates":[-77.4778,38.9753]},"properties":{"site":"KLWX","name":"Sterling VA","scan_time":"2026-09-18T06:58:16Z","stale":false,"bins":25,"density_birds_km3":22.345,"heading_deg":189.88527585364022,"speed_ms":8.712277914522264,"peak_altitude_m":200.0,"u_ms":-0.5466527746699487,"v_ms":-8.244903781606624}},{"type":"Feature","geometry":{"type":"Point","coordinates":[-76.8762,34.7759]},"properties":{"site":"KMHX","name":"Morehead City NC","scan_time":"2026-09-18T07:03:11Z","stale":false,"bins":25,"density_birds_km3":2.3925,"heading_deg":78.00875850693633,"speed_ms":6.471581699346405,"peak_altitude_m":0.0,"u_ms":5.140562091503268,"v_ms":1.4605620915032678}},{"type":"Feature","geometry":{"type":"Point","coordinates":[-80.6542,28.1133]},"properties":{"site":"KMLB","name":"Melbourne FL","scan_time":"2026-09-18T07:00:07Z","stale":false,"bins":25,"density_birds_km3":5.41,"heading_deg":188.9729566773715,"speed_ms":5.221997847919655,"peak_altitude_m":0.0,"u_ms":-0.830096843615495,"v_ms":-5.095143472022956}},{"type":"Feature","geometry":{"type":"Point","coordinates":[-86.5625,36.2472]},"properties":{"site":"KOHX","name":"Nashville TN","scan_time":"2026-09-18T06:59:19Z","stale":false,"bins":25,"density_birds_km3":79.39399999999999,"heading_deg":144.0226201731005,"speed_ms":3.3135534171347967,"peak_altitude_m":400.0,"u_ms":1.1499299695191074,"v_ms":-2.636826460437817}},{"type":"Feature","geometry":{"type":"Point","coordinates":[-72.8639,40.8655]},"properties":{"site":"KOKX","name":"Upton NY","scan_time":"2026-09-18T06:59:34Z","stale":false,"bins":25,"density_birds_km3":0.458125,"heading_deg":73.56887316952026,"speed_ms":8.722955665024632,"peak_altitude_m":200.0,"u_ms":8.170755336617406,"v_ms":2.2613464696223318}},{"type":"Feature","geometry":{"type":"Point","coordinates":[-80.2183,40.5317]},"properties":{"site":"KPBZ","name":"Pittsburgh PA","scan_time":"2026-09-18T07:01:48Z","stale":false,"bins":25,"density_birds_km3":7.067857142857143,"heading_deg":165.73350789796922,"speed_ms":7.996427488630621,"peak_altitude_m":600.0,"u_ms":2.0305376452753916,"v_ms":-7.684130368873168}},{"type":"Feature","geometry":{"type":"Point","coordinates":[-78.4899,35.6655]},"properties":{"site":"KRAX","name":"Raleigh NC","scan_time":"2026-09-18T06:56:51Z","stale":false,"bins":25,"density_birds_km3":8.998666666666667,"heading_deg":104.43479261052444,"speed_ms":8.697221587881554,"peak_altitude_m":200.0,"u_ms":7.599116236583694,"v_ms":-1.6352272208266725}},{"type":"Feature","geometry":{"type":"Point","coordinates":[-82.4017,27.7055]},"properties":{"site":"KTBW","name":"Tampa FL","scan_time":"2026-09-18T06:58:04Z","stale":false,"bins":25,"density_birds_km3":5.371875,"heading_deg":190.45314603432777,"speed_ms":9.121828970331588,"peak_altitude_m":0.0,"u_ms":-1.6806387434554975,"v_ms":-8.74268528214078}}]}