{"type":"FeatureCollection","frame":"2026-09-09T10","site_count":20,"fresh_count":20,"failures":{},"features":[{"type":"Feature","geometry":{"type":"Point","coordinates":[-77.0073,36.984]},"properties":{"site":"KAKQ","name":"Wakefield VA","scan_time":"2026-09-09T10:01:15Z","stale":false,"bins":25,"density_birds_km3":0.29625,"heading_deg":61.891778858839736,"speed_ms":7.394662447257383,"peak_altitude_m":0.0,"u_ms":5.811350210970464,"v_ms":3.6634388185654014}},{"type":"Feature","geometry":{"type":"Point","coordinates":[-71.1369,41.9558]},"properties":{"site":"KBOX","name":"Boston MA","scan_time":"2026-09-09T09:59:14Z","stale":false,"bins":25,"density_birds_km3":0.28250000000000003,"heading_deg":316.20980149055333,"speed_ms":3.8546874999999994,"peak_altitude_m":200.0,"u_ms":-2.5991071428571426,"v_ms":2.768392857142857}},{"type":"Feature","geometry":{"type":"Point","coordinates":[-78.7369,42.9489]},"properties":{"site":"KBUF","name":"Buffalo NY","scan_time":"2026-09-09T09:58:56Z","stale":false,"bins":25,"density_birds_km3":0.6633333333333333,"heading_deg":59.2862416819647,"speed_ms":11.662060301507537,"peak_altitude_m":200.0,"u_ms":9.778874371859295,"v_ms":5.456271356783921}},{"type":"Feature","geometry":{"type":"Point","coordinates":[-81.8597,41.4131]},"properties":{"site":"KCLE","name":"Cleveland OH","scan_time":"2026-09-09T09:58:43Z","stale":false,"bins":25,"density_birds_km3":0.86,"heading_deg":60.89240557325853,"speed_ms":12.324963797264681,"peak_altitude_m":200.0,"u_ms":10.68568785197104,"v_ms":5.278390989541434}},{"type":"Feature","geometry":{"type":"Point","coordinates":[-81.0423,32.6555]},"properties":{"site":"KCLX","name":"Charleston SC","scan_time":"2026-09-09T10:00:45Z","stale":false,"bins":25,"density_birds_km3":2.338125,"heading_deg":229.99126160925195,"speed_ms":13.035600106923283,"peak_altitude_m":0.0,"u_ms":-9.958871959369153,"v_ms":-8.271980753809142}},{"type":"Feature","geometry":{"type":"Point","coordinates":[-74.4108,39.947]},"properties":{"site":"KDIX","name":"Philadelphia PA","scan_time":"2026-09-09T09:57:50Z","stale":false,"bins":25,"density_birds_km3":0.164375,"heading_deg":54.863018227477646,"speed_ms":8.740692307692306,"peak_altitude_m":200.0,"u_ms":6.966692307692308,"v_ms":5.084923076923077}},{"type":"Feature","geometry":{"type":"Point","coordinates":[-84.5658,33.3636]},"properties":{"site":"KFFC","name":"Atlanta GA","scan_time":"2026-09-09T10:01:30Z","stale":false,"bins":25,"density_birds_km3":6.886666666666667,"heading_deg":253.9075565912524,"speed_ms":7.215247361796883,"peak_altitude_m":200.0,"u_ms":-6.578229257430536,"v_ms":-1.8183163907445055}},{"type":"Feature","geometry":{"type":"Point","coordinates":[-85.5449,42.8939]},"properties":{"site":"KGRR","name":"Grand Rapids MI","scan_time":"2026-09-09T09:58:51Z","stale":false,"bins":25,"density_birds_km3":0.8453333333333333,"heading_deg":45.30780995530006,"speed_ms":9.515542472666107,"peak_altitude_m":400.0,"u_ms":6.815071488645922,"v_ms":6.02304457527334}},{"type":"Feature","geometry":{"type":"Point","coordinates":[-83.8217,39.4203]},"properties":{"site":"KILN","name":"Wilmington OH","scan_time":"2026-09-09T09:56:47Z","stale":false,"bins":25,"density_birds_km3":1.7273333333333334,"heading_deg":61.39435639934066,"speed_ms":14.058856701429121,"peak_altitude_m":600.0,"u_ms":12.367779065276167,"v_ms":6.090069524913093}},{"type":"Feature","geometry":{"type":"Point","coordinates":[-81.7019,30.4846]},"properties":{"site":"KJAX","name":"Jacksonville FL","scan_time":"2026-09-09T10:00:19Z","stale":false,"bins":25,"density_birds_km3":8.441875,"heading_deg":198.16489303456976,"speed_ms":9.425659287776709,"peak_altitude_m":0.0,"u_ms":-2.8759902272895537,"v_ms":-8.907392463167247}},{"type":"Feature","geometry":{"type":"Point","coordinates":[-88.0847,41.6045]},"properties":{"site":"KLOT","name":"Chicago IL","scan_time":"2026-09-09T09:58:13Z","stale":false,"bins":25,"density_birds_km3":0.5333333333333333,"heading_deg":63.8731601440548,"speed_ms":9.831670588235294,"peak_altitude_m":200.0,"u_ms":8.780258823529412,"v_ms":4.248611764705881}},{"type":"Feature","geometry":{"type":"Point","coordinates":[-78.4292,33.9892]},"properties":{"site":"KLTX","name":"Wilmington NC","scan_time":"2026-09-09T10:01:47Z","stale":false,"bins":25,"density_birds_km3":0.925625,"heading_deg":244.43424700339338,"speed_ms":6.179885057471264,"peak_altitude_m":0.0,"u_ms":-5.413137254901961,"v_ms":-2.5932521974306963}},{"type":"Feature","geometry":{"type":"Point","coordinates":[-77.4778,38.9753]},"properties":{"site":"KLWX","name":"Sterling VA","scan_time":"2026-09-09T10:02:55Z","stale":false,"bins":25,"density_birds_km3":1.1375,"heading_deg":49.56738330412821,"speed_ms":7.643316722037652,"peak_altitude_m":200.0,"u_ms":5.652281284606866,"v_ms":4.699767441860465}},{"type":"Feature","geometry":{"type":"Point","coordinates":[-76.8762,34.7759]},"properties":{"site":"KMHX","name":"Morehead City NC","scan_time":"2026-09-09T10:02:05Z","stale":false,"bins":25,"density_birds_km3":0.58375,"heading_deg":291.92268195474173,"speed_ms":4.395503211991435,"peak_altitude_m":200.0,"u_ms":-4.018993576017131,"v_ms":1.4997537473233404}},{"type":"Feature","geometry":{"type":"Point","coordinates":[-80.6542,28.1133]},"properties":{"site":"KMLB","name":"Melbourne FL","scan_time":"2026-09-09T09:58:57Z","stale":false,"bins":25,"density_birds_km3":2.805625,"heading_deg":318.2374232492252,"speed_ms":1.593934061038093,"peak_altitude_m":0.0,"u_ms":-0.8922989529962129,"v_ms":1.2490933392737804}},{"type":"Feature","geometry":{"type":"Point","coordinates":[-86.5625,36.2472]},"properties":{"site":"KOHX","name":"Nashville TN","scan_time":"2026-09-09T10:01:14Z","stale":false,"bins":25,"density_birds_km3":5.911333333333333,"heading_deg":16.9623972202571,"speed_ms":10.885797249687464,"peak_altitude_m":200.0,"u_ms":3.546525741561541,"v_ms":9.788761222866233}},{"type":"Feature","geometry":{"type":"Point","coordinates":[-72.8639,40.8655]},"properties":{"site":"KOKX","name":"Upton NY","scan_time":"2026-09-09T10:00:36Z","stale":false,"bins":25,"density_birds_km3":0.17375000000000002,"heading_deg":29.667538326634666,"speed_ms":3.7554744525547448,"peak_altitude_m":200.0,"u_ms":1.7536496350364965,"v_ms":3.0622992700729927}},{"type":"Feature","geometry":{"type":"Point","coordinates":[-80.2183,40.5317]},"properties":{"site":"KPBZ","name":"Pittsburgh PA","scan_time":"2026-09-09T10:02:11Z","stale":false,"bins":25,"density_birds_km3":1.5664285714285715,"heading_deg":63.27368232274672,"speed_ms":10.546398904609767,"peak_altitude_m":400.0,"u_ms":9.385905979005022,"v_ms":4.3140985851209495}},{"type":"Feature","geometry":{"type":"Point","coordinates":[-78.4899,35.6655]},"properties":{"site":"KRAX","name":"Raleigh NC","scan_time":"2026-09-09T09:59:54Z","stale":false,"bins":25,"density_birds_km3":1.523125,"heading_deg":53.96609763878024,"speed_ms":3.5481511914543957,"peak_altitude_m":200.0,"u_ms":2.5946138044371407,"v_ms":1.8605382087099427}},{"type":"Feature","geometry":{"type":"Point","coordinates":[-82.4017,27.7055]},"properties":{"site":"KTBW","name":"Tampa FL","scan_time":"2026-09-09T09:59:49Z","stale":false,"bins":25,"density_birds_km3":4.898750000000001,"heading_deg":289.4665204028512,"speed_ms":3.86311877394636,"peak_altitude_m":0.0,"u_ms":-3.556334610472542,"v_ms":1.2023742017879948}}]}