{"type":"FeatureCollection","frame":"2026-10-09T03","site_count":20,"fresh_count":20,"failures":{},"features":[{"type":"Feature","geometry":{"type":"Point","coordinates":[-77.0073,36.984]},"properties":{"site":"KAKQ","name":"Wakefield VA","scan_time":"2026-10-09T03:01:37Z","stale":false,"bins":25,"density_birds_km3":40.275625,"heading_deg":215.23297190590648,"speed_ms":7.788622883657411,"peak_altitude_m":200.0,"u_ms":-1.7300994739210729,"v_ms":-4.094460652710315}},{"type":"Feature","geometry":{"type":"Point","coordinates":[-71.1369,41.9558]},"properties":{"site":"KBOX","name":"Boston MA","scan_time":"2026-10-09T03:00:26Z","stale":false,"bins":25,"density_birds_km3":7.081875,"heading_deg":140.2509701025275,"speed_ms":8.23636748742388,"peak_altitude_m":0.0,"u_ms":5.369990292118966,"v_ms":-6.19458829759068}},{"type":"Feature","geometry":{"type":"Point","coordinates":[-78.7369,42.9489]},"properties":{"site":"KBUF","name":"Buffalo NY","scan_time":"2026-10-09T03:01:16Z","stale":false,"bins":25,"density_birds_km3":22.423333333333336,"heading_deg":157.8479110515162,"speed_ms":9.924402818660246,"peak_altitude_m":400.0,"u_ms":3.910463532839771,"v_ms":-9.053697856272114}},{"type":"Feature","geometry":{"type":"Point","coordinates":[-81.8597,41.4131]},"properties":{"site":"KCLE","name":"Cleveland OH","scan_time":"2026-10-09T02:57:40Z","stale":false,"bins":25,"density_birds_km3":18.293999999999997,"heading_deg":151.41325274056106,"speed_ms":10.079350076547351,"peak_altitude_m":400.0,"u_ms":4.673519355544215,"v_ms":-8.852331413574397}},{"type":"Feature","geometry":{"type":"Point","coordinates":[-81.0423,32.6555]},"properties":{"site":"KCLX","name":"Charleston SC","scan_time":"2026-10-09T03:01:27Z","stale":false,"bins":25,"density_birds_km3":15.54125,"heading_deg":220.22014306612235,"speed_ms":5.6568676103917,"peak_altitude_m":0.0,"u_ms":-3.5318330250140755,"v_ms":-4.184180809136974}},{"type":"Feature","geometry":{"type":"Point","coordinates":[-74.4108,39.947]},"properties":{"site":"KDIX","name":"Philadelphia PA","scan_time":"2026-10-09T03:01:24Z","stale":false,"bins":25,"density_birds_km3":18.855,"heading_deg":161.79553160765232,"speed_ms":10.972250140882421,"peak_altitude_m":0.0,"u_ms":3.4154231444956413,"v_ms":-10.410107070640105}},{"type":"Feature","geometry":{"type":"Point","coordinates":[-84.5658,33.3636]},"properties":{"site":"KFFC","name":"Atlanta GA","scan_time":"2026-10-09T03:02:27Z","stale":false,"bins":25,"density_birds_km3":225.55266666666665,"heading_deg":203.22619292262874,"speed_ms":8.774849392159702,"peak_altitude_m":1000.0,"u_ms":-3.0506254562866326,"v_ms":-8.00289076608863}},{"type":"Feature","geometry":{"type":"Point","coordinates":[-85.5449,42.8939]},"properties":{"site":"KGRR","name":"Grand Rapids MI","scan_time":"2026-10-09T03:03:11Z","stale":false,"bins":25,"density_birds_km3":24.982000000000003,"heading_deg":180.3112547881753,"speed_ms":9.361056606794952,"peak_altitude_m":800.0,"u_ms":0.060255411139875655,"v_ms":-9.285993221062746}},{"type":"Feature","geometry":{"type":"Point","coordinates":[-83.8217,39.4203]},"properties":{"site":"KILN","name":"Wilmington OH","scan_time":"2026-10-09T02:58:23Z","stale":false,"bins":25,"density_birds_km3":54.25666666666667,"heading_deg":167.98904459488077,"speed_ms":6.831231230493229,"peak_altitude_m":400.0,"u_ms":1.5644561450935095,"v_ms":-5.116165614017842}},{"type":"Feature","geometry":{"type":"Point","coordinates":[-81.7019,30.4846]},"properties":{"site":"KJAX","name":"Jacksonville FL","scan_time":"2026-10-09T02:58:25Z","stale":false,"bins":25,"density_birds_km3":156.508125,"heading_deg":203.74002235548528,"speed_ms":6.585423935966257,"peak_altitude_m":0.0,"u_ms":-2.6080572996549076,"v_ms":-5.66104358384458}},{"type":"Feature","geometry":{"type":"Point","coordinates":[-88.0847,41.6045]},"properties":{"site":"KLOT","name":"Chicago IL","scan_time":"2026-10-09T02:56:58Z","stale":false,"bins":25,"density_birds_km3":21.207333333333334,"heading_deg":201.26983615292102,"speed_ms":7.482785375208274,"peak_altitude_m":400.0,"u_ms":-1.4094407243233045,"v_ms":-5.351722782860197}},{"type":"Feature","geometry":{"type":"Point","coordinates":[-78.4292,33.9892]},"properties":{"site":"KLTX","name":"Wilmington NC","scan_time":"2026-10-09T02:58:56Z","stale":false,"bins":25,"density_birds_km3":12.693125,"heading_deg":128.64603424147336,"speed_ms":3.5087213486469166,"peak_altitude_m":200.0,"u_ms":1.6992123034455562,"v_ms":-1.9006974910040912}},{"type":"Feature","geometry":{"type":"Point","coordinates":[-77.4778,38.9753]},"properties":{"site":"KLWX","name":"Sterling VA","scan_time":"2026-10-09T02:57:18Z","stale":false,"bins":25,"density_birds_km3":62.316874999999996,"heading_deg":191.05725983021716,"speed_ms":9.505129079493711,"peak_altitude_m":200.0,"u_ms":-1.6656740818004936,"v_ms":-9.107655106011675}},{"type":"Feature","geometry":{"type":"Point","coordinates":[-76.8762,34.7759]},"properties":{"site":"KMHX","name":"Morehead City NC","scan_time":"2026-10-09T02:57:49Z","stale":false,"bins":25,"density_birds_km3":6.421875,"heading_deg":91.13031561858469,"speed_ms":5.768196593673966,"peak_altitude_m":0.0,"u_ms":3.848126520681265,"v_ms":0.1427795620437955}},{"type":"Feature","geometry":{"type":"Point","coordinates":[-80.6542,28.1133]},"properties":{"site":"KMLB","name":"Melbourne FL","scan_time":"2026-10-09T02:59:42Z","stale":false,"bins":25,"density_birds_km3":66.71249999999999,"heading_deg":162.1085399857613,"speed_ms":7.972193524202241,"peak_altitude_m":0.0,"u_ms":2.479218031020102,"v_ms":-7.5673314277681465}},{"type":"Feature","geometry":{"type":"Point","coordinates":[-86.5625,36.2472]},"properties":{"site":"KOHX","name":"Nashville TN","scan_time":"2026-10-09T02:56:40Z","stale":false,"bins":25,"density_birds_km3":69.57533333333335,"heading_deg":212.25966344405583,"speed_ms":9.5896919406303,"peak_altitude_m":200.0,"u_ms":-4.61346205072679,"v_ms":-7.927540986748175}},{"type":"Feature","geometry":{"type":"Point","coordinates":[-72.8639,40.8655]},"properties":{"site":"KOKX","name":"Upton NY","scan_time":"2026-10-09T02:59:57Z","stale":false,"bins":25,"density_birds_km3":11.794375,"heading_deg":168.44527271220858,"speed_ms":8.874340752517224,"peak_altitude_m":0.0,"u_ms":1.791100158982512,"v_ms":-8.620693163751987}},{"type":"Feature","geometry":{"type":"Point","coordinates":[-80.2183,40.5317]},"properties":{"site":"KPBZ","name":"Pittsburgh PA","scan_time":"2026-10-09T02:57:37Z","stale":false,"bins":25,"density_birds_km3":32.21,"heading_deg":196.12224462087514,"speed_ms":8.010805428660133,"peak_altitude_m":600.0,"u_ms":-1.9802783075353707,"v_ms":-7.232712334235153}},{"type":"Feature","geometry":{"type":"Point","coordinates":[-78.4899,35.6655]},"properties":{"site":"KRAX","name":"Raleigh NC","scan_time":"2026-10-09T02:58:28Z","stale":false,"bins":25,"density_birds_km3":66.4875,"heading_deg":119.62412716589381,"speed_ms":8.621809584688563,"peak_altitude_m":200.0,"u_ms":6.504945477448345,"v_ms":-3.880021809020662}},{"type":"Feature","geometry":{"type":"Point","coordinates":[-82.4017,27.7055]},"properties":{"site":"KTBW","name":"Tampa FL","scan_time":"2026-10-09T02:57:12Z","stale":false,"bins":25,"density_birds_km3":24.636875,"heading_deg":231.10487527158736,"speed_ms":6.6907392180352865,"peak_altitude_m":0.0,"u_ms":-5.189344369418428,"v_ms":-4.113776410368111}}]}