{"type":"FeatureCollection","frame":"2026-09-06T09","site_count":20,"fresh_count":20,"failures":{},"features":[{"type":"Feature","geometry":{"type":"Point","coordinates":[-77.0073,36.984]},"properties":{"site":"KAKQ","name":"Wakefield VA","scan_time":"2026-09-06T09:00:42Z","stale":false,"bins":25,"density_birds_km3":74.578125,"heading_deg":206.58267176434651,"speed_ms":8.89263857108133,"peak_altitude_m":0.0,"u_ms":-3.866898337901381,"v_ms":-7.884026586872522}},{"type":"Feature","geometry":{"type":"Point","coordinates":[-71.1369,41.9558]},"properties":{"site":"KBOX","name":"Boston MA","scan_time":"2026-09-06T08:58:22Z","stale":false,"bins":25,"density_birds_km3":4.695625,"heading_deg":188.98010164792515,"speed_ms":10.004414820623408,"peak_altitude_m":200.0,"u_ms":-1.550345030386199,"v_ms":-9.867508331699668}},{"type":"Feature","geometry":{"type":"Point","coordinates":[-78.7369,42.9489]},"properties":{"site":"KBUF","name":"Buffalo NY","scan_time":"2026-09-06T09:01:25Z","stale":false,"bins":25,"density_birds_km3":3.2126666666666663,"heading_deg":224.72769387915062,"speed_ms":6.388655322681054,"peak_altitude_m":200.0,"u_ms":-4.459697032579373,"v_ms":-4.270929653455074}},{"type":"Feature","geometry":{"type":"Point","coordinates":[-81.8597,41.4131]},"properties":{"site":"KCLE","name":"Cleveland OH","scan_time":"2026-09-06T09:02:10Z","stale":false,"bins":25,"density_birds_km3":9.553333333333335,"heading_deg":219.9722782502631,"speed_ms":8.618158280410357,"peak_altitude_m":200.0,"u_ms":-5.489071114522996,"v_ms":-6.53115569823435}},{"type":"Feature","geometry":{"type":"Point","coordinates":[-81.0423,32.6555]},"properties":{"site":"KCLX","name":"Charleston SC","scan_time":"2026-09-06T09:01:25Z","stale":false,"bins":25,"density_birds_km3":23.973125,"heading_deg":189.7277419725666,"speed_ms":7.203249296068411,"peak_altitude_m":0.0,"u_ms":-1.179032485139222,"v_ms":-5.9357088851809365}},{"type":"Feature","geometry":{"type":"Point","coordinates":[-74.4108,39.947]},"properties":{"site":"KDIX","name":"Philadelphia PA","scan_time":"2026-09-06T09:02:15Z","stale":false,"bins":25,"density_birds_km3":7.1625,"heading_deg":207.17812886273268,"speed_ms":9.586188599947466,"peak_altitude_m":200.0,"u_ms":-4.500923736975747,"v_ms":-8.389760091060328}},{"type":"Feature","geometry":{"type":"Point","coordinates":[-84.5658,33.3636]},"properties":{"site":"KFFC","name":"Atlanta GA","scan_time":"2026-09-06T09:01:10Z","stale":false,"bins":25,"density_birds_km3":63.30733333333333,"heading_deg":179.90862272461928,"speed_ms":8.29505207400933,"peak_altitude_m":600.0,"u_ms":-0.5130526216025525,"v_ms":-7.6873113172776195}},{"type":"Feature","geometry":{"type":"Point","coordinates":[-85.5449,42.8939]},"properties":{"site":"KGRR","name":"Grand Rapids MI","scan_time":"2026-09-06T08:56:05Z","stale":false,"bins":25,"density_birds_km3":19.974666666666668,"heading_deg":216.1118387691038,"speed_ms":9.681063424735314,"peak_altitude_m":200.0,"u_ms":-5.308827360475602,"v_ms":-7.493281453525267}},{"type":"Feature","geometry":{"type":"Point","coordinates":[-83.8217,39.4203]},"properties":{"site":"KILN","name":"Wilmington OH","scan_time":"2026-09-06T09:01:14Z","stale":false,"bins":25,"density_birds_km3":36.38133333333334,"heading_deg":220.57282285825582,"speed_ms":12.842282122700285,"peak_altitude_m":400.0,"u_ms":-7.838985193872315,"v_ms":-8.930098402110973}},{"type":"Feature","geometry":{"type":"Point","coordinates":[-81.7019,30.4846]},"properties":{"site":"KJAX","name":"Jacksonville FL","scan_time":"2026-09-06T09:02:58Z","stale":false,"bins":25,"density_birds_km3":46.5425,"heading_deg":165.68189373428302,"speed_ms":9.568174312050786,"peak_altitude_m":200.0,"u_ms":2.4348078615032693,"v_ms":-9.145266043124568}},{"type":"Feature","geometry":{"type":"Point","coordinates":[-88.0847,41.6045]},"properties":{"site":"KLOT","name":"Chicago IL","scan_time":"2026-09-06T09:04:01Z","stale":false,"bins":25,"density_birds_km3":86.23,"heading_deg":192.54080379678243,"speed_ms":10.272235207672674,"peak_altitude_m":200.0,"u_ms":-1.4017071699280685,"v_ms":-9.512326088637945}},{"type":"Feature","geometry":{"type":"Point","coordinates":[-78.4292,33.9892]},"properties":{"site":"KLTX","name":"Wilmington NC","scan_time":"2026-09-06T08:59:26Z","stale":false,"bins":25,"density_birds_km3":49.289375,"heading_deg":223.18027641501368,"speed_ms":5.7396457147204645,"peak_altitude_m":0.0,"u_ms":-3.677117786541218,"v_ms":-3.9980811026717222}},{"type":"Feature","geometry":{"type":"Point","coordinates":[-77.4778,38.9753]},"properties":{"site":"KLWX","name":"Sterling VA","scan_time":"2026-09-06T08:59:37Z","stale":false,"bins":25,"density_birds_km3":38.96214285714286,"heading_deg":221.22321341911447,"speed_ms":9.974559913584384,"peak_altitude_m":200.0,"u_ms":-6.801373337803105,"v_ms":-6.790423324766268}},{"type":"Feature","geometry":{"type":"Point","coordinates":[-76.8762,34.7759]},"properties":{"site":"KMHX","name":"Morehead City NC","scan_time":"2026-09-06T08:58:24Z","stale":false,"bins":25,"density_birds_km3":27.2075,"heading_deg":199.33055693333532,"speed_ms":9.314081323225361,"peak_altitude_m":0.0,"u_ms":-2.5855671950379047,"v_ms":-8.45952079025959}},{"type":"Feature","geometry":{"type":"Point","coordinates":[-80.6542,28.1133]},"properties":{"site":"KMLB","name":"Melbourne FL","scan_time":"2026-09-06T08:58:19Z","stale":false,"bins":25,"density_birds_km3":8.2825,"heading_deg":135.49811483638376,"speed_ms":6.949064009661836,"peak_altitude_m":0.0,"u_ms":4.785591787439614,"v_ms":-4.937075030193237}},{"type":"Feature","geometry":{"type":"Point","coordinates":[-86.5625,36.2472]},"properties":{"site":"KOHX","name":"Nashville TN","scan_time":"2026-09-06T09:00:50Z","stale":false,"bins":25,"density_birds_km3":66.2,"heading_deg":136.60712395740987,"speed_ms":8.497065256797583,"peak_altitude_m":200.0,"u_ms":2.23483413897281,"v_ms":-5.003473716012085}},{"type":"Feature","geometry":{"type":"Point","coordinates":[-72.8639,40.8655]},"properties":{"site":"KOKX","name":"Upton NY","scan_time":"2026-09-06T09:02:32Z","stale":false,"bins":25,"density_birds_km3":2.6753846153846155,"heading_deg":241.4977879389025,"speed_ms":6.779073099415204,"peak_altitude_m":0.0,"u_ms":-5.809880116959064,"v_ms":-2.8711315789473684}},{"type":"Feature","geometry":{"type":"Point","coordinates":[-80.2183,40.5317]},"properties":{"site":"KPBZ","name":"Pittsburgh PA","scan_time":"2026-09-06T09:00:56Z","stale":false,"bins":25,"density_birds_km3":32.03928571428572,"heading_deg":238.2677295198844,"speed_ms":10.532397547380157,"peak_altitude_m":400.0,"u_ms":-8.62544370122631,"v_ms":-5.122092084726868}},{"type":"Feature","geometry":{"type":"Point","coordinates":[-78.4899,35.6655]},"properties":{"site":"KRAX","name":"Raleigh NC","scan_time":"2026-09-06T08:58:15Z","stale":false,"bins":25,"density_birds_km3":36.236875,"heading_deg":227.4270281896791,"speed_ms":10.526662354016802,"peak_altitude_m":400.0,"u_ms":-7.8498323241732635,"v_ms":-6.87070986216771}},{"type":"Feature","geometry":{"type":"Point","coordinates":[-82.4017,27.7055]},"properties":{"site":"KTBW","name":"Tampa FL","scan_time":"2026-09-06T09:02:38Z","stale":false,"bins":25,"density_birds_km3":8.034374999999999,"heading_deg":159.68181716644295,"speed_ms":6.112672112018671,"peak_altitude_m":0.0,"u_ms":2.0628883702839365,"v_ms":-5.735361338000778}}]}