{"type":"FeatureCollection","frame":"2026-09-28T04","site_count":20,"fresh_count":20,"failures":{},"features":[{"type":"Feature","geometry":{"type":"Point","coordinates":[-77.0073,36.984]},"properties":{"site":"KAKQ","name":"Wakefield VA","scan_time":"2026-09-28T04:00:21Z","stale":false,"bins":25,"density_birds_km3":8.04875,"heading_deg":148.82017069634193,"speed_ms":9.888169746855102,"peak_altitude_m":200.0,"u_ms":4.106162447585029,"v_ms":-8.700342444478956}},{"type":"Feature","geometry":{"type":"Point","coordinates":[-71.1369,41.9558]},"properties":{"site":"KBOX","name":"Boston MA","scan_time":"2026-09-28T04:00:25Z","stale":false,"bins":25,"density_birds_km3":0.2153846153846154,"heading_deg":298.5,"speed_ms":10.06,"peak_altitude_m":0.0,"u_ms":-8.84,"v_ms":4.8}},{"type":"Feature","geometry":{"type":"Point","coordinates":[-78.7369,42.9489]},"properties":{"site":"KBUF","name":"Buffalo NY","scan_time":"2026-09-28T03:58:51Z","stale":false,"bins":25,"density_birds_km3":2.528,"heading_deg":202.97149868318823,"speed_ms":7.782295814709468,"peak_altitude_m":400.0,"u_ms":-3.073201950426656,"v_ms":-7.150422592442097}},{"type":"Feature","geometry":{"type":"Point","coordinates":[-81.8597,41.4131]},"properties":{"site":"KCLE","name":"Cleveland OH","scan_time":"2026-09-28T04:00:24Z","stale":false,"bins":25,"density_birds_km3":21.587333333333333,"heading_deg":180.33623059693738,"speed_ms":11.685677795966273,"peak_altitude_m":400.0,"u_ms":-0.17249003922537604,"v_ms":-11.476086728233005}},{"type":"Feature","geometry":{"type":"Point","coordinates":[-81.0423,32.6555]},"properties":{"site":"KCLX","name":"Charleston SC","scan_time":"2026-09-28T04:02:24Z","stale":false,"bins":25,"density_birds_km3":66.48125,"heading_deg":204.3940361596956,"speed_ms":5.322817429726427,"peak_altitude_m":200.0,"u_ms":-0.8198788192159443,"v_ms":-3.3482903074175048}},{"type":"Feature","geometry":{"type":"Point","coordinates":[-74.4108,39.947]},"properties":{"site":"KDIX","name":"Philadelphia PA","scan_time":"2026-09-28T03:57:27Z","stale":false,"bins":25,"density_birds_km3":0.0,"heading_deg":null,"speed_ms":null,"peak_altitude_m":2000.0,"u_ms":null,"v_ms":null}},{"type":"Feature","geometry":{"type":"Point","coordinates":[-84.5658,33.3636]},"properties":{"site":"KFFC","name":"Atlanta GA","scan_time":"2026-09-28T04:02:55Z","stale":false,"bins":25,"density_birds_km3":99.07600000000001,"heading_deg":181.67549876125176,"speed_ms":15.382443713243703,"peak_altitude_m":600.0,"u_ms":-0.15235644017387331,"v_ms":-15.219240784852031}},{"type":"Feature","geometry":{"type":"Point","coordinates":[-85.5449,42.8939]},"properties":{"site":"KGRR","name":"Grand Rapids MI","scan_time":"2026-09-28T03:58:47Z","stale":false,"bins":25,"density_birds_km3":97.794,"heading_deg":191.31860694289418,"speed_ms":12.167786639943829,"peak_altitude_m":200.0,"u_ms":-2.318166008821264,"v_ms":-11.899820438881731}},{"type":"Feature","geometry":{"type":"Point","coordinates":[-83.8217,39.4203]},"properties":{"site":"KILN","name":"Wilmington OH","scan_time":"2026-09-28T03:57:26Z","stale":false,"bins":25,"density_birds_km3":71.02333333333333,"heading_deg":177.48428235258356,"speed_ms":10.366632404017647,"peak_altitude_m":200.0,"u_ms":0.04962555148784373,"v_ms":-10.13069473387778}},{"type":"Feature","geometry":{"type":"Point","coordinates":[-81.7019,30.4846]},"properties":{"site":"KJAX","name":"Jacksonville FL","scan_time":"2026-09-28T04:00:40Z","stale":false,"bins":25,"density_birds_km3":80.31812500000001,"heading_deg":138.0003831411042,"speed_ms":8.549199511318273,"peak_altitude_m":0.0,"u_ms":3.4777831124668306,"v_ms":-5.785136216140503}},{"type":"Feature","geometry":{"type":"Point","coordinates":[-88.0847,41.6045]},"properties":{"site":"KLOT","name":"Chicago IL","scan_time":"2026-09-28T03:57:09Z","stale":false,"bins":25,"density_birds_km3":73.644,"heading_deg":167.88413347586268,"speed_ms":12.963276392736224,"peak_altitude_m":600.0,"u_ms":2.767542411239657,"v_ms":-12.645232650770371}},{"type":"Feature","geometry":{"type":"Point","coordinates":[-78.4292,33.9892]},"properties":{"site":"KLTX","name":"Wilmington NC","scan_time":"2026-09-28T03:58:50Z","stale":false,"bins":25,"density_birds_km3":28.128125,"heading_deg":130.26399951036592,"speed_ms":6.09574869458949,"peak_altitude_m":0.0,"u_ms":4.002055104988335,"v_ms":-3.2631778691256526}},{"type":"Feature","geometry":{"type":"Point","coordinates":[-77.4778,38.9753]},"properties":{"site":"KLWX","name":"Sterling VA","scan_time":"2026-09-28T04:02:09Z","stale":false,"bins":25,"density_birds_km3":4.044375,"heading_deg":162.18024660510795,"speed_ms":12.122576506955177,"peak_altitude_m":0.0,"u_ms":0.7868655332302935,"v_ms":-10.645374034003092}},{"type":"Feature","geometry":{"type":"Point","coordinates":[-76.8762,34.7759]},"properties":{"site":"KMHX","name":"Morehead City NC","scan_time":"2026-09-28T04:02:07Z","stale":false,"bins":25,"density_birds_km3":27.357499999999998,"heading_deg":118.82732433450884,"speed_ms":7.227558484876177,"peak_altitude_m":0.0,"u_ms":5.851728730695421,"v_ms":-2.736806862834689}},{"type":"Feature","geometry":{"type":"Point","coordinates":[-80.6542,28.1133]},"properties":{"site":"KMLB","name":"Melbourne FL","scan_time":"2026-09-28T03:59:23Z","stale":false,"bins":25,"density_birds_km3":13.138124999999999,"heading_deg":174.53268903123848,"speed_ms":7.76206587966489,"peak_altitude_m":800.0,"u_ms":2.312038747143945,"v_ms":-6.012841774562072}},{"type":"Feature","geometry":{"type":"Point","coordinates":[-86.5625,36.2472]},"properties":{"site":"KOHX","name":"Nashville TN","scan_time":"2026-09-28T04:01:36Z","stale":false,"bins":25,"density_birds_km3":101.95466666666667,"heading_deg":189.60224664519976,"speed_ms":12.099871838464155,"peak_altitude_m":200.0,"u_ms":-2.0559672926529435,"v_ms":-11.814528548635996}},{"type":"Feature","geometry":{"type":"Point","coordinates":[-72.8639,40.8655]},"properties":{"site":"KOKX","name":"Upton NY","scan_time":"2026-09-28T04:02:26Z","stale":false,"bins":25,"density_birds_km3":0.0018181818181818182,"heading_deg":null,"speed_ms":null,"peak_altitude_m":1000.0,"u_ms":null,"v_ms":null}},{"type":"Feature","geometry":{"type":"Point","coordinates":[-80.2183,40.5317]},"properties":{"site":"KPBZ","name":"Pittsburgh PA","scan_time":"2026-09-28T04:02:02Z","stale":false,"bins":25,"density_birds_km3":13.00357142857143,"heading_deg":161.4313171909002,"speed_ms":11.528598736610823,"peak_altitude_m":400.0,"u_ms":1.9613100796484482,"v_ms":-10.028281790716836}},{"type":"Feature","geometry":{"type":"Point","coordinates":[-78.4899,35.6655]},"properties":{"site":"KRAX","name":"Raleigh NC","scan_time":"2026-09-28T03:58:41Z","stale":false,"bins":25,"density_birds_km3":36.688125,"heading_deg":184.7773353440381,"speed_ms":8.7485356297167,"peak_altitude_m":200.0,"u_ms":-0.8510817532921074,"v_ms":-8.139453160934226}},{"type":"Feature","geometry":{"type":"Point","coordinates":[-82.4017,27.7055]},"properties":{"site":"KTBW","name":"Tampa FL","scan_time":"2026-09-28T03:58:35Z","stale":false,"bins":25,"density_birds_km3":18.455,"heading_deg":173.0306448776398,"speed_ms":9.964353833649417,"peak_altitude_m":1600.0,"u_ms":0.6886064074776485,"v_ms":-9.77000067732322}}]}