{"type":"FeatureCollection","frame":"2026-09-27T08","site_count":20,"fresh_count":20,"failures":{},"features":[{"type":"Feature","geometry":{"type":"Point","coordinates":[-77.0073,36.984]},"properties":{"site":"KAKQ","name":"Wakefield VA","scan_time":"2026-09-27T08:00:13Z","stale":false,"bins":25,"density_birds_km3":3.1575,"heading_deg":154.04854578180806,"speed_ms":9.194816722805628,"peak_altitude_m":0.0,"u_ms":3.234967307311274,"v_ms":-8.482094313453539}},{"type":"Feature","geometry":{"type":"Point","coordinates":[-71.1369,41.9558]},"properties":{"site":"KBOX","name":"Boston MA","scan_time":"2026-09-27T08:01:09Z","stale":false,"bins":25,"density_birds_km3":null,"heading_deg":null,"speed_ms":null,"peak_altitude_m":null,"u_ms":null,"v_ms":null}},{"type":"Feature","geometry":{"type":"Point","coordinates":[-78.7369,42.9489]},"properties":{"site":"KBUF","name":"Buffalo NY","scan_time":"2026-09-27T07:58:38Z","stale":false,"bins":25,"density_birds_km3":7.097333333333333,"heading_deg":207.1579328929719,"speed_ms":17.177558478158762,"peak_altitude_m":200.0,"u_ms":-7.957750117426021,"v_ms":-14.917814936589949}},{"type":"Feature","geometry":{"type":"Point","coordinates":[-81.8597,41.4131]},"properties":{"site":"KCLE","name":"Cleveland OH","scan_time":"2026-09-27T07:57:19Z","stale":false,"bins":25,"density_birds_km3":17.634,"heading_deg":182.33152740265388,"speed_ms":11.521350952813068,"peak_altitude_m":200.0,"u_ms":-0.5136876134301269,"v_ms":-11.280553539019964}},{"type":"Feature","geometry":{"type":"Point","coordinates":[-81.0423,32.6555]},"properties":{"site":"KCLX","name":"Charleston SC","scan_time":"2026-09-27T07:56:22Z","stale":false,"bins":25,"density_birds_km3":57.79625,"heading_deg":172.6663249274235,"speed_ms":6.728871682851396,"peak_altitude_m":200.0,"u_ms":-0.36109273958085514,"v_ms":-5.277533685143932}},{"type":"Feature","geometry":{"type":"Point","coordinates":[-74.4108,39.947]},"properties":{"site":"KDIX","name":"Philadelphia PA","scan_time":"2026-09-27T08:00:29Z","stale":false,"bins":25,"density_birds_km3":null,"heading_deg":null,"speed_ms":null,"peak_altitude_m":null,"u_ms":null,"v_ms":null}},{"type":"Feature","geometry":{"type":"Point","coordinates":[-84.5658,33.3636]},"properties":{"site":"KFFC","name":"Atlanta GA","scan_time":"2026-09-27T07:58:02Z","stale":false,"bins":25,"density_birds_km3":70.53999999999999,"heading_deg":196.56305026918164,"speed_ms":12.016154805783954,"peak_altitude_m":400.0,"u_ms":-2.899557319724034,"v_ms":-10.81249106889708}},{"type":"Feature","geometry":{"type":"Point","coordinates":[-85.5449,42.8939]},"properties":{"site":"KGRR","name":"Grand Rapids MI","scan_time":"2026-09-27T07:57:22Z","stale":false,"bins":25,"density_birds_km3":29.92,"heading_deg":227.53260676968094,"speed_ms":9.89647103386809,"peak_altitude_m":200.0,"u_ms":-7.228708333333333,"v_ms":-6.662954545454546}},{"type":"Feature","geometry":{"type":"Point","coordinates":[-83.8217,39.4203]},"properties":{"site":"KILN","name":"Wilmington OH","scan_time":"2026-09-27T08:01:05Z","stale":false,"bins":25,"density_birds_km3":54.73733333333334,"heading_deg":184.78298668632968,"speed_ms":13.08595742089494,"peak_altitude_m":200.0,"u_ms":-1.1148705332131634,"v_ms":-12.683141305142133}},{"type":"Feature","geometry":{"type":"Point","coordinates":[-81.7019,30.4846]},"properties":{"site":"KJAX","name":"Jacksonville FL","scan_time":"2026-09-27T07:58:40Z","stale":false,"bins":25,"density_birds_km3":49.449375,"heading_deg":172.1403534523249,"speed_ms":10.401945676765378,"peak_altitude_m":1200.0,"u_ms":-0.375111288059758,"v_ms":-10.224580694902615}},{"type":"Feature","geometry":{"type":"Point","coordinates":[-88.0847,41.6045]},"properties":{"site":"KLOT","name":"Chicago IL","scan_time":"2026-09-27T08:00:35Z","stale":false,"bins":25,"density_birds_km3":15.902,"heading_deg":202.59616797366868,"speed_ms":9.411186582809226,"peak_altitude_m":200.0,"u_ms":-2.053064150943396,"v_ms":-6.361628092243188}},{"type":"Feature","geometry":{"type":"Point","coordinates":[-78.4292,33.9892]},"properties":{"site":"KLTX","name":"Wilmington NC","scan_time":"2026-09-27T07:59:54Z","stale":false,"bins":25,"density_birds_km3":51.6625,"heading_deg":237.38597334686756,"speed_ms":11.104017616241789,"peak_altitude_m":0.0,"u_ms":-9.147663065177674,"v_ms":-5.927015765084512}},{"type":"Feature","geometry":{"type":"Point","coordinates":[-77.4778,38.9753]},"properties":{"site":"KLWX","name":"Sterling VA","scan_time":"2026-09-27T07:58:06Z","stale":false,"bins":25,"density_birds_km3":1.901875,"heading_deg":171.33216489446542,"speed_ms":16.01123599208965,"peak_altitude_m":600.0,"u_ms":1.4339716545814107,"v_ms":-15.334841793012524}},{"type":"Feature","geometry":{"type":"Point","coordinates":[-76.8762,34.7759]},"properties":{"site":"KMHX","name":"Morehead City NC","scan_time":"2026-09-27T08:01:51Z","stale":false,"bins":25,"density_birds_km3":6.845,"heading_deg":122.51101799941146,"speed_ms":6.494259749748835,"peak_altitude_m":0.0,"u_ms":4.3866015161201934,"v_ms":-4.151373641428441}},{"type":"Feature","geometry":{"type":"Point","coordinates":[-80.6542,28.1133]},"properties":{"site":"KMLB","name":"Melbourne FL","scan_time":"2026-09-27T07:59:25Z","stale":false,"bins":25,"density_birds_km3":19.73125,"heading_deg":165.7906348658757,"speed_ms":12.354028635686909,"peak_altitude_m":0.0,"u_ms":3.0535262441002247,"v_ms":-11.949869175456936}},{"type":"Feature","geometry":{"type":"Point","coordinates":[-86.5625,36.2472]},"properties":{"site":"KOHX","name":"Nashville TN","scan_time":"2026-09-27T07:59:24Z","stale":false,"bins":25,"density_birds_km3":51.961999999999996,"heading_deg":210.74324723656733,"speed_ms":9.620492539419834,"peak_altitude_m":200.0,"u_ms":-4.514741028700461,"v_ms":-7.7999498351359335}},{"type":"Feature","geometry":{"type":"Point","coordinates":[-72.8639,40.8655]},"properties":{"site":"KOKX","name":"Upton NY","scan_time":"2026-09-27T07:56:59Z","stale":false,"bins":25,"density_birds_km3":3.616666666666667,"heading_deg":null,"speed_ms":null,"peak_altitude_m":0.0,"u_ms":null,"v_ms":null}},{"type":"Feature","geometry":{"type":"Point","coordinates":[-80.2183,40.5317]},"properties":{"site":"KPBZ","name":"Pittsburgh PA","scan_time":"2026-09-27T08:00:51Z","stale":false,"bins":25,"density_birds_km3":20.8,"heading_deg":195.68273907277353,"speed_ms":20.909180631868132,"peak_altitude_m":600.0,"u_ms":-5.966775755494506,"v_ms":-19.482152815934068}},{"type":"Feature","geometry":{"type":"Point","coordinates":[-78.4899,35.6655]},"properties":{"site":"KRAX","name":"Raleigh NC","scan_time":"2026-09-27T08:01:56Z","stale":false,"bins":25,"density_birds_km3":8.479375,"heading_deg":164.70385738915147,"speed_ms":9.20496534945444,"peak_altitude_m":200.0,"u_ms":1.4303870539663817,"v_ms":-8.706109554703628}},{"type":"Feature","geometry":{"type":"Point","coordinates":[-82.4017,27.7055]},"properties":{"site":"KTBW","name":"Tampa FL","scan_time":"2026-09-27T08:02:58Z","stale":false,"bins":25,"density_birds_km3":45.683749999999996,"heading_deg":190.177666164363,"speed_ms":10.450045284154651,"peak_altitude_m":600.0,"u_ms":-1.2457729772621555,"v_ms":-9.879112375844803}}]}