{"type":"FeatureCollection","frame":"2026-09-02T02","site_count":20,"fresh_count":20,"failures":{},"features":[{"type":"Feature","geometry":{"type":"Point","coordinates":[-77.0073,36.984]},"properties":{"site":"KAKQ","name":"Wakefield VA","scan_time":"2026-09-02T01:59:10Z","stale":false,"bins":25,"density_birds_km3":9.5075,"heading_deg":53.95112392022383,"speed_ms":6.648395345779648,"peak_altitude_m":0.0,"u_ms":1.8883006836707863,"v_ms":0.6622245595582433}},{"type":"Feature","geometry":{"type":"Point","coordinates":[-71.1369,41.9558]},"properties":{"site":"KBOX","name":"Boston MA","scan_time":"2026-09-02T01:58:37Z","stale":false,"bins":25,"density_birds_km3":3.251875,"heading_deg":256.0526289577199,"speed_ms":5.951792997306656,"peak_altitude_m":0.0,"u_ms":-5.3251808387841475,"v_ms":-0.709836475567526}},{"type":"Feature","geometry":{"type":"Point","coordinates":[-78.7369,42.9489]},"properties":{"site":"KBUF","name":"Buffalo NY","scan_time":"2026-09-02T01:58:43Z","stale":false,"bins":25,"density_birds_km3":18.328666666666667,"heading_deg":137.0373058452866,"speed_ms":4.586822259499672,"peak_altitude_m":200.0,"u_ms":1.7072646050616294,"v_ms":-3.0073729122602293}},{"type":"Feature","geometry":{"type":"Point","coordinates":[-81.8597,41.4131]},"properties":{"site":"KCLE","name":"Cleveland OH","scan_time":"2026-09-02T02:00:29Z","stale":false,"bins":25,"density_birds_km3":8.015333333333333,"heading_deg":108.89838005265752,"speed_ms":14.11414177552209,"peak_altitude_m":400.0,"u_ms":12.33924702554289,"v_ms":-5.376907396622015}},{"type":"Feature","geometry":{"type":"Point","coordinates":[-81.0423,32.6555]},"properties":{"site":"KCLX","name":"Charleston SC","scan_time":"2026-09-02T01:58:26Z","stale":false,"bins":25,"density_birds_km3":9.154375,"heading_deg":237.8084135007364,"speed_ms":10.161194029850748,"peak_altitude_m":0.0,"u_ms":-5.477025930256552,"v_ms":-6.286054749295}},{"type":"Feature","geometry":{"type":"Point","coordinates":[-74.4108,39.947]},"properties":{"site":"KDIX","name":"Philadelphia PA","scan_time":"2026-09-02T02:00:31Z","stale":false,"bins":25,"density_birds_km3":11.27375,"heading_deg":180.9741621911446,"speed_ms":2.9916589219330856,"peak_altitude_m":400.0,"u_ms":-0.2391991945477075,"v_ms":-2.8473435563816603}},{"type":"Feature","geometry":{"type":"Point","coordinates":[-84.5658,33.3636]},"properties":{"site":"KFFC","name":"Atlanta GA","scan_time":"2026-09-02T02:02:31Z","stale":false,"bins":25,"density_birds_km3":43.041333333333334,"heading_deg":215.45341545485977,"speed_ms":5.107236293136875,"peak_altitude_m":1600.0,"u_ms":-3.177986661496704,"v_ms":-3.892679953470337}},{"type":"Feature","geometry":{"type":"Point","coordinates":[-85.5449,42.8939]},"properties":{"site":"KGRR","name":"Grand Rapids MI","scan_time":"2026-09-02T01:58:50Z","stale":false,"bins":25,"density_birds_km3":31.856666666666666,"heading_deg":126.06987009708008,"speed_ms":8.338289212095846,"peak_altitude_m":400.0,"u_ms":6.584276028042273,"v_ms":-4.375315057026263}},{"type":"Feature","geometry":{"type":"Point","coordinates":[-83.8217,39.4203]},"properties":{"site":"KILN","name":"Wilmington OH","scan_time":"2026-09-02T01:58:23Z","stale":false,"bins":25,"density_birds_km3":5.1273333333333335,"heading_deg":105.57445062936219,"speed_ms":9.10665193082824,"peak_altitude_m":600.0,"u_ms":6.675862696658433,"v_ms":-2.266265765180081}},{"type":"Feature","geometry":{"type":"Point","coordinates":[-81.7019,30.4846]},"properties":{"site":"KJAX","name":"Jacksonville FL","scan_time":"2026-09-02T01:59:16Z","stale":false,"bins":25,"density_birds_km3":13.87,"heading_deg":198.3879481239781,"speed_ms":9.109004564525796,"peak_altitude_m":200.0,"u_ms":-2.8888616349301492,"v_ms":-8.620076536493153}},{"type":"Feature","geometry":{"type":"Point","coordinates":[-88.0847,41.6045]},"properties":{"site":"KLOT","name":"Chicago IL","scan_time":"2026-09-02T02:01:09Z","stale":false,"bins":25,"density_birds_km3":22.904666666666667,"heading_deg":90.37681678976854,"speed_ms":11.335935607824872,"peak_altitude_m":200.0,"u_ms":10.54118741266884,"v_ms":-0.5757021425244527}},{"type":"Feature","geometry":{"type":"Point","coordinates":[-78.4292,33.9892]},"properties":{"site":"KLTX","name":"Wilmington NC","scan_time":"2026-09-02T01:59:38Z","stale":false,"bins":25,"density_birds_km3":4.55875,"heading_deg":261.41486021449253,"speed_ms":7.713427054941903,"peak_altitude_m":200.0,"u_ms":-3.013490173576245,"v_ms":-3.021857696169847}},{"type":"Feature","geometry":{"type":"Point","coordinates":[-77.4778,38.9753]},"properties":{"site":"KLWX","name":"Sterling VA","scan_time":"2026-09-02T02:00:56Z","stale":false,"bins":25,"density_birds_km3":11.46375,"heading_deg":139.17940599718239,"speed_ms":9.386153636462764,"peak_altitude_m":0.0,"u_ms":5.903639188747138,"v_ms":-7.0419294515320034}},{"type":"Feature","geometry":{"type":"Point","coordinates":[-76.8762,34.7759]},"properties":{"site":"KMHX","name":"Morehead City NC","scan_time":"2026-09-02T01:58:39Z","stale":false,"bins":25,"density_birds_km3":1.35375,"heading_deg":39.0909807463312,"speed_ms":7.043871866295265,"peak_altitude_m":0.0,"u_ms":1.3496007428040855,"v_ms":1.7910631383472608}},{"type":"Feature","geometry":{"type":"Point","coordinates":[-80.6542,28.1133]},"properties":{"site":"KMLB","name":"Melbourne FL","scan_time":"2026-09-02T01:57:26Z","stale":false,"bins":25,"density_birds_km3":11.23375,"heading_deg":168.317909109096,"speed_ms":10.823686435963058,"peak_altitude_m":0.0,"u_ms":2.1764704573272504,"v_ms":-10.573686992322243}},{"type":"Feature","geometry":{"type":"Point","coordinates":[-86.5625,36.2472]},"properties":{"site":"KOHX","name":"Nashville TN","scan_time":"2026-09-02T02:00:29Z","stale":false,"bins":25,"density_birds_km3":21.107333333333333,"heading_deg":221.1861815703675,"speed_ms":0.9627513344493226,"peak_altitude_m":200.0,"u_ms":-0.576658349388838,"v_ms":-0.17218217996904708}},{"type":"Feature","geometry":{"type":"Point","coordinates":[-72.8639,40.8655]},"properties":{"site":"KOKX","name":"Upton NY","scan_time":"2026-09-02T01:58:04Z","stale":false,"bins":25,"density_birds_km3":2.755333333333333,"heading_deg":263.36531238038526,"speed_ms":7.444813618290258,"peak_altitude_m":0.0,"u_ms":-7.388943836978131,"v_ms":-0.8501988071570575}},{"type":"Feature","geometry":{"type":"Point","coordinates":[-80.2183,40.5317]},"properties":{"site":"KPBZ","name":"Pittsburgh PA","scan_time":"2026-09-02T02:00:45Z","stale":false,"bins":25,"density_birds_km3":8.662857142857144,"heading_deg":116.10401337287122,"speed_ms":12.273602898309319,"peak_altitude_m":800.0,"u_ms":10.27474972932456,"v_ms":-5.81062380278171}},{"type":"Feature","geometry":{"type":"Point","coordinates":[-78.4899,35.6655]},"properties":{"site":"KRAX","name":"Raleigh NC","scan_time":"2026-09-02T02:01:12Z","stale":false,"bins":25,"density_birds_km3":14.751875,"heading_deg":148.33986802436345,"speed_ms":7.955672160318604,"peak_altitude_m":200.0,"u_ms":0.7520433843155533,"v_ms":-2.878933610134305}},{"type":"Feature","geometry":{"type":"Point","coordinates":[-82.4017,27.7055]},"properties":{"site":"KTBW","name":"Tampa FL","scan_time":"2026-09-02T01:58:31Z","stale":false,"bins":25,"density_birds_km3":27.938125,"heading_deg":193.81006142453128,"speed_ms":4.372847246038822,"peak_altitude_m":0.0,"u_ms":-1.4909134142716691,"v_ms":-3.7764732377620773}}]}