{"type":"FeatureCollection","frame":"2026-10-03T09","site_count":20,"fresh_count":18,"failures":{"KLWX":"RuntimeError('no scan within 20 min of 2026-10-03T09:00Z')","KILN":"RuntimeError('no scan within 20 min of 2026-10-03T09:00Z')"},"features":[{"type":"Feature","geometry":{"type":"Point","coordinates":[-77.0073,36.984]},"properties":{"site":"KAKQ","name":"Wakefield VA","scan_time":"2026-10-03T09:00:52Z","stale":false,"bins":25,"density_birds_km3":26.243125,"heading_deg":194.607925196017,"speed_ms":10.72612946247827,"peak_altitude_m":0.0,"u_ms":-2.6578268117840387,"v_ms":-10.125503346114456}},{"type":"Feature","geometry":{"type":"Point","coordinates":[-71.1369,41.9558]},"properties":{"site":"KBOX","name":"Boston MA","scan_time":"2026-10-03T08:58:13Z","stale":false,"bins":25,"density_birds_km3":11.250625000000001,"heading_deg":192.92058962271778,"speed_ms":14.059287202297169,"peak_altitude_m":400.0,"u_ms":-3.328529925116829,"v_ms":-13.54321153088227}},{"type":"Feature","geometry":{"type":"Point","coordinates":[-78.7369,42.9489]},"properties":{"site":"KBUF","name":"Buffalo NY","scan_time":"2026-10-03T08:59:19Z","stale":false,"bins":25,"density_birds_km3":25.396666666666665,"heading_deg":220.77973549088864,"speed_ms":12.045010893818088,"peak_altitude_m":200.0,"u_ms":-7.826422102638141,"v_ms":-9.053238220238876}},{"type":"Feature","geometry":{"type":"Point","coordinates":[-81.8597,41.4131]},"properties":{"site":"KCLE","name":"Cleveland OH","scan_time":"2026-10-03T09:00:59Z","stale":false,"bins":25,"density_birds_km3":40.76,"heading_deg":216.35558388363302,"speed_ms":13.86462960236845,"peak_altitude_m":200.0,"u_ms":-8.237383417570374,"v_ms":-11.14364640070661}},{"type":"Feature","geometry":{"type":"Point","coordinates":[-81.0423,32.6555]},"properties":{"site":"KCLX","name":"Charleston SC","scan_time":"2026-10-03T09:00:45Z","stale":false,"bins":25,"density_birds_km3":3.15875,"heading_deg":157.14059494326975,"speed_ms":3.166861270532357,"peak_altitude_m":0.0,"u_ms":0.816695032653869,"v_ms":-2.1525786661389272}},{"type":"Feature","geometry":{"type":"Point","coordinates":[-74.4108,39.947]},"properties":{"site":"KDIX","name":"Philadelphia PA","scan_time":"2026-10-03T09:00:19Z","stale":false,"bins":25,"density_birds_km3":74.801875,"heading_deg":200.8353041528369,"speed_ms":14.094265687005041,"peak_altitude_m":200.0,"u_ms":-5.424541476770582,"v_ms":-12.691618347860745}},{"type":"Feature","geometry":{"type":"Point","coordinates":[-84.5658,33.3636]},"properties":{"site":"KFFC","name":"Atlanta GA","scan_time":"2026-10-03T09:02:04Z","stale":false,"bins":25,"density_birds_km3":20.63266666666667,"heading_deg":136.24378572826052,"speed_ms":4.6303586545607285,"peak_altitude_m":400.0,"u_ms":2.6321858541471452,"v_ms":-2.777711396167889}},{"type":"Feature","geometry":{"type":"Point","coordinates":[-85.5449,42.8939]},"properties":{"site":"KGRR","name":"Grand Rapids MI","scan_time":"2026-10-03T09:00:19Z","stale":false,"bins":25,"density_birds_km3":17.255333333333333,"heading_deg":244.06007512628926,"speed_ms":13.722826229761582,"peak_altitude_m":200.0,"u_ms":-12.287197341473782,"v_ms":-5.872749719850071}},{"type":"Feature","geometry":{"type":"Point","coordinates":[-81.7019,30.4846]},"properties":{"site":"KJAX","name":"Jacksonville FL","scan_time":"2026-10-03T08:59:02Z","stale":false,"bins":25,"density_birds_km3":1.449375,"heading_deg":269.95898712938254,"speed_ms":4.586531492666091,"peak_altitude_m":0.0,"u_ms":-4.423421052631579,"v_ms":0.15311044003451255}},{"type":"Feature","geometry":{"type":"Point","coordinates":[-88.0847,41.6045]},"properties":{"site":"KLOT","name":"Chicago IL","scan_time":"2026-10-03T09:02:44Z","stale":false,"bins":25,"density_birds_km3":19.945333333333334,"heading_deg":227.93323586141392,"speed_ms":10.908236178888963,"peak_altitude_m":200.0,"u_ms":-7.976928939100207,"v_ms":-7.150774115916838}},{"type":"Feature","geometry":{"type":"Point","coordinates":[-78.4292,33.9892]},"properties":{"site":"KLTX","name":"Wilmington NC","scan_time":"2026-10-03T08:57:53Z","stale":false,"bins":25,"density_birds_km3":2.71125,"heading_deg":112.57286425400393,"speed_ms":6.278335638543107,"peak_altitude_m":0.0,"u_ms":5.537980636237897,"v_ms":-2.381664361456892}},{"type":"Feature","geometry":{"type":"Point","coordinates":[-76.8762,34.7759]},"properties":{"site":"KMHX","name":"Morehead City NC","scan_time":"2026-10-03T09:00:01Z","stale":false,"bins":25,"density_birds_km3":5.034375,"heading_deg":124.30363012190433,"speed_ms":9.62074829086389,"peak_altitude_m":0.0,"u_ms":6.986549409571162,"v_ms":-5.49074829086389}},{"type":"Feature","geometry":{"type":"Point","coordinates":[-80.6542,28.1133]},"properties":{"site":"KMLB","name":"Melbourne FL","scan_time":"2026-10-03T08:59:11Z","stale":false,"bins":25,"density_birds_km3":2.4486666666666665,"heading_deg":null,"speed_ms":null,"peak_altitude_m":200.0,"u_ms":null,"v_ms":null}},{"type":"Feature","geometry":{"type":"Point","coordinates":[-86.5625,36.2472]},"properties":{"site":"KOHX","name":"Nashville TN","scan_time":"2026-10-03T08:59:16Z","stale":false,"bins":25,"density_birds_km3":106.83866666666667,"heading_deg":180.81553167417226,"speed_ms":9.663530806574398,"peak_altitude_m":600.0,"u_ms":0.10198991626003077,"v_ms":-9.209495688202773}},{"type":"Feature","geometry":{"type":"Point","coordinates":[-72.8639,40.8655]},"properties":{"site":"KOKX","name":"Upton NY","scan_time":"2026-10-03T08:58:42Z","stale":false,"bins":25,"density_birds_km3":20.755625000000002,"heading_deg":213.64767307950933,"speed_ms":13.550299614178925,"peak_altitude_m":400.0,"u_ms":-7.657500904268147,"v_ms":-10.814081866409452}},{"type":"Feature","geometry":{"type":"Point","coordinates":[-80.2183,40.5317]},"properties":{"site":"KPBZ","name":"Pittsburgh PA","scan_time":"2026-10-03T09:00:07Z","stale":false,"bins":25,"density_birds_km3":76.62285714285714,"heading_deg":218.97357419354773,"speed_ms":15.439886829741218,"peak_altitude_m":400.0,"u_ms":-9.801524256096652,"v_ms":-11.761782944291147}},{"type":"Feature","geometry":{"type":"Point","coordinates":[-78.4899,35.6655]},"properties":{"site":"KRAX","name":"Raleigh NC","scan_time":"2026-10-03T09:02:52Z","stale":false,"bins":25,"density_birds_km3":15.356250000000001,"heading_deg":126.1962906106727,"speed_ms":7.92233342830396,"peak_altitude_m":200.0,"u_ms":6.405292848711792,"v_ms":-4.628541251170174}},{"type":"Feature","geometry":{"type":"Point","coordinates":[-82.4017,27.7055]},"properties":{"site":"KTBW","name":"Tampa FL","scan_time":"2026-10-03T09:02:02Z","stale":false,"bins":25,"density_birds_km3":4.61625,"heading_deg":287.49470243918205,"speed_ms":7.2223750846310075,"peak_altitude_m":0.0,"u_ms":-6.460540284360189,"v_ms":2.6550453622207173}}]}