{"type":"FeatureCollection","frame":"2026-10-10T10","site_count":20,"fresh_count":20,"failures":{},"features":[{"type":"Feature","geometry":{"type":"Point","coordinates":[-77.0073,36.984]},"properties":{"site":"KAKQ","name":"Wakefield VA","scan_time":"2026-10-10T10:01:10Z","stale":false,"bins":25,"density_birds_km3":0.72625,"heading_deg":243.47642285930488,"speed_ms":9.332036713286714,"peak_altitude_m":0.0,"u_ms":-8.244562937062936,"v_ms":-4.149615384615385}},{"type":"Feature","geometry":{"type":"Point","coordinates":[-71.1369,41.9558]},"properties":{"site":"KBOX","name":"Boston MA","scan_time":"2026-10-10T09:59:23Z","stale":false,"bins":25,"density_birds_km3":4.949375,"heading_deg":182.61421138542298,"speed_ms":11.35376941533022,"peak_altitude_m":400.0,"u_ms":-0.5892322262911983,"v_ms":-11.261416845561309}},{"type":"Feature","geometry":{"type":"Point","coordinates":[-78.7369,42.9489]},"properties":{"site":"KBUF","name":"Buffalo NY","scan_time":"2026-10-10T09:56:06Z","stale":false,"bins":25,"density_birds_km3":6.294666666666667,"heading_deg":239.09021264968015,"speed_ms":8.20258525736073,"peak_altitude_m":200.0,"u_ms":-6.868658123278966,"v_ms":-3.6851747511120525}},{"type":"Feature","geometry":{"type":"Point","coordinates":[-81.8597,41.4131]},"properties":{"site":"KCLE","name":"Cleveland OH","scan_time":"2026-10-10T10:00:34Z","stale":false,"bins":25,"density_birds_km3":0.7773333333333332,"heading_deg":332.1468497110068,"speed_ms":7.897367066895369,"peak_altitude_m":200.0,"u_ms":-3.700317324185249,"v_ms":6.829236706689537}},{"type":"Feature","geometry":{"type":"Point","coordinates":[-81.0423,32.6555]},"properties":{"site":"KCLX","name":"Charleston SC","scan_time":"2026-10-10T10:01:56Z","stale":false,"bins":25,"density_birds_km3":1.14,"heading_deg":279.2,"speed_ms":3.78,"peak_altitude_m":0.0,"u_ms":-3.7300000000000004,"v_ms":0.6}},{"type":"Feature","geometry":{"type":"Point","coordinates":[-74.4108,39.947]},"properties":{"site":"KDIX","name":"Philadelphia PA","scan_time":"2026-10-10T09:58:53Z","stale":false,"bins":25,"density_birds_km3":5.395,"heading_deg":211.4117032443836,"speed_ms":10.117340980187695,"peak_altitude_m":200.0,"u_ms":-5.290838836751245,"v_ms":-8.597616730390452}},{"type":"Feature","geometry":{"type":"Point","coordinates":[-84.5658,33.3636]},"properties":{"site":"KFFC","name":"Atlanta GA","scan_time":"2026-10-10T10:03:09Z","stale":false,"bins":25,"density_birds_km3":null,"heading_deg":null,"speed_ms":null,"peak_altitude_m":null,"u_ms":null,"v_ms":null}},{"type":"Feature","geometry":{"type":"Point","coordinates":[-85.5449,42.8939]},"properties":{"site":"KGRR","name":"Grand Rapids MI","scan_time":"2026-10-10T10:02:23Z","stale":false,"bins":25,"density_birds_km3":3.1940000000000004,"heading_deg":304.1531553253759,"speed_ms":8.960492693110648,"peak_altitude_m":200.0,"u_ms":-6.814862212943634,"v_ms":4.841872651356994}},{"type":"Feature","geometry":{"type":"Point","coordinates":[-83.8217,39.4203]},"properties":{"site":"KILN","name":"Wilmington OH","scan_time":"2026-10-10T10:02:46Z","stale":false,"bins":25,"density_birds_km3":0.8126666666666666,"heading_deg":285.63627212791084,"speed_ms":10.913847415914683,"peak_altitude_m":200.0,"u_ms":-10.430147662018049,"v_ms":2.992649712879409}},{"type":"Feature","geometry":{"type":"Point","coordinates":[-81.7019,30.4846]},"properties":{"site":"KJAX","name":"Jacksonville FL","scan_time":"2026-10-10T09:59:27Z","stale":false,"bins":25,"density_birds_km3":3.9387499999999998,"heading_deg":346.37976304334575,"speed_ms":5.790138073321695,"peak_altitude_m":0.0,"u_ms":-0.8791747341691795,"v_ms":5.621272813839073}},{"type":"Feature","geometry":{"type":"Point","coordinates":[-88.0847,41.6045]},"properties":{"site":"KLOT","name":"Chicago IL","scan_time":"2026-10-10T10:02:16Z","stale":false,"bins":25,"density_birds_km3":0.262,"heading_deg":11.273201914584865,"speed_ms":13.886734693877552,"peak_altitude_m":200.0,"u_ms":2.7423214285714286,"v_ms":13.349795918367349}},{"type":"Feature","geometry":{"type":"Point","coordinates":[-78.4292,33.9892]},"properties":{"site":"KLTX","name":"Wilmington NC","scan_time":"2026-10-10T10:02:11Z","stale":false,"bins":25,"density_birds_km3":null,"heading_deg":null,"speed_ms":null,"peak_altitude_m":null,"u_ms":null,"v_ms":null}},{"type":"Feature","geometry":{"type":"Point","coordinates":[-77.4778,38.9753]},"properties":{"site":"KLWX","name":"Sterling VA","scan_time":"2026-10-10T10:02:58Z","stale":false,"bins":25,"density_birds_km3":14.54375,"heading_deg":246.6093515198214,"speed_ms":8.494962826077614,"peak_altitude_m":200.0,"u_ms":-7.78584038849972,"v_ms":-3.298314065924621}},{"type":"Feature","geometry":{"type":"Point","coordinates":[-76.8762,34.7759]},"properties":{"site":"KMHX","name":"Morehead City NC","scan_time":"2026-10-10T09:58:38Z","stale":false,"bins":25,"density_birds_km3":0.5925,"heading_deg":null,"speed_ms":null,"peak_altitude_m":200.0,"u_ms":null,"v_ms":null}},{"type":"Feature","geometry":{"type":"Point","coordinates":[-80.6542,28.1133]},"properties":{"site":"KMLB","name":"Melbourne FL","scan_time":"2026-10-10T09:57:58Z","stale":false,"bins":25,"density_birds_km3":8.848749999999999,"heading_deg":56.17386536902966,"speed_ms":4.06963907331544,"peak_altitude_m":0.0,"u_ms":1.5890168102839384,"v_ms":3.1385061449357257}},{"type":"Feature","geometry":{"type":"Point","coordinates":[-86.5625,36.2472]},"properties":{"site":"KOHX","name":"Nashville TN","scan_time":"2026-10-10T09:59:49Z","stale":false,"bins":25,"density_birds_km3":3.3746666666666667,"heading_deg":258.34220678159016,"speed_ms":7.9573389964440935,"peak_altitude_m":200.0,"u_ms":-7.485035559067562,"v_ms":-1.5446108257605689}},{"type":"Feature","geometry":{"type":"Point","coordinates":[-72.8639,40.8655]},"properties":{"site":"KOKX","name":"Upton NY","scan_time":"2026-10-10T10:01:14Z","stale":false,"bins":25,"density_birds_km3":1.62125,"heading_deg":192.08738883965776,"speed_ms":8.476486694947939,"peak_altitude_m":0.0,"u_ms":-1.8165214037794062,"v_ms":-8.213644427304281}},{"type":"Feature","geometry":{"type":"Point","coordinates":[-80.2183,40.5317]},"properties":{"site":"KPBZ","name":"Pittsburgh PA","scan_time":"2026-10-10T09:59:52Z","stale":false,"bins":25,"density_birds_km3":3.412857142857143,"heading_deg":259.5962320595158,"speed_ms":9.25871285056509,"peak_altitude_m":400.0,"u_ms":-9.068359146086227,"v_ms":-1.6204960234407702}},{"type":"Feature","geometry":{"type":"Point","coordinates":[-78.4899,35.6655]},"properties":{"site":"KRAX","name":"Raleigh NC","scan_time":"2026-10-10T09:59:09Z","stale":false,"bins":25,"density_birds_km3":0.0,"heading_deg":null,"speed_ms":null,"peak_altitude_m":800.0,"u_ms":null,"v_ms":null}},{"type":"Feature","geometry":{"type":"Point","coordinates":[-82.4017,27.7055]},"properties":{"site":"KTBW","name":"Tampa FL","scan_time":"2026-10-10T10:02:07Z","stale":false,"bins":25,"density_birds_km3":5.498125,"heading_deg":323.015721176086,"speed_ms":4.481013982039332,"peak_altitude_m":0.0,"u_ms":-2.084326474934637,"v_ms":3.6158667727634417}}]}