{"type":"FeatureCollection","frame":"2026-08-12T10","site_count":20,"fresh_count":20,"failures":{},"features":[{"type":"Feature","geometry":{"type":"Point","coordinates":[-77.0073,36.984]},"properties":{"site":"KAKQ","name":"Wakefield VA","scan_time":"2026-08-12T10:03:24Z","stale":false,"bins":25,"density_birds_km3":3.5,"heading_deg":182.98889105749242,"speed_ms":5.551169642857142,"peak_altitude_m":0.0,"u_ms":-0.5691017857142857,"v_ms":-5.437925}},{"type":"Feature","geometry":{"type":"Point","coordinates":[-71.1369,41.9558]},"properties":{"site":"KBOX","name":"Boston MA","scan_time":"2026-08-12T09:58:53Z","stale":false,"bins":25,"density_birds_km3":8.08875,"heading_deg":185.28531290712326,"speed_ms":8.205246889730313,"peak_altitude_m":0.0,"u_ms":-0.7646016536589136,"v_ms":-8.155859670813692}},{"type":"Feature","geometry":{"type":"Point","coordinates":[-78.7369,42.9489]},"properties":{"site":"KBUF","name":"Buffalo NY","scan_time":"2026-08-12T09:59:03Z","stale":false,"bins":25,"density_birds_km3":0.6839999999999999,"heading_deg":64.56779653279841,"speed_ms":4.058551020408164,"peak_altitude_m":200.0,"u_ms":3.386561224489796,"v_ms":1.603591836734694}},{"type":"Feature","geometry":{"type":"Point","coordinates":[-81.8597,41.4131]},"properties":{"site":"KCLE","name":"Cleveland OH","scan_time":"2026-08-12T09:57:51Z","stale":false,"bins":25,"density_birds_km3":0.5253333333333333,"heading_deg":19.702863319278347,"speed_ms":5.0402287166454895,"peak_altitude_m":200.0,"u_ms":1.7227954256670903,"v_ms":4.208958068614994}},{"type":"Feature","geometry":{"type":"Point","coordinates":[-81.0423,32.6555]},"properties":{"site":"KCLX","name":"Charleston SC","scan_time":"2026-08-12T10:00:25Z","stale":false,"bins":25,"density_birds_km3":5.565625,"heading_deg":184.59796633961767,"speed_ms":5.081245367770915,"peak_altitude_m":0.0,"u_ms":0.413807973048849,"v_ms":-4.60515103874228}},{"type":"Feature","geometry":{"type":"Point","coordinates":[-74.4108,39.947]},"properties":{"site":"KDIX","name":"Philadelphia PA","scan_time":"2026-08-12T10:00:08Z","stale":false,"bins":25,"density_birds_km3":1.585,"heading_deg":190.90650287332645,"speed_ms":10.55426576217079,"peak_altitude_m":200.0,"u_ms":-2.034078212290503,"v_ms":-10.344209896249003}},{"type":"Feature","geometry":{"type":"Point","coordinates":[-84.5658,33.3636]},"properties":{"site":"KFFC","name":"Atlanta GA","scan_time":"2026-08-12T10:02:23Z","stale":false,"bins":25,"density_birds_km3":1.5853333333333335,"heading_deg":34.91305220667658,"speed_ms":4.3358813630626845,"peak_altitude_m":400.0,"u_ms":2.0329533024821203,"v_ms":2.7413756836348337}},{"type":"Feature","geometry":{"type":"Point","coordinates":[-85.5449,42.8939]},"properties":{"site":"KGRR","name":"Grand Rapids MI","scan_time":"2026-08-12T10:01:11Z","stale":false,"bins":25,"density_birds_km3":0.6206666666666667,"heading_deg":297.126716772332,"speed_ms":2.129892588614393,"peak_altitude_m":400.0,"u_ms":-1.5520193340494093,"v_ms":0.3410204081632653}},{"type":"Feature","geometry":{"type":"Point","coordinates":[-83.8217,39.4203]},"properties":{"site":"KILN","name":"Wilmington OH","scan_time":"2026-08-12T09:59:34Z","stale":false,"bins":25,"density_birds_km3":3.5316666666666667,"heading_deg":null,"speed_ms":null,"peak_altitude_m":400.0,"u_ms":null,"v_ms":null}},{"type":"Feature","geometry":{"type":"Point","coordinates":[-81.7019,30.4846]},"properties":{"site":"KJAX","name":"Jacksonville FL","scan_time":"2026-08-12T10:00:50Z","stale":false,"bins":25,"density_birds_km3":27.6925,"heading_deg":170.49581613646717,"speed_ms":9.09880873922268,"peak_altitude_m":0.0,"u_ms":1.6177267187288402,"v_ms":-8.92255495869634}},{"type":"Feature","geometry":{"type":"Point","coordinates":[-88.0847,41.6045]},"properties":{"site":"KLOT","name":"Chicago IL","scan_time":"2026-08-12T09:59:23Z","stale":false,"bins":25,"density_birds_km3":0.656,"heading_deg":68.04979446870364,"speed_ms":5.607300613496933,"peak_altitude_m":200.0,"u_ms":4.6471267893660535,"v_ms":0.2831186094069527}},{"type":"Feature","geometry":{"type":"Point","coordinates":[-78.4292,33.9892]},"properties":{"site":"KLTX","name":"Wilmington NC","scan_time":"2026-08-12T10:00:18Z","stale":false,"bins":25,"density_birds_km3":9.719375,"heading_deg":203.35053663505556,"speed_ms":5.021506757884198,"peak_altitude_m":0.0,"u_ms":-1.986277323544135,"v_ms":-4.58965626564325}},{"type":"Feature","geometry":{"type":"Point","coordinates":[-77.4778,38.9753]},"properties":{"site":"KLWX","name":"Sterling VA","scan_time":"2026-08-12T09:59:16Z","stale":false,"bins":25,"density_birds_km3":0.99375,"heading_deg":159.96435140604868,"speed_ms":7.724289324068224,"peak_altitude_m":0.0,"u_ms":2.5152179406190776,"v_ms":-7.21836386607707}},{"type":"Feature","geometry":{"type":"Point","coordinates":[-76.8762,34.7759]},"properties":{"site":"KMHX","name":"Morehead City NC","scan_time":"2026-08-12T09:58:37Z","stale":false,"bins":25,"density_birds_km3":1.03125,"heading_deg":110.48004063785832,"speed_ms":5.2950484848484844,"peak_altitude_m":0.0,"u_ms":4.901103030303029,"v_ms":-1.9152787878787876}},{"type":"Feature","geometry":{"type":"Point","coordinates":[-80.6542,28.1133]},"properties":{"site":"KMLB","name":"Melbourne FL","scan_time":"2026-08-12T10:01:21Z","stale":false,"bins":25,"density_birds_km3":4.261875,"heading_deg":110.8462578121067,"speed_ms":3.620877090055735,"peak_altitude_m":0.0,"u_ms":3.1070167204458783,"v_ms":-1.3013787034320914}},{"type":"Feature","geometry":{"type":"Point","coordinates":[-86.5625,36.2472]},"properties":{"site":"KOHX","name":"Nashville TN","scan_time":"2026-08-12T09:59:52Z","stale":false,"bins":25,"density_birds_km3":4.770666666666667,"heading_deg":31.74431109684102,"speed_ms":8.16918669647848,"peak_altitude_m":200.0,"u_ms":4.2858831749580775,"v_ms":5.187117104527669}},{"type":"Feature","geometry":{"type":"Point","coordinates":[-72.8639,40.8655]},"properties":{"site":"KOKX","name":"Upton NY","scan_time":"2026-08-12T09:59:18Z","stale":false,"bins":25,"density_birds_km3":7.51,"heading_deg":178.38596873202772,"speed_ms":8.646878540486505,"peak_altitude_m":0.0,"u_ms":0.2005531489503499,"v_ms":-8.639737587470844}},{"type":"Feature","geometry":{"type":"Point","coordinates":[-80.2183,40.5317]},"properties":{"site":"KPBZ","name":"Pittsburgh PA","scan_time":"2026-08-12T10:02:45Z","stale":false,"bins":25,"density_birds_km3":0.23076923076923078,"heading_deg":113.03254697929607,"speed_ms":4.082709030100335,"peak_altitude_m":400.0,"u_ms":3.554983277591974,"v_ms":-1.5081270903010033}},{"type":"Feature","geometry":{"type":"Point","coordinates":[-78.4899,35.6655]},"properties":{"site":"KRAX","name":"Raleigh NC","scan_time":"2026-08-12T09:58:51Z","stale":false,"bins":25,"density_birds_km3":2.296875,"heading_deg":150.29267163793227,"speed_ms":5.593548299319728,"peak_altitude_m":200.0,"u_ms":2.718857142857143,"v_ms":-4.868473469387755}},{"type":"Feature","geometry":{"type":"Point","coordinates":[-82.4017,27.7055]},"properties":{"site":"KTBW","name":"Tampa FL","scan_time":"2026-08-12T10:04:01Z","stale":false,"bins":25,"density_birds_km3":3.75375,"heading_deg":268.8176747150593,"speed_ms":2.1747151898734174,"peak_altitude_m":0.0,"u_ms":-0.5591705529646903,"v_ms":-0.9121535642904731}}]}