{"type":"FeatureCollection","frame":"2026-09-18T04","site_count":20,"fresh_count":20,"failures":{},"features":[{"type":"Feature","geometry":{"type":"Point","coordinates":[-77.0073,36.984]},"properties":{"site":"KAKQ","name":"Wakefield VA","scan_time":"2026-09-18T03:59:08Z","stale":false,"bins":25,"density_birds_km3":5.168125,"heading_deg":68.78254896897175,"speed_ms":9.009164348772524,"peak_altitude_m":0.0,"u_ms":6.7001269802878225,"v_ms":2.725248518563309}},{"type":"Feature","geometry":{"type":"Point","coordinates":[-71.1369,41.9558]},"properties":{"site":"KBOX","name":"Boston MA","scan_time":"2026-09-18T03:57:22Z","stale":false,"bins":25,"density_birds_km3":0.5125,"heading_deg":36.55576382757642,"speed_ms":9.193341740226986,"peak_altitude_m":0.0,"u_ms":5.5023203026481715,"v_ms":7.125775535939471}},{"type":"Feature","geometry":{"type":"Point","coordinates":[-78.7369,42.9489]},"properties":{"site":"KBUF","name":"Buffalo NY","scan_time":"2026-09-18T03:59:39Z","stale":false,"bins":25,"density_birds_km3":72.14933333333333,"heading_deg":195.55208883946815,"speed_ms":7.815122893258428,"peak_altitude_m":400.0,"u_ms":-2.1715259092253105,"v_ms":-7.425807029863986}},{"type":"Feature","geometry":{"type":"Point","coordinates":[-81.8597,41.4131]},"properties":{"site":"KCLE","name":"Cleveland OH","scan_time":"2026-09-18T04:00:34Z","stale":false,"bins":25,"density_birds_km3":22.638666666666666,"heading_deg":171.9820224523649,"speed_ms":5.503002827021615,"peak_altitude_m":200.0,"u_ms":1.0025528594145712,"v_ms":-5.305334530891101}},{"type":"Feature","geometry":{"type":"Point","coordinates":[-81.0423,32.6555]},"properties":{"site":"KCLX","name":"Charleston SC","scan_time":"2026-09-18T04:03:14Z","stale":false,"bins":25,"density_birds_km3":7.394374999999999,"heading_deg":245.1544417517306,"speed_ms":6.178565962257588,"peak_altitude_m":0.0,"u_ms":-2.4181537525002175,"v_ms":-3.207349334724758}},{"type":"Feature","geometry":{"type":"Point","coordinates":[-74.4108,39.947]},"properties":{"site":"KDIX","name":"Philadelphia PA","scan_time":"2026-09-18T03:58:22Z","stale":false,"bins":25,"density_birds_km3":2.9875,"heading_deg":54.0336770051749,"speed_ms":8.861709920468815,"peak_altitude_m":200.0,"u_ms":6.972306404353286,"v_ms":4.983972373377982}},{"type":"Feature","geometry":{"type":"Point","coordinates":[-84.5658,33.3636]},"properties":{"site":"KFFC","name":"Atlanta GA","scan_time":"2026-09-18T03:57:51Z","stale":false,"bins":25,"density_birds_km3":99.00399999999999,"heading_deg":194.4465664796377,"speed_ms":9.185749195318708,"peak_altitude_m":1000.0,"u_ms":-2.8319687420036903,"v_ms":-8.481725788857016}},{"type":"Feature","geometry":{"type":"Point","coordinates":[-85.5449,42.8939]},"properties":{"site":"KGRR","name":"Grand Rapids MI","scan_time":"2026-09-18T03:58:47Z","stale":false,"bins":25,"density_birds_km3":156.48066666666668,"heading_deg":206.54735265964106,"speed_ms":8.629309530910486,"peak_altitude_m":200.0,"u_ms":-3.7027011631374886,"v_ms":-7.655427463678581}},{"type":"Feature","geometry":{"type":"Point","coordinates":[-83.8217,39.4203]},"properties":{"site":"KILN","name":"Wilmington OH","scan_time":"2026-09-18T03:59:39Z","stale":false,"bins":25,"density_birds_km3":56.690000000000005,"heading_deg":168.26003201669465,"speed_ms":8.509621567589814,"peak_altitude_m":200.0,"u_ms":2.3253152231434115,"v_ms":-6.590829187981419}},{"type":"Feature","geometry":{"type":"Point","coordinates":[-81.7019,30.4846]},"properties":{"site":"KJAX","name":"Jacksonville FL","scan_time":"2026-09-18T03:58:19Z","stale":false,"bins":25,"density_birds_km3":155.003125,"heading_deg":227.00714012450197,"speed_ms":8.787168512713341,"peak_altitude_m":0.0,"u_ms":-5.341822918843608,"v_ms":-5.190731173807036}},{"type":"Feature","geometry":{"type":"Point","coordinates":[-88.0847,41.6045]},"properties":{"site":"KLOT","name":"Chicago IL","scan_time":"2026-09-18T03:59:46Z","stale":false,"bins":25,"density_birds_km3":15.290666666666668,"heading_deg":188.0105829655567,"speed_ms":10.01559905824904,"peak_altitude_m":200.0,"u_ms":-0.5328152249738402,"v_ms":-8.896827258458318}},{"type":"Feature","geometry":{"type":"Point","coordinates":[-78.4292,33.9892]},"properties":{"site":"KLTX","name":"Wilmington NC","scan_time":"2026-09-18T03:59:50Z","stale":false,"bins":25,"density_birds_km3":5.285625,"heading_deg":115.52792501560296,"speed_ms":4.427134000953743,"peak_altitude_m":200.0,"u_ms":1.4081449690033383,"v_ms":-1.2208130662851693}},{"type":"Feature","geometry":{"type":"Point","coordinates":[-77.4778,38.9753]},"properties":{"site":"KLWX","name":"Sterling VA","scan_time":"2026-09-18T04:01:33Z","stale":false,"bins":25,"density_birds_km3":14.504375,"heading_deg":133.75463838349765,"speed_ms":8.249215423809318,"peak_altitude_m":0.0,"u_ms":5.152910315644026,"v_ms":-5.858295694978194}},{"type":"Feature","geometry":{"type":"Point","coordinates":[-76.8762,34.7759]},"properties":{"site":"KMHX","name":"Morehead City NC","scan_time":"2026-09-18T04:02:23Z","stale":false,"bins":25,"density_birds_km3":3.2775,"heading_deg":70.55281084125231,"speed_ms":5.152742181540809,"peak_altitude_m":0.0,"u_ms":2.8445385202135776,"v_ms":1.390108695652174}},{"type":"Feature","geometry":{"type":"Point","coordinates":[-80.6542,28.1133]},"properties":{"site":"KMLB","name":"Melbourne FL","scan_time":"2026-09-18T03:58:29Z","stale":false,"bins":25,"density_birds_km3":10.809375000000001,"heading_deg":192.41965767266677,"speed_ms":6.042217916835348,"peak_altitude_m":0.0,"u_ms":-1.2378376033774796,"v_ms":-5.896050546527095}},{"type":"Feature","geometry":{"type":"Point","coordinates":[-86.5625,36.2472]},"properties":{"site":"KOHX","name":"Nashville TN","scan_time":"2026-09-18T03:59:43Z","stale":false,"bins":25,"density_birds_km3":87.68133333333334,"heading_deg":128.98889647987733,"speed_ms":3.3875901370112986,"peak_altitude_m":200.0,"u_ms":0.9068290476118063,"v_ms":-2.0646722221377414}},{"type":"Feature","geometry":{"type":"Point","coordinates":[-72.8639,40.8655]},"properties":{"site":"KOKX","name":"Upton NY","scan_time":"2026-09-18T03:58:38Z","stale":false,"bins":25,"density_birds_km3":0.296875,"heading_deg":60.91166429065479,"speed_ms":10.15933025404157,"peak_altitude_m":200.0,"u_ms":8.450023094688222,"v_ms":4.862078521939954}},{"type":"Feature","geometry":{"type":"Point","coordinates":[-80.2183,40.5317]},"properties":{"site":"KPBZ","name":"Pittsburgh PA","scan_time":"2026-09-18T04:02:12Z","stale":false,"bins":25,"density_birds_km3":31.01071428571429,"heading_deg":166.93007500455977,"speed_ms":8.310225498099735,"peak_altitude_m":600.0,"u_ms":1.8656948059426464,"v_ms":-7.9386458597259}},{"type":"Feature","geometry":{"type":"Point","coordinates":[-78.4899,35.6655]},"properties":{"site":"KRAX","name":"Raleigh NC","scan_time":"2026-09-18T04:00:39Z","stale":false,"bins":25,"density_birds_km3":8.42,"heading_deg":109.76329058067269,"speed_ms":7.550720518573923,"peak_altitude_m":200.0,"u_ms":4.964471037978892,"v_ms":-1.4189719936840357}},{"type":"Feature","geometry":{"type":"Point","coordinates":[-82.4017,27.7055]},"properties":{"site":"KTBW","name":"Tampa FL","scan_time":"2026-09-18T03:57:47Z","stale":false,"bins":25,"density_birds_km3":14.141875,"heading_deg":191.77507956196496,"speed_ms":10.7561037698325,"peak_altitude_m":0.0,"u_ms":-2.3380867989569984,"v_ms":-10.378316170946215}}]}