{"type":"FeatureCollection","frame":"2026-09-27T12","site_count":20,"fresh_count":20,"failures":{},"features":[{"type":"Feature","geometry":{"type":"Point","coordinates":[-77.0073,36.984]},"properties":{"site":"KAKQ","name":"Wakefield VA","scan_time":"2026-09-27T12:01:23Z","stale":false,"bins":25,"density_birds_km3":0.240625,"heading_deg":152.65541050860483,"speed_ms":10.374137931034483,"peak_altitude_m":0.0,"u_ms":4.556724137931034,"v_ms":-9.251206896551723}},{"type":"Feature","geometry":{"type":"Point","coordinates":[-71.1369,41.9558]},"properties":{"site":"KBOX","name":"Boston MA","scan_time":"2026-09-27T11:59:17Z","stale":false,"bins":25,"density_birds_km3":0.0022222222222222222,"heading_deg":null,"speed_ms":null,"peak_altitude_m":2200.0,"u_ms":null,"v_ms":null}},{"type":"Feature","geometry":{"type":"Point","coordinates":[-78.7369,42.9489]},"properties":{"site":"KBUF","name":"Buffalo NY","scan_time":"2026-09-27T11:58:21Z","stale":false,"bins":25,"density_birds_km3":0.8453333333333333,"heading_deg":207.10223613340372,"speed_ms":9.496719242902207,"peak_altitude_m":200.0,"u_ms":-4.209984227129338,"v_ms":-8.380615141955836}},{"type":"Feature","geometry":{"type":"Point","coordinates":[-81.8597,41.4131]},"properties":{"site":"KCLE","name":"Cleveland OH","scan_time":"2026-09-27T12:00:05Z","stale":false,"bins":25,"density_birds_km3":2.8946666666666667,"heading_deg":189.32061692266802,"speed_ms":7.317963988919668,"peak_altitude_m":200.0,"u_ms":-1.246331948291782,"v_ms":-7.1909002770083115}},{"type":"Feature","geometry":{"type":"Point","coordinates":[-81.0423,32.6555]},"properties":{"site":"KCLX","name":"Charleston SC","scan_time":"2026-09-27T11:59:57Z","stale":false,"bins":25,"density_birds_km3":2.90375,"heading_deg":230.31870300469163,"speed_ms":7.678807101104136,"peak_altitude_m":0.0,"u_ms":-5.7462459406798,"v_ms":-4.736852132496211}},{"type":"Feature","geometry":{"type":"Point","coordinates":[-74.4108,39.947]},"properties":{"site":"KDIX","name":"Philadelphia PA","scan_time":"2026-09-27T12:01:48Z","stale":false,"bins":25,"density_birds_km3":0.01666666666666667,"heading_deg":null,"speed_ms":null,"peak_altitude_m":2000.0,"u_ms":null,"v_ms":null}},{"type":"Feature","geometry":{"type":"Point","coordinates":[-84.5658,33.3636]},"properties":{"site":"KFFC","name":"Atlanta GA","scan_time":"2026-09-27T11:59:38Z","stale":false,"bins":25,"density_birds_km3":7.804,"heading_deg":206.2169344144425,"speed_ms":9.65911524822695,"peak_altitude_m":200.0,"u_ms":-3.2995132978723407,"v_ms":-7.788167553191489}},{"type":"Feature","geometry":{"type":"Point","coordinates":[-85.5449,42.8939]},"properties":{"site":"KGRR","name":"Grand Rapids MI","scan_time":"2026-09-27T11:59:16Z","stale":false,"bins":25,"density_birds_km3":2.4586666666666663,"heading_deg":212.05051518410386,"speed_ms":5.036285714285714,"peak_altitude_m":200.0,"u_ms":-2.6756897959183674,"v_ms":-4.260043537414966}},{"type":"Feature","geometry":{"type":"Point","coordinates":[-83.8217,39.4203]},"properties":{"site":"KILN","name":"Wilmington OH","scan_time":"2026-09-27T11:59:56Z","stale":false,"bins":25,"density_birds_km3":0.8586666666666666,"heading_deg":199.78991089860395,"speed_ms":6.813833592534992,"peak_altitude_m":200.0,"u_ms":-2.1889735614307932,"v_ms":-6.426858475894246}},{"type":"Feature","geometry":{"type":"Point","coordinates":[-81.7019,30.4846]},"properties":{"site":"KJAX","name":"Jacksonville FL","scan_time":"2026-09-27T12:00:54Z","stale":false,"bins":25,"density_birds_km3":4.5825,"heading_deg":117.27072639988037,"speed_ms":6.941951450189156,"peak_altitude_m":0.0,"u_ms":5.597536254728878,"v_ms":-2.5857912988650695}},{"type":"Feature","geometry":{"type":"Point","coordinates":[-88.0847,41.6045]},"properties":{"site":"KLOT","name":"Chicago IL","scan_time":"2026-09-27T12:01:18Z","stale":false,"bins":25,"density_birds_km3":1.8379999999999999,"heading_deg":244.54784588511865,"speed_ms":3.6419382940108895,"peak_altitude_m":200.0,"u_ms":-3.0074736842105265,"v_ms":-1.5432377495462797}},{"type":"Feature","geometry":{"type":"Point","coordinates":[-78.4292,33.9892]},"properties":{"site":"KLTX","name":"Wilmington NC","scan_time":"2026-09-27T12:01:03Z","stale":false,"bins":25,"density_birds_km3":1.3856249999999999,"heading_deg":236.39159052714558,"speed_ms":6.489583333333333,"peak_altitude_m":0.0,"u_ms":-4.6680389492753624,"v_ms":-3.497844202898551}},{"type":"Feature","geometry":{"type":"Point","coordinates":[-77.4778,38.9753]},"properties":{"site":"KLWX","name":"Sterling VA","scan_time":"2026-09-27T12:01:17Z","stale":false,"bins":25,"density_birds_km3":1.21,"heading_deg":143.6,"speed_ms":4.31,"peak_altitude_m":0.0,"u_ms":2.56,"v_ms":-3.4700000000000006}},{"type":"Feature","geometry":{"type":"Point","coordinates":[-76.8762,34.7759]},"properties":{"site":"KMHX","name":"Morehead City NC","scan_time":"2026-09-27T12:01:37Z","stale":false,"bins":25,"density_birds_km3":0.311875,"heading_deg":163.47442029462874,"speed_ms":6.817054108216432,"peak_altitude_m":200.0,"u_ms":1.8547695390781562,"v_ms":-6.532845691382765}},{"type":"Feature","geometry":{"type":"Point","coordinates":[-80.6542,28.1133]},"properties":{"site":"KMLB","name":"Melbourne FL","scan_time":"2026-09-27T12:00:02Z","stale":false,"bins":25,"density_birds_km3":1.9024999999999999,"heading_deg":170.3897259049002,"speed_ms":5.393065045992116,"peak_altitude_m":200.0,"u_ms":0.9526708278580814,"v_ms":-5.217818659658344}},{"type":"Feature","geometry":{"type":"Point","coordinates":[-86.5625,36.2472]},"properties":{"site":"KOHX","name":"Nashville TN","scan_time":"2026-09-27T11:58:56Z","stale":false,"bins":25,"density_birds_km3":4.581333333333333,"heading_deg":205.8759004277052,"speed_ms":7.180417694747974,"peak_altitude_m":200.0,"u_ms":-2.9286940430031723,"v_ms":-6.349494183997179}},{"type":"Feature","geometry":{"type":"Point","coordinates":[-72.8639,40.8655]},"properties":{"site":"KOKX","name":"Upton NY","scan_time":"2026-09-27T11:59:36Z","stale":false,"bins":25,"density_birds_km3":0.20916666666666664,"heading_deg":null,"speed_ms":null,"peak_altitude_m":200.0,"u_ms":null,"v_ms":null}},{"type":"Feature","geometry":{"type":"Point","coordinates":[-80.2183,40.5317]},"properties":{"site":"KPBZ","name":"Pittsburgh PA","scan_time":"2026-09-27T12:01:01Z","stale":false,"bins":25,"density_birds_km3":1.1142857142857143,"heading_deg":180.13228401707877,"speed_ms":11.268163134232497,"peak_altitude_m":400.0,"u_ms":-0.15949261400128445,"v_ms":-11.143012202954399}},{"type":"Feature","geometry":{"type":"Point","coordinates":[-78.4899,35.6655]},"properties":{"site":"KRAX","name":"Raleigh NC","scan_time":"2026-09-27T11:58:25Z","stale":false,"bins":25,"density_birds_km3":1.47,"heading_deg":138.90296168695178,"speed_ms":9.335573979591839,"peak_altitude_m":0.0,"u_ms":5.727746598639456,"v_ms":-7.175544217687075}},{"type":"Feature","geometry":{"type":"Point","coordinates":[-82.4017,27.7055]},"properties":{"site":"KTBW","name":"Tampa FL","scan_time":"2026-09-27T12:00:56Z","stale":false,"bins":25,"density_birds_km3":2.563125,"heading_deg":298.41667269529637,"speed_ms":5.281367959034382,"peak_altitude_m":0.0,"u_ms":0.9199292855401121,"v_ms":-2.9391465496220435}}]}