{"type":"FeatureCollection","frame":"2026-08-24T01","site_count":20,"fresh_count":20,"failures":{},"features":[{"type":"Feature","geometry":{"type":"Point","coordinates":[-77.0073,36.984]},"properties":{"site":"KAKQ","name":"Wakefield VA","scan_time":"2026-08-24T01:02:34Z","stale":false,"bins":25,"density_birds_km3":10.181875,"heading_deg":112.78879157412175,"speed_ms":4.9725326867595605,"peak_altitude_m":0.0,"u_ms":4.571969799275674,"v_ms":-1.799449389233319}},{"type":"Feature","geometry":{"type":"Point","coordinates":[-71.1369,41.9558]},"properties":{"site":"KBOX","name":"Boston MA","scan_time":"2026-08-24T00:58:18Z","stale":false,"bins":25,"density_birds_km3":8.318125,"heading_deg":334.31731262274764,"speed_ms":6.332443642921551,"peak_altitude_m":0.0,"u_ms":-1.8879508566275927,"v_ms":4.900898707544334}},{"type":"Feature","geometry":{"type":"Point","coordinates":[-78.7369,42.9489]},"properties":{"site":"KBUF","name":"Buffalo NY","scan_time":"2026-08-24T01:00:40Z","stale":false,"bins":25,"density_birds_km3":2.8939999999999997,"heading_deg":82.89092816863283,"speed_ms":9.237092835752131,"peak_altitude_m":200.0,"u_ms":8.925475696844046,"v_ms":0.855623128311449}},{"type":"Feature","geometry":{"type":"Point","coordinates":[-81.8597,41.4131]},"properties":{"site":"KCLE","name":"Cleveland OH","scan_time":"2026-08-24T01:01:45Z","stale":false,"bins":25,"density_birds_km3":11.608,"heading_deg":null,"speed_ms":null,"peak_altitude_m":200.0,"u_ms":null,"v_ms":null}},{"type":"Feature","geometry":{"type":"Point","coordinates":[-81.0423,32.6555]},"properties":{"site":"KCLX","name":"Charleston SC","scan_time":"2026-08-24T00:58:09Z","stale":false,"bins":25,"density_birds_km3":7.926875,"heading_deg":117.28358234702651,"speed_ms":2.7213211790217655,"peak_altitude_m":0.0,"u_ms":0.9125764998795277,"v_ms":-1.5547249216930366}},{"type":"Feature","geometry":{"type":"Point","coordinates":[-74.4108,39.947]},"properties":{"site":"KDIX","name":"Philadelphia PA","scan_time":"2026-08-24T00:58:23Z","stale":false,"bins":25,"density_birds_km3":3.32625,"heading_deg":114.21805855211032,"speed_ms":7.333191049266641,"peak_altitude_m":200.0,"u_ms":6.562638209853328,"v_ms":-2.6790842421963146}},{"type":"Feature","geometry":{"type":"Point","coordinates":[-84.5658,33.3636]},"properties":{"site":"KFFC","name":"Atlanta GA","scan_time":"2026-08-24T00:57:37Z","stale":false,"bins":25,"density_birds_km3":15.75,"heading_deg":171.930378006704,"speed_ms":6.301718591263122,"peak_altitude_m":400.0,"u_ms":0.6319907720961734,"v_ms":-6.131639011175076}},{"type":"Feature","geometry":{"type":"Point","coordinates":[-85.5449,42.8939]},"properties":{"site":"KGRR","name":"Grand Rapids MI","scan_time":"2026-08-24T01:03:48Z","stale":false,"bins":25,"density_birds_km3":5.360666666666666,"heading_deg":155.89471689567736,"speed_ms":8.235883596567591,"peak_altitude_m":400.0,"u_ms":3.3578609625668454,"v_ms":-7.519537370973759}},{"type":"Feature","geometry":{"type":"Point","coordinates":[-83.8217,39.4203]},"properties":{"site":"KILN","name":"Wilmington OH","scan_time":"2026-08-24T00:58:45Z","stale":false,"bins":25,"density_birds_km3":5.277333333333333,"heading_deg":104.88006302408402,"speed_ms":9.738543959519292,"peak_altitude_m":600.0,"u_ms":9.337177735610375,"v_ms":-2.556029095509172}},{"type":"Feature","geometry":{"type":"Point","coordinates":[-81.7019,30.4846]},"properties":{"site":"KJAX","name":"Jacksonville FL","scan_time":"2026-08-24T01:00:27Z","stale":false,"bins":25,"density_birds_km3":14.487499999999999,"heading_deg":73.48683053866054,"speed_ms":5.3742924935289045,"peak_altitude_m":0.0,"u_ms":3.0308817946505613,"v_ms":0.0023364969801550573}},{"type":"Feature","geometry":{"type":"Point","coordinates":[-88.0847,41.6045]},"properties":{"site":"KLOT","name":"Chicago IL","scan_time":"2026-08-24T01:02:09Z","stale":false,"bins":25,"density_birds_km3":4.144,"heading_deg":140.30975244756974,"speed_ms":6.644184362934363,"peak_altitude_m":200.0,"u_ms":4.184734555984556,"v_ms":-5.1374018661518654}},{"type":"Feature","geometry":{"type":"Point","coordinates":[-78.4292,33.9892]},"properties":{"site":"KLTX","name":"Wilmington NC","scan_time":"2026-08-24T01:01:12Z","stale":false,"bins":25,"density_birds_km3":5.53875,"heading_deg":19.57810163652121,"speed_ms":5.0089760668322425,"peak_altitude_m":0.0,"u_ms":1.4818435312711673,"v_ms":4.287071573718673}},{"type":"Feature","geometry":{"type":"Point","coordinates":[-77.4778,38.9753]},"properties":{"site":"KLWX","name":"Sterling VA","scan_time":"2026-08-24T00:58:35Z","stale":false,"bins":25,"density_birds_km3":16.21375,"heading_deg":121.05887035666143,"speed_ms":7.046469859939643,"peak_altitude_m":400.0,"u_ms":5.89100905362532,"v_ms":-3.420721194769017}},{"type":"Feature","geometry":{"type":"Point","coordinates":[-76.8762,34.7759]},"properties":{"site":"KMHX","name":"Morehead City NC","scan_time":"2026-08-24T01:00:58Z","stale":false,"bins":25,"density_birds_km3":2.846875,"heading_deg":59.396972429343016,"speed_ms":7.289505168242798,"peak_altitude_m":0.0,"u_ms":5.8412205850011,"v_ms":3.6171915548713436}},{"type":"Feature","geometry":{"type":"Point","coordinates":[-80.6542,28.1133]},"properties":{"site":"KMLB","name":"Melbourne FL","scan_time":"2026-08-24T00:58:14Z","stale":false,"bins":25,"density_birds_km3":9.86125,"heading_deg":236.8786850340189,"speed_ms":3.2804398529598173,"peak_altitude_m":0.0,"u_ms":-2.7160863227278487,"v_ms":-1.7315654709088601}},{"type":"Feature","geometry":{"type":"Point","coordinates":[-86.5625,36.2472]},"properties":{"site":"KOHX","name":"Nashville TN","scan_time":"2026-08-24T00:59:54Z","stale":false,"bins":25,"density_birds_km3":20.160666666666668,"heading_deg":157.51252310792376,"speed_ms":5.438643563374226,"peak_altitude_m":200.0,"u_ms":2.0680255282563405,"v_ms":-5.020929202076651}},{"type":"Feature","geometry":{"type":"Point","coordinates":[-72.8639,40.8655]},"properties":{"site":"KOKX","name":"Upton NY","scan_time":"2026-08-24T01:01:25Z","stale":false,"bins":25,"density_birds_km3":1.88625,"heading_deg":27.59055000877586,"speed_ms":7.730799071618038,"peak_altitude_m":0.0,"u_ms":3.6301392572944295,"v_ms":6.713812997347481}},{"type":"Feature","geometry":{"type":"Point","coordinates":[-80.2183,40.5317]},"properties":{"site":"KPBZ","name":"Pittsburgh PA","scan_time":"2026-08-24T01:00:16Z","stale":false,"bins":25,"density_birds_km3":3.4664285714285716,"heading_deg":85.87119324347293,"speed_ms":9.36472490550189,"peak_altitude_m":600.0,"u_ms":9.314979000419992,"v_ms":0.6080953380932381}},{"type":"Feature","geometry":{"type":"Point","coordinates":[-78.4899,35.6655]},"properties":{"site":"KRAX","name":"Raleigh NC","scan_time":"2026-08-24T01:00:24Z","stale":false,"bins":25,"density_birds_km3":17.6575,"heading_deg":159.7012686196247,"speed_ms":5.162093023255815,"peak_altitude_m":200.0,"u_ms":1.7710672188595094,"v_ms":-4.40181409507628}},{"type":"Feature","geometry":{"type":"Point","coordinates":[-82.4017,27.7055]},"properties":{"site":"KTBW","name":"Tampa FL","scan_time":"2026-08-24T00:58:38Z","stale":false,"bins":25,"density_birds_km3":18.523125,"heading_deg":60.56575702791674,"speed_ms":3.107471233338957,"peak_altitude_m":0.0,"u_ms":2.532994432259153,"v_ms":1.3879223890669816}}]}