{"type":"FeatureCollection","frame":"2026-09-06T08","site_count":20,"fresh_count":20,"failures":{},"features":[{"type":"Feature","geometry":{"type":"Point","coordinates":[-77.0073,36.984]},"properties":{"site":"KAKQ","name":"Wakefield VA","scan_time":"2026-09-06T07:59:41Z","stale":false,"bins":25,"density_birds_km3":81.714375,"heading_deg":202.9485016502339,"speed_ms":9.543074257652945,"peak_altitude_m":0.0,"u_ms":-3.630016063151132,"v_ms":-8.653558982361131}},{"type":"Feature","geometry":{"type":"Point","coordinates":[-71.1369,41.9558]},"properties":{"site":"KBOX","name":"Boston MA","scan_time":"2026-09-06T07:58:13Z","stale":false,"bins":25,"density_birds_km3":10.606875,"heading_deg":187.82610177883745,"speed_ms":12.165132481665482,"peak_altitude_m":200.0,"u_ms":-1.5647657913413768,"v_ms":-11.962049917198959}},{"type":"Feature","geometry":{"type":"Point","coordinates":[-78.7369,42.9489]},"properties":{"site":"KBUF","name":"Buffalo NY","scan_time":"2026-09-06T07:59:23Z","stale":false,"bins":25,"density_birds_km3":5.284000000000001,"heading_deg":216.2088234487864,"speed_ms":7.432949785516024,"peak_altitude_m":200.0,"u_ms":-4.428247539742618,"v_ms":-5.918485995457986}},{"type":"Feature","geometry":{"type":"Point","coordinates":[-81.8597,41.4131]},"properties":{"site":"KCLE","name":"Cleveland OH","scan_time":"2026-09-06T07:58:21Z","stale":false,"bins":25,"density_birds_km3":15.213999999999999,"heading_deg":217.16614625815296,"speed_ms":9.319627974234256,"peak_altitude_m":400.0,"u_ms":-5.557476447132028,"v_ms":-7.247966784978748}},{"type":"Feature","geometry":{"type":"Point","coordinates":[-81.0423,32.6555]},"properties":{"site":"KCLX","name":"Charleston SC","scan_time":"2026-09-06T08:01:18Z","stale":false,"bins":25,"density_birds_km3":26.62875,"heading_deg":187.49471487621753,"speed_ms":8.095171369547867,"peak_altitude_m":0.0,"u_ms":-1.145489459599042,"v_ms":-7.153164702568196}},{"type":"Feature","geometry":{"type":"Point","coordinates":[-74.4108,39.947]},"properties":{"site":"KDIX","name":"Philadelphia PA","scan_time":"2026-09-06T07:58:11Z","stale":false,"bins":25,"density_birds_km3":14.04875,"heading_deg":202.31451973685844,"speed_ms":10.850624304721219,"peak_altitude_m":200.0,"u_ms":-4.207218439905664,"v_ms":-9.946379210608285}},{"type":"Feature","geometry":{"type":"Point","coordinates":[-84.5658,33.3636]},"properties":{"site":"KFFC","name":"Atlanta GA","scan_time":"2026-09-06T08:00:30Z","stale":false,"bins":25,"density_birds_km3":72.10466666666666,"heading_deg":182.08732852751328,"speed_ms":8.737364479414184,"peak_altitude_m":1600.0,"u_ms":-0.9611718150466452,"v_ms":-8.222712353338203}},{"type":"Feature","geometry":{"type":"Point","coordinates":[-85.5449,42.8939]},"properties":{"site":"KGRR","name":"Grand Rapids MI","scan_time":"2026-09-06T08:04:03Z","stale":false,"bins":25,"density_birds_km3":25.720666666666666,"heading_deg":217.96323400233925,"speed_ms":9.57709857183588,"peak_altitude_m":200.0,"u_ms":-5.560411860760477,"v_ms":-7.289700111453824}},{"type":"Feature","geometry":{"type":"Point","coordinates":[-83.8217,39.4203]},"properties":{"site":"KILN","name":"Wilmington OH","scan_time":"2026-09-06T07:58:29Z","stale":false,"bins":25,"density_birds_km3":58.513333333333335,"heading_deg":214.58016249805272,"speed_ms":12.154307508260224,"peak_altitude_m":200.0,"u_ms":-6.4470544605218185,"v_ms":-9.148844024154037}},{"type":"Feature","geometry":{"type":"Point","coordinates":[-81.7019,30.4846]},"properties":{"site":"KJAX","name":"Jacksonville FL","scan_time":"2026-09-06T07:58:12Z","stale":false,"bins":25,"density_birds_km3":37.668125,"heading_deg":161.5021871375176,"speed_ms":9.153434841244735,"peak_altitude_m":0.0,"u_ms":2.987810226269959,"v_ms":-8.509587419456885}},{"type":"Feature","geometry":{"type":"Point","coordinates":[-88.0847,41.6045]},"properties":{"site":"KLOT","name":"Chicago IL","scan_time":"2026-09-06T07:59:14Z","stale":false,"bins":25,"density_birds_km3":114.048,"heading_deg":193.98116279353536,"speed_ms":11.092232159558547,"peak_altitude_m":200.0,"u_ms":-1.3732050832398053,"v_ms":-10.091419869996258}},{"type":"Feature","geometry":{"type":"Point","coordinates":[-78.4292,33.9892]},"properties":{"site":"KLTX","name":"Wilmington NC","scan_time":"2026-09-06T07:58:56Z","stale":false,"bins":25,"density_birds_km3":61.906875,"heading_deg":209.53338139498675,"speed_ms":5.968864827210225,"peak_altitude_m":0.0,"u_ms":-2.988933680629171,"v_ms":-4.921380803828331}},{"type":"Feature","geometry":{"type":"Point","coordinates":[-77.4778,38.9753]},"properties":{"site":"KLWX","name":"Sterling VA","scan_time":"2026-09-06T08:00:04Z","stale":false,"bins":25,"density_birds_km3":51.24,"heading_deg":221.87646327720054,"speed_ms":10.154127524974964,"peak_altitude_m":200.0,"u_ms":-6.970901785496202,"v_ms":-7.007740040546151}},{"type":"Feature","geometry":{"type":"Point","coordinates":[-76.8762,34.7759]},"properties":{"site":"KMHX","name":"Morehead City NC","scan_time":"2026-09-06T07:58:11Z","stale":false,"bins":25,"density_birds_km3":28.945625,"heading_deg":193.98767269398388,"speed_ms":8.753866634995356,"peak_altitude_m":0.0,"u_ms":-1.7908905396359236,"v_ms":-8.04136107452115}},{"type":"Feature","geometry":{"type":"Point","coordinates":[-80.6542,28.1133]},"properties":{"site":"KMLB","name":"Melbourne FL","scan_time":"2026-09-06T07:57:23Z","stale":false,"bins":25,"density_birds_km3":7.10625,"heading_deg":113.76969780710644,"speed_ms":6.173158866995074,"peak_altitude_m":0.0,"u_ms":5.188489619985925,"v_ms":-2.4669818789584803}},{"type":"Feature","geometry":{"type":"Point","coordinates":[-86.5625,36.2472]},"properties":{"site":"KOHX","name":"Nashville TN","scan_time":"2026-09-06T07:57:31Z","stale":false,"bins":25,"density_birds_km3":75.07466666666666,"heading_deg":162.85437476471873,"speed_ms":9.662964160125032,"peak_altitude_m":1600.0,"u_ms":1.1332088054559017,"v_ms":-6.739265531204491}},{"type":"Feature","geometry":{"type":"Point","coordinates":[-72.8639,40.8655]},"properties":{"site":"KOKX","name":"Upton NY","scan_time":"2026-09-06T07:57:35Z","stale":false,"bins":25,"density_birds_km3":2.97125,"heading_deg":243.96815326639125,"speed_ms":6.597707141343505,"peak_altitude_m":0.0,"u_ms":-5.720510701419792,"v_ms":-2.481760966306421}},{"type":"Feature","geometry":{"type":"Point","coordinates":[-80.2183,40.5317]},"properties":{"site":"KPBZ","name":"Pittsburgh PA","scan_time":"2026-09-06T07:59:41Z","stale":false,"bins":25,"density_birds_km3":36.82928571428572,"heading_deg":245.10109475170185,"speed_ms":10.546027035938014,"peak_altitude_m":400.0,"u_ms":-9.132645992125832,"v_ms":-3.9757256453521066}},{"type":"Feature","geometry":{"type":"Point","coordinates":[-78.4899,35.6655]},"properties":{"site":"KRAX","name":"Raleigh NC","scan_time":"2026-09-06T08:02:19Z","stale":false,"bins":25,"density_birds_km3":39.959375,"heading_deg":215.56751685887363,"speed_ms":9.76532619066239,"peak_altitude_m":400.0,"u_ms":-5.780854930789082,"v_ms":-7.773923985297567}},{"type":"Feature","geometry":{"type":"Point","coordinates":[-82.4017,27.7055]},"properties":{"site":"KTBW","name":"Tampa FL","scan_time":"2026-09-06T08:01:06Z","stale":false,"bins":25,"density_birds_km3":8.80875,"heading_deg":174.413544297034,"speed_ms":6.076345962821058,"peak_altitude_m":0.0,"u_ms":0.9945075918830708,"v_ms":-5.95028451823471}}]}