{"type":"FeatureCollection","frame":"2026-09-10T08","site_count":20,"fresh_count":20,"failures":{},"features":[{"type":"Feature","geometry":{"type":"Point","coordinates":[-77.0073,36.984]},"properties":{"site":"KAKQ","name":"Wakefield VA","scan_time":"2026-09-10T08:01:28Z","stale":false,"bins":25,"density_birds_km3":1.018125,"heading_deg":57.72427696450488,"speed_ms":14.066410891089108,"peak_altitude_m":200.0,"u_ms":11.80970297029703,"v_ms":6.796200495049505}},{"type":"Feature","geometry":{"type":"Point","coordinates":[-71.1369,41.9558]},"properties":{"site":"KBOX","name":"Boston MA","scan_time":"2026-09-10T08:02:23Z","stale":false,"bins":25,"density_birds_km3":0.335625,"heading_deg":65.43037064107548,"speed_ms":15.646563706563708,"peak_altitude_m":0.0,"u_ms":8.9784555984556,"v_ms":2.083687258687258}},{"type":"Feature","geometry":{"type":"Point","coordinates":[-78.7369,42.9489]},"properties":{"site":"KBUF","name":"Buffalo NY","scan_time":"2026-09-10T08:00:21Z","stale":false,"bins":25,"density_birds_km3":5.195333333333334,"heading_deg":110.83696984733703,"speed_ms":13.439023482612601,"peak_altitude_m":400.0,"u_ms":12.31715770563326,"v_ms":-4.858692416271012}},{"type":"Feature","geometry":{"type":"Point","coordinates":[-81.8597,41.4131]},"properties":{"site":"KCLE","name":"Cleveland OH","scan_time":"2026-09-10T08:00:05Z","stale":false,"bins":25,"density_birds_km3":49.73733333333334,"heading_deg":156.90034414152052,"speed_ms":14.1956167394976,"peak_altitude_m":600.0,"u_ms":5.293917053162113,"v_ms":-12.98396423688373}},{"type":"Feature","geometry":{"type":"Point","coordinates":[-81.0423,32.6555]},"properties":{"site":"KCLX","name":"Charleston SC","scan_time":"2026-09-10T07:57:35Z","stale":false,"bins":25,"density_birds_km3":1.8556249999999999,"heading_deg":285.44688325348534,"speed_ms":5.515257662512631,"peak_altitude_m":0.0,"u_ms":-4.923307510946447,"v_ms":1.5257056247894916}},{"type":"Feature","geometry":{"type":"Point","coordinates":[-74.4108,39.947]},"properties":{"site":"KDIX","name":"Philadelphia PA","scan_time":"2026-09-10T08:00:26Z","stale":false,"bins":25,"density_birds_km3":0.311875,"heading_deg":52.89280780559913,"speed_ms":15.673647294589179,"peak_altitude_m":0.0,"u_ms":12.694729458917836,"v_ms":8.32316633266533}},{"type":"Feature","geometry":{"type":"Point","coordinates":[-84.5658,33.3636]},"properties":{"site":"KFFC","name":"Atlanta GA","scan_time":"2026-09-10T07:57:30Z","stale":false,"bins":25,"density_birds_km3":13.786,"heading_deg":245.95947943867907,"speed_ms":4.3415039411963825,"peak_altitude_m":200.0,"u_ms":-1.735268146428744,"v_ms":-1.7186203394748294}},{"type":"Feature","geometry":{"type":"Point","coordinates":[-85.5449,42.8939]},"properties":{"site":"KGRR","name":"Grand Rapids MI","scan_time":"2026-09-10T08:01:24Z","stale":false,"bins":25,"density_birds_km3":89.704,"heading_deg":162.49749675814695,"speed_ms":10.91642099472976,"peak_altitude_m":400.0,"u_ms":3.169830519813572,"v_ms":-10.323489656505288}},{"type":"Feature","geometry":{"type":"Point","coordinates":[-83.8217,39.4203]},"properties":{"site":"KILN","name":"Wilmington OH","scan_time":"2026-09-10T08:00:34Z","stale":false,"bins":25,"density_birds_km3":38.321333333333335,"heading_deg":165.90787229253937,"speed_ms":10.458781612796548,"peak_altitude_m":800.0,"u_ms":3.72601848467443,"v_ms":-9.094243120463684}},{"type":"Feature","geometry":{"type":"Point","coordinates":[-81.7019,30.4846]},"properties":{"site":"KJAX","name":"Jacksonville FL","scan_time":"2026-09-10T07:58:34Z","stale":false,"bins":25,"density_birds_km3":8.84125,"heading_deg":204.10793789866344,"speed_ms":4.475808709175739,"peak_altitude_m":0.0,"u_ms":-1.915238936801923,"v_ms":-3.9850530185211372}},{"type":"Feature","geometry":{"type":"Point","coordinates":[-88.0847,41.6045]},"properties":{"site":"KLOT","name":"Chicago IL","scan_time":"2026-09-10T08:00:40Z","stale":false,"bins":25,"density_birds_km3":231.14333333333335,"heading_deg":154.9186594013835,"speed_ms":11.54333748968129,"peak_altitude_m":400.0,"u_ms":4.4793339741036435,"v_ms":-10.277880349133227}},{"type":"Feature","geometry":{"type":"Point","coordinates":[-78.4292,33.9892]},"properties":{"site":"KLTX","name":"Wilmington NC","scan_time":"2026-09-10T08:01:32Z","stale":false,"bins":25,"density_birds_km3":1.27625,"heading_deg":53.23517033398497,"speed_ms":3.0665572967678743,"peak_altitude_m":0.0,"u_ms":2.27537708129285,"v_ms":1.486684622918707}},{"type":"Feature","geometry":{"type":"Point","coordinates":[-77.4778,38.9753]},"properties":{"site":"KLWX","name":"Sterling VA","scan_time":"2026-09-10T08:00:34Z","stale":false,"bins":25,"density_birds_km3":1.403125,"heading_deg":40.60777868807113,"speed_ms":10.42636192271442,"peak_altitude_m":0.0,"u_ms":6.630508953817154,"v_ms":6.257832233741754}},{"type":"Feature","geometry":{"type":"Point","coordinates":[-76.8762,34.7759]},"properties":{"site":"KMHX","name":"Morehead City NC","scan_time":"2026-09-10T07:59:57Z","stale":false,"bins":25,"density_birds_km3":0.429375,"heading_deg":64.83263834841523,"speed_ms":7.451173020527859,"peak_altitude_m":0.0,"u_ms":6.296099706744868,"v_ms":2.662140762463343}},{"type":"Feature","geometry":{"type":"Point","coordinates":[-80.6542,28.1133]},"properties":{"site":"KMLB","name":"Melbourne FL","scan_time":"2026-09-10T08:00:25Z","stale":false,"bins":25,"density_birds_km3":3.436875,"heading_deg":169.88145578342153,"speed_ms":2.504004364429896,"peak_altitude_m":0.0,"u_ms":0.5959374431714858,"v_ms":-1.4110365521003818}},{"type":"Feature","geometry":{"type":"Point","coordinates":[-86.5625,36.2472]},"properties":{"site":"KOHX","name":"Nashville TN","scan_time":"2026-09-10T07:59:42Z","stale":false,"bins":25,"density_birds_km3":9.610666666666667,"heading_deg":57.62619103855852,"speed_ms":9.926287458379578,"peak_altitude_m":400.0,"u_ms":7.941296476137625,"v_ms":5.2546725860155385}},{"type":"Feature","geometry":{"type":"Point","coordinates":[-72.8639,40.8655]},"properties":{"site":"KOKX","name":"Upton NY","scan_time":"2026-09-10T07:58:27Z","stale":false,"bins":25,"density_birds_km3":0.356875,"heading_deg":50.81488589566357,"speed_ms":17.106363636363636,"peak_altitude_m":0.0,"u_ms":13.382,"v_ms":10.021402597402597}},{"type":"Feature","geometry":{"type":"Point","coordinates":[-80.2183,40.5317]},"properties":{"site":"KPBZ","name":"Pittsburgh PA","scan_time":"2026-09-10T07:58:44Z","stale":false,"bins":25,"density_birds_km3":6.566428571428571,"heading_deg":116.26746918430074,"speed_ms":9.408408571739367,"peak_altitude_m":800.0,"u_ms":8.03163493962798,"v_ms":-4.253821385837051}},{"type":"Feature","geometry":{"type":"Point","coordinates":[-78.4899,35.6655]},"properties":{"site":"KRAX","name":"Raleigh NC","scan_time":"2026-09-10T08:00:51Z","stale":false,"bins":25,"density_birds_km3":2.274375,"heading_deg":61.32988714367617,"speed_ms":10.074178101372166,"peak_altitude_m":0.0,"u_ms":8.766942033043964,"v_ms":4.72793615233828}},{"type":"Feature","geometry":{"type":"Point","coordinates":[-82.4017,27.7055]},"properties":{"site":"KTBW","name":"Tampa FL","scan_time":"2026-09-10T08:01:37Z","stale":false,"bins":25,"density_birds_km3":2.375,"heading_deg":308.1373290440662,"speed_ms":5.879357048748353,"peak_altitude_m":0.0,"u_ms":-4.458595520421607,"v_ms":3.557451910408432}}]}