{"type":"FeatureCollection","frame":"2026-09-22T09","site_count":20,"fresh_count":20,"failures":{},"features":[{"type":"Feature","geometry":{"type":"Point","coordinates":[-77.0073,36.984]},"properties":{"site":"KAKQ","name":"Wakefield VA","scan_time":"2026-09-22T09:01:38Z","stale":false,"bins":25,"density_birds_km3":2.475625,"heading_deg":234.39384765779408,"speed_ms":5.0461495704901465,"peak_altitude_m":0.0,"u_ms":-3.5155356240525513,"v_ms":-2.2818014148559875}},{"type":"Feature","geometry":{"type":"Point","coordinates":[-71.1369,41.9558]},"properties":{"site":"KBOX","name":"Boston MA","scan_time":"2026-09-22T09:01:43Z","stale":false,"bins":25,"density_birds_km3":1.266875,"heading_deg":201.40613679343195,"speed_ms":10.498885051800691,"peak_altitude_m":0.0,"u_ms":-3.7911593487913176,"v_ms":-9.533482979773064}},{"type":"Feature","geometry":{"type":"Point","coordinates":[-78.7369,42.9489]},"properties":{"site":"KBUF","name":"Buffalo NY","scan_time":"2026-09-22T09:02:04Z","stale":false,"bins":25,"density_birds_km3":7.5600000000000005,"heading_deg":240.8060671500332,"speed_ms":16.453120204603582,"peak_altitude_m":400.0,"u_ms":-14.249163947438046,"v_ms":-8.039238028044801}},{"type":"Feature","geometry":{"type":"Point","coordinates":[-81.8597,41.4131]},"properties":{"site":"KCLE","name":"Cleveland OH","scan_time":"2026-09-22T08:57:04Z","stale":false,"bins":25,"density_birds_km3":9.367333333333333,"heading_deg":231.7259073910403,"speed_ms":13.013255284321401,"peak_altitude_m":400.0,"u_ms":-10.292131520888194,"v_ms":-7.613331435485021}},{"type":"Feature","geometry":{"type":"Point","coordinates":[-81.0423,32.6555]},"properties":{"site":"KCLX","name":"Charleston SC","scan_time":"2026-09-22T09:00:09Z","stale":false,"bins":25,"density_birds_km3":4.789375,"heading_deg":184.78455174941098,"speed_ms":3.890249249641133,"peak_altitude_m":0.0,"u_ms":-0.5380999608508418,"v_ms":-3.5684744877985124}},{"type":"Feature","geometry":{"type":"Point","coordinates":[-74.4108,39.947]},"properties":{"site":"KDIX","name":"Philadelphia PA","scan_time":"2026-09-22T08:58:48Z","stale":false,"bins":25,"density_birds_km3":2.9353333333333333,"heading_deg":null,"speed_ms":null,"peak_altitude_m":200.0,"u_ms":null,"v_ms":null}},{"type":"Feature","geometry":{"type":"Point","coordinates":[-84.5658,33.3636]},"properties":{"site":"KFFC","name":"Atlanta GA","scan_time":"2026-09-22T08:58:33Z","stale":false,"bins":25,"density_birds_km3":22.198666666666664,"heading_deg":141.52630640629246,"speed_ms":3.8532293230824677,"peak_altitude_m":400.0,"u_ms":1.1311168838969308,"v_ms":-2.721083548561475}},{"type":"Feature","geometry":{"type":"Point","coordinates":[-85.5449,42.8939]},"properties":{"site":"KGRR","name":"Grand Rapids MI","scan_time":"2026-09-22T09:02:33Z","stale":false,"bins":25,"density_birds_km3":2.0406666666666666,"heading_deg":237.9241704120201,"speed_ms":9.93420124142437,"peak_altitude_m":200.0,"u_ms":-8.58000326690624,"v_ms":-4.555540672982685}},{"type":"Feature","geometry":{"type":"Point","coordinates":[-83.8217,39.4203]},"properties":{"site":"KILN","name":"Wilmington OH","scan_time":"2026-09-22T09:02:07Z","stale":false,"bins":25,"density_birds_km3":13.623333333333333,"heading_deg":168.26603584607986,"speed_ms":9.569953019477342,"peak_altitude_m":200.0,"u_ms":1.9400812371537632,"v_ms":-9.080613683077225}},{"type":"Feature","geometry":{"type":"Point","coordinates":[-81.7019,30.4846]},"properties":{"site":"KJAX","name":"Jacksonville FL","scan_time":"2026-09-22T08:59:13Z","stale":false,"bins":25,"density_birds_km3":20.79375,"heading_deg":169.67289665302377,"speed_ms":7.888727043193364,"peak_altitude_m":0.0,"u_ms":1.3964588656106285,"v_ms":-7.75923472301542}},{"type":"Feature","geometry":{"type":"Point","coordinates":[-88.0847,41.6045]},"properties":{"site":"KLOT","name":"Chicago IL","scan_time":"2026-09-22T09:02:02Z","stale":false,"bins":25,"density_birds_km3":3.4266666666666667,"heading_deg":243.4932734213507,"speed_ms":8.93357392996109,"peak_altitude_m":400.0,"u_ms":-7.616033073929961,"v_ms":-3.441548638132296}},{"type":"Feature","geometry":{"type":"Point","coordinates":[-78.4292,33.9892]},"properties":{"site":"KLTX","name":"Wilmington NC","scan_time":"2026-09-22T09:01:24Z","stale":false,"bins":25,"density_birds_km3":5.413749999999999,"heading_deg":207.5434714357047,"speed_ms":5.3659508139937655,"peak_altitude_m":0.0,"u_ms":-2.5083327560327904,"v_ms":-4.622021706500404}},{"type":"Feature","geometry":{"type":"Point","coordinates":[-77.4778,38.9753]},"properties":{"site":"KLWX","name":"Sterling VA","scan_time":"2026-09-22T08:59:59Z","stale":false,"bins":25,"density_birds_km3":6.65375,"heading_deg":null,"speed_ms":null,"peak_altitude_m":200.0,"u_ms":null,"v_ms":null}},{"type":"Feature","geometry":{"type":"Point","coordinates":[-76.8762,34.7759]},"properties":{"site":"KMHX","name":"Morehead City NC","scan_time":"2026-09-22T09:01:23Z","stale":false,"bins":25,"density_birds_km3":0.650625,"heading_deg":244.56748466429707,"speed_ms":4.074428434197887,"peak_altitude_m":0.0,"u_ms":-3.544053794428434,"v_ms":-1.7594524495677233}},{"type":"Feature","geometry":{"type":"Point","coordinates":[-80.6542,28.1133]},"properties":{"site":"KMLB","name":"Melbourne FL","scan_time":"2026-09-22T09:00:27Z","stale":false,"bins":25,"density_birds_km3":4.785,"heading_deg":57.98100308761038,"speed_ms":2.473076018808777,"peak_altitude_m":0.0,"u_ms":1.5746930512016717,"v_ms":1.609012539184953}},{"type":"Feature","geometry":{"type":"Point","coordinates":[-86.5625,36.2472]},"properties":{"site":"KOHX","name":"Nashville TN","scan_time":"2026-09-22T09:01:29Z","stale":false,"bins":25,"density_birds_km3":71.972,"heading_deg":196.6345675755973,"speed_ms":7.923220419051853,"peak_altitude_m":400.0,"u_ms":-1.8471582467255787,"v_ms":-6.924500175994369}},{"type":"Feature","geometry":{"type":"Point","coordinates":[-72.8639,40.8655]},"properties":{"site":"KOKX","name":"Upton NY","scan_time":"2026-09-22T09:03:07Z","stale":false,"bins":25,"density_birds_km3":3.5766666666666667,"heading_deg":237.49433229407697,"speed_ms":14.925792507204612,"peak_altitude_m":0.0,"u_ms":-12.56585014409222,"v_ms":-7.98951008645533}},{"type":"Feature","geometry":{"type":"Point","coordinates":[-80.2183,40.5317]},"properties":{"site":"KPBZ","name":"Pittsburgh PA","scan_time":"2026-09-22T08:58:38Z","stale":false,"bins":25,"density_birds_km3":1.707857142857143,"heading_deg":254.61014944970304,"speed_ms":9.646666666666667,"peak_altitude_m":400.0,"u_ms":-8.589388185654009,"v_ms":-2.6044219409282703}},{"type":"Feature","geometry":{"type":"Point","coordinates":[-78.4899,35.6655]},"properties":{"site":"KRAX","name":"Raleigh NC","scan_time":"2026-09-22T09:01:58Z","stale":false,"bins":25,"density_birds_km3":8.78625,"heading_deg":218.1357495476884,"speed_ms":4.675114938438545,"peak_altitude_m":200.0,"u_ms":-2.1883040352999785,"v_ms":-3.406827272080279}},{"type":"Feature","geometry":{"type":"Point","coordinates":[-82.4017,27.7055]},"properties":{"site":"KTBW","name":"Tampa FL","scan_time":"2026-09-22T08:58:27Z","stale":false,"bins":25,"density_birds_km3":11.584375,"heading_deg":208.12804353723402,"speed_ms":2.7629289876969563,"peak_altitude_m":0.0,"u_ms":-1.1239547809194907,"v_ms":-2.199847830779193}}]}