{"type":"FeatureCollection","frame":"2026-10-05T08","site_count":20,"fresh_count":20,"failures":{},"features":[{"type":"Feature","geometry":{"type":"Point","coordinates":[-77.0073,36.984]},"properties":{"site":"KAKQ","name":"Wakefield VA","scan_time":"2026-10-05T08:01:23Z","stale":false,"bins":25,"density_birds_km3":38.881875,"heading_deg":190.73127213625853,"speed_ms":9.102295896224142,"peak_altitude_m":0.0,"u_ms":-1.5410351867033165,"v_ms":-8.899008053238173}},{"type":"Feature","geometry":{"type":"Point","coordinates":[-71.1369,41.9558]},"properties":{"site":"KBOX","name":"Boston MA","scan_time":"2026-10-05T07:59:28Z","stale":false,"bins":25,"density_birds_km3":0.325625,"heading_deg":148.58172086387074,"speed_ms":5.732936660268714,"peak_altitude_m":0.0,"u_ms":3.06063339731286,"v_ms":-4.770786948176584}},{"type":"Feature","geometry":{"type":"Point","coordinates":[-78.7369,42.9489]},"properties":{"site":"KBUF","name":"Buffalo NY","scan_time":"2026-10-05T08:01:53Z","stale":false,"bins":25,"density_birds_km3":4.878666666666666,"heading_deg":145.24263842452578,"speed_ms":9.412662373252946,"peak_altitude_m":200.0,"u_ms":5.230195944094272,"v_ms":-7.739054535489175}},{"type":"Feature","geometry":{"type":"Point","coordinates":[-81.8597,41.4131]},"properties":{"site":"KCLE","name":"Cleveland OH","scan_time":"2026-10-05T08:01:23Z","stale":false,"bins":25,"density_birds_km3":5.499333333333334,"heading_deg":166.7716905296445,"speed_ms":11.158365664403492,"peak_altitude_m":200.0,"u_ms":2.5839464112512123,"v_ms":-10.838469932104754}},{"type":"Feature","geometry":{"type":"Point","coordinates":[-81.0423,32.6555]},"properties":{"site":"KCLX","name":"Charleston SC","scan_time":"2026-10-05T08:00:52Z","stale":false,"bins":25,"density_birds_km3":49.275,"heading_deg":205.39999999999998,"speed_ms":3.6,"peak_altitude_m":200.0,"u_ms":-1.54,"v_ms":-3.2500000000000004}},{"type":"Feature","geometry":{"type":"Point","coordinates":[-74.4108,39.947]},"properties":{"site":"KDIX","name":"Philadelphia PA","scan_time":"2026-10-05T07:56:37Z","stale":false,"bins":25,"density_birds_km3":3.563125,"heading_deg":165.08199852528637,"speed_ms":8.716060393258427,"peak_altitude_m":400.0,"u_ms":2.2036481741573035,"v_ms":-8.419868328651685}},{"type":"Feature","geometry":{"type":"Point","coordinates":[-84.5658,33.3636]},"properties":{"site":"KFFC","name":"Atlanta GA","scan_time":"2026-10-05T07:59:13Z","stale":false,"bins":25,"density_birds_km3":45.80733333333333,"heading_deg":184.96609684865606,"speed_ms":7.1168450466446425,"peak_altitude_m":600.0,"u_ms":-0.6509778638063775,"v_ms":-6.898542445896581}},{"type":"Feature","geometry":{"type":"Point","coordinates":[-85.5449,42.8939]},"properties":{"site":"KGRR","name":"Grand Rapids MI","scan_time":"2026-10-05T07:58:47Z","stale":false,"bins":25,"density_birds_km3":8.117333333333333,"heading_deg":168.1894059576122,"speed_ms":15.096524239934265,"peak_altitude_m":400.0,"u_ms":3.169465078060805,"v_ms":-14.740693508627771}},{"type":"Feature","geometry":{"type":"Point","coordinates":[-83.8217,39.4203]},"properties":{"site":"KILN","name":"Wilmington OH","scan_time":"2026-10-05T08:03:28Z","stale":false,"bins":25,"density_birds_km3":17.538666666666664,"heading_deg":169.43753407550045,"speed_ms":13.548063326744716,"peak_altitude_m":600.0,"u_ms":1.8376068116162385,"v_ms":-13.058748669606205}},{"type":"Feature","geometry":{"type":"Point","coordinates":[-81.7019,30.4846]},"properties":{"site":"KJAX","name":"Jacksonville FL","scan_time":"2026-10-05T08:01:56Z","stale":false,"bins":25,"density_birds_km3":7.16875,"heading_deg":227.55467071086778,"speed_ms":5.353960223307746,"peak_altitude_m":0.0,"u_ms":-3.6763677599441733,"v_ms":-3.53232641311933}},{"type":"Feature","geometry":{"type":"Point","coordinates":[-88.0847,41.6045]},"properties":{"site":"KLOT","name":"Chicago IL","scan_time":"2026-10-05T08:00:25Z","stale":false,"bins":25,"density_birds_km3":22.14466666666667,"heading_deg":174.40637836435977,"speed_ms":14.208664759897639,"peak_altitude_m":400.0,"u_ms":1.3880885142255004,"v_ms":-14.138316423302726}},{"type":"Feature","geometry":{"type":"Point","coordinates":[-78.4292,33.9892]},"properties":{"site":"KLTX","name":"Wilmington NC","scan_time":"2026-10-05T07:57:13Z","stale":false,"bins":25,"density_birds_km3":25.99307692307692,"heading_deg":209.33538326876558,"speed_ms":5.288356735673568,"peak_altitude_m":0.0,"u_ms":-1.5156234623462346,"v_ms":-3.9550027002700268}},{"type":"Feature","geometry":{"type":"Point","coordinates":[-77.4778,38.9753]},"properties":{"site":"KLWX","name":"Sterling VA","scan_time":"2026-10-05T07:58:17Z","stale":false,"bins":25,"density_birds_km3":20.958000000000002,"heading_deg":212.34545806366836,"speed_ms":10.194195212842198,"peak_altitude_m":200.0,"u_ms":-2.874041851798767,"v_ms":-6.953139840428074}},{"type":"Feature","geometry":{"type":"Point","coordinates":[-76.8762,34.7759]},"properties":{"site":"KMHX","name":"Morehead City NC","scan_time":"2026-10-05T07:58:07Z","stale":false,"bins":25,"density_birds_km3":8.644375,"heading_deg":149.1747918065083,"speed_ms":9.429787615913849,"peak_altitude_m":0.0,"u_ms":5.618179778641939,"v_ms":-6.230215375411308}},{"type":"Feature","geometry":{"type":"Point","coordinates":[-80.6542,28.1133]},"properties":{"site":"KMLB","name":"Melbourne FL","scan_time":"2026-10-05T08:00:40Z","stale":false,"bins":25,"density_birds_km3":2.470625,"heading_deg":309.9422572901216,"speed_ms":2.0900328947368423,"peak_altitude_m":0.0,"u_ms":-1.5241877530364374,"v_ms":1.3071457489878544}},{"type":"Feature","geometry":{"type":"Point","coordinates":[-86.5625,36.2472]},"properties":{"site":"KOHX","name":"Nashville TN","scan_time":"2026-10-05T08:01:41Z","stale":false,"bins":25,"density_birds_km3":80.82199999999999,"heading_deg":191.91767760410482,"speed_ms":9.161355983931768,"peak_altitude_m":200.0,"u_ms":-2.0139836513160607,"v_ms":-8.769774401359367}},{"type":"Feature","geometry":{"type":"Point","coordinates":[-72.8639,40.8655]},"properties":{"site":"KOKX","name":"Upton NY","scan_time":"2026-10-05T07:58:03Z","stale":false,"bins":25,"density_birds_km3":1.23,"heading_deg":139.41200906455524,"speed_ms":4.272433401639344,"peak_altitude_m":0.0,"u_ms":2.591659836065574,"v_ms":-3.2497950819672137}},{"type":"Feature","geometry":{"type":"Point","coordinates":[-80.2183,40.5317]},"properties":{"site":"KPBZ","name":"Pittsburgh PA","scan_time":"2026-10-05T08:01:37Z","stale":false,"bins":25,"density_birds_km3":6.672857142857143,"heading_deg":156.54706151494148,"speed_ms":12.896038321558551,"peak_altitude_m":600.0,"u_ms":4.95870156283451,"v_ms":-11.767118390066367}},{"type":"Feature","geometry":{"type":"Point","coordinates":[-78.4899,35.6655]},"properties":{"site":"KRAX","name":"Raleigh NC","scan_time":"2026-10-05T07:59:38Z","stale":false,"bins":25,"density_birds_km3":19.309375,"heading_deg":167.374619926891,"speed_ms":7.816190599507963,"peak_altitude_m":0.0,"u_ms":1.3928638482455005,"v_ms":-7.57023501230092}},{"type":"Feature","geometry":{"type":"Point","coordinates":[-82.4017,27.7055]},"properties":{"site":"KTBW","name":"Tampa FL","scan_time":"2026-10-05T07:58:09Z","stale":false,"bins":25,"density_birds_km3":6.626875,"heading_deg":301.24494148988845,"speed_ms":5.359628372005282,"peak_altitude_m":0.0,"u_ms":-3.7574646293152236,"v_ms":2.9444095453687984}}]}