{"type":"FeatureCollection","frame":"2026-08-16T08","site_count":20,"fresh_count":20,"failures":{},"features":[{"type":"Feature","geometry":{"type":"Point","coordinates":[-77.0073,36.984]},"properties":{"site":"KAKQ","name":"Wakefield VA","scan_time":"2026-08-16T08:00:17Z","stale":false,"bins":25,"density_birds_km3":2.9337500000000003,"heading_deg":287.62369579177556,"speed_ms":6.503110211042421,"peak_altitude_m":0.0,"u_ms":-5.900445534001278,"v_ms":1.8241036026433597}},{"type":"Feature","geometry":{"type":"Point","coordinates":[-71.1369,41.9558]},"properties":{"site":"KBOX","name":"Boston MA","scan_time":"2026-08-16T08:03:21Z","stale":false,"bins":25,"density_birds_km3":0.618125,"heading_deg":199.92278683182374,"speed_ms":4.169564315352697,"peak_altitude_m":0.0,"u_ms":-0.7112655601659751,"v_ms":-3.494346473029045}},{"type":"Feature","geometry":{"type":"Point","coordinates":[-78.7369,42.9489]},"properties":{"site":"KBUF","name":"Buffalo NY","scan_time":"2026-08-16T08:02:24Z","stale":false,"bins":25,"density_birds_km3":0.6826666666666666,"heading_deg":320.61122662714047,"speed_ms":6.303837890624999,"peak_altitude_m":200.0,"u_ms":-3.839716796875001,"v_ms":4.376767578125}},{"type":"Feature","geometry":{"type":"Point","coordinates":[-81.8597,41.4131]},"properties":{"site":"KCLE","name":"Cleveland OH","scan_time":"2026-08-16T08:02:01Z","stale":false,"bins":25,"density_birds_km3":2.9613333333333336,"heading_deg":332.0539188625362,"speed_ms":3.2093989194056736,"peak_altitude_m":200.0,"u_ms":-0.5013192255740658,"v_ms":2.0121521837010357}},{"type":"Feature","geometry":{"type":"Point","coordinates":[-81.0423,32.6555]},"properties":{"site":"KCLX","name":"Charleston SC","scan_time":"2026-08-16T08:01:16Z","stale":false,"bins":25,"density_birds_km3":9.6875,"heading_deg":157.89841944434602,"speed_ms":6.278280667320903,"peak_altitude_m":0.0,"u_ms":2.2631193981027153,"v_ms":-5.517924108603205}},{"type":"Feature","geometry":{"type":"Point","coordinates":[-74.4108,39.947]},"properties":{"site":"KDIX","name":"Philadelphia PA","scan_time":"2026-08-16T08:00:08Z","stale":false,"bins":25,"density_birds_km3":1.108125,"heading_deg":321.16660974780234,"speed_ms":4.49436755530346,"peak_altitude_m":400.0,"u_ms":-1.7569710720363017,"v_ms":2.998598979013046}},{"type":"Feature","geometry":{"type":"Point","coordinates":[-84.5658,33.3636]},"properties":{"site":"KFFC","name":"Atlanta GA","scan_time":"2026-08-16T08:02:16Z","stale":false,"bins":25,"density_birds_km3":15.676,"heading_deg":172.07416800598563,"speed_ms":6.490520966232882,"peak_altitude_m":400.0,"u_ms":1.1502704771625414,"v_ms":-5.891866547588671}},{"type":"Feature","geometry":{"type":"Point","coordinates":[-85.5449,42.8939]},"properties":{"site":"KGRR","name":"Grand Rapids MI","scan_time":"2026-08-16T08:00:45Z","stale":false,"bins":25,"density_birds_km3":0.514,"heading_deg":20.956249050219046,"speed_ms":5.6611053315994795,"peak_altitude_m":200.0,"u_ms":2.185630689206762,"v_ms":4.655058517555267}},{"type":"Feature","geometry":{"type":"Point","coordinates":[-83.8217,39.4203]},"properties":{"site":"KILN","name":"Wilmington OH","scan_time":"2026-08-16T07:57:17Z","stale":false,"bins":25,"density_birds_km3":2.356666666666667,"heading_deg":87.07703162919907,"speed_ms":8.24647843942505,"peak_altitude_m":200.0,"u_ms":8.232525667351128,"v_ms":0.3310626283367556}},{"type":"Feature","geometry":{"type":"Point","coordinates":[-81.7019,30.4846]},"properties":{"site":"KJAX","name":"Jacksonville FL","scan_time":"2026-08-16T08:03:20Z","stale":false,"bins":25,"density_birds_km3":12.77625,"heading_deg":150.97738056626747,"speed_ms":7.139202622052637,"peak_altitude_m":0.0,"u_ms":3.3789017708639073,"v_ms":-6.220294491732706}},{"type":"Feature","geometry":{"type":"Point","coordinates":[-88.0847,41.6045]},"properties":{"site":"KLOT","name":"Chicago IL","scan_time":"2026-08-16T07:57:37Z","stale":false,"bins":25,"density_birds_km3":1.6366666666666665,"heading_deg":null,"speed_ms":null,"peak_altitude_m":800.0,"u_ms":null,"v_ms":null}},{"type":"Feature","geometry":{"type":"Point","coordinates":[-78.4292,33.9892]},"properties":{"site":"KLTX","name":"Wilmington NC","scan_time":"2026-08-16T08:02:04Z","stale":false,"bins":25,"density_birds_km3":16.7475,"heading_deg":233.18206464580112,"speed_ms":5.9253223393912196,"peak_altitude_m":0.0,"u_ms":-4.69485490987959,"v_ms":-3.550796873831426}},{"type":"Feature","geometry":{"type":"Point","coordinates":[-77.4778,38.9753]},"properties":{"site":"KLWX","name":"Sterling VA","scan_time":"2026-08-16T07:59:02Z","stale":false,"bins":25,"density_birds_km3":2.3725,"heading_deg":355.45427086859655,"speed_ms":5.63343708783962,"peak_altitude_m":0.0,"u_ms":-0.13428383012397785,"v_ms":5.457346346610393}},{"type":"Feature","geometry":{"type":"Point","coordinates":[-76.8762,34.7759]},"properties":{"site":"KMHX","name":"Morehead City NC","scan_time":"2026-08-16T07:59:10Z","stale":false,"bins":25,"density_birds_km3":4.43625,"heading_deg":259.51026430064803,"speed_ms":4.9939067342913495,"peak_altitude_m":200.0,"u_ms":-4.558217807833192,"v_ms":-0.9437912087912088}},{"type":"Feature","geometry":{"type":"Point","coordinates":[-80.6542,28.1133]},"properties":{"site":"KMLB","name":"Melbourne FL","scan_time":"2026-08-16T08:00:51Z","stale":false,"bins":25,"density_birds_km3":2.040625,"heading_deg":30.1947840742192,"speed_ms":3.1056600306278717,"peak_altitude_m":0.0,"u_ms":1.3738376722817764,"v_ms":2.6003736600306278}},{"type":"Feature","geometry":{"type":"Point","coordinates":[-86.5625,36.2472]},"properties":{"site":"KOHX","name":"Nashville TN","scan_time":"2026-08-16T08:01:23Z","stale":false,"bins":25,"density_birds_km3":11.201333333333334,"heading_deg":111.14305754878998,"speed_ms":4.306302225925485,"peak_altitude_m":200.0,"u_ms":3.794726818235924,"v_ms":-1.0857647899059635}},{"type":"Feature","geometry":{"type":"Point","coordinates":[-72.8639,40.8655]},"properties":{"site":"KOKX","name":"Upton NY","scan_time":"2026-08-16T07:57:07Z","stale":false,"bins":25,"density_birds_km3":1.4100000000000001,"heading_deg":213.0701006065009,"speed_ms":2.2045381165919284,"peak_altitude_m":0.0,"u_ms":-1.0470538116591928,"v_ms":-1.559255605381166}},{"type":"Feature","geometry":{"type":"Point","coordinates":[-80.2183,40.5317]},"properties":{"site":"KPBZ","name":"Pittsburgh PA","scan_time":"2026-08-16T08:01:40Z","stale":false,"bins":25,"density_birds_km3":4.9719999999999995,"heading_deg":null,"speed_ms":null,"peak_altitude_m":400.0,"u_ms":null,"v_ms":null}},{"type":"Feature","geometry":{"type":"Point","coordinates":[-78.4899,35.6655]},"properties":{"site":"KRAX","name":"Raleigh NC","scan_time":"2026-08-16T08:04:05Z","stale":false,"bins":25,"density_birds_km3":9.374375,"heading_deg":287.54916938726836,"speed_ms":5.617162135079163,"peak_altitude_m":200.0,"u_ms":-4.965258200280579,"v_ms":1.3733475850090187}},{"type":"Feature","geometry":{"type":"Point","coordinates":[-82.4017,27.7055]},"properties":{"site":"KTBW","name":"Tampa FL","scan_time":"2026-08-16T07:58:37Z","stale":false,"bins":25,"density_birds_km3":4.0043750000000005,"heading_deg":239.79463272523142,"speed_ms":3.3797268186075553,"peak_altitude_m":0.0,"u_ms":-2.4083749609740863,"v_ms":-1.8630736809241335}}]}