{"type":"FeatureCollection","frame":"2026-09-30T09","site_count":20,"fresh_count":20,"failures":{},"features":[{"type":"Feature","geometry":{"type":"Point","coordinates":[-77.0073,36.984]},"properties":{"site":"KAKQ","name":"Wakefield VA","scan_time":"2026-09-30T08:59:36Z","stale":false,"bins":25,"density_birds_km3":30.62125,"heading_deg":236.60836908849473,"speed_ms":6.153079560762542,"peak_altitude_m":200.0,"u_ms":-4.966703678001387,"v_ms":-3.2408013226109316}},{"type":"Feature","geometry":{"type":"Point","coordinates":[-71.1369,41.9558]},"properties":{"site":"KBOX","name":"Boston MA","scan_time":"2026-09-30T09:01:53Z","stale":false,"bins":25,"density_birds_km3":2.680625,"heading_deg":256.22812421288387,"speed_ms":1.9431716417910443,"peak_altitude_m":200.0,"u_ms":-1.2767397388059702,"v_ms":-0.15850279850746268}},{"type":"Feature","geometry":{"type":"Point","coordinates":[-78.7369,42.9489]},"properties":{"site":"KBUF","name":"Buffalo NY","scan_time":"2026-09-30T09:01:27Z","stale":false,"bins":25,"density_birds_km3":1.208,"heading_deg":76.82430732665176,"speed_ms":6.988995030369961,"peak_altitude_m":200.0,"u_ms":6.730889011595804,"v_ms":1.4219271120927663}},{"type":"Feature","geometry":{"type":"Point","coordinates":[-81.8597,41.4131]},"properties":{"site":"KCLE","name":"Cleveland OH","scan_time":"2026-09-30T09:03:02Z","stale":false,"bins":25,"density_birds_km3":1.9746666666666668,"heading_deg":50.68707290106647,"speed_ms":9.856576637407157,"peak_altitude_m":200.0,"u_ms":7.543156650911547,"v_ms":6.19415935178933}},{"type":"Feature","geometry":{"type":"Point","coordinates":[-81.0423,32.6555]},"properties":{"site":"KCLX","name":"Charleston SC","scan_time":"2026-09-30T09:01:22Z","stale":false,"bins":25,"density_birds_km3":7.420625,"heading_deg":260.76444297863935,"speed_ms":7.609495408979868,"peak_altitude_m":0.0,"u_ms":-5.956293488332913,"v_ms":-1.5258680818802122}},{"type":"Feature","geometry":{"type":"Point","coordinates":[-74.4108,39.947]},"properties":{"site":"KDIX","name":"Philadelphia PA","scan_time":"2026-09-30T08:57:39Z","stale":false,"bins":25,"density_birds_km3":23.015625,"heading_deg":205.11939599934905,"speed_ms":7.526429289225671,"peak_altitude_m":200.0,"u_ms":-3.1229826991498957,"v_ms":-6.632912626632987}},{"type":"Feature","geometry":{"type":"Point","coordinates":[-84.5658,33.3636]},"properties":{"site":"KFFC","name":"Atlanta GA","scan_time":"2026-09-30T09:02:19Z","stale":false,"bins":25,"density_birds_km3":6.914000000000001,"heading_deg":326.6139747544426,"speed_ms":7.510216049382716,"peak_altitude_m":200.0,"u_ms":-2.226856674382716,"v_ms":3.8319579475308636}},{"type":"Feature","geometry":{"type":"Point","coordinates":[-85.5449,42.8939]},"properties":{"site":"KGRR","name":"Grand Rapids MI","scan_time":"2026-09-30T08:57:24Z","stale":false,"bins":25,"density_birds_km3":0.37733333333333335,"heading_deg":42.592676486245594,"speed_ms":11.54600706713781,"peak_altitude_m":200.0,"u_ms":7.955583038869257,"v_ms":8.193957597173144}},{"type":"Feature","geometry":{"type":"Point","coordinates":[-83.8217,39.4203]},"properties":{"site":"KILN","name":"Wilmington OH","scan_time":"2026-09-30T08:59:11Z","stale":false,"bins":25,"density_birds_km3":7.29,"heading_deg":74.24627720187561,"speed_ms":10.247422718126943,"peak_altitude_m":400.0,"u_ms":6.777513261386501,"v_ms":1.5810801170660327}},{"type":"Feature","geometry":{"type":"Point","coordinates":[-81.7019,30.4846]},"properties":{"site":"KJAX","name":"Jacksonville FL","scan_time":"2026-09-30T09:01:50Z","stale":false,"bins":25,"density_birds_km3":12.440625,"heading_deg":262.8850414503062,"speed_ms":5.172803498718142,"peak_altitude_m":0.0,"u_ms":-2.810210124164279,"v_ms":-0.1645870406675716}},{"type":"Feature","geometry":{"type":"Point","coordinates":[-88.0847,41.6045]},"properties":{"site":"KLOT","name":"Chicago IL","scan_time":"2026-09-30T08:57:54Z","stale":false,"bins":25,"density_birds_km3":0.37266666666666665,"heading_deg":36.92731756184476,"speed_ms":12.341323792486584,"peak_altitude_m":200.0,"u_ms":7.424472271914133,"v_ms":9.573112701252237}},{"type":"Feature","geometry":{"type":"Point","coordinates":[-78.4292,33.9892]},"properties":{"site":"KLTX","name":"Wilmington NC","scan_time":"2026-09-30T09:02:09Z","stale":false,"bins":25,"density_birds_km3":7.830625,"heading_deg":198.9901580033696,"speed_ms":3.4283574223428888,"peak_altitude_m":0.0,"u_ms":-1.1991144294498124,"v_ms":-2.599112832388405}},{"type":"Feature","geometry":{"type":"Point","coordinates":[-77.4778,38.9753]},"properties":{"site":"KLWX","name":"Sterling VA","scan_time":"2026-09-30T08:57:49Z","stale":false,"bins":25,"density_birds_km3":15.030000000000001,"heading_deg":242.00209747533688,"speed_ms":5.769449434464405,"peak_altitude_m":200.0,"u_ms":-4.575151363938789,"v_ms":-3.074121340652029}},{"type":"Feature","geometry":{"type":"Point","coordinates":[-76.8762,34.7759]},"properties":{"site":"KMHX","name":"Morehead City NC","scan_time":"2026-09-30T08:58:12Z","stale":false,"bins":25,"density_birds_km3":2.16625,"heading_deg":169.91583527035604,"speed_ms":2.4809030582804383,"peak_altitude_m":0.0,"u_ms":-0.08839296018465083,"v_ms":-0.5155251009809579}},{"type":"Feature","geometry":{"type":"Point","coordinates":[-80.6542,28.1133]},"properties":{"site":"KMLB","name":"Melbourne FL","scan_time":"2026-09-30T09:00:51Z","stale":false,"bins":25,"density_birds_km3":10.684375,"heading_deg":170.52942860003247,"speed_ms":6.131094335205992,"peak_altitude_m":0.0,"u_ms":1.233798572097378,"v_ms":-5.844321161048689}},{"type":"Feature","geometry":{"type":"Point","coordinates":[-86.5625,36.2472]},"properties":{"site":"KOHX","name":"Nashville TN","scan_time":"2026-09-30T08:58:33Z","stale":false,"bins":25,"density_birds_km3":7.8373333333333335,"heading_deg":35.29662655151433,"speed_ms":8.484499744767739,"peak_altitude_m":200.0,"u_ms":4.618947592309001,"v_ms":6.454151778118087}},{"type":"Feature","geometry":{"type":"Point","coordinates":[-72.8639,40.8655]},"properties":{"site":"KOKX","name":"Upton NY","scan_time":"2026-09-30T09:00:20Z","stale":false,"bins":25,"density_birds_km3":5.71625,"heading_deg":221.63978390206086,"speed_ms":3.109061679790026,"peak_altitude_m":0.0,"u_ms":-1.8701487314085739,"v_ms":-2.341538713910761}},{"type":"Feature","geometry":{"type":"Point","coordinates":[-80.2183,40.5317]},"properties":{"site":"KPBZ","name":"Pittsburgh PA","scan_time":"2026-09-30T08:57:50Z","stale":false,"bins":25,"density_birds_km3":7.607857142857143,"heading_deg":50.45366932802939,"speed_ms":7.575723943661971,"peak_altitude_m":400.0,"u_ms":5.420930516431924,"v_ms":4.5801323943661965}},{"type":"Feature","geometry":{"type":"Point","coordinates":[-78.4899,35.6655]},"properties":{"site":"KRAX","name":"Raleigh NC","scan_time":"2026-09-30T08:59:37Z","stale":false,"bins":25,"density_birds_km3":8.280625,"heading_deg":181.72210691537643,"speed_ms":4.373047395517868,"peak_altitude_m":200.0,"u_ms":-0.8010470926711083,"v_ms":-3.907640823743185}},{"type":"Feature","geometry":{"type":"Point","coordinates":[-82.4017,27.7055]},"properties":{"site":"KTBW","name":"Tampa FL","scan_time":"2026-09-30T08:59:10Z","stale":false,"bins":25,"density_birds_km3":8.310625,"heading_deg":323.3719290735994,"speed_ms":4.40559383226777,"peak_altitude_m":0.0,"u_ms":-2.150040616773223,"v_ms":3.4494847687100414}}]}