{"type":"FeatureCollection","frame":"2026-08-13T04","site_count":20,"fresh_count":20,"failures":{},"features":[{"type":"Feature","geometry":{"type":"Point","coordinates":[-77.0073,36.984]},"properties":{"site":"KAKQ","name":"Wakefield VA","scan_time":"2026-08-13T04:02:11Z","stale":false,"bins":25,"density_birds_km3":4.405,"heading_deg":279.79140897748925,"speed_ms":2.1776995171826186,"peak_altitude_m":200.0,"u_ms":-0.4219199091167283,"v_ms":-0.19053819937517752}},{"type":"Feature","geometry":{"type":"Point","coordinates":[-71.1369,41.9558]},"properties":{"site":"KBOX","name":"Boston MA","scan_time":"2026-08-13T04:00:14Z","stale":false,"bins":25,"density_birds_km3":1.8900000000000001,"heading_deg":90.26547569812132,"speed_ms":4.602874627853126,"peak_altitude_m":0.0,"u_ms":4.313509758518029,"v_ms":-0.1522361892160105}},{"type":"Feature","geometry":{"type":"Point","coordinates":[-78.7369,42.9489]},"properties":{"site":"KBUF","name":"Buffalo NY","scan_time":"2026-08-13T04:02:23Z","stale":false,"bins":25,"density_birds_km3":1.2313333333333332,"heading_deg":99.38717467757712,"speed_ms":6.202127774769898,"peak_altitude_m":200.0,"u_ms":5.1915430427720635,"v_ms":-0.7662317271250678}},{"type":"Feature","geometry":{"type":"Point","coordinates":[-81.8597,41.4131]},"properties":{"site":"KCLE","name":"Cleveland OH","scan_time":"2026-08-13T04:01:36Z","stale":false,"bins":25,"density_birds_km3":0.7793333333333333,"heading_deg":89.95578603654432,"speed_ms":8.969785591766724,"peak_altitude_m":200.0,"u_ms":8.420111492281304,"v_ms":-0.054914236706689594}},{"type":"Feature","geometry":{"type":"Point","coordinates":[-81.0423,32.6555]},"properties":{"site":"KCLX","name":"Charleston SC","scan_time":"2026-08-13T04:02:35Z","stale":false,"bins":25,"density_birds_km3":4.7299999999999995,"heading_deg":141.48812641736612,"speed_ms":7.108043076109937,"peak_altitude_m":0.0,"u_ms":2.5312711416490488,"v_ms":-4.224170190274842}},{"type":"Feature","geometry":{"type":"Point","coordinates":[-74.4108,39.947]},"properties":{"site":"KDIX","name":"Philadelphia PA","scan_time":"2026-08-13T03:59:56Z","stale":false,"bins":25,"density_birds_km3":1.35875,"heading_deg":60.03165200493393,"speed_ms":7.387084292952556,"peak_altitude_m":200.0,"u_ms":5.781653615845232,"v_ms":3.8255780746199908}},{"type":"Feature","geometry":{"type":"Point","coordinates":[-84.5658,33.3636]},"properties":{"site":"KFFC","name":"Atlanta GA","scan_time":"2026-08-13T04:01:33Z","stale":false,"bins":25,"density_birds_km3":14.146666666666667,"heading_deg":139.06623473441235,"speed_ms":5.784401036757776,"peak_altitude_m":200.0,"u_ms":3.2817907634307257,"v_ms":-4.159400094250707}},{"type":"Feature","geometry":{"type":"Point","coordinates":[-85.5449,42.8939]},"properties":{"site":"KGRR","name":"Grand Rapids MI","scan_time":"2026-08-13T03:56:40Z","stale":false,"bins":25,"density_birds_km3":9.371333333333332,"heading_deg":189.6176752085071,"speed_ms":6.6426363117328,"peak_altitude_m":800.0,"u_ms":-1.4548479874393376,"v_ms":-5.433289323437053}},{"type":"Feature","geometry":{"type":"Point","coordinates":[-83.8217,39.4203]},"properties":{"site":"KILN","name":"Wilmington OH","scan_time":"2026-08-13T03:59:04Z","stale":false,"bins":25,"density_birds_km3":11.830666666666666,"heading_deg":234.938820109795,"speed_ms":6.638732108644202,"peak_altitude_m":200.0,"u_ms":-3.9793429505240616,"v_ms":-2.7699284345768067}},{"type":"Feature","geometry":{"type":"Point","coordinates":[-81.7019,30.4846]},"properties":{"site":"KJAX","name":"Jacksonville FL","scan_time":"2026-08-13T04:02:27Z","stale":false,"bins":25,"density_birds_km3":16.37,"heading_deg":141.91317377137446,"speed_ms":7.786950953341843,"peak_altitude_m":0.0,"u_ms":3.8376283819956347,"v_ms":-5.828932174772475}},{"type":"Feature","geometry":{"type":"Point","coordinates":[-88.0847,41.6045]},"properties":{"site":"KLOT","name":"Chicago IL","scan_time":"2026-08-13T03:56:50Z","stale":false,"bins":25,"density_birds_km3":8.080769230769231,"heading_deg":159.81026347774898,"speed_ms":5.452836489513337,"peak_altitude_m":400.0,"u_ms":0.29361128079820814,"v_ms":-4.072949501119934}},{"type":"Feature","geometry":{"type":"Point","coordinates":[-78.4292,33.9892]},"properties":{"site":"KLTX","name":"Wilmington NC","scan_time":"2026-08-13T04:01:02Z","stale":false,"bins":25,"density_birds_km3":23.285,"heading_deg":196.47794793175467,"speed_ms":5.932208473436449,"peak_altitude_m":200.0,"u_ms":-1.5793046402151982,"v_ms":-5.6658184263618026}},{"type":"Feature","geometry":{"type":"Point","coordinates":[-77.4778,38.9753]},"properties":{"site":"KLWX","name":"Sterling VA","scan_time":"2026-08-13T03:59:30Z","stale":false,"bins":25,"density_birds_km3":5.18875,"heading_deg":106.2402332777708,"speed_ms":4.4569047035766785,"peak_altitude_m":200.0,"u_ms":3.93422464478197,"v_ms":-1.2481381675649192}},{"type":"Feature","geometry":{"type":"Point","coordinates":[-76.8762,34.7759]},"properties":{"site":"KMHX","name":"Morehead City NC","scan_time":"2026-08-13T04:00:05Z","stale":false,"bins":25,"density_birds_km3":11.395,"heading_deg":183.1521491172351,"speed_ms":5.339284774023695,"peak_altitude_m":0.0,"u_ms":-0.11605748135147001,"v_ms":-4.896355309346205}},{"type":"Feature","geometry":{"type":"Point","coordinates":[-80.6542,28.1133]},"properties":{"site":"KMLB","name":"Melbourne FL","scan_time":"2026-08-13T04:02:19Z","stale":false,"bins":25,"density_birds_km3":5.275625,"heading_deg":89.3067488715566,"speed_ms":4.934348702145312,"peak_altitude_m":0.0,"u_ms":3.0369941922484296,"v_ms":-0.7299466635059854}},{"type":"Feature","geometry":{"type":"Point","coordinates":[-86.5625,36.2472]},"properties":{"site":"KOHX","name":"Nashville TN","scan_time":"2026-08-13T04:00:26Z","stale":false,"bins":25,"density_birds_km3":9.794666666666668,"heading_deg":73.06619836987979,"speed_ms":6.701656003267083,"peak_altitude_m":200.0,"u_ms":4.600259324802613,"v_ms":2.147410155186496}},{"type":"Feature","geometry":{"type":"Point","coordinates":[-72.8639,40.8655]},"properties":{"site":"KOKX","name":"Upton NY","scan_time":"2026-08-13T03:59:43Z","stale":false,"bins":25,"density_birds_km3":1.8887500000000002,"heading_deg":357.43763296109455,"speed_ms":7.157746525479814,"peak_altitude_m":0.0,"u_ms":-0.2024685638649901,"v_ms":6.823537392455327}},{"type":"Feature","geometry":{"type":"Point","coordinates":[-80.2183,40.5317]},"properties":{"site":"KPBZ","name":"Pittsburgh PA","scan_time":"2026-08-13T04:03:18Z","stale":false,"bins":25,"density_birds_km3":1.1528571428571428,"heading_deg":78.62585288995966,"speed_ms":7.821623296158612,"peak_altitude_m":400.0,"u_ms":6.787472118959107,"v_ms":0.7884572490706319}},{"type":"Feature","geometry":{"type":"Point","coordinates":[-78.4899,35.6655]},"properties":{"site":"KRAX","name":"Raleigh NC","scan_time":"2026-08-13T03:57:31Z","stale":false,"bins":25,"density_birds_km3":5.3531249999999995,"heading_deg":99.28822743236056,"speed_ms":5.166817116060961,"peak_altitude_m":0.0,"u_ms":1.9456424384525206,"v_ms":-1.8831652989449006}},{"type":"Feature","geometry":{"type":"Point","coordinates":[-82.4017,27.7055]},"properties":{"site":"KTBW","name":"Tampa FL","scan_time":"2026-08-13T04:03:14Z","stale":false,"bins":25,"density_birds_km3":3.648125,"heading_deg":108.57106227188653,"speed_ms":3.804788418708241,"peak_altitude_m":0.0,"u_ms":2.357925304094569,"v_ms":-1.3751379133116328}}]}