{"type":"FeatureCollection","frame":"2026-08-20T04","site_count":20,"fresh_count":20,"failures":{},"features":[{"type":"Feature","geometry":{"type":"Point","coordinates":[-77.0073,36.984]},"properties":{"site":"KAKQ","name":"Wakefield VA","scan_time":"2026-08-20T03:59:14Z","stale":false,"bins":25,"density_birds_km3":11.50375,"heading_deg":337.29762257638026,"speed_ms":6.2707993696337345,"peak_altitude_m":0.0,"u_ms":-1.731629714161504,"v_ms":4.949139767416585}},{"type":"Feature","geometry":{"type":"Point","coordinates":[-71.1369,41.9558]},"properties":{"site":"KBOX","name":"Boston MA","scan_time":"2026-08-20T03:59:23Z","stale":false,"bins":25,"density_birds_km3":1.644375,"heading_deg":69.19312785699152,"speed_ms":5.974545800076017,"peak_altitude_m":0.0,"u_ms":5.351493728620296,"v_ms":2.006195362979856}},{"type":"Feature","geometry":{"type":"Point","coordinates":[-78.7369,42.9489]},"properties":{"site":"KBUF","name":"Buffalo NY","scan_time":"2026-08-20T04:00:20Z","stale":false,"bins":25,"density_birds_km3":10.677999999999999,"heading_deg":182.72555554221506,"speed_ms":8.185977399013549,"peak_altitude_m":600.0,"u_ms":-0.7570175438596493,"v_ms":-7.67587563214085}},{"type":"Feature","geometry":{"type":"Point","coordinates":[-81.8597,41.4131]},"properties":{"site":"KCLE","name":"Cleveland OH","scan_time":"2026-08-20T04:00:12Z","stale":false,"bins":25,"density_birds_km3":2.957333333333333,"heading_deg":213.80082322026203,"speed_ms":2.175210918114144,"peak_altitude_m":400.0,"u_ms":-0.28874351454996616,"v_ms":-1.0668779607489285}},{"type":"Feature","geometry":{"type":"Point","coordinates":[-81.0423,32.6555]},"properties":{"site":"KCLX","name":"Charleston SC","scan_time":"2026-08-20T03:58:34Z","stale":false,"bins":25,"density_birds_km3":11.31375,"heading_deg":206.15640327432683,"speed_ms":3.7600950276243092,"peak_altitude_m":0.0,"u_ms":-1.185910497237569,"v_ms":-2.6147977900552486}},{"type":"Feature","geometry":{"type":"Point","coordinates":[-74.4108,39.947]},"properties":{"site":"KDIX","name":"Philadelphia PA","scan_time":"2026-08-20T03:58:02Z","stale":false,"bins":25,"density_birds_km3":2.595,"heading_deg":132.51722838387758,"speed_ms":6.195916646591183,"peak_altitude_m":0.0,"u_ms":4.306331004577211,"v_ms":-4.05932064562756}},{"type":"Feature","geometry":{"type":"Point","coordinates":[-84.5658,33.3636]},"properties":{"site":"KFFC","name":"Atlanta GA","scan_time":"2026-08-20T03:59:08Z","stale":false,"bins":25,"density_birds_km3":35.122,"heading_deg":243.36838369206458,"speed_ms":4.519224987187517,"peak_altitude_m":400.0,"u_ms":-2.9754300248657057,"v_ms":-2.130549702940227}},{"type":"Feature","geometry":{"type":"Point","coordinates":[-85.5449,42.8939]},"properties":{"site":"KGRR","name":"Grand Rapids MI","scan_time":"2026-08-20T03:57:50Z","stale":false,"bins":25,"density_birds_km3":33.49933333333333,"heading_deg":197.50689758638998,"speed_ms":9.861457541443611,"peak_altitude_m":400.0,"u_ms":-2.489097096459631,"v_ms":-9.39696053652809}},{"type":"Feature","geometry":{"type":"Point","coordinates":[-83.8217,39.4203]},"properties":{"site":"KILN","name":"Wilmington OH","scan_time":"2026-08-20T03:59:42Z","stale":false,"bins":25,"density_birds_km3":3.1453333333333333,"heading_deg":349.5774980152293,"speed_ms":7.339855718226183,"peak_altitude_m":400.0,"u_ms":-0.7672607680882664,"v_ms":6.284918311054531}},{"type":"Feature","geometry":{"type":"Point","coordinates":[-81.7019,30.4846]},"properties":{"site":"KJAX","name":"Jacksonville FL","scan_time":"2026-08-20T04:00:11Z","stale":false,"bins":25,"density_birds_km3":45.663125,"heading_deg":181.6033720202993,"speed_ms":6.862134178067517,"peak_altitude_m":400.0,"u_ms":-0.1382347810118447,"v_ms":-6.698251155388241}},{"type":"Feature","geometry":{"type":"Point","coordinates":[-88.0847,41.6045]},"properties":{"site":"KLOT","name":"Chicago IL","scan_time":"2026-08-20T04:00:14Z","stale":false,"bins":25,"density_birds_km3":9.757333333333333,"heading_deg":239.1184776015749,"speed_ms":8.113138152500682,"peak_altitude_m":400.0,"u_ms":-6.323603443563814,"v_ms":-3.903467477452856}},{"type":"Feature","geometry":{"type":"Point","coordinates":[-78.4292,33.9892]},"properties":{"site":"KLTX","name":"Wilmington NC","scan_time":"2026-08-20T03:57:53Z","stale":false,"bins":25,"density_birds_km3":10.443125,"heading_deg":287.9724873473601,"speed_ms":4.99381447034666,"peak_altitude_m":0.0,"u_ms":-3.535144341103998,"v_ms":0.13027358376615536}},{"type":"Feature","geometry":{"type":"Point","coordinates":[-77.4778,38.9753]},"properties":{"site":"KLWX","name":"Sterling VA","scan_time":"2026-08-20T03:58:19Z","stale":false,"bins":25,"density_birds_km3":9.21625,"heading_deg":203.68783683346103,"speed_ms":4.13757792433183,"peak_altitude_m":400.0,"u_ms":-1.6611773689691078,"v_ms":-3.229169038528289}},{"type":"Feature","geometry":{"type":"Point","coordinates":[-76.8762,34.7759]},"properties":{"site":"KMHX","name":"Morehead City NC","scan_time":"2026-08-20T04:02:59Z","stale":false,"bins":25,"density_birds_km3":4.665,"heading_deg":294.233537988315,"speed_ms":4.8249778434268835,"peak_altitude_m":0.0,"u_ms":-2.6540674096951795,"v_ms":1.2411816838995569}},{"type":"Feature","geometry":{"type":"Point","coordinates":[-80.6542,28.1133]},"properties":{"site":"KMLB","name":"Melbourne FL","scan_time":"2026-08-20T03:57:50Z","stale":false,"bins":25,"density_birds_km3":5.018125,"heading_deg":157.44990664465425,"speed_ms":7.205181218084443,"peak_altitude_m":0.0,"u_ms":2.777069373520986,"v_ms":-6.614988167891393}},{"type":"Feature","geometry":{"type":"Point","coordinates":[-86.5625,36.2472]},"properties":{"site":"KOHX","name":"Nashville TN","scan_time":"2026-08-20T04:01:08Z","stale":false,"bins":25,"density_birds_km3":12.338,"heading_deg":336.56218379419727,"speed_ms":5.932201329226779,"peak_altitude_m":200.0,"u_ms":-1.3794558815583293,"v_ms":4.844551791214135}},{"type":"Feature","geometry":{"type":"Point","coordinates":[-72.8639,40.8655]},"properties":{"site":"KOKX","name":"Upton NY","scan_time":"2026-08-20T03:59:23Z","stale":false,"bins":25,"density_birds_km3":2.1393333333333335,"heading_deg":59.861158800876304,"speed_ms":7.063579853363085,"peak_altitude_m":0.0,"u_ms":5.801625757092764,"v_ms":3.356554032515142}},{"type":"Feature","geometry":{"type":"Point","coordinates":[-80.2183,40.5317]},"properties":{"site":"KPBZ","name":"Pittsburgh PA","scan_time":"2026-08-20T03:59:31Z","stale":false,"bins":25,"density_birds_km3":2.2192857142857143,"heading_deg":50.18957653884239,"speed_ms":5.772616672030898,"peak_altitude_m":400.0,"u_ms":4.195732217573222,"v_ms":3.424711940778886}},{"type":"Feature","geometry":{"type":"Point","coordinates":[-78.4899,35.6655]},"properties":{"site":"KRAX","name":"Raleigh NC","scan_time":"2026-08-20T04:01:01Z","stale":false,"bins":25,"density_birds_km3":9.666875000000001,"heading_deg":239.5915646988381,"speed_ms":2.170205665759968,"peak_altitude_m":200.0,"u_ms":-1.4003151330193062,"v_ms":-0.4381828434949911}},{"type":"Feature","geometry":{"type":"Point","coordinates":[-82.4017,27.7055]},"properties":{"site":"KTBW","name":"Tampa FL","scan_time":"2026-08-20T04:01:06Z","stale":false,"bins":25,"density_birds_km3":4.96125,"heading_deg":194.20713433260826,"speed_ms":6.346460065507685,"peak_altitude_m":0.0,"u_ms":-0.9813857394809776,"v_ms":-6.183575207860923}}]}