{"type":"FeatureCollection","frame":"2026-08-20T01","site_count":20,"fresh_count":20,"failures":{},"features":[{"type":"Feature","geometry":{"type":"Point","coordinates":[-77.0073,36.984]},"properties":{"site":"KAKQ","name":"Wakefield VA","scan_time":"2026-08-20T01:02:48Z","stale":false,"bins":25,"density_birds_km3":13.954374999999999,"heading_deg":193.65830222847953,"speed_ms":3.667899829764358,"peak_altitude_m":200.0,"u_ms":-0.3290417525311352,"v_ms":-2.6557629244691334}},{"type":"Feature","geometry":{"type":"Point","coordinates":[-71.1369,41.9558]},"properties":{"site":"KBOX","name":"Boston MA","scan_time":"2026-08-20T01:00:43Z","stale":false,"bins":25,"density_birds_km3":1.60875,"heading_deg":62.392044893509386,"speed_ms":6.8692247454972595,"peak_altitude_m":0.0,"u_ms":5.766613155833985,"v_ms":2.895649960845732}},{"type":"Feature","geometry":{"type":"Point","coordinates":[-78.7369,42.9489]},"properties":{"site":"KBUF","name":"Buffalo NY","scan_time":"2026-08-20T01:00:46Z","stale":false,"bins":25,"density_birds_km3":2.1599999999999997,"heading_deg":83.40587713531684,"speed_ms":7.172371553884711,"peak_altitude_m":200.0,"u_ms":6.821463032581453,"v_ms":1.0883051378446116}},{"type":"Feature","geometry":{"type":"Point","coordinates":[-81.8597,41.4131]},"properties":{"site":"KCLE","name":"Cleveland OH","scan_time":"2026-08-20T00:59:37Z","stale":false,"bins":25,"density_birds_km3":5.664666666666666,"heading_deg":187.36510300595336,"speed_ms":2.4377333176415203,"peak_altitude_m":200.0,"u_ms":-0.33166882429092626,"v_ms":-2.1632493821348713}},{"type":"Feature","geometry":{"type":"Point","coordinates":[-81.0423,32.6555]},"properties":{"site":"KCLX","name":"Charleston SC","scan_time":"2026-08-20T00:59:51Z","stale":false,"bins":25,"density_birds_km3":18.769375,"heading_deg":249.13289982093494,"speed_ms":5.9194241502623575,"peak_altitude_m":0.0,"u_ms":-5.057035192674042,"v_ms":-1.8123003910297115}},{"type":"Feature","geometry":{"type":"Point","coordinates":[-74.4108,39.947]},"properties":{"site":"KDIX","name":"Philadelphia PA","scan_time":"2026-08-20T01:02:30Z","stale":false,"bins":25,"density_birds_km3":7.29875,"heading_deg":150.04881997729944,"speed_ms":6.4043409893992935,"peak_altitude_m":200.0,"u_ms":3.1386528268551235,"v_ms":-5.452701413427562}},{"type":"Feature","geometry":{"type":"Point","coordinates":[-84.5658,33.3636]},"properties":{"site":"KFFC","name":"Atlanta GA","scan_time":"2026-08-20T00:59:25Z","stale":false,"bins":25,"density_birds_km3":18.994000000000003,"heading_deg":216.0966428875387,"speed_ms":4.8198136253553745,"peak_altitude_m":600.0,"u_ms":-2.235461022779123,"v_ms":-3.4631602962338985}},{"type":"Feature","geometry":{"type":"Point","coordinates":[-85.5449,42.8939]},"properties":{"site":"KGRR","name":"Grand Rapids MI","scan_time":"2026-08-20T01:01:12Z","stale":false,"bins":25,"density_birds_km3":1.976,"heading_deg":152.70150649291224,"speed_ms":4.812850877192982,"peak_altitude_m":200.0,"u_ms":2.239261133603239,"v_ms":-4.13114709851552}},{"type":"Feature","geometry":{"type":"Point","coordinates":[-83.8217,39.4203]},"properties":{"site":"KILN","name":"Wilmington OH","scan_time":"2026-08-20T01:01:22Z","stale":false,"bins":25,"density_birds_km3":2.5206666666666666,"heading_deg":332.19287305411984,"speed_ms":4.8062274805055125,"peak_altitude_m":200.0,"u_ms":-2.0535977413283146,"v_ms":4.149817155149234}},{"type":"Feature","geometry":{"type":"Point","coordinates":[-81.7019,30.4846]},"properties":{"site":"KJAX","name":"Jacksonville FL","scan_time":"2026-08-20T00:57:46Z","stale":false,"bins":25,"density_birds_km3":39.921875,"heading_deg":135.21465004076524,"speed_ms":4.805690357784225,"peak_altitude_m":0.0,"u_ms":1.2403753971543032,"v_ms":-2.9991316134825254}},{"type":"Feature","geometry":{"type":"Point","coordinates":[-88.0847,41.6045]},"properties":{"site":"KLOT","name":"Chicago IL","scan_time":"2026-08-20T01:00:49Z","stale":false,"bins":25,"density_birds_km3":3.8013333333333335,"heading_deg":237.98153454462212,"speed_ms":7.622545325275507,"peak_altitude_m":200.0,"u_ms":-6.437627088517598,"v_ms":-3.997733736224671}},{"type":"Feature","geometry":{"type":"Point","coordinates":[-78.4292,33.9892]},"properties":{"site":"KLTX","name":"Wilmington NC","scan_time":"2026-08-20T01:00:21Z","stale":false,"bins":25,"density_birds_km3":18.928125,"heading_deg":286.58968320524684,"speed_ms":4.794751074380166,"peak_altitude_m":0.0,"u_ms":-3.4287821487603307,"v_ms":0.5517352066115702}},{"type":"Feature","geometry":{"type":"Point","coordinates":[-77.4778,38.9753]},"properties":{"site":"KLWX","name":"Sterling VA","scan_time":"2026-08-20T01:02:16Z","stale":false,"bins":25,"density_birds_km3":16.48357142857143,"heading_deg":120.00492593814532,"speed_ms":3.2731880826011333,"peak_altitude_m":0.0,"u_ms":2.5359836760180188,"v_ms":-1.75887159359529}},{"type":"Feature","geometry":{"type":"Point","coordinates":[-76.8762,34.7759]},"properties":{"site":"KMHX","name":"Morehead City NC","scan_time":"2026-08-20T01:00:31Z","stale":false,"bins":25,"density_birds_km3":15.98125,"heading_deg":271.71203353955417,"speed_ms":4.597306262958182,"peak_altitude_m":200.0,"u_ms":-3.6426487501466966,"v_ms":-0.008339005594022607}},{"type":"Feature","geometry":{"type":"Point","coordinates":[-80.6542,28.1133]},"properties":{"site":"KMLB","name":"Melbourne FL","scan_time":"2026-08-20T00:58:36Z","stale":false,"bins":25,"density_birds_km3":4.5375000000000005,"heading_deg":67.16627396596817,"speed_ms":4.429472451790633,"peak_altitude_m":0.0,"u_ms":3.7963870523415975,"v_ms":1.724539944903581}},{"type":"Feature","geometry":{"type":"Point","coordinates":[-86.5625,36.2472]},"properties":{"site":"KOHX","name":"Nashville TN","scan_time":"2026-08-20T01:02:47Z","stale":false,"bins":25,"density_birds_km3":15.349333333333334,"heading_deg":336.50506149836656,"speed_ms":7.476561414176512,"peak_altitude_m":200.0,"u_ms":-2.7926381167477414,"v_ms":6.439986970118137}},{"type":"Feature","geometry":{"type":"Point","coordinates":[-72.8639,40.8655]},"properties":{"site":"KOKX","name":"Upton NY","scan_time":"2026-08-20T00:57:44Z","stale":false,"bins":25,"density_birds_km3":2.09875,"heading_deg":57.68792732622505,"speed_ms":6.385439024390244,"peak_altitude_m":0.0,"u_ms":4.583411585365854,"v_ms":2.8036341463414636}},{"type":"Feature","geometry":{"type":"Point","coordinates":[-80.2183,40.5317]},"properties":{"site":"KPBZ","name":"Pittsburgh PA","scan_time":"2026-08-20T00:58:56Z","stale":false,"bins":25,"density_birds_km3":1.0885714285714285,"heading_deg":57.231591850168,"speed_ms":5.9408929743926455,"peak_altitude_m":400.0,"u_ms":4.869054497701905,"v_ms":3.1350820748522654}},{"type":"Feature","geometry":{"type":"Point","coordinates":[-78.4899,35.6655]},"properties":{"site":"KRAX","name":"Raleigh NC","scan_time":"2026-08-20T00:55:54Z","stale":false,"bins":25,"density_birds_km3":13.03,"heading_deg":164.90677204771984,"speed_ms":4.089576000773545,"peak_altitude_m":0.0,"u_ms":1.0821997679365694,"v_ms":-3.8601842003480953}},{"type":"Feature","geometry":{"type":"Point","coordinates":[-82.4017,27.7055]},"properties":{"site":"KTBW","name":"Tampa FL","scan_time":"2026-08-20T01:00:29Z","stale":false,"bins":25,"density_birds_km3":11.799999999999999,"heading_deg":133.3255642861173,"speed_ms":8.009725105932203,"peak_altitude_m":0.0,"u_ms":5.6406016949152535,"v_ms":-5.412524894067797}}]}