{"type":"FeatureCollection","frame":"2026-08-28T12","site_count":20,"fresh_count":20,"failures":{},"features":[{"type":"Feature","geometry":{"type":"Point","coordinates":[-77.0073,36.984]},"properties":{"site":"KAKQ","name":"Wakefield VA","scan_time":"2026-08-28T11:56:14Z","stale":false,"bins":25,"density_birds_km3":0.779375,"heading_deg":52.04473259943814,"speed_ms":3.094939855653568,"peak_altitude_m":0.0,"u_ms":1.7585004009623095,"v_ms":1.3671291098636729}},{"type":"Feature","geometry":{"type":"Point","coordinates":[-71.1369,41.9558]},"properties":{"site":"KBOX","name":"Boston MA","scan_time":"2026-08-28T12:01:13Z","stale":false,"bins":25,"density_birds_km3":1.4181249999999999,"heading_deg":352.41051248326096,"speed_ms":2.8540441501103753,"peak_altitude_m":0.0,"u_ms":-0.42563796909492274,"v_ms":2.756719646799117}},{"type":"Feature","geometry":{"type":"Point","coordinates":[-78.7369,42.9489]},"properties":{"site":"KBUF","name":"Buffalo NY","scan_time":"2026-08-28T11:59:38Z","stale":false,"bins":25,"density_birds_km3":1.9773333333333334,"heading_deg":163.16627847872016,"speed_ms":6.952390424814565,"peak_altitude_m":200.0,"u_ms":1.8195650708024276,"v_ms":-6.427832097100471}},{"type":"Feature","geometry":{"type":"Point","coordinates":[-81.8597,41.4131]},"properties":{"site":"KCLE","name":"Cleveland OH","scan_time":"2026-08-28T12:01:02Z","stale":false,"bins":25,"density_birds_km3":3.360666666666667,"heading_deg":208.77302749559422,"speed_ms":8.199926558158,"peak_altitude_m":200.0,"u_ms":-3.9657820563715758,"v_ms":-7.15016474791584}},{"type":"Feature","geometry":{"type":"Point","coordinates":[-81.0423,32.6555]},"properties":{"site":"KCLX","name":"Charleston SC","scan_time":"2026-08-28T12:02:49Z","stale":false,"bins":25,"density_birds_km3":0.35625,"heading_deg":64.3,"speed_ms":4.52,"peak_altitude_m":0.0,"u_ms":4.07,"v_ms":1.96}},{"type":"Feature","geometry":{"type":"Point","coordinates":[-74.4108,39.947]},"properties":{"site":"KDIX","name":"Philadelphia PA","scan_time":"2026-08-28T12:02:18Z","stale":false,"bins":25,"density_birds_km3":0.534375,"heading_deg":204.95645474458843,"speed_ms":2.974982456140351,"peak_altitude_m":200.0,"u_ms":-1.1499298245614034,"v_ms":-2.4118362573099414}},{"type":"Feature","geometry":{"type":"Point","coordinates":[-84.5658,33.3636]},"properties":{"site":"KFFC","name":"Atlanta GA","scan_time":"2026-08-28T11:59:36Z","stale":false,"bins":25,"density_birds_km3":9.860000000000001,"heading_deg":202.6694357050767,"speed_ms":5.571961460446247,"peak_altitude_m":400.0,"u_ms":-1.9990473292765383,"v_ms":-5.056872887085869}},{"type":"Feature","geometry":{"type":"Point","coordinates":[-85.5449,42.8939]},"properties":{"site":"KGRR","name":"Grand Rapids MI","scan_time":"2026-08-28T11:57:56Z","stale":false,"bins":25,"density_birds_km3":1.672,"heading_deg":287.5145753597753,"speed_ms":7.119369261477046,"peak_altitude_m":200.0,"u_ms":-6.7329500998004,"v_ms":2.193205588822355}},{"type":"Feature","geometry":{"type":"Point","coordinates":[-83.8217,39.4203]},"properties":{"site":"KILN","name":"Wilmington OH","scan_time":"2026-08-28T11:56:40Z","stale":false,"bins":25,"density_birds_km3":4.1146666666666665,"heading_deg":199.33417582570834,"speed_ms":8.02550874918989,"peak_altitude_m":200.0,"u_ms":-2.644199611147116,"v_ms":-7.549654893065457}},{"type":"Feature","geometry":{"type":"Point","coordinates":[-81.7019,30.4846]},"properties":{"site":"KJAX","name":"Jacksonville FL","scan_time":"2026-08-28T11:58:43Z","stale":false,"bins":25,"density_birds_km3":0.57,"heading_deg":25.05568773770229,"speed_ms":5.9895676274944565,"peak_altitude_m":0.0,"u_ms":2.553181818181818,"v_ms":5.368281596452328}},{"type":"Feature","geometry":{"type":"Point","coordinates":[-88.0847,41.6045]},"properties":{"site":"KLOT","name":"Chicago IL","scan_time":"2026-08-28T12:02:05Z","stale":false,"bins":25,"density_birds_km3":1.508,"heading_deg":314.67653763585355,"speed_ms":4.078650088809947,"peak_altitude_m":200.0,"u_ms":-2.8740230905861455,"v_ms":2.8148490230905865}},{"type":"Feature","geometry":{"type":"Point","coordinates":[-78.4292,33.9892]},"properties":{"site":"KLTX","name":"Wilmington NC","scan_time":"2026-08-28T11:59:26Z","stale":false,"bins":25,"density_birds_km3":0.44125,"heading_deg":102.68194678677817,"speed_ms":5.328016997167139,"peak_altitude_m":200.0,"u_ms":5.187549575070822,"v_ms":-1.086756373937677}},{"type":"Feature","geometry":{"type":"Point","coordinates":[-77.4778,38.9753]},"properties":{"site":"KLWX","name":"Sterling VA","scan_time":"2026-08-28T12:01:14Z","stale":false,"bins":25,"density_birds_km3":3.330625,"heading_deg":186.99535056858318,"speed_ms":7.581542792792792,"peak_altitude_m":400.0,"u_ms":-0.8514339339339339,"v_ms":-7.508693693693694}},{"type":"Feature","geometry":{"type":"Point","coordinates":[-76.8762,34.7759]},"properties":{"site":"KMHX","name":"Morehead City NC","scan_time":"2026-08-28T12:01:33Z","stale":false,"bins":25,"density_birds_km3":0.075,"heading_deg":71.56508316774972,"speed_ms":4.738333333333333,"peak_altitude_m":0.0,"u_ms":4.4243749999999995,"v_ms":1.4758333333333333}},{"type":"Feature","geometry":{"type":"Point","coordinates":[-80.6542,28.1133]},"properties":{"site":"KMLB","name":"Melbourne FL","scan_time":"2026-08-28T12:00:31Z","stale":false,"bins":25,"density_birds_km3":1.77375,"heading_deg":352.5840722991945,"speed_ms":2.0235130373502463,"peak_altitude_m":200.0,"u_ms":-0.2400493305144468,"v_ms":1.9673960535588446}},{"type":"Feature","geometry":{"type":"Point","coordinates":[-86.5625,36.2472]},"properties":{"site":"KOHX","name":"Nashville TN","scan_time":"2026-08-28T11:59:23Z","stale":false,"bins":25,"density_birds_km3":12.596666666666666,"heading_deg":209.2772318013412,"speed_ms":8.388779325319069,"peak_altitude_m":400.0,"u_ms":-4.147913467139755,"v_ms":-7.226807710639199}},{"type":"Feature","geometry":{"type":"Point","coordinates":[-72.8639,40.8655]},"properties":{"site":"KOKX","name":"Upton NY","scan_time":"2026-08-28T11:59:34Z","stale":false,"bins":25,"density_birds_km3":0.36250000000000004,"heading_deg":325.95102567018483,"speed_ms":2.34209705372617,"peak_altitude_m":0.0,"u_ms":-1.3833102253032927,"v_ms":1.8138648180242636}},{"type":"Feature","geometry":{"type":"Point","coordinates":[-80.2183,40.5317]},"properties":{"site":"KPBZ","name":"Pittsburgh PA","scan_time":"2026-08-28T11:58:00Z","stale":false,"bins":25,"density_birds_km3":5.614285714285715,"heading_deg":188.69395289028546,"speed_ms":8.364127751622343,"peak_altitude_m":400.0,"u_ms":-1.2959816770581498,"v_ms":-8.191197353352845}},{"type":"Feature","geometry":{"type":"Point","coordinates":[-78.4899,35.6655]},"properties":{"site":"KRAX","name":"Raleigh NC","scan_time":"2026-08-28T12:00:55Z","stale":false,"bins":25,"density_birds_km3":0.15,"heading_deg":62.22145186093631,"speed_ms":2.9267916666666665,"peak_altitude_m":0.0,"u_ms":2.1930833333333335,"v_ms":0.8599583333333333}},{"type":"Feature","geometry":{"type":"Point","coordinates":[-82.4017,27.7055]},"properties":{"site":"KTBW","name":"Tampa FL","scan_time":"2026-08-28T12:00:08Z","stale":false,"bins":25,"density_birds_km3":0.585,"heading_deg":340.024826606437,"speed_ms":5.35741452991453,"peak_altitude_m":0.0,"u_ms":-1.8206944444444448,"v_ms":4.8212179487179485}}]}