{"type":"FeatureCollection","frame":"2026-09-06T12","site_count":20,"fresh_count":20,"failures":{},"features":[{"type":"Feature","geometry":{"type":"Point","coordinates":[-77.0073,36.984]},"properties":{"site":"KAKQ","name":"Wakefield VA","scan_time":"2026-09-06T11:59:31Z","stale":false,"bins":25,"density_birds_km3":14.448125,"heading_deg":227.3648211353411,"speed_ms":8.09867864462954,"peak_altitude_m":200.0,"u_ms":-5.940524181239371,"v_ms":-5.458143125027255}},{"type":"Feature","geometry":{"type":"Point","coordinates":[-71.1369,41.9558]},"properties":{"site":"KBOX","name":"Boston MA","scan_time":"2026-09-06T11:59:06Z","stale":false,"bins":25,"density_birds_km3":5.115,"heading_deg":176.7,"speed_ms":4.1,"peak_altitude_m":200.0,"u_ms":0.23,"v_ms":-4.1}},{"type":"Feature","geometry":{"type":"Point","coordinates":[-78.7369,42.9489]},"properties":{"site":"KBUF","name":"Buffalo NY","scan_time":"2026-09-06T11:57:15Z","stale":false,"bins":25,"density_birds_km3":1.3573333333333333,"heading_deg":232.6750832120685,"speed_ms":6.780132612966601,"peak_altitude_m":200.0,"u_ms":-5.367897838899804,"v_ms":-4.022116895874263}},{"type":"Feature","geometry":{"type":"Point","coordinates":[-81.8597,41.4131]},"properties":{"site":"KCLE","name":"Cleveland OH","scan_time":"2026-09-06T12:00:40Z","stale":false,"bins":25,"density_birds_km3":2.1526666666666667,"heading_deg":228.3797140797625,"speed_ms":6.52460055952751,"peak_altitude_m":200.0,"u_ms":-4.8494156046005585,"v_ms":-4.3484333229717125}},{"type":"Feature","geometry":{"type":"Point","coordinates":[-81.0423,32.6555]},"properties":{"site":"KCLX","name":"Charleston SC","scan_time":"2026-09-06T12:00:18Z","stale":false,"bins":25,"density_birds_km3":5.635625,"heading_deg":186.23421711308632,"speed_ms":5.142039298401421,"peak_altitude_m":200.0,"u_ms":-0.2888188277087034,"v_ms":-4.787708703374778}},{"type":"Feature","geometry":{"type":"Point","coordinates":[-74.4108,39.947]},"properties":{"site":"KDIX","name":"Philadelphia PA","scan_time":"2026-09-06T11:59:34Z","stale":false,"bins":25,"density_birds_km3":4.768125,"heading_deg":223.93549067639464,"speed_ms":8.145906058179877,"peak_altitude_m":400.0,"u_ms":-5.639300773952495,"v_ms":-5.863002401921538}},{"type":"Feature","geometry":{"type":"Point","coordinates":[-84.5658,33.3636]},"properties":{"site":"KFFC","name":"Atlanta GA","scan_time":"2026-09-06T12:00:21Z","stale":false,"bins":25,"density_birds_km3":9.075999999999999,"heading_deg":189.7638512814345,"speed_ms":7.531375257126066,"peak_altitude_m":400.0,"u_ms":-1.1300323244196298,"v_ms":-7.396079929473992}},{"type":"Feature","geometry":{"type":"Point","coordinates":[-85.5449,42.8939]},"properties":{"site":"KGRR","name":"Grand Rapids MI","scan_time":"2026-09-06T11:57:57Z","stale":false,"bins":25,"density_birds_km3":2.7760000000000002,"heading_deg":238.16435923640904,"speed_ms":8.330773480662984,"peak_altitude_m":200.0,"u_ms":-6.363725678597165,"v_ms":-4.591748738890224}},{"type":"Feature","geometry":{"type":"Point","coordinates":[-83.8217,39.4203]},"properties":{"site":"KILN","name":"Wilmington OH","scan_time":"2026-09-06T11:57:42Z","stale":false,"bins":25,"density_birds_km3":20.563333333333333,"heading_deg":216.84367200129216,"speed_ms":11.78990692632602,"peak_altitude_m":400.0,"u_ms":-7.170370425746646,"v_ms":-9.16472956303966}},{"type":"Feature","geometry":{"type":"Point","coordinates":[-81.7019,30.4846]},"properties":{"site":"KJAX","name":"Jacksonville FL","scan_time":"2026-09-06T12:00:50Z","stale":false,"bins":25,"density_birds_km3":7.5600000000000005,"heading_deg":157.9702122682973,"speed_ms":8.322065145502645,"peak_altitude_m":200.0,"u_ms":3.0243427579365076,"v_ms":-7.725404265873016}},{"type":"Feature","geometry":{"type":"Point","coordinates":[-88.0847,41.6045]},"properties":{"site":"KLOT","name":"Chicago IL","scan_time":"2026-09-06T12:00:42Z","stale":false,"bins":25,"density_birds_km3":7.5440000000000005,"heading_deg":223.99182704797263,"speed_ms":8.871445740544361,"peak_altitude_m":200.0,"u_ms":-6.065911983032874,"v_ms":-6.366963591375043}},{"type":"Feature","geometry":{"type":"Point","coordinates":[-78.4292,33.9892]},"properties":{"site":"KLTX","name":"Wilmington NC","scan_time":"2026-09-06T12:01:27Z","stale":false,"bins":25,"density_birds_km3":7.353125,"heading_deg":222.19493162986186,"speed_ms":7.013827580343479,"peak_altitude_m":0.0,"u_ms":-4.733869239925182,"v_ms":-5.032227512327835}},{"type":"Feature","geometry":{"type":"Point","coordinates":[-77.4778,38.9753]},"properties":{"site":"KLWX","name":"Sterling VA","scan_time":"2026-09-06T11:57:50Z","stale":false,"bins":25,"density_birds_km3":11.69625,"heading_deg":201.76920721361688,"speed_ms":9.484820499308345,"peak_altitude_m":200.0,"u_ms":-3.5259357091100716,"v_ms":-8.595401488702983}},{"type":"Feature","geometry":{"type":"Point","coordinates":[-76.8762,34.7759]},"properties":{"site":"KMHX","name":"Morehead City NC","scan_time":"2026-09-06T11:59:03Z","stale":false,"bins":25,"density_birds_km3":15.401875,"heading_deg":204.3415253389294,"speed_ms":7.153164387452826,"peak_altitude_m":0.0,"u_ms":-2.3718272937548184,"v_ms":-6.212283812847462}},{"type":"Feature","geometry":{"type":"Point","coordinates":[-80.6542,28.1133]},"properties":{"site":"KMLB","name":"Melbourne FL","scan_time":"2026-09-06T11:58:59Z","stale":false,"bins":25,"density_birds_km3":2.74625,"heading_deg":156.6445683842451,"speed_ms":8.320641784251253,"peak_altitude_m":0.0,"u_ms":3.2899294492489757,"v_ms":-7.634783796085571}},{"type":"Feature","geometry":{"type":"Point","coordinates":[-86.5625,36.2472]},"properties":{"site":"KOHX","name":"Nashville TN","scan_time":"2026-09-06T12:00:22Z","stale":false,"bins":25,"density_birds_km3":9.060666666666666,"heading_deg":134.93766648581652,"speed_ms":7.738212970616968,"peak_altitude_m":200.0,"u_ms":5.514561508980236,"v_ms":-4.53209664086571}},{"type":"Feature","geometry":{"type":"Point","coordinates":[-72.8639,40.8655]},"properties":{"site":"KOKX","name":"Upton NY","scan_time":"2026-09-06T11:58:42Z","stale":false,"bins":25,"density_birds_km3":5.12875,"heading_deg":244.4075293528564,"speed_ms":5.6571163924436325,"peak_altitude_m":0.0,"u_ms":-5.063779402803169,"v_ms":-2.422085313833029}},{"type":"Feature","geometry":{"type":"Point","coordinates":[-80.2183,40.5317]},"properties":{"site":"KPBZ","name":"Pittsburgh PA","scan_time":"2026-09-06T11:56:57Z","stale":false,"bins":25,"density_birds_km3":7.621428571428572,"heading_deg":235.90251442659542,"speed_ms":9.548841028528528,"peak_altitude_m":600.0,"u_ms":-7.883144707207207,"v_ms":-5.029373123123124}},{"type":"Feature","geometry":{"type":"Point","coordinates":[-78.4899,35.6655]},"properties":{"site":"KRAX","name":"Raleigh NC","scan_time":"2026-09-06T11:57:12Z","stale":false,"bins":25,"density_birds_km3":17.79375,"heading_deg":227.41917406996046,"speed_ms":8.734644030277064,"peak_altitude_m":400.0,"u_ms":-6.409419808626107,"v_ms":-5.858401528134819}},{"type":"Feature","geometry":{"type":"Point","coordinates":[-82.4017,27.7055]},"properties":{"site":"KTBW","name":"Tampa FL","scan_time":"2026-09-06T12:02:51Z","stale":false,"bins":25,"density_birds_km3":1.8175,"heading_deg":182.0767008077788,"speed_ms":4.686585281980743,"peak_altitude_m":0.0,"u_ms":1.2329057771664373,"v_ms":-4.251492434662999}}]}