{"type":"FeatureCollection","frame":"2026-10-04T11","site_count":20,"fresh_count":20,"failures":{},"features":[{"type":"Feature","geometry":{"type":"Point","coordinates":[-77.0073,36.984]},"properties":{"site":"KAKQ","name":"Wakefield VA","scan_time":"2026-10-04T10:57:43Z","stale":false,"bins":25,"density_birds_km3":0.00875,"heading_deg":228.17506330849494,"speed_ms":3.261428571428571,"peak_altitude_m":200.0,"u_ms":-1.7814285714285711,"v_ms":-1.8328571428571427}},{"type":"Feature","geometry":{"type":"Point","coordinates":[-71.1369,41.9558]},"properties":{"site":"KBOX","name":"Boston MA","scan_time":"2026-10-04T11:02:16Z","stale":false,"bins":25,"density_birds_km3":5.23,"heading_deg":218.9063878561103,"speed_ms":8.648853967495219,"peak_altitude_m":0.0,"u_ms":-5.436154397705545,"v_ms":-6.670335803059272}},{"type":"Feature","geometry":{"type":"Point","coordinates":[-78.7369,42.9489]},"properties":{"site":"KBUF","name":"Buffalo NY","scan_time":"2026-10-04T11:00:51Z","stale":false,"bins":25,"density_birds_km3":0.33999999999999997,"heading_deg":10.95815244429273,"speed_ms":7.270705882352941,"peak_altitude_m":200.0,"u_ms":0.9798431372549021,"v_ms":7.0033529411764714}},{"type":"Feature","geometry":{"type":"Point","coordinates":[-81.8597,41.4131]},"properties":{"site":"KCLE","name":"Cleveland OH","scan_time":"2026-10-04T10:59:14Z","stale":false,"bins":25,"density_birds_km3":0.43666666666666665,"heading_deg":136.5197806981747,"speed_ms":4.267339449541285,"peak_altitude_m":200.0,"u_ms":2.9334097859327217,"v_ms":-3.0933944954128436}},{"type":"Feature","geometry":{"type":"Point","coordinates":[-81.0423,32.6555]},"properties":{"site":"KCLX","name":"Charleston SC","scan_time":"2026-10-04T10:58:15Z","stale":false,"bins":25,"density_birds_km3":0.8474999999999999,"heading_deg":117.0,"speed_ms":6.02,"peak_altitude_m":200.0,"u_ms":5.36,"v_ms":-2.73}},{"type":"Feature","geometry":{"type":"Point","coordinates":[-74.4108,39.947]},"properties":{"site":"KDIX","name":"Philadelphia PA","scan_time":"2026-10-04T11:01:32Z","stale":false,"bins":25,"density_birds_km3":0.2625,"heading_deg":249.8635218924477,"speed_ms":9.555013123359581,"peak_altitude_m":200.0,"u_ms":-8.970787401574803,"v_ms":-3.276535433070866}},{"type":"Feature","geometry":{"type":"Point","coordinates":[-84.5658,33.3636]},"properties":{"site":"KFFC","name":"Atlanta GA","scan_time":"2026-10-04T10:58:19Z","stale":false,"bins":25,"density_birds_km3":43.443333333333335,"heading_deg":122.82748309159399,"speed_ms":5.41049782852232,"peak_altitude_m":400.0,"u_ms":3.5213125546705957,"v_ms":-2.851251323603886}},{"type":"Feature","geometry":{"type":"Point","coordinates":[-85.5449,42.8939]},"properties":{"site":"KGRR","name":"Grand Rapids MI","scan_time":"2026-10-04T10:59:49Z","stale":false,"bins":25,"density_birds_km3":0.624,"heading_deg":29.583389123892594,"speed_ms":11.39127136752137,"peak_altitude_m":200.0,"u_ms":5.739305555555556,"v_ms":9.547628205128206}},{"type":"Feature","geometry":{"type":"Point","coordinates":[-83.8217,39.4203]},"properties":{"site":"KILN","name":"Wilmington OH","scan_time":"2026-10-04T11:00:50Z","stale":false,"bins":25,"density_birds_km3":2.6526666666666667,"heading_deg":183.35420305737617,"speed_ms":4.90787528287654,"peak_altitude_m":400.0,"u_ms":0.4425898918783003,"v_ms":-4.250887603721398}},{"type":"Feature","geometry":{"type":"Point","coordinates":[-81.7019,30.4846]},"properties":{"site":"KJAX","name":"Jacksonville FL","scan_time":"2026-10-04T11:01:11Z","stale":false,"bins":25,"density_birds_km3":1.0125,"heading_deg":240.12845798459693,"speed_ms":4.224993827160493,"peak_altitude_m":0.0,"u_ms":-3.3368148148148147,"v_ms":-1.9201296296296295}},{"type":"Feature","geometry":{"type":"Point","coordinates":[-88.0847,41.6045]},"properties":{"site":"KLOT","name":"Chicago IL","scan_time":"2026-10-04T10:59:03Z","stale":false,"bins":25,"density_birds_km3":0.6913333333333332,"heading_deg":88.06984836344117,"speed_ms":10.423111111111112,"peak_altitude_m":200.0,"u_ms":10.121507246376812,"v_ms":0.23196135265700504}},{"type":"Feature","geometry":{"type":"Point","coordinates":[-78.4292,33.9892]},"properties":{"site":"KLTX","name":"Wilmington NC","scan_time":"2026-10-04T10:59:23Z","stale":false,"bins":25,"density_birds_km3":1.213125,"heading_deg":null,"speed_ms":null,"peak_altitude_m":0.0,"u_ms":null,"v_ms":null}},{"type":"Feature","geometry":{"type":"Point","coordinates":[-77.4778,38.9753]},"properties":{"site":"KLWX","name":"Sterling VA","scan_time":"2026-10-04T10:59:46Z","stale":false,"bins":25,"density_birds_km3":0.37375,"heading_deg":243.57178725188461,"speed_ms":5.1727118644067795,"peak_altitude_m":0.0,"u_ms":-4.602615012106539,"v_ms":-2.2929297820823242}},{"type":"Feature","geometry":{"type":"Point","coordinates":[-76.8762,34.7759]},"properties":{"site":"KMHX","name":"Morehead City NC","scan_time":"2026-10-04T10:58:39Z","stale":false,"bins":25,"density_birds_km3":1.52875,"heading_deg":null,"speed_ms":null,"peak_altitude_m":0.0,"u_ms":null,"v_ms":null}},{"type":"Feature","geometry":{"type":"Point","coordinates":[-80.6542,28.1133]},"properties":{"site":"KMLB","name":"Melbourne FL","scan_time":"2026-10-04T11:00:26Z","stale":false,"bins":25,"density_birds_km3":1.22875,"heading_deg":298.8908147562057,"speed_ms":4.577166836215667,"peak_altitude_m":0.0,"u_ms":-4.00468972533062,"v_ms":2.2149287894201426}},{"type":"Feature","geometry":{"type":"Point","coordinates":[-86.5625,36.2472]},"properties":{"site":"KOHX","name":"Nashville TN","scan_time":"2026-10-04T10:59:17Z","stale":false,"bins":25,"density_birds_km3":64.59866666666667,"heading_deg":155.5152992035694,"speed_ms":3.3275494344451784,"peak_altitude_m":200.0,"u_ms":1.6269010072655217,"v_ms":-2.7293677757595773}},{"type":"Feature","geometry":{"type":"Point","coordinates":[-72.8639,40.8655]},"properties":{"site":"KOKX","name":"Upton NY","scan_time":"2026-10-04T10:57:54Z","stale":false,"bins":25,"density_birds_km3":2.7224999999999997,"heading_deg":238.7168787263552,"speed_ms":10.452722760576696,"peak_altitude_m":0.0,"u_ms":-8.933138737887026,"v_ms":-5.300638147010164}},{"type":"Feature","geometry":{"type":"Point","coordinates":[-80.2183,40.5317]},"properties":{"site":"KPBZ","name":"Pittsburgh PA","scan_time":"2026-10-04T10:59:14Z","stale":false,"bins":25,"density_birds_km3":0.06999999999999999,"heading_deg":14.162747817014449,"speed_ms":3.805408163265306,"peak_altitude_m":400.0,"u_ms":1.1415306122448978,"v_ms":2.6324489795918367}},{"type":"Feature","geometry":{"type":"Point","coordinates":[-78.4899,35.6655]},"properties":{"site":"KRAX","name":"Raleigh NC","scan_time":"2026-10-04T11:00:54Z","stale":false,"bins":25,"density_birds_km3":0.12357142857142857,"heading_deg":null,"speed_ms":null,"peak_altitude_m":0.0,"u_ms":null,"v_ms":null}},{"type":"Feature","geometry":{"type":"Point","coordinates":[-82.4017,27.7055]},"properties":{"site":"KTBW","name":"Tampa FL","scan_time":"2026-10-04T10:59:04Z","stale":false,"bins":25,"density_birds_km3":2.59125,"heading_deg":300.6530000307395,"speed_ms":6.193738543174144,"peak_altitude_m":0.0,"u_ms":-5.18642788229619,"v_ms":3.239992764109985}}]}