{"type":"FeatureCollection","frame":"2026-09-19T00","site_count":20,"fresh_count":20,"failures":{},"features":[{"type":"Feature","geometry":{"type":"Point","coordinates":[-77.0073,36.984]},"properties":{"site":"KAKQ","name":"Wakefield VA","scan_time":"2026-09-18T23:59:29Z","stale":false,"bins":25,"density_birds_km3":15.484375,"heading_deg":219.59319637404852,"speed_ms":6.818520835025587,"peak_altitude_m":200.0,"u_ms":-4.117417350337097,"v_ms":-5.272726829664528}},{"type":"Feature","geometry":{"type":"Point","coordinates":[-71.1369,41.9558]},"properties":{"site":"KBOX","name":"Boston MA","scan_time":"2026-09-19T00:01:40Z","stale":false,"bins":25,"density_birds_km3":18.341874999999998,"heading_deg":183.67160609925398,"speed_ms":8.99029377081021,"peak_altitude_m":400.0,"u_ms":-0.6817511792452831,"v_ms":-8.908069852941177}},{"type":"Feature","geometry":{"type":"Point","coordinates":[-78.7369,42.9489]},"properties":{"site":"KBUF","name":"Buffalo NY","scan_time":"2026-09-18T23:56:39Z","stale":false,"bins":25,"density_birds_km3":39.13133333333334,"heading_deg":189.80492973296575,"speed_ms":9.087408896536449,"peak_altitude_m":400.0,"u_ms":-1.496359779886536,"v_ms":-8.947289980748591}},{"type":"Feature","geometry":{"type":"Point","coordinates":[-81.8597,41.4131]},"properties":{"site":"KCLE","name":"Cleveland OH","scan_time":"2026-09-19T00:01:56Z","stale":false,"bins":25,"density_birds_km3":14.148,"heading_deg":223.57966962249625,"speed_ms":7.691021585698831,"peak_altitude_m":400.0,"u_ms":-5.327540054608212,"v_ms":-5.527729637834217}},{"type":"Feature","geometry":{"type":"Point","coordinates":[-81.0423,32.6555]},"properties":{"site":"KCLX","name":"Charleston SC","scan_time":"2026-09-18T23:58:23Z","stale":false,"bins":25,"density_birds_km3":8.934375,"heading_deg":164.06351202425552,"speed_ms":4.228738183600588,"peak_altitude_m":0.0,"u_ms":1.1654057839086898,"v_ms":-4.021111266718017}},{"type":"Feature","geometry":{"type":"Point","coordinates":[-74.4108,39.947]},"properties":{"site":"KDIX","name":"Philadelphia PA","scan_time":"2026-09-18T23:59:21Z","stale":false,"bins":25,"density_birds_km3":21.470625,"heading_deg":189.7955296853035,"speed_ms":8.22550029342723,"peak_altitude_m":200.0,"u_ms":-1.4713350938967136,"v_ms":-7.952037265258215}},{"type":"Feature","geometry":{"type":"Point","coordinates":[-84.5658,33.3636]},"properties":{"site":"KFFC","name":"Atlanta GA","scan_time":"2026-09-18T23:58:36Z","stale":false,"bins":25,"density_birds_km3":2.7873333333333337,"heading_deg":125.27560697022967,"speed_ms":3.98422626165989,"peak_altitude_m":200.0,"u_ms":3.211035637407319,"v_ms":-2.2849629275292993}},{"type":"Feature","geometry":{"type":"Point","coordinates":[-85.5449,42.8939]},"properties":{"site":"KGRR","name":"Grand Rapids MI","scan_time":"2026-09-18T23:59:00Z","stale":false,"bins":25,"density_birds_km3":4.314666666666667,"heading_deg":251.99628837853078,"speed_ms":6.631127610208818,"peak_altitude_m":400.0,"u_ms":-6.304349574632639,"v_ms":-2.0408399071925754}},{"type":"Feature","geometry":{"type":"Point","coordinates":[-83.8217,39.4203]},"properties":{"site":"KILN","name":"Wilmington OH","scan_time":"2026-09-18T23:59:42Z","stale":false,"bins":25,"density_birds_km3":3.753333333333333,"heading_deg":231.96352732294352,"speed_ms":6.143612405880243,"peak_altitude_m":400.0,"u_ms":-4.8078899247041935,"v_ms":-3.763804230907135}},{"type":"Feature","geometry":{"type":"Point","coordinates":[-81.7019,30.4846]},"properties":{"site":"KJAX","name":"Jacksonville FL","scan_time":"2026-09-19T00:01:22Z","stale":false,"bins":25,"density_birds_km3":6.37125,"heading_deg":221.3617797859905,"speed_ms":4.448617974210061,"peak_altitude_m":0.0,"u_ms":-2.7183246382517967,"v_ms":-3.3440072841815143}},{"type":"Feature","geometry":{"type":"Point","coordinates":[-88.0847,41.6045]},"properties":{"site":"KLOT","name":"Chicago IL","scan_time":"2026-09-19T00:00:37Z","stale":false,"bins":25,"density_birds_km3":0.39799999999999996,"heading_deg":249.41105747608316,"speed_ms":7.309707401032702,"peak_altitude_m":200.0,"u_ms":-6.6087263339070565,"v_ms":-2.535972461273666}},{"type":"Feature","geometry":{"type":"Point","coordinates":[-78.4292,33.9892]},"properties":{"site":"KLTX","name":"Wilmington NC","scan_time":"2026-09-19T00:00:16Z","stale":false,"bins":25,"density_birds_km3":6.1525,"heading_deg":113.71961365464013,"speed_ms":8.571503335043612,"peak_altitude_m":200.0,"u_ms":7.2768506926629035,"v_ms":-3.669522832221652}},{"type":"Feature","geometry":{"type":"Point","coordinates":[-77.4778,38.9753]},"properties":{"site":"KLWX","name":"Sterling VA","scan_time":"2026-09-19T00:01:30Z","stale":false,"bins":25,"density_birds_km3":42.449374999999996,"heading_deg":206.40592926037763,"speed_ms":8.885845825042377,"peak_altitude_m":200.0,"u_ms":-3.784896455155133,"v_ms":-7.7633996609919675}},{"type":"Feature","geometry":{"type":"Point","coordinates":[-76.8762,34.7759]},"properties":{"site":"KMHX","name":"Morehead City NC","scan_time":"2026-09-18T23:58:47Z","stale":false,"bins":25,"density_birds_km3":5.5175,"heading_deg":62.595954852597124,"speed_ms":6.196430772742837,"peak_altitude_m":0.0,"u_ms":4.927305102157288,"v_ms":2.8664227827873527}},{"type":"Feature","geometry":{"type":"Point","coordinates":[-80.6542,28.1133]},"properties":{"site":"KMLB","name":"Melbourne FL","scan_time":"2026-09-19T00:00:59Z","stale":false,"bins":25,"density_birds_km3":10.338125,"heading_deg":235.78361294170105,"speed_ms":5.855010579771476,"peak_altitude_m":0.0,"u_ms":-4.7442071216976,"v_ms":-2.9634042681820927}},{"type":"Feature","geometry":{"type":"Point","coordinates":[-86.5625,36.2472]},"properties":{"site":"KOHX","name":"Nashville TN","scan_time":"2026-09-18T23:58:27Z","stale":false,"bins":25,"density_birds_km3":2.4526666666666666,"heading_deg":163.67088144255123,"speed_ms":6.120662847790507,"peak_altitude_m":200.0,"u_ms":1.7261347517730494,"v_ms":-5.866527550463721}},{"type":"Feature","geometry":{"type":"Point","coordinates":[-72.8639,40.8655]},"properties":{"site":"KOKX","name":"Upton NY","scan_time":"2026-09-19T00:02:42Z","stale":false,"bins":25,"density_birds_km3":9.955625,"heading_deg":190.12146936663373,"speed_ms":11.336733973077436,"peak_altitude_m":200.0,"u_ms":-2.021885912301746,"v_ms":-11.112423030787685}},{"type":"Feature","geometry":{"type":"Point","coordinates":[-80.2183,40.5317]},"properties":{"site":"KPBZ","name":"Pittsburgh PA","scan_time":"2026-09-19T00:00:06Z","stale":false,"bins":25,"density_birds_km3":14.718571428571428,"heading_deg":195.24927564344628,"speed_ms":8.750587806655332,"peak_altitude_m":400.0,"u_ms":-2.169790624240952,"v_ms":-8.410382317221277}},{"type":"Feature","geometry":{"type":"Point","coordinates":[-78.4899,35.6655]},"properties":{"site":"KRAX","name":"Raleigh NC","scan_time":"2026-09-19T00:00:31Z","stale":false,"bins":25,"density_birds_km3":29.34357142857143,"heading_deg":196.5683751382701,"speed_ms":6.391249648659283,"peak_altitude_m":400.0,"u_ms":-1.9546835122828714,"v_ms":-6.070131260891562}},{"type":"Feature","geometry":{"type":"Point","coordinates":[-82.4017,27.7055]},"properties":{"site":"KTBW","name":"Tampa FL","scan_time":"2026-09-18T23:59:26Z","stale":false,"bins":25,"density_birds_km3":5.3225,"heading_deg":290.99663908255064,"speed_ms":5.071824800375763,"peak_altitude_m":0.0,"u_ms":-4.737724283701268,"v_ms":1.726822451855331}}]}