{"type":"FeatureCollection","frame":"2026-09-04T12","site_count":20,"fresh_count":20,"failures":{},"features":[{"type":"Feature","geometry":{"type":"Point","coordinates":[-77.0073,36.984]},"properties":{"site":"KAKQ","name":"Wakefield VA","scan_time":"2026-09-04T11:58:45Z","stale":false,"bins":25,"density_birds_km3":0.276875,"heading_deg":66.60303498506381,"speed_ms":6.901863636363635,"peak_altitude_m":0.0,"u_ms":5.849340909090908,"v_ms":1.5835454545454544}},{"type":"Feature","geometry":{"type":"Point","coordinates":[-71.1369,41.9558]},"properties":{"site":"KBOX","name":"Boston MA","scan_time":"2026-09-04T12:00:18Z","stale":false,"bins":25,"density_birds_km3":4.195625,"heading_deg":154.06994007993308,"speed_ms":4.808935072815534,"peak_altitude_m":0.0,"u_ms":2.1786256067961167,"v_ms":-4.182471177184466}},{"type":"Feature","geometry":{"type":"Point","coordinates":[-78.7369,42.9489]},"properties":{"site":"KBUF","name":"Buffalo NY","scan_time":"2026-09-04T11:58:38Z","stale":false,"bins":25,"density_birds_km3":4.794,"heading_deg":182.6966442459808,"speed_ms":5.799378389653734,"peak_altitude_m":400.0,"u_ms":-0.2645139758030873,"v_ms":-5.574141287720762}},{"type":"Feature","geometry":{"type":"Point","coordinates":[-81.8597,41.4131]},"properties":{"site":"KCLE","name":"Cleveland OH","scan_time":"2026-09-04T12:01:00Z","stale":false,"bins":25,"density_birds_km3":4.110666666666666,"heading_deg":199.49681696810697,"speed_ms":2.8537806661251017,"peak_altitude_m":200.0,"u_ms":0.06837855402112103,"v_ms":-1.988139723801787}},{"type":"Feature","geometry":{"type":"Point","coordinates":[-81.0423,32.6555]},"properties":{"site":"KCLX","name":"Charleston SC","scan_time":"2026-09-04T11:57:59Z","stale":false,"bins":25,"density_birds_km3":1.15125,"heading_deg":208.88359988620905,"speed_ms":4.164899401848832,"peak_altitude_m":0.0,"u_ms":-2.228716693855356,"v_ms":-3.358689505165851}},{"type":"Feature","geometry":{"type":"Point","coordinates":[-74.4108,39.947]},"properties":{"site":"KDIX","name":"Philadelphia PA","scan_time":"2026-09-04T11:59:54Z","stale":false,"bins":25,"density_birds_km3":8.290625,"heading_deg":168.18972055143485,"speed_ms":13.409704485488126,"peak_altitude_m":600.0,"u_ms":2.5576373916321145,"v_ms":-13.121031285337352}},{"type":"Feature","geometry":{"type":"Point","coordinates":[-84.5658,33.3636]},"properties":{"site":"KFFC","name":"Atlanta GA","scan_time":"2026-09-04T11:51:21Z","stale":false,"bins":25,"density_birds_km3":16.04285714285714,"heading_deg":235.22090488811614,"speed_ms":6.098567965690844,"peak_altitude_m":200.0,"u_ms":-4.910043818758157,"v_ms":-3.5512194667163897}},{"type":"Feature","geometry":{"type":"Point","coordinates":[-85.5449,42.8939]},"properties":{"site":"KGRR","name":"Grand Rapids MI","scan_time":"2026-09-04T12:00:04Z","stale":false,"bins":25,"density_birds_km3":8.72,"heading_deg":null,"speed_ms":null,"peak_altitude_m":200.0,"u_ms":null,"v_ms":null}},{"type":"Feature","geometry":{"type":"Point","coordinates":[-83.8217,39.4203]},"properties":{"site":"KILN","name":"Wilmington OH","scan_time":"2026-09-04T12:02:11Z","stale":false,"bins":25,"density_birds_km3":2.203333333333333,"heading_deg":105.14120652792155,"speed_ms":9.285847846012832,"peak_altitude_m":800.0,"u_ms":8.887827681026582,"v_ms":-2.565945615643141}},{"type":"Feature","geometry":{"type":"Point","coordinates":[-81.7019,30.4846]},"properties":{"site":"KJAX","name":"Jacksonville FL","scan_time":"2026-09-04T11:58:10Z","stale":false,"bins":25,"density_birds_km3":0.616875,"heading_deg":246.9050309024861,"speed_ms":2.3211224489795916,"peak_altitude_m":0.0,"u_ms":-1.7888673469387752,"v_ms":-0.9184183673469388}},{"type":"Feature","geometry":{"type":"Point","coordinates":[-88.0847,41.6045]},"properties":{"site":"KLOT","name":"Chicago IL","scan_time":"2026-09-04T11:59:15Z","stale":false,"bins":25,"density_birds_km3":10.645999999999999,"heading_deg":80.4980930109229,"speed_ms":12.390191797437648,"peak_altitude_m":400.0,"u_ms":12.210318398908347,"v_ms":2.0311886892578275}},{"type":"Feature","geometry":{"type":"Point","coordinates":[-78.4292,33.9892]},"properties":{"site":"KLTX","name":"Wilmington NC","scan_time":"2026-09-04T12:01:52Z","stale":false,"bins":25,"density_birds_km3":0.15875,"heading_deg":111.79591386776134,"speed_ms":3.1284302325581392,"peak_altitude_m":0.0,"u_ms":1.0205232558139534,"v_ms":-0.9186046511627908}},{"type":"Feature","geometry":{"type":"Point","coordinates":[-77.4778,38.9753]},"properties":{"site":"KLWX","name":"Sterling VA","scan_time":"2026-09-04T11:58:42Z","stale":false,"bins":25,"density_birds_km3":7.99125,"heading_deg":165.31931880323341,"speed_ms":11.490589017521902,"peak_altitude_m":800.0,"u_ms":4.157326345431789,"v_ms":-10.242679912390487}},{"type":"Feature","geometry":{"type":"Point","coordinates":[-76.8762,34.7759]},"properties":{"site":"KMHX","name":"Morehead City NC","scan_time":"2026-09-04T11:59:36Z","stale":false,"bins":25,"density_birds_km3":0.816875,"heading_deg":130.8165570499235,"speed_ms":5.056969930609097,"peak_altitude_m":0.0,"u_ms":2.797232074016962,"v_ms":-2.0858673862760213}},{"type":"Feature","geometry":{"type":"Point","coordinates":[-80.6542,28.1133]},"properties":{"site":"KMLB","name":"Melbourne FL","scan_time":"2026-09-04T11:58:36Z","stale":false,"bins":25,"density_birds_km3":0.455,"heading_deg":26.449799407972804,"speed_ms":3.3519505494505495,"peak_altitude_m":0.0,"u_ms":1.4588736263736262,"v_ms":3.0051373626373623}},{"type":"Feature","geometry":{"type":"Point","coordinates":[-86.5625,36.2472]},"properties":{"site":"KOHX","name":"Nashville TN","scan_time":"2026-09-04T12:02:18Z","stale":false,"bins":25,"density_birds_km3":5.668666666666667,"heading_deg":183.5430540649525,"speed_ms":3.277837233917441,"peak_altitude_m":200.0,"u_ms":-0.17298012466188398,"v_ms":-2.8173162413265906}},{"type":"Feature","geometry":{"type":"Point","coordinates":[-72.8639,40.8655]},"properties":{"site":"KOKX","name":"Upton NY","scan_time":"2026-09-04T11:58:22Z","stale":false,"bins":25,"density_birds_km3":4.359375,"heading_deg":180.40688285257937,"speed_ms":8.44364074128119,"peak_altitude_m":600.0,"u_ms":-0.301160075879177,"v_ms":-8.362320151758354}},{"type":"Feature","geometry":{"type":"Point","coordinates":[-80.2183,40.5317]},"properties":{"site":"KPBZ","name":"Pittsburgh PA","scan_time":"2026-09-04T12:01:04Z","stale":false,"bins":25,"density_birds_km3":4.7,"heading_deg":151.5898703259792,"speed_ms":8.113925531914894,"peak_altitude_m":400.0,"u_ms":4.0685197568389055,"v_ms":-6.170553191489362}},{"type":"Feature","geometry":{"type":"Point","coordinates":[-78.4899,35.6655]},"properties":{"site":"KRAX","name":"Raleigh NC","scan_time":"2026-09-04T12:03:11Z","stale":false,"bins":25,"density_birds_km3":1.839375,"heading_deg":96.67941015706896,"speed_ms":6.511731881592378,"peak_altitude_m":0.0,"u_ms":5.932616536236815,"v_ms":-0.8767744130656686}},{"type":"Feature","geometry":{"type":"Point","coordinates":[-82.4017,27.7055]},"properties":{"site":"KTBW","name":"Tampa FL","scan_time":"2026-09-04T11:58:11Z","stale":false,"bins":25,"density_birds_km3":0.59375,"heading_deg":356.3549864054378,"speed_ms":5.131252631578948,"peak_altitude_m":0.0,"u_ms":-0.2829684210526316,"v_ms":5.022084210526316}}]}