{"type":"FeatureCollection","frame":"2026-09-02T06","site_count":20,"fresh_count":20,"failures":{},"features":[{"type":"Feature","geometry":{"type":"Point","coordinates":[-77.0073,36.984]},"properties":{"site":"KAKQ","name":"Wakefield VA","scan_time":"2026-09-02T05:59:06Z","stale":false,"bins":25,"density_birds_km3":7.609375,"heading_deg":107.57791598965241,"speed_ms":6.300020533880903,"peak_altitude_m":200.0,"u_ms":4.273871868583162,"v_ms":-1.6949683778234086}},{"type":"Feature","geometry":{"type":"Point","coordinates":[-71.1369,41.9558]},"properties":{"site":"KBOX","name":"Boston MA","scan_time":"2026-09-02T06:00:41Z","stale":false,"bins":25,"density_birds_km3":1.69125,"heading_deg":222.91526290960044,"speed_ms":6.51798148148148,"peak_altitude_m":0.0,"u_ms":-4.209907407407407,"v_ms":-4.570651851851851}},{"type":"Feature","geometry":{"type":"Point","coordinates":[-78.7369,42.9489]},"properties":{"site":"KBUF","name":"Buffalo NY","scan_time":"2026-09-02T06:01:06Z","stale":false,"bins":25,"density_birds_km3":20.486666666666668,"heading_deg":171.36700817657675,"speed_ms":4.777602668402213,"peak_altitude_m":200.0,"u_ms":0.2721747478034494,"v_ms":-4.530990562967784}},{"type":"Feature","geometry":{"type":"Point","coordinates":[-81.8597,41.4131]},"properties":{"site":"KCLE","name":"Cleveland OH","scan_time":"2026-09-02T05:56:49Z","stale":false,"bins":25,"density_birds_km3":25.555333333333333,"heading_deg":142.4539732165949,"speed_ms":8.767655544830825,"peak_altitude_m":400.0,"u_ms":5.705015782745937,"v_ms":-6.0604677431977665}},{"type":"Feature","geometry":{"type":"Point","coordinates":[-81.0423,32.6555]},"properties":{"site":"KCLX","name":"Charleston SC","scan_time":"2026-09-02T06:00:15Z","stale":false,"bins":25,"density_birds_km3":6.8725,"heading_deg":176.06996414307193,"speed_ms":6.646627970749542,"peak_altitude_m":0.0,"u_ms":-2.0368811700182814,"v_ms":-4.426724862888482}},{"type":"Feature","geometry":{"type":"Point","coordinates":[-74.4108,39.947]},"properties":{"site":"KDIX","name":"Philadelphia PA","scan_time":"2026-09-02T05:59:35Z","stale":false,"bins":25,"density_birds_km3":2.776875,"heading_deg":224.27107443080894,"speed_ms":8.064781813430885,"peak_altitude_m":0.0,"u_ms":-5.2149699503527565,"v_ms":-5.54426443689574}},{"type":"Feature","geometry":{"type":"Point","coordinates":[-84.5658,33.3636]},"properties":{"site":"KFFC","name":"Atlanta GA","scan_time":"2026-09-02T06:03:30Z","stale":false,"bins":25,"density_birds_km3":31.317333333333334,"heading_deg":173.9757658013671,"speed_ms":6.022901694482289,"peak_altitude_m":1400.0,"u_ms":-1.0287772479564032,"v_ms":-3.755137304155313}},{"type":"Feature","geometry":{"type":"Point","coordinates":[-85.5449,42.8939]},"properties":{"site":"KGRR","name":"Grand Rapids MI","scan_time":"2026-09-02T05:58:35Z","stale":false,"bins":25,"density_birds_km3":8.568000000000001,"heading_deg":101.53533060136253,"speed_ms":10.979692451799234,"peak_altitude_m":200.0,"u_ms":10.747711341815627,"v_ms":-2.0439778315510106}},{"type":"Feature","geometry":{"type":"Point","coordinates":[-83.8217,39.4203]},"properties":{"site":"KILN","name":"Wilmington OH","scan_time":"2026-09-02T06:00:48Z","stale":false,"bins":25,"density_birds_km3":14.591333333333333,"heading_deg":128.30930126673903,"speed_ms":11.016732714043838,"peak_altitude_m":1600.0,"u_ms":8.17624216354734,"v_ms":-6.278737930718895}},{"type":"Feature","geometry":{"type":"Point","coordinates":[-81.7019,30.4846]},"properties":{"site":"KJAX","name":"Jacksonville FL","scan_time":"2026-09-02T05:59:38Z","stale":false,"bins":25,"density_birds_km3":28.518749999999997,"heading_deg":190.50022094058352,"speed_ms":10.68307741200193,"peak_altitude_m":0.0,"u_ms":-1.9981848069083417,"v_ms":-10.444054486477008}},{"type":"Feature","geometry":{"type":"Point","coordinates":[-88.0847,41.6045]},"properties":{"site":"KLOT","name":"Chicago IL","scan_time":"2026-09-02T06:01:25Z","stale":false,"bins":25,"density_birds_km3":16.476666666666667,"heading_deg":82.91969094898737,"speed_ms":10.835271697349787,"peak_altitude_m":200.0,"u_ms":10.417144244386,"v_ms":0.9492555128464496}},{"type":"Feature","geometry":{"type":"Point","coordinates":[-78.4292,33.9892]},"properties":{"site":"KLTX","name":"Wilmington NC","scan_time":"2026-09-02T05:57:53Z","stale":false,"bins":25,"density_birds_km3":5.334375,"heading_deg":148.25360838417075,"speed_ms":7.53744294979582,"peak_altitude_m":200.0,"u_ms":0.40593442229161664,"v_ms":-4.312958203218832}},{"type":"Feature","geometry":{"type":"Point","coordinates":[-77.4778,38.9753]},"properties":{"site":"KLWX","name":"Sterling VA","scan_time":"2026-09-02T05:58:50Z","stale":false,"bins":25,"density_birds_km3":21.846249999999998,"heading_deg":194.08594826718962,"speed_ms":9.470489603516587,"peak_altitude_m":200.0,"u_ms":-1.9831681078110992,"v_ms":-8.828837733884729}},{"type":"Feature","geometry":{"type":"Point","coordinates":[-76.8762,34.7759]},"properties":{"site":"KMHX","name":"Morehead City NC","scan_time":"2026-09-02T06:01:45Z","stale":false,"bins":25,"density_birds_km3":2.21,"heading_deg":103.45114811515239,"speed_ms":7.391102941176471,"peak_altitude_m":0.0,"u_ms":3.0253987556561084,"v_ms":-1.5239451357466065}},{"type":"Feature","geometry":{"type":"Point","coordinates":[-80.6542,28.1133]},"properties":{"site":"KMLB","name":"Melbourne FL","scan_time":"2026-09-02T06:02:20Z","stale":false,"bins":25,"density_birds_km3":4.5893749999999995,"heading_deg":159.48667056890548,"speed_ms":6.291115347950429,"peak_altitude_m":0.0,"u_ms":2.2748781152117665,"v_ms":-5.774145444641156}},{"type":"Feature","geometry":{"type":"Point","coordinates":[-86.5625,36.2472]},"properties":{"site":"KOHX","name":"Nashville TN","scan_time":"2026-09-02T06:00:26Z","stale":false,"bins":25,"density_birds_km3":17.038666666666668,"heading_deg":142.30161521294178,"speed_ms":2.161156585022302,"peak_altitude_m":200.0,"u_ms":0.7000352140230064,"v_ms":-1.4355869003834418}},{"type":"Feature","geometry":{"type":"Point","coordinates":[-72.8639,40.8655]},"properties":{"site":"KOKX","name":"Upton NY","scan_time":"2026-09-02T05:59:27Z","stale":false,"bins":25,"density_birds_km3":1.963125,"heading_deg":239.73750968391226,"speed_ms":8.23921963276836,"peak_altitude_m":0.0,"u_ms":-6.836126412429378,"v_ms":-3.9935734463276837}},{"type":"Feature","geometry":{"type":"Point","coordinates":[-80.2183,40.5317]},"properties":{"site":"KPBZ","name":"Pittsburgh PA","scan_time":"2026-09-02T06:01:38Z","stale":false,"bins":25,"density_birds_km3":11.987142857142857,"heading_deg":132.87094062252052,"speed_ms":12.919496746462897,"peak_altitude_m":400.0,"u_ms":8.196270670407737,"v_ms":-9.049908065190138}},{"type":"Feature","geometry":{"type":"Point","coordinates":[-78.4899,35.6655]},"properties":{"site":"KRAX","name":"Raleigh NC","scan_time":"2026-09-02T05:58:40Z","stale":false,"bins":25,"density_birds_km3":16.09625,"heading_deg":142.5965542824568,"speed_ms":7.963878232507572,"peak_altitude_m":200.0,"u_ms":2.161106235924516,"v_ms":-3.6361590432554163}},{"type":"Feature","geometry":{"type":"Point","coordinates":[-82.4017,27.7055]},"properties":{"site":"KTBW","name":"Tampa FL","scan_time":"2026-09-02T06:02:33Z","stale":false,"bins":25,"density_birds_km3":13.79875,"heading_deg":183.81102218698211,"speed_ms":6.440495062958602,"peak_altitude_m":200.0,"u_ms":-0.5953301929522601,"v_ms":-6.192129268955521}}]}