{"type":"FeatureCollection","frame":"2026-09-22T11","site_count":20,"fresh_count":20,"failures":{},"features":[{"type":"Feature","geometry":{"type":"Point","coordinates":[-77.0073,36.984]},"properties":{"site":"KAKQ","name":"Wakefield VA","scan_time":"2026-09-22T10:59:56Z","stale":false,"bins":25,"density_birds_km3":0.025,"heading_deg":255.49310763058315,"speed_ms":4.3255,"peak_altitude_m":0.0,"u_ms":-3.9945,"v_ms":-0.98525}},{"type":"Feature","geometry":{"type":"Point","coordinates":[-71.1369,41.9558]},"properties":{"site":"KBOX","name":"Boston MA","scan_time":"2026-09-22T11:01:12Z","stale":false,"bins":25,"density_birds_km3":3.949375,"heading_deg":212.76250692930492,"speed_ms":8.68067257477449,"peak_altitude_m":0.0,"u_ms":-4.7145102073112835,"v_ms":-7.075238170596613}},{"type":"Feature","geometry":{"type":"Point","coordinates":[-78.7369,42.9489]},"properties":{"site":"KBUF","name":"Buffalo NY","scan_time":"2026-09-22T11:01:46Z","stale":false,"bins":25,"density_birds_km3":2.7773333333333334,"heading_deg":241.6759193431779,"speed_ms":7.9956412103746395,"peak_altitude_m":200.0,"u_ms":-7.025480307396735,"v_ms":-3.7821277617675317}},{"type":"Feature","geometry":{"type":"Point","coordinates":[-81.8597,41.4131]},"properties":{"site":"KCLE","name":"Cleveland OH","scan_time":"2026-09-22T10:56:34Z","stale":false,"bins":25,"density_birds_km3":0.44666666666666666,"heading_deg":239.30899118931382,"speed_ms":9.416462686567163,"peak_altitude_m":200.0,"u_ms":-8.131029850746268,"v_ms":-4.721820895522388}},{"type":"Feature","geometry":{"type":"Point","coordinates":[-81.0423,32.6555]},"properties":{"site":"KCLX","name":"Charleston SC","scan_time":"2026-09-22T11:02:06Z","stale":false,"bins":25,"density_birds_km3":1.44875,"heading_deg":175.80827865906005,"speed_ms":4.364413287316652,"peak_altitude_m":0.0,"u_ms":0.21076790336496978,"v_ms":-4.318412424503883}},{"type":"Feature","geometry":{"type":"Point","coordinates":[-74.4108,39.947]},"properties":{"site":"KDIX","name":"Philadelphia PA","scan_time":"2026-09-22T11:02:48Z","stale":false,"bins":25,"density_birds_km3":0.0016666666666666668,"heading_deg":null,"speed_ms":null,"peak_altitude_m":2000.0,"u_ms":null,"v_ms":null}},{"type":"Feature","geometry":{"type":"Point","coordinates":[-84.5658,33.3636]},"properties":{"site":"KFFC","name":"Atlanta GA","scan_time":"2026-09-22T10:58:17Z","stale":false,"bins":25,"density_birds_km3":9.798,"heading_deg":127.10201196495075,"speed_ms":5.378667574004763,"peak_altitude_m":400.0,"u_ms":3.8592072133378696,"v_ms":-3.204011568560735}},{"type":"Feature","geometry":{"type":"Point","coordinates":[-85.5449,42.8939]},"properties":{"site":"KGRR","name":"Grand Rapids MI","scan_time":"2026-09-22T10:58:01Z","stale":false,"bins":25,"density_birds_km3":0.12666666666666665,"heading_deg":248.81296901564963,"speed_ms":8.547894736842105,"peak_altitude_m":200.0,"u_ms":-7.948684210526316,"v_ms":-2.9535263157894738}},{"type":"Feature","geometry":{"type":"Point","coordinates":[-83.8217,39.4203]},"properties":{"site":"KILN","name":"Wilmington OH","scan_time":"2026-09-22T11:03:21Z","stale":false,"bins":25,"density_birds_km3":0.284,"heading_deg":216.2737121989416,"speed_ms":6.38775075987842,"peak_altitude_m":200.0,"u_ms":-3.788206686930091,"v_ms":-5.139057750759878}},{"type":"Feature","geometry":{"type":"Point","coordinates":[-81.7019,30.4846]},"properties":{"site":"KJAX","name":"Jacksonville FL","scan_time":"2026-09-22T11:01:04Z","stale":false,"bins":25,"density_birds_km3":2.265625,"heading_deg":162.88536573000982,"speed_ms":5.38144275862069,"peak_altitude_m":200.0,"u_ms":1.6029931034482758,"v_ms":-5.116358620689656}},{"type":"Feature","geometry":{"type":"Point","coordinates":[-88.0847,41.6045]},"properties":{"site":"KLOT","name":"Chicago IL","scan_time":"2026-09-22T10:57:58Z","stale":false,"bins":25,"density_birds_km3":0.9293333333333335,"heading_deg":238.69141944279033,"speed_ms":7.867733142037302,"peak_altitude_m":200.0,"u_ms":-6.695738880918221,"v_ms":-3.7761549497847917}},{"type":"Feature","geometry":{"type":"Point","coordinates":[-78.4292,33.9892]},"properties":{"site":"KLTX","name":"Wilmington NC","scan_time":"2026-09-22T10:58:52Z","stale":false,"bins":25,"density_birds_km3":1.5374999999999999,"heading_deg":209.61675725888873,"speed_ms":7.3538252032520335,"peak_altitude_m":0.0,"u_ms":-3.6324634146341466,"v_ms":-6.376126016260163}},{"type":"Feature","geometry":{"type":"Point","coordinates":[-77.4778,38.9753]},"properties":{"site":"KLWX","name":"Sterling VA","scan_time":"2026-09-22T10:59:22Z","stale":false,"bins":25,"density_birds_km3":0.017857142857142856,"heading_deg":null,"speed_ms":null,"peak_altitude_m":1000.0,"u_ms":null,"v_ms":null}},{"type":"Feature","geometry":{"type":"Point","coordinates":[-76.8762,34.7759]},"properties":{"site":"KMHX","name":"Morehead City NC","scan_time":"2026-09-22T11:02:20Z","stale":false,"bins":25,"density_birds_km3":0.2775,"heading_deg":null,"speed_ms":null,"peak_altitude_m":0.0,"u_ms":null,"v_ms":null}},{"type":"Feature","geometry":{"type":"Point","coordinates":[-80.6542,28.1133]},"properties":{"site":"KMLB","name":"Melbourne FL","scan_time":"2026-09-22T10:57:55Z","stale":false,"bins":25,"density_birds_km3":3.25625,"heading_deg":66.88142713122218,"speed_ms":3.505965451055662,"peak_altitude_m":200.0,"u_ms":3.2004817658349323,"v_ms":1.3489654510556621}},{"type":"Feature","geometry":{"type":"Point","coordinates":[-86.5625,36.2472]},"properties":{"site":"KOHX","name":"Nashville TN","scan_time":"2026-09-22T10:58:13Z","stale":false,"bins":25,"density_birds_km3":22.17866666666667,"heading_deg":194.74194341177358,"speed_ms":6.6474128964376975,"peak_altitude_m":200.0,"u_ms":-1.547963926048399,"v_ms":-6.182410942431987}},{"type":"Feature","geometry":{"type":"Point","coordinates":[-72.8639,40.8655]},"properties":{"site":"KOKX","name":"Upton NY","scan_time":"2026-09-22T10:58:54Z","stale":false,"bins":25,"density_birds_km3":10.98125,"heading_deg":229.6948129644342,"speed_ms":9.153047558655674,"peak_altitude_m":400.0,"u_ms":-7.00671274571972,"v_ms":-5.808256182625237}},{"type":"Feature","geometry":{"type":"Point","coordinates":[-80.2183,40.5317]},"properties":{"site":"KPBZ","name":"Pittsburgh PA","scan_time":"2026-09-22T11:00:22Z","stale":false,"bins":25,"density_birds_km3":0.019285714285714288,"heading_deg":null,"speed_ms":null,"peak_altitude_m":400.0,"u_ms":null,"v_ms":null}},{"type":"Feature","geometry":{"type":"Point","coordinates":[-78.4899,35.6655]},"properties":{"site":"KRAX","name":"Raleigh NC","scan_time":"2026-09-22T10:58:52Z","stale":false,"bins":25,"density_birds_km3":1.505,"heading_deg":207.5082947019261,"speed_ms":6.335357142857143,"peak_altitude_m":0.0,"u_ms":-2.9463621262458477,"v_ms":-5.587757475083057}},{"type":"Feature","geometry":{"type":"Point","coordinates":[-82.4017,27.7055]},"properties":{"site":"KTBW","name":"Tampa FL","scan_time":"2026-09-22T11:02:30Z","stale":false,"bins":25,"density_birds_km3":2.651875,"heading_deg":329.5401197535838,"speed_ms":3.1604502593116455,"peak_altitude_m":200.0,"u_ms":-1.4378500707213577,"v_ms":2.1987223008015087}}]}