{"type":"FeatureCollection","frame":"2026-09-12T00","site_count":20,"fresh_count":20,"failures":{},"features":[{"type":"Feature","geometry":{"type":"Point","coordinates":[-77.0073,36.984]},"properties":{"site":"KAKQ","name":"Wakefield VA","scan_time":"2026-09-12T00:01:02Z","stale":false,"bins":25,"density_birds_km3":25.17125,"heading_deg":247.42642975289402,"speed_ms":6.271891690473233,"peak_altitude_m":0.0,"u_ms":-5.721066948205191,"v_ms":-2.4707370512979754}},{"type":"Feature","geometry":{"type":"Point","coordinates":[-71.1369,41.9558]},"properties":{"site":"KBOX","name":"Boston MA","scan_time":"2026-09-11T23:58:37Z","stale":false,"bins":25,"density_birds_km3":13.358125,"heading_deg":176.13928562846672,"speed_ms":8.307474127838914,"peak_altitude_m":400.0,"u_ms":0.48090002341372046,"v_ms":-8.212772184500118}},{"type":"Feature","geometry":{"type":"Point","coordinates":[-78.7369,42.9489]},"properties":{"site":"KBUF","name":"Buffalo NY","scan_time":"2026-09-11T23:59:21Z","stale":false,"bins":25,"density_birds_km3":2.329333333333333,"heading_deg":203.1654320668624,"speed_ms":2.7060847166571267,"peak_altitude_m":200.0,"u_ms":-1.102469948483114,"v_ms":-2.433099599313109}},{"type":"Feature","geometry":{"type":"Point","coordinates":[-81.8597,41.4131]},"properties":{"site":"KCLE","name":"Cleveland OH","scan_time":"2026-09-12T00:01:14Z","stale":false,"bins":25,"density_birds_km3":3.2306666666666666,"heading_deg":236.64902796950156,"speed_ms":5.725056759545923,"peak_altitude_m":400.0,"u_ms":-4.617678018575852,"v_ms":-3.1250877192982456}},{"type":"Feature","geometry":{"type":"Point","coordinates":[-81.0423,32.6555]},"properties":{"site":"KCLX","name":"Charleston SC","scan_time":"2026-09-12T00:01:16Z","stale":false,"bins":25,"density_birds_km3":4.561875,"heading_deg":250.80591873697955,"speed_ms":1.3894350826512598,"peak_altitude_m":0.0,"u_ms":-1.1915117958594126,"v_ms":-0.39240571336864066}},{"type":"Feature","geometry":{"type":"Point","coordinates":[-74.4108,39.947]},"properties":{"site":"KDIX","name":"Philadelphia PA","scan_time":"2026-09-12T00:02:53Z","stale":false,"bins":25,"density_birds_km3":21.150769230769228,"heading_deg":156.5322984711099,"speed_ms":5.152812090790048,"peak_altitude_m":200.0,"u_ms":0.800569256510985,"v_ms":-4.06311326931471}},{"type":"Feature","geometry":{"type":"Point","coordinates":[-84.5658,33.3636]},"properties":{"site":"KFFC","name":"Atlanta GA","scan_time":"2026-09-11T23:59:44Z","stale":false,"bins":25,"density_birds_km3":3.9266666666666667,"heading_deg":42.73163340436465,"speed_ms":2.483037351443124,"peak_altitude_m":200.0,"u_ms":1.6748370118845501,"v_ms":1.7478098471986419}},{"type":"Feature","geometry":{"type":"Point","coordinates":[-85.5449,42.8939]},"properties":{"site":"KGRR","name":"Grand Rapids MI","scan_time":"2026-09-12T00:01:24Z","stale":false,"bins":25,"density_birds_km3":0.292,"heading_deg":292.20500891224026,"speed_ms":3.720319634703196,"peak_altitude_m":200.0,"u_ms":-3.332054794520548,"v_ms":1.3634931506849317}},{"type":"Feature","geometry":{"type":"Point","coordinates":[-83.8217,39.4203]},"properties":{"site":"KILN","name":"Wilmington OH","scan_time":"2026-09-12T00:01:33Z","stale":false,"bins":25,"density_birds_km3":1.5753333333333333,"heading_deg":315.9839659937127,"speed_ms":5.631684299619129,"peak_altitude_m":200.0,"u_ms":-3.915311045281422,"v_ms":4.042336013542108}},{"type":"Feature","geometry":{"type":"Point","coordinates":[-81.7019,30.4846]},"properties":{"site":"KJAX","name":"Jacksonville FL","scan_time":"2026-09-12T00:01:36Z","stale":false,"bins":25,"density_birds_km3":11.319374999999999,"heading_deg":233.16409549658817,"speed_ms":5.547048523689631,"peak_altitude_m":0.0,"u_ms":-3.8587096589608603,"v_ms":-2.8479056992446785}},{"type":"Feature","geometry":{"type":"Point","coordinates":[-88.0847,41.6045]},"properties":{"site":"KLOT","name":"Chicago IL","scan_time":"2026-09-11T23:57:34Z","stale":false,"bins":25,"density_birds_km3":0.5853333333333334,"heading_deg":319.04568637087846,"speed_ms":4.73874715261959,"peak_altitude_m":200.0,"u_ms":-3.100318906605922,"v_ms":3.5531207289293847}},{"type":"Feature","geometry":{"type":"Point","coordinates":[-78.4292,33.9892]},"properties":{"site":"KLTX","name":"Wilmington NC","scan_time":"2026-09-11T23:58:59Z","stale":false,"bins":25,"density_birds_km3":3.378125,"heading_deg":55.178299213596475,"speed_ms":0.6304836916234247,"peak_altitude_m":200.0,"u_ms":0.4655244625648629,"v_ms":0.3031541882876205}},{"type":"Feature","geometry":{"type":"Point","coordinates":[-77.4778,38.9753]},"properties":{"site":"KLWX","name":"Sterling VA","scan_time":"2026-09-12T00:01:26Z","stale":false,"bins":25,"density_birds_km3":20.107499999999998,"heading_deg":252.64573231989658,"speed_ms":3.821068354589433,"peak_altitude_m":200.0,"u_ms":-3.3723478042344666,"v_ms":-1.0033715524282214}},{"type":"Feature","geometry":{"type":"Point","coordinates":[-76.8762,34.7759]},"properties":{"site":"KMHX","name":"Morehead City NC","scan_time":"2026-09-12T00:01:12Z","stale":false,"bins":25,"density_birds_km3":3.3400000000000003,"heading_deg":42.16723037825862,"speed_ms":6.70424590472604,"peak_altitude_m":0.0,"u_ms":4.51070796460177,"v_ms":4.807599322161551}},{"type":"Feature","geometry":{"type":"Point","coordinates":[-80.6542,28.1133]},"properties":{"site":"KMLB","name":"Melbourne FL","scan_time":"2026-09-11T23:57:49Z","stale":false,"bins":25,"density_birds_km3":5.45,"heading_deg":269.48458906254217,"speed_ms":2.496756508773942,"peak_altitude_m":0.0,"u_ms":-2.304014221814428,"v_ms":-0.09100584929464388}},{"type":"Feature","geometry":{"type":"Point","coordinates":[-86.5625,36.2472]},"properties":{"site":"KOHX","name":"Nashville TN","scan_time":"2026-09-11T23:57:56Z","stale":false,"bins":25,"density_birds_km3":1.2726666666666666,"heading_deg":266.42776702456734,"speed_ms":4.702442348008386,"peak_altitude_m":200.0,"u_ms":-4.540303983228513,"v_ms":-0.30539308176100644}},{"type":"Feature","geometry":{"type":"Point","coordinates":[-72.8639,40.8655]},"properties":{"site":"KOKX","name":"Upton NY","scan_time":"2026-09-11T23:57:19Z","stale":false,"bins":25,"density_birds_km3":9.98,"heading_deg":161.65574966836357,"speed_ms":5.366884813465645,"peak_altitude_m":0.0,"u_ms":0.06521542519783947,"v_ms":-4.553758321818867}},{"type":"Feature","geometry":{"type":"Point","coordinates":[-80.2183,40.5317]},"properties":{"site":"KPBZ","name":"Pittsburgh PA","scan_time":"2026-09-11T23:58:52Z","stale":false,"bins":25,"density_birds_km3":2.9107142857142856,"heading_deg":232.18641208702434,"speed_ms":4.788228220858896,"peak_altitude_m":600.0,"u_ms":-3.669690797546012,"v_ms":-2.9757496932515335}},{"type":"Feature","geometry":{"type":"Point","coordinates":[-78.4899,35.6655]},"properties":{"site":"KRAX","name":"Raleigh NC","scan_time":"2026-09-11T23:58:38Z","stale":false,"bins":25,"density_birds_km3":10.707142857142857,"heading_deg":35.67075681248326,"speed_ms":4.282766961651918,"peak_altitude_m":0.0,"u_ms":2.4937551622418876,"v_ms":3.471255162241888}},{"type":"Feature","geometry":{"type":"Point","coordinates":[-82.4017,27.7055]},"properties":{"site":"KTBW","name":"Tampa FL","scan_time":"2026-09-11T23:57:54Z","stale":false,"bins":25,"density_birds_km3":17.129375,"heading_deg":234.1634239559849,"speed_ms":3.173857773561499,"peak_altitude_m":0.0,"u_ms":-2.4169642791987447,"v_ms":-1.9404528040281679}}]}