{"type":"FeatureCollection","frame":"2026-08-20T07","site_count":20,"fresh_count":20,"failures":{},"features":[{"type":"Feature","geometry":{"type":"Point","coordinates":[-77.0073,36.984]},"properties":{"site":"KAKQ","name":"Wakefield VA","scan_time":"2026-08-20T07:02:46Z","stale":false,"bins":25,"density_birds_km3":2.31875,"heading_deg":6.281863199387695,"speed_ms":8.388361673414304,"peak_altitude_m":0.0,"u_ms":0.6701592442645075,"v_ms":7.790348178137651}},{"type":"Feature","geometry":{"type":"Point","coordinates":[-71.1369,41.9558]},"properties":{"site":"KBOX","name":"Boston MA","scan_time":"2026-08-20T06:58:14Z","stale":false,"bins":25,"density_birds_km3":0.8350000000000001,"heading_deg":65.14348836963269,"speed_ms":7.011564371257484,"peak_altitude_m":0.0,"u_ms":6.342020958083832,"v_ms":2.9501272455089818}},{"type":"Feature","geometry":{"type":"Point","coordinates":[-78.7369,42.9489]},"properties":{"site":"KBUF","name":"Buffalo NY","scan_time":"2026-08-20T07:00:35Z","stale":false,"bins":25,"density_birds_km3":2.9773333333333336,"heading_deg":200.93113423119345,"speed_ms":6.534523063143752,"peak_altitude_m":600.0,"u_ms":-2.293526645768025,"v_ms":-5.639959695476937}},{"type":"Feature","geometry":{"type":"Point","coordinates":[-81.8597,41.4131]},"properties":{"site":"KCLE","name":"Cleveland OH","scan_time":"2026-08-20T06:58:35Z","stale":false,"bins":25,"density_birds_km3":4.019333333333333,"heading_deg":215.00107830110707,"speed_ms":5.31400729805938,"peak_altitude_m":400.0,"u_ms":-2.966350970310168,"v_ms":-4.316394095206501}},{"type":"Feature","geometry":{"type":"Point","coordinates":[-81.0423,32.6555]},"properties":{"site":"KCLX","name":"Charleston SC","scan_time":"2026-08-20T07:00:15Z","stale":false,"bins":25,"density_birds_km3":7.908125,"heading_deg":198.61360194073512,"speed_ms":3.9482304591796415,"peak_altitude_m":0.0,"u_ms":-0.4886406385837351,"v_ms":-3.5026183513791196}},{"type":"Feature","geometry":{"type":"Point","coordinates":[-74.4108,39.947]},"properties":{"site":"KDIX","name":"Philadelphia PA","scan_time":"2026-08-20T06:59:17Z","stale":false,"bins":25,"density_birds_km3":2.493125,"heading_deg":151.72517311662207,"speed_ms":5.382961384152457,"peak_altitude_m":200.0,"u_ms":2.349914744232698,"v_ms":-4.570017552657974}},{"type":"Feature","geometry":{"type":"Point","coordinates":[-84.5658,33.3636]},"properties":{"site":"KFFC","name":"Atlanta GA","scan_time":"2026-08-20T07:02:37Z","stale":false,"bins":25,"density_birds_km3":14.444666666666668,"heading_deg":176.97547062958307,"speed_ms":2.9343245488530947,"peak_altitude_m":400.0,"u_ms":-0.22237688650943824,"v_ms":-1.795541607052199}},{"type":"Feature","geometry":{"type":"Point","coordinates":[-85.5449,42.8939]},"properties":{"site":"KGRR","name":"Grand Rapids MI","scan_time":"2026-08-20T07:01:29Z","stale":false,"bins":25,"density_birds_km3":15.916666666666666,"heading_deg":220.42297079616776,"speed_ms":6.492629638937756,"peak_altitude_m":200.0,"u_ms":-3.678563709474742,"v_ms":-4.869003099606266}},{"type":"Feature","geometry":{"type":"Point","coordinates":[-83.8217,39.4203]},"properties":{"site":"KILN","name":"Wilmington OH","scan_time":"2026-08-20T07:01:55Z","stale":false,"bins":25,"density_birds_km3":8.632666666666667,"heading_deg":99.54062383787195,"speed_ms":4.908888452782793,"peak_altitude_m":400.0,"u_ms":4.788425308108956,"v_ms":-0.5978169401051888}},{"type":"Feature","geometry":{"type":"Point","coordinates":[-81.7019,30.4846]},"properties":{"site":"KJAX","name":"Jacksonville FL","scan_time":"2026-08-20T06:57:05Z","stale":false,"bins":25,"density_birds_km3":31.4775,"heading_deg":172.20033048799417,"speed_ms":8.555933956831675,"peak_altitude_m":400.0,"u_ms":0.42486328706737364,"v_ms":-8.125774110919163}},{"type":"Feature","geometry":{"type":"Point","coordinates":[-88.0847,41.6045]},"properties":{"site":"KLOT","name":"Chicago IL","scan_time":"2026-08-20T06:59:17Z","stale":false,"bins":25,"density_birds_km3":7.182,"heading_deg":228.92268775077014,"speed_ms":10.156916078722615,"peak_altitude_m":400.0,"u_ms":-7.527629038247309,"v_ms":-6.555994244337171}},{"type":"Feature","geometry":{"type":"Point","coordinates":[-78.4292,33.9892]},"properties":{"site":"KLTX","name":"Wilmington NC","scan_time":"2026-08-20T07:00:12Z","stale":false,"bins":25,"density_birds_km3":5.548125,"heading_deg":302.89563880432337,"speed_ms":3.818539718309859,"peak_altitude_m":0.0,"u_ms":-2.9883076056338025,"v_ms":1.801699154929577}},{"type":"Feature","geometry":{"type":"Point","coordinates":[-77.4778,38.9753]},"properties":{"site":"KLWX","name":"Sterling VA","scan_time":"2026-08-20T07:02:24Z","stale":false,"bins":25,"density_birds_km3":4.785,"heading_deg":267.33875122859905,"speed_ms":4.115977418931338,"peak_altitude_m":200.0,"u_ms":-3.896519627149796,"v_ms":-0.13135880267821975}},{"type":"Feature","geometry":{"type":"Point","coordinates":[-76.8762,34.7759]},"properties":{"site":"KMHX","name":"Morehead City NC","scan_time":"2026-08-20T07:01:53Z","stale":false,"bins":25,"density_birds_km3":1.34375,"heading_deg":332.71386608836843,"speed_ms":4.2852070730572365,"peak_altitude_m":0.0,"u_ms":-1.5326105165193113,"v_ms":3.3518845974872034}},{"type":"Feature","geometry":{"type":"Point","coordinates":[-80.6542,28.1133]},"properties":{"site":"KMLB","name":"Melbourne FL","scan_time":"2026-08-20T07:01:08Z","stale":false,"bins":25,"density_birds_km3":4.921875,"heading_deg":160.90706198254898,"speed_ms":9.474655238095238,"peak_altitude_m":200.0,"u_ms":3.1029714285714287,"v_ms":-8.935532698412699}},{"type":"Feature","geometry":{"type":"Point","coordinates":[-86.5625,36.2472]},"properties":{"site":"KOHX","name":"Nashville TN","scan_time":"2026-08-20T07:00:50Z","stale":false,"bins":25,"density_birds_km3":8.128,"heading_deg":326.55373723193486,"speed_ms":8.041263943569554,"peak_altitude_m":200.0,"u_ms":-1.7692290026246715,"v_ms":5.338220964566929}},{"type":"Feature","geometry":{"type":"Point","coordinates":[-72.8639,40.8655]},"properties":{"site":"KOKX","name":"Upton NY","scan_time":"2026-08-20T07:02:12Z","stale":false,"bins":25,"density_birds_km3":0.9493750000000001,"heading_deg":104.59014941263091,"speed_ms":6.583911587407904,"peak_altitude_m":0.0,"u_ms":6.282880107166779,"v_ms":-1.582076356329538}},{"type":"Feature","geometry":{"type":"Point","coordinates":[-80.2183,40.5317]},"properties":{"site":"KPBZ","name":"Pittsburgh PA","scan_time":"2026-08-20T07:00:46Z","stale":false,"bins":25,"density_birds_km3":3.297857142857143,"heading_deg":91.66086262935256,"speed_ms":3.4362647593097186,"peak_altitude_m":600.0,"u_ms":2.9239373297002724,"v_ms":0.02284741144414168}},{"type":"Feature","geometry":{"type":"Point","coordinates":[-78.4899,35.6655]},"properties":{"site":"KRAX","name":"Raleigh NC","scan_time":"2026-08-20T06:56:14Z","stale":false,"bins":25,"density_birds_km3":4.79125,"heading_deg":1.343078117345374,"speed_ms":3.278103267973856,"peak_altitude_m":0.0,"u_ms":0.3355464052287581,"v_ms":2.961411764705882}},{"type":"Feature","geometry":{"type":"Point","coordinates":[-82.4017,27.7055]},"properties":{"site":"KTBW","name":"Tampa FL","scan_time":"2026-08-20T06:57:32Z","stale":false,"bins":25,"density_birds_km3":8.38375,"heading_deg":29.337403792129432,"speed_ms":2.555001867204422,"peak_altitude_m":0.0,"u_ms":-0.20205616550899996,"v_ms":-1.7147860183732917}}]}