{"type":"FeatureCollection","frame":"2026-09-12T03","site_count":20,"fresh_count":20,"failures":{},"features":[{"type":"Feature","geometry":{"type":"Point","coordinates":[-77.0073,36.984]},"properties":{"site":"KAKQ","name":"Wakefield VA","scan_time":"2026-09-12T02:58:50Z","stale":false,"bins":25,"density_birds_km3":50.304375,"heading_deg":210.74857177047386,"speed_ms":7.258757310305353,"peak_altitude_m":0.0,"u_ms":-3.531728964985193,"v_ms":-5.945357613916333}},{"type":"Feature","geometry":{"type":"Point","coordinates":[-71.1369,41.9558]},"properties":{"site":"KBOX","name":"Boston MA","scan_time":"2026-09-12T02:57:22Z","stale":false,"bins":25,"density_birds_km3":11.83,"heading_deg":194.08324468028806,"speed_ms":7.827577935115714,"peak_altitude_m":200.0,"u_ms":-1.93874141392793,"v_ms":-7.495210821092677}},{"type":"Feature","geometry":{"type":"Point","coordinates":[-78.7369,42.9489]},"properties":{"site":"KBUF","name":"Buffalo NY","scan_time":"2026-09-12T03:02:15Z","stale":false,"bins":25,"density_birds_km3":11.636666666666665,"heading_deg":223.48665624622197,"speed_ms":5.45880664566027,"peak_altitude_m":400.0,"u_ms":-3.6987230020051567,"v_ms":-2.9774001718705243}},{"type":"Feature","geometry":{"type":"Point","coordinates":[-81.8597,41.4131]},"properties":{"site":"KCLE","name":"Cleveland OH","scan_time":"2026-09-12T03:03:31Z","stale":false,"bins":25,"density_birds_km3":37.902,"heading_deg":276.04243940563856,"speed_ms":8.988615127528583,"peak_altitude_m":400.0,"u_ms":-8.200201055408971,"v_ms":0.9121289357959542}},{"type":"Feature","geometry":{"type":"Point","coordinates":[-81.0423,32.6555]},"properties":{"site":"KCLX","name":"Charleston SC","scan_time":"2026-09-12T03:00:20Z","stale":false,"bins":25,"density_birds_km3":5.719374999999999,"heading_deg":65.802238878681,"speed_ms":4.01222039112283,"peak_altitude_m":0.0,"u_ms":3.6496704021094266,"v_ms":1.337776312898264}},{"type":"Feature","geometry":{"type":"Point","coordinates":[-74.4108,39.947]},"properties":{"site":"KDIX","name":"Philadelphia PA","scan_time":"2026-09-12T02:57:22Z","stale":false,"bins":25,"density_birds_km3":33.229375,"heading_deg":180.14667466539282,"speed_ms":7.566540737111848,"peak_altitude_m":800.0,"u_ms":-0.9251671314440759,"v_ms":-6.58393088634308}},{"type":"Feature","geometry":{"type":"Point","coordinates":[-84.5658,33.3636]},"properties":{"site":"KFFC","name":"Atlanta GA","scan_time":"2026-09-12T03:00:54Z","stale":false,"bins":25,"density_birds_km3":12.819333333333333,"heading_deg":20.554204869298566,"speed_ms":3.5607925529148687,"peak_altitude_m":600.0,"u_ms":1.0320495085547872,"v_ms":2.6654464610744193}},{"type":"Feature","geometry":{"type":"Point","coordinates":[-85.5449,42.8939]},"properties":{"site":"KGRR","name":"Grand Rapids MI","scan_time":"2026-09-12T02:59:55Z","stale":false,"bins":25,"density_birds_km3":24.09466666666667,"heading_deg":325.64475277923646,"speed_ms":8.375446018482652,"peak_altitude_m":200.0,"u_ms":-4.476458690719937,"v_ms":6.704656078800288}},{"type":"Feature","geometry":{"type":"Point","coordinates":[-83.8217,39.4203]},"properties":{"site":"KILN","name":"Wilmington OH","scan_time":"2026-09-12T03:01:11Z","stale":false,"bins":25,"density_birds_km3":31.552000000000003,"heading_deg":252.34528633361919,"speed_ms":6.291699205544286,"peak_altitude_m":200.0,"u_ms":-0.872709389790399,"v_ms":-0.6546099560513859}},{"type":"Feature","geometry":{"type":"Point","coordinates":[-81.7019,30.4846]},"properties":{"site":"KJAX","name":"Jacksonville FL","scan_time":"2026-09-12T03:01:09Z","stale":false,"bins":25,"density_birds_km3":24.82,"heading_deg":175.2416120885477,"speed_ms":7.3810421336288305,"peak_altitude_m":200.0,"u_ms":0.5827647518069862,"v_ms":-7.289759991940968}},{"type":"Feature","geometry":{"type":"Point","coordinates":[-88.0847,41.6045]},"properties":{"site":"KLOT","name":"Chicago IL","scan_time":"2026-09-12T03:01:19Z","stale":false,"bins":25,"density_birds_km3":11.370666666666667,"heading_deg":332.7994792606261,"speed_ms":9.024146558368411,"peak_altitude_m":200.0,"u_ms":-3.499069188355961,"v_ms":6.891160846623585}},{"type":"Feature","geometry":{"type":"Point","coordinates":[-78.4292,33.9892]},"properties":{"site":"KLTX","name":"Wilmington NC","scan_time":"2026-09-12T02:59:29Z","stale":false,"bins":25,"density_birds_km3":3.775,"heading_deg":42.78372472671015,"speed_ms":5.171588284518829,"peak_altitude_m":0.0,"u_ms":3.83756820083682,"v_ms":3.254471966527197}},{"type":"Feature","geometry":{"type":"Point","coordinates":[-77.4778,38.9753]},"properties":{"site":"KLWX","name":"Sterling VA","scan_time":"2026-09-12T03:01:15Z","stale":false,"bins":25,"density_birds_km3":58.8875,"heading_deg":229.3391865453921,"speed_ms":6.463964812001317,"peak_altitude_m":1200.0,"u_ms":-4.1049421501652095,"v_ms":-3.7468975702006952}},{"type":"Feature","geometry":{"type":"Point","coordinates":[-76.8762,34.7759]},"properties":{"site":"KMHX","name":"Morehead City NC","scan_time":"2026-09-12T02:58:37Z","stale":false,"bins":25,"density_birds_km3":5.843125,"heading_deg":172.34653507225966,"speed_ms":7.4417124826184615,"peak_altitude_m":1800.0,"u_ms":0.22617071344528833,"v_ms":-3.7057760188255426}},{"type":"Feature","geometry":{"type":"Point","coordinates":[-80.6542,28.1133]},"properties":{"site":"KMLB","name":"Melbourne FL","scan_time":"2026-09-12T02:59:48Z","stale":false,"bins":25,"density_birds_km3":3.978125,"heading_deg":322.43919280993947,"speed_ms":6.122364322793771,"peak_altitude_m":200.0,"u_ms":-3.6115101462954224,"v_ms":4.776004404593361}},{"type":"Feature","geometry":{"type":"Point","coordinates":[-86.5625,36.2472]},"properties":{"site":"KOHX","name":"Nashville TN","scan_time":"2026-09-12T02:58:24Z","stale":false,"bins":25,"density_birds_km3":60.17333333333333,"heading_deg":99.21720327871681,"speed_ms":5.031521230728306,"peak_altitude_m":400.0,"u_ms":4.0533050330846905,"v_ms":-0.31733438258537194}},{"type":"Feature","geometry":{"type":"Point","coordinates":[-72.8639,40.8655]},"properties":{"site":"KOKX","name":"Upton NY","scan_time":"2026-09-12T03:00:09Z","stale":false,"bins":25,"density_birds_km3":41.240625,"heading_deg":215.1459764754794,"speed_ms":7.421261117688128,"peak_altitude_m":200.0,"u_ms":-4.816685031721458,"v_ms":-5.421910269252952}},{"type":"Feature","geometry":{"type":"Point","coordinates":[-80.2183,40.5317]},"properties":{"site":"KPBZ","name":"Pittsburgh PA","scan_time":"2026-09-12T03:00:48Z","stale":false,"bins":25,"density_birds_km3":89.63714285714286,"heading_deg":248.09376770575665,"speed_ms":6.89895706499219,"peak_altitude_m":600.0,"u_ms":-5.178396312115513,"v_ms":-2.583693303158767}},{"type":"Feature","geometry":{"type":"Point","coordinates":[-78.4899,35.6655]},"properties":{"site":"KRAX","name":"Raleigh NC","scan_time":"2026-09-12T02:58:30Z","stale":false,"bins":25,"density_birds_km3":56.488125000000004,"heading_deg":198.65601357251947,"speed_ms":3.573431694714597,"peak_altitude_m":200.0,"u_ms":-1.0592246157931424,"v_ms":-2.913121673803122}},{"type":"Feature","geometry":{"type":"Point","coordinates":[-82.4017,27.7055]},"properties":{"site":"KTBW","name":"Tampa FL","scan_time":"2026-09-12T02:57:55Z","stale":false,"bins":25,"density_birds_km3":5.0075,"heading_deg":312.1547662206759,"speed_ms":6.052176301660632,"peak_altitude_m":0.0,"u_ms":-4.50640404544887,"v_ms":4.000893994256462}}]}