{"type":"FeatureCollection","frame":"2026-10-07T03","site_count":20,"fresh_count":19,"failures":{"KILN":"RuntimeError('no scan within 20 min of 2026-10-07T03:00Z')"},"features":[{"type":"Feature","geometry":{"type":"Point","coordinates":[-77.0073,36.984]},"properties":{"site":"KAKQ","name":"Wakefield VA","scan_time":"2026-10-07T03:00:08Z","stale":false,"bins":25,"density_birds_km3":24.638125000000002,"heading_deg":229.30662450008649,"speed_ms":6.886472856418063,"peak_altitude_m":0.0,"u_ms":-3.4772214611872143,"v_ms":-3.8525504819888385}},{"type":"Feature","geometry":{"type":"Point","coordinates":[-71.1369,41.9558]},"properties":{"site":"KBOX","name":"Boston MA","scan_time":"2026-10-07T03:04:19Z","stale":false,"bins":25,"density_birds_km3":5.938125,"heading_deg":162.7157205905322,"speed_ms":8.526026315789473,"peak_altitude_m":0.0,"u_ms":2.200931578947368,"v_ms":-7.882494736842105}},{"type":"Feature","geometry":{"type":"Point","coordinates":[-78.7369,42.9489]},"properties":{"site":"KBUF","name":"Buffalo NY","scan_time":"2026-10-07T02:57:14Z","stale":false,"bins":25,"density_birds_km3":0.928,"heading_deg":1.2104237579076373,"speed_ms":5.616278735632184,"peak_altitude_m":200.0,"u_ms":0.04502873563218398,"v_ms":5.34478448275862}},{"type":"Feature","geometry":{"type":"Point","coordinates":[-81.8597,41.4131]},"properties":{"site":"KCLE","name":"Cleveland OH","scan_time":"2026-10-07T03:02:36Z","stale":false,"bins":25,"density_birds_km3":0.6973333333333332,"heading_deg":12.821123573948004,"speed_ms":10.36167624521073,"peak_altitude_m":200.0,"u_ms":2.3137547892720307,"v_ms":9.910239463601533}},{"type":"Feature","geometry":{"type":"Point","coordinates":[-81.0423,32.6555]},"properties":{"site":"KCLX","name":"Charleston SC","scan_time":"2026-10-07T02:59:07Z","stale":false,"bins":25,"density_birds_km3":158.77625,"heading_deg":212.54326581276473,"speed_ms":13.570162295998298,"peak_altitude_m":0.0,"u_ms":-7.445491217987577,"v_ms":-11.18865002637359}},{"type":"Feature","geometry":{"type":"Point","coordinates":[-74.4108,39.947]},"properties":{"site":"KDIX","name":"Philadelphia PA","scan_time":"2026-10-07T03:02:45Z","stale":false,"bins":25,"density_birds_km3":24.12625,"heading_deg":197.0959678353995,"speed_ms":8.178199694292598,"peak_altitude_m":200.0,"u_ms":-2.5245073706572705,"v_ms":-7.575988756185393}},{"type":"Feature","geometry":{"type":"Point","coordinates":[-84.5658,33.3636]},"properties":{"site":"KFFC","name":"Atlanta GA","scan_time":"2026-10-07T03:01:13Z","stale":false,"bins":25,"density_birds_km3":234.95066666666665,"heading_deg":222.09124260717243,"speed_ms":10.8396507919393,"peak_altitude_m":200.0,"u_ms":-7.166507947767759,"v_ms":-7.814645883107376}},{"type":"Feature","geometry":{"type":"Point","coordinates":[-85.5449,42.8939]},"properties":{"site":"KGRR","name":"Grand Rapids MI","scan_time":"2026-10-07T03:02:12Z","stale":false,"bins":25,"density_birds_km3":0.2713333333333333,"heading_deg":38.13981704422428,"speed_ms":13.447321867321868,"peak_altitude_m":200.0,"u_ms":8.533832923832923,"v_ms":10.224226044226045}},{"type":"Feature","geometry":{"type":"Point","coordinates":[-81.7019,30.4846]},"properties":{"site":"KJAX","name":"Jacksonville FL","scan_time":"2026-10-07T02:58:18Z","stale":false,"bins":25,"density_birds_km3":653.1566666666666,"heading_deg":203.97296916275474,"speed_ms":10.592888218298555,"peak_altitude_m":0.0,"u_ms":-4.331946093097914,"v_ms":-9.507589059390048}},{"type":"Feature","geometry":{"type":"Point","coordinates":[-88.0847,41.6045]},"properties":{"site":"KLOT","name":"Chicago IL","scan_time":"2026-10-07T02:57:27Z","stale":false,"bins":25,"density_birds_km3":0.5833333333333334,"heading_deg":40.08299348592258,"speed_ms":16.23131880733945,"peak_altitude_m":200.0,"u_ms":10.32802752293578,"v_ms":12.20158256880734}},{"type":"Feature","geometry":{"type":"Point","coordinates":[-78.4292,33.9892]},"properties":{"site":"KLTX","name":"Wilmington NC","scan_time":"2026-10-07T02:59:17Z","stale":false,"bins":25,"density_birds_km3":76.986875,"heading_deg":222.2697132601054,"speed_ms":12.33295837764554,"peak_altitude_m":0.0,"u_ms":-8.318049099278285,"v_ms":-9.00533686748553}},{"type":"Feature","geometry":{"type":"Point","coordinates":[-77.4778,38.9753]},"properties":{"site":"KLWX","name":"Sterling VA","scan_time":"2026-10-07T03:00:55Z","stale":false,"bins":25,"density_birds_km3":44.049375,"heading_deg":260.64889724025795,"speed_ms":6.622256416805007,"peak_altitude_m":200.0,"u_ms":-5.56015990578754,"v_ms":-0.9983586600263908}},{"type":"Feature","geometry":{"type":"Point","coordinates":[-76.8762,34.7759]},"properties":{"site":"KMHX","name":"Morehead City NC","scan_time":"2026-10-07T02:57:58Z","stale":false,"bins":25,"density_birds_km3":26.839375,"heading_deg":211.82462780587065,"speed_ms":11.623521192361434,"peak_altitude_m":0.0,"u_ms":-6.04744364229157,"v_ms":-9.652092920353981}},{"type":"Feature","geometry":{"type":"Point","coordinates":[-80.6542,28.1133]},"properties":{"site":"KMLB","name":"Melbourne FL","scan_time":"2026-10-07T02:57:31Z","stale":false,"bins":25,"density_birds_km3":147.2290909090909,"heading_deg":168.1918844137512,"speed_ms":4.060146799213312,"peak_altitude_m":0.0,"u_ms":0.8181726283570167,"v_ms":-3.850054437202559}},{"type":"Feature","geometry":{"type":"Point","coordinates":[-86.5625,36.2472]},"properties":{"site":"KOHX","name":"Nashville TN","scan_time":"2026-10-07T03:00:47Z","stale":false,"bins":25,"density_birds_km3":33.89333333333334,"heading_deg":236.49684082838945,"speed_ms":4.822600118017308,"peak_altitude_m":200.0,"u_ms":-1.1174880015735642,"v_ms":-0.9835015735641226}},{"type":"Feature","geometry":{"type":"Point","coordinates":[-72.8639,40.8655]},"properties":{"site":"KOKX","name":"Upton NY","scan_time":"2026-10-07T02:59:06Z","stale":false,"bins":25,"density_birds_km3":17.731875,"heading_deg":220.77185253760746,"speed_ms":7.649850188586131,"peak_altitude_m":0.0,"u_ms":-5.015551129754309,"v_ms":-5.685485212732208}},{"type":"Feature","geometry":{"type":"Point","coordinates":[-80.2183,40.5317]},"properties":{"site":"KPBZ","name":"Pittsburgh PA","scan_time":"2026-10-07T03:01:54Z","stale":false,"bins":25,"density_birds_km3":3.2528571428571427,"heading_deg":325.8276879802737,"speed_ms":5.0987162013629375,"peak_altitude_m":400.0,"u_ms":-2.735234117388437,"v_ms":3.3615761705869422}},{"type":"Feature","geometry":{"type":"Point","coordinates":[-78.4899,35.6655]},"properties":{"site":"KRAX","name":"Raleigh NC","scan_time":"2026-10-07T02:58:07Z","stale":false,"bins":25,"density_birds_km3":62.25875,"heading_deg":209.70651134317708,"speed_ms":9.667533089638274,"peak_altitude_m":200.0,"u_ms":-4.808181325192312,"v_ms":-8.336986282110507}},{"type":"Feature","geometry":{"type":"Point","coordinates":[-82.4017,27.7055]},"properties":{"site":"KTBW","name":"Tampa FL","scan_time":"2026-10-07T02:59:45Z","stale":false,"bins":25,"density_birds_km3":6.659375,"heading_deg":294.55871439972094,"speed_ms":4.715580172737514,"peak_altitude_m":0.0,"u_ms":-3.5657313180623356,"v_ms":1.716185692827638}}]}