{"type":"FeatureCollection","frame":"2026-09-10T04","site_count":20,"fresh_count":20,"failures":{},"features":[{"type":"Feature","geometry":{"type":"Point","coordinates":[-77.0073,36.984]},"properties":{"site":"KAKQ","name":"Wakefield VA","scan_time":"2026-09-10T04:01:32Z","stale":false,"bins":25,"density_birds_km3":2.025,"heading_deg":31.167630247430818,"speed_ms":13.798796641791043,"peak_altitude_m":200.0,"u_ms":7.172154850746269,"v_ms":11.514667288557211}},{"type":"Feature","geometry":{"type":"Point","coordinates":[-71.1369,41.9558]},"properties":{"site":"KBOX","name":"Boston MA","scan_time":"2026-09-10T03:58:50Z","stale":false,"bins":25,"density_birds_km3":0.349375,"heading_deg":32.069168777031855,"speed_ms":13.148202020202021,"peak_altitude_m":0.0,"u_ms":7.292929292929293,"v_ms":10.634181818181819}},{"type":"Feature","geometry":{"type":"Point","coordinates":[-78.7369,42.9489]},"properties":{"site":"KBUF","name":"Buffalo NY","scan_time":"2026-09-10T04:00:36Z","stale":false,"bins":25,"density_birds_km3":1.6586666666666665,"heading_deg":92.7325545324815,"speed_ms":11.279449356913183,"peak_altitude_m":200.0,"u_ms":11.001422829581994,"v_ms":-0.7744252411575564}},{"type":"Feature","geometry":{"type":"Point","coordinates":[-81.8597,41.4131]},"properties":{"site":"KCLE","name":"Cleveland OH","scan_time":"2026-09-10T03:58:04Z","stale":false,"bins":25,"density_birds_km3":4.685333333333333,"heading_deg":127.01359622315836,"speed_ms":13.002433124644279,"peak_altitude_m":600.0,"u_ms":10.015136596471256,"v_ms":-7.796424302788844}},{"type":"Feature","geometry":{"type":"Point","coordinates":[-81.0423,32.6555]},"properties":{"site":"KCLX","name":"Charleston SC","scan_time":"2026-09-10T03:58:04Z","stale":false,"bins":25,"density_birds_km3":3.859375,"heading_deg":252.12692946620527,"speed_ms":7.086381600259151,"peak_altitude_m":0.0,"u_ms":-6.6698088759313245,"v_ms":-2.1103952057013284}},{"type":"Feature","geometry":{"type":"Point","coordinates":[-74.4108,39.947]},"properties":{"site":"KDIX","name":"Philadelphia PA","scan_time":"2026-09-10T03:57:52Z","stale":false,"bins":25,"density_birds_km3":0.684375,"heading_deg":32.64799059162576,"speed_ms":14.853589041095892,"peak_altitude_m":0.0,"u_ms":8.446867579908677,"v_ms":11.790100456621005}},{"type":"Feature","geometry":{"type":"Point","coordinates":[-84.5658,33.3636]},"properties":{"site":"KFFC","name":"Atlanta GA","scan_time":"2026-09-10T04:03:07Z","stale":false,"bins":25,"density_birds_km3":17.145333333333333,"heading_deg":290.8646749385037,"speed_ms":7.033590481374912,"peak_altitude_m":400.0,"u_ms":-4.798330741115172,"v_ms":2.4373100552142466}},{"type":"Feature","geometry":{"type":"Point","coordinates":[-85.5449,42.8939]},"properties":{"site":"KGRR","name":"Grand Rapids MI","scan_time":"2026-09-10T03:57:38Z","stale":false,"bins":25,"density_birds_km3":93.22666666666666,"heading_deg":134.2777128197997,"speed_ms":21.909962098458195,"peak_altitude_m":1400.0,"u_ms":15.2268161274636,"v_ms":-15.434939643582485}},{"type":"Feature","geometry":{"type":"Point","coordinates":[-83.8217,39.4203]},"properties":{"site":"KILN","name":"Wilmington OH","scan_time":"2026-09-10T04:02:04Z","stale":false,"bins":25,"density_birds_km3":41.20133333333333,"heading_deg":163.96784428109032,"speed_ms":9.302057993577892,"peak_altitude_m":200.0,"u_ms":2.634841717751614,"v_ms":-8.633871265933639}},{"type":"Feature","geometry":{"type":"Point","coordinates":[-81.7019,30.4846]},"properties":{"site":"KJAX","name":"Jacksonville FL","scan_time":"2026-09-10T04:00:52Z","stale":false,"bins":25,"density_birds_km3":21.2625,"heading_deg":185.8208914334557,"speed_ms":6.586705958434992,"peak_altitude_m":0.0,"u_ms":-0.6358296834122108,"v_ms":-6.549844498662512}},{"type":"Feature","geometry":{"type":"Point","coordinates":[-88.0847,41.6045]},"properties":{"site":"KLOT","name":"Chicago IL","scan_time":"2026-09-10T03:57:46Z","stale":false,"bins":25,"density_birds_km3":152.99866666666668,"heading_deg":157.50361141728303,"speed_ms":17.56396683356105,"peak_altitude_m":1400.0,"u_ms":6.28190015147084,"v_ms":-16.140134141177807}},{"type":"Feature","geometry":{"type":"Point","coordinates":[-78.4292,33.9892]},"properties":{"site":"KLTX","name":"Wilmington NC","scan_time":"2026-09-10T03:59:23Z","stale":false,"bins":25,"density_birds_km3":1.42625,"heading_deg":352.9932478126666,"speed_ms":6.618621673003802,"peak_altitude_m":0.0,"u_ms":-0.6166207224334601,"v_ms":4.8196577946768056}},{"type":"Feature","geometry":{"type":"Point","coordinates":[-77.4778,38.9753]},"properties":{"site":"KLWX","name":"Sterling VA","scan_time":"2026-09-10T03:58:53Z","stale":false,"bins":25,"density_birds_km3":3.910625,"heading_deg":30.735613268949017,"speed_ms":12.060060815253124,"peak_altitude_m":0.0,"u_ms":6.51904996712689,"v_ms":9.144184746877054}},{"type":"Feature","geometry":{"type":"Point","coordinates":[-76.8762,34.7759]},"properties":{"site":"KMHX","name":"Morehead City NC","scan_time":"2026-09-10T03:59:39Z","stale":false,"bins":25,"density_birds_km3":0.52,"heading_deg":23.584130500564576,"speed_ms":7.0250966183574866,"peak_altitude_m":0.0,"u_ms":1.9899758454106278,"v_ms":5.517403381642511}},{"type":"Feature","geometry":{"type":"Point","coordinates":[-80.6542,28.1133]},"properties":{"site":"KMLB","name":"Melbourne FL","scan_time":"2026-09-10T04:02:17Z","stale":false,"bins":25,"density_birds_km3":3.646875,"heading_deg":274.4254961843129,"speed_ms":3.1291840932464865,"peak_altitude_m":0.0,"u_ms":-2.981211861501543,"v_ms":0.5625677065478232}},{"type":"Feature","geometry":{"type":"Point","coordinates":[-86.5625,36.2472]},"properties":{"site":"KOHX","name":"Nashville TN","scan_time":"2026-09-10T03:59:09Z","stale":false,"bins":25,"density_birds_km3":10.910666666666666,"heading_deg":59.96610099336183,"speed_ms":9.49573994867408,"peak_altitude_m":400.0,"u_ms":7.034054136624709,"v_ms":4.745182695832824}},{"type":"Feature","geometry":{"type":"Point","coordinates":[-72.8639,40.8655]},"properties":{"site":"KOKX","name":"Upton NY","scan_time":"2026-09-10T04:01:11Z","stale":false,"bins":25,"density_birds_km3":0.305,"heading_deg":36.1130306139161,"speed_ms":17.612636579572445,"peak_altitude_m":0.0,"u_ms":10.386793349168647,"v_ms":14.01418052256532}},{"type":"Feature","geometry":{"type":"Point","coordinates":[-80.2183,40.5317]},"properties":{"site":"KPBZ","name":"Pittsburgh PA","scan_time":"2026-09-10T04:02:37Z","stale":false,"bins":25,"density_birds_km3":9.900714285714287,"heading_deg":112.27470213049571,"speed_ms":8.596007109900915,"peak_altitude_m":600.0,"u_ms":7.177124271991528,"v_ms":-3.7332637470690564}},{"type":"Feature","geometry":{"type":"Point","coordinates":[-78.4899,35.6655]},"properties":{"site":"KRAX","name":"Raleigh NC","scan_time":"2026-09-10T04:03:26Z","stale":false,"bins":25,"density_birds_km3":4.208125,"heading_deg":26.858819385504834,"speed_ms":9.948181675802664,"peak_altitude_m":200.0,"u_ms":3.97938136256852,"v_ms":8.165572435395458}},{"type":"Feature","geometry":{"type":"Point","coordinates":[-82.4017,27.7055]},"properties":{"site":"KTBW","name":"Tampa FL","scan_time":"2026-09-10T03:57:11Z","stale":false,"bins":25,"density_birds_km3":4.224375,"heading_deg":282.47435633328433,"speed_ms":5.057721556443261,"peak_altitude_m":0.0,"u_ms":-4.764922325787838,"v_ms":1.0356073383636633}}]}