{"type":"FeatureCollection","frame":"2026-09-01T11","site_count":20,"fresh_count":20,"failures":{},"features":[{"type":"Feature","geometry":{"type":"Point","coordinates":[-77.0073,36.984]},"properties":{"site":"KAKQ","name":"Wakefield VA","scan_time":"2026-09-01T11:01:42Z","stale":false,"bins":25,"density_birds_km3":1.675,"heading_deg":125.09133075049292,"speed_ms":8.018036990332073,"peak_altitude_m":200.0,"u_ms":6.181668768390081,"v_ms":-4.5284909625893235}},{"type":"Feature","geometry":{"type":"Point","coordinates":[-71.1369,41.9558]},"properties":{"site":"KBOX","name":"Boston MA","scan_time":"2026-09-01T11:00:36Z","stale":false,"bins":25,"density_birds_km3":1.54125,"heading_deg":315.8936481092773,"speed_ms":1.7050853658536587,"peak_altitude_m":0.0,"u_ms":-1.1334308943089433,"v_ms":1.1406869918699187}},{"type":"Feature","geometry":{"type":"Point","coordinates":[-78.7369,42.9489]},"properties":{"site":"KBUF","name":"Buffalo NY","scan_time":"2026-09-01T10:56:44Z","stale":false,"bins":25,"density_birds_km3":1.4046666666666667,"heading_deg":87.84241273423282,"speed_ms":9.130363810435615,"peak_altitude_m":200.0,"u_ms":9.083489707994255,"v_ms":0.33402106270943027}},{"type":"Feature","geometry":{"type":"Point","coordinates":[-81.8597,41.4131]},"properties":{"site":"KCLE","name":"Cleveland OH","scan_time":"2026-09-01T11:02:05Z","stale":false,"bins":25,"density_birds_km3":4.857333333333333,"heading_deg":108.13454550981879,"speed_ms":13.422522312233971,"peak_altitude_m":800.0,"u_ms":12.016213098997666,"v_ms":-4.628199917616367}},{"type":"Feature","geometry":{"type":"Point","coordinates":[-81.0423,32.6555]},"properties":{"site":"KCLX","name":"Charleston SC","scan_time":"2026-09-01T11:02:31Z","stale":false,"bins":25,"density_birds_km3":5.319375,"heading_deg":202.96669340004092,"speed_ms":6.4592381848107205,"peak_altitude_m":0.0,"u_ms":-2.457251351986833,"v_ms":-5.921837526451916}},{"type":"Feature","geometry":{"type":"Point","coordinates":[-74.4108,39.947]},"properties":{"site":"KDIX","name":"Philadelphia PA","scan_time":"2026-09-01T10:57:50Z","stale":false,"bins":25,"density_birds_km3":0.6975,"heading_deg":109.78162867348273,"speed_ms":10.482071748878925,"peak_altitude_m":600.0,"u_ms":9.541174887892376,"v_ms":-3.83572197309417}},{"type":"Feature","geometry":{"type":"Point","coordinates":[-84.5658,33.3636]},"properties":{"site":"KFFC","name":"Atlanta GA","scan_time":"2026-09-01T10:59:23Z","stale":false,"bins":25,"density_birds_km3":4.3,"heading_deg":95.04000270848009,"speed_ms":1.350336486276942,"peak_altitude_m":200.0,"u_ms":1.2223678089626298,"v_ms":-0.07854706155993177}},{"type":"Feature","geometry":{"type":"Point","coordinates":[-85.5449,42.8939]},"properties":{"site":"KGRR","name":"Grand Rapids MI","scan_time":"2026-09-01T10:59:48Z","stale":false,"bins":25,"density_birds_km3":9.513333333333332,"heading_deg":112.18205633184932,"speed_ms":8.28132211706975,"peak_altitude_m":600.0,"u_ms":7.568716438836312,"v_ms":-3.147179810725552}},{"type":"Feature","geometry":{"type":"Point","coordinates":[-83.8217,39.4203]},"properties":{"site":"KILN","name":"Wilmington OH","scan_time":"2026-09-01T10:57:20Z","stale":false,"bins":25,"density_birds_km3":6.006,"heading_deg":88.64332540619375,"speed_ms":10.801314825097167,"peak_altitude_m":200.0,"u_ms":10.572932815102721,"v_ms":0.005520266518600707}},{"type":"Feature","geometry":{"type":"Point","coordinates":[-81.7019,30.4846]},"properties":{"site":"KJAX","name":"Jacksonville FL","scan_time":"2026-09-01T11:01:32Z","stale":false,"bins":25,"density_birds_km3":8.26875,"heading_deg":192.12003599908707,"speed_ms":9.050047622647215,"peak_altitude_m":0.0,"u_ms":-1.882690301610099,"v_ms":-8.840600952452943}},{"type":"Feature","geometry":{"type":"Point","coordinates":[-88.0847,41.6045]},"properties":{"site":"KLOT","name":"Chicago IL","scan_time":"2026-09-01T10:59:55Z","stale":false,"bins":25,"density_birds_km3":24.946666666666665,"heading_deg":134.89818219481117,"speed_ms":13.75051469802245,"peak_altitude_m":600.0,"u_ms":9.551598877605558,"v_ms":-9.769545697487976}},{"type":"Feature","geometry":{"type":"Point","coordinates":[-78.4292,33.9892]},"properties":{"site":"KLTX","name":"Wilmington NC","scan_time":"2026-09-01T10:58:16Z","stale":false,"bins":25,"density_birds_km3":6.54125,"heading_deg":186.7233429715665,"speed_ms":5.447573353722642,"peak_altitude_m":0.0,"u_ms":-0.9702370257096434,"v_ms":-4.989861416419765}},{"type":"Feature","geometry":{"type":"Point","coordinates":[-77.4778,38.9753]},"properties":{"site":"KLWX","name":"Sterling VA","scan_time":"2026-09-01T11:02:19Z","stale":false,"bins":25,"density_birds_km3":4.320625,"heading_deg":131.9508851866045,"speed_ms":6.149423021165555,"peak_altitude_m":0.0,"u_ms":3.8840721948390833,"v_ms":-4.656791823717019}},{"type":"Feature","geometry":{"type":"Point","coordinates":[-76.8762,34.7759]},"properties":{"site":"KMHX","name":"Morehead City NC","scan_time":"2026-09-01T10:59:55Z","stale":false,"bins":25,"density_birds_km3":3.868125,"heading_deg":184.78845508258567,"speed_ms":5.273725965422524,"peak_altitude_m":0.0,"u_ms":-0.5794538697689448,"v_ms":-4.542415576021974}},{"type":"Feature","geometry":{"type":"Point","coordinates":[-80.6542,28.1133]},"properties":{"site":"KMLB","name":"Melbourne FL","scan_time":"2026-09-01T10:57:48Z","stale":false,"bins":25,"density_birds_km3":3.5387500000000003,"heading_deg":181.71644385237062,"speed_ms":6.036571882726951,"peak_altitude_m":0.0,"u_ms":0.06686859766866822,"v_ms":-5.6837954786294596}},{"type":"Feature","geometry":{"type":"Point","coordinates":[-86.5625,36.2472]},"properties":{"site":"KOHX","name":"Nashville TN","scan_time":"2026-09-01T11:02:31Z","stale":false,"bins":25,"density_birds_km3":3.2233333333333336,"heading_deg":90.49106580782087,"speed_ms":4.553642192347466,"peak_altitude_m":200.0,"u_ms":4.523822130299896,"v_ms":0.005675284384694933}},{"type":"Feature","geometry":{"type":"Point","coordinates":[-72.8639,40.8655]},"properties":{"site":"KOKX","name":"Upton NY","scan_time":"2026-09-01T11:02:24Z","stale":false,"bins":25,"density_birds_km3":4.1812499999999995,"heading_deg":245.30394659556032,"speed_ms":2.701959073126693,"peak_altitude_m":200.0,"u_ms":-2.0221020162503764,"v_ms":-0.47236984652422487}},{"type":"Feature","geometry":{"type":"Point","coordinates":[-80.2183,40.5317]},"properties":{"site":"KPBZ","name":"Pittsburgh PA","scan_time":"2026-09-01T10:59:05Z","stale":false,"bins":25,"density_birds_km3":1.9557142857142857,"heading_deg":96.42326229758075,"speed_ms":13.540788897005115,"peak_altitude_m":400.0,"u_ms":12.930588020452888,"v_ms":-2.1172680788897007}},{"type":"Feature","geometry":{"type":"Point","coordinates":[-78.4899,35.6655]},"properties":{"site":"KRAX","name":"Raleigh NC","scan_time":"2026-09-01T10:58:10Z","stale":false,"bins":25,"density_birds_km3":1.7706250000000001,"heading_deg":105.88532217726062,"speed_ms":5.3968648266100505,"peak_altitude_m":0.0,"u_ms":5.154363057324841,"v_ms":-1.4402618542108987}},{"type":"Feature","geometry":{"type":"Point","coordinates":[-82.4017,27.7055]},"properties":{"site":"KTBW","name":"Tampa FL","scan_time":"2026-09-01T11:01:04Z","stale":false,"bins":25,"density_birds_km3":2.9899999999999998,"heading_deg":212.8211252679583,"speed_ms":4.247574743884591,"peak_altitude_m":0.0,"u_ms":-2.1801317164959233,"v_ms":-3.6093016934978044}}]}