{"type":"FeatureCollection","frame":"2026-08-22T12","site_count":20,"fresh_count":20,"failures":{},"features":[{"type":"Feature","geometry":{"type":"Point","coordinates":[-77.0073,36.984]},"properties":{"site":"KAKQ","name":"Wakefield VA","scan_time":"2026-08-22T11:57:54Z","stale":false,"bins":25,"density_birds_km3":0.230625,"heading_deg":290.3374107809155,"speed_ms":3.783550135501355,"peak_altitude_m":0.0,"u_ms":-3.54189701897019,"v_ms":1.2902710027100273}},{"type":"Feature","geometry":{"type":"Point","coordinates":[-71.1369,41.9558]},"properties":{"site":"KBOX","name":"Boston MA","scan_time":"2026-08-22T11:58:48Z","stale":false,"bins":25,"density_birds_km3":1.04,"heading_deg":199.25208864391595,"speed_ms":5.324363307181653,"peak_altitude_m":0.0,"u_ms":-1.8107483403741702,"v_ms":-4.913916716958358}},{"type":"Feature","geometry":{"type":"Point","coordinates":[-78.7369,42.9489]},"properties":{"site":"KBUF","name":"Buffalo NY","scan_time":"2026-08-22T11:57:31Z","stale":false,"bins":25,"density_birds_km3":1.0693333333333332,"heading_deg":18.96804275989825,"speed_ms":6.320972568578554,"peak_altitude_m":200.0,"u_ms":1.923709476309227,"v_ms":5.855579800498754}},{"type":"Feature","geometry":{"type":"Point","coordinates":[-81.8597,41.4131]},"properties":{"site":"KCLE","name":"Cleveland OH","scan_time":"2026-08-22T12:00:55Z","stale":false,"bins":25,"density_birds_km3":2.0626666666666664,"heading_deg":323.5149322382034,"speed_ms":6.102577386770935,"peak_altitude_m":200.0,"u_ms":-3.355386119257087,"v_ms":4.761635711958292}},{"type":"Feature","geometry":{"type":"Point","coordinates":[-81.0423,32.6555]},"properties":{"site":"KCLX","name":"Charleston SC","scan_time":"2026-08-22T11:59:33Z","stale":false,"bins":25,"density_birds_km3":0.353125,"heading_deg":82.43814852423047,"speed_ms":3.103982300884956,"peak_altitude_m":0.0,"u_ms":2.943079646017699,"v_ms":0.3348495575221239}},{"type":"Feature","geometry":{"type":"Point","coordinates":[-74.4108,39.947]},"properties":{"site":"KDIX","name":"Philadelphia PA","scan_time":"2026-08-22T12:02:34Z","stale":false,"bins":25,"density_birds_km3":0.9230769230769231,"heading_deg":null,"speed_ms":null,"peak_altitude_m":0.0,"u_ms":null,"v_ms":null}},{"type":"Feature","geometry":{"type":"Point","coordinates":[-84.5658,33.3636]},"properties":{"site":"KFFC","name":"Atlanta GA","scan_time":"2026-08-22T12:01:58Z","stale":false,"bins":25,"density_birds_km3":3.4419999999999997,"heading_deg":190.3869581503421,"speed_ms":5.728567829457365,"peak_altitude_m":600.0,"u_ms":-1.0810077519379844,"v_ms":-5.511312015503876}},{"type":"Feature","geometry":{"type":"Point","coordinates":[-85.5449,42.8939]},"properties":{"site":"KGRR","name":"Grand Rapids MI","scan_time":"2026-08-22T12:00:43Z","stale":false,"bins":25,"density_birds_km3":0.592,"heading_deg":49.595033180023904,"speed_ms":2.6035923423423424,"peak_altitude_m":200.0,"u_ms":1.9779279279279283,"v_ms":1.5118693693693692}},{"type":"Feature","geometry":{"type":"Point","coordinates":[-83.8217,39.4203]},"properties":{"site":"KILN","name":"Wilmington OH","scan_time":"2026-08-22T12:00:07Z","stale":false,"bins":25,"density_birds_km3":0.9773333333333334,"heading_deg":96.64644916469905,"speed_ms":6.680554035567715,"peak_altitude_m":200.0,"u_ms":6.589507523939808,"v_ms":-0.8515595075239397}},{"type":"Feature","geometry":{"type":"Point","coordinates":[-81.7019,30.4846]},"properties":{"site":"KJAX","name":"Jacksonville FL","scan_time":"2026-08-22T11:59:29Z","stale":false,"bins":25,"density_birds_km3":0.50875,"heading_deg":67.25271789937938,"speed_ms":6.005447761194031,"peak_altitude_m":0.0,"u_ms":5.517972636815921,"v_ms":2.1902238805970153}},{"type":"Feature","geometry":{"type":"Point","coordinates":[-88.0847,41.6045]},"properties":{"site":"KLOT","name":"Chicago IL","scan_time":"2026-08-22T11:57:03Z","stale":false,"bins":25,"density_birds_km3":2.1153333333333335,"heading_deg":166.81485137243874,"speed_ms":12.045963418479975,"peak_altitude_m":400.0,"u_ms":2.6676631977294227,"v_ms":-11.713159886471145}},{"type":"Feature","geometry":{"type":"Point","coordinates":[-78.4292,33.9892]},"properties":{"site":"KLTX","name":"Wilmington NC","scan_time":"2026-08-22T12:01:58Z","stale":false,"bins":25,"density_birds_km3":0.845625,"heading_deg":207.19999999999996,"speed_ms":5.03,"peak_altitude_m":0.0,"u_ms":-2.3,"v_ms":-4.48}},{"type":"Feature","geometry":{"type":"Point","coordinates":[-77.4778,38.9753]},"properties":{"site":"KLWX","name":"Sterling VA","scan_time":"2026-08-22T12:01:11Z","stale":false,"bins":25,"density_birds_km3":2.725,"heading_deg":266.07940064092236,"speed_ms":4.88571067738232,"peak_altitude_m":200.0,"u_ms":-4.733083811710678,"v_ms":0.039329506314580896}},{"type":"Feature","geometry":{"type":"Point","coordinates":[-76.8762,34.7759]},"properties":{"site":"KMHX","name":"Morehead City NC","scan_time":"2026-08-22T12:00:50Z","stale":false,"bins":25,"density_birds_km3":1.483125,"heading_deg":209.32349790793452,"speed_ms":6.70038769490097,"peak_altitude_m":0.0,"u_ms":-3.209549093973873,"v_ms":-5.579570164348925}},{"type":"Feature","geometry":{"type":"Point","coordinates":[-80.6542,28.1133]},"properties":{"site":"KMLB","name":"Melbourne FL","scan_time":"2026-08-22T12:00:40Z","stale":false,"bins":25,"density_birds_km3":0.9924999999999999,"heading_deg":56.74937520811189,"speed_ms":4.552482671707625,"peak_altitude_m":0.0,"u_ms":3.767473219911783,"v_ms":2.4368872085696283}},{"type":"Feature","geometry":{"type":"Point","coordinates":[-86.5625,36.2472]},"properties":{"site":"KOHX","name":"Nashville TN","scan_time":"2026-08-22T12:00:11Z","stale":false,"bins":25,"density_birds_km3":8.324666666666666,"heading_deg":165.61104068314762,"speed_ms":7.792150236245696,"peak_altitude_m":400.0,"u_ms":2.1670353167293985,"v_ms":-7.343374709698086}},{"type":"Feature","geometry":{"type":"Point","coordinates":[-72.8639,40.8655]},"properties":{"site":"KOKX","name":"Upton NY","scan_time":"2026-08-22T12:00:55Z","stale":false,"bins":25,"density_birds_km3":0.946875,"heading_deg":239.77365759021768,"speed_ms":4.954240422721268,"peak_altitude_m":200.0,"u_ms":-4.267490092470278,"v_ms":-2.4579524438573315}},{"type":"Feature","geometry":{"type":"Point","coordinates":[-80.2183,40.5317]},"properties":{"site":"KPBZ","name":"Pittsburgh PA","scan_time":"2026-08-22T12:01:23Z","stale":false,"bins":25,"density_birds_km3":0.31714285714285717,"heading_deg":323.87229679648607,"speed_ms":4.631380090497738,"peak_altitude_m":400.0,"u_ms":-2.5247058823529414,"v_ms":3.3948416289592767}},{"type":"Feature","geometry":{"type":"Point","coordinates":[-78.4899,35.6655]},"properties":{"site":"KRAX","name":"Raleigh NC","scan_time":"2026-08-22T12:01:42Z","stale":false,"bins":25,"density_birds_km3":2.9518750000000002,"heading_deg":209.27575606375052,"speed_ms":3.3088538135593217,"peak_altitude_m":400.0,"u_ms":-1.4448389830508472,"v_ms":-2.3083199152542373}},{"type":"Feature","geometry":{"type":"Point","coordinates":[-82.4017,27.7055]},"properties":{"site":"KTBW","name":"Tampa FL","scan_time":"2026-08-22T11:59:29Z","stale":false,"bins":25,"density_birds_km3":0.62625,"heading_deg":354.0481473401428,"speed_ms":4.31084915084915,"peak_altitude_m":0.0,"u_ms":-0.4157342657342657,"v_ms":4.123576423576424}}]}