{"type":"FeatureCollection","frame":"2026-10-10T06","site_count":20,"fresh_count":20,"failures":{},"features":[{"type":"Feature","geometry":{"type":"Point","coordinates":[-77.0073,36.984]},"properties":{"site":"KAKQ","name":"Wakefield VA","scan_time":"2026-10-10T06:00:28Z","stale":false,"bins":25,"density_birds_km3":2.98625,"heading_deg":237.36557506250455,"speed_ms":8.99727291753872,"peak_altitude_m":200.0,"u_ms":-7.406584344914189,"v_ms":-4.845274173294266}},{"type":"Feature","geometry":{"type":"Point","coordinates":[-71.1369,41.9558]},"properties":{"site":"KBOX","name":"Boston MA","scan_time":"2026-10-10T06:03:02Z","stale":false,"bins":25,"density_birds_km3":3.690625,"heading_deg":135.7348379532478,"speed_ms":10.454572396274344,"peak_altitude_m":0.0,"u_ms":7.35481964436918,"v_ms":-7.4060592718035565}},{"type":"Feature","geometry":{"type":"Point","coordinates":[-78.7369,42.9489]},"properties":{"site":"KBUF","name":"Buffalo NY","scan_time":"2026-10-10T06:00:24Z","stale":false,"bins":25,"density_birds_km3":85.64066666666666,"heading_deg":213.26560844195578,"speed_ms":10.453756860058695,"peak_altitude_m":400.0,"u_ms":-5.757836230451265,"v_ms":-8.402877527031551}},{"type":"Feature","geometry":{"type":"Point","coordinates":[-81.8597,41.4131]},"properties":{"site":"KCLE","name":"Cleveland OH","scan_time":"2026-10-10T06:00:01Z","stale":false,"bins":25,"density_birds_km3":3.258,"heading_deg":308.10511705367225,"speed_ms":10.477413016782645,"peak_altitude_m":200.0,"u_ms":-8.063078182562421,"v_ms":6.245440032746623}},{"type":"Feature","geometry":{"type":"Point","coordinates":[-81.0423,32.6555]},"properties":{"site":"KCLX","name":"Charleston SC","scan_time":"2026-10-10T06:01:27Z","stale":false,"bins":25,"density_birds_km3":38.8725,"heading_deg":240.13959693785282,"speed_ms":9.869318920051692,"peak_altitude_m":0.0,"u_ms":-8.564689322762042,"v_ms":-4.910800530893089}},{"type":"Feature","geometry":{"type":"Point","coordinates":[-74.4108,39.947]},"properties":{"site":"KDIX","name":"Philadelphia PA","scan_time":"2026-10-10T06:01:19Z","stale":false,"bins":25,"density_birds_km3":11.246875,"heading_deg":218.5124374902905,"speed_ms":8.540416782439566,"peak_altitude_m":200.0,"u_ms":-5.326754098360656,"v_ms":-6.528512920255627}},{"type":"Feature","geometry":{"type":"Point","coordinates":[-84.5658,33.3636]},"properties":{"site":"KFFC","name":"Atlanta GA","scan_time":"2026-10-10T06:01:57Z","stale":false,"bins":25,"density_birds_km3":null,"heading_deg":null,"speed_ms":null,"peak_altitude_m":null,"u_ms":null,"v_ms":null}},{"type":"Feature","geometry":{"type":"Point","coordinates":[-85.5449,42.8939]},"properties":{"site":"KGRR","name":"Grand Rapids MI","scan_time":"2026-10-10T05:58:24Z","stale":false,"bins":25,"density_birds_km3":10.277999999999999,"heading_deg":276.3658606531219,"speed_ms":12.585519232016606,"peak_altitude_m":200.0,"u_ms":-12.307307517675294,"v_ms":1.413943698514627}},{"type":"Feature","geometry":{"type":"Point","coordinates":[-83.8217,39.4203]},"properties":{"site":"KILN","name":"Wilmington OH","scan_time":"2026-10-10T06:00:40Z","stale":false,"bins":25,"density_birds_km3":2.417333333333333,"heading_deg":302.43175078747646,"speed_ms":10.752523441809156,"peak_altitude_m":200.0,"u_ms":-8.82703805846663,"v_ms":5.685722559293988}},{"type":"Feature","geometry":{"type":"Point","coordinates":[-81.7019,30.4846]},"properties":{"site":"KJAX","name":"Jacksonville FL","scan_time":"2026-10-10T06:01:55Z","stale":false,"bins":25,"density_birds_km3":17.454375,"heading_deg":304.6822707211418,"speed_ms":7.771137666618891,"peak_altitude_m":200.0,"u_ms":-4.508354951985094,"v_ms":4.657129496918447}},{"type":"Feature","geometry":{"type":"Point","coordinates":[-88.0847,41.6045]},"properties":{"site":"KLOT","name":"Chicago IL","scan_time":"2026-10-10T06:00:31Z","stale":false,"bins":25,"density_birds_km3":0.7013333333333333,"heading_deg":2.3561211231992107,"speed_ms":15.235765937202666,"peak_altitude_m":200.0,"u_ms":0.7834443387250238,"v_ms":15.01592768791627}},{"type":"Feature","geometry":{"type":"Point","coordinates":[-78.4292,33.9892]},"properties":{"site":"KLTX","name":"Wilmington NC","scan_time":"2026-10-10T06:00:48Z","stale":false,"bins":25,"density_birds_km3":44.16,"heading_deg":235.9989334330839,"speed_ms":13.174781936730257,"peak_altitude_m":0.0,"u_ms":-10.955883120019317,"v_ms":-7.2669360057957}},{"type":"Feature","geometry":{"type":"Point","coordinates":[-77.4778,38.9753]},"properties":{"site":"KLWX","name":"Sterling VA","scan_time":"2026-10-10T05:59:11Z","stale":false,"bins":25,"density_birds_km3":23.413125,"heading_deg":237.55931283196384,"speed_ms":6.431424757735123,"peak_altitude_m":200.0,"u_ms":-5.157805867748739,"v_ms":-3.501366293814571}},{"type":"Feature","geometry":{"type":"Point","coordinates":[-76.8762,34.7759]},"properties":{"site":"KMHX","name":"Morehead City NC","scan_time":"2026-10-10T05:59:30Z","stale":false,"bins":25,"density_birds_km3":3.2186666666666666,"heading_deg":221.52217309029913,"speed_ms":10.04349279298099,"peak_altitude_m":0.0,"u_ms":-6.581882180906622,"v_ms":-7.160116983496971}},{"type":"Feature","geometry":{"type":"Point","coordinates":[-80.6542,28.1133]},"properties":{"site":"KMLB","name":"Melbourne FL","scan_time":"2026-10-10T05:58:58Z","stale":false,"bins":25,"density_birds_km3":4.836875,"heading_deg":342.4691090012063,"speed_ms":6.934374515378652,"peak_altitude_m":0.0,"u_ms":-1.0656409925045232,"v_ms":6.674696303954511}},{"type":"Feature","geometry":{"type":"Point","coordinates":[-86.5625,36.2472]},"properties":{"site":"KOHX","name":"Nashville TN","scan_time":"2026-10-10T05:57:49Z","stale":false,"bins":25,"density_birds_km3":13.251333333333333,"heading_deg":279.7468663708274,"speed_ms":10.170420586607635,"peak_altitude_m":400.0,"u_ms":-9.322275494289883,"v_ms":2.0767736579966796}},{"type":"Feature","geometry":{"type":"Point","coordinates":[-72.8639,40.8655]},"properties":{"site":"KOKX","name":"Upton NY","scan_time":"2026-10-10T06:01:51Z","stale":false,"bins":25,"density_birds_km3":5.094375,"heading_deg":159.2076925926769,"speed_ms":5.8136142804563855,"peak_altitude_m":0.0,"u_ms":2.069833149306833,"v_ms":-5.422221813274445}},{"type":"Feature","geometry":{"type":"Point","coordinates":[-80.2183,40.5317]},"properties":{"site":"KPBZ","name":"Pittsburgh PA","scan_time":"2026-10-10T05:59:02Z","stale":false,"bins":25,"density_birds_km3":13.083571428571428,"heading_deg":259.5828041251059,"speed_ms":6.649254244690725,"peak_altitude_m":600.0,"u_ms":-5.937335262324617,"v_ms":-1.1426008625866682}},{"type":"Feature","geometry":{"type":"Point","coordinates":[-78.4899,35.6655]},"properties":{"site":"KRAX","name":"Raleigh NC","scan_time":"2026-10-10T06:01:07Z","stale":false,"bins":25,"density_birds_km3":9.534375,"heading_deg":243.14955593173218,"speed_ms":10.958583980384144,"peak_altitude_m":200.0,"u_ms":-9.560769649911457,"v_ms":-4.569707124369977}},{"type":"Feature","geometry":{"type":"Point","coordinates":[-82.4017,27.7055]},"properties":{"site":"KTBW","name":"Tampa FL","scan_time":"2026-10-10T06:02:37Z","stale":false,"bins":25,"density_birds_km3":18.79875,"heading_deg":303.1418054584965,"speed_ms":2.8145139304475033,"peak_altitude_m":0.0,"u_ms":-1.4905445840813885,"v_ms":1.8678485936564935}}]}