{"type":"FeatureCollection","frame":"2026-09-29T01","site_count":20,"fresh_count":20,"failures":{},"features":[{"type":"Feature","geometry":{"type":"Point","coordinates":[-77.0073,36.984]},"properties":{"site":"KAKQ","name":"Wakefield VA","scan_time":"2026-09-29T00:59:36Z","stale":false,"bins":25,"density_birds_km3":28.833750000000002,"heading_deg":294.00497843420004,"speed_ms":5.495457067915285,"peak_altitude_m":0.0,"u_ms":-4.80919598534608,"v_ms":1.8198517266046697}},{"type":"Feature","geometry":{"type":"Point","coordinates":[-71.1369,41.9558]},"properties":{"site":"KBOX","name":"Boston MA","scan_time":"2026-09-29T00:59:35Z","stale":false,"bins":25,"density_birds_km3":2.891875,"heading_deg":null,"speed_ms":null,"peak_altitude_m":200.0,"u_ms":null,"v_ms":null}},{"type":"Feature","geometry":{"type":"Point","coordinates":[-78.7369,42.9489]},"properties":{"site":"KBUF","name":"Buffalo NY","scan_time":"2026-09-29T00:59:13Z","stale":false,"bins":25,"density_birds_km3":3.4246666666666665,"heading_deg":139.28175303360874,"speed_ms":6.327107261047304,"peak_altitude_m":400.0,"u_ms":2.6679832587113097,"v_ms":-3.7840101226396734}},{"type":"Feature","geometry":{"type":"Point","coordinates":[-81.8597,41.4131]},"properties":{"site":"KCLE","name":"Cleveland OH","scan_time":"2026-09-29T00:56:34Z","stale":false,"bins":25,"density_birds_km3":5.198666666666667,"heading_deg":146.57358634242792,"speed_ms":5.178445243291821,"peak_altitude_m":400.0,"u_ms":2.167682629349082,"v_ms":-4.342692258313005}},{"type":"Feature","geometry":{"type":"Point","coordinates":[-81.0423,32.6555]},"properties":{"site":"KCLX","name":"Charleston SC","scan_time":"2026-09-29T00:58:00Z","stale":false,"bins":25,"density_birds_km3":33.19375,"heading_deg":219.00099182999185,"speed_ms":4.207371631926792,"peak_altitude_m":200.0,"u_ms":-1.8998395752132406,"v_ms":-2.593543655500951}},{"type":"Feature","geometry":{"type":"Point","coordinates":[-74.4108,39.947]},"properties":{"site":"KDIX","name":"Philadelphia PA","scan_time":"2026-09-29T00:58:16Z","stale":false,"bins":25,"density_birds_km3":20.620625,"heading_deg":111.66069180103025,"speed_ms":4.640116814591149,"peak_altitude_m":200.0,"u_ms":3.7392933174733884,"v_ms":-1.4377716777991274}},{"type":"Feature","geometry":{"type":"Point","coordinates":[-84.5658,33.3636]},"properties":{"site":"KFFC","name":"Atlanta GA","scan_time":"2026-09-29T01:03:04Z","stale":false,"bins":25,"density_birds_km3":52.84799999999999,"heading_deg":167.6611712245478,"speed_ms":6.6221308911090935,"peak_altitude_m":600.0,"u_ms":1.356137728327783,"v_ms":-6.408590801291756}},{"type":"Feature","geometry":{"type":"Point","coordinates":[-85.5449,42.8939]},"properties":{"site":"KGRR","name":"Grand Rapids MI","scan_time":"2026-09-29T00:57:22Z","stale":false,"bins":25,"density_birds_km3":33.43333333333333,"heading_deg":148.04886450191185,"speed_ms":9.779519033280824,"peak_altitude_m":400.0,"u_ms":5.044001874414246,"v_ms":-7.77269676364434}},{"type":"Feature","geometry":{"type":"Point","coordinates":[-83.8217,39.4203]},"properties":{"site":"KILN","name":"Wilmington OH","scan_time":"2026-09-29T00:57:28Z","stale":false,"bins":25,"density_birds_km3":38.26133333333333,"heading_deg":157.23899750614947,"speed_ms":7.5190918436688685,"peak_altitude_m":200.0,"u_ms":2.887594919063965,"v_ms":-6.814545311982715}},{"type":"Feature","geometry":{"type":"Point","coordinates":[-81.7019,30.4846]},"properties":{"site":"KJAX","name":"Jacksonville FL","scan_time":"2026-09-29T01:00:46Z","stale":false,"bins":25,"density_birds_km3":70.620625,"heading_deg":187.26485179991843,"speed_ms":6.157671537174869,"peak_altitude_m":200.0,"u_ms":0.36055295460780756,"v_ms":-4.7205904790562245}},{"type":"Feature","geometry":{"type":"Point","coordinates":[-88.0847,41.6045]},"properties":{"site":"KLOT","name":"Chicago IL","scan_time":"2026-09-29T01:00:52Z","stale":false,"bins":25,"density_birds_km3":35.824,"heading_deg":161.76027988838743,"speed_ms":9.36689574959059,"peak_altitude_m":800.0,"u_ms":3.0667128182224204,"v_ms":-8.580299054637486}},{"type":"Feature","geometry":{"type":"Point","coordinates":[-78.4292,33.9892]},"properties":{"site":"KLTX","name":"Wilmington NC","scan_time":"2026-09-29T01:02:04Z","stale":false,"bins":25,"density_birds_km3":42.424375000000005,"heading_deg":298.25260421573523,"speed_ms":2.8545391732225465,"peak_altitude_m":0.0,"u_ms":-0.7523770588408616,"v_ms":-0.6416352868381506}},{"type":"Feature","geometry":{"type":"Point","coordinates":[-77.4778,38.9753]},"properties":{"site":"KLWX","name":"Sterling VA","scan_time":"2026-09-29T01:01:00Z","stale":false,"bins":25,"density_birds_km3":18.55125,"heading_deg":147.68238607651716,"speed_ms":5.830042791199164,"peak_altitude_m":200.0,"u_ms":2.228300481822164,"v_ms":-4.913442838370564}},{"type":"Feature","geometry":{"type":"Point","coordinates":[-76.8762,34.7759]},"properties":{"site":"KMHX","name":"Morehead City NC","scan_time":"2026-09-29T01:00:24Z","stale":false,"bins":25,"density_birds_km3":18.544375,"heading_deg":295.8314729143516,"speed_ms":5.6871959152033975,"peak_altitude_m":0.0,"u_ms":-4.007237706851808,"v_ms":1.382674665498298}},{"type":"Feature","geometry":{"type":"Point","coordinates":[-80.6542,28.1133]},"properties":{"site":"KMLB","name":"Melbourne FL","scan_time":"2026-09-29T00:59:18Z","stale":false,"bins":25,"density_birds_km3":19.78,"heading_deg":127.32515111569009,"speed_ms":8.181556496461072,"peak_altitude_m":1800.0,"u_ms":1.3301523003033366,"v_ms":-3.3543879550050555}},{"type":"Feature","geometry":{"type":"Point","coordinates":[-86.5625,36.2472]},"properties":{"site":"KOHX","name":"Nashville TN","scan_time":"2026-09-29T01:00:47Z","stale":false,"bins":25,"density_birds_km3":54.25666666666667,"heading_deg":175.17988819317245,"speed_ms":8.112585365853658,"peak_altitude_m":200.0,"u_ms":0.8460550469988327,"v_ms":-7.693228236161454}},{"type":"Feature","geometry":{"type":"Point","coordinates":[-72.8639,40.8655]},"properties":{"site":"KOKX","name":"Upton NY","scan_time":"2026-09-29T01:00:52Z","stale":false,"bins":25,"density_birds_km3":5.76875,"heading_deg":160.40527958842932,"speed_ms":8.954831472851415,"peak_altitude_m":0.0,"u_ms":2.8947631949712798,"v_ms":-8.307329576243633}},{"type":"Feature","geometry":{"type":"Point","coordinates":[-80.2183,40.5317]},"properties":{"site":"KPBZ","name":"Pittsburgh PA","scan_time":"2026-09-29T00:59:24Z","stale":false,"bins":25,"density_birds_km3":9.540714285714285,"heading_deg":131.53303403439656,"speed_ms":7.562461814914645,"peak_altitude_m":400.0,"u_ms":5.246254866726566,"v_ms":-4.903040581012279}},{"type":"Feature","geometry":{"type":"Point","coordinates":[-78.4899,35.6655]},"properties":{"site":"KRAX","name":"Raleigh NC","scan_time":"2026-09-29T00:56:40Z","stale":false,"bins":25,"density_birds_km3":56.34125,"heading_deg":253.69157761427917,"speed_ms":3.586348649907923,"peak_altitude_m":200.0,"u_ms":-3.2708424485811274,"v_ms":-0.8353671984202703}},{"type":"Feature","geometry":{"type":"Point","coordinates":[-82.4017,27.7055]},"properties":{"site":"KTBW","name":"Tampa FL","scan_time":"2026-09-29T00:59:37Z","stale":false,"bins":25,"density_birds_km3":23.405625,"heading_deg":147.61487295393312,"speed_ms":6.525628988758044,"peak_altitude_m":0.0,"u_ms":2.030871318326257,"v_ms":-4.451459852065476}}]}