{"type":"FeatureCollection","frame":"2026-08-26T08","site_count":20,"fresh_count":20,"failures":{},"features":[{"type":"Feature","geometry":{"type":"Point","coordinates":[-77.0073,36.984]},"properties":{"site":"KAKQ","name":"Wakefield VA","scan_time":"2026-08-26T08:00:10Z","stale":false,"bins":25,"density_birds_km3":2.815625,"heading_deg":247.66013853313086,"speed_ms":5.2414082629942245,"peak_altitude_m":0.0,"u_ms":-3.4652954242558858,"v_ms":-1.9374566859173699}},{"type":"Feature","geometry":{"type":"Point","coordinates":[-71.1369,41.9558]},"properties":{"site":"KBOX","name":"Boston MA","scan_time":"2026-08-26T08:01:53Z","stale":false,"bins":25,"density_birds_km3":4.261875,"heading_deg":195.49027025499598,"speed_ms":9.151684997800265,"peak_altitude_m":400.0,"u_ms":-2.3201686464290954,"v_ms":-8.739376741457692}},{"type":"Feature","geometry":{"type":"Point","coordinates":[-78.7369,42.9489]},"properties":{"site":"KBUF","name":"Buffalo NY","scan_time":"2026-08-26T07:56:06Z","stale":false,"bins":25,"density_birds_km3":2.2053333333333334,"heading_deg":106.21611116295921,"speed_ms":4.29093107617896,"peak_altitude_m":200.0,"u_ms":3.4979987908101577,"v_ms":-1.403213422007255}},{"type":"Feature","geometry":{"type":"Point","coordinates":[-81.8597,41.4131]},"properties":{"site":"KCLE","name":"Cleveland OH","scan_time":"2026-08-26T08:00:54Z","stale":false,"bins":25,"density_birds_km3":4.190666666666667,"heading_deg":303.28092966129384,"speed_ms":6.6773015115354015,"peak_altitude_m":200.0,"u_ms":-5.57413046937152,"v_ms":3.5003150357995225}},{"type":"Feature","geometry":{"type":"Point","coordinates":[-81.0423,32.6555]},"properties":{"site":"KCLX","name":"Charleston SC","scan_time":"2026-08-26T07:58:55Z","stale":false,"bins":25,"density_birds_km3":10.031875,"heading_deg":217.59035035519716,"speed_ms":8.23779951404897,"peak_altitude_m":0.0,"u_ms":-4.685171017382095,"v_ms":-6.576484331194319}},{"type":"Feature","geometry":{"type":"Point","coordinates":[-74.4108,39.947]},"properties":{"site":"KDIX","name":"Philadelphia PA","scan_time":"2026-08-26T08:03:00Z","stale":false,"bins":25,"density_birds_km3":23.1,"heading_deg":213.72785667550096,"speed_ms":9.713067791224978,"peak_altitude_m":200.0,"u_ms":-5.440449149360215,"v_ms":-7.974062852026227}},{"type":"Feature","geometry":{"type":"Point","coordinates":[-84.5658,33.3636]},"properties":{"site":"KFFC","name":"Atlanta GA","scan_time":"2026-08-26T08:00:06Z","stale":false,"bins":25,"density_birds_km3":10.632666666666667,"heading_deg":191.09164962450092,"speed_ms":3.213052855978431,"peak_altitude_m":400.0,"u_ms":-0.502580099065772,"v_ms":-1.5377001692896104}},{"type":"Feature","geometry":{"type":"Point","coordinates":[-85.5449,42.8939]},"properties":{"site":"KGRR","name":"Grand Rapids MI","scan_time":"2026-08-26T08:00:24Z","stale":false,"bins":25,"density_birds_km3":0.41866666666666663,"heading_deg":20.460795129555457,"speed_ms":8.757308917197452,"peak_altitude_m":200.0,"u_ms":3.072292993630574,"v_ms":8.131082802547771}},{"type":"Feature","geometry":{"type":"Point","coordinates":[-83.8217,39.4203]},"properties":{"site":"KILN","name":"Wilmington OH","scan_time":"2026-08-26T07:59:07Z","stale":false,"bins":25,"density_birds_km3":1.4306666666666668,"heading_deg":273.29401869247346,"speed_ms":3.659995333644424,"peak_altitude_m":200.0,"u_ms":-3.011329911339244,"v_ms":0.3086934204386375}},{"type":"Feature","geometry":{"type":"Point","coordinates":[-81.7019,30.4846]},"properties":{"site":"KJAX","name":"Jacksonville FL","scan_time":"2026-08-26T08:00:53Z","stale":false,"bins":25,"density_birds_km3":26.4725,"heading_deg":195.0635669516795,"speed_ms":5.92039120785721,"peak_altitude_m":200.0,"u_ms":-1.4067860515629427,"v_ms":-5.641685947681555}},{"type":"Feature","geometry":{"type":"Point","coordinates":[-88.0847,41.6045]},"properties":{"site":"KLOT","name":"Chicago IL","scan_time":"2026-08-26T08:00:40Z","stale":false,"bins":25,"density_birds_km3":0.6406666666666667,"heading_deg":25.654891775175532,"speed_ms":10.458089770354906,"peak_altitude_m":200.0,"u_ms":4.107453027139875,"v_ms":8.841085594989563}},{"type":"Feature","geometry":{"type":"Point","coordinates":[-78.4292,33.9892]},"properties":{"site":"KLTX","name":"Wilmington NC","scan_time":"2026-08-26T08:00:06Z","stale":false,"bins":25,"density_birds_km3":11.07375,"heading_deg":243.87577664080544,"speed_ms":9.35196330793113,"peak_altitude_m":0.0,"u_ms":-8.40975162291843,"v_ms":-4.046600620942703}},{"type":"Feature","geometry":{"type":"Point","coordinates":[-77.4778,38.9753]},"properties":{"site":"KLWX","name":"Sterling VA","scan_time":"2026-08-26T07:58:22Z","stale":false,"bins":25,"density_birds_km3":13.871875,"heading_deg":210.50535685379177,"speed_ms":6.5385766268134775,"peak_altitude_m":200.0,"u_ms":-3.331201739048249,"v_ms":-5.607735456736449}},{"type":"Feature","geometry":{"type":"Point","coordinates":[-76.8762,34.7759]},"properties":{"site":"KMHX","name":"Morehead City NC","scan_time":"2026-08-26T07:58:54Z","stale":false,"bins":25,"density_birds_km3":3.786875,"heading_deg":227.83266547030095,"speed_ms":2.8508664796170984,"peak_altitude_m":0.0,"u_ms":-2.0023782802442645,"v_ms":-1.8800792209935633}},{"type":"Feature","geometry":{"type":"Point","coordinates":[-80.6542,28.1133]},"properties":{"site":"KMLB","name":"Melbourne FL","scan_time":"2026-08-26T08:00:13Z","stale":false,"bins":25,"density_birds_km3":8.835625,"heading_deg":128.57785686655717,"speed_ms":4.404291575298861,"peak_altitude_m":0.0,"u_ms":2.872514677795855,"v_ms":-2.612412110065785}},{"type":"Feature","geometry":{"type":"Point","coordinates":[-86.5625,36.2472]},"properties":{"site":"KOHX","name":"Nashville TN","scan_time":"2026-08-26T08:00:10Z","stale":false,"bins":25,"density_birds_km3":12.834,"heading_deg":265.07532777604223,"speed_ms":4.672390005713988,"peak_altitude_m":200.0,"u_ms":-2.0910846189808323,"v_ms":-0.6363503194639241}},{"type":"Feature","geometry":{"type":"Point","coordinates":[-72.8639,40.8655]},"properties":{"site":"KOKX","name":"Upton NY","scan_time":"2026-08-26T08:03:24Z","stale":false,"bins":25,"density_birds_km3":9.528125000000001,"heading_deg":207.20743519221259,"speed_ms":7.040815777383999,"peak_altitude_m":0.0,"u_ms":-2.944010632014176,"v_ms":-6.169194723370743}},{"type":"Feature","geometry":{"type":"Point","coordinates":[-80.2183,40.5317]},"properties":{"site":"KPBZ","name":"Pittsburgh PA","scan_time":"2026-08-26T08:02:11Z","stale":false,"bins":25,"density_birds_km3":19.19142857142857,"heading_deg":242.5824897910862,"speed_ms":7.386897940913161,"peak_altitude_m":400.0,"u_ms":-6.630882572366458,"v_ms":-2.8622112802148614}},{"type":"Feature","geometry":{"type":"Point","coordinates":[-78.4899,35.6655]},"properties":{"site":"KRAX","name":"Raleigh NC","scan_time":"2026-08-26T07:58:54Z","stale":false,"bins":25,"density_birds_km3":9.556875,"heading_deg":267.72550021089785,"speed_ms":4.6470376678676715,"peak_altitude_m":0.0,"u_ms":-4.3597680969538155,"v_ms":-0.38473042908614474}},{"type":"Feature","geometry":{"type":"Point","coordinates":[-82.4017,27.7055]},"properties":{"site":"KTBW","name":"Tampa FL","scan_time":"2026-08-26T07:58:30Z","stale":false,"bins":25,"density_birds_km3":2.7225,"heading_deg":236.4048247146917,"speed_ms":3.8177430475752705,"peak_altitude_m":200.0,"u_ms":-2.05271891519191,"v_ms":-1.86661686968513}}]}