{"type":"FeatureCollection","frame":"2026-09-01T03","site_count":20,"fresh_count":20,"failures":{},"features":[{"type":"Feature","geometry":{"type":"Point","coordinates":[-77.0073,36.984]},"properties":{"site":"KAKQ","name":"Wakefield VA","scan_time":"2026-09-01T03:01:27Z","stale":false,"bins":25,"density_birds_km3":14.185,"heading_deg":317.8008494524553,"speed_ms":4.871856782697156,"peak_altitude_m":200.0,"u_ms":-0.28630943429607675,"v_ms":-0.8149798752709095}},{"type":"Feature","geometry":{"type":"Point","coordinates":[-71.1369,41.9558]},"properties":{"site":"KBOX","name":"Boston MA","scan_time":"2026-09-01T03:02:00Z","stale":false,"bins":25,"density_birds_km3":3.8075,"heading_deg":2.0553944717668435,"speed_ms":5.091973359644795,"peak_altitude_m":0.0,"u_ms":-0.39758592336786713,"v_ms":0.9548330866633779}},{"type":"Feature","geometry":{"type":"Point","coordinates":[-78.7369,42.9489]},"properties":{"site":"KBUF","name":"Buffalo NY","scan_time":"2026-09-01T02:59:17Z","stale":false,"bins":25,"density_birds_km3":2.4493333333333336,"heading_deg":42.94500132190413,"speed_ms":5.346058791507893,"peak_altitude_m":200.0,"u_ms":3.5973598258029393,"v_ms":2.8018263473053895}},{"type":"Feature","geometry":{"type":"Point","coordinates":[-81.8597,41.4131]},"properties":{"site":"KCLE","name":"Cleveland OH","scan_time":"2026-09-01T02:58:40Z","stale":false,"bins":25,"density_birds_km3":2.448,"heading_deg":66.9100024071821,"speed_ms":9.321563180827887,"peak_altitude_m":200.0,"u_ms":8.022971132897604,"v_ms":2.563891612200436}},{"type":"Feature","geometry":{"type":"Point","coordinates":[-81.0423,32.6555]},"properties":{"site":"KCLX","name":"Charleston SC","scan_time":"2026-09-01T03:02:35Z","stale":false,"bins":25,"density_birds_km3":9.129999999999999,"heading_deg":234.37243735320902,"speed_ms":9.456457348479503,"peak_altitude_m":1400.0,"u_ms":-5.955274112749595,"v_ms":-6.011698299583716}},{"type":"Feature","geometry":{"type":"Point","coordinates":[-74.4108,39.947]},"properties":{"site":"KDIX","name":"Philadelphia PA","scan_time":"2026-09-01T02:58:07Z","stale":false,"bins":25,"density_birds_km3":5.3875,"heading_deg":28.686667892527723,"speed_ms":3.9189145576967728,"peak_altitude_m":200.0,"u_ms":0.8449883909914093,"v_ms":2.0493185511957277}},{"type":"Feature","geometry":{"type":"Point","coordinates":[-84.5658,33.3636]},"properties":{"site":"KFFC","name":"Atlanta GA","scan_time":"2026-09-01T02:58:13Z","stale":false,"bins":25,"density_birds_km3":52.838,"heading_deg":229.05638105434636,"speed_ms":5.96382111359249,"peak_altitude_m":600.0,"u_ms":-4.438359261642504,"v_ms":-3.8818810956760914}},{"type":"Feature","geometry":{"type":"Point","coordinates":[-85.5449,42.8939]},"properties":{"site":"KGRR","name":"Grand Rapids MI","scan_time":"2026-09-01T03:01:01Z","stale":false,"bins":25,"density_birds_km3":5.264666666666667,"heading_deg":76.31500025611778,"speed_ms":8.844183816950018,"peak_altitude_m":200.0,"u_ms":8.545807235076058,"v_ms":1.9220388597724656}},{"type":"Feature","geometry":{"type":"Point","coordinates":[-83.8217,39.4203]},"properties":{"site":"KILN","name":"Wilmington OH","scan_time":"2026-09-01T03:01:01Z","stale":false,"bins":25,"density_birds_km3":3.556,"heading_deg":90.68489347599733,"speed_ms":8.416951631046118,"peak_altitude_m":800.0,"u_ms":7.715986126734157,"v_ms":-0.342352830896138}},{"type":"Feature","geometry":{"type":"Point","coordinates":[-81.7019,30.4846]},"properties":{"site":"KJAX","name":"Jacksonville FL","scan_time":"2026-09-01T03:01:28Z","stale":false,"bins":25,"density_birds_km3":21.414375,"heading_deg":188.06843420317003,"speed_ms":9.88652690715553,"peak_altitude_m":200.0,"u_ms":-1.3935635718509758,"v_ms":-9.774823477232408}},{"type":"Feature","geometry":{"type":"Point","coordinates":[-88.0847,41.6045]},"properties":{"site":"KLOT","name":"Chicago IL","scan_time":"2026-09-01T03:00:43Z","stale":false,"bins":25,"density_birds_km3":4.360666666666666,"heading_deg":60.960699458761745,"speed_ms":13.328932912391474,"peak_altitude_m":200.0,"u_ms":11.177902131018152,"v_ms":5.485965272296764}},{"type":"Feature","geometry":{"type":"Point","coordinates":[-78.4292,33.9892]},"properties":{"site":"KLTX","name":"Wilmington NC","scan_time":"2026-09-01T03:02:11Z","stale":false,"bins":25,"density_birds_km3":8.8375,"heading_deg":226.85595359573395,"speed_ms":8.711851019075942,"peak_altitude_m":1000.0,"u_ms":-4.715298469572786,"v_ms":-6.390319866540944}},{"type":"Feature","geometry":{"type":"Point","coordinates":[-77.4778,38.9753]},"properties":{"site":"KLWX","name":"Sterling VA","scan_time":"2026-09-01T03:03:01Z","stale":false,"bins":25,"density_birds_km3":12.086875,"heading_deg":120.20162307041507,"speed_ms":5.781855970346836,"peak_altitude_m":200.0,"u_ms":1.5209547259729945,"v_ms":-3.6843950225046336}},{"type":"Feature","geometry":{"type":"Point","coordinates":[-76.8762,34.7759]},"properties":{"site":"KMHX","name":"Morehead City NC","scan_time":"2026-09-01T03:00:35Z","stale":false,"bins":25,"density_birds_km3":5.958125,"heading_deg":245.77226050168412,"speed_ms":5.775836567712158,"peak_altitude_m":0.0,"u_ms":-2.6202328752753594,"v_ms":-2.8511633273890697}},{"type":"Feature","geometry":{"type":"Point","coordinates":[-80.6542,28.1133]},"properties":{"site":"KMLB","name":"Melbourne FL","scan_time":"2026-09-01T03:01:30Z","stale":false,"bins":25,"density_birds_km3":10.66875,"heading_deg":176.0765127893615,"speed_ms":8.977550398499767,"peak_altitude_m":0.0,"u_ms":0.6764369432723862,"v_ms":-8.890258438818567}},{"type":"Feature","geometry":{"type":"Point","coordinates":[-86.5625,36.2472]},"properties":{"site":"KOHX","name":"Nashville TN","scan_time":"2026-09-01T03:00:01Z","stale":false,"bins":25,"density_birds_km3":16.880000000000003,"heading_deg":23.421223352213783,"speed_ms":1.9759115323854661,"peak_altitude_m":200.0,"u_ms":0.5197349921011059,"v_ms":1.245147709320695}},{"type":"Feature","geometry":{"type":"Point","coordinates":[-72.8639,40.8655]},"properties":{"site":"KOKX","name":"Upton NY","scan_time":"2026-09-01T02:59:32Z","stale":false,"bins":25,"density_birds_km3":6.588666666666667,"heading_deg":287.6971446236861,"speed_ms":4.667885199539122,"peak_altitude_m":0.0,"u_ms":-4.168992353618938,"v_ms":1.5358793338221433}},{"type":"Feature","geometry":{"type":"Point","coordinates":[-80.2183,40.5317]},"properties":{"site":"KPBZ","name":"Pittsburgh PA","scan_time":"2026-09-01T03:02:03Z","stale":false,"bins":25,"density_birds_km3":4.456428571428572,"heading_deg":69.83656216982867,"speed_ms":7.181288402766607,"peak_altitude_m":600.0,"u_ms":6.480421425124658,"v_ms":2.146631815988419}},{"type":"Feature","geometry":{"type":"Point","coordinates":[-78.4899,35.6655]},"properties":{"site":"KRAX","name":"Raleigh NC","scan_time":"2026-09-01T02:56:00Z","stale":false,"bins":25,"density_birds_km3":12.50375,"heading_deg":31.963789887569035,"speed_ms":6.139991452131939,"peak_altitude_m":200.0,"u_ms":0.21058527755430417,"v_ms":0.5304756637168141}},{"type":"Feature","geometry":{"type":"Point","coordinates":[-82.4017,27.7055]},"properties":{"site":"KTBW","name":"Tampa FL","scan_time":"2026-09-01T03:00:14Z","stale":false,"bins":25,"density_birds_km3":22.079375,"heading_deg":200.34686299191188,"speed_ms":7.17462790500184,"peak_altitude_m":0.0,"u_ms":-2.3652435813966655,"v_ms":-6.566256687519462}}]}