{"type":"FeatureCollection","frame":"2026-08-22T01","site_count":20,"fresh_count":20,"failures":{},"features":[{"type":"Feature","geometry":{"type":"Point","coordinates":[-77.0073,36.984]},"properties":{"site":"KAKQ","name":"Wakefield VA","scan_time":"2026-08-22T00:59:58Z","stale":false,"bins":25,"density_birds_km3":17.115000000000002,"heading_deg":231.65846797182178,"speed_ms":1.9200939842750047,"peak_altitude_m":200.0,"u_ms":-0.8247851526787348,"v_ms":-0.43427134759553854}},{"type":"Feature","geometry":{"type":"Point","coordinates":[-71.1369,41.9558]},"properties":{"site":"KBOX","name":"Boston MA","scan_time":"2026-08-22T00:58:22Z","stale":false,"bins":25,"density_birds_km3":2.670625,"heading_deg":227.43227860514173,"speed_ms":9.73833996722079,"peak_altitude_m":0.0,"u_ms":-7.209707328494498,"v_ms":-6.095108873800046}},{"type":"Feature","geometry":{"type":"Point","coordinates":[-78.7369,42.9489]},"properties":{"site":"KBUF","name":"Buffalo NY","scan_time":"2026-08-22T01:03:46Z","stale":false,"bins":25,"density_birds_km3":3.098666666666667,"heading_deg":276.07551046339466,"speed_ms":7.751256454388983,"peak_altitude_m":200.0,"u_ms":-7.477508605851979,"v_ms":0.6411101549053356}},{"type":"Feature","geometry":{"type":"Point","coordinates":[-81.8597,41.4131]},"properties":{"site":"KCLE","name":"Cleveland OH","scan_time":"2026-08-22T00:57:32Z","stale":false,"bins":25,"density_birds_km3":4.517333333333334,"heading_deg":258.96922896507533,"speed_ms":5.459472907131256,"peak_altitude_m":200.0,"u_ms":-5.234075003691126,"v_ms":-1.0793902258969434}},{"type":"Feature","geometry":{"type":"Point","coordinates":[-81.0423,32.6555]},"properties":{"site":"KCLX","name":"Charleston SC","scan_time":"2026-08-22T00:58:12Z","stale":false,"bins":25,"density_birds_km3":3.420625,"heading_deg":149.23501792782244,"speed_ms":2.60125789218067,"peak_altitude_m":200.0,"u_ms":1.4014910150558522,"v_ms":-2.1016998542982033}},{"type":"Feature","geometry":{"type":"Point","coordinates":[-74.4108,39.947]},"properties":{"site":"KDIX","name":"Philadelphia PA","scan_time":"2026-08-22T00:57:17Z","stale":false,"bins":25,"density_birds_km3":14.011875,"heading_deg":223.2290455440244,"speed_ms":6.357662331520454,"peak_altitude_m":400.0,"u_ms":-4.038029794277607,"v_ms":-3.873579569638212}},{"type":"Feature","geometry":{"type":"Point","coordinates":[-84.5658,33.3636]},"properties":{"site":"KFFC","name":"Atlanta GA","scan_time":"2026-08-22T00:58:13Z","stale":false,"bins":25,"density_birds_km3":8.638,"heading_deg":323.1794564330907,"speed_ms":4.319082349309254,"peak_altitude_m":200.0,"u_ms":-2.0465084510303315,"v_ms":2.9709709037585865}},{"type":"Feature","geometry":{"type":"Point","coordinates":[-85.5449,42.8939]},"properties":{"site":"KGRR","name":"Grand Rapids MI","scan_time":"2026-08-22T00:59:26Z","stale":false,"bins":25,"density_birds_km3":1.4853333333333334,"heading_deg":69.76990697651766,"speed_ms":4.69480017961383,"peak_altitude_m":200.0,"u_ms":4.395136955545578,"v_ms":1.637642568477773}},{"type":"Feature","geometry":{"type":"Point","coordinates":[-83.8217,39.4203]},"properties":{"site":"KILN","name":"Wilmington OH","scan_time":"2026-08-22T00:59:17Z","stale":false,"bins":25,"density_birds_km3":6.204,"heading_deg":288.7351925258133,"speed_ms":5.121657309436407,"peak_altitude_m":200.0,"u_ms":-4.824467717555604,"v_ms":1.6447883826387388}},{"type":"Feature","geometry":{"type":"Point","coordinates":[-81.7019,30.4846]},"properties":{"site":"KJAX","name":"Jacksonville FL","scan_time":"2026-08-22T00:59:30Z","stale":false,"bins":25,"density_birds_km3":9.7875,"heading_deg":346.58096489294223,"speed_ms":6.962035121328225,"peak_altitude_m":0.0,"u_ms":-1.6013358876117498,"v_ms":6.312736270753513}},{"type":"Feature","geometry":{"type":"Point","coordinates":[-88.0847,41.6045]},"properties":{"site":"KLOT","name":"Chicago IL","scan_time":"2026-08-22T00:58:46Z","stale":false,"bins":25,"density_birds_km3":0.8126666666666666,"heading_deg":28.32946259931609,"speed_ms":7.676480721903199,"peak_altitude_m":200.0,"u_ms":3.571763740771124,"v_ms":6.3018375717801485}},{"type":"Feature","geometry":{"type":"Point","coordinates":[-78.4292,33.9892]},"properties":{"site":"KLTX","name":"Wilmington NC","scan_time":"2026-08-22T00:58:34Z","stale":false,"bins":25,"density_birds_km3":6.1118749999999995,"heading_deg":220.40605135552556,"speed_ms":6.971824565726252,"peak_altitude_m":200.0,"u_ms":-4.443555500800788,"v_ms":-5.133651595417025}},{"type":"Feature","geometry":{"type":"Point","coordinates":[-77.4778,38.9753]},"properties":{"site":"KLWX","name":"Sterling VA","scan_time":"2026-08-22T00:59:21Z","stale":false,"bins":25,"density_birds_km3":16.743750000000002,"heading_deg":291.0634085503003,"speed_ms":2.4020707297034876,"peak_altitude_m":200.0,"u_ms":-1.9894402121144221,"v_ms":0.7448625737545745}},{"type":"Feature","geometry":{"type":"Point","coordinates":[-76.8762,34.7759]},"properties":{"site":"KMHX","name":"Morehead City NC","scan_time":"2026-08-22T00:59:31Z","stale":false,"bins":25,"density_birds_km3":3.7925,"heading_deg":212.3795856100574,"speed_ms":2.5481264443710794,"peak_altitude_m":200.0,"u_ms":-1.180335094090459,"v_ms":-2.0610415978870913}},{"type":"Feature","geometry":{"type":"Point","coordinates":[-80.6542,28.1133]},"properties":{"site":"KMLB","name":"Melbourne FL","scan_time":"2026-08-22T00:58:11Z","stale":false,"bins":25,"density_birds_km3":10.96375,"heading_deg":null,"speed_ms":null,"peak_altitude_m":0.0,"u_ms":null,"v_ms":null}},{"type":"Feature","geometry":{"type":"Point","coordinates":[-86.5625,36.2472]},"properties":{"site":"KOHX","name":"Nashville TN","scan_time":"2026-08-22T00:58:17Z","stale":false,"bins":25,"density_birds_km3":21.380666666666666,"heading_deg":186.1271521208322,"speed_ms":7.698285366842318,"peak_altitude_m":400.0,"u_ms":-0.8322952199806678,"v_ms":-7.631268747466559}},{"type":"Feature","geometry":{"type":"Point","coordinates":[-72.8639,40.8655]},"properties":{"site":"KOKX","name":"Upton NY","scan_time":"2026-08-22T01:02:07Z","stale":false,"bins":25,"density_birds_km3":5.905625,"heading_deg":224.22931008900753,"speed_ms":9.534207349359313,"peak_altitude_m":200.0,"u_ms":-6.609840093190723,"v_ms":-6.759442973631261}},{"type":"Feature","geometry":{"type":"Point","coordinates":[-80.2183,40.5317]},"properties":{"site":"KPBZ","name":"Pittsburgh PA","scan_time":"2026-08-22T01:00:44Z","stale":false,"bins":25,"density_birds_km3":5.767142857142858,"heading_deg":260.40620707972687,"speed_ms":6.112835932626325,"peak_altitude_m":400.0,"u_ms":-5.720573923892701,"v_ms":-0.779987523393637}},{"type":"Feature","geometry":{"type":"Point","coordinates":[-78.4899,35.6655]},"properties":{"site":"KRAX","name":"Raleigh NC","scan_time":"2026-08-22T01:02:39Z","stale":false,"bins":25,"density_birds_km3":108.45,"heading_deg":null,"speed_ms":null,"peak_altitude_m":0.0,"u_ms":null,"v_ms":null}},{"type":"Feature","geometry":{"type":"Point","coordinates":[-82.4017,27.7055]},"properties":{"site":"KTBW","name":"Tampa FL","scan_time":"2026-08-22T00:59:43Z","stale":false,"bins":25,"density_birds_km3":18.81125,"heading_deg":94.21358825035486,"speed_ms":4.731571371584336,"peak_altitude_m":0.0,"u_ms":4.5479838441592975,"v_ms":-0.29690313144072866}}]}