{"type":"FeatureCollection","frame":"2026-08-30T06","site_count":20,"fresh_count":20,"failures":{},"features":[{"type":"Feature","geometry":{"type":"Point","coordinates":[-77.0073,36.984]},"properties":{"site":"KAKQ","name":"Wakefield VA","scan_time":"2026-08-30T06:00:11Z","stale":false,"bins":25,"density_birds_km3":15.45625,"heading_deg":233.4721646186428,"speed_ms":6.475171451678124,"peak_altitude_m":0.0,"u_ms":-4.638588758592802,"v_ms":-3.9684233724221594}},{"type":"Feature","geometry":{"type":"Point","coordinates":[-71.1369,41.9558]},"properties":{"site":"KBOX","name":"Boston MA","scan_time":"2026-08-30T05:57:02Z","stale":false,"bins":25,"density_birds_km3":3.4274999999999998,"heading_deg":124.6741101229082,"speed_ms":5.88978296552982,"peak_altitude_m":200.0,"u_ms":3.9671931424402698,"v_ms":-3.035719496625935}},{"type":"Feature","geometry":{"type":"Point","coordinates":[-78.7369,42.9489]},"properties":{"site":"KBUF","name":"Buffalo NY","scan_time":"2026-08-30T06:01:27Z","stale":false,"bins":25,"density_birds_km3":0.666,"heading_deg":40.000444010741575,"speed_ms":8.330120120120121,"peak_altitude_m":200.0,"u_ms":5.1348248248248245,"v_ms":6.116146146146146}},{"type":"Feature","geometry":{"type":"Point","coordinates":[-81.8597,41.4131]},"properties":{"site":"KCLE","name":"Cleveland OH","scan_time":"2026-08-30T06:00:09Z","stale":false,"bins":25,"density_birds_km3":0.9480000000000001,"heading_deg":27.312950449486333,"speed_ms":7.193600562587904,"peak_altitude_m":200.0,"u_ms":3.313727144866385,"v_ms":6.006800281293953}},{"type":"Feature","geometry":{"type":"Point","coordinates":[-81.0423,32.6555]},"properties":{"site":"KCLX","name":"Charleston SC","scan_time":"2026-08-30T05:58:19Z","stale":false,"bins":25,"density_birds_km3":6.17125,"heading_deg":233.3210962594572,"speed_ms":6.893371879390468,"peak_altitude_m":200.0,"u_ms":-5.423995460931589,"v_ms":-3.9547217118772293}},{"type":"Feature","geometry":{"type":"Point","coordinates":[-74.4108,39.947]},"properties":{"site":"KDIX","name":"Philadelphia PA","scan_time":"2026-08-30T06:00:45Z","stale":false,"bins":25,"density_birds_km3":12.3625,"heading_deg":237.24047445564707,"speed_ms":5.4503913834951465,"peak_altitude_m":200.0,"u_ms":-2.311878539644013,"v_ms":-2.357816545307444}},{"type":"Feature","geometry":{"type":"Point","coordinates":[-84.5658,33.3636]},"properties":{"site":"KFFC","name":"Atlanta GA","scan_time":"2026-08-30T06:02:56Z","stale":false,"bins":25,"density_birds_km3":16.46933333333333,"heading_deg":258.2273630968871,"speed_ms":5.327204825149262,"peak_altitude_m":200.0,"u_ms":-5.003653791478818,"v_ms":-1.3694488444823523}},{"type":"Feature","geometry":{"type":"Point","coordinates":[-85.5449,42.8939]},"properties":{"site":"KGRR","name":"Grand Rapids MI","scan_time":"2026-08-30T06:02:40Z","stale":false,"bins":25,"density_birds_km3":1.344,"heading_deg":15.778171269894557,"speed_ms":9.161919805589307,"peak_altitude_m":200.0,"u_ms":2.579307411907655,"v_ms":8.742490886998786}},{"type":"Feature","geometry":{"type":"Point","coordinates":[-83.8217,39.4203]},"properties":{"site":"KILN","name":"Wilmington OH","scan_time":"2026-08-30T06:01:52Z","stale":false,"bins":25,"density_birds_km3":2.4219999999999997,"heading_deg":17.09002317459012,"speed_ms":5.481734104046243,"peak_altitude_m":600.0,"u_ms":1.793996696944674,"v_ms":3.4047591522158}},{"type":"Feature","geometry":{"type":"Point","coordinates":[-81.7019,30.4846]},"properties":{"site":"KJAX","name":"Jacksonville FL","scan_time":"2026-08-30T05:59:57Z","stale":false,"bins":25,"density_birds_km3":38.430625,"heading_deg":185.22268020461064,"speed_ms":12.112166783256603,"peak_altitude_m":0.0,"u_ms":-1.0750290390278026,"v_ms":-12.054217247718363}},{"type":"Feature","geometry":{"type":"Point","coordinates":[-88.0847,41.6045]},"properties":{"site":"KLOT","name":"Chicago IL","scan_time":"2026-08-30T05:59:22Z","stale":false,"bins":25,"density_birds_km3":0.7713333333333333,"heading_deg":25.313690744594997,"speed_ms":16.21604796663191,"peak_altitude_m":200.0,"u_ms":6.990156412930136,"v_ms":13.728102189781023}},{"type":"Feature","geometry":{"type":"Point","coordinates":[-78.4292,33.9892]},"properties":{"site":"KLTX","name":"Wilmington NC","scan_time":"2026-08-30T05:58:57Z","stale":false,"bins":25,"density_birds_km3":25.381875,"heading_deg":227.9901615563336,"speed_ms":9.255760754475387,"peak_altitude_m":0.0,"u_ms":-6.876419689246756,"v_ms":-6.188412745315309}},{"type":"Feature","geometry":{"type":"Point","coordinates":[-77.4778,38.9753]},"properties":{"site":"KLWX","name":"Sterling VA","scan_time":"2026-08-30T06:00:17Z","stale":false,"bins":25,"density_birds_km3":18.009999999999998,"heading_deg":293.24915640657173,"speed_ms":6.270010418113627,"peak_altitude_m":200.0,"u_ms":-5.160963328240033,"v_ms":2.296579038755383}},{"type":"Feature","geometry":{"type":"Point","coordinates":[-76.8762,34.7759]},"properties":{"site":"KMHX","name":"Morehead City NC","scan_time":"2026-08-30T06:01:29Z","stale":false,"bins":25,"density_birds_km3":7.141249999999999,"heading_deg":234.4566565168043,"speed_ms":5.060882275711159,"peak_altitude_m":0.0,"u_ms":-3.931418818380744,"v_ms":-3.045732166301969}},{"type":"Feature","geometry":{"type":"Point","coordinates":[-80.6542,28.1133]},"properties":{"site":"KMLB","name":"Melbourne FL","scan_time":"2026-08-30T05:59:28Z","stale":false,"bins":25,"density_birds_km3":3.1693749999999996,"heading_deg":217.75059883376977,"speed_ms":4.139453868431941,"peak_altitude_m":0.0,"u_ms":-2.449921390153082,"v_ms":-3.0961812163839464}},{"type":"Feature","geometry":{"type":"Point","coordinates":[-86.5625,36.2472]},"properties":{"site":"KOHX","name":"Nashville TN","scan_time":"2026-08-30T05:58:47Z","stale":false,"bins":25,"density_birds_km3":28.061333333333334,"heading_deg":305.7784702286765,"speed_ms":2.890502470778295,"peak_altitude_m":200.0,"u_ms":-1.015640976907726,"v_ms":1.0906302860401027}},{"type":"Feature","geometry":{"type":"Point","coordinates":[-72.8639,40.8655]},"properties":{"site":"KOKX","name":"Upton NY","scan_time":"2026-08-30T06:00:12Z","stale":false,"bins":25,"density_birds_km3":9.102500000000001,"heading_deg":316.2379015180686,"speed_ms":5.488354847569348,"peak_altitude_m":0.0,"u_ms":-2.263695413347981,"v_ms":2.3995653666575114}},{"type":"Feature","geometry":{"type":"Point","coordinates":[-80.2183,40.5317]},"properties":{"site":"KPBZ","name":"Pittsburgh PA","scan_time":"2026-08-30T05:59:14Z","stale":false,"bins":25,"density_birds_km3":3.710714285714286,"heading_deg":299.7947761578411,"speed_ms":3.772954764196342,"peak_altitude_m":400.0,"u_ms":-0.12295668912415805,"v_ms":0.9847872954764196}},{"type":"Feature","geometry":{"type":"Point","coordinates":[-78.4899,35.6655]},"properties":{"site":"KRAX","name":"Raleigh NC","scan_time":"2026-08-30T06:02:31Z","stale":false,"bins":25,"density_birds_km3":20.289375,"heading_deg":218.51775851108022,"speed_ms":5.777015063302837,"peak_altitude_m":200.0,"u_ms":-3.5794603086590886,"v_ms":-4.500457135816159}},{"type":"Feature","geometry":{"type":"Point","coordinates":[-82.4017,27.7055]},"properties":{"site":"KTBW","name":"Tampa FL","scan_time":"2026-08-30T05:58:10Z","stale":false,"bins":25,"density_birds_km3":14.41875,"heading_deg":211.47068678587394,"speed_ms":9.34365441303971,"peak_altitude_m":0.0,"u_ms":-4.777412866308306,"v_ms":-7.954351482573261}}]}