{"type":"FeatureCollection","frame":"2026-08-25T09","site_count":20,"fresh_count":20,"failures":{},"features":[{"type":"Feature","geometry":{"type":"Point","coordinates":[-77.0073,36.984]},"properties":{"site":"KAKQ","name":"Wakefield VA","scan_time":"2026-08-25T09:00:14Z","stale":false,"bins":25,"density_birds_km3":10.2625,"heading_deg":214.93902175072733,"speed_ms":9.12049887311933,"peak_altitude_m":400.0,"u_ms":-4.959097886337333,"v_ms":-7.470501918742767}},{"type":"Feature","geometry":{"type":"Point","coordinates":[-71.1369,41.9558]},"properties":{"site":"KBOX","name":"Boston MA","scan_time":"2026-08-25T09:03:43Z","stale":false,"bins":25,"density_birds_km3":1.145625,"heading_deg":123.0643848154225,"speed_ms":5.6936844978165935,"peak_altitude_m":0.0,"u_ms":4.639257641921397,"v_ms":-3.182063318777292}},{"type":"Feature","geometry":{"type":"Point","coordinates":[-78.7369,42.9489]},"properties":{"site":"KBUF","name":"Buffalo NY","scan_time":"2026-08-25T08:58:53Z","stale":false,"bins":25,"density_birds_km3":0.9066666666666666,"heading_deg":123.50689521831539,"speed_ms":8.081654411764706,"peak_altitude_m":200.0,"u_ms":6.615242647058825,"v_ms":-4.50064705882353}},{"type":"Feature","geometry":{"type":"Point","coordinates":[-81.8597,41.4131]},"properties":{"site":"KCLE","name":"Cleveland OH","scan_time":"2026-08-25T08:59:19Z","stale":false,"bins":25,"density_birds_km3":1.0573333333333332,"heading_deg":138.82119463321663,"speed_ms":6.479715909090909,"peak_altitude_m":200.0,"u_ms":3.8494507575757577,"v_ms":-4.654084595959596}},{"type":"Feature","geometry":{"type":"Point","coordinates":[-81.0423,32.6555]},"properties":{"site":"KCLX","name":"Charleston SC","scan_time":"2026-08-25T09:00:33Z","stale":false,"bins":25,"density_birds_km3":7.7625,"heading_deg":212.99881739140963,"speed_ms":4.913715068051864,"peak_altitude_m":200.0,"u_ms":-2.6883474269147136,"v_ms":-4.042699524844971}},{"type":"Feature","geometry":{"type":"Point","coordinates":[-74.4108,39.947]},"properties":{"site":"KDIX","name":"Philadelphia PA","scan_time":"2026-08-25T09:00:24Z","stale":false,"bins":25,"density_birds_km3":0.718125,"heading_deg":156.4365145900205,"speed_ms":9.156937882764653,"peak_altitude_m":0.0,"u_ms":3.86498687664042,"v_ms":-8.034995625546806}},{"type":"Feature","geometry":{"type":"Point","coordinates":[-84.5658,33.3636]},"properties":{"site":"KFFC","name":"Atlanta GA","scan_time":"2026-08-25T08:56:34Z","stale":false,"bins":25,"density_birds_km3":14.486666666666668,"heading_deg":227.60623831402202,"speed_ms":7.691974836390451,"peak_altitude_m":400.0,"u_ms":-5.637872154115588,"v_ms":-4.7911945801456355}},{"type":"Feature","geometry":{"type":"Point","coordinates":[-85.5449,42.8939]},"properties":{"site":"KGRR","name":"Grand Rapids MI","scan_time":"2026-08-25T09:03:42Z","stale":false,"bins":25,"density_birds_km3":50.312,"heading_deg":222.44384741168386,"speed_ms":10.8574317591562,"peak_altitude_m":400.0,"u_ms":-7.331016722319394,"v_ms":-8.004363968834474}},{"type":"Feature","geometry":{"type":"Point","coordinates":[-83.8217,39.4203]},"properties":{"site":"KILN","name":"Wilmington OH","scan_time":"2026-08-25T08:59:08Z","stale":false,"bins":25,"density_birds_km3":1.4966666666666666,"heading_deg":159.34636116264778,"speed_ms":5.755923282783229,"peak_altitude_m":400.0,"u_ms":1.9915165031222122,"v_ms":-5.337194469223907}},{"type":"Feature","geometry":{"type":"Point","coordinates":[-81.7019,30.4846]},"properties":{"site":"KJAX","name":"Jacksonville FL","scan_time":"2026-08-25T09:00:54Z","stale":false,"bins":25,"density_birds_km3":38.869375,"heading_deg":162.22515496942373,"speed_ms":6.567963659752372,"peak_altitude_m":200.0,"u_ms":1.9085052259205662,"v_ms":-6.177856407782603}},{"type":"Feature","geometry":{"type":"Point","coordinates":[-88.0847,41.6045]},"properties":{"site":"KLOT","name":"Chicago IL","scan_time":"2026-08-25T09:01:34Z","stale":false,"bins":25,"density_birds_km3":0.5733333333333334,"heading_deg":292.7907039279748,"speed_ms":4.879848837209303,"peak_altitude_m":200.0,"u_ms":-3.3127558139534887,"v_ms":1.377372093023256}},{"type":"Feature","geometry":{"type":"Point","coordinates":[-78.4292,33.9892]},"properties":{"site":"KLTX","name":"Wilmington NC","scan_time":"2026-08-25T08:59:57Z","stale":false,"bins":25,"density_birds_km3":8.070625,"heading_deg":220.14643430853397,"speed_ms":6.52703307769773,"peak_altitude_m":200.0,"u_ms":-4.232461073669533,"v_ms":-4.920813386009761}},{"type":"Feature","geometry":{"type":"Point","coordinates":[-77.4778,38.9753]},"properties":{"site":"KLWX","name":"Sterling VA","scan_time":"2026-08-25T08:59:49Z","stale":false,"bins":25,"density_birds_km3":2.3475,"heading_deg":170.71590489051596,"speed_ms":5.778321771611526,"peak_altitude_m":800.0,"u_ms":0.5238287086446105,"v_ms":-5.494348986125934}},{"type":"Feature","geometry":{"type":"Point","coordinates":[-76.8762,34.7759]},"properties":{"site":"KMHX","name":"Morehead City NC","scan_time":"2026-08-25T08:57:43Z","stale":false,"bins":25,"density_birds_km3":3.789375,"heading_deg":159.2119061513445,"speed_ms":6.380737258782781,"peak_altitude_m":0.0,"u_ms":2.171639452416296,"v_ms":-5.898235197097146}},{"type":"Feature","geometry":{"type":"Point","coordinates":[-80.6542,28.1133]},"properties":{"site":"KMLB","name":"Melbourne FL","scan_time":"2026-08-25T08:59:08Z","stale":false,"bins":25,"density_birds_km3":3.116875,"heading_deg":160.562611143235,"speed_ms":4.021862843392822,"peak_altitude_m":200.0,"u_ms":0.8234850611590134,"v_ms":-3.819103669540807}},{"type":"Feature","geometry":{"type":"Point","coordinates":[-86.5625,36.2472]},"properties":{"site":"KOHX","name":"Nashville TN","scan_time":"2026-08-25T09:01:56Z","stale":false,"bins":25,"density_birds_km3":12.000666666666666,"heading_deg":249.09957732654163,"speed_ms":6.768858396755736,"peak_altitude_m":400.0,"u_ms":-5.7892161546580745,"v_ms":-1.9115565801899896}},{"type":"Feature","geometry":{"type":"Point","coordinates":[-72.8639,40.8655]},"properties":{"site":"KOKX","name":"Upton NY","scan_time":"2026-08-25T09:02:08Z","stale":false,"bins":25,"density_birds_km3":1.26,"heading_deg":126.41242911526417,"speed_ms":4.156851648351648,"peak_altitude_m":0.0,"u_ms":2.98728021978022,"v_ms":-2.587186813186813}},{"type":"Feature","geometry":{"type":"Point","coordinates":[-80.2183,40.5317]},"properties":{"site":"KPBZ","name":"Pittsburgh PA","scan_time":"2026-08-25T09:00:57Z","stale":false,"bins":25,"density_birds_km3":0.7000000000000001,"heading_deg":122.38015260355958,"speed_ms":7.4756635318704285,"peak_altitude_m":400.0,"u_ms":6.160188087774295,"v_ms":-3.933981191222571}},{"type":"Feature","geometry":{"type":"Point","coordinates":[-78.4899,35.6655]},"properties":{"site":"KRAX","name":"Raleigh NC","scan_time":"2026-08-25T09:01:31Z","stale":false,"bins":25,"density_birds_km3":18.288125,"heading_deg":207.01078753565244,"speed_ms":8.320029415788753,"peak_altitude_m":200.0,"u_ms":-3.862073129019018,"v_ms":-7.301373648925982}},{"type":"Feature","geometry":{"type":"Point","coordinates":[-82.4017,27.7055]},"properties":{"site":"KTBW","name":"Tampa FL","scan_time":"2026-08-25T09:01:31Z","stale":false,"bins":25,"density_birds_km3":3.2937499999999997,"heading_deg":240.50056067530053,"speed_ms":2.8598215641609714,"peak_altitude_m":0.0,"u_ms":-1.7122152619589974,"v_ms":-1.0256302201974183}}]}