{"type":"FeatureCollection","frame":"2026-09-25T02","site_count":20,"fresh_count":20,"failures":{},"features":[{"type":"Feature","geometry":{"type":"Point","coordinates":[-77.0073,36.984]},"properties":{"site":"KAKQ","name":"Wakefield VA","scan_time":"2026-09-25T01:57:34Z","stale":false,"bins":25,"density_birds_km3":40.6875,"heading_deg":183.06666042016693,"speed_ms":16.695390866219142,"peak_altitude_m":200.0,"u_ms":-1.2865280572666247,"v_ms":-16.38581821533357}},{"type":"Feature","geometry":{"type":"Point","coordinates":[-71.1369,41.9558]},"properties":{"site":"KBOX","name":"Boston MA","scan_time":"2026-09-25T01:59:33Z","stale":false,"bins":25,"density_birds_km3":2.625625,"heading_deg":197.95740568126064,"speed_ms":12.595541537729112,"peak_altitude_m":0.0,"u_ms":-4.5980361818614615,"v_ms":-11.089350154725066}},{"type":"Feature","geometry":{"type":"Point","coordinates":[-78.7369,42.9489]},"properties":{"site":"KBUF","name":"Buffalo NY","scan_time":"2026-09-25T02:01:30Z","stale":false,"bins":25,"density_birds_km3":6.324666666666667,"heading_deg":228.52628090718068,"speed_ms":9.198534837145568,"peak_altitude_m":200.0,"u_ms":-6.963030462738485,"v_ms":-5.959976810372088}},{"type":"Feature","geometry":{"type":"Point","coordinates":[-81.8597,41.4131]},"properties":{"site":"KCLE","name":"Cleveland OH","scan_time":"2026-09-25T02:00:49Z","stale":false,"bins":25,"density_birds_km3":31.413333333333334,"heading_deg":239.6714052709686,"speed_ms":9.480281627369001,"peak_altitude_m":400.0,"u_ms":-8.16674674759651,"v_ms":-4.774069908105011}},{"type":"Feature","geometry":{"type":"Point","coordinates":[-81.0423,32.6555]},"properties":{"site":"KCLX","name":"Charleston SC","scan_time":"2026-09-25T02:01:12Z","stale":false,"bins":25,"density_birds_km3":7.925000000000001,"heading_deg":203.64257582417085,"speed_ms":12.345114353312301,"peak_altitude_m":200.0,"u_ms":-5.10102760252366,"v_ms":-11.181708990536277}},{"type":"Feature","geometry":{"type":"Point","coordinates":[-74.4108,39.947]},"properties":{"site":"KDIX","name":"Philadelphia PA","scan_time":"2026-09-25T01:57:43Z","stale":false,"bins":25,"density_birds_km3":15.396875,"heading_deg":202.97173110951204,"speed_ms":18.650424719831086,"peak_altitude_m":200.0,"u_ms":-7.819645119376319,"v_ms":-16.34540563586162}},{"type":"Feature","geometry":{"type":"Point","coordinates":[-84.5658,33.3636]},"properties":{"site":"KFFC","name":"Atlanta GA","scan_time":"2026-09-25T01:56:57Z","stale":false,"bins":25,"density_birds_km3":65.57466666666667,"heading_deg":200.9032330683823,"speed_ms":14.129376181858849,"peak_altitude_m":600.0,"u_ms":-4.376757182651837,"v_ms":-13.14409670401171}},{"type":"Feature","geometry":{"type":"Point","coordinates":[-85.5449,42.8939]},"properties":{"site":"KGRR","name":"Grand Rapids MI","scan_time":"2026-09-25T01:56:16Z","stale":false,"bins":25,"density_birds_km3":16.527333333333335,"heading_deg":259.77452059205024,"speed_ms":5.889632931305716,"peak_altitude_m":200.0,"u_ms":-3.969276753660603,"v_ms":-0.24062038643055955}},{"type":"Feature","geometry":{"type":"Point","coordinates":[-83.8217,39.4203]},"properties":{"site":"KILN","name":"Wilmington OH","scan_time":"2026-09-25T01:59:27Z","stale":false,"bins":25,"density_birds_km3":199.756,"heading_deg":202.8487436948972,"speed_ms":8.165738540239397,"peak_altitude_m":200.0,"u_ms":-3.1996631837079272,"v_ms":-7.040446866174653}},{"type":"Feature","geometry":{"type":"Point","coordinates":[-81.7019,30.4846]},"properties":{"site":"KJAX","name":"Jacksonville FL","scan_time":"2026-09-25T01:59:38Z","stale":false,"bins":25,"density_birds_km3":20.77,"heading_deg":177.22626293478075,"speed_ms":12.99015085742434,"peak_altitude_m":200.0,"u_ms":0.551866937594286,"v_ms":-12.959115175025401}},{"type":"Feature","geometry":{"type":"Point","coordinates":[-88.0847,41.6045]},"properties":{"site":"KLOT","name":"Chicago IL","scan_time":"2026-09-25T02:03:32Z","stale":false,"bins":25,"density_birds_km3":23.68357142857143,"heading_deg":187.25269046674333,"speed_ms":8.897628666465074,"peak_altitude_m":400.0,"u_ms":-0.8098693680072577,"v_ms":-4.541195645600242}},{"type":"Feature","geometry":{"type":"Point","coordinates":[-78.4292,33.9892]},"properties":{"site":"KLTX","name":"Wilmington NC","scan_time":"2026-09-25T02:01:41Z","stale":false,"bins":25,"density_birds_km3":7.553125,"heading_deg":206.9860884375094,"speed_ms":17.09826148117501,"peak_altitude_m":400.0,"u_ms":-7.932278030616467,"v_ms":-15.108080264791065}},{"type":"Feature","geometry":{"type":"Point","coordinates":[-77.4778,38.9753]},"properties":{"site":"KLWX","name":"Sterling VA","scan_time":"2026-09-25T01:57:04Z","stale":false,"bins":25,"density_birds_km3":51.25875,"heading_deg":199.98166673835982,"speed_ms":12.719412532159536,"peak_altitude_m":200.0,"u_ms":-4.627900332874057,"v_ms":-11.6648682525941}},{"type":"Feature","geometry":{"type":"Point","coordinates":[-76.8762,34.7759]},"properties":{"site":"KMHX","name":"Morehead City NC","scan_time":"2026-09-25T01:58:36Z","stale":false,"bins":25,"density_birds_km3":11.365,"heading_deg":185.69492418791552,"speed_ms":20.49077980642323,"peak_altitude_m":200.0,"u_ms":-2.1234695336559612,"v_ms":-20.34151891772987}},{"type":"Feature","geometry":{"type":"Point","coordinates":[-80.6542,28.1133]},"properties":{"site":"KMLB","name":"Melbourne FL","scan_time":"2026-09-25T01:58:32Z","stale":false,"bins":25,"density_birds_km3":18.32375,"heading_deg":158.186777242935,"speed_ms":15.519712881089754,"peak_altitude_m":200.0,"u_ms":5.636733809019835,"v_ms":-14.39608719401864}},{"type":"Feature","geometry":{"type":"Point","coordinates":[-86.5625,36.2472]},"properties":{"site":"KOHX","name":"Nashville TN","scan_time":"2026-09-25T02:00:16Z","stale":false,"bins":25,"density_birds_km3":126.49666666666667,"heading_deg":199.41657568074035,"speed_ms":11.256579514611715,"peak_altitude_m":400.0,"u_ms":-3.9026113468075576,"v_ms":-10.336546259453478}},{"type":"Feature","geometry":{"type":"Point","coordinates":[-72.8639,40.8655]},"properties":{"site":"KOKX","name":"Upton NY","scan_time":"2026-09-25T01:58:18Z","stale":false,"bins":25,"density_birds_km3":8.931875,"heading_deg":227.15709271556605,"speed_ms":20.570976275456644,"peak_altitude_m":200.0,"u_ms":-15.152100916789138,"v_ms":-13.868686402127507}},{"type":"Feature","geometry":{"type":"Point","coordinates":[-80.2183,40.5317]},"properties":{"site":"KPBZ","name":"Pittsburgh PA","scan_time":"2026-09-25T01:57:44Z","stale":false,"bins":25,"density_birds_km3":106.72642857142857,"heading_deg":218.57347245976848,"speed_ms":12.074838813366371,"peak_altitude_m":400.0,"u_ms":-7.563282059867409,"v_ms":-9.396458246835868}},{"type":"Feature","geometry":{"type":"Point","coordinates":[-78.4899,35.6655]},"properties":{"site":"KRAX","name":"Raleigh NC","scan_time":"2026-09-25T01:56:53Z","stale":false,"bins":25,"density_birds_km3":47.98375,"heading_deg":202.37869167670527,"speed_ms":16.479938649507634,"peak_altitude_m":400.0,"u_ms":-6.562957718960037,"v_ms":-15.013398895430626}},{"type":"Feature","geometry":{"type":"Point","coordinates":[-82.4017,27.7055]},"properties":{"site":"KTBW","name":"Tampa FL","scan_time":"2026-09-25T01:59:04Z","stale":false,"bins":25,"density_birds_km3":16.55875,"heading_deg":190.39101131341508,"speed_ms":13.945316298029741,"peak_altitude_m":200.0,"u_ms":-2.6910262700988903,"v_ms":-13.621048539291916}}]}