{"type":"FeatureCollection","frame":"2026-09-02T01","site_count":20,"fresh_count":20,"failures":{},"features":[{"type":"Feature","geometry":{"type":"Point","coordinates":[-77.0073,36.984]},"properties":{"site":"KAKQ","name":"Wakefield VA","scan_time":"2026-09-02T01:02:39Z","stale":false,"bins":25,"density_birds_km3":10.199375,"heading_deg":18.803259309651263,"speed_ms":5.276611802991427,"peak_altitude_m":0.0,"u_ms":0.9189486200638338,"v_ms":2.7383378183866327}},{"type":"Feature","geometry":{"type":"Point","coordinates":[-71.1369,41.9558]},"properties":{"site":"KBOX","name":"Boston MA","scan_time":"2026-09-02T01:01:29Z","stale":false,"bins":25,"density_birds_km3":4.061875,"heading_deg":278.1354206482436,"speed_ms":6.749806081290723,"peak_altitude_m":0.0,"u_ms":-6.281313993174061,"v_ms":1.4163977660564693}},{"type":"Feature","geometry":{"type":"Point","coordinates":[-78.7369,42.9489]},"properties":{"site":"KBUF","name":"Buffalo NY","scan_time":"2026-09-02T01:00:56Z","stale":false,"bins":25,"density_birds_km3":15.506666666666666,"heading_deg":115.11637231146237,"speed_ms":5.049576846133774,"peak_altitude_m":200.0,"u_ms":3.345053057319301,"v_ms":-2.4841710881099415}},{"type":"Feature","geometry":{"type":"Point","coordinates":[-81.8597,41.4131]},"properties":{"site":"KCLE","name":"Cleveland OH","scan_time":"2026-09-02T01:01:30Z","stale":false,"bins":25,"density_birds_km3":11.260666666666667,"heading_deg":92.5464919048841,"speed_ms":10.960880350482505,"peak_altitude_m":200.0,"u_ms":10.584545023977265,"v_ms":-1.390741815167841}},{"type":"Feature","geometry":{"type":"Point","coordinates":[-81.0423,32.6555]},"properties":{"site":"KCLX","name":"Charleston SC","scan_time":"2026-09-02T00:57:48Z","stale":false,"bins":25,"density_birds_km3":16.305833333333332,"heading_deg":258.66836773108605,"speed_ms":7.313979962624583,"peak_altitude_m":0.0,"u_ms":-3.845752180232558,"v_ms":-2.3843069975083053}},{"type":"Feature","geometry":{"type":"Point","coordinates":[-74.4108,39.947]},"properties":{"site":"KDIX","name":"Philadelphia PA","scan_time":"2026-09-02T00:58:48Z","stale":false,"bins":25,"density_birds_km3":24.55875,"heading_deg":null,"speed_ms":null,"peak_altitude_m":200.0,"u_ms":null,"v_ms":null}},{"type":"Feature","geometry":{"type":"Point","coordinates":[-84.5658,33.3636]},"properties":{"site":"KFFC","name":"Atlanta GA","scan_time":"2026-09-02T00:58:59Z","stale":false,"bins":25,"density_birds_km3":21.158666666666665,"heading_deg":209.56218655285332,"speed_ms":4.230225796278776,"peak_altitude_m":400.0,"u_ms":-2.242494481236203,"v_ms":-3.3286051718700724}},{"type":"Feature","geometry":{"type":"Point","coordinates":[-85.5449,42.8939]},"properties":{"site":"KGRR","name":"Grand Rapids MI","scan_time":"2026-09-02T00:58:36Z","stale":false,"bins":25,"density_birds_km3":10.163333333333332,"heading_deg":102.14839550727571,"speed_ms":9.219350452175059,"peak_altitude_m":400.0,"u_ms":8.925375932404778,"v_ms":-2.11047395867714}},{"type":"Feature","geometry":{"type":"Point","coordinates":[-83.8217,39.4203]},"properties":{"site":"KILN","name":"Wilmington OH","scan_time":"2026-09-02T00:59:36Z","stale":false,"bins":25,"density_birds_km3":5.745333333333334,"heading_deg":68.07673498047366,"speed_ms":7.319754826483477,"peak_altitude_m":200.0,"u_ms":6.173636148288522,"v_ms":2.4641892692171026}},{"type":"Feature","geometry":{"type":"Point","coordinates":[-81.7019,30.4846]},"properties":{"site":"KJAX","name":"Jacksonville FL","scan_time":"2026-09-02T00:59:40Z","stale":false,"bins":25,"density_birds_km3":17.971875,"heading_deg":204.9264955875216,"speed_ms":9.682762553852672,"peak_altitude_m":200.0,"u_ms":-4.026319655342891,"v_ms":-8.786018080372909}},{"type":"Feature","geometry":{"type":"Point","coordinates":[-88.0847,41.6045]},"properties":{"site":"KLOT","name":"Chicago IL","scan_time":"2026-09-02T00:59:18Z","stale":false,"bins":25,"density_birds_km3":6.991333333333333,"heading_deg":49.50118270158091,"speed_ms":9.650735856269113,"peak_altitude_m":200.0,"u_ms":7.325726299694189,"v_ms":6.197142584097859}},{"type":"Feature","geometry":{"type":"Point","coordinates":[-78.4292,33.9892]},"properties":{"site":"KLTX","name":"Wilmington NC","scan_time":"2026-09-02T00:59:05Z","stale":false,"bins":25,"density_birds_km3":7.484375,"heading_deg":286.40120062897154,"speed_ms":5.538465739397559,"peak_altitude_m":200.0,"u_ms":-2.556064510623773,"v_ms":-0.1992866285519243}},{"type":"Feature","geometry":{"type":"Point","coordinates":[-77.4778,38.9753]},"properties":{"site":"KLWX","name":"Sterling VA","scan_time":"2026-09-02T01:00:43Z","stale":false,"bins":25,"density_birds_km3":14.76375,"heading_deg":123.49084667329647,"speed_ms":8.28590954210004,"peak_altitude_m":0.0,"u_ms":6.947174053774114,"v_ms":-4.460972767683742}},{"type":"Feature","geometry":{"type":"Point","coordinates":[-76.8762,34.7759]},"properties":{"site":"KMHX","name":"Morehead City NC","scan_time":"2026-09-02T00:57:07Z","stale":false,"bins":25,"density_birds_km3":3.0637499999999998,"heading_deg":17.518144865987868,"speed_ms":6.695191167450419,"peak_altitude_m":200.0,"u_ms":1.257391126558986,"v_ms":4.4187139644244535}},{"type":"Feature","geometry":{"type":"Point","coordinates":[-80.6542,28.1133]},"properties":{"site":"KMLB","name":"Melbourne FL","scan_time":"2026-09-02T00:59:18Z","stale":false,"bins":25,"density_birds_km3":14.852500000000001,"heading_deg":174.683310480218,"speed_ms":9.922851371822926,"peak_altitude_m":0.0,"u_ms":0.9211349099478202,"v_ms":-9.847125063120686}},{"type":"Feature","geometry":{"type":"Point","coordinates":[-86.5625,36.2472]},"properties":{"site":"KOHX","name":"Nashville TN","scan_time":"2026-09-02T01:01:37Z","stale":false,"bins":25,"density_birds_km3":15.078666666666667,"heading_deg":193.4196905392809,"speed_ms":1.1737786327054036,"peak_altitude_m":200.0,"u_ms":-0.21258026001591937,"v_ms":-0.7388750331652959}},{"type":"Feature","geometry":{"type":"Point","coordinates":[-72.8639,40.8655]},"properties":{"site":"KOKX","name":"Upton NY","scan_time":"2026-09-02T01:00:08Z","stale":false,"bins":25,"density_birds_km3":4.98,"heading_deg":262.2632114024905,"speed_ms":8.71472942920682,"peak_altitude_m":200.0,"u_ms":-8.61005485544848,"v_ms":-1.1532468495181618}},{"type":"Feature","geometry":{"type":"Point","coordinates":[-80.2183,40.5317]},"properties":{"site":"KPBZ","name":"Pittsburgh PA","scan_time":"2026-09-02T00:58:43Z","stale":false,"bins":25,"density_birds_km3":6.727692307692307,"heading_deg":100.91849761165544,"speed_ms":10.706003027127721,"peak_altitude_m":400.0,"u_ms":9.578963790895331,"v_ms":-2.9579694958668066}},{"type":"Feature","geometry":{"type":"Point","coordinates":[-78.4899,35.6655]},"properties":{"site":"KRAX","name":"Raleigh NC","scan_time":"2026-09-02T00:59:59Z","stale":false,"bins":25,"density_birds_km3":16.000625,"heading_deg":78.33586034738788,"speed_ms":6.258759733036707,"peak_altitude_m":0.0,"u_ms":2.710299539170507,"v_ms":0.5403146353090734}},{"type":"Feature","geometry":{"type":"Point","coordinates":[-82.4017,27.7055]},"properties":{"site":"KTBW","name":"Tampa FL","scan_time":"2026-09-02T01:02:04Z","stale":false,"bins":25,"density_birds_km3":41.385625,"heading_deg":170.5,"speed_ms":3.09,"peak_altitude_m":200.0,"u_ms":0.51,"v_ms":-3.05}}]}