{"type":"FeatureCollection","frame":"2026-08-30T03","site_count":20,"fresh_count":20,"failures":{},"features":[{"type":"Feature","geometry":{"type":"Point","coordinates":[-77.0073,36.984]},"properties":{"site":"KAKQ","name":"Wakefield VA","scan_time":"2026-08-30T02:57:47Z","stale":false,"bins":25,"density_birds_km3":21.741875,"heading_deg":240.0719876823077,"speed_ms":6.692165751573863,"peak_altitude_m":0.0,"u_ms":-5.00439646994567,"v_ms":-3.356912927242935}},{"type":"Feature","geometry":{"type":"Point","coordinates":[-71.1369,41.9558]},"properties":{"site":"KBOX","name":"Boston MA","scan_time":"2026-08-30T03:02:24Z","stale":false,"bins":25,"density_birds_km3":6.631875,"heading_deg":122.30805120294168,"speed_ms":5.656498586239397,"peak_altitude_m":0.0,"u_ms":3.470508953817154,"v_ms":-1.7102450518378889}},{"type":"Feature","geometry":{"type":"Point","coordinates":[-78.7369,42.9489]},"properties":{"site":"KBUF","name":"Buffalo NY","scan_time":"2026-08-30T02:59:30Z","stale":false,"bins":25,"density_birds_km3":1.1186666666666667,"heading_deg":29.841091882778475,"speed_ms":7.027872467222885,"peak_altitude_m":200.0,"u_ms":3.5155303933253874,"v_ms":5.775}},{"type":"Feature","geometry":{"type":"Point","coordinates":[-81.8597,41.4131]},"properties":{"site":"KCLE","name":"Cleveland OH","scan_time":"2026-08-30T02:58:31Z","stale":false,"bins":25,"density_birds_km3":1.468,"heading_deg":11.859339358308132,"speed_ms":6.271621129326046,"peak_altitude_m":200.0,"u_ms":1.2437841530054645,"v_ms":5.672586520947177}},{"type":"Feature","geometry":{"type":"Point","coordinates":[-81.0423,32.6555]},"properties":{"site":"KCLX","name":"Charleston SC","scan_time":"2026-08-30T02:58:57Z","stale":false,"bins":25,"density_birds_km3":7.531875,"heading_deg":240.73814645178868,"speed_ms":6.952189316357598,"peak_altitude_m":0.0,"u_ms":-5.974783651628379,"v_ms":-3.3081760309991695}},{"type":"Feature","geometry":{"type":"Point","coordinates":[-74.4108,39.947]},"properties":{"site":"KDIX","name":"Philadelphia PA","scan_time":"2026-08-30T02:59:07Z","stale":false,"bins":25,"density_birds_km3":20.189375,"heading_deg":208.61487201166418,"speed_ms":8.441147439469935,"peak_altitude_m":1400.0,"u_ms":-2.6340751749334324,"v_ms":-5.605180506532912}},{"type":"Feature","geometry":{"type":"Point","coordinates":[-84.5658,33.3636]},"properties":{"site":"KFFC","name":"Atlanta GA","scan_time":"2026-08-30T02:59:59Z","stale":false,"bins":25,"density_birds_km3":20.28533333333333,"heading_deg":277.2474528585232,"speed_ms":6.599444919153411,"peak_altitude_m":400.0,"u_ms":-5.737304127777048,"v_ms":0.6014706848954909}},{"type":"Feature","geometry":{"type":"Point","coordinates":[-85.5449,42.8939]},"properties":{"site":"KGRR","name":"Grand Rapids MI","scan_time":"2026-08-30T02:59:38Z","stale":false,"bins":25,"density_birds_km3":2.6426666666666665,"heading_deg":13.728404906101948,"speed_ms":7.53368833797116,"peak_altitude_m":200.0,"u_ms":1.95091070073362,"v_ms":7.207622059195548}},{"type":"Feature","geometry":{"type":"Point","coordinates":[-83.8217,39.4203]},"properties":{"site":"KILN","name":"Wilmington OH","scan_time":"2026-08-30T03:01:37Z","stale":false,"bins":25,"density_birds_km3":4.560666666666666,"heading_deg":20.08413946942723,"speed_ms":5.056765092822687,"peak_altitude_m":200.0,"u_ms":1.5211416459581935,"v_ms":3.0518608390586177}},{"type":"Feature","geometry":{"type":"Point","coordinates":[-81.7019,30.4846]},"properties":{"site":"KJAX","name":"Jacksonville FL","scan_time":"2026-08-30T03:00:17Z","stale":false,"bins":25,"density_birds_km3":13.2375,"heading_deg":214.8633510059691,"speed_ms":5.581441565209152,"peak_altitude_m":200.0,"u_ms":-3.166824103462978,"v_ms":-4.5796636505755846}},{"type":"Feature","geometry":{"type":"Point","coordinates":[-88.0847,41.6045]},"properties":{"site":"KLOT","name":"Chicago IL","scan_time":"2026-08-30T02:58:17Z","stale":false,"bins":25,"density_birds_km3":0.9233333333333333,"heading_deg":4.00519102360608,"speed_ms":13.713768221574343,"peak_altitude_m":200.0,"u_ms":1.0454227405247813,"v_ms":13.236443148688046}},{"type":"Feature","geometry":{"type":"Point","coordinates":[-78.4292,33.9892]},"properties":{"site":"KLTX","name":"Wilmington NC","scan_time":"2026-08-30T03:01:10Z","stale":false,"bins":25,"density_birds_km3":13.37875,"heading_deg":224.31519750938682,"speed_ms":7.112039579585266,"peak_altitude_m":200.0,"u_ms":-4.952101126787236,"v_ms":-5.094342865258972}},{"type":"Feature","geometry":{"type":"Point","coordinates":[-77.4778,38.9753]},"properties":{"site":"KLWX","name":"Sterling VA","scan_time":"2026-08-30T02:59:14Z","stale":false,"bins":25,"density_birds_km3":18.005,"heading_deg":268.14644964456505,"speed_ms":4.752302450391921,"peak_altitude_m":200.0,"u_ms":-4.449390226678907,"v_ms":-0.07298389944212982}},{"type":"Feature","geometry":{"type":"Point","coordinates":[-76.8762,34.7759]},"properties":{"site":"KMHX","name":"Morehead City NC","scan_time":"2026-08-30T03:01:56Z","stale":false,"bins":25,"density_birds_km3":12.552499999999998,"heading_deg":227.58451715655832,"speed_ms":5.37162448938926,"peak_altitude_m":200.0,"u_ms":-3.847282554548172,"v_ms":-3.5866219986051617}},{"type":"Feature","geometry":{"type":"Point","coordinates":[-80.6542,28.1133]},"properties":{"site":"KMLB","name":"Melbourne FL","scan_time":"2026-08-30T02:59:34Z","stale":false,"bins":25,"density_birds_km3":5.59375,"heading_deg":175.711745174776,"speed_ms":5.237205274332328,"peak_altitude_m":0.0,"u_ms":0.2759939658062353,"v_ms":-4.812038216560509}},{"type":"Feature","geometry":{"type":"Point","coordinates":[-86.5625,36.2472]},"properties":{"site":"KOHX","name":"Nashville TN","scan_time":"2026-08-30T03:01:12Z","stale":false,"bins":25,"density_birds_km3":34.693999999999996,"heading_deg":235.70416008600665,"speed_ms":5.1473146173209585,"peak_altitude_m":200.0,"u_ms":-4.103081800887762,"v_ms":-2.8178505409196597}},{"type":"Feature","geometry":{"type":"Point","coordinates":[-72.8639,40.8655]},"properties":{"site":"KOKX","name":"Upton NY","scan_time":"2026-08-30T02:59:08Z","stale":false,"bins":25,"density_birds_km3":13.73625,"heading_deg":217.28464129205696,"speed_ms":6.461169564030217,"peak_altitude_m":200.0,"u_ms":-2.2266665149722398,"v_ms":-4.912532083371257}},{"type":"Feature","geometry":{"type":"Point","coordinates":[-80.2183,40.5317]},"properties":{"site":"KPBZ","name":"Pittsburgh PA","scan_time":"2026-08-30T02:57:37Z","stale":false,"bins":25,"density_birds_km3":8.03,"heading_deg":255.55689459862032,"speed_ms":3.891844712182062,"peak_altitude_m":600.0,"u_ms":-2.423140562248996,"v_ms":-0.8253493975903615}},{"type":"Feature","geometry":{"type":"Point","coordinates":[-78.4899,35.6655]},"properties":{"site":"KRAX","name":"Raleigh NC","scan_time":"2026-08-30T02:59:25Z","stale":false,"bins":25,"density_birds_km3":24.02,"heading_deg":239.89533724759286,"speed_ms":4.788556494720488,"peak_altitude_m":400.0,"u_ms":-3.9265481738947257,"v_ms":-2.461006925244227}},{"type":"Feature","geometry":{"type":"Point","coordinates":[-82.4017,27.7055]},"properties":{"site":"KTBW","name":"Tampa FL","scan_time":"2026-08-30T02:59:36Z","stale":false,"bins":25,"density_birds_km3":9.233125,"heading_deg":215.6445616791012,"speed_ms":7.10955785767486,"peak_altitude_m":200.0,"u_ms":-4.12156679531451,"v_ms":-5.721386011239759}}]}