{"type":"FeatureCollection","frame":"2026-09-13T06","site_count":20,"fresh_count":20,"failures":{},"features":[{"type":"Feature","geometry":{"type":"Point","coordinates":[-77.0073,36.984]},"properties":{"site":"KAKQ","name":"Wakefield VA","scan_time":"2026-09-13T05:57:49Z","stale":false,"bins":25,"density_birds_km3":3.758125,"heading_deg":31.619565799293305,"speed_ms":4.420049900199601,"peak_altitude_m":0.0,"u_ms":2.7928426480372583,"v_ms":3.3054174983366598}},{"type":"Feature","geometry":{"type":"Point","coordinates":[-71.1369,41.9558]},"properties":{"site":"KBOX","name":"Boston MA","scan_time":"2026-09-13T06:00:28Z","stale":false,"bins":25,"density_birds_km3":0.554375,"heading_deg":355.63848908176107,"speed_ms":8.263303269447578,"peak_altitude_m":0.0,"u_ms":-0.4548252536640362,"v_ms":8.026809470124014}},{"type":"Feature","geometry":{"type":"Point","coordinates":[-78.7369,42.9489]},"properties":{"site":"KBUF","name":"Buffalo NY","scan_time":"2026-09-13T05:59:40Z","stale":false,"bins":25,"density_birds_km3":1.2733333333333332,"heading_deg":57.22630695541359,"speed_ms":8.114803562074384,"peak_altitude_m":200.0,"u_ms":6.639308538501832,"v_ms":4.180591932949188}},{"type":"Feature","geometry":{"type":"Point","coordinates":[-81.8597,41.4131]},"properties":{"site":"KCLE","name":"Cleveland OH","scan_time":"2026-09-13T05:58:37Z","stale":false,"bins":25,"density_birds_km3":4.225333333333333,"heading_deg":100.7490674918635,"speed_ms":8.35102713789839,"peak_altitude_m":400.0,"u_ms":7.596708740927737,"v_ms":-1.1136162827390343}},{"type":"Feature","geometry":{"type":"Point","coordinates":[-81.0423,32.6555]},"properties":{"site":"KCLX","name":"Charleston SC","scan_time":"2026-09-13T06:01:27Z","stale":false,"bins":25,"density_birds_km3":4.54125,"heading_deg":113.49972906593104,"speed_ms":4.813958706125258,"peak_altitude_m":0.0,"u_ms":4.078633172746042,"v_ms":-0.6729112181693049}},{"type":"Feature","geometry":{"type":"Point","coordinates":[-74.4108,39.947]},"properties":{"site":"KDIX","name":"Philadelphia PA","scan_time":"2026-09-13T06:01:36Z","stale":false,"bins":25,"density_birds_km3":2.0075,"heading_deg":310.72545955708745,"speed_ms":6.724749061113009,"peak_altitude_m":200.0,"u_ms":-4.59257767156026,"v_ms":4.1717036531239335}},{"type":"Feature","geometry":{"type":"Point","coordinates":[-84.5658,33.3636]},"properties":{"site":"KFFC","name":"Atlanta GA","scan_time":"2026-09-13T05:59:06Z","stale":false,"bins":25,"density_birds_km3":66.10133333333333,"heading_deg":148.70379565846682,"speed_ms":8.40900314668388,"peak_altitude_m":1400.0,"u_ms":3.5149340406648384,"v_ms":-6.4332135509117325}},{"type":"Feature","geometry":{"type":"Point","coordinates":[-85.5449,42.8939]},"properties":{"site":"KGRR","name":"Grand Rapids MI","scan_time":"2026-09-13T06:04:02Z","stale":false,"bins":25,"density_birds_km3":52.994,"heading_deg":149.49459628347205,"speed_ms":13.753280695573393,"peak_altitude_m":600.0,"u_ms":6.850837380778619,"v_ms":-11.856610967108741}},{"type":"Feature","geometry":{"type":"Point","coordinates":[-83.8217,39.4203]},"properties":{"site":"KILN","name":"Wilmington OH","scan_time":"2026-09-13T05:58:56Z","stale":false,"bins":25,"density_birds_km3":16.358,"heading_deg":134.87889603886566,"speed_ms":9.091530088062624,"peak_altitude_m":600.0,"u_ms":5.447300228310502,"v_ms":-5.977332028701892}},{"type":"Feature","geometry":{"type":"Point","coordinates":[-81.7019,30.4846]},"properties":{"site":"KJAX","name":"Jacksonville FL","scan_time":"2026-09-13T05:58:57Z","stale":false,"bins":25,"density_birds_km3":13.429375,"heading_deg":133.55223763900426,"speed_ms":5.582627635314377,"peak_altitude_m":0.0,"u_ms":4.041010378368316,"v_ms":-3.832207846604924}},{"type":"Feature","geometry":{"type":"Point","coordinates":[-88.0847,41.6045]},"properties":{"site":"KLOT","name":"Chicago IL","scan_time":"2026-09-13T06:01:56Z","stale":false,"bins":25,"density_birds_km3":109.70066666666666,"heading_deg":169.0004761842118,"speed_ms":12.986442804966243,"peak_altitude_m":400.0,"u_ms":2.218142825020814,"v_ms":-12.572504694593166}},{"type":"Feature","geometry":{"type":"Point","coordinates":[-78.4292,33.9892]},"properties":{"site":"KLTX","name":"Wilmington NC","scan_time":"2026-09-13T05:58:30Z","stale":false,"bins":25,"density_birds_km3":2.939375,"heading_deg":348.162805161133,"speed_ms":4.5715,"peak_altitude_m":0.0,"u_ms":-0.5362399999999999,"v_ms":4.1906574999999995}},{"type":"Feature","geometry":{"type":"Point","coordinates":[-77.4778,38.9753]},"properties":{"site":"KLWX","name":"Sterling VA","scan_time":"2026-09-13T06:00:22Z","stale":false,"bins":25,"density_birds_km3":13.254375,"heading_deg":258.25100867478966,"speed_ms":4.412546144721234,"peak_altitude_m":200.0,"u_ms":-3.703534994068802,"v_ms":-0.7016446026097272}},{"type":"Feature","geometry":{"type":"Point","coordinates":[-76.8762,34.7759]},"properties":{"site":"KMHX","name":"Morehead City NC","scan_time":"2026-09-13T05:59:07Z","stale":false,"bins":25,"density_birds_km3":1.4825,"heading_deg":42.986270198958664,"speed_ms":7.869392917369308,"peak_altitude_m":0.0,"u_ms":5.386264755480608,"v_ms":5.724557335581787}},{"type":"Feature","geometry":{"type":"Point","coordinates":[-80.6542,28.1133]},"properties":{"site":"KMLB","name":"Melbourne FL","scan_time":"2026-09-13T06:01:11Z","stale":false,"bins":25,"density_birds_km3":18.140625,"heading_deg":114.22001854905443,"speed_ms":3.1489085271317827,"peak_altitude_m":200.0,"u_ms":2.7904165374677,"v_ms":-1.3324816537467699}},{"type":"Feature","geometry":{"type":"Point","coordinates":[-86.5625,36.2472]},"properties":{"site":"KOHX","name":"Nashville TN","scan_time":"2026-09-13T06:00:26Z","stale":false,"bins":25,"density_birds_km3":131.72666666666666,"heading_deg":160.21647909344682,"speed_ms":7.9005753833696035,"peak_altitude_m":400.0,"u_ms":2.432228807125867,"v_ms":-7.356084062958653}},{"type":"Feature","geometry":{"type":"Point","coordinates":[-72.8639,40.8655]},"properties":{"site":"KOKX","name":"Upton NY","scan_time":"2026-09-13T06:01:09Z","stale":false,"bins":25,"density_birds_km3":0.79125,"heading_deg":307.6197955930279,"speed_ms":7.459845360824741,"peak_altitude_m":0.0,"u_ms":-5.598835051546391,"v_ms":4.448639175257733}},{"type":"Feature","geometry":{"type":"Point","coordinates":[-80.2183,40.5317]},"properties":{"site":"KPBZ","name":"Pittsburgh PA","scan_time":"2026-09-13T06:01:33Z","stale":false,"bins":25,"density_birds_km3":4.308571428571429,"heading_deg":75.34438259687924,"speed_ms":7.193727029736051,"peak_altitude_m":600.0,"u_ms":6.760888740394253,"v_ms":1.5570280654861344}},{"type":"Feature","geometry":{"type":"Point","coordinates":[-78.4899,35.6655]},"properties":{"site":"KRAX","name":"Raleigh NC","scan_time":"2026-09-13T06:01:55Z","stale":false,"bins":25,"density_birds_km3":5.6450000000000005,"heading_deg":7.945243181989151,"speed_ms":2.7001274594728373,"peak_altitude_m":0.0,"u_ms":0.512679123870808,"v_ms":2.6013364682588787}},{"type":"Feature","geometry":{"type":"Point","coordinates":[-82.4017,27.7055]},"properties":{"site":"KTBW","name":"Tampa FL","scan_time":"2026-09-13T06:00:03Z","stale":false,"bins":25,"density_birds_km3":6.1518749999999995,"heading_deg":265.7167182612939,"speed_ms":3.790246875952454,"peak_altitude_m":0.0,"u_ms":-1.3949100883876866,"v_ms":-0.5447221375596871}}]}