{"type":"FeatureCollection","frame":"2026-08-29T10","site_count":20,"fresh_count":20,"failures":{},"features":[{"type":"Feature","geometry":{"type":"Point","coordinates":[-77.0073,36.984]},"properties":{"site":"KAKQ","name":"Wakefield VA","scan_time":"2026-08-29T09:59:42Z","stale":false,"bins":25,"density_birds_km3":16.89,"heading_deg":220.9344431113144,"speed_ms":12.679042525630113,"peak_altitude_m":200.0,"u_ms":-8.289234982789889,"v_ms":-9.528199415226322}},{"type":"Feature","geometry":{"type":"Point","coordinates":[-71.1369,41.9558]},"properties":{"site":"KBOX","name":"Boston MA","scan_time":"2026-08-29T10:00:06Z","stale":false,"bins":25,"density_birds_km3":27.731875000000002,"heading_deg":187.524313853362,"speed_ms":11.310312168954402,"peak_altitude_m":200.0,"u_ms":-1.4681042216061486,"v_ms":-11.138081682331462}},{"type":"Feature","geometry":{"type":"Point","coordinates":[-78.7369,42.9489]},"properties":{"site":"KBUF","name":"Buffalo NY","scan_time":"2026-08-29T10:01:53Z","stale":false,"bins":25,"density_birds_km3":0.6806666666666666,"heading_deg":129.69001445611545,"speed_ms":5.223633692458375,"peak_altitude_m":400.0,"u_ms":3.4705386875612145,"v_ms":-3.4540842311459357}},{"type":"Feature","geometry":{"type":"Point","coordinates":[-81.8597,41.4131]},"properties":{"site":"KCLE","name":"Cleveland OH","scan_time":"2026-08-29T10:01:56Z","stale":false,"bins":25,"density_birds_km3":0.5519999999999999,"heading_deg":333.3617435748583,"speed_ms":6.097876213592233,"peak_altitude_m":200.0,"u_ms":-2.8908252427184467,"v_ms":5.167342233009708}},{"type":"Feature","geometry":{"type":"Point","coordinates":[-81.0423,32.6555]},"properties":{"site":"KCLX","name":"Charleston SC","scan_time":"2026-08-29T10:00:02Z","stale":false,"bins":25,"density_birds_km3":2.466875,"heading_deg":211.5079107306146,"speed_ms":5.5050203638338315,"peak_altitude_m":0.0,"u_ms":-2.8824708118381754,"v_ms":-4.685737170784687}},{"type":"Feature","geometry":{"type":"Point","coordinates":[-74.4108,39.947]},"properties":{"site":"KDIX","name":"Philadelphia PA","scan_time":"2026-08-29T10:03:22Z","stale":false,"bins":25,"density_birds_km3":1.7275,"heading_deg":215.76329838274455,"speed_ms":12.631005444646098,"peak_altitude_m":600.0,"u_ms":-7.459154264972776,"v_ms":-10.131393829401087}},{"type":"Feature","geometry":{"type":"Point","coordinates":[-84.5658,33.3636]},"properties":{"site":"KFFC","name":"Atlanta GA","scan_time":"2026-08-29T10:03:55Z","stale":false,"bins":25,"density_birds_km3":12.239333333333333,"heading_deg":198.0666044256309,"speed_ms":4.227794790758501,"peak_altitude_m":200.0,"u_ms":-1.0299542284219703,"v_ms":-3.7840524193548384}},{"type":"Feature","geometry":{"type":"Point","coordinates":[-85.5449,42.8939]},"properties":{"site":"KGRR","name":"Grand Rapids MI","scan_time":"2026-08-29T09:58:00Z","stale":false,"bins":25,"density_birds_km3":0.242,"heading_deg":35.62048487237999,"speed_ms":10.906132596685081,"peak_altitude_m":200.0,"u_ms":6.430082872928176,"v_ms":8.58988950276243}},{"type":"Feature","geometry":{"type":"Point","coordinates":[-83.8217,39.4203]},"properties":{"site":"KILN","name":"Wilmington OH","scan_time":"2026-08-29T09:58:21Z","stale":false,"bins":25,"density_birds_km3":1.5506666666666669,"heading_deg":273.67842334262485,"speed_ms":8.687206198880757,"peak_altitude_m":200.0,"u_ms":-7.6805768402927255,"v_ms":0.7462806715454154}},{"type":"Feature","geometry":{"type":"Point","coordinates":[-81.7019,30.4846]},"properties":{"site":"KJAX","name":"Jacksonville FL","scan_time":"2026-08-29T09:58:50Z","stale":false,"bins":25,"density_birds_km3":21.490000000000002,"heading_deg":180.0359711224116,"speed_ms":7.993598476035364,"peak_altitude_m":0.0,"u_ms":-0.00047696603071195723,"v_ms":-7.99142013727315}},{"type":"Feature","geometry":{"type":"Point","coordinates":[-88.0847,41.6045]},"properties":{"site":"KLOT","name":"Chicago IL","scan_time":"2026-08-29T10:02:45Z","stale":false,"bins":25,"density_birds_km3":0.696,"heading_deg":39.089782925547176,"speed_ms":6.588995073891625,"peak_altitude_m":200.0,"u_ms":3.8854778325123154,"v_ms":4.738226600985221}},{"type":"Feature","geometry":{"type":"Point","coordinates":[-78.4292,33.9892]},"properties":{"site":"KLTX","name":"Wilmington NC","scan_time":"2026-08-29T10:00:33Z","stale":false,"bins":25,"density_birds_km3":4.534375,"heading_deg":208.77215990966644,"speed_ms":4.137412850307587,"peak_altitude_m":200.0,"u_ms":-2.01688995215311,"v_ms":-3.563069036226931}},{"type":"Feature","geometry":{"type":"Point","coordinates":[-77.4778,38.9753]},"properties":{"site":"KLWX","name":"Sterling VA","scan_time":"2026-08-29T10:00:08Z","stale":false,"bins":25,"density_birds_km3":44.44692307692307,"heading_deg":236.90061559282555,"speed_ms":13.083942237767081,"peak_altitude_m":400.0,"u_ms":-10.964300654500123,"v_ms":-6.978802160889289}},{"type":"Feature","geometry":{"type":"Point","coordinates":[-76.8762,34.7759]},"properties":{"site":"KMHX","name":"Morehead City NC","scan_time":"2026-08-29T09:58:18Z","stale":false,"bins":25,"density_birds_km3":7.218125000000001,"heading_deg":null,"speed_ms":null,"peak_altitude_m":200.0,"u_ms":null,"v_ms":null}},{"type":"Feature","geometry":{"type":"Point","coordinates":[-80.6542,28.1133]},"properties":{"site":"KMLB","name":"Melbourne FL","scan_time":"2026-08-29T10:01:52Z","stale":false,"bins":25,"density_birds_km3":1.0006249999999999,"heading_deg":198.07451575705178,"speed_ms":3.36279375,"peak_altitude_m":0.0,"u_ms":-0.6951562499999999,"v_ms":-2.8440749999999997}},{"type":"Feature","geometry":{"type":"Point","coordinates":[-86.5625,36.2472]},"properties":{"site":"KOHX","name":"Nashville TN","scan_time":"2026-08-29T10:00:01Z","stale":false,"bins":25,"density_birds_km3":13.570666666666666,"heading_deg":233.15045038515888,"speed_ms":7.152627568577327,"peak_altitude_m":200.0,"u_ms":-5.6329756169501515,"v_ms":-3.9858362009635235}},{"type":"Feature","geometry":{"type":"Point","coordinates":[-72.8639,40.8655]},"properties":{"site":"KOKX","name":"Upton NY","scan_time":"2026-08-29T10:01:47Z","stale":false,"bins":25,"density_birds_km3":13.396875,"heading_deg":197.48132758653688,"speed_ms":10.021619803829987,"peak_altitude_m":0.0,"u_ms":-2.968353573096684,"v_ms":-9.37131387202242}},{"type":"Feature","geometry":{"type":"Point","coordinates":[-80.2183,40.5317]},"properties":{"site":"KPBZ","name":"Pittsburgh PA","scan_time":"2026-08-29T09:56:39Z","stale":false,"bins":25,"density_birds_km3":3.8957142857142855,"heading_deg":231.85709749401727,"speed_ms":8.338113172882602,"peak_altitude_m":600.0,"u_ms":-6.27011941943781,"v_ms":-4.23488149917325}},{"type":"Feature","geometry":{"type":"Point","coordinates":[-78.4899,35.6655]},"properties":{"site":"KRAX","name":"Raleigh NC","scan_time":"2026-08-29T09:59:29Z","stale":false,"bins":25,"density_birds_km3":18.44375,"heading_deg":210.2605937987592,"speed_ms":7.148580192516269,"peak_altitude_m":400.0,"u_ms":-3.4750576193058564,"v_ms":-6.091084259761388}},{"type":"Feature","geometry":{"type":"Point","coordinates":[-82.4017,27.7055]},"properties":{"site":"KTBW","name":"Tampa FL","scan_time":"2026-08-29T09:58:36Z","stale":false,"bins":25,"density_birds_km3":3.92875,"heading_deg":271.2162438830927,"speed_ms":5.86397739933153,"peak_altitude_m":0.0,"u_ms":-5.779014801846253,"v_ms":0.3254193856438007}}]}