{"type":"FeatureCollection","frame":"2026-09-18T05","site_count":20,"fresh_count":20,"failures":{},"features":[{"type":"Feature","geometry":{"type":"Point","coordinates":[-77.0073,36.984]},"properties":{"site":"KAKQ","name":"Wakefield VA","scan_time":"2026-09-18T04:59:27Z","stale":false,"bins":25,"density_birds_km3":4.386875,"heading_deg":72.11941705306477,"speed_ms":9.607385667473999,"peak_altitude_m":0.0,"u_ms":7.99692976207437,"v_ms":2.6308035332668473}},{"type":"Feature","geometry":{"type":"Point","coordinates":[-71.1369,41.9558]},"properties":{"site":"KBOX","name":"Boston MA","scan_time":"2026-09-18T04:58:24Z","stale":false,"bins":25,"density_birds_km3":0.45375,"heading_deg":51.135020730393705,"speed_ms":8.550925414364642,"peak_altitude_m":0.0,"u_ms":6.591422651933701,"v_ms":4.953024861878452}},{"type":"Feature","geometry":{"type":"Point","coordinates":[-78.7369,42.9489]},"properties":{"site":"KBUF","name":"Buffalo NY","scan_time":"2026-09-18T05:00:37Z","stale":false,"bins":25,"density_birds_km3":70.75399999999999,"heading_deg":196.95625189330113,"speed_ms":8.304677953000837,"peak_altitude_m":400.0,"u_ms":-2.4868395750657477,"v_ms":-7.8230643716949295}},{"type":"Feature","geometry":{"type":"Point","coordinates":[-81.8597,41.4131]},"properties":{"site":"KCLE","name":"Cleveland OH","scan_time":"2026-09-18T05:01:25Z","stale":false,"bins":25,"density_birds_km3":35.583333333333336,"heading_deg":185.77763631619598,"speed_ms":6.505135362997658,"peak_altitude_m":200.0,"u_ms":-0.5871816393442625,"v_ms":-6.331982201405153}},{"type":"Feature","geometry":{"type":"Point","coordinates":[-81.0423,32.6555]},"properties":{"site":"KCLX","name":"Charleston SC","scan_time":"2026-09-18T05:03:49Z","stale":false,"bins":25,"density_birds_km3":7.020625,"heading_deg":248.37934862328765,"speed_ms":5.7639436619718305,"peak_altitude_m":0.0,"u_ms":-2.00005055976887,"v_ms":-3.30152672444926}},{"type":"Feature","geometry":{"type":"Point","coordinates":[-74.4108,39.947]},"properties":{"site":"KDIX","name":"Philadelphia PA","scan_time":"2026-09-18T04:58:47Z","stale":false,"bins":25,"density_birds_km3":2.2775,"heading_deg":49.867518089828195,"speed_ms":7.8925700164744645,"peak_altitude_m":200.0,"u_ms":5.770093355299286,"v_ms":4.691339923119165}},{"type":"Feature","geometry":{"type":"Point","coordinates":[-84.5658,33.3636]},"properties":{"site":"KFFC","name":"Atlanta GA","scan_time":"2026-09-18T05:01:28Z","stale":false,"bins":25,"density_birds_km3":84.00933333333334,"heading_deg":197.5222792333339,"speed_ms":9.131128763470725,"peak_altitude_m":1000.0,"u_ms":-3.144063119970797,"v_ms":-8.343785690478834}},{"type":"Feature","geometry":{"type":"Point","coordinates":[-85.5449,42.8939]},"properties":{"site":"KGRR","name":"Grand Rapids MI","scan_time":"2026-09-18T05:01:32Z","stale":false,"bins":25,"density_birds_km3":123.24866666666667,"heading_deg":205.7842658133588,"speed_ms":9.26128107198693,"peak_altitude_m":200.0,"u_ms":-4.093856091056137,"v_ms":-8.257335991301197}},{"type":"Feature","geometry":{"type":"Point","coordinates":[-83.8217,39.4203]},"properties":{"site":"KILN","name":"Wilmington OH","scan_time":"2026-09-18T05:01:35Z","stale":false,"bins":25,"density_birds_km3":36.65866666666667,"heading_deg":181.0231189680717,"speed_ms":7.239439150360078,"peak_altitude_m":200.0,"u_ms":0.8054257292500181,"v_ms":-4.718523314177639}},{"type":"Feature","geometry":{"type":"Point","coordinates":[-81.7019,30.4846]},"properties":{"site":"KJAX","name":"Jacksonville FL","scan_time":"2026-09-18T04:58:23Z","stale":false,"bins":25,"density_birds_km3":33.09375,"heading_deg":192.53408988871888,"speed_ms":10.695590652577359,"peak_altitude_m":0.0,"u_ms":-2.345559974245351,"v_ms":-10.38093038669848}},{"type":"Feature","geometry":{"type":"Point","coordinates":[-88.0847,41.6045]},"properties":{"site":"KLOT","name":"Chicago IL","scan_time":"2026-09-18T04:58:32Z","stale":false,"bins":25,"density_birds_km3":17.913333333333334,"heading_deg":195.343851067453,"speed_ms":10.326023411881339,"peak_altitude_m":400.0,"u_ms":-1.2913890795393885,"v_ms":-8.264889422710288}},{"type":"Feature","geometry":{"type":"Point","coordinates":[-78.4292,33.9892]},"properties":{"site":"KLTX","name":"Wilmington NC","scan_time":"2026-09-18T05:01:39Z","stale":false,"bins":25,"density_birds_km3":5.26125,"heading_deg":105.83044280072293,"speed_ms":5.053491328106438,"peak_altitude_m":0.0,"u_ms":2.293966500356379,"v_ms":-0.9533452126395818}},{"type":"Feature","geometry":{"type":"Point","coordinates":[-77.4778,38.9753]},"properties":{"site":"KLWX","name":"Sterling VA","scan_time":"2026-09-18T04:59:31Z","stale":false,"bins":25,"density_birds_km3":15.9875,"heading_deg":151.2047669353974,"speed_ms":7.389912822517592,"peak_altitude_m":0.0,"u_ms":2.964883893666927,"v_ms":-6.665036356528537}},{"type":"Feature","geometry":{"type":"Point","coordinates":[-76.8762,34.7759]},"properties":{"site":"KMHX","name":"Morehead City NC","scan_time":"2026-09-18T04:58:52Z","stale":false,"bins":25,"density_birds_km3":3.100625,"heading_deg":77.08924709252545,"speed_ms":5.444235887096775,"peak_altitude_m":0.0,"u_ms":3.705086693548387,"v_ms":1.1705342741935485}},{"type":"Feature","geometry":{"type":"Point","coordinates":[-80.6542,28.1133]},"properties":{"site":"KMLB","name":"Melbourne FL","scan_time":"2026-09-18T04:58:29Z","stale":false,"bins":25,"density_birds_km3":8.1825,"heading_deg":179.6673131283236,"speed_ms":7.5868159584225,"peak_altitude_m":0.0,"u_ms":0.07357688780189543,"v_ms":-7.55465224701926}},{"type":"Feature","geometry":{"type":"Point","coordinates":[-86.5625,36.2472]},"properties":{"site":"KOHX","name":"Nashville TN","scan_time":"2026-09-18T04:57:46Z","stale":false,"bins":25,"density_birds_km3":82.38866666666667,"heading_deg":108.22653905195196,"speed_ms":2.9256940679543306,"peak_altitude_m":400.0,"u_ms":0.8686157481206962,"v_ms":-1.8355832922003836}},{"type":"Feature","geometry":{"type":"Point","coordinates":[-72.8639,40.8655]},"properties":{"site":"KOKX","name":"Upton NY","scan_time":"2026-09-18T04:58:59Z","stale":false,"bins":25,"density_birds_km3":0.294375,"heading_deg":62.127571596344744,"speed_ms":10.214834437086092,"peak_altitude_m":200.0,"u_ms":8.730794701986754,"v_ms":4.67532008830022}},{"type":"Feature","geometry":{"type":"Point","coordinates":[-80.2183,40.5317]},"properties":{"site":"KPBZ","name":"Pittsburgh PA","scan_time":"2026-09-18T05:01:42Z","stale":false,"bins":25,"density_birds_km3":21.014285714285712,"heading_deg":167.555269332164,"speed_ms":8.659163154316792,"peak_altitude_m":600.0,"u_ms":1.955975866757308,"v_ms":-8.282979265805574}},{"type":"Feature","geometry":{"type":"Point","coordinates":[-78.4899,35.6655]},"properties":{"site":"KRAX","name":"Raleigh NC","scan_time":"2026-09-18T05:01:54Z","stale":false,"bins":25,"density_birds_km3":9.644375,"heading_deg":119.4846071546063,"speed_ms":8.62339209084307,"peak_altitude_m":200.0,"u_ms":5.485084835280913,"v_ms":-3.103896481151383}},{"type":"Feature","geometry":{"type":"Point","coordinates":[-82.4017,27.7055]},"properties":{"site":"KTBW","name":"Tampa FL","scan_time":"2026-09-18T04:57:27Z","stale":false,"bins":25,"density_birds_km3":12.90875,"heading_deg":188.94216786939324,"speed_ms":11.315622699980633,"peak_altitude_m":0.0,"u_ms":-1.8122641874878949,"v_ms":-11.078886790625607}}]}