{"type":"FeatureCollection","frame":"2026-09-28T02","site_count":20,"fresh_count":20,"failures":{},"features":[{"type":"Feature","geometry":{"type":"Point","coordinates":[-77.0073,36.984]},"properties":{"site":"KAKQ","name":"Wakefield VA","scan_time":"2026-09-28T02:00:25Z","stale":false,"bins":25,"density_birds_km3":6.1375,"heading_deg":153.12342484202574,"speed_ms":10.26724151981257,"peak_altitude_m":200.0,"u_ms":4.302790058062545,"v_ms":-9.285971274320056}},{"type":"Feature","geometry":{"type":"Point","coordinates":[-71.1369,41.9558]},"properties":{"site":"KBOX","name":"Boston MA","scan_time":"2026-09-28T01:59:51Z","stale":false,"bins":25,"density_birds_km3":0.012499999999999999,"heading_deg":303.4,"speed_ms":11.32,"peak_altitude_m":800.0,"u_ms":-9.46,"v_ms":6.23}},{"type":"Feature","geometry":{"type":"Point","coordinates":[-78.7369,42.9489]},"properties":{"site":"KBUF","name":"Buffalo NY","scan_time":"2026-09-28T02:01:04Z","stale":false,"bins":25,"density_birds_km3":3.1346666666666665,"heading_deg":215.19999999999996,"speed_ms":9.05,"peak_altitude_m":800.0,"u_ms":-5.22,"v_ms":-7.4}},{"type":"Feature","geometry":{"type":"Point","coordinates":[-81.8597,41.4131]},"properties":{"site":"KCLE","name":"Cleveland OH","scan_time":"2026-09-28T01:59:47Z","stale":false,"bins":25,"density_birds_km3":17.566666666666666,"heading_deg":190.34009265917658,"speed_ms":13.750392424759953,"peak_altitude_m":600.0,"u_ms":-2.4478879653876806,"v_ms":-13.466206687160803}},{"type":"Feature","geometry":{"type":"Point","coordinates":[-81.0423,32.6555]},"properties":{"site":"KCLX","name":"Charleston SC","scan_time":"2026-09-28T02:00:04Z","stale":false,"bins":25,"density_birds_km3":56.896875,"heading_deg":179.54198786888094,"speed_ms":4.111665073872686,"peak_altitude_m":0.0,"u_ms":0.9756877025319933,"v_ms":-2.5490532212885153}},{"type":"Feature","geometry":{"type":"Point","coordinates":[-74.4108,39.947]},"properties":{"site":"KDIX","name":"Philadelphia PA","scan_time":"2026-09-28T01:58:57Z","stale":false,"bins":25,"density_birds_km3":null,"heading_deg":null,"speed_ms":null,"peak_altitude_m":null,"u_ms":null,"v_ms":null}},{"type":"Feature","geometry":{"type":"Point","coordinates":[-84.5658,33.3636]},"properties":{"site":"KFFC","name":"Atlanta GA","scan_time":"2026-09-28T02:02:41Z","stale":false,"bins":25,"density_birds_km3":132.94866666666667,"heading_deg":170.43783670070405,"speed_ms":15.31857634274883,"peak_altitude_m":600.0,"u_ms":2.621089493187847,"v_ms":-15.059046800018052}},{"type":"Feature","geometry":{"type":"Point","coordinates":[-85.5449,42.8939]},"properties":{"site":"KGRR","name":"Grand Rapids MI","scan_time":"2026-09-28T01:57:38Z","stale":false,"bins":25,"density_birds_km3":138.33133333333333,"heading_deg":172.74800400252704,"speed_ms":12.943445351017125,"peak_altitude_m":400.0,"u_ms":1.6741989522740088,"v_ms":-12.717331816845546}},{"type":"Feature","geometry":{"type":"Point","coordinates":[-83.8217,39.4203]},"properties":{"site":"KILN","name":"Wilmington OH","scan_time":"2026-09-28T01:58:10Z","stale":false,"bins":25,"density_birds_km3":56.358,"heading_deg":181.64222160635524,"speed_ms":12.202443072264215,"peak_altitude_m":200.0,"u_ms":-0.3588972875782202,"v_ms":-12.024835988975243}},{"type":"Feature","geometry":{"type":"Point","coordinates":[-81.7019,30.4846]},"properties":{"site":"KJAX","name":"Jacksonville FL","scan_time":"2026-09-28T02:00:33Z","stale":false,"bins":25,"density_birds_km3":57.542500000000004,"heading_deg":122.79313928167264,"speed_ms":7.769265217013511,"peak_altitude_m":0.0,"u_ms":3.436931615762263,"v_ms":-4.675784420211148}},{"type":"Feature","geometry":{"type":"Point","coordinates":[-88.0847,41.6045]},"properties":{"site":"KLOT","name":"Chicago IL","scan_time":"2026-09-28T01:56:50Z","stale":false,"bins":25,"density_birds_km3":54.16866666666667,"heading_deg":157.42071823577018,"speed_ms":12.350035444845112,"peak_altitude_m":800.0,"u_ms":4.83786850947042,"v_ms":-11.265828830935472}},{"type":"Feature","geometry":{"type":"Point","coordinates":[-78.4292,33.9892]},"properties":{"site":"KLTX","name":"Wilmington NC","scan_time":"2026-09-28T02:02:14Z","stale":false,"bins":25,"density_birds_km3":23.765625,"heading_deg":108.89217810981135,"speed_ms":6.332959894806048,"peak_altitude_m":0.0,"u_ms":4.918211965811965,"v_ms":-2.1981861932938855}},{"type":"Feature","geometry":{"type":"Point","coordinates":[-77.4778,38.9753]},"properties":{"site":"KLWX","name":"Sterling VA","scan_time":"2026-09-28T02:01:11Z","stale":false,"bins":25,"density_birds_km3":3.18625,"heading_deg":158.86202797277215,"speed_ms":12.126427588917274,"peak_altitude_m":0.0,"u_ms":1.9822715661230104,"v_ms":-10.672686185891138}},{"type":"Feature","geometry":{"type":"Point","coordinates":[-76.8762,34.7759]},"properties":{"site":"KMHX","name":"Morehead City NC","scan_time":"2026-09-28T02:01:25Z","stale":false,"bins":25,"density_birds_km3":15.165625,"heading_deg":101.42365358349892,"speed_ms":10.527141856247939,"peak_altitude_m":0.0,"u_ms":9.71253626772173,"v_ms":-1.5727262611275965}},{"type":"Feature","geometry":{"type":"Point","coordinates":[-80.6542,28.1133]},"properties":{"site":"KMLB","name":"Melbourne FL","scan_time":"2026-09-28T01:59:46Z","stale":false,"bins":25,"density_birds_km3":23.058125,"heading_deg":166.04956520413492,"speed_ms":9.369555242176059,"peak_altitude_m":0.0,"u_ms":3.0057493084558224,"v_ms":-8.233019200520692}},{"type":"Feature","geometry":{"type":"Point","coordinates":[-86.5625,36.2472]},"properties":{"site":"KOHX","name":"Nashville TN","scan_time":"2026-09-28T01:59:28Z","stale":false,"bins":25,"density_birds_km3":93.81533333333333,"heading_deg":180.767480480629,"speed_ms":12.159153656474066,"peak_altitude_m":200.0,"u_ms":-0.23764807458624385,"v_ms":-12.079236869594878}},{"type":"Feature","geometry":{"type":"Point","coordinates":[-72.8639,40.8655]},"properties":{"site":"KOKX","name":"Upton NY","scan_time":"2026-09-28T01:56:55Z","stale":false,"bins":25,"density_birds_km3":0.06625,"heading_deg":null,"speed_ms":null,"peak_altitude_m":0.0,"u_ms":null,"v_ms":null}},{"type":"Feature","geometry":{"type":"Point","coordinates":[-80.2183,40.5317]},"properties":{"site":"KPBZ","name":"Pittsburgh PA","scan_time":"2026-09-28T01:58:35Z","stale":false,"bins":25,"density_birds_km3":19.36642857142857,"heading_deg":186.03973827134274,"speed_ms":13.066076210852483,"peak_altitude_m":600.0,"u_ms":-1.9958025010144231,"v_ms":-12.588048618539966}},{"type":"Feature","geometry":{"type":"Point","coordinates":[-78.4899,35.6655]},"properties":{"site":"KRAX","name":"Raleigh NC","scan_time":"2026-09-28T01:56:09Z","stale":false,"bins":25,"density_birds_km3":43.905,"heading_deg":156.57331148358435,"speed_ms":10.530971172325431,"peak_altitude_m":400.0,"u_ms":4.256015232400882,"v_ms":-9.390560466937147}},{"type":"Feature","geometry":{"type":"Point","coordinates":[-82.4017,27.7055]},"properties":{"site":"KTBW","name":"Tampa FL","scan_time":"2026-09-28T01:58:21Z","stale":false,"bins":25,"density_birds_km3":26.125625,"heading_deg":173.13976259313625,"speed_ms":10.454593670007895,"peak_altitude_m":1800.0,"u_ms":0.8083127197913926,"v_ms":-10.207825171646611}}]}