{"type":"FeatureCollection","frame":"2026-09-14T04","site_count":20,"fresh_count":20,"failures":{},"features":[{"type":"Feature","geometry":{"type":"Point","coordinates":[-77.0073,36.984]},"properties":{"site":"KAKQ","name":"Wakefield VA","scan_time":"2026-09-14T03:58:58Z","stale":false,"bins":25,"density_birds_km3":28.215,"heading_deg":153.25603514578017,"speed_ms":8.220994152046783,"peak_altitude_m":0.0,"u_ms":2.7053444533049795,"v_ms":-7.549683678894205}},{"type":"Feature","geometry":{"type":"Point","coordinates":[-71.1369,41.9558]},"properties":{"site":"KBOX","name":"Boston MA","scan_time":"2026-09-14T04:00:16Z","stale":false,"bins":25,"density_birds_km3":0.68625,"heading_deg":89.44068203378784,"speed_ms":9.27960966542751,"peak_altitude_m":0.0,"u_ms":9.183522304832714,"v_ms":-0.22648698884758364}},{"type":"Feature","geometry":{"type":"Point","coordinates":[-78.7369,42.9489]},"properties":{"site":"KBUF","name":"Buffalo NY","scan_time":"2026-09-14T04:00:57Z","stale":false,"bins":25,"density_birds_km3":90.70333333333333,"heading_deg":175.40835051441076,"speed_ms":12.8306902355665,"peak_altitude_m":400.0,"u_ms":0.9404469516004558,"v_ms":-12.757614420638712}},{"type":"Feature","geometry":{"type":"Point","coordinates":[-81.8597,41.4131]},"properties":{"site":"KCLE","name":"Cleveland OH","scan_time":"2026-09-14T04:00:35Z","stale":false,"bins":25,"density_birds_km3":58.62466666666667,"heading_deg":181.99255384429296,"speed_ms":14.602280216024063,"peak_altitude_m":400.0,"u_ms":-0.6091325995807126,"v_ms":-14.524054097165251}},{"type":"Feature","geometry":{"type":"Point","coordinates":[-81.0423,32.6555]},"properties":{"site":"KCLX","name":"Charleston SC","scan_time":"2026-09-14T04:00:04Z","stale":false,"bins":25,"density_birds_km3":40.6275,"heading_deg":159.49343701365657,"speed_ms":9.51180499361568,"peak_altitude_m":1800.0,"u_ms":1.000627663338615,"v_ms":-8.136418165315447}},{"type":"Feature","geometry":{"type":"Point","coordinates":[-74.4108,39.947]},"properties":{"site":"KDIX","name":"Philadelphia PA","scan_time":"2026-09-14T04:00:49Z","stale":false,"bins":25,"density_birds_km3":6.01375,"heading_deg":144.35725577361535,"speed_ms":7.756420702556642,"peak_altitude_m":0.0,"u_ms":3.8344252754105175,"v_ms":-6.200409478278944}},{"type":"Feature","geometry":{"type":"Point","coordinates":[-84.5658,33.3636]},"properties":{"site":"KFFC","name":"Atlanta GA","scan_time":"2026-09-14T03:57:04Z","stale":false,"bins":25,"density_birds_km3":233.26133333333334,"heading_deg":183.86218318316133,"speed_ms":11.075341705440536,"peak_altitude_m":1200.0,"u_ms":-1.0753103814891452,"v_ms":-10.851271992500545}},{"type":"Feature","geometry":{"type":"Point","coordinates":[-85.5449,42.8939]},"properties":{"site":"KGRR","name":"Grand Rapids MI","scan_time":"2026-09-14T03:58:55Z","stale":false,"bins":25,"density_birds_km3":64.578,"heading_deg":190.35674006196493,"speed_ms":10.897918567918568,"peak_altitude_m":400.0,"u_ms":-1.4231712881712884,"v_ms":-10.595685070096835}},{"type":"Feature","geometry":{"type":"Point","coordinates":[-83.8217,39.4203]},"properties":{"site":"KILN","name":"Wilmington OH","scan_time":"2026-09-14T04:03:24Z","stale":false,"bins":25,"density_birds_km3":101.01133333333334,"heading_deg":170.31275200861276,"speed_ms":15.510595906729936,"peak_altitude_m":600.0,"u_ms":2.205897292053037,"v_ms":-14.828750041249496}},{"type":"Feature","geometry":{"type":"Point","coordinates":[-81.7019,30.4846]},"properties":{"site":"KJAX","name":"Jacksonville FL","scan_time":"2026-09-14T04:00:39Z","stale":false,"bins":25,"density_birds_km3":37.990625,"heading_deg":156.84043260897883,"speed_ms":10.029420416221107,"peak_altitude_m":1800.0,"u_ms":2.316701488854158,"v_ms":-8.890003783828245}},{"type":"Feature","geometry":{"type":"Point","coordinates":[-88.0847,41.6045]},"properties":{"site":"KLOT","name":"Chicago IL","scan_time":"2026-09-14T03:58:29Z","stale":false,"bins":25,"density_birds_km3":64.964,"heading_deg":175.98779876792582,"speed_ms":12.507037664377444,"peak_altitude_m":400.0,"u_ms":0.8136284684795664,"v_ms":-12.325673267428373}},{"type":"Feature","geometry":{"type":"Point","coordinates":[-78.4292,33.9892]},"properties":{"site":"KLTX","name":"Wilmington NC","scan_time":"2026-09-14T03:59:37Z","stale":false,"bins":25,"density_birds_km3":26.639375,"heading_deg":165.97134561252892,"speed_ms":9.899909737933635,"peak_altitude_m":1800.0,"u_ms":0.9066574754901962,"v_ms":-7.42090097096531}},{"type":"Feature","geometry":{"type":"Point","coordinates":[-77.4778,38.9753]},"properties":{"site":"KLWX","name":"Sterling VA","scan_time":"2026-09-14T04:00:18Z","stale":false,"bins":25,"density_birds_km3":56.9825,"heading_deg":165.13659308904442,"speed_ms":7.122360512195925,"peak_altitude_m":400.0,"u_ms":1.5977485543741838,"v_ms":-6.686950744483579}},{"type":"Feature","geometry":{"type":"Point","coordinates":[-76.8762,34.7759]},"properties":{"site":"KMHX","name":"Morehead City NC","scan_time":"2026-09-14T03:59:47Z","stale":false,"bins":25,"density_birds_km3":25.556874999999998,"heading_deg":140.14286187262425,"speed_ms":8.281353142577647,"peak_altitude_m":0.0,"u_ms":3.5751636096845196,"v_ms":-5.655497432134997}},{"type":"Feature","geometry":{"type":"Point","coordinates":[-80.6542,28.1133]},"properties":{"site":"KMLB","name":"Melbourne FL","scan_time":"2026-09-14T04:00:34Z","stale":false,"bins":25,"density_birds_km3":8.6375,"heading_deg":131.77058441968654,"speed_ms":4.1428037653874,"peak_altitude_m":200.0,"u_ms":2.5158298334540192,"v_ms":-2.9377805937726285}},{"type":"Feature","geometry":{"type":"Point","coordinates":[-86.5625,36.2472]},"properties":{"site":"KOHX","name":"Nashville TN","scan_time":"2026-09-14T03:57:32Z","stale":false,"bins":25,"density_birds_km3":211.112,"heading_deg":179.03730219563496,"speed_ms":5.885759407328811,"peak_altitude_m":600.0,"u_ms":-0.009011772582010198,"v_ms":-5.80204542296664}},{"type":"Feature","geometry":{"type":"Point","coordinates":[-72.8639,40.8655]},"properties":{"site":"KOKX","name":"Upton NY","scan_time":"2026-09-14T04:03:15Z","stale":false,"bins":25,"density_birds_km3":1.91125,"heading_deg":78.37392833134017,"speed_ms":7.818069872016603,"peak_altitude_m":0.0,"u_ms":7.08251124178485,"v_ms":1.3751124178484952}},{"type":"Feature","geometry":{"type":"Point","coordinates":[-80.2183,40.5317]},"properties":{"site":"KPBZ","name":"Pittsburgh PA","scan_time":"2026-09-14T04:00:45Z","stale":false,"bins":25,"density_birds_km3":45.58357142857143,"heading_deg":162.76253295794,"speed_ms":10.696924909113703,"peak_altitude_m":600.0,"u_ms":2.6463231791400275,"v_ms":-9.83623229284192}},{"type":"Feature","geometry":{"type":"Point","coordinates":[-78.4899,35.6655]},"properties":{"site":"KRAX","name":"Raleigh NC","scan_time":"2026-09-14T04:03:42Z","stale":false,"bins":25,"density_birds_km3":42.601875,"heading_deg":151.16577432590705,"speed_ms":8.903395537168258,"peak_altitude_m":1600.0,"u_ms":3.120573331572847,"v_ms":-6.676154218564324}},{"type":"Feature","geometry":{"type":"Point","coordinates":[-82.4017,27.7055]},"properties":{"site":"KTBW","name":"Tampa FL","scan_time":"2026-09-14T03:57:34Z","stale":false,"bins":25,"density_birds_km3":16.9225,"heading_deg":171.99158201731785,"speed_ms":5.872677107187707,"peak_altitude_m":0.0,"u_ms":-0.5081997488365221,"v_ms":-4.5455026963138065}}]}