{"type":"FeatureCollection","frame":"2026-08-12T07","site_count":20,"fresh_count":20,"failures":{},"features":[{"type":"Feature","geometry":{"type":"Point","coordinates":[-77.0073,36.984]},"properties":{"site":"KAKQ","name":"Wakefield VA","scan_time":"2026-08-12T06:59:58Z","stale":false,"bins":25,"density_birds_km3":3.3825,"heading_deg":147.49037804136702,"speed_ms":9.237075785582254,"peak_altitude_m":600.0,"u_ms":4.89137707948244,"v_ms":-7.512327171903881}},{"type":"Feature","geometry":{"type":"Point","coordinates":[-71.1369,41.9558]},"properties":{"site":"KBOX","name":"Boston MA","scan_time":"2026-08-12T07:01:08Z","stale":false,"bins":25,"density_birds_km3":0.904375,"heading_deg":136.00198980712,"speed_ms":7.4067704011065,"peak_altitude_m":0.0,"u_ms":5.12872060857538,"v_ms":-5.281376210235131}},{"type":"Feature","geometry":{"type":"Point","coordinates":[-78.7369,42.9489]},"properties":{"site":"KBUF","name":"Buffalo NY","scan_time":"2026-08-12T07:03:46Z","stale":false,"bins":25,"density_birds_km3":3.3840000000000003,"heading_deg":204.68207466445295,"speed_ms":5.010104412923561,"peak_altitude_m":600.0,"u_ms":-2.6634889676910953,"v_ms":-3.491579984239559}},{"type":"Feature","geometry":{"type":"Point","coordinates":[-81.8597,41.4131]},"properties":{"site":"KCLE","name":"Cleveland OH","scan_time":"2026-08-12T06:59:06Z","stale":false,"bins":25,"density_birds_km3":1.8626666666666667,"heading_deg":84.84227608259474,"speed_ms":6.076967951026287,"peak_altitude_m":200.0,"u_ms":2.76849477853799,"v_ms":0.30638098667626923}},{"type":"Feature","geometry":{"type":"Point","coordinates":[-81.0423,32.6555]},"properties":{"site":"KCLX","name":"Charleston SC","scan_time":"2026-08-12T06:59:22Z","stale":false,"bins":25,"density_birds_km3":4.213125,"heading_deg":135.58673065539276,"speed_ms":9.451147224695756,"peak_altitude_m":0.0,"u_ms":6.486050756901158,"v_ms":-6.82095428910656}},{"type":"Feature","geometry":{"type":"Point","coordinates":[-74.4108,39.947]},"properties":{"site":"KDIX","name":"Philadelphia PA","scan_time":"2026-08-12T06:57:53Z","stale":false,"bins":25,"density_birds_km3":3.6786666666666665,"heading_deg":192.60949356222554,"speed_ms":8.122299416484319,"peak_altitude_m":400.0,"u_ms":-1.862153537563822,"v_ms":-7.820366520787746}},{"type":"Feature","geometry":{"type":"Point","coordinates":[-84.5658,33.3636]},"properties":{"site":"KFFC","name":"Atlanta GA","scan_time":"2026-08-12T07:00:14Z","stale":false,"bins":25,"density_birds_km3":2.728,"heading_deg":120.46756149407756,"speed_ms":6.348792766373411,"peak_altitude_m":200.0,"u_ms":5.395388563049853,"v_ms":-3.0291788856304986}},{"type":"Feature","geometry":{"type":"Point","coordinates":[-85.5449,42.8939]},"properties":{"site":"KGRR","name":"Grand Rapids MI","scan_time":"2026-08-12T06:57:29Z","stale":false,"bins":25,"density_birds_km3":1.6280000000000001,"heading_deg":284.25321277974723,"speed_ms":2.2769287469287467,"peak_altitude_m":400.0,"u_ms":-0.1254709254709253,"v_ms":0.07928337428337434}},{"type":"Feature","geometry":{"type":"Point","coordinates":[-83.8217,39.4203]},"properties":{"site":"KILN","name":"Wilmington OH","scan_time":"2026-08-12T07:00:58Z","stale":false,"bins":25,"density_birds_km3":4.145333333333333,"heading_deg":96.24343771918227,"speed_ms":4.721331617883564,"peak_altitude_m":200.0,"u_ms":2.9670199421035703,"v_ms":-1.2826825345770343}},{"type":"Feature","geometry":{"type":"Point","coordinates":[-81.7019,30.4846]},"properties":{"site":"KJAX","name":"Jacksonville FL","scan_time":"2026-08-12T06:59:35Z","stale":false,"bins":25,"density_birds_km3":11.143125,"heading_deg":119.55565936826646,"speed_ms":6.794726772826212,"peak_altitude_m":200.0,"u_ms":4.8396706381028745,"v_ms":-3.796102646351243}},{"type":"Feature","geometry":{"type":"Point","coordinates":[-88.0847,41.6045]},"properties":{"site":"KLOT","name":"Chicago IL","scan_time":"2026-08-12T07:00:20Z","stale":false,"bins":25,"density_birds_km3":1.91,"heading_deg":57.40447594005974,"speed_ms":7.601392670157068,"peak_altitude_m":200.0,"u_ms":5.816593368237347,"v_ms":2.578439790575916}},{"type":"Feature","geometry":{"type":"Point","coordinates":[-78.4292,33.9892]},"properties":{"site":"KLTX","name":"Wilmington NC","scan_time":"2026-08-12T07:01:13Z","stale":false,"bins":25,"density_birds_km3":9.046875,"heading_deg":172.9056218393991,"speed_ms":6.37646514198853,"peak_altitude_m":0.0,"u_ms":0.8169412008567677,"v_ms":-5.898663027706763}},{"type":"Feature","geometry":{"type":"Point","coordinates":[-77.4778,38.9753]},"properties":{"site":"KLWX","name":"Sterling VA","scan_time":"2026-08-12T06:59:53Z","stale":false,"bins":25,"density_birds_km3":3.23875,"heading_deg":163.37979862267645,"speed_ms":7.519249329758713,"peak_altitude_m":0.0,"u_ms":2.109528596961573,"v_ms":-7.165790884718499}},{"type":"Feature","geometry":{"type":"Point","coordinates":[-76.8762,34.7759]},"properties":{"site":"KMHX","name":"Morehead City NC","scan_time":"2026-08-12T06:58:39Z","stale":false,"bins":25,"density_birds_km3":5.725,"heading_deg":154.9132687294418,"speed_ms":5.780493557545316,"peak_altitude_m":0.0,"u_ms":2.532065953264905,"v_ms":-5.062724393972483}},{"type":"Feature","geometry":{"type":"Point","coordinates":[-80.6542,28.1133]},"properties":{"site":"KMLB","name":"Melbourne FL","scan_time":"2026-08-12T06:58:31Z","stale":false,"bins":25,"density_birds_km3":3.339375,"heading_deg":51.9469084588193,"speed_ms":5.617699512926189,"peak_altitude_m":0.0,"u_ms":3.4041569876358184,"v_ms":2.5839321843387038}},{"type":"Feature","geometry":{"type":"Point","coordinates":[-86.5625,36.2472]},"properties":{"site":"KOHX","name":"Nashville TN","scan_time":"2026-08-12T07:01:27Z","stale":false,"bins":25,"density_birds_km3":9.720666666666666,"heading_deg":18.917973086004533,"speed_ms":7.527499485631988,"peak_altitude_m":400.0,"u_ms":2.1744057334887867,"v_ms":5.358511076057883}},{"type":"Feature","geometry":{"type":"Point","coordinates":[-72.8639,40.8655]},"properties":{"site":"KOKX","name":"Upton NY","scan_time":"2026-08-12T06:59:06Z","stale":false,"bins":25,"density_birds_km3":1.9,"heading_deg":180.8956532360646,"speed_ms":7.945280343007916,"peak_altitude_m":0.0,"u_ms":-0.26601912928759897,"v_ms":-7.737895778364116}},{"type":"Feature","geometry":{"type":"Point","coordinates":[-80.2183,40.5317]},"properties":{"site":"KPBZ","name":"Pittsburgh PA","scan_time":"2026-08-12T06:58:42Z","stale":false,"bins":25,"density_birds_km3":3.119285714285714,"heading_deg":180.68676757452906,"speed_ms":5.718202427295626,"peak_altitude_m":1000.0,"u_ms":-0.23042592168536752,"v_ms":-5.238855049232883}},{"type":"Feature","geometry":{"type":"Point","coordinates":[-78.4899,35.6655]},"properties":{"site":"KRAX","name":"Raleigh NC","scan_time":"2026-08-12T07:04:16Z","stale":false,"bins":25,"density_birds_km3":3.8775000000000004,"heading_deg":176.35565159705314,"speed_ms":3.3422779300338545,"peak_altitude_m":0.0,"u_ms":1.6721940996292117,"v_ms":-2.2122215057230377}},{"type":"Feature","geometry":{"type":"Point","coordinates":[-82.4017,27.7055]},"properties":{"site":"KTBW","name":"Tampa FL","scan_time":"2026-08-12T06:59:42Z","stale":false,"bins":25,"density_birds_km3":5.104375,"heading_deg":215.1964664225362,"speed_ms":5.257958358848744,"peak_altitude_m":0.0,"u_ms":-2.131577464788732,"v_ms":-4.484587875076546}}]}