{"type":"FeatureCollection","frame":"2026-09-12T11","site_count":20,"fresh_count":20,"failures":{},"features":[{"type":"Feature","geometry":{"type":"Point","coordinates":[-77.0073,36.984]},"properties":{"site":"KAKQ","name":"Wakefield VA","scan_time":"2026-09-12T11:03:41Z","stale":false,"bins":25,"density_birds_km3":0.574375,"heading_deg":241.37332777324386,"speed_ms":7.306964091403701,"peak_altitude_m":0.0,"u_ms":-6.317584330794342,"v_ms":-3.338977149075082}},{"type":"Feature","geometry":{"type":"Point","coordinates":[-71.1369,41.9558]},"properties":{"site":"KBOX","name":"Boston MA","scan_time":"2026-09-12T10:59:27Z","stale":false,"bins":25,"density_birds_km3":2.4375,"heading_deg":244.30959799072778,"speed_ms":5.158128205128205,"peak_altitude_m":0.0,"u_ms":-4.382423076923077,"v_ms":-2.048020512820513}},{"type":"Feature","geometry":{"type":"Point","coordinates":[-78.7369,42.9489]},"properties":{"site":"KBUF","name":"Buffalo NY","scan_time":"2026-09-12T11:00:43Z","stale":false,"bins":25,"density_birds_km3":0.998,"heading_deg":31.79694449434006,"speed_ms":5.010861723446893,"peak_altitude_m":200.0,"u_ms":2.214502338009352,"v_ms":4.0933533734134935}},{"type":"Feature","geometry":{"type":"Point","coordinates":[-81.8597,41.4131]},"properties":{"site":"KCLE","name":"Cleveland OH","scan_time":"2026-09-12T10:59:36Z","stale":false,"bins":25,"density_birds_km3":1.5006666666666668,"heading_deg":353.6178735544406,"speed_ms":6.679603916332887,"peak_altitude_m":200.0,"u_ms":-0.7861593235425013,"v_ms":6.527365376056965}},{"type":"Feature","geometry":{"type":"Point","coordinates":[-81.0423,32.6555]},"properties":{"site":"KCLX","name":"Charleston SC","scan_time":"2026-09-12T11:01:51Z","stale":false,"bins":25,"density_birds_km3":5.4375,"heading_deg":74.5774689276578,"speed_ms":4.280633551799471,"peak_altitude_m":0.0,"u_ms":4.117969414740715,"v_ms":1.1359997700356446}},{"type":"Feature","geometry":{"type":"Point","coordinates":[-74.4108,39.947]},"properties":{"site":"KDIX","name":"Philadelphia PA","scan_time":"2026-09-12T10:58:49Z","stale":false,"bins":25,"density_birds_km3":4.746875,"heading_deg":266.53232581328723,"speed_ms":4.817765326301912,"peak_altitude_m":200.0,"u_ms":-4.7569716545814105,"v_ms":-0.31079103493737636}},{"type":"Feature","geometry":{"type":"Point","coordinates":[-84.5658,33.3636]},"properties":{"site":"KFFC","name":"Atlanta GA","scan_time":"2026-09-12T11:00:49Z","stale":false,"bins":25,"density_birds_km3":0.36466666666666664,"heading_deg":8.852366058372846,"speed_ms":4.2831423290203325,"peak_altitude_m":200.0,"u_ms":0.6779482439926062,"v_ms":4.153031423290203}},{"type":"Feature","geometry":{"type":"Point","coordinates":[-85.5449,42.8939]},"properties":{"site":"KGRR","name":"Grand Rapids MI","scan_time":"2026-09-12T10:56:09Z","stale":false,"bins":25,"density_birds_km3":0.10133333333333333,"heading_deg":18.93043360123866,"speed_ms":8.684026845637584,"peak_altitude_m":200.0,"u_ms":2.950671140939597,"v_ms":7.856241610738255}},{"type":"Feature","geometry":{"type":"Point","coordinates":[-83.8217,39.4203]},"properties":{"site":"KILN","name":"Wilmington OH","scan_time":"2026-09-12T11:00:19Z","stale":false,"bins":25,"density_birds_km3":0.646,"heading_deg":52.207058825127724,"speed_ms":5.436703910614526,"peak_altitude_m":200.0,"u_ms":2.0329162011173185,"v_ms":4.56872625698324}},{"type":"Feature","geometry":{"type":"Point","coordinates":[-81.7019,30.4846]},"properties":{"site":"KJAX","name":"Jacksonville FL","scan_time":"2026-09-12T10:59:03Z","stale":false,"bins":25,"density_birds_km3":2.060625,"heading_deg":349.8990057328187,"speed_ms":2.437209584470731,"peak_altitude_m":200.0,"u_ms":-0.2450682438580528,"v_ms":1.3101425538368212}},{"type":"Feature","geometry":{"type":"Point","coordinates":[-88.0847,41.6045]},"properties":{"site":"KLOT","name":"Chicago IL","scan_time":"2026-09-12T10:57:50Z","stale":false,"bins":25,"density_birds_km3":0.2753333333333333,"heading_deg":44.75564954852099,"speed_ms":7.755111662531017,"peak_altitude_m":200.0,"u_ms":5.425583126550869,"v_ms":5.268138957816377}},{"type":"Feature","geometry":{"type":"Point","coordinates":[-78.4292,33.9892]},"properties":{"site":"KLTX","name":"Wilmington NC","scan_time":"2026-09-12T11:00:52Z","stale":false,"bins":25,"density_birds_km3":5.466875,"heading_deg":118.7579537287143,"speed_ms":5.652007774982849,"peak_altitude_m":0.0,"u_ms":4.692558884061285,"v_ms":-1.993576492110679}},{"type":"Feature","geometry":{"type":"Point","coordinates":[-77.4778,38.9753]},"properties":{"site":"KLWX","name":"Sterling VA","scan_time":"2026-09-12T11:00:54Z","stale":false,"bins":25,"density_birds_km3":6.413749999999999,"heading_deg":274.79555907663155,"speed_ms":6.9124264275969605,"peak_altitude_m":0.0,"u_ms":-6.6834954199961025,"v_ms":0.6070512570648997}},{"type":"Feature","geometry":{"type":"Point","coordinates":[-76.8762,34.7759]},"properties":{"site":"KMHX","name":"Morehead City NC","scan_time":"2026-09-12T11:01:07Z","stale":false,"bins":25,"density_birds_km3":2.97125,"heading_deg":126.97031589562745,"speed_ms":4.256146403029028,"peak_altitude_m":0.0,"u_ms":3.328771560790913,"v_ms":-2.0648296171644933}},{"type":"Feature","geometry":{"type":"Point","coordinates":[-80.6542,28.1133]},"properties":{"site":"KMLB","name":"Melbourne FL","scan_time":"2026-09-12T11:02:15Z","stale":false,"bins":25,"density_birds_km3":3.09375,"heading_deg":345.9640859621011,"speed_ms":4.774795959595959,"peak_altitude_m":200.0,"u_ms":-1.121468686868687,"v_ms":4.631503030303031}},{"type":"Feature","geometry":{"type":"Point","coordinates":[-86.5625,36.2472]},"properties":{"site":"KOHX","name":"Nashville TN","scan_time":"2026-09-12T11:00:28Z","stale":false,"bins":25,"density_birds_km3":7.470666666666667,"heading_deg":49.64958087437784,"speed_ms":5.748927422238112,"peak_altitude_m":400.0,"u_ms":4.3753664640686445,"v_ms":3.28375580979621}},{"type":"Feature","geometry":{"type":"Point","coordinates":[-72.8639,40.8655]},"properties":{"site":"KOKX","name":"Upton NY","scan_time":"2026-09-12T10:56:30Z","stale":false,"bins":25,"density_birds_km3":9.1725,"heading_deg":280.7236192170384,"speed_ms":5.3918371379897785,"peak_altitude_m":200.0,"u_ms":-5.230590119250425,"v_ms":1.0126112436115842}},{"type":"Feature","geometry":{"type":"Point","coordinates":[-80.2183,40.5317]},"properties":{"site":"KPBZ","name":"Pittsburgh PA","scan_time":"2026-09-12T11:00:37Z","stale":false,"bins":25,"density_birds_km3":0.6414285714285715,"heading_deg":330.0510715531412,"speed_ms":6.568819599109131,"peak_altitude_m":400.0,"u_ms":-3.1098997772828505,"v_ms":5.133708240534521}},{"type":"Feature","geometry":{"type":"Point","coordinates":[-78.4899,35.6655]},"properties":{"site":"KRAX","name":"Raleigh NC","scan_time":"2026-09-12T11:02:41Z","stale":false,"bins":25,"density_birds_km3":12.42375,"heading_deg":145.2898034208013,"speed_ms":3.892692572214581,"peak_altitude_m":0.0,"u_ms":2.0668729940394317,"v_ms":-2.8725}},{"type":"Feature","geometry":{"type":"Point","coordinates":[-82.4017,27.7055]},"properties":{"site":"KTBW","name":"Tampa FL","scan_time":"2026-09-12T11:00:07Z","stale":false,"bins":25,"density_birds_km3":0.891875,"heading_deg":347.5733853368893,"speed_ms":7.32877808988764,"peak_altitude_m":0.0,"u_ms":-1.5854073033707863,"v_ms":7.1359550561797755}}]}