{"type":"FeatureCollection","frame":"2026-10-09T09","site_count":20,"fresh_count":20,"failures":{},"features":[{"type":"Feature","geometry":{"type":"Point","coordinates":[-77.0073,36.984]},"properties":{"site":"KAKQ","name":"Wakefield VA","scan_time":"2026-10-09T08:58:04Z","stale":false,"bins":25,"density_birds_km3":10.81,"heading_deg":194.69469020655947,"speed_ms":10.962011218412073,"peak_altitude_m":200.0,"u_ms":-2.707086682472677,"v_ms":-10.574322558260567}},{"type":"Feature","geometry":{"type":"Point","coordinates":[-71.1369,41.9558]},"properties":{"site":"KBOX","name":"Boston MA","scan_time":"2026-10-09T09:03:08Z","stale":false,"bins":25,"density_birds_km3":0.99,"heading_deg":104.83325321239728,"speed_ms":8.92822488945041,"peak_altitude_m":0.0,"u_ms":8.529848389134553,"v_ms":-2.348629185091598}},{"type":"Feature","geometry":{"type":"Point","coordinates":[-78.7369,42.9489]},"properties":{"site":"KBUF","name":"Buffalo NY","scan_time":"2026-10-09T08:57:30Z","stale":false,"bins":25,"density_birds_km3":1.846,"heading_deg":161.60233687607186,"speed_ms":8.184835680751174,"peak_altitude_m":200.0,"u_ms":2.557049476345251,"v_ms":-7.670913687251715}},{"type":"Feature","geometry":{"type":"Point","coordinates":[-81.8597,41.4131]},"properties":{"site":"KCLE","name":"Cleveland OH","scan_time":"2026-10-09T08:59:13Z","stale":false,"bins":25,"density_birds_km3":5.344666666666667,"heading_deg":189.19268838940025,"speed_ms":7.783505051764999,"peak_altitude_m":200.0,"u_ms":-1.2288561806161906,"v_ms":-7.655165273793189}},{"type":"Feature","geometry":{"type":"Point","coordinates":[-81.0423,32.6555]},"properties":{"site":"KCLX","name":"Charleston SC","scan_time":"2026-10-09T09:01:48Z","stale":false,"bins":25,"density_birds_km3":30.714375,"heading_deg":203.79589924703717,"speed_ms":11.179539507152596,"peak_altitude_m":0.0,"u_ms":-4.4730730724619985,"v_ms":-10.196807480210813}},{"type":"Feature","geometry":{"type":"Point","coordinates":[-74.4108,39.947]},"properties":{"site":"KDIX","name":"Philadelphia PA","scan_time":"2026-10-09T08:58:53Z","stale":false,"bins":25,"density_birds_km3":12.653749999999999,"heading_deg":204.8983994682513,"speed_ms":7.893652307084281,"peak_altitude_m":0.0,"u_ms":-3.2404278233376154,"v_ms":-7.045472779369627}},{"type":"Feature","geometry":{"type":"Point","coordinates":[-84.5658,33.3636]},"properties":{"site":"KFFC","name":"Atlanta GA","scan_time":"2026-10-09T09:03:13Z","stale":false,"bins":25,"density_birds_km3":75.558,"heading_deg":226.42418570400292,"speed_ms":9.986251003644,"peak_altitude_m":200.0,"u_ms":-7.253227895568084,"v_ms":-6.600418662925611}},{"type":"Feature","geometry":{"type":"Point","coordinates":[-85.5449,42.8939]},"properties":{"site":"KGRR","name":"Grand Rapids MI","scan_time":"2026-10-09T08:59:16Z","stale":false,"bins":25,"density_birds_km3":0.7793333333333333,"heading_deg":63.207589086775485,"speed_ms":5.826817792985458,"peak_altitude_m":200.0,"u_ms":4.498768177929855,"v_ms":2.0548588537211288}},{"type":"Feature","geometry":{"type":"Point","coordinates":[-83.8217,39.4203]},"properties":{"site":"KILN","name":"Wilmington OH","scan_time":"2026-10-09T08:57:31Z","stale":false,"bins":25,"density_birds_km3":23.365333333333332,"heading_deg":211.95980879144395,"speed_ms":8.84675635575085,"peak_altitude_m":400.0,"u_ms":-3.686196821411248,"v_ms":-6.934618084286815}},{"type":"Feature","geometry":{"type":"Point","coordinates":[-81.7019,30.4846]},"properties":{"site":"KJAX","name":"Jacksonville FL","scan_time":"2026-10-09T09:00:31Z","stale":false,"bins":25,"density_birds_km3":31.405625,"heading_deg":208.71875758922613,"speed_ms":5.756234898393806,"peak_altitude_m":0.0,"u_ms":-2.775327110244213,"v_ms":-4.913647672312561}},{"type":"Feature","geometry":{"type":"Point","coordinates":[-88.0847,41.6045]},"properties":{"site":"KLOT","name":"Chicago IL","scan_time":"2026-10-09T08:58:51Z","stale":false,"bins":25,"density_birds_km3":2.268666666666667,"heading_deg":305.79104122921035,"speed_ms":7.873062904174016,"peak_altitude_m":400.0,"u_ms":-4.948268665490888,"v_ms":4.144021164021164}},{"type":"Feature","geometry":{"type":"Point","coordinates":[-78.4292,33.9892]},"properties":{"site":"KLTX","name":"Wilmington NC","scan_time":"2026-10-09T08:59:06Z","stale":false,"bins":25,"density_birds_km3":22.176875,"heading_deg":189.63117979935652,"speed_ms":8.425328617327096,"peak_altitude_m":0.0,"u_ms":-1.4327506904909533,"v_ms":-8.241398173721887}},{"type":"Feature","geometry":{"type":"Point","coordinates":[-77.4778,38.9753]},"properties":{"site":"KLWX","name":"Sterling VA","scan_time":"2026-10-09T08:57:01Z","stale":false,"bins":25,"density_birds_km3":22.04125,"heading_deg":231.39512494493619,"speed_ms":5.217985878750071,"peak_altitude_m":400.0,"u_ms":-3.6304780808710935,"v_ms":-3.113968127941927}},{"type":"Feature","geometry":{"type":"Point","coordinates":[-76.8762,34.7759]},"properties":{"site":"KMHX","name":"Morehead City NC","scan_time":"2026-10-09T08:57:56Z","stale":false,"bins":25,"density_birds_km3":17.05,"heading_deg":168.95826690383657,"speed_ms":6.277053561608681,"peak_altitude_m":0.0,"u_ms":0.877994280895993,"v_ms":-6.005859148733364}},{"type":"Feature","geometry":{"type":"Point","coordinates":[-80.6542,28.1133]},"properties":{"site":"KMLB","name":"Melbourne FL","scan_time":"2026-10-09T09:00:54Z","stale":false,"bins":25,"density_birds_km3":2.05625,"heading_deg":301.85270343649313,"speed_ms":4.709085106382979,"peak_altitude_m":0.0,"u_ms":-3.8787902735562314,"v_ms":2.543878419452888}},{"type":"Feature","geometry":{"type":"Point","coordinates":[-86.5625,36.2472]},"properties":{"site":"KOHX","name":"Nashville TN","scan_time":"2026-10-09T09:00:19Z","stale":false,"bins":25,"density_birds_km3":18.307333333333336,"heading_deg":236.09275805532502,"speed_ms":10.244157896653435,"peak_altitude_m":200.0,"u_ms":-8.397538327082042,"v_ms":-5.589098357670879}},{"type":"Feature","geometry":{"type":"Point","coordinates":[-72.8639,40.8655]},"properties":{"site":"KOKX","name":"Upton NY","scan_time":"2026-10-09T09:02:30Z","stale":false,"bins":25,"density_birds_km3":2.6350000000000002,"heading_deg":122.14935663905204,"speed_ms":4.701532066508314,"peak_altitude_m":0.0,"u_ms":3.548308788598575,"v_ms":-2.6855534441805227}},{"type":"Feature","geometry":{"type":"Point","coordinates":[-80.2183,40.5317]},"properties":{"site":"KPBZ","name":"Pittsburgh PA","scan_time":"2026-10-09T08:56:56Z","stale":false,"bins":25,"density_birds_km3":4.267857142857143,"heading_deg":156.11782765222335,"speed_ms":7.842371548117154,"peak_altitude_m":400.0,"u_ms":2.9940853556485356,"v_ms":-7.128793305439331}},{"type":"Feature","geometry":{"type":"Point","coordinates":[-78.4899,35.6655]},"properties":{"site":"KRAX","name":"Raleigh NC","scan_time":"2026-10-09T08:59:58Z","stale":false,"bins":25,"density_birds_km3":30.625625,"heading_deg":193.1373880641295,"speed_ms":12.487119591836734,"peak_altitude_m":200.0,"u_ms":-2.915594693877551,"v_ms":-12.097055102040816}},{"type":"Feature","geometry":{"type":"Point","coordinates":[-82.4017,27.7055]},"properties":{"site":"KTBW","name":"Tampa FL","scan_time":"2026-10-09T08:59:16Z","stale":false,"bins":25,"density_birds_km3":14.710625,"heading_deg":219.2014330831259,"speed_ms":3.7954305986319414,"peak_altitude_m":0.0,"u_ms":-2.3819896333432466,"v_ms":-2.104581722394528}}]}