{"type":"FeatureCollection","frame":"2026-09-09T03","site_count":20,"fresh_count":20,"failures":{},"features":[{"type":"Feature","geometry":{"type":"Point","coordinates":[-77.0073,36.984]},"properties":{"site":"KAKQ","name":"Wakefield VA","scan_time":"2026-09-09T02:58:02Z","stale":false,"bins":25,"density_birds_km3":3.3425,"heading_deg":351.0985281729175,"speed_ms":7.863036717871863,"peak_altitude_m":0.0,"u_ms":-0.752150618209067,"v_ms":4.480771824653429}},{"type":"Feature","geometry":{"type":"Point","coordinates":[-71.1369,41.9558]},"properties":{"site":"KBOX","name":"Boston MA","scan_time":"2026-09-09T03:02:55Z","stale":false,"bins":25,"density_birds_km3":3.355625,"heading_deg":338.4760123684587,"speed_ms":4.253408582089552,"peak_altitude_m":200.0,"u_ms":-0.5211529850746269,"v_ms":1.104703358208955}},{"type":"Feature","geometry":{"type":"Point","coordinates":[-78.7369,42.9489]},"properties":{"site":"KBUF","name":"Buffalo NY","scan_time":"2026-09-09T03:01:21Z","stale":false,"bins":25,"density_birds_km3":4.624666666666667,"heading_deg":358.6476012482419,"speed_ms":4.577536399019749,"peak_altitude_m":200.0,"u_ms":0.4480654461582818,"v_ms":3.924870981692374}},{"type":"Feature","geometry":{"type":"Point","coordinates":[-81.8597,41.4131]},"properties":{"site":"KCLE","name":"Cleveland OH","scan_time":"2026-09-09T02:58:01Z","stale":false,"bins":25,"density_birds_km3":2.5786666666666664,"heading_deg":13.882577668638639,"speed_ms":9.87163391933816,"peak_altitude_m":200.0,"u_ms":2.2389245087900727,"v_ms":8.949891416752845}},{"type":"Feature","geometry":{"type":"Point","coordinates":[-81.0423,32.6555]},"properties":{"site":"KCLX","name":"Charleston SC","scan_time":"2026-09-09T02:58:37Z","stale":false,"bins":25,"density_birds_km3":4.87375,"heading_deg":238.09033177950454,"speed_ms":11.263808240277244,"peak_altitude_m":0.0,"u_ms":-9.469252984212554,"v_ms":-5.827026055705301}},{"type":"Feature","geometry":{"type":"Point","coordinates":[-74.4108,39.947]},"properties":{"site":"KDIX","name":"Philadelphia PA","scan_time":"2026-09-09T02:59:17Z","stale":false,"bins":25,"density_birds_km3":6.265,"heading_deg":105.49713033059864,"speed_ms":5.150288403765272,"peak_altitude_m":0.0,"u_ms":1.841688363709193,"v_ms":-0.41706288804326086}},{"type":"Feature","geometry":{"type":"Point","coordinates":[-84.5658,33.3636]},"properties":{"site":"KFFC","name":"Atlanta GA","scan_time":"2026-09-09T02:56:45Z","stale":false,"bins":25,"density_birds_km3":33.800666666666665,"heading_deg":263.76957815549696,"speed_ms":9.226234393798938,"peak_altitude_m":400.0,"u_ms":-8.688001025620796,"v_ms":-0.62374272696791}},{"type":"Feature","geometry":{"type":"Point","coordinates":[-85.5449,42.8939]},"properties":{"site":"KGRR","name":"Grand Rapids MI","scan_time":"2026-09-09T02:57:21Z","stale":false,"bins":25,"density_birds_km3":4.5807142857142855,"heading_deg":41.7,"speed_ms":8.4,"peak_altitude_m":200.0,"u_ms":5.59,"v_ms":6.2700000000000005}},{"type":"Feature","geometry":{"type":"Point","coordinates":[-83.8217,39.4203]},"properties":{"site":"KILN","name":"Wilmington OH","scan_time":"2026-09-09T03:03:23Z","stale":false,"bins":25,"density_birds_km3":5.230666666666666,"heading_deg":59.236202537155215,"speed_ms":10.635583736936018,"peak_altitude_m":200.0,"u_ms":8.140975019118022,"v_ms":4.0281009431557475}},{"type":"Feature","geometry":{"type":"Point","coordinates":[-81.7019,30.4846]},"properties":{"site":"KJAX","name":"Jacksonville FL","scan_time":"2026-09-09T02:58:07Z","stale":false,"bins":25,"density_birds_km3":36.32875,"heading_deg":191.46346103539017,"speed_ms":10.53129688252701,"peak_altitude_m":0.0,"u_ms":-2.1494714747780606,"v_ms":-10.213809097790929}},{"type":"Feature","geometry":{"type":"Point","coordinates":[-88.0847,41.6045]},"properties":{"site":"KLOT","name":"Chicago IL","scan_time":"2026-09-09T02:58:00Z","stale":false,"bins":25,"density_birds_km3":1.954,"heading_deg":38.219371416128226,"speed_ms":13.52549517340007,"peak_altitude_m":400.0,"u_ms":8.091826957454415,"v_ms":10.076303181980695}},{"type":"Feature","geometry":{"type":"Point","coordinates":[-78.4292,33.9892]},"properties":{"site":"KLTX","name":"Wilmington NC","scan_time":"2026-09-09T02:58:51Z","stale":false,"bins":25,"density_birds_km3":6.115,"heading_deg":234.93651981808563,"speed_ms":9.261195952161913,"peak_altitude_m":0.0,"u_ms":-7.049396913012368,"v_ms":-5.118889911070224}},{"type":"Feature","geometry":{"type":"Point","coordinates":[-77.4778,38.9753]},"properties":{"site":"KLWX","name":"Sterling VA","scan_time":"2026-09-09T02:58:14Z","stale":false,"bins":25,"density_birds_km3":5.730625,"heading_deg":26.263993503635902,"speed_ms":7.510113561190738,"peak_altitude_m":200.0,"u_ms":2.389016538037486,"v_ms":5.229019845644983}},{"type":"Feature","geometry":{"type":"Point","coordinates":[-76.8762,34.7759]},"properties":{"site":"KMHX","name":"Morehead City NC","scan_time":"2026-09-09T02:58:25Z","stale":false,"bins":25,"density_birds_km3":3.65375,"heading_deg":250.25264842009528,"speed_ms":4.984816082121472,"peak_altitude_m":0.0,"u_ms":-4.287409751924723,"v_ms":-2.073731394354149}},{"type":"Feature","geometry":{"type":"Point","coordinates":[-80.6542,28.1133]},"properties":{"site":"KMLB","name":"Melbourne FL","scan_time":"2026-09-09T03:01:21Z","stale":false,"bins":25,"density_birds_km3":14.68625,"heading_deg":190.5600977669538,"speed_ms":5.820714559305443,"peak_altitude_m":0.0,"u_ms":-0.9085585393880069,"v_ms":-5.6085810954589945}},{"type":"Feature","geometry":{"type":"Point","coordinates":[-86.5625,36.2472]},"properties":{"site":"KOHX","name":"Nashville TN","scan_time":"2026-09-09T02:58:05Z","stale":false,"bins":25,"density_birds_km3":10.294,"heading_deg":19.41308836747594,"speed_ms":9.634764587785765,"peak_altitude_m":400.0,"u_ms":3.0701327634220585,"v_ms":9.080472767307818}},{"type":"Feature","geometry":{"type":"Point","coordinates":[-72.8639,40.8655]},"properties":{"site":"KOKX","name":"Upton NY","scan_time":"2026-09-09T03:01:29Z","stale":false,"bins":25,"density_birds_km3":3.285625,"heading_deg":125.08672836783127,"speed_ms":5.88749476887959,"peak_altitude_m":0.0,"u_ms":-0.12306258322236999,"v_ms":-1.0611299220087502}},{"type":"Feature","geometry":{"type":"Point","coordinates":[-80.2183,40.5317]},"properties":{"site":"KPBZ","name":"Pittsburgh PA","scan_time":"2026-09-09T02:59:26Z","stale":false,"bins":25,"density_birds_km3":9.145714285714286,"heading_deg":29.449371194690233,"speed_ms":7.364954416850048,"peak_altitude_m":400.0,"u_ms":3.2342125117887455,"v_ms":6.157465419679347}},{"type":"Feature","geometry":{"type":"Point","coordinates":[-78.4899,35.6655]},"properties":{"site":"KRAX","name":"Raleigh NC","scan_time":"2026-09-09T02:58:40Z","stale":false,"bins":25,"density_birds_km3":10.20125,"heading_deg":278.37429492664694,"speed_ms":7.127111029276376,"peak_altitude_m":200.0,"u_ms":-3.9570195789602898,"v_ms":0.0001405511569387206}},{"type":"Feature","geometry":{"type":"Point","coordinates":[-82.4017,27.7055]},"properties":{"site":"KTBW","name":"Tampa FL","scan_time":"2026-09-09T02:59:38Z","stale":false,"bins":25,"density_birds_km3":19.874375,"heading_deg":205.81799160833046,"speed_ms":7.517114060190572,"peak_altitude_m":200.0,"u_ms":-3.2892575238215036,"v_ms":-6.720845938551526}}]}