{"type":"FeatureCollection","frame":"2026-09-08T05","site_count":20,"fresh_count":19,"failures":{"KOKX":"RuntimeError('no scan within 20 min of 2026-09-08T05:00Z')"},"features":[{"type":"Feature","geometry":{"type":"Point","coordinates":[-77.0073,36.984]},"properties":{"site":"KAKQ","name":"Wakefield VA","scan_time":"2026-09-08T04:57:54Z","stale":false,"bins":25,"density_birds_km3":6.5043750000000005,"heading_deg":226.02997850327822,"speed_ms":7.8182766243752395,"peak_altitude_m":1000.0,"u_ms":-3.083648596693579,"v_ms":-4.586908881199538}},{"type":"Feature","geometry":{"type":"Point","coordinates":[-71.1369,41.9558]},"properties":{"site":"KBOX","name":"Boston MA","scan_time":"2026-09-08T04:57:41Z","stale":false,"bins":25,"density_birds_km3":1.555625,"heading_deg":163.43099127280033,"speed_ms":8.672989939637826,"peak_altitude_m":0.0,"u_ms":1.9876378269617705,"v_ms":-7.728201207243461}},{"type":"Feature","geometry":{"type":"Point","coordinates":[-78.7369,42.9489]},"properties":{"site":"KBUF","name":"Buffalo NY","scan_time":"2026-09-08T05:01:44Z","stale":false,"bins":25,"density_birds_km3":10.666666666666666,"heading_deg":185.35769976150698,"speed_ms":7.545774999999999,"peak_altitude_m":800.0,"u_ms":-1.25327125,"v_ms":-7.20870375}},{"type":"Feature","geometry":{"type":"Point","coordinates":[-81.8597,41.4131]},"properties":{"site":"KCLE","name":"Cleveland OH","scan_time":"2026-09-08T04:56:27Z","stale":false,"bins":25,"density_birds_km3":7.517333333333334,"heading_deg":270.54361447551753,"speed_ms":8.765742793791574,"peak_altitude_m":400.0,"u_ms":-8.525074944567628,"v_ms":-0.06218359201773834}},{"type":"Feature","geometry":{"type":"Point","coordinates":[-81.0423,32.6555]},"properties":{"site":"KCLX","name":"Charleston SC","scan_time":"2026-09-08T05:00:00Z","stale":false,"bins":25,"density_birds_km3":11.9275,"heading_deg":229.36794331049964,"speed_ms":13.241188430098513,"peak_altitude_m":0.0,"u_ms":-10.002187172500523,"v_ms":-8.375506183190108}},{"type":"Feature","geometry":{"type":"Point","coordinates":[-74.4108,39.947]},"properties":{"site":"KDIX","name":"Philadelphia PA","scan_time":"2026-09-08T04:58:44Z","stale":false,"bins":25,"density_birds_km3":12.488125,"heading_deg":181.78526544090602,"speed_ms":7.412396276462639,"peak_altitude_m":1400.0,"u_ms":-1.5874355637855964,"v_ms":-5.825057804914669}},{"type":"Feature","geometry":{"type":"Point","coordinates":[-84.5658,33.3636]},"properties":{"site":"KFFC","name":"Atlanta GA","scan_time":"2026-09-08T04:58:25Z","stale":false,"bins":25,"density_birds_km3":24.290666666666667,"heading_deg":257.60141703732313,"speed_ms":10.594153858820945,"peak_altitude_m":400.0,"u_ms":-9.700022779668458,"v_ms":-1.5962273575584587}},{"type":"Feature","geometry":{"type":"Point","coordinates":[-85.5449,42.8939]},"properties":{"site":"KGRR","name":"Grand Rapids MI","scan_time":"2026-09-08T04:59:58Z","stale":false,"bins":25,"density_birds_km3":10.064666666666666,"heading_deg":16.954788208760235,"speed_ms":5.218196091421,"peak_altitude_m":200.0,"u_ms":0.9703954951970852,"v_ms":4.919533620404108}},{"type":"Feature","geometry":{"type":"Point","coordinates":[-83.8217,39.4203]},"properties":{"site":"KILN","name":"Wilmington OH","scan_time":"2026-09-08T04:57:01Z","stale":false,"bins":25,"density_birds_km3":7.11,"heading_deg":252.36403614455588,"speed_ms":8.210877637130801,"peak_altitude_m":200.0,"u_ms":-6.022003750586029,"v_ms":-1.2974721050164089}},{"type":"Feature","geometry":{"type":"Point","coordinates":[-81.7019,30.4846]},"properties":{"site":"KJAX","name":"Jacksonville FL","scan_time":"2026-09-08T04:57:55Z","stale":false,"bins":25,"density_birds_km3":70.63625,"heading_deg":191.6618648763709,"speed_ms":11.587247951581219,"peak_altitude_m":0.0,"u_ms":-2.344108075105739,"v_ms":-11.259103031482823}},{"type":"Feature","geometry":{"type":"Point","coordinates":[-88.0847,41.6045]},"properties":{"site":"KLOT","name":"Chicago IL","scan_time":"2026-09-08T04:57:13Z","stale":false,"bins":25,"density_birds_km3":4.778666666666667,"heading_deg":300.09455526698395,"speed_ms":8.954401506696428,"peak_altitude_m":200.0,"u_ms":-7.131393694196428,"v_ms":4.2416015625}},{"type":"Feature","geometry":{"type":"Point","coordinates":[-78.4292,33.9892]},"properties":{"site":"KLTX","name":"Wilmington NC","scan_time":"2026-09-08T04:59:29Z","stale":false,"bins":25,"density_birds_km3":17.076875,"heading_deg":219.13373286911448,"speed_ms":12.573041250320266,"peak_altitude_m":0.0,"u_ms":-7.977115039713042,"v_ms":-9.510555616558692}},{"type":"Feature","geometry":{"type":"Point","coordinates":[-77.4778,38.9753]},"properties":{"site":"KLWX","name":"Sterling VA","scan_time":"2026-09-08T05:01:44Z","stale":false,"bins":25,"density_birds_km3":20.219375,"heading_deg":238.18065514404748,"speed_ms":5.619779818783437,"peak_altitude_m":200.0,"u_ms":-4.523793487336488,"v_ms":-2.546344125923864}},{"type":"Feature","geometry":{"type":"Point","coordinates":[-76.8762,34.7759]},"properties":{"site":"KMHX","name":"Morehead City NC","scan_time":"2026-09-08T04:58:38Z","stale":false,"bins":25,"density_birds_km3":1.78125,"heading_deg":235.41333395855168,"speed_ms":9.253,"peak_altitude_m":0.0,"u_ms":-7.55639649122807,"v_ms":-5.015396491228071}},{"type":"Feature","geometry":{"type":"Point","coordinates":[-80.6542,28.1133]},"properties":{"site":"KMLB","name":"Melbourne FL","scan_time":"2026-09-08T04:58:57Z","stale":false,"bins":25,"density_birds_km3":20.336875,"heading_deg":159.9834302122572,"speed_ms":7.23565987272895,"peak_altitude_m":0.0,"u_ms":2.502795966675889,"v_ms":-6.749048848719603}},{"type":"Feature","geometry":{"type":"Point","coordinates":[-86.5625,36.2472]},"properties":{"site":"KOHX","name":"Nashville TN","scan_time":"2026-09-08T05:01:34Z","stale":false,"bins":25,"density_birds_km3":37.202666666666666,"heading_deg":342.9563304643345,"speed_ms":6.583808329152033,"peak_altitude_m":200.0,"u_ms":-1.340170776288438,"v_ms":5.747553759587126}},{"type":"Feature","geometry":{"type":"Point","coordinates":[-80.2183,40.5317]},"properties":{"site":"KPBZ","name":"Pittsburgh PA","scan_time":"2026-09-08T04:58:49Z","stale":false,"bins":25,"density_birds_km3":20.507857142857144,"heading_deg":248.36029023305923,"speed_ms":8.294554003691964,"peak_altitude_m":400.0,"u_ms":-6.9919246978509975,"v_ms":-3.135245724635157}},{"type":"Feature","geometry":{"type":"Point","coordinates":[-78.4899,35.6655]},"properties":{"site":"KRAX","name":"Raleigh NC","scan_time":"2026-09-08T05:02:24Z","stale":false,"bins":25,"density_birds_km3":16.29875,"heading_deg":240.45658030319214,"speed_ms":7.779083518674746,"peak_altitude_m":0.0,"u_ms":-6.342176547281234,"v_ms":-3.6582586854820156}},{"type":"Feature","geometry":{"type":"Point","coordinates":[-82.4017,27.7055]},"properties":{"site":"KTBW","name":"Tampa FL","scan_time":"2026-09-08T04:59:36Z","stale":false,"bins":25,"density_birds_km3":17.08375,"heading_deg":189.87563283839273,"speed_ms":4.885493158703446,"peak_altitude_m":0.0,"u_ms":-0.1842566034974757,"v_ms":-4.209240140484378}}]}