{"type":"FeatureCollection","frame":"2026-08-29T09","site_count":20,"fresh_count":20,"failures":{},"features":[{"type":"Feature","geometry":{"type":"Point","coordinates":[-77.0073,36.984]},"properties":{"site":"KAKQ","name":"Wakefield VA","scan_time":"2026-08-29T08:58:46Z","stale":false,"bins":25,"density_birds_km3":24.935625,"heading_deg":214.46425214769081,"speed_ms":11.312623583675924,"peak_altitude_m":200.0,"u_ms":-6.365503359069487,"v_ms":-9.250191767772986}},{"type":"Feature","geometry":{"type":"Point","coordinates":[-71.1369,41.9558]},"properties":{"site":"KBOX","name":"Boston MA","scan_time":"2026-08-29T08:59:35Z","stale":false,"bins":25,"density_birds_km3":3.900625,"heading_deg":208.41663587886262,"speed_ms":9.076463982031125,"peak_altitude_m":400.0,"u_ms":-4.098249639018129,"v_ms":-7.920508583346703}},{"type":"Feature","geometry":{"type":"Point","coordinates":[-78.7369,42.9489]},"properties":{"site":"KBUF","name":"Buffalo NY","scan_time":"2026-08-29T09:00:58Z","stale":false,"bins":25,"density_birds_km3":1.8586666666666667,"heading_deg":158.45928160731785,"speed_ms":5.868030846484936,"peak_altitude_m":400.0,"u_ms":2.0992144906743184,"v_ms":-5.446596126255381}},{"type":"Feature","geometry":{"type":"Point","coordinates":[-81.8597,41.4131]},"properties":{"site":"KCLE","name":"Cleveland OH","scan_time":"2026-08-29T09:01:05Z","stale":false,"bins":25,"density_birds_km3":0.8553333333333334,"heading_deg":309.68644832968744,"speed_ms":5.784722872755659,"peak_altitude_m":200.0,"u_ms":-4.290546448087431,"v_ms":3.6633801717408274}},{"type":"Feature","geometry":{"type":"Point","coordinates":[-81.0423,32.6555]},"properties":{"site":"KCLX","name":"Charleston SC","scan_time":"2026-08-29T09:02:23Z","stale":false,"bins":25,"density_birds_km3":2.0700000000000003,"heading_deg":207.3656751317241,"speed_ms":5.206036880290207,"peak_altitude_m":0.0,"u_ms":-2.423131801692866,"v_ms":-4.492950423216445}},{"type":"Feature","geometry":{"type":"Point","coordinates":[-74.4108,39.947]},"properties":{"site":"KDIX","name":"Philadelphia PA","scan_time":"2026-08-29T09:01:07Z","stale":false,"bins":25,"density_birds_km3":16.821875,"heading_deg":218.74849498609393,"speed_ms":12.035479452054794,"peak_altitude_m":400.0,"u_ms":-7.72735929124479,"v_ms":-9.129834723049436}},{"type":"Feature","geometry":{"type":"Point","coordinates":[-84.5658,33.3636]},"properties":{"site":"KFFC","name":"Atlanta GA","scan_time":"2026-08-29T09:04:04Z","stale":false,"bins":25,"density_birds_km3":25.154666666666667,"heading_deg":192.9983633084779,"speed_ms":3.4615708152231526,"peak_altitude_m":200.0,"u_ms":-0.8138511078129969,"v_ms":-3.1508284745043995}},{"type":"Feature","geometry":{"type":"Point","coordinates":[-85.5449,42.8939]},"properties":{"site":"KGRR","name":"Grand Rapids MI","scan_time":"2026-08-29T08:57:22Z","stale":false,"bins":25,"density_birds_km3":0.48000000000000004,"heading_deg":31.207409356142485,"speed_ms":11.33703081232493,"peak_altitude_m":200.0,"u_ms":6.038795518207283,"v_ms":9.336666666666668}},{"type":"Feature","geometry":{"type":"Point","coordinates":[-83.8217,39.4203]},"properties":{"site":"KILN","name":"Wilmington OH","scan_time":"2026-08-29T09:02:20Z","stale":false,"bins":25,"density_birds_km3":3.568,"heading_deg":260.0424826509844,"speed_ms":8.910918100224382,"peak_altitude_m":200.0,"u_ms":-7.835016828721017,"v_ms":-1.2526925953627523}},{"type":"Feature","geometry":{"type":"Point","coordinates":[-81.7019,30.4846]},"properties":{"site":"KJAX","name":"Jacksonville FL","scan_time":"2026-08-29T09:01:40Z","stale":false,"bins":25,"density_birds_km3":16.10625,"heading_deg":174.15333582300738,"speed_ms":6.572310826542491,"peak_altitude_m":0.0,"u_ms":0.65395227008149,"v_ms":-6.522405122235158}},{"type":"Feature","geometry":{"type":"Point","coordinates":[-88.0847,41.6045]},"properties":{"site":"KLOT","name":"Chicago IL","scan_time":"2026-08-29T09:00:03Z","stale":false,"bins":25,"density_birds_km3":1.528,"heading_deg":41.125834558577736,"speed_ms":6.3839092495636995,"peak_altitude_m":200.0,"u_ms":3.5013132635253053,"v_ms":4.172840314136125}},{"type":"Feature","geometry":{"type":"Point","coordinates":[-78.4292,33.9892]},"properties":{"site":"KLTX","name":"Wilmington NC","scan_time":"2026-08-29T08:58:25Z","stale":false,"bins":25,"density_birds_km3":11.72090909090909,"heading_deg":189.03028154285695,"speed_ms":4.846271989174561,"peak_altitude_m":200.0,"u_ms":-0.8012864875314132,"v_ms":-4.740014498356853}},{"type":"Feature","geometry":{"type":"Point","coordinates":[-77.4778,38.9753]},"properties":{"site":"KLWX","name":"Sterling VA","scan_time":"2026-08-29T09:00:47Z","stale":false,"bins":25,"density_birds_km3":58.586,"heading_deg":228.50774834067423,"speed_ms":12.479895052302922,"peak_altitude_m":400.0,"u_ms":-9.326596321702864,"v_ms":-8.127521023724332}},{"type":"Feature","geometry":{"type":"Point","coordinates":[-76.8762,34.7759]},"properties":{"site":"KMHX","name":"Morehead City NC","scan_time":"2026-08-29T08:58:53Z","stale":false,"bins":25,"density_birds_km3":5.7749999999999995,"heading_deg":152.54747615557335,"speed_ms":3.461652767247915,"peak_altitude_m":200.0,"u_ms":1.281039748727391,"v_ms":-1.8378262753167987}},{"type":"Feature","geometry":{"type":"Point","coordinates":[-80.6542,28.1133]},"properties":{"site":"KMLB","name":"Melbourne FL","scan_time":"2026-08-29T08:57:05Z","stale":false,"bins":25,"density_birds_km3":2.37,"heading_deg":151.07778754311568,"speed_ms":2.183382585751979,"peak_altitude_m":0.0,"u_ms":0.6890158311345647,"v_ms":-1.4731926121372032}},{"type":"Feature","geometry":{"type":"Point","coordinates":[-86.5625,36.2472]},"properties":{"site":"KOHX","name":"Nashville TN","scan_time":"2026-08-29T08:58:59Z","stale":false,"bins":25,"density_birds_km3":21.641333333333332,"heading_deg":233.34986234909678,"speed_ms":7.8212328260735635,"peak_altitude_m":200.0,"u_ms":-6.161210646294129,"v_ms":-4.195650298810918}},{"type":"Feature","geometry":{"type":"Point","coordinates":[-72.8639,40.8655]},"properties":{"site":"KOKX","name":"Upton NY","scan_time":"2026-08-29T09:01:29Z","stale":false,"bins":25,"density_birds_km3":11.8525,"heading_deg":218.37735302913325,"speed_ms":10.664159983115239,"peak_altitude_m":200.0,"u_ms":-6.660581996623047,"v_ms":-8.222443013929928}},{"type":"Feature","geometry":{"type":"Point","coordinates":[-80.2183,40.5317]},"properties":{"site":"KPBZ","name":"Pittsburgh PA","scan_time":"2026-08-29T09:00:21Z","stale":false,"bins":25,"density_birds_km3":7.1935714285714285,"heading_deg":230.16156479649527,"speed_ms":8.621337092227146,"peak_altitude_m":600.0,"u_ms":-6.618947845348369,"v_ms":-4.507076117599678}},{"type":"Feature","geometry":{"type":"Point","coordinates":[-78.4899,35.6655]},"properties":{"site":"KRAX","name":"Raleigh NC","scan_time":"2026-08-29T09:01:56Z","stale":false,"bins":25,"density_birds_km3":24.945625,"heading_deg":212.55170349515316,"speed_ms":7.108375175385849,"peak_altitude_m":400.0,"u_ms":-3.5787993585888955,"v_ms":-5.970158598917618}},{"type":"Feature","geometry":{"type":"Point","coordinates":[-82.4017,27.7055]},"properties":{"site":"KTBW","name":"Tampa FL","scan_time":"2026-08-29T08:58:47Z","stale":false,"bins":25,"density_birds_km3":4.01125,"heading_deg":245.53939924900004,"speed_ms":4.491275136399065,"peak_altitude_m":0.0,"u_ms":-3.959401402961808,"v_ms":-1.6333359314107558}}]}