{"type":"FeatureCollection","frame":"2026-09-02T05","site_count":20,"fresh_count":20,"failures":{},"features":[{"type":"Feature","geometry":{"type":"Point","coordinates":[-77.0073,36.984]},"properties":{"site":"KAKQ","name":"Wakefield VA","scan_time":"2026-09-02T04:59:27Z","stale":false,"bins":25,"density_birds_km3":6.9575,"heading_deg":108.50821922847736,"speed_ms":6.741214516708588,"peak_altitude_m":0.0,"u_ms":3.4889983830398856,"v_ms":-1.7837567373338126}},{"type":"Feature","geometry":{"type":"Point","coordinates":[-71.1369,41.9558]},"properties":{"site":"KBOX","name":"Boston MA","scan_time":"2026-09-02T05:00:05Z","stale":false,"bins":25,"density_birds_km3":2.6681250000000003,"heading_deg":217.59873250002616,"speed_ms":6.032284775979357,"peak_altitude_m":0.0,"u_ms":-3.4424841660802254,"v_ms":-4.287178043631246}},{"type":"Feature","geometry":{"type":"Point","coordinates":[-78.7369,42.9489]},"properties":{"site":"KBUF","name":"Buffalo NY","scan_time":"2026-09-02T05:00:13Z","stale":false,"bins":25,"density_birds_km3":31.758666666666667,"heading_deg":185.36403627048617,"speed_ms":6.05690960997523,"peak_altitude_m":200.0,"u_ms":-0.5414477937780764,"v_ms":-5.9337919308115366}},{"type":"Feature","geometry":{"type":"Point","coordinates":[-81.8597,41.4131]},"properties":{"site":"KCLE","name":"Cleveland OH","scan_time":"2026-09-02T05:00:00Z","stale":false,"bins":25,"density_birds_km3":29.217333333333332,"heading_deg":138.376808568358,"speed_ms":9.619834344909416,"peak_altitude_m":400.0,"u_ms":6.332968329302241,"v_ms":-6.289361566193583}},{"type":"Feature","geometry":{"type":"Point","coordinates":[-81.0423,32.6555]},"properties":{"site":"KCLX","name":"Charleston SC","scan_time":"2026-09-02T05:00:07Z","stale":false,"bins":25,"density_birds_km3":6.981428571428571,"heading_deg":230.94533725784905,"speed_ms":6.795089681367377,"peak_altitude_m":0.0,"u_ms":-3.0792983751846377,"v_ms":-4.177159738341422}},{"type":"Feature","geometry":{"type":"Point","coordinates":[-74.4108,39.947]},"properties":{"site":"KDIX","name":"Philadelphia PA","scan_time":"2026-09-02T05:01:11Z","stale":false,"bins":25,"density_birds_km3":4.19375,"heading_deg":219.87126235440246,"speed_ms":7.968956118017075,"peak_altitude_m":0.0,"u_ms":-5.018846787479408,"v_ms":-5.9410843193050775}},{"type":"Feature","geometry":{"type":"Point","coordinates":[-84.5658,33.3636]},"properties":{"site":"KFFC","name":"Atlanta GA","scan_time":"2026-09-02T04:58:51Z","stale":false,"bins":25,"density_birds_km3":33.99666666666666,"heading_deg":177.56032111383578,"speed_ms":5.3836540837337,"peak_altitude_m":1400.0,"u_ms":-1.2975454456319249,"v_ms":-3.8347577213452304}},{"type":"Feature","geometry":{"type":"Point","coordinates":[-85.5449,42.8939]},"properties":{"site":"KGRR","name":"Grand Rapids MI","scan_time":"2026-09-02T05:00:18Z","stale":false,"bins":25,"density_birds_km3":10.016,"heading_deg":107.40334311622792,"speed_ms":8.627966044600146,"peak_altitude_m":200.0,"u_ms":8.305044128545443,"v_ms":-2.0425136427945834}},{"type":"Feature","geometry":{"type":"Point","coordinates":[-83.8217,39.4203]},"properties":{"site":"KILN","name":"Wilmington OH","scan_time":"2026-09-02T04:57:43Z","stale":false,"bins":25,"density_birds_km3":10.278666666666668,"heading_deg":127.04315018040228,"speed_ms":10.361720067453625,"peak_altitude_m":1800.0,"u_ms":7.559827474380594,"v_ms":-5.3657789596575425}},{"type":"Feature","geometry":{"type":"Point","coordinates":[-81.7019,30.4846]},"properties":{"site":"KJAX","name":"Jacksonville FL","scan_time":"2026-09-02T04:56:50Z","stale":false,"bins":25,"density_birds_km3":21.654374999999998,"heading_deg":192.3785654041565,"speed_ms":9.794922862372527,"peak_altitude_m":200.0,"u_ms":-2.201203114558819,"v_ms":-9.484503326650978}},{"type":"Feature","geometry":{"type":"Point","coordinates":[-88.0847,41.6045]},"properties":{"site":"KLOT","name":"Chicago IL","scan_time":"2026-09-02T04:59:38Z","stale":false,"bins":25,"density_birds_km3":22.320666666666668,"heading_deg":90.9747666656498,"speed_ms":11.12201606881515,"peak_altitude_m":200.0,"u_ms":10.827480063319495,"v_ms":-0.5847531435739675}},{"type":"Feature","geometry":{"type":"Point","coordinates":[-78.4292,33.9892]},"properties":{"site":"KLTX","name":"Wilmington NC","scan_time":"2026-09-02T05:02:09Z","stale":false,"bins":25,"density_birds_km3":4.1775,"heading_deg":135.27189646812397,"speed_ms":7.273183954873081,"peak_altitude_m":200.0,"u_ms":0.5034158570980882,"v_ms":-3.075048574114698}},{"type":"Feature","geometry":{"type":"Point","coordinates":[-77.4778,38.9753]},"properties":{"site":"KLWX","name":"Sterling VA","scan_time":"2026-09-02T04:58:18Z","stale":false,"bins":25,"density_birds_km3":16.866875,"heading_deg":177.33451835704696,"speed_ms":10.446527986758953,"peak_altitude_m":400.0,"u_ms":0.6891453505868192,"v_ms":-10.17707267529341}},{"type":"Feature","geometry":{"type":"Point","coordinates":[-76.8762,34.7759]},"properties":{"site":"KMHX","name":"Morehead City NC","scan_time":"2026-09-02T04:59:20Z","stale":false,"bins":25,"density_birds_km3":1.881875,"heading_deg":93.50737624157786,"speed_ms":6.933889073397543,"peak_altitude_m":0.0,"u_ms":2.8510461640650946,"v_ms":-0.7674593158419127}},{"type":"Feature","geometry":{"type":"Point","coordinates":[-80.6542,28.1133]},"properties":{"site":"KMLB","name":"Melbourne FL","scan_time":"2026-09-02T04:56:38Z","stale":false,"bins":25,"density_birds_km3":4.889375,"heading_deg":171.48770630267728,"speed_ms":7.525667902339256,"peak_altitude_m":0.0,"u_ms":1.2448293493544678,"v_ms":-7.3515697302825}},{"type":"Feature","geometry":{"type":"Point","coordinates":[-86.5625,36.2472]},"properties":{"site":"KOHX","name":"Nashville TN","scan_time":"2026-09-02T05:00:34Z","stale":false,"bins":25,"density_birds_km3":19.084666666666667,"heading_deg":177.66500519690467,"speed_ms":2.0793107905124533,"peak_altitude_m":200.0,"u_ms":0.08301149264680198,"v_ms":-1.1428556956719182}},{"type":"Feature","geometry":{"type":"Point","coordinates":[-72.8639,40.8655]},"properties":{"site":"KOKX","name":"Upton NY","scan_time":"2026-09-02T04:59:26Z","stale":false,"bins":25,"density_birds_km3":1.383125,"heading_deg":247.38616585620554,"speed_ms":7.151958488557744,"peak_altitude_m":0.0,"u_ms":-6.478163916977117,"v_ms":-2.565210218201171}},{"type":"Feature","geometry":{"type":"Point","coordinates":[-80.2183,40.5317]},"properties":{"site":"KPBZ","name":"Pittsburgh PA","scan_time":"2026-09-02T05:01:12Z","stale":false,"bins":25,"density_birds_km3":10.000714285714285,"heading_deg":115.43835221063478,"speed_ms":12.368581956070686,"peak_altitude_m":400.0,"u_ms":9.95615010374186,"v_ms":-6.0428353723975095}},{"type":"Feature","geometry":{"type":"Point","coordinates":[-78.4899,35.6655]},"properties":{"site":"KRAX","name":"Raleigh NC","scan_time":"2026-09-02T04:57:24Z","stale":false,"bins":25,"density_birds_km3":15.81875,"heading_deg":146.37134930308554,"speed_ms":8.01354286843145,"peak_altitude_m":200.0,"u_ms":1.6119438956934018,"v_ms":-3.71365112603714}},{"type":"Feature","geometry":{"type":"Point","coordinates":[-82.4017,27.7055]},"properties":{"site":"KTBW","name":"Tampa FL","scan_time":"2026-09-02T05:01:00Z","stale":false,"bins":25,"density_birds_km3":14.648125,"heading_deg":185.912873959118,"speed_ms":5.948986645048428,"peak_altitude_m":0.0,"u_ms":-1.0481085463156548,"v_ms":-5.586428723812775}}]}