{"type":"FeatureCollection","frame":"2026-08-31T03","site_count":20,"fresh_count":20,"failures":{},"features":[{"type":"Feature","geometry":{"type":"Point","coordinates":[-77.0073,36.984]},"properties":{"site":"KAKQ","name":"Wakefield VA","scan_time":"2026-08-31T03:01:07Z","stale":false,"bins":25,"density_birds_km3":7.545625,"heading_deg":27.745694033654075,"speed_ms":6.086502964339439,"peak_altitude_m":0.0,"u_ms":1.2895318998318732,"v_ms":2.6854977435625167}},{"type":"Feature","geometry":{"type":"Point","coordinates":[-71.1369,41.9558]},"properties":{"site":"KBOX","name":"Boston MA","scan_time":"2026-08-31T02:59:59Z","stale":false,"bins":25,"density_birds_km3":2.01,"heading_deg":null,"speed_ms":null,"peak_altitude_m":0.0,"u_ms":null,"v_ms":null}},{"type":"Feature","geometry":{"type":"Point","coordinates":[-78.7369,42.9489]},"properties":{"site":"KBUF","name":"Buffalo NY","scan_time":"2026-08-31T03:01:34Z","stale":false,"bins":25,"density_birds_km3":1.0553333333333332,"heading_deg":null,"speed_ms":null,"peak_altitude_m":200.0,"u_ms":null,"v_ms":null}},{"type":"Feature","geometry":{"type":"Point","coordinates":[-81.8597,41.4131]},"properties":{"site":"KCLE","name":"Cleveland OH","scan_time":"2026-08-31T02:57:36Z","stale":false,"bins":25,"density_birds_km3":1.3113333333333332,"heading_deg":17.819336387458296,"speed_ms":8.096919875130073,"peak_altitude_m":200.0,"u_ms":2.3283194588969827,"v_ms":6.027408949011447}},{"type":"Feature","geometry":{"type":"Point","coordinates":[-81.0423,32.6555]},"properties":{"site":"KCLX","name":"Charleston SC","scan_time":"2026-08-31T02:57:41Z","stale":false,"bins":25,"density_birds_km3":15.849375,"heading_deg":226.6517037509157,"speed_ms":8.76297332802548,"peak_altitude_m":200.0,"u_ms":-5.859679936305732,"v_ms":-6.0353252388535035}},{"type":"Feature","geometry":{"type":"Point","coordinates":[-74.4108,39.947]},"properties":{"site":"KDIX","name":"Philadelphia PA","scan_time":"2026-08-31T03:00:09Z","stale":false,"bins":25,"density_birds_km3":2.570625,"heading_deg":null,"speed_ms":null,"peak_altitude_m":200.0,"u_ms":null,"v_ms":null}},{"type":"Feature","geometry":{"type":"Point","coordinates":[-84.5658,33.3636]},"properties":{"site":"KFFC","name":"Atlanta GA","scan_time":"2026-08-31T03:01:50Z","stale":false,"bins":25,"density_birds_km3":23.59,"heading_deg":256.0307041205324,"speed_ms":4.762993358767839,"peak_altitude_m":600.0,"u_ms":-4.244992793556591,"v_ms":-1.6300505864066694}},{"type":"Feature","geometry":{"type":"Point","coordinates":[-85.5449,42.8939]},"properties":{"site":"KGRR","name":"Grand Rapids MI","scan_time":"2026-08-31T02:57:53Z","stale":false,"bins":25,"density_birds_km3":3.9606666666666666,"heading_deg":53.64120209054137,"speed_ms":5.925359488129314,"peak_altitude_m":200.0,"u_ms":4.962197339619464,"v_ms":2.9166021215692877}},{"type":"Feature","geometry":{"type":"Point","coordinates":[-83.8217,39.4203]},"properties":{"site":"KILN","name":"Wilmington OH","scan_time":"2026-08-31T03:03:20Z","stale":false,"bins":25,"density_birds_km3":8.058666666666666,"heading_deg":7.73239938403956,"speed_ms":4.779855228325612,"peak_altitude_m":200.0,"u_ms":1.6992496690933157,"v_ms":0.17553027796161486}},{"type":"Feature","geometry":{"type":"Point","coordinates":[-81.7019,30.4846]},"properties":{"site":"KJAX","name":"Jacksonville FL","scan_time":"2026-08-31T02:57:52Z","stale":false,"bins":25,"density_birds_km3":55.620625,"heading_deg":188.39753286139154,"speed_ms":10.474475308991629,"peak_altitude_m":0.0,"u_ms":-1.5230790406815375,"v_ms":-10.363982281836618}},{"type":"Feature","geometry":{"type":"Point","coordinates":[-88.0847,41.6045]},"properties":{"site":"KLOT","name":"Chicago IL","scan_time":"2026-08-31T02:57:26Z","stale":false,"bins":25,"density_birds_km3":3.4106666666666667,"heading_deg":23.754401445780385,"speed_ms":8.033588616865453,"peak_altitude_m":400.0,"u_ms":3.151042059008161,"v_ms":6.996679221594476}},{"type":"Feature","geometry":{"type":"Point","coordinates":[-78.4292,33.9892]},"properties":{"site":"KLTX","name":"Wilmington NC","scan_time":"2026-08-31T02:59:48Z","stale":false,"bins":25,"density_birds_km3":19.19,"heading_deg":224.6044531303953,"speed_ms":7.576774046447999,"peak_altitude_m":0.0,"u_ms":-4.894813198267157,"v_ms":-5.328797433308361}},{"type":"Feature","geometry":{"type":"Point","coordinates":[-77.4778,38.9753]},"properties":{"site":"KLWX","name":"Sterling VA","scan_time":"2026-08-31T02:57:58Z","stale":false,"bins":25,"density_birds_km3":4.6025,"heading_deg":38.983116849551735,"speed_ms":4.674329170669228,"peak_altitude_m":200.0,"u_ms":2.578037143772014,"v_ms":2.61122158181236}},{"type":"Feature","geometry":{"type":"Point","coordinates":[-76.8762,34.7759]},"properties":{"site":"KMHX","name":"Morehead City NC","scan_time":"2026-08-31T03:01:56Z","stale":false,"bins":25,"density_birds_km3":5.456875,"heading_deg":213.4990045733736,"speed_ms":4.757579647031858,"peak_altitude_m":200.0,"u_ms":-1.8480506532202612,"v_ms":-4.086069218427688}},{"type":"Feature","geometry":{"type":"Point","coordinates":[-80.6542,28.1133]},"properties":{"site":"KMLB","name":"Melbourne FL","scan_time":"2026-08-31T02:59:53Z","stale":false,"bins":25,"density_birds_km3":4.38,"heading_deg":187.6955486434719,"speed_ms":5.81592550306836,"peak_altitude_m":0.0,"u_ms":-0.7573041244469816,"v_ms":-5.726918795490224}},{"type":"Feature","geometry":{"type":"Point","coordinates":[-86.5625,36.2472]},"properties":{"site":"KOHX","name":"Nashville TN","scan_time":"2026-08-31T03:03:12Z","stale":false,"bins":25,"density_birds_km3":17.076666666666668,"heading_deg":47.32998719270987,"speed_ms":3.3334979889882463,"peak_altitude_m":200.0,"u_ms":2.397491897379827,"v_ms":2.1786856183373033}},{"type":"Feature","geometry":{"type":"Point","coordinates":[-72.8639,40.8655]},"properties":{"site":"KOKX","name":"Upton NY","scan_time":"2026-08-31T02:58:40Z","stale":false,"bins":25,"density_birds_km3":11.2625,"heading_deg":null,"speed_ms":null,"peak_altitude_m":0.0,"u_ms":null,"v_ms":null}},{"type":"Feature","geometry":{"type":"Point","coordinates":[-80.2183,40.5317]},"properties":{"site":"KPBZ","name":"Pittsburgh PA","scan_time":"2026-08-31T02:57:52Z","stale":false,"bins":25,"density_birds_km3":8.844285714285714,"heading_deg":204.41094354753824,"speed_ms":5.174353807558469,"peak_altitude_m":600.0,"u_ms":-0.9769620458039976,"v_ms":-2.6405130695152543}},{"type":"Feature","geometry":{"type":"Point","coordinates":[-78.4899,35.6655]},"properties":{"site":"KRAX","name":"Raleigh NC","scan_time":"2026-08-31T03:02:14Z","stale":false,"bins":25,"density_birds_km3":12.924375,"heading_deg":172.88375495966432,"speed_ms":4.136387639634412,"peak_altitude_m":400.0,"u_ms":-0.6371932878765898,"v_ms":-3.6514168963682967}},{"type":"Feature","geometry":{"type":"Point","coordinates":[-82.4017,27.7055]},"properties":{"site":"KTBW","name":"Tampa FL","scan_time":"2026-08-31T02:59:27Z","stale":false,"bins":25,"density_birds_km3":14.12625,"heading_deg":210.21739060239742,"speed_ms":7.064742687729544,"peak_altitude_m":0.0,"u_ms":-3.2286371078366303,"v_ms":-6.074314792689942}}]}