{"type":"FeatureCollection","frame":"2026-09-29T08","site_count":20,"fresh_count":20,"failures":{},"features":[{"type":"Feature","geometry":{"type":"Point","coordinates":[-77.0073,36.984]},"properties":{"site":"KAKQ","name":"Wakefield VA","scan_time":"2026-09-29T08:02:42Z","stale":false,"bins":25,"density_birds_km3":11.66125,"heading_deg":272.14920094501485,"speed_ms":7.245727379931389,"peak_altitude_m":200.0,"u_ms":-6.382583619210977,"v_ms":-0.5308109991423671}},{"type":"Feature","geometry":{"type":"Point","coordinates":[-71.1369,41.9558]},"properties":{"site":"KBOX","name":"Boston MA","scan_time":"2026-09-29T08:01:51Z","stale":false,"bins":25,"density_birds_km3":5.2,"heading_deg":62.8926308524521,"speed_ms":8.26193868896159,"peak_altitude_m":0.0,"u_ms":7.257725675511935,"v_ms":3.78899915182358}},{"type":"Feature","geometry":{"type":"Point","coordinates":[-78.7369,42.9489]},"properties":{"site":"KBUF","name":"Buffalo NY","scan_time":"2026-09-29T07:57:24Z","stale":false,"bins":25,"density_birds_km3":6.312666666666667,"heading_deg":126.46050882575359,"speed_ms":6.935407117963883,"peak_altitude_m":400.0,"u_ms":5.455046995458866,"v_ms":-3.8712841905164224}},{"type":"Feature","geometry":{"type":"Point","coordinates":[-81.8597,41.4131]},"properties":{"site":"KCLE","name":"Cleveland OH","scan_time":"2026-09-29T08:03:32Z","stale":false,"bins":25,"density_birds_km3":10.070666666666666,"heading_deg":138.49618630225802,"speed_ms":10.171872889771599,"peak_altitude_m":200.0,"u_ms":6.679695465077788,"v_ms":-7.61438662694472}},{"type":"Feature","geometry":{"type":"Point","coordinates":[-81.0423,32.6555]},"properties":{"site":"KCLX","name":"Charleston SC","scan_time":"2026-09-29T08:02:54Z","stale":false,"bins":25,"density_birds_km3":15.100624999999999,"heading_deg":236.67151918296645,"speed_ms":5.40427347242921,"peak_altitude_m":0.0,"u_ms":-3.924885742672628,"v_ms":-2.8083796986256004}},{"type":"Feature","geometry":{"type":"Point","coordinates":[-74.4108,39.947]},"properties":{"site":"KDIX","name":"Philadelphia PA","scan_time":"2026-09-29T07:57:57Z","stale":false,"bins":25,"density_birds_km3":12.655,"heading_deg":149.20915257013203,"speed_ms":4.690348251333728,"peak_altitude_m":0.0,"u_ms":0.283506718039913,"v_ms":-4.123838174273859}},{"type":"Feature","geometry":{"type":"Point","coordinates":[-84.5658,33.3636]},"properties":{"site":"KFFC","name":"Atlanta GA","scan_time":"2026-09-29T08:01:17Z","stale":false,"bins":25,"density_birds_km3":37.14933333333333,"heading_deg":195.2041893945655,"speed_ms":7.670748510516115,"peak_altitude_m":200.0,"u_ms":-1.8398953772162798,"v_ms":-6.852295958653363}},{"type":"Feature","geometry":{"type":"Point","coordinates":[-85.5449,42.8939]},"properties":{"site":"KGRR","name":"Grand Rapids MI","scan_time":"2026-09-29T08:01:30Z","stale":false,"bins":25,"density_birds_km3":27.03666666666667,"heading_deg":150.0341959772172,"speed_ms":7.307245222537295,"peak_altitude_m":400.0,"u_ms":3.8181050425348295,"v_ms":-6.011042041671804}},{"type":"Feature","geometry":{"type":"Point","coordinates":[-83.8217,39.4203]},"properties":{"site":"KILN","name":"Wilmington OH","scan_time":"2026-09-29T07:59:38Z","stale":false,"bins":25,"density_birds_km3":23.914666666666665,"heading_deg":128.65748768547047,"speed_ms":4.770944747992863,"peak_altitude_m":400.0,"u_ms":3.031273974130241,"v_ms":-3.586649754683319}},{"type":"Feature","geometry":{"type":"Point","coordinates":[-81.7019,30.4846]},"properties":{"site":"KJAX","name":"Jacksonville FL","scan_time":"2026-09-29T08:01:03Z","stale":false,"bins":25,"density_birds_km3":42.513125,"heading_deg":163.1270944528974,"speed_ms":7.642054867022448,"peak_altitude_m":200.0,"u_ms":1.9503823931548536,"v_ms":-6.927367647275025}},{"type":"Feature","geometry":{"type":"Point","coordinates":[-88.0847,41.6045]},"properties":{"site":"KLOT","name":"Chicago IL","scan_time":"2026-09-29T07:59:44Z","stale":false,"bins":25,"density_birds_km3":29.467333333333332,"heading_deg":174.3066554642592,"speed_ms":6.996777395690051,"peak_altitude_m":200.0,"u_ms":1.3110490600641906,"v_ms":-5.243072902338377}},{"type":"Feature","geometry":{"type":"Point","coordinates":[-78.4292,33.9892]},"properties":{"site":"KLTX","name":"Wilmington NC","scan_time":"2026-09-29T08:01:10Z","stale":false,"bins":25,"density_birds_km3":5.611875,"heading_deg":321.583069169656,"speed_ms":1.5655937500000001,"peak_altitude_m":0.0,"u_ms":-0.8504676339285716,"v_ms":0.32871428571428574}},{"type":"Feature","geometry":{"type":"Point","coordinates":[-77.4778,38.9753]},"properties":{"site":"KLWX","name":"Sterling VA","scan_time":"2026-09-29T07:58:26Z","stale":false,"bins":25,"density_birds_km3":14.516875,"heading_deg":182.14525820622552,"speed_ms":4.957663925603824,"peak_altitude_m":200.0,"u_ms":-0.43160029276273304,"v_ms":-3.4852335643862746}},{"type":"Feature","geometry":{"type":"Point","coordinates":[-76.8762,34.7759]},"properties":{"site":"KMHX","name":"Morehead City NC","scan_time":"2026-09-29T08:01:27Z","stale":false,"bins":25,"density_birds_km3":1.681875,"heading_deg":5.754480856966459,"speed_ms":3.6135480268056592,"peak_altitude_m":0.0,"u_ms":0.5870774385703648,"v_ms":2.446950856291884}},{"type":"Feature","geometry":{"type":"Point","coordinates":[-80.6542,28.1133]},"properties":{"site":"KMLB","name":"Melbourne FL","scan_time":"2026-09-29T08:00:03Z","stale":false,"bins":25,"density_birds_km3":22.6575,"heading_deg":161.7551833992734,"speed_ms":11.178443672073266,"peak_altitude_m":0.0,"u_ms":3.295648515943948,"v_ms":-10.591037735849058}},{"type":"Feature","geometry":{"type":"Point","coordinates":[-86.5625,36.2472]},"properties":{"site":"KOHX","name":"Nashville TN","scan_time":"2026-09-29T08:01:58Z","stale":false,"bins":25,"density_birds_km3":65.49733333333333,"heading_deg":190.7213784322047,"speed_ms":7.577281823178551,"peak_altitude_m":200.0,"u_ms":0.023862549111414135,"v_ms":-6.094496773405533}},{"type":"Feature","geometry":{"type":"Point","coordinates":[-72.8639,40.8655]},"properties":{"site":"KOKX","name":"Upton NY","scan_time":"2026-09-29T08:02:46Z","stale":false,"bins":25,"density_birds_km3":5.33375,"heading_deg":68.09330519081587,"speed_ms":5.200562456058121,"peak_altitude_m":0.0,"u_ms":4.533851652214671,"v_ms":1.6228978204827746}},{"type":"Feature","geometry":{"type":"Point","coordinates":[-80.2183,40.5317]},"properties":{"site":"KPBZ","name":"Pittsburgh PA","scan_time":"2026-09-29T08:02:46Z","stale":false,"bins":25,"density_birds_km3":11.638571428571428,"heading_deg":113.8095951855457,"speed_ms":7.606264882778937,"peak_altitude_m":600.0,"u_ms":5.8896115134405305,"v_ms":-2.5792702835399535}},{"type":"Feature","geometry":{"type":"Point","coordinates":[-78.4899,35.6655]},"properties":{"site":"KRAX","name":"Raleigh NC","scan_time":"2026-09-29T07:57:24Z","stale":false,"bins":25,"density_birds_km3":6.623125,"heading_deg":277.6008727859895,"speed_ms":3.082313137032843,"peak_altitude_m":400.0,"u_ms":-2.460941864854662,"v_ms":0.17876274065685166}},{"type":"Feature","geometry":{"type":"Point","coordinates":[-82.4017,27.7055]},"properties":{"site":"KTBW","name":"Tampa FL","scan_time":"2026-09-29T08:01:23Z","stale":false,"bins":25,"density_birds_km3":18.898125,"heading_deg":169.1413347199795,"speed_ms":4.867048318285544,"peak_altitude_m":200.0,"u_ms":1.1455025300128983,"v_ms":-3.5458431722723818}}]}