{"type":"FeatureCollection","frame":"2026-09-07T10","site_count":20,"fresh_count":20,"failures":{},"features":[{"type":"Feature","geometry":{"type":"Point","coordinates":[-77.0073,36.984]},"properties":{"site":"KAKQ","name":"Wakefield VA","scan_time":"2026-09-07T09:56:50Z","stale":false,"bins":25,"density_birds_km3":5.233124999999999,"heading_deg":212.98212335145436,"speed_ms":10.720830148112755,"peak_altitude_m":200.0,"u_ms":-5.790851648351648,"v_ms":-8.961233874820831}},{"type":"Feature","geometry":{"type":"Point","coordinates":[-71.1369,41.9558]},"properties":{"site":"KBOX","name":"Boston MA","scan_time":"2026-09-07T10:04:10Z","stale":false,"bins":25,"density_birds_km3":1.239375,"heading_deg":145.02569703181678,"speed_ms":12.228804457953395,"peak_altitude_m":200.0,"u_ms":6.994305977710233,"v_ms":-10.003971631205674}},{"type":"Feature","geometry":{"type":"Point","coordinates":[-78.7369,42.9489]},"properties":{"site":"KBUF","name":"Buffalo NY","scan_time":"2026-09-07T09:59:49Z","stale":false,"bins":25,"density_birds_km3":1.318,"heading_deg":290.6848581453504,"speed_ms":2.761385938290339,"peak_altitude_m":400.0,"u_ms":-1.7190389479008599,"v_ms":0.20614061709661094}},{"type":"Feature","geometry":{"type":"Point","coordinates":[-81.8597,41.4131]},"properties":{"site":"KCLE","name":"Cleveland OH","scan_time":"2026-09-07T10:03:09Z","stale":false,"bins":25,"density_birds_km3":3.1426666666666665,"heading_deg":255.02226211849887,"speed_ms":10.345797532964696,"peak_altitude_m":400.0,"u_ms":-10.002839217354317,"v_ms":-2.6268779242875375}},{"type":"Feature","geometry":{"type":"Point","coordinates":[-81.0423,32.6555]},"properties":{"site":"KCLX","name":"Charleston SC","scan_time":"2026-09-07T10:01:16Z","stale":false,"bins":25,"density_birds_km3":14.134375,"heading_deg":228.4677759982556,"speed_ms":12.790108359133127,"peak_altitude_m":200.0,"u_ms":-9.523329500221141,"v_ms":-8.330794781070322}},{"type":"Feature","geometry":{"type":"Point","coordinates":[-74.4108,39.947]},"properties":{"site":"KDIX","name":"Philadelphia PA","scan_time":"2026-09-07T10:02:09Z","stale":false,"bins":25,"density_birds_km3":2.710625,"heading_deg":220.07413816910451,"speed_ms":10.167986608173631,"peak_altitude_m":200.0,"u_ms":-6.5459339644423915,"v_ms":-7.738141306857539}},{"type":"Feature","geometry":{"type":"Point","coordinates":[-84.5658,33.3636]},"properties":{"site":"KFFC","name":"Atlanta GA","scan_time":"2026-09-07T09:59:29Z","stale":false,"bins":25,"density_birds_km3":22.278666666666666,"heading_deg":227.97624421488226,"speed_ms":7.17772577652762,"peak_altitude_m":200.0,"u_ms":-3.6107409180681063,"v_ms":-3.519450595487462}},{"type":"Feature","geometry":{"type":"Point","coordinates":[-85.5449,42.8939]},"properties":{"site":"KGRR","name":"Grand Rapids MI","scan_time":"2026-09-07T09:55:52Z","stale":false,"bins":25,"density_birds_km3":2.652,"heading_deg":304.1268585354547,"speed_ms":5.724412578616352,"peak_altitude_m":200.0,"u_ms":-4.599647798742138,"v_ms":3.1360125786163526}},{"type":"Feature","geometry":{"type":"Point","coordinates":[-83.8217,39.4203]},"properties":{"site":"KILN","name":"Wilmington OH","scan_time":"2026-09-07T10:02:21Z","stale":false,"bins":25,"density_birds_km3":5.434,"heading_deg":213.36935937209432,"speed_ms":12.45527123220422,"peak_altitude_m":200.0,"u_ms":-6.738322287677957,"v_ms":-10.265781786941579}},{"type":"Feature","geometry":{"type":"Point","coordinates":[-81.7019,30.4846]},"properties":{"site":"KJAX","name":"Jacksonville FL","scan_time":"2026-09-07T09:58:44Z","stale":false,"bins":25,"density_birds_km3":145.655625,"heading_deg":182.82326052111534,"speed_ms":10.080257638173704,"peak_altitude_m":0.0,"u_ms":-0.4879967816683832,"v_ms":-10.055518537590112}},{"type":"Feature","geometry":{"type":"Point","coordinates":[-88.0847,41.6045]},"properties":{"site":"KLOT","name":"Chicago IL","scan_time":"2026-09-07T10:02:11Z","stale":false,"bins":25,"density_birds_km3":2.055333333333333,"heading_deg":275.20163892492224,"speed_ms":7.8317904638339275,"peak_altitude_m":200.0,"u_ms":-7.193276029841064,"v_ms":0.7064417774894585}},{"type":"Feature","geometry":{"type":"Point","coordinates":[-78.4292,33.9892]},"properties":{"site":"KLTX","name":"Wilmington NC","scan_time":"2026-09-07T10:00:11Z","stale":false,"bins":25,"density_birds_km3":8.641250000000001,"heading_deg":238.38339897561167,"speed_ms":12.015906098531433,"peak_altitude_m":0.0,"u_ms":-10.22365911885987,"v_ms":-6.300810967228532}},{"type":"Feature","geometry":{"type":"Point","coordinates":[-77.4778,38.9753]},"properties":{"site":"KLWX","name":"Sterling VA","scan_time":"2026-09-07T10:02:15Z","stale":false,"bins":25,"density_birds_km3":10.018749999999999,"heading_deg":229.2757480893151,"speed_ms":9.577007386079119,"peak_altitude_m":200.0,"u_ms":-7.266757636454681,"v_ms":-6.187672133199801}},{"type":"Feature","geometry":{"type":"Point","coordinates":[-76.8762,34.7759]},"properties":{"site":"KMHX","name":"Morehead City NC","scan_time":"2026-09-07T09:59:57Z","stale":false,"bins":25,"density_birds_km3":1.32125,"heading_deg":220.96414388091546,"speed_ms":7.988755324183626,"peak_altitude_m":0.0,"u_ms":-5.2808140085186945,"v_ms":-5.910743019403691}},{"type":"Feature","geometry":{"type":"Point","coordinates":[-80.6542,28.1133]},"properties":{"site":"KMLB","name":"Melbourne FL","scan_time":"2026-09-07T10:00:06Z","stale":false,"bins":25,"density_birds_km3":8.776875,"heading_deg":162.0651148855475,"speed_ms":8.535674713380331,"peak_altitude_m":0.0,"u_ms":2.620771202734458,"v_ms":-8.106556291390728}},{"type":"Feature","geometry":{"type":"Point","coordinates":[-86.5625,36.2472]},"properties":{"site":"KOHX","name":"Nashville TN","scan_time":"2026-09-07T10:00:44Z","stale":false,"bins":25,"density_birds_km3":55.44866666666667,"heading_deg":216.02595404024098,"speed_ms":7.805786493212942,"peak_altitude_m":200.0,"u_ms":-4.129417599461363,"v_ms":-5.716341120315486}},{"type":"Feature","geometry":{"type":"Point","coordinates":[-72.8639,40.8655]},"properties":{"site":"KOKX","name":"Upton NY","scan_time":"2026-09-07T10:04:18Z","stale":false,"bins":25,"density_birds_km3":0.828125,"heading_deg":161.90151857732278,"speed_ms":8.355342987804878,"peak_altitude_m":0.0,"u_ms":2.5775609756097557,"v_ms":-7.925960365853658}},{"type":"Feature","geometry":{"type":"Point","coordinates":[-80.2183,40.5317]},"properties":{"site":"KPBZ","name":"Pittsburgh PA","scan_time":"2026-09-07T10:02:37Z","stale":false,"bins":25,"density_birds_km3":8.8475,"heading_deg":244.03533422940174,"speed_ms":6.576836860586505,"peak_altitude_m":400.0,"u_ms":-5.848247129163899,"v_ms":-2.9224029609945905}},{"type":"Feature","geometry":{"type":"Point","coordinates":[-78.4899,35.6655]},"properties":{"site":"KRAX","name":"Raleigh NC","scan_time":"2026-09-07T10:01:54Z","stale":false,"bins":25,"density_birds_km3":10.32875,"heading_deg":209.7447413723975,"speed_ms":10.78114641970825,"peak_altitude_m":200.0,"u_ms":-5.367130318987955,"v_ms":-9.075005750257247}},{"type":"Feature","geometry":{"type":"Point","coordinates":[-82.4017,27.7055]},"properties":{"site":"KTBW","name":"Tampa FL","scan_time":"2026-09-07T10:01:34Z","stale":false,"bins":25,"density_birds_km3":4.534375,"heading_deg":133.39467819567867,"speed_ms":4.876962095106823,"peak_altitude_m":0.0,"u_ms":3.2850337698139214,"v_ms":-3.519357684355617}}]}