{"type":"FeatureCollection","frame":"2026-08-12T00","site_count":20,"fresh_count":20,"failures":{},"features":[{"type":"Feature","geometry":{"type":"Point","coordinates":[-77.0073,36.984]},"properties":{"site":"KAKQ","name":"Wakefield VA","scan_time":"2026-08-12T00:00:11Z","stale":false,"bins":25,"density_birds_km3":1.3199999999999998,"heading_deg":56.59870027967441,"speed_ms":4.28203125,"peak_altitude_m":0.0,"u_ms":3.5533522727272735,"v_ms":2.3406060606060604}},{"type":"Feature","geometry":{"type":"Point","coordinates":[-71.1369,41.9558]},"properties":{"site":"KBOX","name":"Boston MA","scan_time":"2026-08-12T00:00:27Z","stale":false,"bins":25,"density_birds_km3":0.553125,"heading_deg":104.18784301331867,"speed_ms":7.344570135746607,"peak_altitude_m":0.0,"u_ms":7.072409502262444,"v_ms":-1.8265384615384614}},{"type":"Feature","geometry":{"type":"Point","coordinates":[-78.7369,42.9489]},"properties":{"site":"KBUF","name":"Buffalo NY","scan_time":"2026-08-11T23:57:26Z","stale":false,"bins":25,"density_birds_km3":0.7853333333333333,"heading_deg":87.29362066983349,"speed_ms":3.7346519524617996,"peak_altitude_m":200.0,"u_ms":3.6423259762308997,"v_ms":0.14305602716468593}},{"type":"Feature","geometry":{"type":"Point","coordinates":[-81.8597,41.4131]},"properties":{"site":"KCLE","name":"Cleveland OH","scan_time":"2026-08-12T00:00:46Z","stale":false,"bins":25,"density_birds_km3":2.322,"heading_deg":86.52767322319869,"speed_ms":4.447570605187319,"peak_altitude_m":200.0,"u_ms":4.080608069164264,"v_ms":0.03785878962536026}},{"type":"Feature","geometry":{"type":"Point","coordinates":[-81.0423,32.6555]},"properties":{"site":"KCLX","name":"Charleston SC","scan_time":"2026-08-12T00:02:17Z","stale":false,"bins":25,"density_birds_km3":0.341875,"heading_deg":66.44412235345658,"speed_ms":6.868756855575868,"peak_altitude_m":0.0,"u_ms":6.21691042047532,"v_ms":2.5329250457038395}},{"type":"Feature","geometry":{"type":"Point","coordinates":[-74.4108,39.947]},"properties":{"site":"KDIX","name":"Philadelphia PA","scan_time":"2026-08-11T23:58:42Z","stale":false,"bins":25,"density_birds_km3":0.058124999999999996,"heading_deg":66.56646572638144,"speed_ms":6.433703703703704,"peak_altitude_m":0.0,"u_ms":5.709259259259259,"v_ms":2.5822222222222218}},{"type":"Feature","geometry":{"type":"Point","coordinates":[-84.5658,33.3636]},"properties":{"site":"KFFC","name":"Atlanta GA","scan_time":"2026-08-12T00:01:21Z","stale":false,"bins":25,"density_birds_km3":0.8885714285714286,"heading_deg":null,"speed_ms":null,"peak_altitude_m":400.0,"u_ms":null,"v_ms":null}},{"type":"Feature","geometry":{"type":"Point","coordinates":[-85.5449,42.8939]},"properties":{"site":"KGRR","name":"Grand Rapids MI","scan_time":"2026-08-11T23:59:46Z","stale":false,"bins":25,"density_birds_km3":1.1493333333333333,"heading_deg":303.43150088000516,"speed_ms":2.613315911730546,"peak_altitude_m":200.0,"u_ms":-2.122555168408827,"v_ms":1.4295934959349592}},{"type":"Feature","geometry":{"type":"Point","coordinates":[-83.8217,39.4203]},"properties":{"site":"KILN","name":"Wilmington OH","scan_time":"2026-08-11T23:58:08Z","stale":false,"bins":25,"density_birds_km3":0.516,"heading_deg":37.75155142790508,"speed_ms":7.327453416149069,"peak_altitude_m":200.0,"u_ms":4.344813664596274,"v_ms":5.26802795031056}},{"type":"Feature","geometry":{"type":"Point","coordinates":[-81.7019,30.4846]},"properties":{"site":"KJAX","name":"Jacksonville FL","scan_time":"2026-08-11T23:58:51Z","stale":false,"bins":25,"density_birds_km3":0.95375,"heading_deg":109.36468313105978,"speed_ms":6.76305373525557,"peak_altitude_m":0.0,"u_ms":6.356880733944954,"v_ms":-2.2699803407601578}},{"type":"Feature","geometry":{"type":"Point","coordinates":[-88.0847,41.6045]},"properties":{"site":"KLOT","name":"Chicago IL","scan_time":"2026-08-11T23:59:53Z","stale":false,"bins":25,"density_birds_km3":0.7873333333333333,"heading_deg":275.72103862348536,"speed_ms":3.0609507640067912,"peak_altitude_m":200.0,"u_ms":-2.2622410865874363,"v_ms":0.20331918505942279}},{"type":"Feature","geometry":{"type":"Point","coordinates":[-78.4292,33.9892]},"properties":{"site":"KLTX","name":"Wilmington NC","scan_time":"2026-08-12T00:00:32Z","stale":false,"bins":25,"density_birds_km3":0.11375,"heading_deg":95.98729194360229,"speed_ms":7.4799999999999995,"peak_altitude_m":0.0,"u_ms":7.364999999999999,"v_ms":-0.5789999999999998}},{"type":"Feature","geometry":{"type":"Point","coordinates":[-77.4778,38.9753]},"properties":{"site":"KLWX","name":"Sterling VA","scan_time":"2026-08-12T00:00:22Z","stale":false,"bins":25,"density_birds_km3":1.081875,"heading_deg":146.04440854335957,"speed_ms":6.649554140127388,"peak_altitude_m":0.0,"u_ms":3.699316734221193,"v_ms":-5.518002316155182}},{"type":"Feature","geometry":{"type":"Point","coordinates":[-76.8762,34.7759]},"properties":{"site":"KMHX","name":"Morehead City NC","scan_time":"2026-08-11T23:59:51Z","stale":false,"bins":25,"density_birds_km3":1.271875,"heading_deg":61.067471501431655,"speed_ms":8.066201474201474,"peak_altitude_m":0.0,"u_ms":6.973341523341523,"v_ms":3.9273660933660937}},{"type":"Feature","geometry":{"type":"Point","coordinates":[-80.6542,28.1133]},"properties":{"site":"KMLB","name":"Melbourne FL","scan_time":"2026-08-12T00:01:31Z","stale":false,"bins":25,"density_birds_km3":0.305,"heading_deg":277.73408161107113,"speed_ms":3.105102459016394,"peak_altitude_m":0.0,"u_ms":-2.9161680327868855,"v_ms":0.45415983606557375}},{"type":"Feature","geometry":{"type":"Point","coordinates":[-86.5625,36.2472]},"properties":{"site":"KOHX","name":"Nashville TN","scan_time":"2026-08-11T23:57:20Z","stale":false,"bins":25,"density_birds_km3":2.482666666666667,"heading_deg":84.79812705046633,"speed_ms":4.343649301825993,"peak_altitude_m":200.0,"u_ms":4.318020945220193,"v_ms":0.42076530612244895}},{"type":"Feature","geometry":{"type":"Point","coordinates":[-72.8639,40.8655]},"properties":{"site":"KOKX","name":"Upton NY","scan_time":"2026-08-12T00:01:23Z","stale":false,"bins":25,"density_birds_km3":0.105625,"heading_deg":40.23733065992278,"speed_ms":4.671071428571428,"peak_altitude_m":0.0,"u_ms":2.974166666666666,"v_ms":3.413392857142857}},{"type":"Feature","geometry":{"type":"Point","coordinates":[-80.2183,40.5317]},"properties":{"site":"KPBZ","name":"Pittsburgh PA","scan_time":"2026-08-11T23:59:28Z","stale":false,"bins":25,"density_birds_km3":0.15357142857142855,"heading_deg":110.86826540549451,"speed_ms":4.076534653465346,"peak_altitude_m":400.0,"u_ms":3.598316831683168,"v_ms":-1.6797029702970299}},{"type":"Feature","geometry":{"type":"Point","coordinates":[-78.4899,35.6655]},"properties":{"site":"KRAX","name":"Raleigh NC","scan_time":"2026-08-12T00:00:44Z","stale":false,"bins":25,"density_birds_km3":4.7768749999999995,"heading_deg":63.32735841299502,"speed_ms":3.5450758620689653,"peak_altitude_m":200.0,"u_ms":3.1556433497536944,"v_ms":1.5328748768472904}},{"type":"Feature","geometry":{"type":"Point","coordinates":[-82.4017,27.7055]},"properties":{"site":"KTBW","name":"Tampa FL","scan_time":"2026-08-11T23:59:13Z","stale":false,"bins":25,"density_birds_km3":0.6799999999999999,"heading_deg":128.85231174009928,"speed_ms":4.962306985294118,"peak_altitude_m":0.0,"u_ms":3.761305147058824,"v_ms":-3.0970496323529417}}]}