{"type":"FeatureCollection","frame":"2026-08-16T05","site_count":20,"fresh_count":20,"failures":{},"features":[{"type":"Feature","geometry":{"type":"Point","coordinates":[-77.0073,36.984]},"properties":{"site":"KAKQ","name":"Wakefield VA","scan_time":"2026-08-16T04:57:27Z","stale":false,"bins":25,"density_birds_km3":9.705625,"heading_deg":268.22068531322395,"speed_ms":4.678878871788267,"peak_altitude_m":0.0,"u_ms":-4.123396226415094,"v_ms":-0.24034644858007603}},{"type":"Feature","geometry":{"type":"Point","coordinates":[-71.1369,41.9558]},"properties":{"site":"KBOX","name":"Boston MA","scan_time":"2026-08-16T05:01:54Z","stale":false,"bins":25,"density_birds_km3":1.028125,"heading_deg":10.10849452645505,"speed_ms":2.8549725442342893,"peak_altitude_m":0.0,"u_ms":0.04214154972544227,"v_ms":0.9373642464917631}},{"type":"Feature","geometry":{"type":"Point","coordinates":[-78.7369,42.9489]},"properties":{"site":"KBUF","name":"Buffalo NY","scan_time":"2026-08-16T04:59:43Z","stale":false,"bins":25,"density_birds_km3":1.7246666666666668,"heading_deg":288.85165806107045,"speed_ms":8.640695786625436,"peak_altitude_m":200.0,"u_ms":-7.575276381909547,"v_ms":2.455867800541167}},{"type":"Feature","geometry":{"type":"Point","coordinates":[-81.8597,41.4131]},"properties":{"site":"KCLE","name":"Cleveland OH","scan_time":"2026-08-16T04:58:53Z","stale":false,"bins":25,"density_birds_km3":5.610666666666666,"heading_deg":301.24842205977245,"speed_ms":6.779031606463878,"peak_altitude_m":200.0,"u_ms":-4.865077233840304,"v_ms":3.5705346958174906}},{"type":"Feature","geometry":{"type":"Point","coordinates":[-81.0423,32.6555]},"properties":{"site":"KCLX","name":"Charleston SC","scan_time":"2026-08-16T05:02:34Z","stale":false,"bins":25,"density_birds_km3":8.988125,"heading_deg":169.18891074146288,"speed_ms":3.7092641675208666,"peak_altitude_m":0.0,"u_ms":0.5197942597744911,"v_ms":-3.247291697173817}},{"type":"Feature","geometry":{"type":"Point","coordinates":[-74.4108,39.947]},"properties":{"site":"KDIX","name":"Philadelphia PA","scan_time":"2026-08-16T04:58:49Z","stale":false,"bins":25,"density_birds_km3":2.66125,"heading_deg":251.01961073290445,"speed_ms":5.791277595115078,"peak_altitude_m":400.0,"u_ms":-2.4828205730389854,"v_ms":-2.1042484734617197}},{"type":"Feature","geometry":{"type":"Point","coordinates":[-84.5658,33.3636]},"properties":{"site":"KFFC","name":"Atlanta GA","scan_time":"2026-08-16T04:59:04Z","stale":false,"bins":25,"density_birds_km3":25.104666666666667,"heading_deg":193.5244439667475,"speed_ms":6.192094165759355,"peak_altitude_m":600.0,"u_ms":-1.765227978861832,"v_ms":-5.11961096210532}},{"type":"Feature","geometry":{"type":"Point","coordinates":[-85.5449,42.8939]},"properties":{"site":"KGRR","name":"Grand Rapids MI","scan_time":"2026-08-16T05:01:25Z","stale":false,"bins":25,"density_birds_km3":0.8326666666666667,"heading_deg":344.593079776893,"speed_ms":5.528006405124099,"peak_altitude_m":200.0,"u_ms":-1.039919935948759,"v_ms":4.87275420336269}},{"type":"Feature","geometry":{"type":"Point","coordinates":[-83.8217,39.4203]},"properties":{"site":"KILN","name":"Wilmington OH","scan_time":"2026-08-16T04:57:56Z","stale":false,"bins":25,"density_birds_km3":4.053333333333333,"heading_deg":60.58817993416062,"speed_ms":7.112021714097713,"peak_altitude_m":200.0,"u_ms":5.9468827109722,"v_ms":2.9500263201184405}},{"type":"Feature","geometry":{"type":"Point","coordinates":[-81.7019,30.4846]},"properties":{"site":"KJAX","name":"Jacksonville FL","scan_time":"2026-08-16T05:00:43Z","stale":false,"bins":25,"density_birds_km3":6.014375,"heading_deg":88.10694009336513,"speed_ms":4.983250109505037,"peak_altitude_m":200.0,"u_ms":2.7173718791064387,"v_ms":-0.5427781427945686}},{"type":"Feature","geometry":{"type":"Point","coordinates":[-88.0847,41.6045]},"properties":{"site":"KLOT","name":"Chicago IL","scan_time":"2026-08-16T05:01:04Z","stale":false,"bins":25,"density_birds_km3":1.786,"heading_deg":37.591959229549424,"speed_ms":9.430089585666295,"peak_altitude_m":200.0,"u_ms":5.563254945875326,"v_ms":7.194400895856663}},{"type":"Feature","geometry":{"type":"Point","coordinates":[-78.4292,33.9892]},"properties":{"site":"KLTX","name":"Wilmington NC","scan_time":"2026-08-16T04:58:48Z","stale":false,"bins":25,"density_birds_km3":15.246875,"heading_deg":204.65594188834652,"speed_ms":5.954224636195941,"peak_altitude_m":200.0,"u_ms":-3.095116212338594,"v_ms":-4.855207214593154}},{"type":"Feature","geometry":{"type":"Point","coordinates":[-77.4778,38.9753]},"properties":{"site":"KLWX","name":"Sterling VA","scan_time":"2026-08-16T04:58:22Z","stale":false,"bins":25,"density_birds_km3":7.09375,"heading_deg":342.5754056437863,"speed_ms":4.246954185022026,"peak_altitude_m":200.0,"u_ms":-1.2253894273127754,"v_ms":3.7434546255506604}},{"type":"Feature","geometry":{"type":"Point","coordinates":[-76.8762,34.7759]},"properties":{"site":"KMHX","name":"Morehead City NC","scan_time":"2026-08-16T04:59:22Z","stale":false,"bins":25,"density_birds_km3":7.5668750000000005,"heading_deg":240.62854689062604,"speed_ms":4.8451094408193605,"peak_altitude_m":200.0,"u_ms":-3.603724291732056,"v_ms":-2.01597918559511}},{"type":"Feature","geometry":{"type":"Point","coordinates":[-80.6542,28.1133]},"properties":{"site":"KMLB","name":"Melbourne FL","scan_time":"2026-08-16T05:01:29Z","stale":false,"bins":25,"density_birds_km3":4.338125,"heading_deg":39.14018680725232,"speed_ms":2.9976066282420746,"peak_altitude_m":0.0,"u_ms":1.7110057636887606,"v_ms":2.1017334293948124}},{"type":"Feature","geometry":{"type":"Point","coordinates":[-86.5625,36.2472]},"properties":{"site":"KOHX","name":"Nashville TN","scan_time":"2026-08-16T04:59:22Z","stale":false,"bins":25,"density_birds_km3":13.908,"heading_deg":120.9898137892133,"speed_ms":4.213389895503787,"peak_altitude_m":200.0,"u_ms":1.9056183491515672,"v_ms":-0.6198144952545298}},{"type":"Feature","geometry":{"type":"Point","coordinates":[-72.8639,40.8655]},"properties":{"site":"KOKX","name":"Upton NY","scan_time":"2026-08-16T04:56:12Z","stale":false,"bins":25,"density_birds_km3":4.65,"heading_deg":221.74015053135392,"speed_ms":5.438289029820536,"peak_altitude_m":200.0,"u_ms":-2.9688071785184187,"v_ms":-2.5953339630279313}},{"type":"Feature","geometry":{"type":"Point","coordinates":[-80.2183,40.5317]},"properties":{"site":"KPBZ","name":"Pittsburgh PA","scan_time":"2026-08-16T04:59:34Z","stale":false,"bins":25,"density_birds_km3":4.6450000000000005,"heading_deg":327.16307751341816,"speed_ms":6.0109826234045824,"peak_altitude_m":600.0,"u_ms":-2.3447900968783637,"v_ms":4.0870628940489}},{"type":"Feature","geometry":{"type":"Point","coordinates":[-78.4899,35.6655]},"properties":{"site":"KRAX","name":"Raleigh NC","scan_time":"2026-08-16T05:00:08Z","stale":false,"bins":25,"density_birds_km3":17.243125,"heading_deg":272.232033987087,"speed_ms":5.578699195866536,"peak_altitude_m":200.0,"u_ms":-4.4161801841138155,"v_ms":0.3086653567660007}},{"type":"Feature","geometry":{"type":"Point","coordinates":[-82.4017,27.7055]},"properties":{"site":"KTBW","name":"Tampa FL","scan_time":"2026-08-16T05:02:01Z","stale":false,"bins":25,"density_birds_km3":5.30875,"heading_deg":207.95055076292738,"speed_ms":3.2974864610313164,"peak_altitude_m":0.0,"u_ms":-0.6639133506004239,"v_ms":-3.064942312220391}}]}